{"type":"FeatureCollection","features":[{"type":"Feature","geometry":{"type":"Polygon","coordinates":[[[-70.12438,-20.31578],[-70.124077,-20.316504],[-70.121421,-20.322846],[-70.118953,-20.32874],[-70.115536,-20.336896],[-70.112157,-20.344966],[-70.112018,-20.345297],[-70.109842,-20.350495],[-70.1095,-20.35131],[-70.108758,-20.350895],[-70.102599,-20.347448],[-70.094042,-20.342661],[-70.088623,-20.339628],[-70.08121,-20.33548],[-70.073522,-20.331179],[-70.068378,-20.328301],[-70.059825,-20.323515],[-70.053388,-20.319913],[-70.046997,-20.316337],[-70.038446,-20.311552],[-70.033255,-20.308647],[-70.02822,-20.30583],[-70.025349,-20.306558],[-70.019624,-20.30801],[-70.011184,-20.31015],[-70.003593,-20.312076],[-70.0,-20.312987],[-69.997021,-20.313742],[-69.987579,-20.316137],[-69.982223,-20.317495],[-69.973417,-20.319728],[-69.96762,-20.321198],[-69.964712,-20.316221],[-69.963539,-20.314212],[-69.960946,-20.309772],[-69.957979,-20.304693],[-69.95718,-20.303325],[-69.953012,-20.296189],[-69.948521,-20.288501],[-69.94403,-20.280813],[-69.939539,-20.273125],[-69.935048,-20.265436],[-69.930821,-20.2582],[-69.930167,-20.25708],[-69.927056,-20.251755],[-69.926031,-20.25],[-69.924602,-20.247553],[-69.923292,-20.245311],[-69.91933,-20.238527],[-69.914839,-20.230839],[-69.913774,-20.229016],[-69.913064,-20.222835],[-69.912742,-20.220031],[-69.912391,-20.216974],[-69.911444,-20.208726],[-69.910414,-20.199759],[-69.909699,-20.193526],[-69.90887,-20.186308],[-69.90784,-20.17734],[-69.907006,-20.170074],[-69.906295,-20.163887],[-69.905265,-20.154918],[-69.904312,-20.146619],[-69.903985,-20.143771],[-69.903639,-20.140755],[-69.90269,-20.132495],[-69.90166,-20.123524],[-69.900945,-20.117295],[-69.900115,-20.110068],[-69.899085,-20.101097],[-69.898251,-20.093832],[-69.89754,-20.08764],[-69.89651,-20.078668],[-69.895556,-20.070366],[-69.895229,-20.067517],[-69.894882,-20.064498],[-69.893934,-20.056236],[-69.89305,-20.04854],[-69.895672,-20.049005],[-69.89916,-20.049623],[-69.905028,-20.050663],[-69.907702,-20.051137],[-69.914386,-20.052322],[-69.916244,-20.052652],[-69.923746,-20.053982],[-69.924786,-20.054166],[-69.933107,-20.055641],[-69.933328,-20.05568],[-69.942156,-20.057245],[-69.95109,-20.058829],[-69.960025,-20.060413],[-69.96896,-20.061997],[-69.977897,-20.063582],[-69.986834,-20.065166],[-69.995771,-20.06675],[-70.0,-20.0675],[-70.004709,-20.068335],[-70.013648,-20.06992],[-70.022588,-20.071504],[-70.031528,-20.073089],[-70.040469,-20.074674],[-70.049411,-20.07626],[-70.058353,-20.077845],[-70.067296,-20.07943],[-70.07624,-20.081016],[-70.085185,-20.082601],[-70.09413,-20.084187],[-70.09894,-20.08504],[-70.099257,-20.087771],[-70.100087,-20.094929],[-70.100818,-20.101236],[-70.10186,-20.110212],[-70.1023,-20.11401],[-70.104304,-20.118668],[-70.107777,-20.126742],[-70.111251,-20.134815],[-70.114724,-20.142889],[-70.118197,-20.150962],[-70.120028,-20.155217],[-70.118649,-20.157066],[-70.113515,-20.163948],[-70.108382,-20.17083],[-70.107819,-20.171585],[-70.108229,-20.178053],[-70.108808,-20.187197],[-70.109057,-20.191138],[-70.109179,-20.192864],[-70.109743,-20.200887],[-70.110077,-20.205635],[-70.110301,-20.20978],[-70.110377,-20.211192],[-70.110602,-20.215364],[-70.110818,-20.219372],[-70.110951,-20.223831],[-70.111191,-20.231879],[-70.111242,-20.233589],[-70.112167,-20.233615],[-70.119097,-20.23381],[-70.118771,-20.235721],[-70.118586,-20.236807],[-70.118612,-20.237708],[-70.11882,-20.23876],[-70.119049,-20.239546],[-70.119144,-20.23987],[-70.119582,-20.240959],[-70.11984,-20.24148],[-70.119881,-20.242048],[-70.11985,-20.2422],[-70.11916,-20.24337],[-70.11857,-20.24415],[-70.11818,-20.24455],[-70.11769,-20.24479],[-70.11708,-20.24481],[-70.11664,-20.24508],[-70.11663,-20.24518],[-70.11676,-20.24552],[-70.11672,-20.24601],[-70.116623,-20.246157],[-70.116403,-20.246491],[-70.11637,-20.24654],[-70.11617,-20.24675],[-70.115847,-20.247415],[-70.115596,-20.247799],[-70.1154,-20.24809],[-70.11509,-20.24845],[-70.11385,-20.24889],[-70.112878,-20.249017],[-70.112194,-20.249128],[-70.11129,-20.24928],[-70.11068,-20.24955],[-70.11057,-20.24973],[-70.11068,-20.2499],[-70.11091,-20.25],[-70.11091,-20.25],[-70.11132,-20.25018],[-70.1116,-20.2506],[-70.11172,-20.25116],[-70.11162,-20.25179],[-70.111522,-20.25194],[-70.11116,-20.25249],[-70.110958,-20.253135],[-70.1109,-20.25332],[-70.11096,-20.25364],[-70.11112,-20.25408],[-70.11109,-20.25482],[-70.11101,-20.25517],[-70.11094,-20.2557],[-70.11118,-20.25736],[-70.111123,-20.25821],[-70.11107,-20.25901],[-70.11094,-20.259457],[-70.11067,-20.26039],[-70.110585,-20.260862],[-70.110483,-20.261423],[-70.11046,-20.26155],[-70.11011,-20.26195],[-70.10963,-20.26228],[-70.10927,-20.26226],[-70.109052,-20.262396],[-70.10882,-20.26254],[-70.10875,-20.26283],[-70.10881,-20.26307],[-70.108958,-20.263359],[-70.109017,-20.26341],[-70.10939,-20.26374],[-70.10995,-20.26416],[-70.1104,-20.26464],[-70.1106,-20.26523],[-70.110643,-20.268971],[-70.110644,-20.269061],[-70.110669,-20.271134],[-70.110726,-20.272066],[-70.11084,-20.27303],[-70.110861,-20.274534],[-70.10991,-20.27453],[-70.110262,-20.275534],[-70.113167,-20.283814],[-70.116071,-20.292093],[-70.118975,-20.300372],[-70.121879,-20.308651],[-70.12438,-20.31578]]]},"properties":{"comuna":"Alto Hospicio","mancha_id":"01107-88b3030611fffff","clase":"Muy Bajo","nivel_medio":0.009,"nivel_medio_min":0.0,"nivel_medio_max":0.467,"pct_alto":0.1,"n_hexagonos":802,"area_ha":57147.94}}],"bbox":[-70.12438,-20.35132,-69.89305,-20.04854]}