{"type":"FeatureCollection","features":[{"type":"Feature","geometry":{"type":"Polygon","coordinates":[[[-69.419749,-23.611434],[-69.418025,-23.612718],[-69.414638,-23.615238],[-69.40867,-23.61968],[-69.401645,-23.62491],[-69.39462,-23.630138],[-69.389089,-23.634256],[-69.384315,-23.637809],[-69.383979,-23.638059],[-69.377061,-23.643208],[-69.370038,-23.648435],[-69.363539,-23.653273],[-69.361867,-23.654517],[-69.35843,-23.657076],[-69.352484,-23.661501],[-69.351045,-23.662572],[-69.343865,-23.662666],[-69.33463,-23.662786],[-69.326254,-23.662895],[-69.323661,-23.662928],[-69.31935,-23.662984],[-69.311544,-23.663086],[-69.302311,-23.663206],[-69.293078,-23.663326],[-69.284843,-23.663433],[-69.281832,-23.663472],[-69.277944,-23.663523],[-69.27,-23.663626],[-69.26077,-23.663746],[-69.25154,-23.663866],[-69.25,-23.663886],[-69.243461,-23.663971],[-69.239984,-23.664016],[-69.236567,-23.664061],[-69.228469,-23.664166],[-69.219241,-23.664286],[-69.210014,-23.664406],[-69.202107,-23.664508],[-69.198115,-23.66456],[-69.195218,-23.664598],[-69.18695,-23.664706],[-69.177726,-23.664825],[-69.168502,-23.664945],[-69.160783,-23.665046],[-69.156227,-23.665105],[-69.153898,-23.665135],[-69.145445,-23.665245],[-69.141701,-23.665294],[-69.13604,-23.667483],[-69.131088,-23.669399],[-69.122213,-23.672832],[-69.116538,-23.675027],[-69.108388,-23.678179],[-69.101988,-23.680655],[-69.094566,-23.683526],[-69.08744,-23.686283],[-69.080747,-23.688871],[-69.079734,-23.689263],[-69.074103,-23.69435],[-69.067777,-23.700064],[-69.061911,-23.705363],[-69.060748,-23.706414],[-69.056686,-23.710083],[-69.052738,-23.713649],[-69.05146,-23.714804],[-69.045641,-23.72006],[-69.039317,-23.725773],[-69.032995,-23.731484],[-69.026672,-23.737195],[-69.020351,-23.742906],[-69.014883,-23.747845],[-69.012723,-23.749796],[-69.012497,-23.75],[-69.009657,-23.752565],[-69.004727,-23.757019],[-69.004432,-23.757286],[-69.0,-23.761289],[-68.998229,-23.762889],[-68.991909,-23.768598],[-68.985591,-23.774305],[-68.979273,-23.780013],[-68.973079,-23.785608],[-68.972765,-23.785891],[-68.967854,-23.790328],[-68.964781,-23.793104],[-68.962628,-23.795048],[-68.957163,-23.799985],[-68.950848,-23.80569],[-68.944532,-23.811395],[-68.938218,-23.817099],[-68.931904,-23.822802],[-68.926049,-23.828092],[-68.924891,-23.829137],[-68.920823,-23.832812],[-68.91692,-23.836338],[-68.915597,-23.837533],[-68.909809,-23.842761],[-68.903498,-23.848463],[-68.897187,-23.854164],[-68.890876,-23.859864],[-68.884566,-23.865564],[-68.879017,-23.870577],[-68.877099,-23.872309],[-68.874013,-23.875097],[-68.87381,-23.875153],[-68.865576,-23.877407],[-68.859497,-23.879071],[-68.850281,-23.881594],[-68.845206,-23.882983],[-68.845184,-23.882989],[-68.835645,-23.885601],[-68.829894,-23.887175],[-68.821335,-23.889518],[-68.814607,-23.89136],[-68.807026,-23.893435],[-68.799323,-23.895544],[-68.792718,-23.897352],[-68.784043,-23.899727],[-68.778412,-23.901268],[-68.768875,-23.903879],[-68.763675,-23.905302],[-68.75457,-23.907795],[-68.75,-23.909046],[-68.748402,-23.909483],[-68.740267,-23.91171],[-68.733133,-23.913663],[-68.725965,-23.915625],[-68.717867,-23.917842],[-68.711664,-23.91954],[-68.702605,-23.92202],[-68.69855,-23.92313],[-68.698555,-23.922921],[-68.698596,-23.921241],[-68.698481,-23.919895],[-68.698111,-23.917304],[-68.697753,-23.914151],[-68.697708,-23.913755],[-68.697709,-23.9124],[-68.697371,-23.911442],[-68.696877,-23.910147],[-68.696569,-23.909283],[-68.696322,-23.908173],[-68.696199,-23.906815],[-68.696199,-23.906815],[-68.696137,-23.905766],[-68.696019,-23.905133],[-68.695829,-23.904224],[-68.695472,-23.903263],[-68.695212,-23.902558],[-68.694533,-23.901263],[-68.694112,-23.900234],[-68.693755,-23.899863],[-68.693628,-23.899685],[-68.693264,-23.899176],[-68.692774,-23.89826],[-68.692479,-23.897704],[-68.692316,-23.897115],[-68.691988,-23.896395],[-68.691841,-23.896085],[-68.691639,-23.89566],[-68.691244,-23.89499],[-68.691,-23.89463],[-68.690696,-23.894224],[-68.690681,-23.893846],[-68.690623,-23.893469],[-68.690451,-23.892894],[-68.690333,-23.892391],[-68.690226,-23.891932],[-68.690222,-23.891913],[-68.689993,-23.890997],[-68.689764,-23.890048],[-68.689633,-23.889361],[-68.689109,-23.888379],[-68.688815,-23.887594],[-68.688741,-23.887397],[-68.688499,-23.886742],[-68.688488,-23.886711],[-68.688226,-23.885729],[-68.688096,-23.885131],[-68.688062,-23.884977],[-68.687866,-23.884061],[-68.687702,-23.883112],[-68.687441,-23.882294],[-68.687375,-23.881803],[-68.687212,-23.881378],[-68.687081,-23.881116],[-68.686917,-23.880724],[-68.686721,-23.880102],[-68.68659,-23.879186],[-68.686525,-23.878564],[-68.6866,-23.877842],[-68.686947,-23.877085],[-68.686973,-23.877028],[-68.687177,-23.876078],[-68.687414,-23.875263],[-68.687516,-23.874381],[-68.687448,-23.873567],[-68.687212,-23.872642],[-68.687212,-23.871792],[-68.686983,-23.870974],[-68.686623,-23.869763],[-68.686263,-23.868847],[-68.686053,-23.868343],[-68.685936,-23.868062],[-68.68551,-23.867179],[-68.685085,-23.866164],[-68.68466,-23.864987],[-68.684431,-23.863972],[-68.684234,-23.863056],[-68.684104,-23.86214],[-68.683977,-23.861225],[-68.683973,-23.861191],[-68.683973,-23.860504],[-68.684104,-23.859981],[-68.684234,-23.859523],[-68.684333,-23.859326],[-68.684463,-23.859032],[-68.684823,-23.858738],[-68.685529,-23.85835],[-68.686263,-23.857723],[-68.687212,-23.856709],[-68.68803,-23.85576],[-68.688619,-23.855139],[-68.688999,-23.854578],[-68.68924,-23.854223],[-68.690189,-23.852685],[-68.690941,-23.851409],[-68.691465,-23.850525],[-68.691923,-23.849315],[-68.69225,-23.848497],[-68.692394,-23.848144],[-68.69261,-23.847614],[-68.692806,-23.84673],[-68.692774,-23.845193],[-68.692676,-23.843655],[-68.692643,-23.842771],[-68.692741,-23.841823],[-68.692713,-23.841742],[-68.692491,-23.841115],[-68.692526,-23.840586],[-68.692703,-23.840091],[-68.692868,-23.839385],[-68.692902,-23.838574],[-68.6927,-23.837684],[-68.692381,-23.837013],[-68.691998,-23.835955],[-68.692054,-23.835214],[-68.691983,-23.834718],[-68.691923,-23.834298],[-68.691858,-23.833054],[-68.691727,-23.83276],[-68.69153,-23.832498],[-68.691334,-23.831975],[-68.691171,-23.831648],[-68.690909,-23.831288],[-68.690843,-23.830764],[-68.690745,-23.830273],[-68.690632,-23.829871],[-68.690418,-23.829423],[-68.690189,-23.828899],[-68.689895,-23.828408],[-68.689772,-23.828181],[-68.689731,-23.827852],[-68.689745,-23.826781],[-68.689816,-23.826399],[-68.689926,-23.825809],[-68.690039,-23.825063],[-68.690174,-23.82443],[-68.690287,-23.824046],[-68.690451,-23.823566],[-68.690582,-23.822519],[-68.690614,-23.821211],[-68.690199,-23.819531],[-68.690305,-23.81911],[-68.690409,-23.818694],[-68.690409,-23.817743],[-68.68996,-23.816172],[-68.689535,-23.815322],[-68.689371,-23.8147],[-68.689306,-23.814209],[-68.68924,-23.813457],[-68.689299,-23.813006],[-68.689354,-23.812591],[-68.689404,-23.811853],[-68.689338,-23.811068],[-68.689207,-23.810316],[-68.689011,-23.809792],[-68.688684,-23.809203],[-68.68852,-23.808647],[-68.688488,-23.808124],[-68.688619,-23.807731],[-68.688946,-23.807338],[-68.689306,-23.806946],[-68.689567,-23.806586],[-68.689796,-23.805932],[-68.68996,-23.805375],[-68.690058,-23.804721],[-68.690025,-23.804034],[-68.689976,-23.803735],[-68.68996,-23.803641],[-68.689993,-23.803282],[-68.690124,-23.802856],[-68.690189,-23.802431],[-68.690156,-23.801777],[-68.690025,-23.801024],[-68.689895,-23.800304],[-68.689788,-23.799316],[-68.689666,-23.798636],[-68.689502,-23.797949],[-68.689458,-23.797644],[-68.689404,-23.797262],[-68.689469,-23.796313],[-68.6896,-23.795135],[-68.689633,-23.794055],[-68.689535,-23.793499],[-68.689273,-23.792976],[-68.68888,-23.792583],[-68.687997,-23.791863],[-68.68767,-23.79134],[-68.687591,-23.790964],[-68.687539,-23.790718],[-68.687375,-23.789671],[-68.687441,-23.788788],[-68.687408,-23.788003],[-68.68731,-23.787446],[-68.687114,-23.787152],[-68.686623,-23.786661],[-68.686309,-23.786274],[-68.686216,-23.786073],[-68.686245,-23.785734],[-68.686328,-23.785451],[-68.686394,-23.784796],[-68.686557,-23.784175],[-68.687146,-23.7835],[-68.687055,-23.782912],[-68.686988,-23.782347],[-68.686903,-23.782148],[-68.686739,-23.78176],[-68.686501,-23.780979],[-68.686394,-23.780248],[-68.68623,-23.779431],[-68.686034,-23.778547],[-68.685889,-23.777684],[-68.685609,-23.776911],[-68.685281,-23.776257],[-68.685034,-23.77568],[-68.684814,-23.775391],[-68.684444,-23.77524],[-68.683866,-23.775215],[-68.683744,-23.77485],[-68.683744,-23.774158],[-68.683744,-23.773967],[-68.68358,-23.772691],[-68.683515,-23.771546],[-68.683299,-23.770727],[-68.683148,-23.770056],[-68.682882,-23.769281],[-68.682599,-23.768667],[-68.682239,-23.767587],[-68.681968,-23.767221],[-68.681783,-23.766978],[-68.681574,-23.766712],[-68.68132,-23.766492],[-68.681516,-23.765936],[-68.681525,-23.765853],[-68.681583,-23.765323],[-68.681552,-23.76474],[-68.681388,-23.763857],[-68.681126,-23.762941],[-68.680832,-23.762287],[-68.680505,-23.761501],[-68.680406,-23.76088],[-68.680276,-23.760258],[-68.680014,-23.759931],[-68.679556,-23.759669],[-68.679196,-23.759637],[-68.678672,-23.75944],[-68.678476,-23.759048],[-68.678214,-23.758197],[-68.678136,-23.75794],[-68.677855,-23.757019],[-68.677266,-23.75571],[-68.676742,-23.754402],[-68.676546,-23.753911],[-68.676513,-23.753518],[-68.676284,-23.753126],[-68.67599,-23.752635],[-68.675766,-23.751648],[-68.675898,-23.751052],[-68.675876,-23.750993],[-68.6756,-23.750257],[-68.67527,-23.75],[-68.675003,-23.749793],[-68.674785,-23.74895],[-68.674772,-23.748898],[-68.674517,-23.74812],[-68.674583,-23.747171],[-68.674746,-23.746157],[-68.675237,-23.745372],[-68.675266,-23.745348],[-68.675307,-23.745314],[-68.675793,-23.744914],[-68.676317,-23.744227],[-68.676775,-23.743343],[-68.677135,-23.742329],[-68.677593,-23.741675],[-68.678182,-23.741221],[-68.678711,-23.740833],[-68.679081,-23.740445],[-68.679258,-23.739986],[-68.679399,-23.739492],[-68.679275,-23.73868],[-68.67917,-23.737832],[-68.679131,-23.73752],[-68.678607,-23.736538],[-68.678116,-23.73572],[-68.676895,-23.734976],[-68.676824,-23.734237],[-68.677348,-23.733569],[-68.677364,-23.73235],[-68.677097,-23.731638],[-68.676971,-23.731303],[-68.676219,-23.730518],[-68.675923,-23.730185],[-68.675695,-23.729929],[-68.675237,-23.729209],[-68.675011,-23.728703],[-68.675204,-23.727835],[-68.675237,-23.726985],[-68.675008,-23.726101],[-68.674616,-23.725087],[-68.674256,-23.724204],[-68.674027,-23.723353],[-68.67393,-23.723151],[-68.673667,-23.7226],[-68.673209,-23.721913],[-68.672652,-23.721324],[-68.67226,-23.72067],[-68.671769,-23.719819],[-68.671246,-23.718576],[-68.670657,-23.717202],[-68.670199,-23.716221],[-68.670038,-23.715786],[-68.66987,-23.715334],[-68.66988,-23.715228],[-68.669937,-23.714617],[-68.670068,-23.713799],[-68.669806,-23.712785],[-68.669512,-23.711738],[-68.669283,-23.711018],[-68.669119,-23.710528],[-68.669184,-23.709873],[-68.669086,-23.709252],[-68.668759,-23.708565],[-68.668465,-23.707649],[-68.668092,-23.707005],[-68.667745,-23.706405],[-68.66732,-23.705587],[-68.6666,-23.704802],[-68.666338,-23.703951],[-68.666109,-23.702872],[-68.665782,-23.702054],[-68.665324,-23.700811],[-68.66516,-23.699535],[-68.665075,-23.698965],[-68.665062,-23.69888],[-68.665356,-23.69839],[-68.66554,-23.697758],[-68.66616,-23.696829],[-68.666469,-23.696107],[-68.666813,-23.695419],[-68.666917,-23.694249],[-68.667179,-23.692353],[-68.667226,-23.692013],[-68.667846,-23.690499],[-68.668534,-23.689467],[-68.669359,-23.687987],[-68.670559,-23.686926],[-68.672413,-23.685855],[-68.673247,-23.685372],[-68.674279,-23.684719],[-68.67569,-23.684237],[-68.676445,-23.684259],[-68.677017,-23.684078],[-68.677198,-23.683324],[-68.677441,-23.68241],[-68.677762,-23.68203],[-68.677961,-23.681794],[-68.678012,-23.681169],[-68.677997,-23.68043],[-68.677908,-23.679552],[-68.677828,-23.678775],[-68.677823,-23.676909],[-68.676573,-23.674315],[-68.67609,-23.672639],[-68.67559,-23.670902],[-68.675656,-23.667757],[-68.675455,-23.665928],[-68.674975,-23.66417],[-68.674914,-23.663979],[-68.674177,-23.661694],[-68.674097,-23.659538],[-68.673937,-23.658819],[-68.673728,-23.65785],[-68.673635,-23.657445],[-68.673697,-23.657141],[-68.674097,-23.655943],[-68.674132,-23.655863],[-68.674472,-23.655079],[-68.675215,-23.654186],[-68.676812,-23.653307],[-68.67841,-23.652349],[-68.679768,-23.651071],[-68.68033,-23.650086],[-68.680407,-23.649952],[-68.680487,-23.649074],[-68.680487,-23.648035],[-68.680647,-23.646997],[-68.680647,-23.646278],[-68.680304,-23.645095],[-68.680337,-23.644106],[-68.680387,-23.644031],[-68.680799,-23.643413],[-68.68169,-23.642951],[-68.682803,-23.642364],[-68.684046,-23.64167],[-68.684538,-23.641472],[-68.684882,-23.641333],[-68.68539,-23.641095],[-68.685867,-23.640984],[-68.686189,-23.640886],[-68.686319,-23.640805],[-68.68647,-23.639921],[-68.686533,-23.639333],[-68.686549,-23.638524],[-68.686565,-23.637539],[-68.686565,-23.637429],[-68.686565,-23.636396],[-68.686613,-23.635539],[-68.686667,-23.634949],[-68.686932,-23.634552],[-68.686617,-23.633961],[-68.686533,-23.633285],[-68.686343,-23.632523],[-68.686121,-23.631713],[-68.68574,-23.63119],[-68.68566,-23.630539],[-68.685676,-23.629856],[-68.686046,-23.629225],[-68.686409,-23.628631],[-68.686412,-23.628575],[-68.686442,-23.628037],[-68.686771,-23.627113],[-68.687035,-23.62609],[-68.687299,-23.625496],[-68.687502,-23.624427],[-68.687674,-23.623469],[-68.687676,-23.623459],[-68.687867,-23.62276],[-68.68802,-23.622047],[-68.68802,-23.621066],[-68.687836,-23.619941],[-68.687985,-23.61875],[-68.688084,-23.618055],[-68.68801,-23.61751],[-68.68801,-23.61689],[-68.688059,-23.615873],[-68.688183,-23.615501],[-68.688282,-23.615228],[-68.688431,-23.614533],[-68.688445,-23.614453],[-68.688605,-23.613541],[-68.688679,-23.612847],[-68.688729,-23.612202],[-68.688605,-23.611855],[-68.688511,-23.61166],[-68.688282,-23.611185],[-68.688034,-23.610416],[-68.687588,-23.609697],[-68.687042,-23.608655],[-68.686647,-23.607887],[-68.686621,-23.607836],[-68.686125,-23.606844],[-68.685901,-23.605827],[-68.685703,-23.604984],[-68.68543,-23.604141],[-68.685455,-23.60357],[-68.685777,-23.603074],[-68.685976,-23.602454],[-68.686174,-23.601759],[-68.686155,-23.601331],[-68.686149,-23.601189],[-68.685901,-23.600693],[-68.685455,-23.600271],[-68.685207,-23.59975],[-68.685207,-23.599329],[-68.685281,-23.598957],[-68.685455,-23.598287],[-68.685703,-23.597964],[-68.686497,-23.596923],[-68.686769,-23.596228],[-68.687489,-23.595211],[-68.688233,-23.594542],[-68.688882,-23.593914],[-68.689841,-23.592986],[-68.690991,-23.591351],[-68.691778,-23.589535],[-68.692323,-23.5879],[-68.692868,-23.58681],[-68.692962,-23.586542],[-68.693292,-23.585599],[-68.693595,-23.58463],[-68.693837,-23.583782],[-68.69414,-23.582934],[-68.694927,-23.581844],[-68.696744,-23.580209],[-68.697465,-23.579488],[-68.698318,-23.578635],[-68.699287,-23.577545],[-68.699832,-23.576636],[-68.700983,-23.575728],[-68.702921,-23.574214],[-68.703653,-23.573697],[-68.706009,-23.572034],[-68.707886,-23.570036],[-68.708673,-23.567311],[-68.708682,-23.567035],[-68.708734,-23.565433],[-68.708526,-23.564676],[-68.708367,-23.564098],[-68.707661,-23.563224],[-68.70716,-23.562103],[-68.707405,-23.560857],[-68.707549,-23.560121],[-68.707475,-23.55882],[-68.706938,-23.557226],[-68.706249,-23.556107],[-68.705271,-23.55523],[-68.705214,-23.555112],[-68.704885,-23.55444],[-68.704991,-23.553826],[-68.705271,-23.552202],[-68.705271,-23.549269],[-68.705555,-23.546619],[-68.705301,-23.545046],[-68.705082,-23.543686],[-68.705271,-23.541037],[-68.705346,-23.538754],[-68.704937,-23.538128],[-68.704798,-23.537914],[-68.703946,-23.535833],[-68.703296,-23.535074],[-68.702811,-23.534508],[-68.699499,-23.533846],[-68.69808,-23.533846],[-68.695336,-23.533278],[-68.694452,-23.532625],[-68.694393,-23.532581],[-68.693822,-23.531386],[-68.693989,-23.529907],[-68.694035,-23.529502],[-68.694257,-23.52754],[-68.695735,-23.523659],[-68.696467,-23.521327],[-68.697487,-23.518075],[-68.698592,-23.515708],[-68.698825,-23.515495],[-68.700414,-23.514038],[-68.70118,-23.512978],[-68.701726,-23.512222],[-68.701786,-23.511963],[-68.702129,-23.510506],[-68.702158,-23.509838],[-68.702198,-23.508944],[-68.702532,-23.507539],[-68.702502,-23.506736],[-68.702408,-23.506269],[-68.701572,-23.505287],[-68.700709,-23.50464],[-68.699308,-23.504047],[-68.698681,-23.503968],[-68.698286,-23.503816],[-68.698205,-23.503785],[-68.698036,-23.503382],[-68.697834,-23.501471],[-68.697799,-23.501137],[-68.697829,-23.5],[-68.697907,-23.497094],[-68.698068,-23.493321],[-68.698119,-23.493062],[-68.698553,-23.490842],[-68.699308,-23.487015],[-68.699318,-23.486921],[-68.69947,-23.485505],[-68.700117,-23.483619],[-68.701033,-23.481463],[-68.701356,-23.47866],[-68.70136,-23.478366],[-68.70141,-23.474456],[-68.701195,-23.473539],[-68.701499,-23.472892],[-68.701626,-23.472623],[-68.702219,-23.471491],[-68.702973,-23.470467],[-68.703027,-23.469174],[-68.703027,-23.466964],[-68.702434,-23.464754],[-68.702333,-23.464431],[-68.702165,-23.463891],[-68.701464,-23.462813],[-68.700871,-23.461304],[-68.700063,-23.458447],[-68.699524,-23.457315],[-68.699047,-23.456468],[-68.699039,-23.456453],[-68.698877,-23.456022],[-68.698877,-23.455159],[-68.699039,-23.454297],[-68.699146,-23.453704],[-68.699685,-23.453488],[-68.700224,-23.453111],[-68.700467,-23.452957],[-68.700817,-23.452734],[-68.701572,-23.452195],[-68.702596,-23.451063],[-68.703167,-23.450543],[-68.704429,-23.449392],[-68.705673,-23.448277],[-68.705992,-23.447991],[-68.706585,-23.446913],[-68.7068,-23.445781],[-68.707231,-23.444649],[-68.707229,-23.444635],[-68.707016,-23.443193],[-68.706261,-23.442331],[-68.705938,-23.441684],[-68.705668,-23.441145],[-68.705345,-23.440822],[-68.704914,-23.440444],[-68.704914,-23.439905],[-68.705129,-23.439205],[-68.705399,-23.438504],[-68.70556,-23.437749],[-68.705507,-23.436671],[-68.705403,-23.436179],[-68.705291,-23.435647],[-68.705021,-23.433922],[-68.70486,-23.432305],[-68.704806,-23.43112],[-68.704806,-23.429179],[-68.704749,-23.428322],[-68.704644,-23.426754],[-68.704593,-23.422841],[-68.70459,-23.422657],[-68.704321,-23.4198],[-68.704536,-23.417321],[-68.704698,-23.416081],[-68.705129,-23.414087],[-68.705237,-23.413549],[-68.70556,-23.411931],[-68.706099,-23.409991],[-68.706259,-23.409378],[-68.706423,-23.408751],[-68.706432,-23.408607],[-68.706531,-23.40708],[-68.706746,-23.404061],[-68.706962,-23.401744],[-68.707986,-23.399695],[-68.708144,-23.399523],[-68.709765,-23.397755],[-68.711058,-23.397108],[-68.712783,-23.396893],[-68.713807,-23.396569],[-68.714185,-23.396138],[-68.714939,-23.394521],[-68.71505,-23.39426],[-68.716017,-23.391988],[-68.717041,-23.389239],[-68.717372,-23.388235],[-68.717796,-23.387029],[-68.71775,-23.38663],[-68.71758,-23.385142],[-68.71688,-23.383795],[-68.715748,-23.382663],[-68.712999,-23.380884],[-68.711328,-23.379806],[-68.71121,-23.379763],[-68.709395,-23.379089],[-68.708795,-23.378027],[-68.707663,-23.376303],[-68.706268,-23.374818],[-68.70546,-23.373958],[-68.703744,-23.370931],[-68.703067,-23.369576],[-68.702533,-23.368508],[-68.702527,-23.36849],[-68.70156,-23.365586],[-68.701825,-23.363416],[-68.701969,-23.362231],[-68.702222,-23.357431],[-68.702034,-23.355629],[-68.701801,-23.353388],[-68.701305,-23.350804],[-68.700285,-23.347493],[-68.700151,-23.347186],[-68.698853,-23.344208],[-68.696327,-23.340502],[-68.695597,-23.339647],[-68.693884,-23.337639],[-68.691424,-23.335263],[-68.689813,-23.332523],[-68.689806,-23.332511],[-68.688999,-23.330059],[-68.688488,-23.328433],[-68.688677,-23.327673],[-68.688915,-23.326606],[-68.688747,-23.32408],[-68.688611,-23.323849],[-68.687905,-23.322648],[-68.687573,-23.321623],[-68.687515,-23.320677],[-68.687921,-23.319925],[-68.688494,-23.319195],[-68.689421,-23.317679],[-68.68949,-23.317546],[-68.690515,-23.315573],[-68.691021,-23.312373],[-68.690279,-23.309662],[-68.690001,-23.308643],[-68.689673,-23.305551],[-68.689252,-23.30168],[-68.689252,-23.301677],[-68.688859,-23.298926],[-68.688831,-23.298729],[-68.688106,-23.295588],[-68.688073,-23.295445],[-68.68782,-23.29275],[-68.687568,-23.290307],[-68.68812,-23.287686],[-68.688242,-23.287107],[-68.687484,-23.284833],[-68.686052,-23.284075],[-68.684283,-23.283317],[-68.682936,-23.282643],[-68.682515,-23.282643],[-68.682346,-23.280622],[-68.682344,-23.280559],[-68.682262,-23.278264],[-68.682346,-23.2754],[-68.681251,-23.272958],[-68.680684,-23.272037],[-68.679904,-23.270768],[-68.678725,-23.269252],[-68.67763,-23.267821],[-68.676703,-23.267063],[-68.676411,-23.26673],[-68.676367,-23.266557],[-68.676282,-23.264873],[-68.676202,-23.264471],[-68.675945,-23.263189],[-68.671513,-23.257115],[-68.671251,-23.256756],[-68.670269,-23.255411],[-68.667547,-23.252501],[-68.665207,-23.25],[-68.662816,-23.247443],[-68.66183,-23.246628],[-68.655362,-23.241275],[-68.655311,-23.241215],[-68.651343,-23.236554],[-68.650535,-23.235605],[-68.647665,-23.232651],[-68.64699,-23.231047],[-68.647243,-23.229021],[-68.647272,-23.228848],[-68.647581,-23.226996],[-68.648126,-23.226377],[-68.649635,-23.224663],[-68.649984,-23.223386],[-68.650222,-23.222513],[-68.64868,-23.217115],[-68.647771,-23.215049],[-68.645852,-23.21069],[-68.642444,-23.207768],[-68.642254,-23.207606],[-68.639509,-23.205322],[-68.637342,-23.204187],[-68.636385,-23.203687],[-68.633183,-23.200882],[-68.630963,-23.198108],[-68.630919,-23.198046],[-68.629215,-23.195647],[-68.628387,-23.194145],[-68.627633,-23.192336],[-68.627855,-23.190783],[-68.627494,-23.19012],[-68.627189,-23.189562],[-68.626231,-23.188487],[-68.624968,-23.188397],[-68.624295,-23.187879],[-68.623622,-23.186895],[-68.622275,-23.185652],[-68.621616,-23.184772],[-68.621032,-23.183995],[-68.620825,-23.1827],[-68.620814,-23.182157],[-68.620798,-23.181352],[-68.620853,-23.180074],[-68.62067,-23.17866],[-68.620152,-23.177676],[-68.619531,-23.176485],[-68.619168,-23.175501],[-68.619418,-23.174683],[-68.619563,-23.174208],[-68.61977,-23.173041],[-68.620289,-23.17177],[-68.621767,-23.169851],[-68.62322,-23.168266],[-68.624905,-23.166428],[-68.628678,-23.161908],[-68.632169,-23.157726],[-68.633753,-23.155261],[-68.634715,-23.153765],[-68.637732,-23.148296],[-68.638016,-23.148],[-68.639901,-23.146033],[-68.641504,-23.14311],[-68.642126,-23.140624],[-68.642164,-23.140469],[-68.643107,-23.138678],[-68.643484,-23.137357],[-68.644239,-23.136697],[-68.645182,-23.13632],[-68.646767,-23.136034],[-68.647519,-23.13536],[-68.647761,-23.134396],[-68.647822,-23.134151],[-68.648671,-23.133208],[-68.649331,-23.13236],[-68.65084,-23.131134],[-68.65216,-23.130002],[-68.653857,-23.128776],[-68.654048,-23.128659],[-68.655206,-23.127945],[-68.656875,-23.126325],[-68.657346,-23.125382],[-68.65744,-23.123967],[-68.657723,-23.122741],[-68.658329,-23.121409],[-68.658666,-23.120667],[-68.658761,-23.118969],[-68.658572,-23.117461],[-68.658143,-23.116364],[-68.657959,-23.115893],[-68.657723,-23.115292],[-68.657346,-23.114255],[-68.65701,-23.113631],[-68.656812,-23.113273],[-68.656741,-23.112785],[-68.657074,-23.112435],[-68.658076,-23.111432],[-68.658788,-23.110786],[-68.659725,-23.109525],[-68.660598,-23.108394],[-68.66117,-23.107837],[-68.66131,-23.1077],[-68.66167,-23.107394],[-68.661932,-23.107131],[-68.662242,-23.106774],[-68.66248,-23.10625],[-68.662695,-23.106035],[-68.663386,-23.105487],[-68.663671,-23.105344],[-68.664672,-23.105178],[-68.665482,-23.105225],[-68.666245,-23.105297],[-68.666697,-23.105249],[-68.667388,-23.105178],[-68.668294,-23.104894],[-68.668604,-23.104773],[-68.668838,-23.104714],[-68.669366,-23.104582],[-68.669771,-23.104534],[-68.670534,-23.104606],[-68.671082,-23.104749],[-68.671301,-23.1048],[-68.67163,-23.104677],[-68.672035,-23.10432],[-68.672559,-23.103915],[-68.673226,-23.103605],[-68.673822,-23.103367],[-68.674274,-23.103129],[-68.674679,-23.10289],[-68.675027,-23.102559],[-68.67518,-23.102414],[-68.675299,-23.101961],[-68.675442,-23.101508],[-68.675728,-23.101223],[-68.676133,-23.100984],[-68.676705,-23.100841],[-68.6773,-23.100627],[-68.677896,-23.100341],[-68.678825,-23.100198],[-68.679411,-23.100207],[-68.679934,-23.100241],[-68.680545,-23.100281],[-68.681726,-23.100358],[-68.682113,-23.100341],[-68.682852,-23.100389],[-68.683133,-23.100427],[-68.6839,-23.100532],[-68.68452,-23.100651],[-68.68533,-23.100532],[-68.686164,-23.100603],[-68.686831,-23.100937],[-68.687505,-23.101215],[-68.688117,-23.101675],[-68.688902,-23.101945],[-68.689642,-23.102176],[-68.69031,-23.102485],[-68.690953,-23.102795],[-68.691715,-23.103129],[-68.691913,-23.103237],[-68.692239,-23.103415],[-68.692787,-23.10351],[-68.693359,-23.103605],[-68.693979,-23.1037],[-68.694598,-23.103891],[-68.695027,-23.103939],[-68.695694,-23.104248],[-68.696361,-23.104368],[-68.696743,-23.104511],[-68.697553,-23.104868],[-68.698268,-23.105178],[-68.699554,-23.105821],[-68.700689,-23.106091],[-68.703822,-23.106835],[-68.705118,-23.107392],[-68.705443,-23.107672],[-68.706328,-23.108137],[-68.706777,-23.108631],[-68.706793,-23.108649],[-68.707398,-23.109254],[-68.70777,-23.109998],[-68.708282,-23.11051],[-68.709399,-23.110603],[-68.710562,-23.110417],[-68.711679,-23.110278],[-68.71261,-23.110231],[-68.713029,-23.110213],[-68.71368,-23.110185],[-68.714555,-23.110253],[-68.715015,-23.110377],[-68.715206,-23.110429],[-68.716426,-23.110743],[-68.71745,-23.110929],[-68.71866,-23.110836],[-68.719032,-23.110976],[-68.719684,-23.111348],[-68.719969,-23.111536],[-68.720754,-23.111488],[-68.721778,-23.111767],[-68.722099,-23.1118],[-68.723127,-23.111906],[-68.723716,-23.111965],[-68.724058,-23.112],[-68.724469,-23.112051],[-68.725175,-23.112139],[-68.726827,-23.112584],[-68.727925,-23.112206],[-68.728845,-23.111768],[-68.728977,-23.111737],[-68.729765,-23.11155],[-68.730419,-23.111222],[-68.73119,-23.111141],[-68.732822,-23.111061],[-68.734365,-23.111174],[-68.736538,-23.111913],[-68.736796,-23.112001],[-68.737448,-23.112386],[-68.73896,-23.113157],[-68.739326,-23.114284],[-68.739344,-23.114338],[-68.739609,-23.114942],[-68.739845,-23.115848],[-68.74011,-23.116919],[-68.740049,-23.117715],[-68.740197,-23.118237],[-68.74024,-23.11854],[-68.740255,-23.118648],[-68.740373,-23.11917],[-68.740385,-23.11983],[-68.740658,-23.120524],[-68.740764,-23.120795],[-68.740904,-23.121539],[-68.740904,-23.122703],[-68.740788,-23.123446],[-68.740528,-23.124042],[-68.740406,-23.124592],[-68.740436,-23.124852],[-68.740559,-23.125173],[-68.740818,-23.125341],[-68.741231,-23.125555],[-68.741742,-23.125588],[-68.742998,-23.125495],[-68.743901,-23.125474],[-68.744105,-23.12547],[-68.745373,-23.125479],[-68.746768,-23.125588],[-68.747698,-23.125728],[-68.748443,-23.125681],[-68.749048,-23.125681],[-68.74942,-23.125588],[-68.75,-23.125564],[-68.750537,-23.125542],[-68.751468,-23.125681],[-68.752724,-23.126053],[-68.752975,-23.126106],[-68.754493,-23.126426],[-68.755889,-23.12717],[-68.757378,-23.128008],[-68.75795,-23.128579],[-68.758355,-23.129264],[-68.7591,-23.130381],[-68.759425,-23.130893],[-68.759533,-23.131621],[-68.759585,-23.13197],[-68.759844,-23.132987],[-68.759937,-23.133965],[-68.760077,-23.134942],[-68.76017,-23.136105],[-68.760263,-23.137269],[-68.76031,-23.137781],[-68.760589,-23.138386],[-68.761101,-23.138665],[-68.761659,-23.139037],[-68.762404,-23.139642],[-68.762553,-23.139692],[-68.763102,-23.139875],[-68.763986,-23.139921],[-68.764777,-23.140154],[-68.76564,-23.140243],[-68.766732,-23.140526],[-68.767423,-23.140759],[-68.767595,-23.140779],[-68.768153,-23.140845],[-68.768838,-23.141005],[-68.769271,-23.141124],[-68.770045,-23.141232],[-68.77086,-23.141071],[-68.772179,-23.14056],[-68.773014,-23.140107],[-68.774079,-23.139667],[-68.775155,-23.139223],[-68.776989,-23.138716],[-68.777935,-23.138587],[-68.778542,-23.138584],[-68.778924,-23.138618],[-68.77928,-23.138553],[-68.779482,-23.138339],[-68.779941,-23.137866],[-68.780879,-23.137408],[-68.782771,-23.136475],[-68.788624,-23.133589],[-68.795396,-23.13025],[-68.803324,-23.126342],[-68.805348,-23.125344],[-68.807483,-23.124395],[-68.808204,-23.124074],[-68.80862,-23.12389],[-68.811456,-23.123017],[-68.814219,-23.122435],[-68.817623,-23.122137],[-68.818363,-23.122072],[-68.820763,-23.121999],[-68.82309,-23.121708],[-68.823938,-23.121493],[-68.824854,-23.120953],[-68.825053,-23.120836],[-68.827307,-23.118945],[-68.828761,-23.117636],[-68.829997,-23.116109],[-68.830846,-23.114977],[-68.832179,-23.113201],[-68.834069,-23.11022],[-68.834796,-23.109638],[-68.835378,-23.10942],[-68.836469,-23.109056],[-68.836629,-23.108843],[-68.836905,-23.108474],[-68.837239,-23.107684],[-68.837557,-23.107068],[-68.838257,-23.106729],[-68.839247,-23.106476],[-68.840417,-23.106504],[-68.841995,-23.106293],[-68.842646,-23.106118],[-68.842911,-23.106046],[-68.843811,-23.10574],[-68.844507,-23.10535],[-68.844976,-23.104911],[-68.845485,-23.104112],[-68.845631,-23.103166],[-68.845994,-23.102294],[-68.846091,-23.102133],[-68.84643,-23.101567],[-68.846503,-23.100767],[-68.846038,-23.099437],[-68.845558,-23.098513],[-68.84507,-23.097624],[-68.844419,-23.096322],[-68.844107,-23.094963],[-68.844053,-23.093722],[-68.844051,-23.093661],[-68.844071,-23.092729],[-68.844249,-23.091169],[-68.844104,-23.089496],[-68.8438,-23.088031],[-68.843658,-23.087344],[-68.843319,-23.086818],[-68.842759,-23.08653],[-68.842148,-23.086428],[-68.841759,-23.086498],[-68.840926,-23.086649],[-68.839432,-23.086852],[-68.838434,-23.086825],[-68.838054,-23.086663],[-68.83782,-23.086564],[-68.836938,-23.086089],[-68.835954,-23.085495],[-68.835015,-23.08477],[-68.83436,-23.083534],[-68.833945,-23.082953],[-68.833422,-23.082333],[-68.833324,-23.081909],[-68.833259,-23.081517],[-68.833194,-23.080865],[-68.833259,-23.080212],[-68.833357,-23.079722],[-68.833553,-23.079135],[-68.833574,-23.079085],[-68.833879,-23.078352],[-68.83414,-23.077862],[-68.834173,-23.077568],[-68.834108,-23.077079],[-68.833749,-23.076002],[-68.833422,-23.075284],[-68.833294,-23.074699],[-68.833236,-23.074369],[-68.833192,-23.074044],[-68.832957,-23.073917],[-68.832704,-23.073847],[-68.832239,-23.073784],[-68.832073,-23.073765],[-68.831921,-23.073717],[-68.831711,-23.07353],[-68.831268,-23.073097],[-68.830518,-23.072281],[-68.830126,-23.071302],[-68.830113,-23.07116],[-68.83002,-23.070119],[-68.830183,-23.068935],[-68.830183,-23.068446],[-68.829734,-23.067671],[-68.829367,-23.0671],[-68.828714,-23.06661],[-68.828143,-23.066324],[-68.827494,-23.065425],[-68.827299,-23.064825],[-68.827163,-23.064231],[-68.827061,-23.063535],[-68.827027,-23.063106],[-68.827001,-23.062775],[-68.826593,-23.060613],[-68.82643,-23.059552],[-68.826062,-23.058736],[-68.825981,-23.057675],[-68.825818,-23.056655],[-68.826022,-23.055554],[-68.825981,-23.054534],[-68.825953,-23.054365],[-68.82586,-23.053797],[-68.825872,-23.053213],[-68.82594,-23.052616],[-68.825798,-23.051684],[-68.825614,-23.051392],[-68.825381,-23.051067],[-68.825094,-23.050876],[-68.824879,-23.050658],[-68.824677,-23.04992],[-68.824569,-23.049469],[-68.82466,-23.048834],[-68.825003,-23.048481],[-68.825206,-23.048333],[-68.825683,-23.048216],[-68.827042,-23.047884],[-68.828837,-23.046538],[-68.829489,-23.046211],[-68.829816,-23.045803],[-68.83055,-23.044334],[-68.831162,-23.044008],[-68.832019,-23.043763],[-68.832164,-23.043616],[-68.832182,-23.042947],[-68.832168,-23.042605],[-68.83215,-23.04218],[-68.832506,-23.04148],[-68.832783,-23.040484],[-68.832977,-23.039821],[-68.832916,-23.039112],[-68.832835,-23.038623],[-68.832672,-23.038215],[-68.832264,-23.037644],[-68.831856,-23.036705],[-68.831203,-23.035767],[-68.830591,-23.034829],[-68.830455,-23.034611],[-68.829979,-23.033849],[-68.829081,-23.032585],[-68.828347,-23.03132],[-68.827572,-23.030422],[-68.826185,-23.029484],[-68.825386,-23.028618],[-68.825206,-23.028423],[-68.824267,-23.027199],[-68.823709,-23.025764],[-68.823696,-23.025731],[-68.823451,-23.02467],[-68.823247,-23.023446],[-68.823084,-23.022304],[-68.823247,-23.021365],[-68.823329,-23.020386],[-68.823166,-23.019285],[-68.822939,-23.018959],[-68.822513,-23.018346],[-68.821534,-23.017734],[-68.820759,-23.017653],[-68.820188,-23.017082],[-68.819902,-23.016551],[-68.819902,-23.016062],[-68.81978,-23.015327],[-68.819698,-23.014838],[-68.819249,-23.014185],[-68.818436,-23.013632],[-68.818234,-23.0134],[-68.817711,-23.012803],[-68.81683,-23.011922],[-68.816311,-23.0113],[-68.815793,-23.010471],[-68.815741,-23.009331],[-68.815718,-23.009272],[-68.815327,-23.008294],[-68.814454,-23.007338],[-68.81415,-23.007005],[-68.81366,-23.006474],[-68.812885,-23.006066],[-68.811498,-23.005373],[-68.807336,-23.003292],[-68.805897,-23.00278],[-68.805241,-23.002546],[-68.803501,-23.001864],[-68.802604,-23.001375],[-68.8024,-23.000722],[-68.802056,-23.0],[-68.801992,-22.999865],[-68.801802,-22.999192],[-68.801785,-22.998855],[-68.801778,-22.998712],[-68.801882,-22.998513],[-68.802066,-22.99816],[-68.802786,-22.997752],[-68.803733,-22.997318],[-68.804081,-22.996961],[-68.80395,-22.996152],[-68.803793,-22.995425],[-68.803883,-22.994554],[-68.804201,-22.993818],[-68.804532,-22.993362],[-68.804688,-22.993146],[-68.805089,-22.99257],[-68.805582,-22.991298],[-68.806806,-22.988034],[-68.807206,-22.987142],[-68.807336,-22.986851],[-68.807663,-22.985994],[-68.807948,-22.984444],[-68.808193,-22.98322],[-68.808438,-22.981873],[-68.80856,-22.980772],[-68.808642,-22.97967],[-68.808846,-22.978487],[-68.808959,-22.978181],[-68.809244,-22.977411],[-68.809539,-22.97661],[-68.810956,-22.973826],[-68.81165,-22.972705],[-68.812574,-22.971211],[-68.813819,-22.969344],[-68.814815,-22.96785],[-68.81513,-22.96749],[-68.815794,-22.966731],[-68.816558,-22.965858],[-68.817803,-22.964737],[-68.819048,-22.963617],[-68.820273,-22.963208],[-68.820542,-22.963119],[-68.822037,-22.962372],[-68.823033,-22.960877],[-68.824468,-22.959706],[-68.824676,-22.959136],[-68.824786,-22.958836],[-68.8249,-22.958014],[-68.824776,-22.956893],[-68.82502,-22.955801],[-68.825772,-22.95515],[-68.825927,-22.955047],[-68.827259,-22.954159],[-68.828386,-22.953407],[-68.828455,-22.953286],[-68.829382,-22.951664],[-68.830752,-22.950793],[-68.831064,-22.950809],[-68.833117,-22.950917],[-68.835633,-22.95109],[-68.837313,-22.950508],[-68.839226,-22.948784],[-68.839639,-22.948588],[-68.842674,-22.94715],[-68.845516,-22.944889],[-68.845591,-22.944811],[-68.848407,-22.941899],[-68.849801,-22.940459],[-68.850866,-22.939527],[-68.854781,-22.936101],[-68.856344,-22.934913],[-68.861405,-22.931067],[-68.862957,-22.92939],[-68.864953,-22.927232],[-68.866249,-22.924995],[-68.867215,-22.922097],[-68.867283,-22.921895],[-68.867923,-22.917752],[-68.868209,-22.916881],[-68.868696,-22.915392],[-68.869103,-22.913032],[-68.8689,-22.911608],[-68.868249,-22.910957],[-68.867598,-22.910388],[-68.867354,-22.909248],[-68.867517,-22.908231],[-68.867585,-22.907975],[-68.867854,-22.906967],[-68.867979,-22.905971],[-68.868471,-22.905147],[-68.869202,-22.90459],[-68.869239,-22.904562],[-68.869471,-22.904275],[-68.870116,-22.90321],[-68.870767,-22.902324],[-68.874803,-22.896828],[-68.875243,-22.896229],[-68.880014,-22.889732],[-68.884982,-22.882967],[-68.88995,-22.876203],[-68.894918,-22.869437],[-68.899887,-22.862671],[-68.904856,-22.855905],[-68.909825,-22.849138],[-68.914795,-22.842371],[-68.919765,-22.835603],[-68.924522,-22.829125],[-68.925002,-22.828472],[-68.929006,-22.823019],[-68.930044,-22.821606],[-68.930576,-22.820898],[-68.933593,-22.816878],[-68.936126,-22.813503],[-68.938212,-22.810724],[-68.941677,-22.806109],[-68.942832,-22.80457],[-68.947227,-22.798714],[-68.947452,-22.798415],[-68.952392,-22.791832],[-68.957436,-22.785113],[-68.962479,-22.778394],[-68.967235,-22.772058],[-68.967514,-22.771667],[-68.972386,-22.764817],[-68.977259,-22.757967],[-68.982132,-22.751116],[-68.982926,-22.75],[-68.986441,-22.745059],[-68.987419,-22.744576],[-68.995864,-22.740405],[-69.0,-22.738361],[-69.001006,-22.737865],[-69.008531,-22.734147],[-69.015699,-22.730607],[-69.021202,-22.727889],[-69.029649,-22.723716],[-69.035291,-22.720929],[-69.042323,-22.717456],[-69.049986,-22.713671],[-69.054999,-22.711195],[-69.06345,-22.70702],[-69.06958,-22.703992],[-69.076129,-22.700757],[-69.084277,-22.696732],[-69.086506,-22.695631],[-69.089177,-22.694312],[-69.097266,-22.690316],[-69.103875,-22.687052],[-69.10995,-22.684051],[-69.118408,-22.679873],[-69.123473,-22.677371],[-69.131096,-22.673605],[-69.138173,-22.67011],[-69.143786,-22.667337],[-69.151015,-22.663767],[-69.151633,-22.662697],[-69.155877,-22.655356],[-69.160121,-22.648015],[-69.163956,-22.641382],[-69.165099,-22.639404],[-69.167264,-22.635658],[-69.170733,-22.629659],[-69.174503,-22.623137],[-69.174768,-22.62299],[-69.175193,-22.623004],[-69.175898,-22.623019],[-69.175916,-22.623019],[-69.176662,-22.623004],[-69.177249,-22.62296],[-69.177783,-22.622858],[-69.178012,-22.622814],[-69.178423,-22.622711],[-69.178981,-22.622564],[-69.179466,-22.622358],[-69.180508,-22.622138],[-69.181007,-22.621947],[-69.181366,-22.62184],[-69.181595,-22.621771],[-69.182079,-22.621522],[-69.182534,-22.621272],[-69.182769,-22.620993],[-69.183034,-22.620699],[-69.183171,-22.620558],[-69.18343,-22.620406],[-69.183944,-22.620127],[-69.184487,-22.619628],[-69.184913,-22.61929],[-69.185221,-22.618908],[-69.185456,-22.618717],[-69.185794,-22.618394],[-69.186337,-22.618057],[-69.186763,-22.617807],[-69.186983,-22.617631],[-69.187203,-22.617411],[-69.18735,-22.616985],[-69.187438,-22.616559],[-69.18757,-22.616221],[-69.187657,-22.616027],[-69.187688,-22.615957],[-69.187858,-22.615799],[-69.188334,-22.615443],[-69.188642,-22.615282],[-69.189127,-22.6149],[-69.189817,-22.61399],[-69.190257,-22.613344],[-69.190756,-22.612668],[-69.190918,-22.612066],[-69.190991,-22.611494],[-69.191079,-22.610848],[-69.191329,-22.610304],[-69.191549,-22.609776],[-69.191784,-22.609203],[-69.191894,-22.608808],[-69.192028,-22.608326],[-69.192183,-22.60747],[-69.192307,-22.60678],[-69.192479,-22.605202],[-69.192481,-22.605178],[-69.192537,-22.604399],[-69.192464,-22.603841],[-69.192422,-22.603511],[-69.192278,-22.602392],[-69.191972,-22.601469],[-69.191664,-22.600434],[-69.191496,-22.599384],[-69.191418,-22.59832],[-69.191476,-22.597403],[-69.19165,-22.596571],[-69.19182,-22.595997],[-69.191906,-22.59551],[-69.191944,-22.595053],[-69.191963,-22.594822],[-69.192164,-22.593904],[-69.192164,-22.593072],[-69.191992,-22.59204],[-69.19182,-22.590922],[-69.191705,-22.590176],[-69.19159,-22.589431],[-69.191648,-22.588943],[-69.191762,-22.588371],[-69.191888,-22.587867],[-69.19197,-22.58768],[-69.192106,-22.587366],[-69.192508,-22.58685],[-69.19268,-22.586391],[-69.192594,-22.585703],[-69.192508,-22.585015],[-69.192459,-22.584432],[-69.192333,-22.583984],[-69.192047,-22.583626],[-69.191796,-22.58324],[-69.19159,-22.582837],[-69.191533,-22.582462],[-69.191479,-22.582094],[-69.191074,-22.581803],[-69.191002,-22.581642],[-69.190845,-22.581287],[-69.190567,-22.580699],[-69.190465,-22.580132],[-69.190353,-22.579695],[-69.190339,-22.579279],[-69.190426,-22.578929],[-69.19062,-22.57867],[-69.190701,-22.578362],[-69.190959,-22.577702],[-69.191217,-22.577215],[-69.192027,-22.575997],[-69.195269,-22.579713],[-69.195628,-22.580036],[-69.196923,-22.581199],[-69.198534,-22.582647],[-69.199845,-22.583819],[-69.201179,-22.585012],[-69.202659,-22.586347],[-69.205897,-22.589248],[-69.206673,-22.589942],[-69.209164,-22.592172],[-69.212165,-22.594863],[-69.213156,-22.595752],[-69.216549,-22.598805],[-69.217717,-22.599849],[-69.221408,-22.603149],[-69.224486,-22.605909],[-69.228771,-22.609752],[-69.229938,-22.610798],[-69.236134,-22.616356],[-69.238793,-22.618742],[-69.240917,-22.620645],[-69.247182,-22.626261],[-69.25,-22.628787],[-69.253243,-22.631693],[-69.254315,-22.632654],[-69.258275,-22.636151],[-69.265588,-22.642608],[-69.266986,-22.643843],[-69.269704,-22.646243],[-69.276892,-22.652589],[-69.282054,-22.657147],[-69.284936,-22.659692],[-69.288059,-22.662453],[-69.294404,-22.668063],[-69.299219,-22.672319],[-69.303378,-22.675995],[-69.306664,-22.678895],[-69.310875,-22.682612],[-69.317839,-22.688757],[-69.319373,-22.690111],[-69.323233,-22.693506],[-69.329037,-22.69861],[-69.335596,-22.704379],[-69.338732,-22.707137],[-69.340232,-22.708464],[-69.347669,-22.715043],[-69.352075,-22.718941],[-69.358825,-22.724911],[-69.364435,-22.729874],[-69.36998,-22.73478],[-69.376797,-22.74081],[-69.379962,-22.74361],[-69.381125,-22.744652],[-69.387095,-22.75],[-69.388495,-22.751254],[-69.393265,-22.755527],[-69.39955,-22.761157],[-69.405615,-22.76659],[-69.410605,-22.77106],[-69.417967,-22.777655],[-69.418042,-22.777723],[-69.422085,-22.781344],[-69.42903,-22.787565],[-69.434439,-22.792411],[-69.440085,-22.797468],[-69.44015,-22.797527],[-69.446791,-22.803512],[-69.451092,-22.807388],[-69.45843,-22.814001],[-69.463259,-22.818354],[-69.469437,-22.823921],[-69.475612,-22.829487],[-69.480444,-22.833841],[-69.487781,-22.840454],[-69.492086,-22.844333],[-69.498535,-22.850146],[-69.498797,-22.850371],[-69.5,-22.851407],[-69.504471,-22.855258],[-69.505492,-22.856137],[-69.510104,-22.860187],[-69.516866,-22.866124],[-69.521319,-22.870034],[-69.528795,-22.876599],[-69.533392,-22.880636],[-69.533488,-22.88072],[-69.541847,-22.880465],[-69.544278,-22.880391],[-69.547237,-22.8803],[-69.548618,-22.880248],[-69.556494,-22.87995],[-69.565745,-22.8796],[-69.574692,-22.879262],[-69.574997,-22.879253],[-69.582303,-22.879027],[-69.588381,-22.87884],[-69.589089,-22.878818],[-69.598108,-22.87854],[-69.600878,-22.878455],[-69.607358,-22.878223],[-69.616145,-22.87791],[-69.617625,-22.877857],[-69.622892,-22.877669],[-69.63049,-22.877397],[-69.637328,-22.877153],[-69.639742,-22.877075],[-69.648993,-22.876774],[-69.656719,-22.876522],[-69.661519,-22.876366],[-69.663499,-22.876302],[-69.672122,-22.876021],[-69.678874,-22.875801],[-69.681377,-22.875705],[-69.690536,-22.875354],[-69.69086,-22.875341],[-69.697268,-22.875095],[-69.704529,-22.874817],[-69.71379,-22.874461],[-69.723053,-22.874106],[-69.723485,-22.874089],[-69.730983,-22.873835],[-69.735176,-22.873692],[-69.737758,-22.873604],[-69.746199,-22.873318],[-69.75,-22.873189],[-69.755458,-22.873003],[-69.764718,-22.872689],[-69.771644,-22.872454],[-69.776567,-22.872287],[-69.778607,-22.872228],[-69.787863,-22.871961],[-69.797118,-22.871695],[-69.805743,-22.871446],[-69.807705,-22.87139],[-69.812571,-22.871249],[-69.820261,-22.871028],[-69.827396,-22.870822],[-69.82951,-22.870832],[-69.838729,-22.870873],[-69.847598,-22.870912],[-69.848585,-22.870917],[-69.85474,-22.870944],[-69.861589,-22.870975],[-69.861883,-22.870976],[-69.871,-22.871017],[-69.877865,-22.871047],[-69.880218,-22.871087],[-69.886303,-22.871189],[-69.886388,-22.871191],[-69.88647,-22.871191],[-69.88943,-22.871209],[-69.897776,-22.871258],[-69.899831,-22.87127],[-69.900058,-22.871273],[-69.900232,-22.871274],[-69.904935,-22.871299],[-69.912485,-22.871339],[-69.921709,-22.871387],[-69.930933,-22.871436],[-69.940158,-22.871485],[-69.947889,-22.871526],[-69.952088,-22.871548],[-69.955051,-22.871564],[-69.963223,-22.871608],[-69.963819,-22.871611],[-69.970021,-22.87159],[-69.970245,-22.872369],[-69.970245,-22.872861],[-69.970245,-22.873389],[-69.970316,-22.874058],[-69.970316,-22.874368],[-69.970316,-22.87448],[-69.970316,-22.875113],[-69.970316,-22.875606],[-69.970527,-22.876028],[-69.970879,-22.876521],[-69.970808,-22.876978],[-69.970492,-22.87726],[-69.97014,-22.877823],[-69.969647,-22.878526],[-69.969084,-22.879512],[-69.968486,-22.880286],[-69.968029,-22.880919],[-69.967931,-22.881087],[-69.967536,-22.881763],[-69.966938,-22.882643],[-69.96641,-22.884226],[-69.966481,-22.885739],[-69.966481,-22.887323],[-69.966481,-22.888484],[-69.96641,-22.889258],[-69.966398,-22.889499],[-69.96634,-22.890595],[-69.966481,-22.892214],[-69.966797,-22.893269],[-69.966938,-22.894114],[-69.966938,-22.895134],[-69.966938,-22.896119],[-69.966937,-22.896126],[-69.966797,-22.89728],[-69.967079,-22.898195],[-69.967607,-22.899391],[-69.96831,-22.900553],[-69.968706,-22.900849],[-69.969014,-22.90108],[-69.96919,-22.901749],[-69.969014,-22.902277],[-69.968885,-22.902824],[-69.968873,-22.902875],[-69.968944,-22.90386],[-69.969014,-22.905232],[-69.968873,-22.906956],[-69.968592,-22.908505],[-69.968205,-22.909384],[-69.967923,-22.909842],[-69.967536,-22.910651],[-69.967395,-22.911179],[-69.967255,-22.911882],[-69.967265,-22.912133],[-69.96729,-22.912727],[-69.967782,-22.913747],[-69.968134,-22.914521],[-69.968381,-22.915295],[-69.968557,-22.915929],[-69.968557,-22.916808],[-69.968557,-22.917688],[-69.968873,-22.91804],[-69.969366,-22.918638],[-69.969528,-22.919069],[-69.969577,-22.919201],[-69.969753,-22.919799],[-69.970386,-22.921066],[-69.970672,-22.921519],[-69.970808,-22.921734],[-69.971477,-22.922297],[-69.972075,-22.92279],[-69.972533,-22.923142],[-69.973588,-22.923423],[-69.974327,-22.923494],[-69.975277,-22.923775],[-69.976157,-22.924057],[-69.976896,-22.924549],[-69.977283,-22.925218],[-69.977459,-22.925992],[-69.97767,-22.926801],[-69.977661,-22.926858],[-69.977459,-22.928173],[-69.977177,-22.929827],[-69.97679,-22.931903],[-69.976684,-22.933909],[-69.976642,-22.93484],[-69.976579,-22.936231],[-69.976614,-22.93799],[-69.97679,-22.939609],[-69.977054,-22.940829],[-69.977072,-22.940911],[-69.977529,-22.942142],[-69.978409,-22.943585],[-69.978901,-22.944288],[-69.979147,-22.94545],[-69.979147,-22.947103],[-69.979147,-22.948968],[-69.979208,-22.94925],[-69.979359,-22.949953],[-69.979605,-22.950833],[-69.979605,-22.951466],[-69.979499,-22.952205],[-69.979253,-22.952909],[-69.979409,-22.953825],[-69.979712,-22.954733],[-69.980166,-22.955439],[-69.98062,-22.955994],[-69.981174,-22.956599],[-69.98183,-22.957204],[-69.982034,-22.957438],[-69.982596,-22.958081],[-69.982948,-22.958926],[-69.98344,-22.959805],[-69.984003,-22.960861],[-69.98439,-22.962198],[-69.984742,-22.963465],[-69.984953,-22.964415],[-69.985164,-22.965154],[-69.985214,-22.965502],[-69.98534,-22.966385],[-69.985411,-22.967511],[-69.985446,-22.968778],[-69.985516,-22.969869],[-69.985622,-22.970924],[-69.985798,-22.971769],[-69.986114,-22.973106],[-69.986213,-22.973443],[-69.986466,-22.974302],[-69.986884,-22.975138],[-69.987064,-22.975498],[-69.988155,-22.97673],[-69.989175,-22.977785],[-69.989774,-22.978348],[-69.990618,-22.979404],[-69.991427,-22.980776],[-69.99188,-22.981522],[-69.992025,-22.981761],[-69.992166,-22.982535],[-69.992061,-22.983239],[-69.991955,-22.984013],[-69.991462,-22.98535],[-69.990583,-22.986969],[-69.990528,-22.987138],[-69.990055,-22.988587],[-69.989879,-22.989397],[-69.989422,-22.990452],[-69.988824,-22.991367],[-69.98812,-22.992458],[-69.987662,-22.993584],[-69.987381,-22.994886],[-69.987435,-22.995361],[-69.987522,-22.996117],[-69.987698,-22.997736],[-69.988085,-22.998721],[-69.988395,-22.999359],[-69.988707,-23.0],[-69.988718,-23.000023],[-69.989316,-23.001149],[-69.989844,-23.001888],[-69.990196,-23.002345],[-69.990264,-23.002704],[-69.990337,-23.003084],[-69.990724,-23.004175],[-69.991322,-23.004913],[-69.992239,-23.005405],[-69.992307,-23.005441],[-69.993081,-23.005758],[-69.994418,-23.00618],[-69.995368,-23.00618],[-69.996705,-23.00618],[-69.997374,-23.00611],[-69.997831,-23.005899],[-69.998394,-23.005934],[-69.999098,-23.006497],[-69.999379,-23.007095],[-69.99952,-23.007904],[-69.99952,-23.008432],[-69.99959,-23.009628],[-69.999766,-23.010367],[-69.999829,-23.010849],[-69.999872,-23.011177],[-70.0,-23.01171],[-70.001267,-23.012075],[-70.001702,-23.012945],[-70.002663,-23.015242],[-70.004044,-23.016503],[-70.004601,-23.017079],[-70.005341,-23.017844],[-70.006464,-23.018949],[-70.007587,-23.019973],[-70.008876,-23.020362],[-70.008884,-23.021451],[-70.008885,-23.021632],[-70.009069,-23.023219],[-70.00925,-23.024488],[-70.009346,-23.025916],[-70.009121,-23.027132],[-70.008934,-23.028142],[-70.008174,-23.029734],[-70.008103,-23.031799],[-70.008542,-23.033146],[-70.009408,-23.034172],[-70.009159,-23.035107],[-70.00902,-23.035631],[-70.009196,-23.036405],[-70.009196,-23.037355],[-70.009196,-23.038094],[-70.009126,-23.038797],[-70.00902,-23.039184],[-70.008915,-23.039783],[-70.009055,-23.04031],[-70.009689,-23.041331],[-70.010005,-23.041753],[-70.0099,-23.042316],[-70.009759,-23.042844],[-70.009737,-23.043344],[-70.009724,-23.043653],[-70.009759,-23.044603],[-70.009759,-23.045307],[-70.009165,-23.045917],[-70.008725,-23.046522],[-70.008286,-23.047291],[-70.007901,-23.047951],[-70.007846,-23.048391],[-70.008231,-23.048996],[-70.008437,-23.049107],[-70.008945,-23.049381],[-70.009825,-23.049985],[-70.01021,-23.050205],[-70.010375,-23.05081],[-70.01043,-23.051525],[-70.010375,-23.052129],[-70.010155,-23.052734],[-70.0101,-23.053614],[-70.01021,-23.054493],[-70.01065,-23.055868],[-70.011106,-23.056223],[-70.011921,-23.056693],[-70.012227,-23.056956],[-70.012359,-23.057069],[-70.012704,-23.057257],[-70.013048,-23.057601],[-70.013757,-23.057928],[-70.013666,-23.05849],[-70.01244,-23.066047],[-70.011636,-23.071001],[-70.010114,-23.080378],[-70.009287,-23.08547],[-70.007831,-23.094443],[-70.006924,-23.100035],[-70.005549,-23.108507],[-70.00456,-23.114597],[-70.003266,-23.122569],[-70.002197,-23.129157],[-70.000984,-23.13663],[-70.0,-23.142694],[-69.999834,-23.143716],[-69.998703,-23.150688],[-69.997472,-23.158271],[-69.996421,-23.164746],[-69.99511,-23.172825],[-69.99414,-23.178802],[-69.992748,-23.187377],[-69.991859,-23.192856],[-69.990387,-23.201926],[-69.989578,-23.206909],[-69.988058,-23.216276],[-69.987239,-23.221322],[-69.985778,-23.230326],[-69.984879,-23.235866],[-69.983498,-23.244375],[-69.982585,-23.25],[-69.982519,-23.250408],[-69.981218,-23.258422],[-69.980159,-23.264947],[-69.978938,-23.272467],[-69.977799,-23.279485],[-69.976659,-23.286511],[-69.97544,-23.29402],[-69.97438,-23.300553],[-69.973082,-23.308553],[-69.972101,-23.314594],[-69.970723,-23.323084],[-69.969823,-23.328633],[-69.969702,-23.329378],[-69.971591,-23.3365],[-69.973814,-23.344876],[-69.976036,-23.353251],[-69.978066,-23.360903],[-69.978603,-23.36293],[-69.979793,-23.367414],[-69.981591,-23.374188],[-69.983812,-23.382562],[-69.986034,-23.390936],[-69.988256,-23.39931],[-69.990156,-23.406471],[-69.991057,-23.409867],[-69.991882,-23.412979],[-69.993809,-23.420242],[-69.99603,-23.428614],[-69.998251,-23.436986],[-70.0,-23.443577],[-70.000472,-23.445357],[-70.00224,-23.452018],[-70.003512,-23.456813],[-70.003966,-23.458523],[-70.006025,-23.466284],[-70.008245,-23.474654],[-70.010466,-23.483024],[-70.012593,-23.491042],[-70.012855,-23.492029],[-70.014318,-23.497544],[-70.01497,-23.5],[-70.01597,-23.503768],[-70.016043,-23.504046],[-70.018237,-23.512315],[-70.020457,-23.520684],[-70.022677,-23.529051],[-70.024667,-23.536549],[-70.025314,-23.53899],[-70.026391,-23.543048],[-70.028227,-23.549969],[-70.030447,-23.558336],[-70.032666,-23.566702],[-70.034886,-23.575067],[-70.036734,-23.582034],[-70.037776,-23.58596],[-70.038458,-23.58853],[-70.040434,-23.59598],[-70.042653,-23.604344],[-70.044873,-23.612708],[-70.047074,-23.621005],[-70.047124,-23.621194],[-70.04771,-23.623402],[-70.046838,-23.623407],[-70.037565,-23.623462],[-70.029154,-23.623513],[-70.02664,-23.623528],[-70.022103,-23.623555],[-70.014385,-23.623601],[-70.005115,-23.623657],[-70.0,-23.623687],[-69.995844,-23.623712],[-69.986858,-23.623766],[-69.986031,-23.623771],[-69.979811,-23.623808],[-69.972672,-23.623851],[-69.963404,-23.623906],[-69.954136,-23.623962],[-69.944869,-23.624017],[-69.937549,-23.624061],[-69.931858,-23.624095],[-69.930509,-23.624103],[-69.921705,-23.624156],[-69.91244,-23.624211],[-69.903176,-23.624267],[-69.895317,-23.624314],[-69.891207,-23.624338],[-69.888282,-23.624356],[-69.880019,-23.624405],[-69.870757,-23.624461],[-69.861496,-23.624516],[-69.853115,-23.624566],[-69.850538,-23.624582],[-69.846084,-23.624608],[-69.838345,-23.624655],[-69.829086,-23.62471],[-69.819828,-23.624766],[-69.810942,-23.624819],[-69.80985,-23.624825],[-69.803916,-23.624861],[-69.796684,-23.624904],[-69.787428,-23.62496],[-69.778172,-23.625015],[-69.768917,-23.62507],[-69.761778,-23.625113],[-69.755572,-23.62515],[-69.754758,-23.625155],[-69.75,-23.625184],[-69.745782,-23.625209],[-69.736529,-23.625264],[-69.727276,-23.62532],[-69.719669,-23.625365],[-69.714842,-23.625394],[-69.712654,-23.625407],[-69.704148,-23.625458],[-69.694898,-23.625513],[-69.685649,-23.625569],[-69.67759,-23.625617],[-69.674093,-23.625638],[-69.67058,-23.625659],[-69.662528,-23.625707],[-69.65328,-23.625763],[-69.644034,-23.625818],[-69.635541,-23.625869],[-69.633327,-23.625882],[-69.628535,-23.625911],[-69.62092,-23.625956],[-69.611675,-23.626012],[-69.602431,-23.626067],[-69.60047,-23.626079],[-69.59332,-23.625113],[-69.584244,-23.623888],[-69.57517,-23.622663],[-69.566096,-23.621438],[-69.557388,-23.620263],[-69.556616,-23.620159],[-69.548763,-23.619099],[-69.547047,-23.618867],[-69.54014,-23.617934],[-69.537476,-23.617575],[-69.531518,-23.616771],[-69.527906,-23.616283],[-69.522898,-23.615607],[-69.518334,-23.614991],[-69.514279,-23.614443],[-69.508763,-23.613699],[-69.505662,-23.61328],[-69.5,-23.612516],[-69.499191,-23.612406],[-69.497046,-23.612117],[-69.489618,-23.611114],[-69.488432,-23.610954],[-69.480045,-23.609822],[-69.479819,-23.609791],[-69.47086,-23.608582],[-69.461793,-23.607358],[-69.452728,-23.606134],[-69.443663,-23.604911],[-69.434599,-23.603687],[-69.430839,-23.603179],[-69.426237,-23.606605],[-69.419749,-23.611434]],[[-69.467172,-23.071676],[-69.467794,-23.066892],[-69.463597,-23.063769],[-69.458778,-23.06543],[-69.458156,-23.070213],[-69.453337,-23.071873],[-69.452715,-23.076656],[-69.447896,-23.078315],[-69.447274,-23.083098],[-69.45147,-23.086221],[-69.456289,-23.084562],[-69.456911,-23.079779],[-69.46173,-23.078119],[-69.462353,-23.073336],[-69.467172,-23.071676]],[[-69.467015,-23.108277],[-69.462195,-23.109936],[-69.461573,-23.114718],[-69.456753,-23.116376],[-69.456131,-23.121157],[-69.451311,-23.122816],[-69.450689,-23.127596],[-69.454886,-23.130719],[-69.459706,-23.129061],[-69.463904,-23.132184],[-69.463281,-23.136964],[-69.46748,-23.140087],[-69.4723,-23.138429],[-69.472922,-23.133648],[-69.468724,-23.130525],[-69.469346,-23.125744],[-69.474166,-23.124086],[-69.474788,-23.119304],[-69.47059,-23.116181],[-69.471212,-23.1114],[-69.467015,-23.108277]],[[-69.43872,-23.113447],[-69.434524,-23.110324],[-69.429705,-23.111981],[-69.425509,-23.108858],[-69.420691,-23.110516],[-69.420068,-23.115296],[-69.424264,-23.11842],[-69.429083,-23.116762],[-69.433279,-23.119885],[-69.438098,-23.118228],[-69.43872,-23.113447]],[[-69.429245,-23.080169],[-69.429867,-23.075387],[-69.434685,-23.073728],[-69.435308,-23.068946],[-69.431112,-23.065822],[-69.431735,-23.061039],[-69.427539,-23.057916],[-69.428162,-23.053133],[-69.423967,-23.050009],[-69.419149,-23.051668],[-69.418527,-23.056451],[-69.422722,-23.059575],[-69.422099,-23.064358],[-69.417282,-23.066016],[-69.416659,-23.070799],[-69.420854,-23.073922],[-69.420231,-23.078704],[-69.424427,-23.081828],[-69.429245,-23.080169]],[[-69.447433,-23.046492],[-69.442615,-23.048153],[-69.441993,-23.052936],[-69.446189,-23.05606],[-69.451007,-23.0544],[-69.451629,-23.049616],[-69.447433,-23.046492]],[[-69.41371,-23.05811],[-69.409515,-23.054986],[-69.404698,-23.056645],[-69.404076,-23.061427],[-69.40827,-23.064551],[-69.413087,-23.062893],[-69.41371,-23.05811]],[[-69.434363,-23.146909],[-69.429544,-23.148565],[-69.428921,-23.153344],[-69.433118,-23.156467],[-69.432495,-23.161246],[-69.436692,-23.164369],[-69.441512,-23.162713],[-69.442134,-23.157933],[-69.446954,-23.156277],[-69.447577,-23.151497],[-69.443379,-23.148375],[-69.444002,-23.143595],[-69.439805,-23.140472],[-69.440427,-23.135692],[-69.43623,-23.132569],[-69.436853,-23.127789],[-69.432657,-23.124666],[-69.427838,-23.126323],[-69.427215,-23.131103],[-69.431411,-23.134226],[-69.430789,-23.139006],[-69.434985,-23.142129],[-69.434363,-23.146909]],[[-69.513523,-23.211007],[-69.5087,-23.212665],[-69.508078,-23.217443],[-69.512279,-23.220565],[-69.517102,-23.218907],[-69.517724,-23.214129],[-69.513523,-23.211007]],[[-69.499054,-23.215979],[-69.499676,-23.2112],[-69.495475,-23.208079],[-69.490653,-23.209736],[-69.486453,-23.206614],[-69.487075,-23.201836],[-69.491897,-23.200179],[-69.496097,-23.2033],[-69.50092,-23.201643],[-69.501542,-23.196864],[-69.497341,-23.193743],[-69.492519,-23.1954],[-69.488319,-23.192278],[-69.483497,-23.193935],[-69.482875,-23.198714],[-69.478053,-23.20037],[-69.477431,-23.205149],[-69.481631,-23.20827],[-69.481008,-23.213048],[-69.476186,-23.214705],[-69.475564,-23.219482],[-69.479764,-23.222604],[-69.479142,-23.227381],[-69.483342,-23.230503],[-69.488164,-23.228847],[-69.492365,-23.231969],[-69.497188,-23.230312],[-69.49781,-23.225535],[-69.493609,-23.222413],[-69.494231,-23.217635],[-69.499054,-23.215979]],[[-69.479297,-23.190813],[-69.47992,-23.186034],[-69.47572,-23.182912],[-69.476342,-23.178133],[-69.472143,-23.175011],[-69.467322,-23.176668],[-69.4667,-23.181447],[-69.470899,-23.184569],[-69.470277,-23.189348],[-69.465455,-23.191004],[-69.464833,-23.195783],[-69.469032,-23.198905],[-69.473854,-23.197248],[-69.474476,-23.19247],[-69.479297,-23.190813]],[[-69.479453,-23.154234],[-69.483652,-23.157357],[-69.488473,-23.155698],[-69.492673,-23.15882],[-69.497495,-23.157162],[-69.501695,-23.160284],[-69.506517,-23.158625],[-69.507138,-23.153844],[-69.502938,-23.150722],[-69.50356,-23.145941],[-69.49936,-23.142819],[-69.494539,-23.144478],[-69.490339,-23.141356],[-69.485518,-23.143015],[-69.484896,-23.147796],[-69.480075,-23.149454],[-69.479453,-23.154234]],[[-69.477743,-23.131989],[-69.481941,-23.135112],[-69.486762,-23.133453],[-69.487384,-23.128671],[-69.483185,-23.125549],[-69.478365,-23.127208],[-69.477743,-23.131989]],[[-69.169272,-23.169396],[-69.173457,-23.172522],[-69.178268,-23.170876],[-69.178893,-23.166103],[-69.174708,-23.162977],[-69.169898,-23.164623],[-69.169272,-23.169396]],[[-69.050099,-23.237435],[-69.054279,-23.240562],[-69.059087,-23.238923],[-69.059714,-23.234156],[-69.055533,-23.231029],[-69.050726,-23.232668],[-69.050099,-23.237435]],[[-69.025648,-23.213903],[-69.030454,-23.212264],[-69.031082,-23.207496],[-69.026903,-23.204369],[-69.022097,-23.206008],[-69.021469,-23.210775],[-69.025648,-23.213903]],[[-68.977621,-23.125552],[-68.976993,-23.130321],[-68.981168,-23.13345],[-68.985972,-23.13181],[-68.986599,-23.127041],[-68.982424,-23.123912],[-68.977621,-23.125552]],[[-68.971562,-23.13673],[-68.966759,-23.13837],[-68.966131,-23.143138],[-68.970307,-23.146267],[-68.969679,-23.151035],[-68.973854,-23.154164],[-68.978658,-23.152525],[-68.979285,-23.147757],[-68.97511,-23.144628],[-68.975737,-23.139859],[-68.971562,-23.13673]],[[-69.043413,-23.148632],[-69.047592,-23.15176],[-69.052398,-23.150117],[-69.053025,-23.145347],[-69.048846,-23.142219],[-69.04404,-23.143861],[-69.039861,-23.140733],[-69.035056,-23.142375],[-69.034429,-23.147145],[-69.038607,-23.150273],[-69.043413,-23.148632]],[[-69.063683,-23.169041],[-69.059503,-23.165913],[-69.054696,-23.167555],[-69.05407,-23.172324],[-69.058249,-23.175452],[-69.063056,-23.17381],[-69.063683,-23.169041]],[[-69.030666,-23.175761],[-69.034845,-23.178889],[-69.039651,-23.177248],[-69.040278,-23.172479],[-69.045084,-23.170838],[-69.045711,-23.166069],[-69.041532,-23.162941],[-69.036726,-23.164582],[-69.036099,-23.169351],[-69.031293,-23.170992],[-69.030666,-23.175761]],[[-69.024191,-23.155198],[-69.028996,-23.153557],[-69.029623,-23.148787],[-69.025445,-23.145659],[-69.02064,-23.1473],[-69.020013,-23.152069],[-69.024191,-23.155198]],[[-69.000383,-23.126888],[-69.00101,-23.122118],[-68.996834,-23.118989],[-68.99203,-23.12063],[-68.991403,-23.1254],[-68.995579,-23.128529],[-69.000383,-23.126888]],[[-68.999128,-23.136427],[-68.994951,-23.133298],[-68.990148,-23.134939],[-68.98952,-23.139708],[-68.993696,-23.142837],[-68.9985,-23.141196],[-68.999128,-23.136427]],[[-68.956712,-23.21464],[-68.960888,-23.217768],[-68.965692,-23.216132],[-68.96632,-23.211366],[-68.962144,-23.208238],[-68.95734,-23.209875],[-68.956712,-23.21464]],[[-68.978221,-23.225517],[-68.978849,-23.220752],[-68.974673,-23.217623],[-68.969868,-23.21926],[-68.96924,-23.224026],[-68.973417,-23.227154],[-68.978221,-23.225517]],[[-68.985537,-23.204816],[-68.989714,-23.207945],[-68.994519,-23.206307],[-68.995147,-23.20154],[-68.99097,-23.198412],[-68.991597,-23.193645],[-68.98742,-23.190517],[-68.982616,-23.192155],[-68.981988,-23.196922],[-68.986165,-23.20005],[-68.985537,-23.204816]],[[-68.958817,-23.163848],[-68.959445,-23.159081],[-68.964248,-23.157442],[-68.964876,-23.152674],[-68.960701,-23.149545],[-68.955898,-23.151184],[-68.95527,-23.155952],[-68.950467,-23.15759],[-68.949839,-23.162357],[-68.954014,-23.165487],[-68.958817,-23.163848]]]},"properties":{"comuna":"Sierra Gorda","mancha_id":"02103-88b2209001fffff","clase":"Muy Bajo","nivel_medio":0.005,"nivel_medio_min":0.0,"nivel_medio_max":0.493,"pct_alto":0.0,"n_hexagonos":17583,"area_ha":1284532.97}},{"type":"Feature","geometry":{"type":"Polygon","coordinates":[[[-68.969679,-23.151035],[-68.970307,-23.146267],[-68.966131,-23.143138],[-68.966759,-23.13837],[-68.971562,-23.13673],[-68.975737,-23.139859],[-68.97511,-23.144628],[-68.979285,-23.147757],[-68.978658,-23.152525],[-68.973854,-23.154164],[-68.969679,-23.151035]]]},"properties":{"comuna":"Sierra Gorda","mancha_id":"02103-88b225db45fffff","clase":"Bajo","nivel_medio":0.82,"nivel_medio_min":0.702,"nivel_medio_max":0.938,"pct_alto":2.9,"n_hexagonos":2,"area_ha":148.86}},{"type":"Feature","geometry":{"type":"Polygon","coordinates":[[[-68.95527,-23.155952],[-68.955898,-23.151184],[-68.960701,-23.149545],[-68.964876,-23.152674],[-68.964248,-23.157442],[-68.959445,-23.159081],[-68.958817,-23.163848],[-68.954014,-23.165487],[-68.949839,-23.162357],[-68.950467,-23.15759],[-68.95527,-23.155952]]]},"properties":{"comuna":"Sierra Gorda","mancha_id":"02103-88b225db43fffff","clase":"Bajo","nivel_medio":0.627,"nivel_medio_min":0.584,"nivel_medio_max":0.67,"pct_alto":1.3,"n_hexagonos":2,"area_ha":148.8}},{"type":"Feature","geometry":{"type":"Polygon","coordinates":[[[-68.956712,-23.21464],[-68.95734,-23.209875],[-68.962144,-23.208238],[-68.96632,-23.211366],[-68.965692,-23.216132],[-68.960888,-23.217768],[-68.956712,-23.21464]]]},"properties":{"comuna":"Sierra Gorda","mancha_id":"02103-88b225d95bfffff","clase":"Bajo","nivel_medio":0.508,"nivel_medio_min":0.508,"nivel_medio_max":0.508,"pct_alto":0.1,"n_hexagonos":1,"area_ha":74.36}},{"type":"Feature","geometry":{"type":"Polygon","coordinates":[[[-68.96924,-23.224026],[-68.969868,-23.21926],[-68.974673,-23.217623],[-68.978849,-23.220752],[-68.978221,-23.225517],[-68.973417,-23.227154],[-68.96924,-23.224026]]]},"properties":{"comuna":"Sierra Gorda","mancha_id":"02103-88b225d957fffff","clase":"Bajo","nivel_medio":0.944,"nivel_medio_min":0.944,"nivel_medio_max":0.944,"pct_alto":1.5,"n_hexagonos":1,"area_ha":74.36}},{"type":"Feature","geometry":{"type":"Polygon","coordinates":[[[-68.985537,-23.204816],[-68.986165,-23.20005],[-68.981988,-23.196922],[-68.982616,-23.192155],[-68.98742,-23.190517],[-68.991597,-23.193645],[-68.99097,-23.198412],[-68.995147,-23.20154],[-68.994519,-23.206307],[-68.989714,-23.207945],[-68.985537,-23.204816]]]},"properties":{"comuna":"Sierra Gorda","mancha_id":"02103-88b225d941fffff","clase":"Bajo","nivel_medio":0.678,"nivel_medio_min":0.642,"nivel_medio_max":0.713,"pct_alto":2.0,"n_hexagonos":2,"area_ha":148.79}},{"type":"Feature","geometry":{"type":"Polygon","coordinates":[[[-68.976993,-23.130321],[-68.977621,-23.125552],[-68.982424,-23.123912],[-68.986599,-23.127041],[-68.985972,-23.13181],[-68.981168,-23.13345],[-68.976993,-23.130321]]]},"properties":{"comuna":"Sierra Gorda","mancha_id":"02103-88b224ae99fffff","clase":"Bajo","nivel_medio":0.505,"nivel_medio_min":0.505,"nivel_medio_max":0.505,"pct_alto":14.0,"n_hexagonos":1,"area_ha":74.45}},{"type":"Feature","geometry":{"type":"Polygon","coordinates":[[[-68.98952,-23.139708],[-68.990148,-23.134939],[-68.994951,-23.133298],[-68.999128,-23.136427],[-68.9985,-23.141196],[-68.993696,-23.142837],[-68.98952,-23.139708]]]},"properties":{"comuna":"Sierra Gorda","mancha_id":"02103-88b224ae95fffff","clase":"Bajo","nivel_medio":0.563,"nivel_medio_min":0.563,"nivel_medio_max":0.563,"pct_alto":4.3,"n_hexagonos":1,"area_ha":74.46}},{"type":"Feature","geometry":{"type":"Polygon","coordinates":[[[-68.991403,-23.1254],[-68.99203,-23.12063],[-68.996834,-23.118989],[-69.00101,-23.122118],[-69.000383,-23.126888],[-68.995579,-23.128529],[-68.991403,-23.1254]]]},"properties":{"comuna":"Sierra Gorda","mancha_id":"02103-88b224ae8bfffff","clase":"Bajo","nivel_medio":0.682,"nivel_medio_min":0.682,"nivel_medio_max":0.682,"pct_alto":16.2,"n_hexagonos":1,"area_ha":74.47}},{"type":"Feature","geometry":{"type":"Polygon","coordinates":[[[-69.05407,-23.172324],[-69.054696,-23.167555],[-69.059503,-23.165913],[-69.063683,-23.169041],[-69.063056,-23.17381],[-69.058249,-23.175452],[-69.05407,-23.172324]]]},"properties":{"comuna":"Sierra Gorda","mancha_id":"02103-88b224ace5fffff","clase":"Bajo","nivel_medio":0.671,"nivel_medio_min":0.671,"nivel_medio_max":0.671,"pct_alto":17.8,"n_hexagonos":1,"area_ha":74.49}},{"type":"Feature","geometry":{"type":"Polygon","coordinates":[[[-69.020013,-23.152069],[-69.02064,-23.1473],[-69.025445,-23.145659],[-69.029623,-23.148787],[-69.028996,-23.153557],[-69.024191,-23.155198],[-69.020013,-23.152069]]]},"properties":{"comuna":"Sierra Gorda","mancha_id":"02103-88b224acc9fffff","clase":"Bajo","nivel_medio":0.619,"nivel_medio_min":0.619,"nivel_medio_max":0.619,"pct_alto":0.5,"n_hexagonos":1,"area_ha":74.47}},{"type":"Feature","geometry":{"type":"Polygon","coordinates":[[[-69.021469,-23.210775],[-69.022097,-23.206008],[-69.026903,-23.204369],[-69.031082,-23.207496],[-69.030454,-23.212264],[-69.025648,-23.213903],[-69.021469,-23.210775]]]},"properties":{"comuna":"Sierra Gorda","mancha_id":"02103-88b224acb3fffff","clase":"Bajo","nivel_medio":0.524,"nivel_medio_min":0.524,"nivel_medio_max":0.524,"pct_alto":4.9,"n_hexagonos":1,"area_ha":74.42}},{"type":"Feature","geometry":{"type":"Polygon","coordinates":[[[-69.030666,-23.175761],[-69.031293,-23.170992],[-69.036099,-23.169351],[-69.036726,-23.164582],[-69.041532,-23.162941],[-69.045711,-23.166069],[-69.045084,-23.170838],[-69.040278,-23.172479],[-69.039651,-23.177248],[-69.034845,-23.178889],[-69.030666,-23.175761]]]},"properties":{"comuna":"Sierra Gorda","mancha_id":"02103-88b224ac8dfffff","clase":"Bajo","nivel_medio":0.77,"nivel_medio_min":0.725,"nivel_medio_max":0.816,"pct_alto":0.2,"n_hexagonos":2,"area_ha":148.94}},{"type":"Feature","geometry":{"type":"Polygon","coordinates":[[[-69.047592,-23.15176],[-69.043413,-23.148632],[-69.038607,-23.150273],[-69.034429,-23.147145],[-69.035056,-23.142375],[-69.039861,-23.140733],[-69.04404,-23.143861],[-69.048846,-23.142219],[-69.053025,-23.145347],[-69.052398,-23.150117],[-69.047592,-23.15176]]]},"properties":{"comuna":"Sierra Gorda","mancha_id":"02103-88b224ac11fffff","clase":"Bajo","nivel_medio":0.524,"nivel_medio_min":0.511,"nivel_medio_max":0.537,"pct_alto":2.1,"n_hexagonos":2,"area_ha":148.99}},{"type":"Feature","geometry":{"type":"Polygon","coordinates":[[[-69.050099,-23.237435],[-69.050726,-23.232668],[-69.055533,-23.231029],[-69.059714,-23.234156],[-69.059087,-23.238923],[-69.054279,-23.240562],[-69.050099,-23.237435]]]},"properties":{"comuna":"Sierra Gorda","mancha_id":"02103-88b2243601fffff","clase":"Bajo","nivel_medio":0.514,"nivel_medio_min":0.514,"nivel_medio_max":0.514,"pct_alto":2.0,"n_hexagonos":1,"area_ha":74.43}},{"type":"Feature","geometry":{"type":"Polygon","coordinates":[[[-69.169272,-23.169396],[-69.169898,-23.164623],[-69.174708,-23.162977],[-69.178893,-23.166103],[-69.178268,-23.170876],[-69.173457,-23.172522],[-69.169272,-23.169396]]]},"properties":{"comuna":"Sierra Gorda","mancha_id":"02103-88b2243211fffff","clase":"Bajo","nivel_medio":0.767,"nivel_medio_min":0.767,"nivel_medio_max":0.767,"pct_alto":3.2,"n_hexagonos":1,"area_ha":74.6}},{"type":"Feature","geometry":{"type":"Polygon","coordinates":[[[-69.470277,-23.189348],[-69.470899,-23.184569],[-69.4667,-23.181447],[-69.467322,-23.176668],[-69.472143,-23.175011],[-69.476342,-23.178133],[-69.47572,-23.182912],[-69.47992,-23.186034],[-69.479297,-23.190813],[-69.474476,-23.19247],[-69.473854,-23.197248],[-69.469032,-23.198905],[-69.464833,-23.195783],[-69.465455,-23.191004],[-69.470277,-23.189348]]]},"properties":{"comuna":"Sierra Gorda","mancha_id":"02103-88b2240ee5fffff","clase":"Bajo","nivel_medio":0.762,"nivel_medio_min":0.552,"nivel_medio_max":1.146,"pct_alto":0.2,"n_hexagonos":3,"area_ha":224.59}},{"type":"Feature","geometry":{"type":"Polygon","coordinates":[[[-69.477743,-23.131989],[-69.478365,-23.127208],[-69.483185,-23.125549],[-69.487384,-23.128671],[-69.486762,-23.133453],[-69.481941,-23.135112],[-69.477743,-23.131989]]]},"properties":{"comuna":"Sierra Gorda","mancha_id":"02103-88b2240e41fffff","clase":"Bajo","nivel_medio":0.897,"nivel_medio_min":0.897,"nivel_medio_max":0.897,"pct_alto":0.2,"n_hexagonos":1,"area_ha":74.92}},{"type":"Feature","geometry":{"type":"Polygon","coordinates":[[[-69.479453,-23.154234],[-69.480075,-23.149454],[-69.484896,-23.147796],[-69.485518,-23.143015],[-69.490339,-23.141356],[-69.494539,-23.144478],[-69.49936,-23.142819],[-69.50356,-23.145941],[-69.502938,-23.150722],[-69.507138,-23.153844],[-69.506517,-23.158625],[-69.501695,-23.160284],[-69.497495,-23.157162],[-69.492673,-23.15882],[-69.488473,-23.155698],[-69.483652,-23.157357],[-69.479453,-23.154234]]]},"properties":{"comuna":"Sierra Gorda","mancha_id":"02103-88b2240e01fffff","clase":"Bajo","nivel_medio":0.774,"nivel_medio_min":0.611,"nivel_medio_max":1.011,"pct_alto":0.9,"n_hexagonos":5,"area_ha":374.58}},{"type":"Feature","geometry":{"type":"Polygon","coordinates":[[[-69.494231,-23.217635],[-69.493609,-23.222413],[-69.49781,-23.225535],[-69.497188,-23.230312],[-69.492365,-23.231969],[-69.488164,-23.228847],[-69.483342,-23.230503],[-69.479142,-23.227381],[-69.479764,-23.222604],[-69.475564,-23.219482],[-69.476186,-23.214705],[-69.481008,-23.213048],[-69.481631,-23.20827],[-69.477431,-23.205149],[-69.478053,-23.20037],[-69.482875,-23.198714],[-69.483497,-23.193935],[-69.488319,-23.192278],[-69.492519,-23.1954],[-69.497341,-23.193743],[-69.501542,-23.196864],[-69.50092,-23.201643],[-69.496097,-23.2033],[-69.491897,-23.200179],[-69.487075,-23.201836],[-69.486453,-23.206614],[-69.490653,-23.209736],[-69.495475,-23.208079],[-69.499676,-23.2112],[-69.499054,-23.215979],[-69.494231,-23.217635]]]},"properties":{"comuna":"Sierra Gorda","mancha_id":"02103-88b2240c11fffff","clase":"Bajo","nivel_medio":0.709,"nivel_medio_min":0.518,"nivel_medio_max":1.038,"pct_alto":0.0,"n_hexagonos":9,"area_ha":673.71}},{"type":"Feature","geometry":{"type":"Polygon","coordinates":[[[-69.508078,-23.217443],[-69.5087,-23.212665],[-69.513523,-23.211007],[-69.517724,-23.214129],[-69.517102,-23.218907],[-69.512279,-23.220565],[-69.508078,-23.217443]]]},"properties":{"comuna":"Sierra Gorda","mancha_id":"02103-88b2240c07fffff","clase":"Bajo","nivel_medio":0.556,"nivel_medio_min":0.556,"nivel_medio_max":0.556,"pct_alto":0.0,"n_hexagonos":1,"area_ha":74.88}},{"type":"Feature","geometry":{"type":"Polygon","coordinates":[[[-69.446954,-23.156277],[-69.442134,-23.157933],[-69.441512,-23.162713],[-69.436692,-23.164369],[-69.432495,-23.161246],[-69.433118,-23.156467],[-69.428921,-23.153344],[-69.429544,-23.148565],[-69.434363,-23.146909],[-69.434985,-23.142129],[-69.430789,-23.139006],[-69.431411,-23.134226],[-69.427215,-23.131103],[-69.427838,-23.126323],[-69.432657,-23.124666],[-69.436853,-23.127789],[-69.43623,-23.132569],[-69.440427,-23.135692],[-69.439805,-23.140472],[-69.444002,-23.143595],[-69.443379,-23.148375],[-69.447577,-23.151497],[-69.446954,-23.156277]]]},"properties":{"comuna":"Sierra Gorda","mancha_id":"02103-88b2240521fffff","clase":"Bajo","nivel_medio":0.834,"nivel_medio_min":0.592,"nivel_medio_max":1.283,"pct_alto":0.1,"n_hexagonos":6,"area_ha":449.2}},{"type":"Feature","geometry":{"type":"Polygon","coordinates":[[[-69.441993,-23.052936],[-69.442615,-23.048153],[-69.447433,-23.046492],[-69.451629,-23.049616],[-69.451007,-23.0544],[-69.446189,-23.05606],[-69.441993,-23.052936]]]},"properties":{"comuna":"Sierra Gorda","mancha_id":"02103-88b22402abfffff","clase":"Bajo","nivel_medio":0.985,"nivel_medio_min":0.985,"nivel_medio_max":0.985,"pct_alto":0.0,"n_hexagonos":1,"area_ha":74.96}},{"type":"Feature","geometry":{"type":"Polygon","coordinates":[[[-69.418527,-23.056451],[-69.419149,-23.051668],[-69.423967,-23.050009],[-69.428162,-23.053133],[-69.427539,-23.057916],[-69.431735,-23.061039],[-69.431112,-23.065822],[-69.435308,-23.068946],[-69.434685,-23.073728],[-69.429867,-23.075387],[-69.429245,-23.080169],[-69.424427,-23.081828],[-69.420231,-23.078704],[-69.420854,-23.073922],[-69.416659,-23.070799],[-69.417282,-23.066016],[-69.422099,-23.064358],[-69.422722,-23.059575],[-69.418527,-23.056451]]]},"properties":{"comuna":"Sierra Gorda","mancha_id":"02103-88b2240295fffff","clase":"Bajo","nivel_medio":0.674,"nivel_medio_min":0.501,"nivel_medio_max":1.112,"pct_alto":0.6,"n_hexagonos":5,"area_ha":374.63}},{"type":"Feature","geometry":{"type":"Polygon","coordinates":[[[-69.404076,-23.061427],[-69.404698,-23.056645],[-69.409515,-23.054986],[-69.41371,-23.05811],[-69.413087,-23.062893],[-69.40827,-23.064551],[-69.404076,-23.061427]]]},"properties":{"comuna":"Sierra Gorda","mancha_id":"02103-88b2240293fffff","clase":"Bajo","nivel_medio":0.801,"nivel_medio_min":0.801,"nivel_medio_max":0.801,"pct_alto":0.0,"n_hexagonos":1,"area_ha":74.92}},{"type":"Feature","geometry":{"type":"Polygon","coordinates":[[[-69.452715,-23.076656],[-69.453337,-23.071873],[-69.458156,-23.070213],[-69.458778,-23.06543],[-69.463597,-23.063769],[-69.467794,-23.066892],[-69.467172,-23.071676],[-69.462353,-23.073336],[-69.46173,-23.078119],[-69.456911,-23.079779],[-69.456289,-23.084562],[-69.45147,-23.086221],[-69.447274,-23.083098],[-69.447896,-23.078315],[-69.452715,-23.076656]]]},"properties":{"comuna":"Sierra Gorda","mancha_id":"02103-88b22400c1fffff","clase":"Bajo","nivel_medio":0.85,"nivel_medio_min":0.63,"nivel_medio_max":1.051,"pct_alto":0.0,"n_hexagonos":3,"area_ha":224.85}},{"type":"Feature","geometry":{"type":"Polygon","coordinates":[[[-69.456131,-23.121157],[-69.456753,-23.116376],[-69.461573,-23.114718],[-69.462195,-23.109936],[-69.467015,-23.108277],[-69.471212,-23.1114],[-69.47059,-23.116181],[-69.474788,-23.119304],[-69.474166,-23.124086],[-69.469346,-23.125744],[-69.468724,-23.130525],[-69.472922,-23.133648],[-69.4723,-23.138429],[-69.46748,-23.140087],[-69.463281,-23.136964],[-69.463904,-23.132184],[-69.459706,-23.129061],[-69.454886,-23.130719],[-69.450689,-23.127596],[-69.451311,-23.122816],[-69.456131,-23.121157]]]},"properties":{"comuna":"Sierra Gorda","mancha_id":"02103-88b22400b1fffff","clase":"Bajo","nivel_medio":0.838,"nivel_medio_min":0.569,"nivel_medio_max":1.271,"pct_alto":0.2,"n_hexagonos":6,"area_ha":449.48}},{"type":"Feature","geometry":{"type":"Polygon","coordinates":[[[-69.433279,-23.119885],[-69.429083,-23.116762],[-69.424264,-23.11842],[-69.420068,-23.115296],[-69.420691,-23.110516],[-69.425509,-23.108858],[-69.429705,-23.111981],[-69.434524,-23.110324],[-69.43872,-23.113447],[-69.438098,-23.118228],[-69.433279,-23.119885]]]},"properties":{"comuna":"Sierra Gorda","mancha_id":"02103-88b2240093fffff","clase":"Bajo","nivel_medio":0.675,"nivel_medio_min":0.597,"nivel_medio_max":0.753,"pct_alto":1.3,"n_hexagonos":2,"area_ha":149.78}}],"bbox":[-70.04771,-23.92313,-68.61916,-22.57599]}