{"type":"FeatureCollection","features":[{"type":"Feature","geometry":{"type":"Polygon","coordinates":[[[-71.516488,-32.931597],[-71.517108,-32.927296],[-71.512664,-32.924387],[-71.513284,-32.920086],[-71.518348,-32.918693],[-71.522791,-32.921601],[-71.522172,-32.925903],[-71.526616,-32.928811],[-71.525996,-32.933112],[-71.53044,-32.936019],[-71.535504,-32.934626],[-71.536124,-32.930325],[-71.536178,-32.93031],[-71.53651,-32.93031],[-71.53694,-32.93026],[-71.53755,-32.93022],[-71.53818,-32.92996],[-71.538599,-32.929644],[-71.541188,-32.928931],[-71.541253,-32.92848],[-71.5414,-32.92825],[-71.54167,-32.92777],[-71.54202,-32.92749],[-71.54252,-32.92732],[-71.54374,-32.92705],[-71.54487,-32.927],[-71.54511,-32.92706],[-71.5454,-32.9273],[-71.5456,-32.92768],[-71.54574,-32.92784],[-71.54613,-32.92785],[-71.54647,-32.92784],[-71.54678,-32.9279],[-71.54704,-32.92796],[-71.54728,-32.92797],[-71.54774,-32.9279],[-71.54886,-32.92758],[-71.54925,-32.9276],[-71.55003,-32.92794],[-71.55026,-32.92793],[-71.55053,-32.92785],[-71.55078,-32.9279],[-71.551026,-32.928163],[-71.550697,-32.930444],[-71.545633,-32.931839],[-71.545013,-32.93614],[-71.539949,-32.937534],[-71.539329,-32.941834],[-71.534265,-32.943228],[-71.52982,-32.94032],[-71.524756,-32.941713],[-71.520312,-32.938805],[-71.520932,-32.934505],[-71.516488,-32.931597]]]},"properties":{"comuna":"Concón","mancha_id":"05103-88b2c418a1fffff","clase":"Muy Bajo","nivel_medio":0.349,"nivel_medio_min":0.148,"nivel_medio_max":0.485,"pct_alto":9.5,"n_hexagonos":6,"area_ha":357.03}},{"type":"Feature","geometry":{"type":"Polygon","coordinates":[[[-71.497475,-32.928565],[-71.498095,-32.924264],[-71.503158,-32.922872],[-71.507601,-32.92578],[-71.506981,-32.930081],[-71.501918,-32.931473],[-71.497475,-32.928565]]]},"properties":{"comuna":"Concón","mancha_id":"05103-88b2c41887fffff","clase":"Muy Bajo","nivel_medio":0.43,"nivel_medio_min":0.43,"nivel_medio_max":0.43,"pct_alto":13.1,"n_hexagonos":1,"area_ha":65.08}},{"type":"Feature","geometry":{"type":"Polygon","coordinates":[[[-71.55107,-32.93055],[-71.551062,-32.930683],[-71.55106,-32.93071],[-71.5509,-32.93083],[-71.55064,-32.93103],[-71.55058,-32.9312],[-71.55076,-32.93142],[-71.55104,-32.93168],[-71.5511,-32.93225],[-71.55134,-32.93244],[-71.55128,-32.93254],[-71.55107,-32.93273],[-71.55106,-32.93291],[-71.55113,-32.93317],[-71.55104,-32.93339],[-71.55081,-32.93366],[-71.5507,-32.93383],[-71.55083,-32.93402],[-71.55084,-32.93419],[-71.55077,-32.93429],[-71.5505,-32.93438],[-71.55034,-32.93451],[-71.5502,-32.93476],[-71.54994,-32.93504],[-71.54997,-32.93522],[-71.55018,-32.9354],[-71.5505,-32.9354],[-71.55082,-32.93537],[-71.55107,-32.93553],[-71.55107,-32.93633],[-71.55124,-32.93663],[-71.55157,-32.93678],[-71.55194,-32.93693],[-71.55224,-32.93719],[-71.55254,-32.9376],[-71.55274,-32.93774],[-71.55314,-32.93796],[-71.553178,-32.938023],[-71.55328,-32.93819],[-71.5532,-32.9383],[-71.55306,-32.93838],[-71.55305,-32.93851],[-71.55322,-32.93863],[-71.55334,-32.93875],[-71.55324,-32.9389],[-71.55311,-32.93901],[-71.55322,-32.93925],[-71.55312,-32.93937],[-71.55312,-32.93946],[-71.55331,-32.93949],[-71.55341,-32.93954],[-71.55335,-32.93966],[-71.55312,-32.93987],[-71.55298,-32.94019],[-71.55295,-32.9404],[-71.55304,-32.94051],[-71.55325,-32.94049],[-71.5536,-32.94021],[-71.55377,-32.94021],[-71.55388,-32.9403],[-71.55422,-32.94032],[-71.55426,-32.94045],[-71.55423,-32.94061],[-71.5542,-32.94069],[-71.55427,-32.9408],[-71.55428,-32.94089],[-71.55416,-32.94101],[-71.55416,-32.94113],[-71.55436,-32.94121],[-71.55454,-32.94134],[-71.55453,-32.94175],[-71.55441,-32.94187],[-71.55426,-32.94194],[-71.55404,-32.94182],[-71.55375,-32.94164],[-71.55352,-32.94156],[-71.55326,-32.94164],[-71.55311,-32.94186],[-71.55306,-32.94214],[-71.55302,-32.94222],[-71.55298,-32.94231],[-71.55258,-32.94254],[-71.55244,-32.94276],[-71.55235,-32.94304],[-71.55211,-32.9433],[-71.55205,-32.94347],[-71.55186,-32.94362],[-71.55164,-32.94368],[-71.55148,-32.94399],[-71.55131,-32.94417],[-71.55128,-32.94432],[-71.55134,-32.94444],[-71.5516,-32.94446],[-71.5517,-32.94455],[-71.551653,-32.944722],[-71.550971,-32.944742],[-71.548839,-32.943348],[-71.543774,-32.944741],[-71.543323,-32.947875],[-71.542898,-32.948061],[-71.542858,-32.948078],[-71.540759,-32.948998],[-71.540482,-32.949119],[-71.537845,-32.950275],[-71.533645,-32.947528],[-71.534265,-32.943228],[-71.539329,-32.941834],[-71.539949,-32.937534],[-71.545013,-32.93614],[-71.545633,-32.931839],[-71.550697,-32.930444],[-71.551026,-32.928163],[-71.55107,-32.92821],[-71.55138,-32.9283],[-71.55154,-32.92847],[-71.55166,-32.92875],[-71.55172,-32.9288],[-71.55183,-32.9289],[-71.55205,-32.929045],[-71.55206,-32.92921],[-71.55199,-32.92938],[-71.55205,-32.92964],[-71.55196,-32.92981],[-71.55174,-32.92993],[-71.55161,-32.9301],[-71.55137,-32.93023],[-71.55115,-32.93038],[-71.55107,-32.93055]]]},"properties":{"comuna":"Concón","mancha_id":"05103-88b2c4198bfffff","clase":"Bajo","nivel_medio":1.157,"nivel_medio_min":0.906,"nivel_medio_max":1.392,"pct_alto":29.3,"n_hexagonos":5,"area_ha":193.69}},{"type":"Feature","geometry":{"type":"Polygon","coordinates":[[[-71.525996,-32.933112],[-71.526616,-32.928811],[-71.522172,-32.925903],[-71.522791,-32.921601],[-71.518348,-32.918693],[-71.518472,-32.917826],[-71.51885,-32.9178],[-71.51962,-32.91768],[-71.52056,-32.91769],[-71.52155,-32.91774],[-71.52281,-32.91803],[-71.52328,-32.91829],[-71.5236,-32.91857],[-71.52371,-32.91892],[-71.52367,-32.91973],[-71.52403,-32.92002],[-71.52435,-32.92031],[-71.52457,-32.92072],[-71.524626,-32.921096],[-71.52466,-32.92132],[-71.52494,-32.92183],[-71.52499,-32.92205],[-71.52489,-32.92219],[-71.52464,-32.92227],[-71.52468,-32.92247],[-71.52496,-32.92281],[-71.52604,-32.92395],[-71.52639,-32.92415],[-71.52664,-32.92431],[-71.52693,-32.92459],[-71.527,-32.92486],[-71.52711,-32.92539],[-71.52719,-32.92551],[-71.52792,-32.92605],[-71.52833,-32.92643],[-71.52863,-32.9266],[-71.52888,-32.92666],[-71.52927,-32.92658],[-71.52968,-32.92645],[-71.53005,-32.92644],[-71.53024,-32.92657],[-71.53027,-32.92679],[-71.53005,-32.92698],[-71.52974,-32.92705],[-71.52955,-32.92719],[-71.52953,-32.92736],[-71.52965,-32.92751],[-71.53002,-32.92771],[-71.530194,-32.927826],[-71.53035,-32.92793],[-71.53066,-32.92817],[-71.53093,-32.92843],[-71.53137,-32.92865],[-71.53205,-32.92912],[-71.53266,-32.92933],[-71.53295,-32.92955],[-71.53361,-32.92996],[-71.53474,-32.93023],[-71.53536,-32.93031],[-71.536101,-32.93031],[-71.536124,-32.930325],[-71.535504,-32.934626],[-71.53044,-32.936019],[-71.525996,-32.933112]]]},"properties":{"comuna":"Concón","mancha_id":"05103-88b2c418a5fffff","clase":"Bajo","nivel_medio":0.59,"nivel_medio_min":0.528,"nivel_medio_max":0.682,"pct_alto":18.0,"n_hexagonos":3,"area_ha":104.29}},{"type":"Feature","geometry":{"type":"Polygon","coordinates":[[[-71.499468,-32.914737],[-71.499335,-32.915661],[-71.497431,-32.916185],[-71.497494,-32.916152],[-71.497652,-32.916054],[-71.497784,-32.915945],[-71.497796,-32.915935],[-71.497869,-32.915876],[-71.498018,-32.915703],[-71.498069,-32.915679],[-71.498162,-32.915675],[-71.498256,-32.915666],[-71.498319,-32.915622],[-71.498372,-32.915589],[-71.498409,-32.915556],[-71.498449,-32.915509],[-71.498471,-32.915488],[-71.498478,-32.915482],[-71.498482,-32.915474],[-71.498495,-32.915453],[-71.498595,-32.915411],[-71.498689,-32.915357],[-71.49874,-32.915307],[-71.498754,-32.915268],[-71.498758,-32.915226],[-71.498756,-32.915177],[-71.498771,-32.915136],[-71.49888,-32.915061],[-71.498951,-32.915024],[-71.498956,-32.915021],[-71.49904,-32.914982],[-71.49913,-32.914957],[-71.499222,-32.914908],[-71.499284,-32.914866],[-71.499415,-32.914778],[-71.499468,-32.914737]]]},"properties":{"comuna":"Concón","mancha_id":"05103-88b2c41889fffff","clase":"Bajo","nivel_medio":0.888,"nivel_medio_min":0.888,"nivel_medio_max":0.888,"pct_alto":22.5,"n_hexagonos":1,"area_ha":0.88}},{"type":"Feature","geometry":{"type":"Polygon","coordinates":[[[-71.503158,-32.922872],[-71.503778,-32.91857],[-71.508841,-32.917178],[-71.513284,-32.920086],[-71.512664,-32.924387],[-71.517108,-32.927296],[-71.516488,-32.931597],[-71.511425,-32.932989],[-71.506981,-32.930081],[-71.507601,-32.92578],[-71.503158,-32.922872]]]},"properties":{"comuna":"Concón","mancha_id":"05103-88b2c41885fffff","clase":"Bajo","nivel_medio":0.634,"nivel_medio_min":0.58,"nivel_medio_max":0.688,"pct_alto":17.6,"n_hexagonos":2,"area_ha":130.17}},{"type":"Feature","geometry":{"type":"Polygon","coordinates":[[[-71.487969,-32.927048],[-71.488589,-32.922747],[-71.493652,-32.921355],[-71.498095,-32.924264],[-71.497475,-32.928565],[-71.492412,-32.929957],[-71.487969,-32.927048]]]},"properties":{"comuna":"Concón","mancha_id":"05103-88b2c41883fffff","clase":"Bajo","nivel_medio":1.269,"nivel_medio_min":1.269,"nivel_medio_max":1.269,"pct_alto":36.7,"n_hexagonos":1,"area_ha":65.07}},{"type":"Feature","geometry":{"type":"Polygon","coordinates":[[[-71.50194,-32.965038],[-71.502021,-32.964477],[-71.503619,-32.964038],[-71.502452,-32.964732],[-71.50194,-32.965038]]]},"properties":{"comuna":"Concón","mancha_id":"05103-88b2c40a57fffff","clase":"Bajo","nivel_medio":1.377,"nivel_medio_min":1.377,"nivel_medio_max":1.377,"pct_alto":45.6,"n_hexagonos":1,"area_ha":0.44}},{"type":"Feature","geometry":{"type":"Polygon","coordinates":[[[-71.507705,-32.958788],[-71.512769,-32.957396],[-71.514291,-32.958393],[-71.512764,-32.95895],[-71.511792,-32.959376],[-71.511246,-32.95965],[-71.510636,-32.959956],[-71.51029,-32.960124],[-71.509444,-32.960526],[-71.509113,-32.960683],[-71.508841,-32.960812],[-71.508511,-32.960969],[-71.508371,-32.961036],[-71.508245,-32.961095],[-71.507874,-32.961272],[-71.5073,-32.961595],[-71.507705,-32.958788]]]},"properties":{"comuna":"Concón","mancha_id":"05103-88b2c40a55fffff","clase":"Bajo","nivel_medio":1.184,"nivel_medio_min":1.184,"nivel_medio_max":1.184,"pct_alto":32.6,"n_hexagonos":1,"area_ha":12.53}},{"type":"Feature","geometry":{"type":"Polygon","coordinates":[[[-71.453775,-32.928183],[-71.454395,-32.923883],[-71.459457,-32.922493],[-71.463898,-32.925402],[-71.463278,-32.929702],[-71.458216,-32.931093],[-71.453775,-32.928183]]]},"properties":{"comuna":"Concón","mancha_id":"05103-88b2c40327fffff","clase":"Bajo","nivel_medio":1.483,"nivel_medio_min":1.483,"nivel_medio_max":1.483,"pct_alto":46.8,"n_hexagonos":1,"area_ha":65.05}},{"type":"Feature","geometry":{"type":"Polygon","coordinates":[[[-71.474742,-32.951328],[-71.475363,-32.947029],[-71.480425,-32.945638],[-71.484868,-32.948547],[-71.484248,-32.952846],[-71.479185,-32.954236],[-71.474742,-32.951328]]]},"properties":{"comuna":"Concón","mancha_id":"05103-88b2c40161fffff","clase":"Bajo","nivel_medio":1.262,"nivel_medio_min":1.262,"nivel_medio_max":1.262,"pct_alto":38.1,"n_hexagonos":1,"area_ha":65.03}},{"type":"Feature","geometry":{"type":"Polygon","coordinates":[[[-71.543774,-32.944741],[-71.548839,-32.943348],[-71.550971,-32.944742],[-71.54996,-32.944772],[-71.549085,-32.944797],[-71.549006,-32.9448],[-71.546868,-32.946055],[-71.546839,-32.946072],[-71.545075,-32.947107],[-71.544937,-32.947167],[-71.544808,-32.947224],[-71.543323,-32.947875],[-71.543774,-32.944741]]]},"properties":{"comuna":"Concón","mancha_id":"05103-88b2c41997fffff","clase":"Medio","nivel_medio":1.941,"nivel_medio_min":1.941,"nivel_medio_max":1.941,"pct_alto":48.7,"n_hexagonos":1,"area_ha":14.46}},{"type":"Feature","geometry":{"type":"Polygon","coordinates":[[[-71.491792,-32.934257],[-71.492412,-32.929957],[-71.497475,-32.928565],[-71.501918,-32.931473],[-71.501298,-32.935774],[-71.496235,-32.937165],[-71.491792,-32.934257]]]},"properties":{"comuna":"Concón","mancha_id":"05103-88b2c418b9fffff","clase":"Medio","nivel_medio":2.281,"nivel_medio_min":2.281,"nivel_medio_max":2.281,"pct_alto":59.6,"n_hexagonos":1,"area_ha":65.06}},{"type":"Feature","geometry":{"type":"Polygon","coordinates":[[[-71.510805,-32.93729],[-71.511425,-32.932989],[-71.516488,-32.931597],[-71.520932,-32.934505],[-71.520312,-32.938805],[-71.515248,-32.940198],[-71.510805,-32.93729]]]},"properties":{"comuna":"Concón","mancha_id":"05103-88b2c418a3fffff","clase":"Medio","nivel_medio":2.056,"nivel_medio_min":2.056,"nivel_medio_max":2.056,"pct_alto":54.2,"n_hexagonos":1,"area_ha":65.07}},{"type":"Feature","geometry":{"type":"Polygon","coordinates":[[[-71.503778,-32.91857],[-71.499335,-32.915661],[-71.499468,-32.914737],[-71.499477,-32.914731],[-71.499566,-32.914666],[-71.499647,-32.914619],[-71.499661,-32.914611],[-71.499726,-32.914585],[-71.49978,-32.914573],[-71.499834,-32.914561],[-71.499863,-32.914551],[-71.499946,-32.914519],[-71.5,-32.914494],[-71.50004,-32.914475],[-71.50034,-32.914328],[-71.500484,-32.914258],[-71.500527,-32.914236],[-71.500901,-32.914101],[-71.500902,-32.9141],[-71.500983,-32.914071],[-71.501265,-32.91401],[-71.501337,-32.913998],[-71.501373,-32.913992],[-71.501587,-32.913956],[-71.501837,-32.913912],[-71.501941,-32.913908],[-71.501956,-32.913907],[-71.502067,-32.913893],[-71.502159,-32.913881],[-71.502216,-32.913869],[-71.502267,-32.913849],[-71.502324,-32.913816],[-71.502364,-32.913822],[-71.502386,-32.913825],[-71.502398,-32.913827],[-71.502452,-32.913826],[-71.502527,-32.913838],[-71.502572,-32.913856],[-71.502799,-32.913883],[-71.502853,-32.913878],[-71.502877,-32.913876],[-71.502981,-32.913866],[-71.503112,-32.913913],[-71.503308,-32.913991],[-71.503428,-32.914066],[-71.503489,-32.91413],[-71.503502,-32.914144],[-71.503533,-32.914177],[-71.503759,-32.914349],[-71.5039,-32.914446],[-71.503937,-32.914471],[-71.503945,-32.914477],[-71.504248,-32.914712],[-71.504369,-32.914796],[-71.504384,-32.914806],[-71.504534,-32.91491],[-71.504746,-32.914992],[-71.50485,-32.915067],[-71.504921,-32.915111],[-71.504935,-32.915118],[-71.504942,-32.915122],[-71.505036,-32.915168],[-71.505151,-32.915248],[-71.505277,-32.915336],[-71.505317,-32.915394],[-71.505422,-32.915492],[-71.505499,-32.915567],[-71.505505,-32.915572],[-71.505508,-32.915574],[-71.505582,-32.915629],[-71.505643,-32.915701],[-71.505666,-32.915773],[-71.505713,-32.915885],[-71.505789,-32.915936],[-71.505797,-32.915941],[-71.505806,-32.915947],[-71.505877,-32.915986],[-71.505952,-32.915989],[-71.506022,-32.915988],[-71.506081,-32.915973],[-71.506118,-32.915959],[-71.506128,-32.915913],[-71.506126,-32.915863],[-71.506125,-32.915818],[-71.506145,-32.915768],[-71.506214,-32.915681],[-71.506297,-32.915615],[-71.506355,-32.915582],[-71.506383,-32.915562],[-71.506394,-32.915555],[-71.506408,-32.915545],[-71.506433,-32.915471],[-71.506467,-32.915353],[-71.506539,-32.915221],[-71.506543,-32.915213],[-71.50657,-32.915165],[-71.506582,-32.915051],[-71.506667,-32.914813],[-71.506702,-32.914788],[-71.506707,-32.914784],[-71.506794,-32.91472],[-71.506947,-32.914626],[-71.50708,-32.914573],[-71.507264,-32.914556],[-71.507279,-32.914554],[-71.507322,-32.91455],[-71.507467,-32.914556],[-71.507662,-32.914607],[-71.50772,-32.914584],[-71.507757,-32.91457],[-71.507885,-32.914519],[-71.50816,-32.91436],[-71.5082,-32.91474],[-71.50833,-32.9153],[-71.50832,-32.91549],[-71.50841,-32.91568],[-71.50846,-32.91587],[-71.50851,-32.91624],[-71.50854,-32.916335],[-71.50884,-32.9168],[-71.50884,-32.9168],[-71.508892,-32.91682],[-71.508841,-32.917178],[-71.503778,-32.91857]]]},"properties":{"comuna":"Concón","mancha_id":"05103-88b2c4188dfffff","clase":"Medio","nivel_medio":1.721,"nivel_medio_min":1.721,"nivel_medio_max":1.721,"pct_alto":46.5,"n_hexagonos":1,"area_ha":28.1}},{"type":"Feature","geometry":{"type":"Polygon","coordinates":[[[-71.524137,-32.946013],[-71.524756,-32.941713],[-71.52982,-32.94032],[-71.534265,-32.943228],[-71.533645,-32.947528],[-71.528581,-32.948921],[-71.524137,-32.946013]]]},"properties":{"comuna":"Concón","mancha_id":"05103-88b2c40a4dfffff","clase":"Medio","nivel_medio":2.377,"nivel_medio_min":2.377,"nivel_medio_max":2.377,"pct_alto":61.1,"n_hexagonos":1,"area_ha":65.07}},{"type":"Feature","geometry":{"type":"Polygon","coordinates":[[[-71.436097,-32.932798],[-71.436458,-32.932937],[-71.433529,-32.933741],[-71.432908,-32.93804],[-71.427847,-32.939428],[-71.426658,-32.938649],[-71.426929,-32.938432],[-71.427924,-32.937732],[-71.428697,-32.937033],[-71.428844,-32.936223],[-71.428697,-32.935597],[-71.428606,-32.935279],[-71.428362,-32.934989],[-71.427629,-32.934418],[-71.427069,-32.933796],[-71.426845,-32.933164],[-71.426853,-32.932748],[-71.42708,-32.932332],[-71.427554,-32.931997],[-71.428048,-32.931758],[-71.428595,-32.931684],[-71.429117,-32.931503],[-71.429654,-32.931326],[-71.42977,-32.931277],[-71.430467,-32.930985],[-71.431642,-32.93081],[-71.432526,-32.930884],[-71.433041,-32.931024],[-71.433672,-32.931407],[-71.434183,-32.931731],[-71.434919,-32.932246],[-71.435603,-32.932489],[-71.435859,-32.93265],[-71.436097,-32.932798]]]},"properties":{"comuna":"Concón","mancha_id":"05103-88b2c40331fffff","clase":"Medio","nivel_medio":2.099,"nivel_medio_min":2.048,"nivel_medio_max":2.299,"pct_alto":43.0,"n_hexagonos":2,"area_ha":46.86}},{"type":"Feature","geometry":{"type":"Polygon","coordinates":[[[-71.47092,-32.94412],[-71.471541,-32.939821],[-71.476603,-32.93843],[-71.481046,-32.941339],[-71.480425,-32.945638],[-71.475363,-32.947029],[-71.47092,-32.94412]]]},"properties":{"comuna":"Concón","mancha_id":"05103-88b2c40169fffff","clase":"Medio","nivel_medio":2.498,"nivel_medio_min":2.498,"nivel_medio_max":2.498,"pct_alto":79.0,"n_hexagonos":1,"area_ha":65.04}},{"type":"Feature","geometry":{"type":"Polygon","coordinates":[[[-71.478564,-32.958535],[-71.479185,-32.954236],[-71.484248,-32.952846],[-71.488691,-32.955754],[-71.48807,-32.960052],[-71.483007,-32.961443],[-71.478564,-32.958535]]]},"properties":{"comuna":"Concón","mancha_id":"05103-88b2c40167fffff","clase":"Medio","nivel_medio":2.177,"nivel_medio_min":2.177,"nivel_medio_max":2.177,"pct_alto":66.2,"n_hexagonos":1,"area_ha":65.02}},{"type":"Feature","geometry":{"type":"Polygon","coordinates":[[[-71.452533,-32.936782],[-71.448092,-32.933872],[-71.443031,-32.935262],[-71.439571,-32.932995],[-71.439825,-32.93279],[-71.438612,-32.932199],[-71.438395,-32.932093],[-71.438666,-32.931828],[-71.438703,-32.931791],[-71.439236,-32.931364],[-71.4395,-32.931139],[-71.439619,-32.930975],[-71.439646,-32.930917],[-71.4397,-32.930734],[-71.439785,-32.930392],[-71.439925,-32.929868],[-71.440095,-32.929204],[-71.440283,-32.928481],[-71.440444,-32.928007],[-71.440567,-32.927691],[-71.440574,-32.927678],[-71.441049,-32.926813],[-71.441232,-32.926465],[-71.441575,-32.925812],[-71.441641,-32.925695],[-71.442183,-32.924734],[-71.442222,-32.92466],[-71.442615,-32.923921],[-71.442936,-32.923335],[-71.443032,-32.923158],[-71.443042,-32.92314],[-71.443211,-32.922819],[-71.443248,-32.922749],[-71.443306,-32.922778],[-71.443371,-32.922814],[-71.4434,-32.922825],[-71.443464,-32.92285],[-71.443557,-32.922875],[-71.443625,-32.922895],[-71.443705,-32.922902],[-71.443747,-32.922915],[-71.443824,-32.92294],[-71.443889,-32.922985],[-71.443938,-32.923029],[-71.443987,-32.923061],[-71.444045,-32.923081],[-71.444112,-32.923099],[-71.444189,-32.923113],[-71.444259,-32.92314],[-71.444283,-32.923149],[-71.44436,-32.923169],[-71.444437,-32.923168],[-71.44452,-32.923177],[-71.444593,-32.923175],[-71.444644,-32.923169],[-71.444701,-32.923168],[-71.444768,-32.923158],[-71.444778,-32.923158],[-71.44481,-32.923158],[-71.444877,-32.923156],[-71.444937,-32.923155],[-71.444972,-32.923157],[-71.445052,-32.923166],[-71.445114,-32.923186],[-71.445213,-32.923213],[-71.445278,-32.923231],[-71.445434,-32.923276],[-71.445528,-32.923327],[-71.445663,-32.923349],[-71.445827,-32.923411],[-71.445903,-32.92341],[-71.445947,-32.923409],[-71.446067,-32.9234],[-71.446117,-32.923399],[-71.446166,-32.923398],[-71.446294,-32.923432],[-71.446366,-32.923478],[-71.44655,-32.923468],[-71.446656,-32.923454],[-71.446847,-32.923451],[-71.446981,-32.923448],[-71.447088,-32.923476],[-71.447237,-32.923485],[-71.447435,-32.923487],[-71.447604,-32.923484],[-71.44771,-32.923464],[-71.4478,-32.923414],[-71.447891,-32.923377],[-71.44799,-32.923369],[-71.448089,-32.923367],[-71.448217,-32.923376],[-71.448288,-32.923405],[-71.448352,-32.923421],[-71.448526,-32.92343],[-71.448596,-32.923428],[-71.448671,-32.923433],[-71.448738,-32.923449],[-71.448775,-32.923479],[-71.448789,-32.923496],[-71.448811,-32.923528],[-71.44885,-32.92354],[-71.4489,-32.923539],[-71.448935,-32.923529],[-71.448973,-32.923493],[-71.448997,-32.923468],[-71.449028,-32.923441],[-71.449059,-32.923419],[-71.449105,-32.923395],[-71.449172,-32.92339],[-71.449218,-32.923392],[-71.449317,-32.92339],[-71.449412,-32.923391],[-71.44949,-32.923387],[-71.449621,-32.923384],[-71.449649,-32.923393],[-71.44971,-32.923404],[-71.449738,-32.923415],[-71.449785,-32.923441],[-71.44982,-32.923452],[-71.449873,-32.923433],[-71.449886,-32.9234],[-71.4499,-32.923379],[-71.449931,-32.923346],[-71.449969,-32.923321],[-71.450148,-32.923291],[-71.450192,-32.923317],[-71.450231,-32.923337],[-71.450256,-32.923357],[-71.450335,-32.923373],[-71.450395,-32.923372],[-71.450454,-32.923356],[-71.450488,-32.923311],[-71.450522,-32.923259],[-71.450606,-32.923216],[-71.450648,-32.923188],[-71.450711,-32.923163],[-71.450792,-32.923156],[-71.450851,-32.92314],[-71.450918,-32.923114],[-71.450965,-32.923086],[-71.450974,-32.923081],[-71.451022,-32.923038],[-71.451049,-32.92301],[-71.451102,-32.922989],[-71.451172,-32.922957],[-71.451213,-32.922933],[-71.451259,-32.922914],[-71.451343,-32.922894],[-71.451392,-32.922884],[-71.451463,-32.922883],[-71.451534,-32.922873],[-71.451565,-32.922866],[-71.45168,-32.922792],[-71.451757,-32.922776],[-71.451824,-32.922772],[-71.451867,-32.922777],[-71.451923,-32.922776],[-71.451973,-32.922766],[-71.451993,-32.922735],[-71.452006,-32.922696],[-71.452008,-32.922643],[-71.452053,-32.922585],[-71.452173,-32.922583],[-71.452307,-32.922577],[-71.452374,-32.922558],[-71.454395,-32.923883],[-71.453775,-32.928183],[-71.458216,-32.931093],[-71.463278,-32.929702],[-71.463898,-32.925402],[-71.459457,-32.922493],[-71.460048,-32.918399],[-71.460245,-32.91838],[-71.46053,-32.918359],[-71.460754,-32.918347],[-71.460951,-32.918343],[-71.46112,-32.918325],[-71.46145,-32.918265],[-71.461743,-32.918184],[-71.46192,-32.918105],[-71.462238,-32.917963],[-71.462511,-32.917791],[-71.462692,-32.917685],[-71.462891,-32.917579],[-71.463128,-32.917531],[-71.463314,-32.917517],[-71.46356,-32.91753],[-71.463935,-32.917562],[-71.464309,-32.917605],[-71.464663,-32.917683],[-71.464847,-32.917737],[-71.465244,-32.917826],[-71.465564,-32.917884],[-71.465836,-32.917893],[-71.466129,-32.917909],[-71.466214,-32.917911],[-71.466342,-32.917915],[-71.466511,-32.917915],[-71.466664,-32.91792],[-71.466788,-32.917939],[-71.466967,-32.917999],[-71.466989,-32.918006],[-71.467336,-32.918117],[-71.467758,-32.918209],[-71.468148,-32.91832],[-71.468501,-32.91837],[-71.468722,-32.918391],[-71.468901,-32.918398],[-71.469244,-32.918398],[-71.469844,-32.918433],[-71.470249,-32.918504],[-71.470571,-32.918591],[-71.470724,-32.918634],[-71.470856,-32.918657],[-71.470891,-32.918687],[-71.470946,-32.918716],[-71.470996,-32.918743],[-71.471103,-32.918751],[-71.471154,-32.918759],[-71.471226,-32.918798],[-71.471278,-32.918825],[-71.471374,-32.91886],[-71.471425,-32.918862],[-71.471539,-32.918871],[-71.471675,-32.918938],[-71.471812,-32.918971],[-71.472095,-32.91902],[-71.472267,-32.91905],[-71.472586,-32.919123],[-71.472902,-32.919178],[-71.472959,-32.919223],[-71.473016,-32.919265],[-71.473118,-32.91927],[-71.473286,-32.919262],[-71.473452,-32.919236],[-71.473609,-32.91923],[-71.473735,-32.919227],[-71.473846,-32.919214],[-71.473947,-32.919177],[-71.474051,-32.919125],[-71.47432,-32.919025],[-71.474463,-32.918977],[-71.474536,-32.918931],[-71.474639,-32.918917],[-71.47475,-32.918918],[-71.474893,-32.918897],[-71.475009,-32.918894],[-71.475063,-32.918902],[-71.475176,-32.918882],[-71.475284,-32.918869],[-71.475395,-32.918874],[-71.475492,-32.918948],[-71.475594,-32.91907],[-71.475656,-32.919158],[-71.475752,-32.919189],[-71.47588,-32.919215],[-71.475983,-32.919238],[-71.476038,-32.919234],[-71.479085,-32.921229],[-71.482709,-32.920233],[-71.482842,-32.920211],[-71.483126,-32.920163],[-71.483718,-32.920079],[-71.484116,-32.920073],[-71.484497,-32.920067],[-71.484602,-32.920065],[-71.485544,-32.920084],[-71.486438,-32.920123],[-71.487125,-32.920117],[-71.487425,-32.920114],[-71.48771,-32.920111],[-71.487782,-32.920111],[-71.488283,-32.920062],[-71.488646,-32.920005],[-71.488961,-32.919931],[-71.489397,-32.919798],[-71.489649,-32.919697],[-71.489866,-32.91956],[-71.49004,-32.919372],[-71.490322,-32.919065],[-71.490342,-32.91904],[-71.490468,-32.918882],[-71.490516,-32.918823],[-71.490576,-32.918747],[-71.49078,-32.918519],[-71.490789,-32.918513],[-71.490888,-32.918435],[-71.49091,-32.918417],[-71.490951,-32.918384],[-71.491155,-32.918257],[-71.491399,-32.918142],[-71.491541,-32.918089],[-71.491598,-32.918068],[-71.491705,-32.918027],[-71.491963,-32.917969],[-71.492146,-32.917956],[-71.492222,-32.91795],[-71.492282,-32.917946],[-71.492471,-32.917955],[-71.492494,-32.917956],[-71.492642,-32.917961],[-71.492813,-32.917982],[-71.492845,-32.917986],[-71.492866,-32.917988],[-71.493112,-32.918018],[-71.493176,-32.918026],[-71.493461,-32.918061],[-71.493805,-32.918082],[-71.493806,-32.918082],[-71.493871,-32.918086],[-71.494128,-32.918055],[-71.493652,-32.921355],[-71.488589,-32.922747],[-71.487969,-32.927048],[-71.482907,-32.928439],[-71.482286,-32.932739],[-71.477224,-32.93413],[-71.472782,-32.931221],[-71.467719,-32.932612],[-71.467099,-32.936912],[-71.462037,-32.938302],[-71.457595,-32.935392],[-71.452533,-32.936782]]]},"properties":{"comuna":"Concón","mancha_id":"05103-88b2c40149fffff","clase":"Medio","nivel_medio":2.103,"nivel_medio_min":1.613,"nivel_medio_max":2.481,"pct_alto":54.9,"n_hexagonos":13,"area_ha":602.56}},{"type":"Feature","geometry":{"type":"Polygon","coordinates":[[[-71.44623,-32.946769],[-71.446851,-32.94247],[-71.451913,-32.941081],[-71.456354,-32.943991],[-71.461416,-32.942601],[-71.465858,-32.94551],[-71.465237,-32.949809],[-71.460175,-32.951198],[-71.455733,-32.948289],[-71.450671,-32.949678],[-71.44623,-32.946769]]]},"properties":{"comuna":"Concón","mancha_id":"05103-88b2c40143fffff","clase":"Medio","nivel_medio":2.206,"nivel_medio_min":2.184,"nivel_medio_max":2.229,"pct_alto":62.7,"n_hexagonos":2,"area_ha":130.04}},{"type":"Feature","geometry":{"type":"Polygon","coordinates":[[[-71.412664,-32.943592],[-71.408224,-32.940682],[-71.404462,-32.941713],[-71.404554,-32.941435],[-71.404932,-32.940887],[-71.405426,-32.940582],[-71.406271,-32.940109],[-71.407014,-32.939602],[-71.407385,-32.939197],[-71.407689,-32.938724],[-71.407926,-32.938015],[-71.407959,-32.937137],[-71.408027,-32.936056],[-71.408052,-32.935863],[-71.408077,-32.935667],[-71.40823,-32.935347],[-71.40877,-32.934705],[-71.409209,-32.9343],[-71.409817,-32.934029],[-71.410526,-32.933759],[-71.411303,-32.933658],[-71.411945,-32.933557],[-71.412331,-32.933436],[-71.412827,-32.933253],[-71.413363,-32.933151],[-71.414106,-32.933185],[-71.414165,-32.933207],[-71.414563,-32.933358],[-71.415221,-32.933624],[-71.416027,-32.934091],[-71.416574,-32.934526],[-71.416931,-32.934794],[-71.417131,-32.935035],[-71.417534,-32.93553],[-71.41796,-32.936324],[-71.418052,-32.936922],[-71.417876,-32.937599],[-71.417857,-32.937672],[-71.4175,-32.938543],[-71.417361,-32.939361],[-71.417131,-32.940558],[-71.417188,-32.941086],[-71.417522,-32.941544],[-71.417803,-32.941662],[-71.417725,-32.942205],[-71.412664,-32.943592]]]},"properties":{"comuna":"Concón","mancha_id":"05103-88b2c40061fffff","clase":"Medio","nivel_medio":2.262,"nivel_medio_min":1.555,"nivel_medio_max":2.494,"pct_alto":57.6,"n_hexagonos":4,"area_ha":89.52}},{"type":"Feature","geometry":{"type":"Polygon","coordinates":[[[-71.394996,-32.964941],[-71.389935,-32.966327],[-71.386838,-32.964296],[-71.386832,-32.96408],[-71.38686,-32.963945],[-71.386942,-32.963859],[-71.387031,-32.963749],[-71.387081,-32.963685],[-71.387095,-32.963668],[-71.387101,-32.96366],[-71.387092,-32.963535],[-71.386964,-32.963493],[-71.386816,-32.9635],[-71.386751,-32.963448],[-71.386749,-32.963363],[-71.386805,-32.963264],[-71.386906,-32.963111],[-71.387098,-32.962956],[-71.387259,-32.962854],[-71.387448,-32.962811],[-71.387644,-32.962798],[-71.387701,-32.962761],[-71.387636,-32.962713],[-71.387635,-32.962655],[-71.387649,-32.962606],[-71.38761,-32.962544],[-71.387556,-32.962505],[-71.387444,-32.962467],[-71.387201,-32.962454],[-71.386993,-32.962387],[-71.386906,-32.962299],[-71.386877,-32.962237],[-71.386877,-32.962237],[-71.386944,-32.962204],[-71.388282,-32.961799],[-71.388873,-32.961686],[-71.389384,-32.961798],[-71.389781,-32.959625],[-71.390315,-32.959625],[-71.391255,-32.960788],[-71.391774,-32.961216],[-71.392141,-32.961353],[-71.392544,-32.961377],[-71.393047,-32.961268],[-71.393716,-32.961025],[-71.395064,-32.960282],[-71.395617,-32.960645],[-71.394996,-32.964941]]]},"properties":{"comuna":"Concón","mancha_id":"05103-88b2c40039fffff","clase":"Medio","nivel_medio":2.387,"nivel_medio_min":2.387,"nivel_medio_max":2.387,"pct_alto":39.0,"n_hexagonos":1,"area_ha":38.39}},{"type":"Feature","geometry":{"type":"Polygon","coordinates":[[[-71.388629,-32.970856],[-71.388532,-32.970837],[-71.389314,-32.970623],[-71.390189,-32.971197],[-71.389764,-32.971109],[-71.388629,-32.970856]]]},"properties":{"comuna":"Concón","mancha_id":"05103-88b2c40033fffff","clase":"Medio","nivel_medio":2.305,"nivel_medio_min":2.305,"nivel_medio_max":2.305,"pct_alto":30.5,"n_hexagonos":1,"area_ha":0.33}},{"type":"Feature","geometry":{"type":"Polygon","coordinates":[[[-71.391426,-32.97206],[-71.391402,-32.971992],[-71.393753,-32.973533],[-71.393717,-32.973779],[-71.393578,-32.973743],[-71.393288,-32.973604],[-71.392479,-32.973164],[-71.391875,-32.972783],[-71.391581,-32.972459],[-71.391426,-32.97206]]]},"properties":{"comuna":"Concón","mancha_id":"05103-88b2c40033fffff-2","clase":"Medio","nivel_medio":2.305,"nivel_medio_min":2.305,"nivel_medio_max":2.305,"pct_alto":30.5,"n_hexagonos":1,"area_ha":0.96}},{"type":"Feature","geometry":{"type":"Polygon","coordinates":[[[-71.410179,-32.960782],[-71.4108,-32.956485],[-71.415861,-32.955098],[-71.416482,-32.9508],[-71.421543,-32.949413],[-71.425984,-32.952323],[-71.425363,-32.95662],[-71.429803,-32.95953],[-71.434865,-32.958142],[-71.439306,-32.961051],[-71.438685,-32.965349],[-71.443126,-32.968258],[-71.448188,-32.966869],[-71.448809,-32.962572],[-71.453871,-32.961183],[-71.458313,-32.964092],[-71.457692,-32.96839],[-71.45263,-32.969778],[-71.452009,-32.974075],[-71.456451,-32.976984],[-71.45583,-32.98128],[-71.450767,-32.982668],[-71.446326,-32.97976],[-71.441263,-32.981147],[-71.436822,-32.978238],[-71.43176,-32.979626],[-71.431139,-32.983922],[-71.428452,-32.984658],[-71.428349,-32.984565],[-71.428309,-32.984457],[-71.428311,-32.984276],[-71.428328,-32.984067],[-71.428355,-32.983952],[-71.428422,-32.983887],[-71.428465,-32.983796],[-71.428481,-32.983573],[-71.428437,-32.983324],[-71.428335,-32.982924],[-71.42826,-32.982689],[-71.428179,-32.982499],[-71.428083,-32.982309],[-71.427724,-32.981732],[-71.427457,-32.981331],[-71.427266,-32.980996],[-71.427114,-32.980662],[-71.426999,-32.980339],[-71.426813,-32.979921],[-71.426661,-32.979605],[-71.426198,-32.978758],[-71.425965,-32.978283],[-71.425782,-32.977949],[-71.42557,-32.977416],[-71.425473,-32.977223],[-71.427319,-32.976717],[-71.42794,-32.97242],[-71.423499,-32.969511],[-71.418438,-32.970898],[-71.413997,-32.967988],[-71.408936,-32.969375],[-71.404496,-32.966465],[-71.405118,-32.962169],[-71.410179,-32.960782]]]},"properties":{"comuna":"Concón","mancha_id":"05103-88b2c40021fffff","clase":"Medio","nivel_medio":2.408,"nivel_medio_min":2.194,"nivel_medio_max":2.491,"pct_alto":41.3,"n_hexagonos":14,"area_ha":872.78}},{"type":"Feature","geometry":{"type":"Polygon","coordinates":[[[-71.498095,-32.924264],[-71.493652,-32.921355],[-71.494128,-32.918055],[-71.494219,-32.918044],[-71.494469,-32.918002],[-71.494512,-32.917995],[-71.494516,-32.917994],[-71.494629,-32.917964],[-71.494924,-32.91787],[-71.49514,-32.917769],[-71.49517,-32.917755],[-71.495222,-32.917731],[-71.4955,-32.917551],[-71.495833,-32.917307],[-71.495846,-32.917297],[-71.495985,-32.917195],[-71.496287,-32.916965],[-71.496469,-32.91681],[-71.496469,-32.916809],[-71.496549,-32.91674],[-71.496749,-32.916586],[-71.496907,-32.916488],[-71.497072,-32.916401],[-71.497144,-32.916359],[-71.497165,-32.916346],[-71.497258,-32.916292],[-71.497338,-32.916234],[-71.497361,-32.916221],[-71.497431,-32.916185],[-71.499335,-32.915661],[-71.503778,-32.91857],[-71.503158,-32.922872],[-71.498095,-32.924264]]]},"properties":{"comuna":"Concón","mancha_id":"05103-88b2c41881fffff","clase":"Alto","nivel_medio":2.585,"nivel_medio_min":2.585,"nivel_medio_max":2.585,"pct_alto":75.1,"n_hexagonos":1,"area_ha":63.01}},{"type":"Feature","geometry":{"type":"Polygon","coordinates":[[[-71.514628,-32.944498],[-71.515248,-32.940198],[-71.520312,-32.938805],[-71.524756,-32.941713],[-71.524137,-32.946013],[-71.519072,-32.947406],[-71.514628,-32.944498]]]},"properties":{"comuna":"Concón","mancha_id":"05103-88b2c40a49fffff","clase":"Alto","nivel_medio":3.013,"nivel_medio_min":3.013,"nivel_medio_max":3.013,"pct_alto":76.0,"n_hexagonos":1,"area_ha":65.06}},{"type":"Feature","geometry":{"type":"Polygon","coordinates":[[[-71.528581,-32.948921],[-71.533645,-32.947528],[-71.537845,-32.950275],[-71.532736,-32.952513],[-71.532444,-32.952641],[-71.530093,-32.953671],[-71.529801,-32.953767],[-71.529131,-32.953985],[-71.527961,-32.95322],[-71.528581,-32.948921]]]},"properties":{"comuna":"Concón","mancha_id":"05103-88b2c40a45fffff","clase":"Alto","nivel_medio":3.075,"nivel_medio_min":3.075,"nivel_medio_max":3.075,"pct_alto":78.1,"n_hexagonos":1,"area_ha":37.47}},{"type":"Feature","geometry":{"type":"Polygon","coordinates":[[[-71.459457,-32.922493],[-71.454395,-32.923883],[-71.452374,-32.922558],[-71.452524,-32.922516],[-71.452809,-32.922442],[-71.453061,-32.922363],[-71.453427,-32.922179],[-71.453518,-32.922142],[-71.453609,-32.922098],[-71.453697,-32.922091],[-71.453841,-32.922034],[-71.45399,-32.921954],[-71.454238,-32.921815],[-71.454439,-32.92171],[-71.454692,-32.921471],[-71.454994,-32.921072],[-71.455527,-32.920277],[-71.456084,-32.91939],[-71.456324,-32.919015],[-71.456392,-32.918886],[-71.456471,-32.918809],[-71.456648,-32.918737],[-71.456879,-32.918702],[-71.457004,-32.918685],[-71.45721,-32.918673],[-71.457425,-32.918707],[-71.457712,-32.918701],[-71.45814,-32.91864],[-71.458452,-32.918604],[-71.458844,-32.918543],[-71.459272,-32.918497],[-71.45962,-32.918452],[-71.459959,-32.918408],[-71.460048,-32.918399],[-71.459457,-32.922493]]]},"properties":{"comuna":"Concón","mancha_id":"05103-88b2c40321fffff","clase":"Alto","nivel_medio":2.828,"nivel_medio_min":2.828,"nivel_medio_max":2.828,"pct_alto":81.1,"n_hexagonos":1,"area_ha":23.55}},{"type":"Feature","geometry":{"type":"Polygon","coordinates":[[[-71.403176,-32.946857],[-71.403216,-32.946809],[-71.403297,-32.946711],[-71.403325,-32.946678],[-71.403545,-32.946444],[-71.403549,-32.946398],[-71.403531,-32.946372],[-71.403545,-32.946343],[-71.403589,-32.946325],[-71.403614,-32.946278],[-71.403575,-32.946196],[-71.403558,-32.946172],[-71.403552,-32.946129],[-71.403587,-32.946075],[-71.403594,-32.945999],[-71.403772,-32.945789],[-71.403834,-32.945743],[-71.403765,-32.945734],[-71.403721,-32.945702],[-71.403758,-32.945644],[-71.403796,-32.945617],[-71.403855,-32.945624],[-71.403913,-32.945596],[-71.403898,-32.945504],[-71.403856,-32.945476],[-71.403829,-32.945394],[-71.403874,-32.945342],[-71.403931,-32.945289],[-71.403934,-32.945218],[-71.403927,-32.945139],[-71.403963,-32.945107],[-71.403927,-32.944743],[-71.404075,-32.943081],[-71.404278,-32.94227],[-71.404462,-32.941713],[-71.408224,-32.940682],[-71.412664,-32.943592],[-71.417725,-32.942205],[-71.417803,-32.941662],[-71.417914,-32.941708],[-71.419018,-32.941662],[-71.420169,-32.941478],[-71.422585,-32.940604],[-71.423432,-32.940346],[-71.424058,-32.939941],[-71.425052,-32.939536],[-71.426193,-32.939021],[-71.426658,-32.938649],[-71.427847,-32.939428],[-71.432908,-32.93804],[-71.433529,-32.933741],[-71.436458,-32.932937],[-71.436567,-32.932979],[-71.437049,-32.933105],[-71.438086,-32.933267],[-71.439079,-32.933167],[-71.439554,-32.933009],[-71.439571,-32.932995],[-71.443031,-32.935262],[-71.448092,-32.933872],[-71.452533,-32.936782],[-71.457595,-32.935392],[-71.462037,-32.938302],[-71.467099,-32.936912],[-71.467719,-32.932612],[-71.472782,-32.931221],[-71.477224,-32.93413],[-71.482286,-32.932739],[-71.482907,-32.928439],[-71.487969,-32.927048],[-71.492412,-32.929957],[-71.491792,-32.934257],[-71.496235,-32.937165],[-71.501298,-32.935774],[-71.501918,-32.931473],[-71.506981,-32.930081],[-71.511425,-32.932989],[-71.510805,-32.93729],[-71.505741,-32.938682],[-71.505121,-32.942982],[-71.509565,-32.94589],[-71.508945,-32.950189],[-71.513389,-32.953097],[-71.512769,-32.957396],[-71.507705,-32.958788],[-71.5073,-32.961595],[-71.507231,-32.961633],[-71.507175,-32.961674],[-71.507063,-32.961756],[-71.506793,-32.961953],[-71.505319,-32.963029],[-71.503732,-32.963971],[-71.503619,-32.964038],[-71.502021,-32.964477],[-71.50194,-32.965038],[-71.500795,-32.965721],[-71.500613,-32.965835],[-71.49979,-32.966348],[-71.498766,-32.966989],[-71.497395,-32.967967],[-71.496076,-32.968795],[-71.4957,-32.969072],[-71.495256,-32.969459],[-71.494171,-32.970406],[-71.493203,-32.971035],[-71.492022,-32.97167],[-71.491649,-32.971856],[-71.491016,-32.972171],[-71.490027,-32.972674],[-71.489272,-32.973053],[-71.488459,-32.973458],[-71.487622,-32.973871],[-71.487103,-32.974127],[-71.484409,-32.975383],[-71.484258,-32.975443],[-71.482758,-32.976039],[-71.482272,-32.976264],[-71.481774,-32.976455],[-71.480906,-32.976788],[-71.480782,-32.976854],[-71.480241,-32.977143],[-71.479787,-32.977516],[-71.479526,-32.97773],[-71.47936,-32.977894],[-71.479162,-32.978008],[-71.479036,-32.978233],[-71.478926,-32.978355],[-71.478803,-32.978453],[-71.478714,-32.978491],[-71.478222,-32.978893],[-71.477843,-32.979067],[-71.477553,-32.979302],[-71.47706,-32.979513],[-71.476831,-32.979647],[-71.47669,-32.979729],[-71.476124,-32.980061],[-71.475553,-32.980395],[-71.475502,-32.980457],[-71.475481,-32.980576],[-71.475493,-32.980717],[-71.475638,-32.981157],[-71.475968,-32.981856],[-71.476141,-32.982369],[-71.476141,-32.982369],[-71.476163,-32.982584],[-71.476144,-32.982688],[-71.476144,-32.982688],[-71.475956,-32.983059],[-71.475844,-32.983213],[-71.47531,-32.983414],[-71.474963,-32.983481],[-71.474826,-32.983508],[-71.474457,-32.983454],[-71.473977,-32.983237],[-71.473839,-32.983218],[-71.473211,-32.983483],[-71.472929,-32.983543],[-71.471277,-32.983554],[-71.471277,-32.983555],[-71.470718,-32.983708],[-71.47049,-32.983756],[-71.470151,-32.983898],[-71.469955,-32.984088],[-71.469848,-32.984284],[-71.469812,-32.984762],[-71.469471,-32.985179],[-71.469246,-32.985359],[-71.469176,-32.985416],[-71.468954,-32.985543],[-71.467637,-32.985058],[-71.467006,-32.984868],[-71.466736,-32.984758],[-71.466691,-32.984759],[-71.466513,-32.984761],[-71.466089,-32.985024],[-71.465743,-32.985193],[-71.465555,-32.985307],[-71.465369,-32.985369],[-71.464742,-32.985437],[-71.464488,-32.985435],[-71.464135,-32.985433],[-71.46413,-32.985434],[-71.463967,-32.985459],[-71.461945,-32.985776],[-71.461622,-32.985783],[-71.461228,-32.985954],[-71.460044,-32.986783],[-71.459877,-32.986924],[-71.45977,-32.987014],[-71.459551,-32.987172],[-71.459252,-32.987525],[-71.459116,-32.987564],[-71.458938,-32.987679],[-71.458831,-32.987778],[-71.458819,-32.98784],[-71.458664,-32.98806],[-71.458587,-32.988247],[-71.458451,-32.988432],[-71.45832,-32.988513],[-71.458208,-32.988622],[-71.458103,-32.988788],[-71.457924,-32.988958],[-71.457761,-32.989113],[-71.456905,-32.989368],[-71.456808,-32.989432],[-71.456642,-32.989491],[-71.456424,-32.989603],[-71.456424,-32.989603],[-71.45638,-32.989665],[-71.456136,-32.989805],[-71.455971,-32.989967],[-71.455572,-32.990281],[-71.455397,-32.990399],[-71.455082,-32.990535],[-71.454908,-32.990589],[-71.454526,-32.990622],[-71.454512,-32.990621],[-71.454481,-32.99062],[-71.454297,-32.99061],[-71.454265,-32.990617],[-71.453998,-32.990681],[-71.453594,-32.990957],[-71.453271,-32.991356],[-71.453189,-32.9915],[-71.452694,-32.99201],[-71.452455,-32.992063],[-71.452118,-32.992052],[-71.45185,-32.992104],[-71.451725,-32.992149],[-71.451442,-32.99233],[-71.451329,-32.992355],[-71.45093,-32.992558],[-71.450723,-32.992693],[-71.45055,-32.992936],[-71.450403,-32.993094],[-71.449776,-32.993565],[-71.449711,-32.993613],[-71.449507,-32.993728],[-71.449016,-32.993808],[-71.448912,-32.993901],[-71.448837,-32.994079],[-71.448766,-32.99425],[-71.448729,-32.994428],[-71.448634,-32.994573],[-71.448606,-32.994806],[-71.448606,-32.994806],[-71.448483,-32.995044],[-71.448448,-32.99511],[-71.448446,-32.995116],[-71.448371,-32.995206],[-71.448228,-32.995377],[-71.448186,-32.995427],[-71.448005,-32.995576],[-71.448005,-32.995576],[-71.447905,-32.995641],[-71.447657,-32.995911],[-71.447569,-32.996058],[-71.447413,-32.996232],[-71.44723,-32.996502],[-71.447201,-32.99661],[-71.447201,-32.99661],[-71.447196,-32.996757],[-71.447247,-32.996988],[-71.447247,-32.996988],[-71.447228,-32.99733],[-71.447146,-32.997611],[-71.446954,-32.997921],[-71.446806,-32.998097],[-71.446511,-32.998447],[-71.446511,-32.998447],[-71.446395,-32.998712],[-71.446271,-32.998854],[-71.446011,-32.998928],[-71.445627,-32.99917],[-71.445153,-32.999403],[-71.444711,-32.999502],[-71.444461,-32.999558],[-71.444157,-32.999842],[-71.444099,-32.999955],[-71.44407,-33.000023],[-71.444017,-33.000145],[-71.444009,-33.000159],[-71.444009,-33.00016],[-71.444008,-33.00016],[-71.443999,-33.000176],[-71.443969,-33.000228],[-71.443936,-33.000285],[-71.443917,-33.000319],[-71.443914,-33.000323],[-71.443912,-33.000327],[-71.443909,-33.000332],[-71.443906,-33.000338],[-71.443889,-33.000423],[-71.443848,-33.000514],[-71.443772,-33.000684],[-71.443569,-33.00101],[-71.443549,-33.00105],[-71.443535,-33.001077],[-71.443524,-33.0011],[-71.443503,-33.001142],[-71.443482,-33.001166],[-71.443358,-33.001307],[-71.443311,-33.001425],[-71.443173,-33.001571],[-71.443111,-33.001638],[-71.443034,-33.001754],[-71.442938,-33.001809],[-71.442864,-33.001882],[-71.44276,-33.002],[-71.44219,-33.001875],[-71.441755,-33.001875],[-71.441185,-33.001908],[-71.440583,-33.001942],[-71.44008,-33.001975],[-71.439544,-33.002109],[-71.439042,-33.002143],[-71.438406,-33.002143],[-71.438071,-33.002009],[-71.437702,-33.001942],[-71.4372,-33.001908],[-71.436899,-33.001908],[-71.43653,-33.001908],[-71.436028,-33.001908],[-71.435727,-33.001908],[-71.435291,-33.001808],[-71.434889,-33.001573],[-71.43442,-33.001339],[-71.434086,-33.001138],[-71.433869,-33.001008],[-71.433809,-33.000919],[-71.433713,-33.000778],[-71.433636,-33.000271],[-71.43361,-33.000099],[-71.433605,-33.000093],[-71.433713,-32.99974],[-71.433721,-32.999715],[-71.433936,-32.999013],[-71.433929,-32.998799],[-71.433924,-32.998604],[-71.433901,-32.998299],[-71.433909,-32.998051],[-71.43397,-32.997821],[-71.434033,-32.997617],[-71.434109,-32.997332],[-71.434148,-32.997076],[-71.434164,-32.996845],[-71.434164,-32.996845],[-71.434103,-32.996479],[-71.434024,-32.996158],[-71.433986,-32.995878],[-71.433979,-32.99561],[-71.434012,-32.995169],[-71.434097,-32.994957],[-71.434182,-32.994771],[-71.434395,-32.994485],[-71.434548,-32.99423],[-71.434595,-32.994059],[-71.434561,-32.993926],[-71.434389,-32.99345],[-71.434347,-32.993298],[-71.434244,-32.993134],[-71.434112,-32.993003],[-71.433934,-32.992872],[-71.433665,-32.992749],[-71.433477,-32.992636],[-71.433131,-32.992412],[-71.43294,-32.992265],[-71.432782,-32.99212],[-71.432611,-32.991944],[-71.432506,-32.991798],[-71.432494,-32.991781],[-71.432424,-32.991662],[-71.432361,-32.991599],[-71.432285,-32.991533],[-71.432197,-32.991418],[-71.43214,-32.991285],[-71.432061,-32.991172],[-71.431975,-32.991084],[-71.431861,-32.991048],[-71.431685,-32.991006],[-71.431532,-32.990933],[-71.431417,-32.990858],[-71.4313,-32.990784],[-71.431006,-32.990554],[-71.430841,-32.990346],[-71.430769,-32.990201],[-71.430728,-32.990067],[-71.430716,-32.989902],[-71.43075,-32.989499],[-71.43075,-32.989498],[-71.43074,-32.989154],[-71.430705,-32.988689],[-71.430705,-32.988688],[-71.430657,-32.988306],[-71.430657,-32.988306],[-71.430567,-32.987785],[-71.43053,-32.987471],[-71.430508,-32.987271],[-71.430481,-32.98686],[-71.430454,-32.986714],[-71.430411,-32.986542],[-71.43037,-32.986422],[-71.43037,-32.986422],[-71.430349,-32.986401],[-71.430144,-32.98619],[-71.429904,-32.985972],[-71.429532,-32.985616],[-71.429109,-32.985254],[-71.428903,-32.985068],[-71.428611,-32.984802],[-71.428452,-32.984658],[-71.431139,-32.983922],[-71.43176,-32.979626],[-71.436822,-32.978238],[-71.441263,-32.981147],[-71.446326,-32.97976],[-71.450767,-32.982668],[-71.45583,-32.98128],[-71.456451,-32.976984],[-71.452009,-32.974075],[-71.45263,-32.969778],[-71.457692,-32.96839],[-71.458313,-32.964092],[-71.453871,-32.961183],[-71.448809,-32.962572],[-71.448188,-32.966869],[-71.443126,-32.968258],[-71.438685,-32.965349],[-71.439306,-32.961051],[-71.434865,-32.958142],[-71.429803,-32.95953],[-71.425363,-32.95662],[-71.425984,-32.952323],[-71.421543,-32.949413],[-71.416482,-32.9508],[-71.415861,-32.955098],[-71.4108,-32.956485],[-71.410179,-32.960782],[-71.405118,-32.962169],[-71.404496,-32.966465],[-71.408936,-32.969375],[-71.413997,-32.967988],[-71.418438,-32.970898],[-71.423499,-32.969511],[-71.42794,-32.97242],[-71.427319,-32.976717],[-71.425473,-32.977223],[-71.42529,-32.97686],[-71.4251,-32.976544],[-71.424866,-32.976306],[-71.424866,-32.976306],[-71.424565,-32.97607],[-71.424258,-32.975855],[-71.424125,-32.97576],[-71.4239,-32.975603],[-71.423761,-32.975536],[-71.423594,-32.975514],[-71.42339,-32.97553],[-71.422886,-32.975661],[-71.421637,-32.976008],[-71.421242,-32.976103],[-71.419756,-32.976443],[-71.41973,-32.976448],[-71.419273,-32.97653],[-71.419096,-32.976525],[-71.419001,-32.976522],[-71.418675,-32.976516],[-71.418403,-32.976566],[-71.418081,-32.976706],[-71.417716,-32.976924],[-71.417469,-32.977044],[-71.417288,-32.977053],[-71.416653,-32.976823],[-71.416354,-32.976688],[-71.416042,-32.976381],[-71.415786,-32.976169],[-71.415417,-32.975972],[-71.415249,-32.975898],[-71.414865,-32.975727],[-71.414444,-32.975566],[-71.413717,-32.975284],[-71.413182,-32.975096],[-71.412892,-32.975019],[-71.412664,-32.974997],[-71.412498,-32.975004],[-71.412331,-32.97501],[-71.412165,-32.975033],[-71.411696,-32.975067],[-71.411378,-32.975067],[-71.41118,-32.975052],[-71.410899,-32.974993],[-71.410823,-32.97498],[-71.41075,-32.974967],[-71.41067,-32.974953],[-71.410572,-32.974948],[-71.410451,-32.974963],[-71.410345,-32.975002],[-71.410226,-32.975044],[-71.409933,-32.975152],[-71.409715,-32.975208],[-71.409353,-32.975266],[-71.409005,-32.975279],[-71.408648,-32.975254],[-71.408435,-32.975232],[-71.408123,-32.975168],[-71.407917,-32.975108],[-71.407781,-32.975104],[-71.407653,-32.975171],[-71.407476,-32.975334],[-71.40729,-32.975459],[-71.40702,-32.975553],[-71.406801,-32.975596],[-71.406649,-32.97558],[-71.406481,-32.975513],[-71.406213,-32.975409],[-71.406028,-32.975279],[-71.405803,-32.975098],[-71.405588,-32.974981],[-71.405336,-32.974903],[-71.404926,-32.974828],[-71.404605,-32.97477],[-71.404482,-32.974721],[-71.404375,-32.974678],[-71.404045,-32.974525],[-71.403685,-32.974385],[-71.40344,-32.974256],[-71.403233,-32.97417],[-71.403057,-32.974129],[-71.402815,-32.97414],[-71.402408,-32.974192],[-71.40209,-32.974224],[-71.401986,-32.974226],[-71.401916,-32.974228],[-71.401657,-32.974175],[-71.401578,-32.974152],[-71.401322,-32.974077],[-71.400962,-32.973978],[-71.400962,-32.973978],[-71.400667,-32.973964],[-71.400416,-32.97395],[-71.400235,-32.973985],[-71.399988,-32.974093],[-71.399517,-32.974344],[-71.399181,-32.97451],[-71.398948,-32.974579],[-71.398692,-32.974609],[-71.398457,-32.974613],[-71.39819,-32.974548],[-71.397846,-32.974434],[-71.397631,-32.974223],[-71.397099,-32.973688],[-71.39693,-32.973628],[-71.39662,-32.973627],[-71.396003,-32.973799],[-71.395485,-32.973981],[-71.395201,-32.974095],[-71.394982,-32.974118],[-71.394738,-32.974072],[-71.394364,-32.973952],[-71.394004,-32.973854],[-71.393717,-32.973779],[-71.393753,-32.973533],[-71.391402,-32.971992],[-71.39127,-32.971616],[-71.391145,-32.971472],[-71.390976,-32.97136],[-71.390189,-32.971197],[-71.389314,-32.970623],[-71.388532,-32.970837],[-71.388241,-32.97078],[-71.388078,-32.970656],[-71.38772,-32.970292],[-71.387391,-32.969909],[-71.387342,-32.969757],[-71.387249,-32.969407],[-71.387113,-32.968961],[-71.387008,-32.968601],[-71.386707,-32.967906],[-71.386535,-32.967508],[-71.386179,-32.966732],[-71.386059,-32.966472],[-71.385208,-32.964788],[-71.385189,-32.964744],[-71.385358,-32.964719],[-71.385526,-32.96468],[-71.385652,-32.964669],[-71.385753,-32.964685],[-71.385938,-32.964672],[-71.386185,-32.964623],[-71.386255,-32.964648],[-71.386385,-32.964757],[-71.386534,-32.965013],[-71.386765,-32.965151],[-71.386868,-32.965243],[-71.386926,-32.965219],[-71.386952,-32.965188],[-71.386969,-32.965036],[-71.386986,-32.964893],[-71.386984,-32.964821],[-71.386886,-32.964725],[-71.386858,-32.964659],[-71.386843,-32.964491],[-71.386838,-32.964296],[-71.389935,-32.966327],[-71.394996,-32.964941],[-71.395617,-32.960645],[-71.395064,-32.960282],[-71.395572,-32.960002],[-71.395839,-32.959812],[-71.396302,-32.959293],[-71.396809,-32.958707],[-71.398702,-32.956819],[-71.399854,-32.95571],[-71.401009,-32.954771],[-71.401106,-32.954693],[-71.401622,-32.954125],[-71.402137,-32.953456],[-71.403161,-32.952506],[-71.403429,-32.952227],[-71.403438,-32.952105],[-71.403396,-32.951953],[-71.403078,-32.951685],[-71.40225,-32.951148],[-71.401687,-32.950737],[-71.401687,-32.950737],[-71.401391,-32.950328],[-71.401314,-32.950094],[-71.401314,-32.950094],[-71.401314,-32.950094],[-71.401476,-32.949314],[-71.401544,-32.949292],[-71.401647,-32.949176],[-71.401749,-32.949129],[-71.401814,-32.949057],[-71.401873,-32.949033],[-71.401932,-32.949029],[-71.40195,-32.948985],[-71.40202,-32.948981],[-71.402153,-32.948905],[-71.402152,-32.948874],[-71.402191,-32.948827],[-71.402374,-32.948747],[-71.402395,-32.948657],[-71.402557,-32.948644],[-71.402587,-32.94859],[-71.402623,-32.948557],[-71.402696,-32.948522],[-71.402661,-32.948419],[-71.402711,-32.948358],[-71.402921,-32.948238],[-71.402969,-32.94812],[-71.403027,-32.948093],[-71.403083,-32.948102],[-71.403172,-32.948031],[-71.403219,-32.947949],[-71.403238,-32.947862],[-71.403304,-32.947811],[-71.403347,-32.947728],[-71.403322,-32.947703],[-71.403259,-32.947637],[-71.403154,-32.947538],[-71.403148,-32.947441],[-71.403178,-32.947384],[-71.403142,-32.947232],[-71.403185,-32.947184],[-71.403155,-32.947115],[-71.403091,-32.947103],[-71.40307,-32.94706],[-71.403117,-32.946927],[-71.403176,-32.946857]],[[-71.455733,-32.948289],[-71.460175,-32.951198],[-71.465237,-32.949809],[-71.465858,-32.94551],[-71.461416,-32.942601],[-71.456354,-32.943991],[-71.451913,-32.941081],[-71.446851,-32.94247],[-71.44623,-32.946769],[-71.450671,-32.949678],[-71.455733,-32.948289]],[[-71.478564,-32.958535],[-71.483007,-32.961443],[-71.48807,-32.960052],[-71.488691,-32.955754],[-71.484248,-32.952846],[-71.484868,-32.948547],[-71.480425,-32.945638],[-71.481046,-32.941339],[-71.476603,-32.93843],[-71.471541,-32.939821],[-71.47092,-32.94412],[-71.475363,-32.947029],[-71.474742,-32.951328],[-71.479185,-32.954236],[-71.478564,-32.958535]]]},"properties":{"comuna":"Concón","mancha_id":"05103-88b2c40005fffff","clase":"Alto","nivel_medio":2.858,"nivel_medio_min":2.512,"nivel_medio_max":3.441,"pct_alto":78.9,"n_hexagonos":76,"area_ha":4037.01}},{"type":"Feature","geometry":{"type":"Polygon","coordinates":[[[-71.482709,-32.920233],[-71.479085,-32.921229],[-71.476038,-32.919234],[-71.476101,-32.919229],[-71.476241,-32.919219],[-71.476413,-32.919232],[-71.476529,-32.919261],[-71.476761,-32.919302],[-71.476983,-32.919345],[-71.477241,-32.919452],[-71.477401,-32.919494],[-71.477605,-32.919543],[-71.477958,-32.919615],[-71.478222,-32.919657],[-71.478479,-32.919687],[-71.478702,-32.91974],[-71.478884,-32.919778],[-71.47908,-32.919839],[-71.479294,-32.91988],[-71.479488,-32.919938],[-71.47969,-32.920005],[-71.47988,-32.920076],[-71.480186,-32.920197],[-71.480387,-32.920279],[-71.480498,-32.920314],[-71.480576,-32.920309],[-71.480789,-32.920293],[-71.481176,-32.920275],[-71.48181,-32.92031],[-71.482369,-32.92029],[-71.48237,-32.92029],[-71.482709,-32.920233]]]},"properties":{"comuna":"Concón","mancha_id":"05103-88b2c418d7fffff","clase":"Muy Alto","nivel_medio":3.523,"nivel_medio_min":3.523,"nivel_medio_max":3.523,"pct_alto":98.0,"n_hexagonos":1,"area_ha":4.3}},{"type":"Feature","geometry":{"type":"Polygon","coordinates":[[[-71.528581,-32.948921],[-71.527961,-32.95322],[-71.529131,-32.953985],[-71.528713,-32.954122],[-71.526158,-32.95477],[-71.525336,-32.954996],[-71.524854,-32.955133],[-71.524246,-32.955307],[-71.52392,-32.955378],[-71.523752,-32.955414],[-71.52373,-32.955419],[-71.523522,-32.955486],[-71.522883,-32.95569],[-71.522735,-32.955737],[-71.522287,-32.955879],[-71.521901,-32.956002],[-71.521563,-32.956109],[-71.521405,-32.956158],[-71.52107,-32.956268],[-71.520673,-32.956416],[-71.520339,-32.956508],[-71.52007,-32.956581],[-71.519828,-32.956647],[-71.519808,-32.956654],[-71.519394,-32.95678],[-71.518805,-32.956961],[-71.518276,-32.957123],[-71.517654,-32.957314],[-71.516987,-32.957518],[-71.516488,-32.957672],[-71.516204,-32.957757],[-71.516204,-32.957757],[-71.516204,-32.957757],[-71.516006,-32.957816],[-71.515575,-32.957943],[-71.515296,-32.958026],[-71.514291,-32.958393],[-71.512769,-32.957396],[-71.513389,-32.953097],[-71.508945,-32.950189],[-71.509565,-32.94589],[-71.505121,-32.942982],[-71.505741,-32.938682],[-71.510805,-32.93729],[-71.515248,-32.940198],[-71.514628,-32.944498],[-71.519072,-32.947406],[-71.524137,-32.946013],[-71.528581,-32.948921]]]},"properties":{"comuna":"Concón","mancha_id":"05103-88b2c40a41fffff","clase":"Muy Alto","nivel_medio":3.609,"nivel_medio_min":3.522,"nivel_medio_max":3.834,"pct_alto":97.6,"n_hexagonos":5,"area_ha":246.05}}],"bbox":[-71.55454,-33.00215,-71.38518,-32.91381]}