{"type":"FeatureCollection","features":[{"type":"Feature","geometry":{"type":"Polygon","coordinates":[[[-71.54264,-32.78365],[-71.542624,-32.783808],[-71.54262,-32.78385],[-71.54255,-32.78389],[-71.54252,-32.78398],[-71.54257,-32.78417],[-71.54263,-32.78436],[-71.54263,-32.78445],[-71.54255,-32.78456],[-71.54256,-32.78473],[-71.54265,-32.78483],[-71.54272,-32.78483],[-71.542925,-32.78477],[-71.54307,-32.78467],[-71.54332,-32.78454],[-71.54357,-32.78456],[-71.54368,-32.78475],[-71.54368,-32.78488],[-71.54363,-32.78493],[-71.54363,-32.78502],[-71.5435,-32.78531],[-71.54354,-32.78549],[-71.54354,-32.78568],[-71.54351,-32.78577],[-71.54347,-32.78587],[-71.54335,-32.78606],[-71.54333,-32.78614],[-71.54322,-32.7862],[-71.54305,-32.78645],[-71.543,-32.78664],[-71.543035,-32.786855],[-71.5433,-32.78721],[-71.54339,-32.78746],[-71.5434,-32.78783],[-71.54343,-32.78802],[-71.5435,-32.78821],[-71.54355,-32.78825],[-71.54358,-32.78831],[-71.5438,-32.78849],[-71.54392,-32.78866],[-71.54396,-32.78884],[-71.54402,-32.78903],[-71.54401,-32.78926],[-71.54396,-32.78978],[-71.54395,-32.79035],[-71.543995,-32.79055],[-71.54401,-32.79068],[-71.54409,-32.79075],[-71.5441,-32.79091],[-71.54434,-32.79147],[-71.544416,-32.791581],[-71.541375,-32.792422],[-71.540756,-32.796732],[-71.535694,-32.798131],[-71.531252,-32.79522],[-71.531872,-32.790909],[-71.52743,-32.787998],[-71.528049,-32.783687],[-71.525861,-32.782253],[-71.52639,-32.78178],[-71.52661,-32.78128],[-71.52672,-32.78093],[-71.52671,-32.78067],[-71.52674,-32.78055],[-71.52671,-32.78008],[-71.52672,-32.77998],[-71.52669,-32.77985],[-71.52663,-32.7797],[-71.52656,-32.77958],[-71.52653,-32.77947],[-71.52639,-32.77923],[-71.52631,-32.77912],[-71.52613,-32.77869],[-71.52604,-32.77861],[-71.52601,-32.77853],[-71.5259,-32.77842],[-71.52585,-32.7783],[-71.52539,-32.77769],[-71.52531,-32.77746],[-71.52533,-32.77734],[-71.52543,-32.7771],[-71.52551,-32.77698],[-71.52574,-32.77674],[-71.5259,-32.77648],[-71.52592,-32.77636],[-71.52592,-32.77624],[-71.52589,-32.77616],[-71.525877,-32.776008],[-71.52587,-32.77592],[-71.52581,-32.7758],[-71.52573,-32.775705],[-71.52568,-32.77567],[-71.52561,-32.77558],[-71.52555,-32.7755],[-71.52554,-32.7753],[-71.5256,-32.77527],[-71.52571,-32.77517],[-71.52582,-32.77517],[-71.52593,-32.77522],[-71.52602,-32.775285],[-71.52609,-32.77541],[-71.52615,-32.77544],[-71.5262,-32.775605],[-71.52639,-32.77575],[-71.52653,-32.77576],[-71.52667,-32.77575],[-71.526765,-32.7757],[-71.52683,-32.77565],[-71.52699,-32.77546],[-71.52711,-32.775335],[-71.52723,-32.77511],[-71.527265,-32.775005],[-71.52729,-32.77487],[-71.52729,-32.77471],[-71.52724,-32.77466],[-71.5271,-32.7744],[-71.52701,-32.77429],[-71.527,-32.77417],[-71.52707,-32.77393],[-71.52709,-32.77377],[-71.52678,-32.77311],[-71.52669,-32.77276],[-71.52668,-32.77264],[-71.52672,-32.7724],[-71.52679,-32.77226],[-71.52696,-32.77205],[-71.52712,-32.77178],[-71.52718,-32.77155],[-71.52727,-32.77131],[-71.52736,-32.77122],[-71.52746,-32.77108],[-71.52782,-32.77083],[-71.52791,-32.77074],[-71.52797,-32.77065],[-71.5281,-32.77039],[-71.52814,-32.77028],[-71.52814,-32.76992],[-71.52821,-32.76968],[-71.528233,-32.769656],[-71.529907,-32.770754],[-71.534968,-32.769354],[-71.53941,-32.772266],[-71.539022,-32.774967],[-71.53894,-32.77504],[-71.53888,-32.77523],[-71.5389,-32.77542],[-71.53885,-32.775635],[-71.53871,-32.77574],[-71.53859,-32.77576],[-71.53846,-32.77567],[-71.5383,-32.77551],[-71.53812,-32.77547],[-71.53795,-32.77564],[-71.5379,-32.776],[-71.53786,-32.77606],[-71.5377,-32.77615],[-71.53744,-32.77626],[-71.53727,-32.7764],[-71.53723,-32.7765],[-71.53717,-32.7765],[-71.53716,-32.77696],[-71.537145,-32.777033],[-71.535977,-32.777356],[-71.53594,-32.77735],[-71.53583,-32.77734],[-71.53569,-32.77736],[-71.535403,-32.777515],[-71.533729,-32.777977],[-71.53311,-32.782288],[-71.537552,-32.7852],[-71.542613,-32.783801],[-71.542636,-32.783644],[-71.54264,-32.78365]]]},"properties":{"comuna":"Quintero","mancha_id":"05107-88b2c4c589fffff","clase":"Muy Bajo","nivel_medio":0.182,"nivel_medio_min":0.0,"nivel_medio_max":0.41,"pct_alto":2.4,"n_hexagonos":7,"area_ha":306.53}},{"type":"Feature","geometry":{"type":"Polygon","coordinates":[[[-71.490044,-32.77763],[-71.485605,-32.774717],[-71.486078,-32.771427],[-71.489806,-32.770356],[-71.490586,-32.770116],[-71.49099,-32.77072],[-71.49147,-32.7712],[-71.49261,-32.77268],[-71.49295,-32.77302],[-71.49344,-32.77365],[-71.49393,-32.77414],[-71.495258,-32.775166],[-71.49587,-32.77564],[-71.49718,-32.77685],[-71.49844,-32.7778],[-71.49955,-32.77878],[-71.5,-32.77896],[-71.500092,-32.778994],[-71.50027,-32.77906],[-71.5014,-32.77952],[-71.50217,-32.77987],[-71.50245,-32.78015],[-71.50275,-32.78033],[-71.50294,-32.78042],[-71.50351,-32.78061],[-71.50375,-32.78074],[-71.50388,-32.78078],[-71.50399,-32.78085],[-71.50424,-32.78093],[-71.50447,-32.78104],[-71.50461,-32.78107],[-71.50489,-32.78116],[-71.50515,-32.78126],[-71.50529,-32.7813],[-71.50627,-32.78147],[-71.50683,-32.78154],[-71.50725,-32.78161],[-71.50739,-32.78162],[-71.50753,-32.78165],[-71.50781,-32.7816],[-71.50795,-32.78155],[-71.50836,-32.78135],[-71.5085,-32.78133],[-71.50861,-32.78132],[-71.50876,-32.7814],[-71.50889,-32.78156],[-71.508911,-32.781596],[-71.508426,-32.78497],[-71.503365,-32.786368],[-71.498925,-32.783456],[-71.499545,-32.779145],[-71.495104,-32.776233],[-71.490044,-32.77763]]]},"properties":{"comuna":"Quintero","mancha_id":"05107-88b2c4c48dfffff","clase":"Muy Bajo","nivel_medio":0.351,"nivel_medio_min":0.285,"nivel_medio_max":0.471,"pct_alto":5.7,"n_hexagonos":3,"area_ha":97.48}},{"type":"Feature","geometry":{"type":"Polygon","coordinates":[[[-71.502952,-32.856807],[-71.503572,-32.852501],[-71.508633,-32.851106],[-71.513075,-32.854016],[-71.514993,-32.853488],[-71.51494,-32.85369],[-71.51495,-32.85385],[-71.51489,-32.85402],[-71.51473,-32.85501],[-71.51474,-32.85534],[-71.5147,-32.85551],[-71.51467,-32.85584],[-71.51462,-32.85601],[-71.51462,-32.85617],[-71.5146,-32.85634],[-71.51455,-32.85651],[-71.51455,-32.85667],[-71.51453,-32.85684],[-71.51456,-32.85733],[-71.51455,-32.85747],[-71.51456,-32.85797],[-71.51458,-32.85813],[-71.51457,-32.85827],[-71.5146,-32.85844],[-71.51461,-32.85875],[-71.51454,-32.85924],[-71.51454,-32.85941],[-71.514516,-32.859672],[-71.512456,-32.858322],[-71.507394,-32.859717],[-71.506774,-32.864022],[-71.501712,-32.865417],[-71.49727,-32.862507],[-71.49789,-32.858201],[-71.502952,-32.856807]]]},"properties":{"comuna":"Quintero","mancha_id":"05107-88b2c41a33fffff","clase":"Muy Bajo","nivel_medio":0.168,"nivel_medio_min":0.018,"nivel_medio_max":0.339,"pct_alto":1.4,"n_hexagonos":3,"area_ha":140.8}},{"type":"Feature","geometry":{"type":"Polygon","coordinates":[[[-71.510596,-32.871237],[-71.511216,-32.866932],[-71.513894,-32.866194],[-71.51386,-32.86634],[-71.51384,-32.86655],[-71.51377,-32.86667],[-71.51356,-32.86733],[-71.51342,-32.86767],[-71.51338,-32.86783],[-71.51327,-32.86817],[-71.51319,-32.86833],[-71.51315,-32.8685],[-71.51307,-32.86867],[-71.51302,-32.86883],[-71.51293,-32.869],[-71.51288,-32.86917],[-71.5128,-32.86933],[-71.51269,-32.86966],[-71.51254,-32.87],[-71.51248,-32.87016],[-71.51223,-32.87067],[-71.51213,-32.87083],[-71.51195,-32.87117],[-71.5119,-32.87133],[-71.51179,-32.87149],[-71.511607,-32.871899],[-71.510596,-32.871237]]]},"properties":{"comuna":"Quintero","mancha_id":"05107-88b2c41851fffff","clase":"Muy Bajo","nivel_medio":0.28,"nivel_medio_min":0.28,"nivel_medio_max":0.28,"pct_alto":7.4,"n_hexagonos":1,"area_ha":10.23}},{"type":"Feature","geometry":{"type":"Polygon","coordinates":[[[-71.508737,-32.88415],[-71.509357,-32.879846],[-71.510588,-32.879507],[-71.51059,-32.87971],[-71.51062,-32.87988],[-71.51063,-32.88016],[-71.51071,-32.88061],[-71.51071,-32.88108],[-71.51077,-32.88113],[-71.51077,-32.88141],[-71.51081,-32.88157],[-71.51084,-32.88171],[-71.5109,-32.88186],[-71.51097,-32.88228],[-71.51103,-32.88242],[-71.5111,-32.8827],[-71.51119,-32.88312],[-71.51125,-32.88326],[-71.51125,-32.88341],[-71.51148,-32.88398],[-71.51147,-32.88411],[-71.5115,-32.88427],[-71.51169,-32.8847],[-71.51172,-32.88484],[-71.51196,-32.88526],[-71.51199,-32.8854],[-71.51208,-32.88554],[-71.51218,-32.88582],[-71.51231,-32.88624],[-71.512442,-32.886576],[-71.508737,-32.88415]]]},"properties":{"comuna":"Quintero","mancha_id":"05107-88b2c41819fffff","clase":"Muy Bajo","nivel_medio":0.183,"nivel_medio_min":0.183,"nivel_medio_max":0.183,"pct_alto":0.0,"n_hexagonos":1,"area_ha":12.26}},{"type":"Feature","geometry":{"type":"Polygon","coordinates":[[[-71.506877,-32.89706],[-71.507497,-32.892757],[-71.509998,-32.892068],[-71.50992,-32.89219],[-71.50962,-32.89269],[-71.5095,-32.89286],[-71.50942,-32.89302],[-71.50932,-32.89318],[-71.50884,-32.89377],[-71.50874,-32.89394],[-71.50866,-32.8941],[-71.50856,-32.8943],[-71.50856,-32.8946],[-71.50847,-32.89493],[-71.50847,-32.8951],[-71.50842,-32.89526],[-71.5084,-32.89543],[-71.50812,-32.89593],[-71.50777,-32.89648],[-71.50763,-32.89681],[-71.50763,-32.89687],[-71.50757,-32.89714],[-71.50756,-32.89731],[-71.507566,-32.89751],[-71.506877,-32.89706]]]},"properties":{"comuna":"Quintero","mancha_id":"05107-88b2c41813fffff","clase":"Muy Bajo","nivel_medio":0.18,"nivel_medio_min":0.18,"nivel_medio_max":0.18,"pct_alto":5.9,"n_hexagonos":1,"area_ha":6.69}},{"type":"Feature","geometry":{"type":"Polygon","coordinates":[[[-71.51307,-32.88941],[-71.51286,-32.88975],[-71.512783,-32.889815],[-71.513062,-32.887878],[-71.51314,-32.88806],[-71.51319,-32.88821],[-71.51321,-32.88849],[-71.51324,-32.88863],[-71.51325,-32.88891],[-71.51318,-32.88924],[-71.51307,-32.88941]]]},"properties":{"comuna":"Quintero","mancha_id":"05107-88b2c41811fffff","clase":"Muy Bajo","nivel_medio":0.135,"nivel_medio_min":0.135,"nivel_medio_max":0.135,"pct_alto":0.0,"n_hexagonos":1,"area_ha":0.43}},{"type":"Feature","geometry":{"type":"Polygon","coordinates":[[[-71.52104,-32.88988],[-71.52098,-32.88981],[-71.52077,-32.88982],[-71.52056,-32.88981],[-71.52051,-32.88978],[-71.52045,-32.88978],[-71.52042,-32.88971],[-71.5204,-32.88944],[-71.520465,-32.88918],[-71.520445,-32.889095],[-71.5204,-32.88903],[-71.52036,-32.88898],[-71.52026,-32.88892],[-71.52021,-32.88858],[-71.52024,-32.88837],[-71.52037,-32.88824],[-71.52053,-32.88825],[-71.52074,-32.88849],[-71.52101,-32.88877],[-71.52121,-32.88881],[-71.5216,-32.88881],[-71.52175,-32.88886],[-71.52177,-32.88901],[-71.52161,-32.88931],[-71.52156,-32.8895],[-71.52159,-32.88988],[-71.52156,-32.88998],[-71.52147,-32.89006],[-71.52119,-32.89013],[-71.52112,-32.89013],[-71.52103,-32.89007],[-71.52104,-32.88988]]]},"properties":{"comuna":"Quintero","mancha_id":"05107-88b2c41811fffff-2","clase":"Muy Bajo","nivel_medio":0.135,"nivel_medio_min":0.135,"nivel_medio_max":0.135,"pct_alto":0.0,"n_hexagonos":1,"area_ha":1.77}},{"type":"Feature","geometry":{"type":"Polygon","coordinates":[[[-71.53639,-32.77746],[-71.53632,-32.77741],[-71.535977,-32.777356],[-71.537145,-32.777033],[-71.53712,-32.77715],[-71.53709,-32.77722],[-71.537,-32.77727],[-71.53694,-32.77733],[-71.53679,-32.77743],[-71.53658,-32.77747],[-71.53639,-32.77746]]]},"properties":{"comuna":"Quintero","mancha_id":"05107-88b2c4c5d5fffff","clase":"Bajo","nivel_medio":0.747,"nivel_medio_min":0.747,"nivel_medio_max":0.747,"pct_alto":7.6,"n_hexagonos":1,"area_ha":0.23}},{"type":"Feature","geometry":{"type":"Polygon","coordinates":[[[-71.537552,-32.7852],[-71.53311,-32.782288],[-71.533729,-32.777977],[-71.535403,-32.777515],[-71.5353,-32.77757],[-71.53511,-32.77765],[-71.5349,-32.7778],[-71.53485,-32.77798],[-71.53483,-32.77816],[-71.53486,-32.77835],[-71.53492,-32.77842],[-71.53501,-32.77873],[-71.534995,-32.778825],[-71.53498,-32.77892],[-71.53478,-32.7793],[-71.53463,-32.77949],[-71.5344,-32.77987],[-71.53423,-32.78025],[-71.53417,-32.78044],[-71.53407,-32.78082],[-71.53402,-32.7812],[-71.53395,-32.78158],[-71.53397,-32.78234],[-71.53404,-32.78252],[-71.53409,-32.78259],[-71.53428,-32.7829],[-71.534445,-32.78302],[-71.53466,-32.78314],[-71.53501,-32.78324],[-71.5356,-32.78318],[-71.53577,-32.78324],[-71.5358,-32.78329],[-71.53591,-32.78338],[-71.53619,-32.7834],[-71.53626,-32.78336],[-71.53639,-32.78334],[-71.53658,-32.78332],[-71.53679,-32.78333],[-71.53682,-32.78351],[-71.53669,-32.78369],[-71.53651,-32.78377],[-71.536435,-32.783835],[-71.53633,-32.78383],[-71.53636,-32.78399],[-71.53643,-32.78406],[-71.53657,-32.78404],[-71.53696,-32.78396],[-71.53723,-32.78397],[-71.53736,-32.78405],[-71.5376,-32.78436],[-71.53769,-32.78444],[-71.53777,-32.78447],[-71.53786,-32.7845],[-71.53803,-32.78447],[-71.53821,-32.78442],[-71.53826,-32.78437],[-71.53837,-32.784335],[-71.53849,-32.78424],[-71.53851,-32.78417],[-71.53859,-32.78411],[-71.53863,-32.78405],[-71.53876,-32.78393],[-71.53894,-32.78382],[-71.53914,-32.78373],[-71.53933,-32.78367],[-71.53952,-32.78366],[-71.53972,-32.78364],[-71.54011,-32.78364],[-71.54031,-32.78368],[-71.5407,-32.78385],[-71.54079,-32.78385],[-71.54127,-32.78359],[-71.54172,-32.78341],[-71.54192,-32.78334],[-71.54231,-32.78332],[-71.54238,-32.78333],[-71.54251,-32.78344],[-71.542636,-32.783644],[-71.542613,-32.783801],[-71.537552,-32.7852]]]},"properties":{"comuna":"Quintero","mancha_id":"05107-88b2c4c5d5fffff-2","clase":"Bajo","nivel_medio":0.747,"nivel_medio_min":0.747,"nivel_medio_max":0.747,"pct_alto":7.6,"n_hexagonos":1,"area_ha":10.99}},{"type":"Feature","geometry":{"type":"Polygon","coordinates":[[[-71.5469,-32.80525],[-71.5468,-32.805408],[-71.544579,-32.803953],[-71.545128,-32.800132],[-71.54517,-32.80035],[-71.54524,-32.80039],[-71.5457,-32.80084],[-71.54573,-32.801],[-71.54571,-32.80119],[-71.54577,-32.8014],[-71.54615,-32.80138],[-71.54623,-32.80139],[-71.54632,-32.8015],[-71.54637,-32.80167],[-71.54634,-32.80186],[-71.54639,-32.80205],[-71.54647,-32.80224],[-71.54647,-32.80243],[-71.54645,-32.80262],[-71.54636,-32.803],[-71.5463,-32.80319],[-71.54627,-32.80354],[-71.54634,-32.80375],[-71.54635,-32.80413],[-71.54639,-32.80432],[-71.54643,-32.80439],[-71.5469,-32.8047],[-71.54693,-32.80477],[-71.547,-32.80481],[-71.54698,-32.80513],[-71.54691,-32.80519],[-71.5469,-32.80525]]]},"properties":{"comuna":"Quintero","mancha_id":"05107-88b2c4c5b9fffff","clase":"Bajo","nivel_medio":1.24,"nivel_medio_min":1.24,"nivel_medio_max":1.24,"pct_alto":33.6,"n_hexagonos":1,"area_ha":6.43}},{"type":"Feature","geometry":{"type":"Polygon","coordinates":[[[-71.542722,-32.816881],[-71.543341,-32.812572],[-71.545659,-32.811931],[-71.54537,-32.81227],[-71.54525,-32.81254],[-71.54527,-32.81265],[-71.54524,-32.81276],[-71.54518,-32.81303],[-71.54513,-32.81322],[-71.54507,-32.81341],[-71.54496,-32.8136],[-71.54484,-32.81417],[-71.54472,-32.81455],[-71.54464,-32.81474],[-71.54436,-32.81512],[-71.54418,-32.8153],[-71.5439,-32.81553],[-71.543635,-32.8157],[-71.54355,-32.81583],[-71.54318,-32.81628],[-71.54307,-32.81647],[-71.542846,-32.816962],[-71.542722,-32.816881]]]},"properties":{"comuna":"Quintero","mancha_id":"05107-88b2c4c5b3fffff","clase":"Bajo","nivel_medio":1.086,"nivel_medio_min":1.086,"nivel_medio_max":1.086,"pct_alto":23.6,"n_hexagonos":1,"area_ha":6.41}},{"type":"Feature","geometry":{"type":"Polygon","coordinates":[[[-71.540756,-32.796732],[-71.541375,-32.792422],[-71.544416,-32.791581],[-71.54447,-32.79166],[-71.54478,-32.79205],[-71.54498,-32.79224],[-71.54533,-32.79261],[-71.54554,-32.79288],[-71.54558,-32.79308],[-71.54557,-32.79326],[-71.54559,-32.79345],[-71.54565,-32.79352],[-71.54565,-32.79358],[-71.54588,-32.79378],[-71.54589,-32.79384],[-71.54595,-32.79385],[-71.54598,-32.79399],[-71.54596,-32.79418],[-71.54593,-32.79437],[-71.54594,-32.79452],[-71.54599,-32.79457],[-71.54605,-32.794635],[-71.54616,-32.794755],[-71.54623,-32.79497],[-71.54624,-32.79516],[-71.54618,-32.79523],[-71.54614,-32.79535],[-71.54604,-32.79554],[-71.54596,-32.79573],[-71.54584,-32.79611],[-71.54582,-32.7963],[-71.54583,-32.79685],[-71.54584,-32.79706],[-71.5461,-32.79762],[-71.54611,-32.79774],[-71.54605,-32.798],[-71.54596,-32.79819],[-71.54584,-32.79838],[-71.54575,-32.79857],[-71.54561,-32.79876],[-71.54553,-32.79895],[-71.54541,-32.79914],[-71.54532,-32.79933],[-71.54527,-32.79952],[-71.545229,-32.799635],[-71.54518,-32.79977],[-71.545198,-32.799643],[-71.540756,-32.796732]]]},"properties":{"comuna":"Quintero","mancha_id":"05107-88b2c4c583fffff","clase":"Bajo","nivel_medio":0.949,"nivel_medio_min":0.949,"nivel_medio_max":1.24,"pct_alto":18.4,"n_hexagonos":2,"area_ha":31.46}},{"type":"Feature","geometry":{"type":"Polygon","coordinates":[[[-71.502746,-32.790678],[-71.503365,-32.786368],[-71.508426,-32.78497],[-71.508911,-32.781596],[-71.50896,-32.78168],[-71.50938,-32.78208],[-71.50959,-32.78225],[-71.50979,-32.78239],[-71.50988,-32.78247],[-71.51022,-32.78264],[-71.51034,-32.78268],[-71.51047,-32.78273],[-71.51061,-32.78275],[-71.51089,-32.78282],[-71.51145,-32.78292],[-71.51173,-32.78298],[-71.51196,-32.78306],[-71.51207,-32.78312],[-71.51233,-32.78319],[-71.51243,-32.78323],[-71.51292,-32.78336],[-71.51314,-32.78344],[-71.51342,-32.78351],[-71.51357,-32.78355],[-71.51371,-32.78362],[-71.51399,-32.78369],[-71.51455,-32.78381],[-71.51483,-32.78385],[-71.51511,-32.78393],[-71.51609,-32.78398],[-71.51665,-32.78407],[-71.51679,-32.78408],[-71.51791,-32.78406],[-71.51805,-32.78405],[-71.51819,-32.78407],[-71.518275,-32.784068],[-71.51861,-32.78406],[-71.51903,-32.78403],[-71.51917,-32.78405],[-71.51973,-32.784],[-71.52014,-32.78395],[-71.52056,-32.78385],[-71.5207,-32.7838],[-71.52084,-32.78377],[-71.52139,-32.7836],[-71.52195,-32.78348],[-71.52222,-32.78339],[-71.52236,-32.78337],[-71.5225,-32.78333],[-71.52264,-32.78327],[-71.52305,-32.78317],[-71.52319,-32.78316],[-71.523915,-32.78316],[-71.52412,-32.78309],[-71.52451,-32.78289],[-71.52483,-32.78273],[-71.5245,-32.78215],[-71.52477,-32.78201],[-71.52513,-32.78258],[-71.5255,-32.78244],[-71.52583,-32.78228],[-71.525861,-32.782253],[-71.528049,-32.783687],[-71.52743,-32.787998],[-71.531872,-32.790909],[-71.531252,-32.79522],[-71.535694,-32.798131],[-71.535075,-32.802441],[-71.530014,-32.803839],[-71.525572,-32.800928],[-71.526191,-32.796618],[-71.521749,-32.793706],[-71.522369,-32.789396],[-71.517927,-32.786484],[-71.512867,-32.787883],[-71.512247,-32.792192],[-71.507187,-32.79359],[-71.506567,-32.7979],[-71.501506,-32.799297],[-71.497066,-32.796385],[-71.497685,-32.792075],[-71.502746,-32.790678]]]},"properties":{"comuna":"Quintero","mancha_id":"05107-88b2c4c4a1fffff","clase":"Bajo","nivel_medio":0.944,"nivel_medio_min":0.653,"nivel_medio_max":1.348,"pct_alto":24.7,"n_hexagonos":6,"area_ha":346.61}},{"type":"Feature","geometry":{"type":"Polygon","coordinates":[[[-71.485605,-32.774717],[-71.490044,-32.77763],[-71.495104,-32.776233],[-71.499545,-32.779145],[-71.498925,-32.783456],[-71.493865,-32.784853],[-71.489425,-32.78194],[-71.487538,-32.782461],[-71.483064,-32.777741],[-71.481351,-32.775892],[-71.479067,-32.773426],[-71.476472,-32.770655],[-71.476726,-32.76889],[-71.481629,-32.767536],[-71.485789,-32.771509],[-71.486078,-32.771427],[-71.485605,-32.774717]]]},"properties":{"comuna":"Quintero","mancha_id":"05107-88b2c4c481fffff","clase":"Bajo","nivel_medio":0.858,"nivel_medio_min":0.845,"nivel_medio_max":0.871,"pct_alto":19.7,"n_hexagonos":3,"area_ha":154.96}},{"type":"Feature","geometry":{"type":"Polygon","coordinates":[[[-71.53555,-32.76502],[-71.535581,-32.765083],[-71.5356,-32.76512],[-71.53557,-32.76523],[-71.535556,-32.765255],[-71.53541,-32.76553],[-71.5354,-32.7657],[-71.535483,-32.765765],[-71.53558,-32.76584],[-71.53572,-32.76586],[-71.53614,-32.76584],[-71.53628,-32.76586],[-71.53642,-32.76591],[-71.53659,-32.76601],[-71.53673,-32.766],[-71.53701,-32.76588],[-71.53715,-32.76586],[-71.53757,-32.76583],[-71.53783,-32.76592],[-71.53789,-32.76604],[-71.53789,-32.76611],[-71.53773,-32.76638],[-71.53773,-32.76667],[-71.53807,-32.76676],[-71.53825,-32.76687],[-71.53829,-32.76692],[-71.53833,-32.766985],[-71.53835,-32.76705],[-71.53835,-32.76736],[-71.5383,-32.76743],[-71.53822,-32.76781],[-71.53821,-32.768],[-71.53829,-32.768205],[-71.53881,-32.76866],[-71.53886,-32.7687],[-71.53898,-32.76889],[-71.53903,-32.76906],[-71.53909,-32.76925],[-71.53919,-32.76944],[-71.53936,-32.7696],[-71.53957,-32.769843],[-71.53967,-32.77023],[-71.5397,-32.77061],[-71.53976,-32.7708],[-71.53992,-32.77117],[-71.53997,-32.77136],[-71.53998,-32.77155],[-71.53995,-32.77174],[-71.53987,-32.77212],[-71.539867,-32.77214],[-71.53941,-32.772266],[-71.534968,-32.769354],[-71.529907,-32.770754],[-71.528233,-32.769656],[-71.52841,-32.76947],[-71.52852,-32.76943],[-71.52857,-32.76938],[-71.52875,-32.76934],[-71.52931,-32.7693],[-71.52939,-32.7693],[-71.52945,-32.76929],[-71.52959,-32.7693],[-71.52987,-32.76936],[-71.53001,-32.76933],[-71.53012,-32.76927],[-71.53023,-32.76905],[-71.53049,-32.76883],[-71.53092,-32.76877],[-71.53097,-32.76874],[-71.53107,-32.76865],[-71.53109,-32.76854],[-71.531075,-32.768335],[-71.53107,-32.76816],[-71.53113,-32.76793],[-71.53118,-32.76781],[-71.53125,-32.76769],[-71.53134,-32.76759],[-71.53158,-32.7674],[-71.53185,-32.76729],[-71.5323,-32.76719],[-71.53258,-32.76718],[-71.53272,-32.76719],[-71.533,-32.76719],[-71.53312,-32.76717],[-71.53327,-32.76708],[-71.53346,-32.76691],[-71.53356,-32.76677],[-71.53367,-32.76653],[-71.53376,-32.76641],[-71.53378,-32.76629],[-71.5339,-32.76605],[-71.533995,-32.76577],[-71.53416,-32.76559],[-71.53429,-32.76549],[-71.53461,-32.76526],[-71.53486,-32.76511],[-71.53496,-32.76511],[-71.53517,-32.76502],[-71.53531,-32.76499],[-71.53545,-32.76497],[-71.53555,-32.76502]]]},"properties":{"comuna":"Quintero","mancha_id":"05107-88b2c4c437fffff","clase":"Bajo","nivel_medio":0.893,"nivel_medio_min":0.815,"nivel_medio_max":0.972,"pct_alto":12.5,"n_hexagonos":2,"area_ha":36.72}},{"type":"Feature","geometry":{"type":"Polygon","coordinates":[[[-71.493448,-32.855291],[-71.494068,-32.850985],[-71.49913,-32.84959],[-71.503572,-32.852501],[-71.502952,-32.856807],[-71.49789,-32.858201],[-71.493448,-32.855291]]]},"properties":{"comuna":"Quintero","mancha_id":"05107-88b2c41aedfffff","clase":"Bajo","nivel_medio":1.329,"nivel_medio_min":1.329,"nivel_medio_max":1.329,"pct_alto":28.2,"n_hexagonos":1,"area_ha":65.18}},{"type":"Feature","geometry":{"type":"Polygon","coordinates":[[[-71.529163,-32.828899],[-71.531359,-32.828293],[-71.532522,-32.829055],[-71.5323,-32.82935],[-71.5321,-32.82956],[-71.53193,-32.82963],[-71.53179,-32.829655],[-71.53164,-32.82969],[-71.531485,-32.82968],[-71.53139,-32.82966],[-71.53133,-32.82959],[-71.53127,-32.82943],[-71.53131,-32.82937],[-71.53133,-32.82928],[-71.53131,-32.82904],[-71.53121,-32.82902],[-71.53116,-32.82897],[-71.5311,-32.82902],[-71.53095,-32.82908],[-71.530885,-32.8292],[-71.53075,-32.82937],[-71.53054,-32.82958],[-71.53039,-32.82972],[-71.53031,-32.82978],[-71.53022,-32.82983],[-71.52988,-32.82986],[-71.52971,-32.82983],[-71.52954,-32.82976],[-71.52937,-32.82973],[-71.52924,-32.82974],[-71.529,-32.82965],[-71.5289,-32.82959],[-71.5289,-32.82933],[-71.52896,-32.82925],[-71.52912,-32.82915],[-71.52916,-32.8291],[-71.5292,-32.829],[-71.529163,-32.828899]]]},"properties":{"comuna":"Quintero","mancha_id":"05107-88b2c41a29fffff","clase":"Bajo","nivel_medio":1.333,"nivel_medio_min":1.333,"nivel_medio_max":1.333,"pct_alto":21.4,"n_hexagonos":1,"area_ha":3.38}},{"type":"Feature","geometry":{"type":"Polygon","coordinates":[[[-71.50729,-32.826662],[-71.502849,-32.82375],[-71.497788,-32.825146],[-71.493347,-32.822235],[-71.488286,-32.82363],[-71.483845,-32.820719],[-71.484465,-32.816411],[-71.480025,-32.813499],[-71.480645,-32.809191],[-71.485705,-32.807795],[-71.486325,-32.803487],[-71.491385,-32.80209],[-71.495826,-32.805002],[-71.500887,-32.803606],[-71.505328,-32.806518],[-71.504708,-32.810826],[-71.499647,-32.812223],[-71.499027,-32.816531],[-71.503468,-32.819443],[-71.508529,-32.818046],[-71.512971,-32.820957],[-71.512351,-32.825265],[-71.50729,-32.826662]]]},"properties":{"comuna":"Quintero","mancha_id":"05107-88b2c41a09fffff","clase":"Bajo","nivel_medio":1.136,"nivel_medio_min":0.808,"nivel_medio_max":1.364,"pct_alto":11.1,"n_hexagonos":7,"area_ha":456.61}},{"type":"Feature","geometry":{"type":"Polygon","coordinates":[[[-71.500989,-32.836672],[-71.501609,-32.832365],[-71.50667,-32.830969],[-71.511112,-32.83388],[-71.510492,-32.838187],[-71.514934,-32.841097],[-71.518579,-32.840092],[-71.518575,-32.84015],[-71.51854,-32.8404],[-71.51835,-32.8409],[-71.51828,-32.84107],[-71.51825,-32.84123],[-71.51815,-32.84156],[-71.51813,-32.84173],[-71.51792,-32.84239],[-71.51785,-32.84289],[-71.51784,-32.84306],[-71.51778,-32.84322],[-71.51775,-32.84339],[-71.51761,-32.84372],[-71.51756,-32.84389],[-71.51734,-32.84439],[-71.51724,-32.84456],[-71.51715,-32.84489],[-71.51707,-32.84506],[-71.51703,-32.84539],[-71.51696,-32.84555],[-71.51693,-32.84572],[-71.51684,-32.84622],[-71.51683,-32.84638],[-71.51673,-32.84688],[-71.516703,-32.846969],[-71.514315,-32.845404],[-71.509253,-32.8468],[-71.504811,-32.843889],[-71.49975,-32.845284],[-71.495308,-32.842373],[-71.495928,-32.838067],[-71.500989,-32.836672]]]},"properties":{"comuna":"Quintero","mancha_id":"05107-88b2c41a03fffff","clase":"Bajo","nivel_medio":0.993,"nivel_medio_min":0.573,"nivel_medio_max":1.498,"pct_alto":17.1,"n_hexagonos":4,"area_ha":213.27}},{"type":"Feature","geometry":{"type":"Polygon","coordinates":[[[-71.501815,-32.898453],[-71.506877,-32.89706],[-71.507566,-32.89751],[-71.50758,-32.89797],[-71.50755,-32.89814],[-71.50741,-32.89854],[-71.50736,-32.89859],[-71.50733,-32.89864],[-71.50729,-32.89877],[-71.50718,-32.89897],[-71.50712,-32.89914],[-71.50703,-32.89947],[-71.50695,-32.89964],[-71.5069,-32.8998],[-71.50683,-32.90013],[-71.50678,-32.90046],[-71.50673,-32.90063],[-71.50672,-32.90096],[-71.50669,-32.90113],[-71.50665,-32.90146],[-71.50662,-32.90162],[-71.50662,-32.90179],[-71.5066,-32.90196],[-71.50655,-32.90212],[-71.50655,-32.90229],[-71.50651,-32.90245],[-71.5065,-32.90262],[-71.50652,-32.90278],[-71.50651,-32.90295],[-71.50655,-32.90366],[-71.50656,-32.90492],[-71.506619,-32.905395],[-71.505638,-32.905665],[-71.501195,-32.902756],[-71.501815,-32.898453]]]},"properties":{"comuna":"Quintero","mancha_id":"05107-88b2c418c5fffff","clase":"Bajo","nivel_medio":1.48,"nivel_medio_min":1.48,"nivel_medio_max":1.48,"pct_alto":36.7,"n_hexagonos":1,"area_ha":37.56}},{"type":"Feature","geometry":{"type":"Polygon","coordinates":[[[-71.472095,-32.91902],[-71.474643,-32.91832],[-71.476038,-32.919234],[-71.475983,-32.919238],[-71.47588,-32.919215],[-71.475752,-32.919189],[-71.475656,-32.919158],[-71.475594,-32.91907],[-71.475492,-32.918948],[-71.475395,-32.918874],[-71.475284,-32.918869],[-71.475176,-32.918882],[-71.475063,-32.918902],[-71.475009,-32.918894],[-71.474893,-32.918897],[-71.47475,-32.918918],[-71.474639,-32.918917],[-71.474536,-32.918931],[-71.474463,-32.918977],[-71.47432,-32.919025],[-71.474051,-32.919125],[-71.473947,-32.919177],[-71.473846,-32.919214],[-71.473735,-32.919227],[-71.473609,-32.91923],[-71.473452,-32.919236],[-71.473286,-32.919262],[-71.473118,-32.91927],[-71.473016,-32.919265],[-71.472959,-32.919223],[-71.472902,-32.919178],[-71.472586,-32.919123],[-71.472267,-32.91905],[-71.472095,-32.91902]]]},"properties":{"comuna":"Quintero","mancha_id":"05107-88b2c41899fffff","clase":"Bajo","nivel_medio":1.256,"nivel_medio_min":1.256,"nivel_medio_max":1.256,"pct_alto":2.9,"n_hexagonos":1,"area_ha":1.56}},{"type":"Feature","geometry":{"type":"Polygon","coordinates":[[[-71.509357,-32.879846],[-71.504914,-32.876936],[-71.499852,-32.87833],[-71.49541,-32.87542],[-71.49603,-32.871116],[-71.491589,-32.868205],[-71.492209,-32.863901],[-71.49727,-32.862507],[-71.501712,-32.865417],[-71.506774,-32.864022],[-71.507394,-32.859717],[-71.512456,-32.858322],[-71.514516,-32.859672],[-71.51451,-32.85974],[-71.51446,-32.85991],[-71.51443,-32.86024],[-71.51443,-32.8604],[-71.51444,-32.86057],[-71.51437,-32.86106],[-71.51438,-32.86139],[-71.51432,-32.86156],[-71.51431,-32.86189],[-71.51432,-32.86222],[-71.51429,-32.86239],[-71.51431,-32.86255],[-71.51428,-32.86286],[-71.51429,-32.86319],[-71.51422,-32.86369],[-71.51423,-32.86418],[-71.51413,-32.86468],[-71.51409,-32.86501],[-71.51409,-32.86522],[-71.51404,-32.86527],[-71.51395,-32.86605],[-71.51389,-32.86607],[-71.5139,-32.86617],[-71.513894,-32.866194],[-71.511216,-32.866932],[-71.510596,-32.871237],[-71.511607,-32.871899],[-71.51154,-32.87205],[-71.51149,-32.87221],[-71.5114,-32.87238],[-71.51135,-32.87255],[-71.51124,-32.87271],[-71.51118,-32.87288],[-71.5109,-32.87337],[-71.51065,-32.87393],[-71.5106,-32.8741],[-71.51055,-32.87443],[-71.51054,-32.87476],[-71.5106,-32.87509],[-71.5106,-32.87518],[-71.51066,-32.87523],[-71.51064,-32.87584],[-71.51055,-32.87634],[-71.5105,-32.87667],[-71.5105,-32.87684],[-71.51047,-32.877],[-71.51046,-32.87717],[-71.51052,-32.87725],[-71.5105,-32.8775],[-71.5105,-32.87766],[-71.51055,-32.87797],[-71.51058,-32.87842],[-71.510588,-32.879507],[-71.509357,-32.879846]]]},"properties":{"comuna":"Quintero","mancha_id":"05107-88b2c41853fffff","clase":"Bajo","nivel_medio":0.995,"nivel_medio_min":0.676,"nivel_medio_max":1.407,"pct_alto":22.7,"n_hexagonos":5,"area_ha":286.49}},{"type":"Feature","geometry":{"type":"Polygon","coordinates":[[[-71.540756,-32.796732],[-71.545198,-32.799643],[-71.54518,-32.79977],[-71.54513,-32.79991],[-71.54512,-32.80009],[-71.545128,-32.800132],[-71.544579,-32.803953],[-71.539517,-32.805352],[-71.535075,-32.802441],[-71.535694,-32.798131],[-71.540756,-32.796732]]]},"properties":{"comuna":"Quintero","mancha_id":"05107-88b2c4c595fffff","clase":"Medio","nivel_medio":2.425,"nivel_medio_min":2.425,"nivel_medio_max":2.425,"pct_alto":74.9,"n_hexagonos":1,"area_ha":65.27}},{"type":"Feature","geometry":{"type":"Polygon","coordinates":[[[-71.481629,-32.767536],[-71.476726,-32.76889],[-71.476472,-32.770655],[-71.472518,-32.766433],[-71.472696,-32.766245],[-71.475932,-32.762826],[-71.478455,-32.764715],[-71.480794,-32.765056],[-71.480842,-32.766785],[-71.481629,-32.767536]]]},"properties":{"comuna":"Quintero","mancha_id":"05107-88b2c4c4c3fffff","clase":"Medio","nivel_medio":1.951,"nivel_medio_min":1.515,"nivel_medio_max":2.02,"pct_alto":50.7,"n_hexagonos":2,"area_ha":35.2}},{"type":"Feature","geometry":{"type":"Polygon","coordinates":[[[-71.487767,-32.86099],[-71.488387,-32.856685],[-71.493448,-32.855291],[-71.49789,-32.858201],[-71.49727,-32.862507],[-71.492209,-32.863901],[-71.491589,-32.868205],[-71.486527,-32.869599],[-71.482086,-32.866689],[-71.482706,-32.862384],[-71.487767,-32.86099]]]},"properties":{"comuna":"Quintero","mancha_id":"05107-88b2c41ae1fffff","clase":"Medio","nivel_medio":2.051,"nivel_medio_min":1.894,"nivel_medio_max":2.208,"pct_alto":36.2,"n_hexagonos":2,"area_ha":130.32}},{"type":"Feature","geometry":{"type":"Polygon","coordinates":[[[-71.444082,-32.860615],[-71.444702,-32.856311],[-71.449762,-32.854918],[-71.454202,-32.85783],[-71.453582,-32.862134],[-71.448521,-32.863527],[-71.444082,-32.860615]]]},"properties":{"comuna":"Quintero","mancha_id":"05107-88b2c41ad1fffff","clase":"Medio","nivel_medio":2.34,"nivel_medio_min":2.34,"nivel_medio_max":2.34,"pct_alto":25.8,"n_hexagonos":1,"area_ha":65.14}},{"type":"Feature","geometry":{"type":"Polygon","coordinates":[[[-71.480225,-32.8796],[-71.480845,-32.875297],[-71.485907,-32.873903],[-71.490348,-32.876814],[-71.489728,-32.881118],[-71.484667,-32.882511],[-71.480225,-32.8796]]]},"properties":{"comuna":"Quintero","mancha_id":"05107-88b2c41aabfffff","clase":"Medio","nivel_medio":2.254,"nivel_medio_min":2.254,"nivel_medio_max":2.254,"pct_alto":62.8,"n_hexagonos":1,"area_ha":65.13}},{"type":"Feature","geometry":{"type":"Polygon","coordinates":[[[-71.53766,-32.818279],[-71.542722,-32.816881],[-71.542846,-32.816962],[-71.54281,-32.81704],[-71.54258,-32.81742],[-71.5422,-32.81818],[-71.5421,-32.81856],[-71.5421,-32.81875],[-71.54217,-32.81913],[-71.54223,-32.81932],[-71.54222,-32.81961],[-71.54216,-32.8197],[-71.54175,-32.82008],[-71.54137,-32.82051],[-71.54127,-32.82056],[-71.54122,-32.82062],[-71.54116,-32.82064],[-71.541,-32.82076],[-71.54094,-32.82087],[-71.5409,-32.82111],[-71.5408,-32.82168],[-71.54069,-32.82206],[-71.54069,-32.82225],[-71.54071,-32.82231],[-71.54078,-32.82234],[-71.54081,-32.82239],[-71.54096,-32.82247],[-71.54102,-32.82255],[-71.54107,-32.82276],[-71.54102,-32.82288],[-71.54101,-32.82295],[-71.54091,-32.82314],[-71.54078,-32.82333],[-71.54062,-32.8235],[-71.54048,-32.82374],[-71.54042,-32.82393],[-71.54009,-32.82451],[-71.540051,-32.82456],[-71.53994,-32.8247],[-71.53982,-32.82489],[-71.53964,-32.82503],[-71.53951,-32.82506],[-71.53945,-32.8251],[-71.53925,-32.82509],[-71.539,-32.82513],[-71.53884,-32.82527],[-71.53876,-32.82539],[-71.53871,-32.82542],[-71.53865,-32.82564],[-71.53857,-32.82583],[-71.53829,-32.82624],[-71.538195,-32.82631],[-71.53802,-32.8264],[-71.53798,-32.82645],[-71.53781,-32.82645],[-71.53761,-32.82642],[-71.53755,-32.8264],[-71.53721,-32.82617],[-71.53671,-32.82614],[-71.53637,-32.82616],[-71.53613,-32.82641],[-71.53604,-32.82683],[-71.53602,-32.82695],[-71.53605,-32.82711],[-71.53611,-32.82721],[-71.5362,-32.82729],[-71.53623,-32.82753],[-71.53623,-32.82768],[-71.53621,-32.82784],[-71.53613,-32.82803],[-71.53593,-32.82818],[-71.53585,-32.82827],[-71.53572,-32.82831],[-71.53563,-32.82836],[-71.53539,-32.82839],[-71.53496,-32.82842],[-71.53459,-32.82838],[-71.53441,-32.82834],[-71.53423,-32.82832],[-71.53403,-32.8283],[-71.53383,-32.8283],[-71.53364,-32.82837],[-71.53347,-32.82838],[-71.53321,-32.82847],[-71.53284,-32.8287],[-71.53257,-32.82899],[-71.532522,-32.829055],[-71.531359,-32.828293],[-71.531978,-32.823985],[-71.53704,-32.822587],[-71.53766,-32.818279]]]},"properties":{"comuna":"Quintero","mancha_id":"05107-88b2c41a65fffff","clase":"Medio","nivel_medio":2.15,"nivel_medio_min":1.946,"nivel_medio_max":2.312,"pct_alto":53.6,"n_hexagonos":2,"area_ha":59.28}},{"type":"Feature","geometry":{"type":"Polygon","coordinates":[[[-71.504708,-32.810826],[-71.505328,-32.806518],[-71.510388,-32.805121],[-71.51483,-32.808032],[-71.519891,-32.806635],[-71.52051,-32.802326],[-71.525572,-32.800928],[-71.530014,-32.803839],[-71.529394,-32.808148],[-71.524333,-32.809546],[-71.523713,-32.813855],[-71.518652,-32.815252],[-71.518032,-32.81956],[-71.512971,-32.820957],[-71.508529,-32.818046],[-71.503468,-32.819443],[-71.499027,-32.816531],[-71.499647,-32.812223],[-71.504708,-32.810826]]]},"properties":{"comuna":"Quintero","mancha_id":"05107-88b2c41a41fffff","clase":"Medio","nivel_medio":2.261,"nivel_medio_min":2.073,"nivel_medio_max":2.403,"pct_alto":50.4,"n_hexagonos":5,"area_ha":326.24}},{"type":"Feature","geometry":{"type":"Polygon","coordinates":[[[-71.509253,-32.8468],[-71.514315,-32.845404],[-71.516703,-32.846969],[-71.51663,-32.84721],[-71.51661,-32.84738],[-71.51656,-32.84754],[-71.51627,-32.84821],[-71.51622,-32.84838],[-71.51612,-32.84854],[-71.51609,-32.84871],[-71.51588,-32.84921],[-71.51572,-32.84971],[-71.51565,-32.85021],[-71.51559,-32.85037],[-71.51553,-32.85087],[-71.51553,-32.8512],[-71.51542,-32.8517],[-71.51537,-32.85203],[-71.51529,-32.85219],[-71.51525,-32.85236],[-71.51517,-32.85253],[-71.51507,-32.85319],[-71.514993,-32.853488],[-71.513075,-32.854016],[-71.508633,-32.851106],[-71.503572,-32.852501],[-71.49913,-32.84959],[-71.49975,-32.845284],[-71.504811,-32.843889],[-71.509253,-32.8468]]]},"properties":{"comuna":"Quintero","mancha_id":"05107-88b2c41a31fffff","clase":"Medio","nivel_medio":1.993,"nivel_medio_min":1.883,"nivel_medio_max":2.076,"pct_alto":50.9,"n_hexagonos":2,"area_ha":114.78}},{"type":"Feature","geometry":{"type":"Polygon","coordinates":[[[-71.495512,-32.908451],[-71.499955,-32.91136],[-71.505018,-32.909967],[-71.505638,-32.905665],[-71.506619,-32.905395],[-71.50674,-32.90638],[-71.507,-32.90707],[-71.50711,-32.90794],[-71.50711,-32.90815],[-71.50711,-32.90834],[-71.50715,-32.90853],[-71.50712,-32.90872],[-71.50713,-32.90891],[-71.5072,-32.90928],[-71.50719,-32.90947],[-71.50721,-32.90966],[-71.50727,-32.91004],[-71.50726,-32.91023],[-71.50731,-32.91098],[-71.50739,-32.91136],[-71.507405,-32.91153],[-71.50744,-32.91192],[-71.5075,-32.91211],[-71.50758,-32.91249],[-71.50767,-32.91267],[-71.5078,-32.91286],[-71.50798,-32.91323],[-71.50802,-32.91342],[-71.50806,-32.91361],[-71.50808,-32.91399],[-71.508158,-32.914351],[-71.50816,-32.91436],[-71.507885,-32.914519],[-71.507757,-32.91457],[-71.50772,-32.914584],[-71.507662,-32.914607],[-71.507467,-32.914556],[-71.507322,-32.91455],[-71.507279,-32.914554],[-71.507264,-32.914556],[-71.50708,-32.914573],[-71.506947,-32.914626],[-71.506794,-32.91472],[-71.506707,-32.914784],[-71.506702,-32.914788],[-71.506667,-32.914813],[-71.506582,-32.915051],[-71.50657,-32.915165],[-71.506543,-32.915213],[-71.506539,-32.915221],[-71.506467,-32.915353],[-71.506433,-32.915471],[-71.506408,-32.915545],[-71.506394,-32.915555],[-71.506383,-32.915562],[-71.506355,-32.915582],[-71.506297,-32.915615],[-71.506214,-32.915681],[-71.506145,-32.915768],[-71.506125,-32.915818],[-71.506126,-32.915863],[-71.506128,-32.915913],[-71.506118,-32.915959],[-71.506081,-32.915973],[-71.506022,-32.915988],[-71.505952,-32.915989],[-71.505877,-32.915986],[-71.505806,-32.915947],[-71.505797,-32.915941],[-71.505789,-32.915936],[-71.505713,-32.915885],[-71.505666,-32.915773],[-71.505643,-32.915701],[-71.505582,-32.915629],[-71.505508,-32.915574],[-71.505505,-32.915572],[-71.505499,-32.915567],[-71.505422,-32.915492],[-71.505317,-32.915394],[-71.505277,-32.915336],[-71.505151,-32.915248],[-71.505036,-32.915168],[-71.504942,-32.915122],[-71.504935,-32.915118],[-71.504921,-32.915111],[-71.50485,-32.915067],[-71.504746,-32.914992],[-71.504534,-32.91491],[-71.504384,-32.914806],[-71.504369,-32.914796],[-71.504248,-32.914712],[-71.503945,-32.914477],[-71.503937,-32.914471],[-71.5039,-32.914446],[-71.503759,-32.914349],[-71.503533,-32.914177],[-71.503502,-32.914144],[-71.503489,-32.91413],[-71.503428,-32.914066],[-71.503308,-32.913991],[-71.503112,-32.913913],[-71.502981,-32.913866],[-71.502877,-32.913876],[-71.502853,-32.913878],[-71.502799,-32.913883],[-71.502572,-32.913856],[-71.502527,-32.913838],[-71.502452,-32.913826],[-71.502398,-32.913827],[-71.502386,-32.913825],[-71.502364,-32.913822],[-71.502324,-32.913816],[-71.502267,-32.913849],[-71.502216,-32.913869],[-71.502159,-32.913881],[-71.502067,-32.913893],[-71.501956,-32.913907],[-71.501941,-32.913908],[-71.501837,-32.913912],[-71.501587,-32.913956],[-71.501373,-32.913992],[-71.501337,-32.913998],[-71.501265,-32.91401],[-71.500983,-32.914071],[-71.500902,-32.9141],[-71.500901,-32.914101],[-71.500527,-32.914236],[-71.500484,-32.914258],[-71.50034,-32.914328],[-71.50004,-32.914475],[-71.5,-32.914494],[-71.499946,-32.914519],[-71.499863,-32.914551],[-71.499834,-32.914561],[-71.49978,-32.914573],[-71.499726,-32.914585],[-71.499661,-32.914611],[-71.499647,-32.914619],[-71.499566,-32.914666],[-71.499477,-32.914731],[-71.499468,-32.914737],[-71.499415,-32.914778],[-71.499284,-32.914866],[-71.499222,-32.914908],[-71.49913,-32.914957],[-71.49904,-32.914982],[-71.498956,-32.915021],[-71.498951,-32.915024],[-71.49888,-32.915061],[-71.498771,-32.915136],[-71.498756,-32.915177],[-71.498758,-32.915226],[-71.498754,-32.915268],[-71.49874,-32.915307],[-71.498689,-32.915357],[-71.498595,-32.915411],[-71.498495,-32.915453],[-71.498482,-32.915474],[-71.498478,-32.915482],[-71.498471,-32.915488],[-71.498449,-32.915509],[-71.498409,-32.915556],[-71.498372,-32.915589],[-71.498319,-32.915622],[-71.498256,-32.915666],[-71.498162,-32.915675],[-71.498069,-32.915679],[-71.498018,-32.915703],[-71.497869,-32.915876],[-71.497796,-32.915935],[-71.497784,-32.915945],[-71.497652,-32.916054],[-71.497494,-32.916152],[-71.497431,-32.916185],[-71.494272,-32.917054],[-71.48983,-32.914145],[-71.49045,-32.909843],[-71.495512,-32.908451]]]},"properties":{"comuna":"Quintero","mancha_id":"05107-88b2c41889fffff","clase":"Medio","nivel_medio":2.322,"nivel_medio_min":1.523,"nivel_medio_max":2.484,"pct_alto":64.2,"n_hexagonos":3,"area_ha":105.68}},{"type":"Feature","geometry":{"type":"Polygon","coordinates":[[[-71.404226,-32.867441],[-71.408664,-32.870353],[-71.408388,-32.872269],[-71.408235,-32.872187],[-71.407824,-32.872124],[-71.407226,-32.872087],[-71.406988,-32.872082],[-71.40639,-32.871937],[-71.405667,-32.871551],[-71.404744,-32.871027],[-71.404108,-32.870653],[-71.403086,-32.87003],[-71.402375,-32.869207],[-71.401652,-32.868459],[-71.401501,-32.868189],[-71.404226,-32.867441]]]},"properties":{"comuna":"Quintero","mancha_id":"05107-88b2c411b9fffff","clase":"Medio","nivel_medio":2.495,"nivel_medio_min":2.495,"nivel_medio_max":2.495,"pct_alto":49.5,"n_hexagonos":1,"area_ha":18.02}},{"type":"Feature","geometry":{"type":"Polygon","coordinates":[[[-71.390206,-32.858896],[-71.390913,-32.858702],[-71.392369,-32.859657],[-71.392176,-32.859581],[-71.391378,-32.85927],[-71.390755,-32.859045],[-71.390456,-32.85897],[-71.390206,-32.858896]]]},"properties":{"comuna":"Quintero","mancha_id":"05107-88b2c4119dfffff","clase":"Medio","nivel_medio":2.424,"nivel_medio_min":2.424,"nivel_medio_max":2.424,"pct_alto":42.4,"n_hexagonos":1,"area_ha":0.44}},{"type":"Feature","geometry":{"type":"Polygon","coordinates":[[[-71.409906,-32.861747],[-71.410527,-32.857444],[-71.406089,-32.854531],[-71.401031,-32.855921],[-71.396593,-32.853008],[-71.391535,-32.854398],[-71.389141,-32.852826],[-71.389403,-32.852447],[-71.389757,-32.851941],[-71.390515,-32.851335],[-71.39074,-32.851118],[-71.390976,-32.851],[-71.391212,-32.85097],[-71.391536,-32.85101],[-71.39192,-32.851128],[-71.392254,-32.851226],[-71.392687,-32.851285],[-71.393496,-32.851285],[-71.394405,-32.851335],[-71.395668,-32.851386],[-71.396779,-32.851588],[-71.396798,-32.85159],[-71.397588,-32.851689],[-71.398547,-32.85179],[-71.399457,-32.85179],[-71.400358,-32.851787],[-71.400732,-32.851777],[-71.401023,-32.851739],[-71.401302,-32.851669],[-71.401579,-32.851436],[-71.402336,-32.851184],[-71.402984,-32.851118],[-71.403505,-32.851147],[-71.404307,-32.851133],[-71.405166,-32.851032],[-71.405772,-32.851032],[-71.406573,-32.851182],[-71.40658,-32.851184],[-71.407338,-32.851335],[-71.407894,-32.851285],[-71.408651,-32.850931],[-71.409561,-32.850678],[-71.410218,-32.850729],[-71.411026,-32.850729],[-71.411733,-32.850729],[-71.412652,-32.850665],[-71.413694,-32.850823],[-71.414613,-32.851234],[-71.415366,-32.851383],[-71.415573,-32.851333],[-71.416207,-32.851749],[-71.415586,-32.856053],[-71.420025,-32.858966],[-71.419404,-32.863269],[-71.414344,-32.86466],[-71.409906,-32.861747]]]},"properties":{"comuna":"Quintero","mancha_id":"05107-88b2c41185fffff","clase":"Medio","nivel_medio":2.256,"nivel_medio_min":2.189,"nivel_medio_max":2.395,"pct_alto":33.9,"n_hexagonos":4,"area_ha":171.62}},{"type":"Feature","geometry":{"type":"Polygon","coordinates":[[[-71.436445,-32.846182],[-71.437065,-32.841877],[-71.442125,-32.840484],[-71.446564,-32.843397],[-71.445943,-32.847702],[-71.440884,-32.849094],[-71.436445,-32.846182]]]},"properties":{"comuna":"Quintero","mancha_id":"05107-88b2c41133fffff","clase":"Medio","nivel_medio":2.497,"nivel_medio_min":2.497,"nivel_medio_max":2.497,"pct_alto":58.5,"n_hexagonos":1,"area_ha":65.15}},{"type":"Feature","geometry":{"type":"Polygon","coordinates":[[[-71.42375,-32.833138],[-71.419312,-32.830225],[-71.415944,-32.831152],[-71.415926,-32.831127],[-71.415472,-32.830572],[-71.414966,-32.829814],[-71.413916,-32.828699],[-71.414003,-32.828634],[-71.414051,-32.828559],[-71.414054,-32.828555],[-71.414106,-32.828474],[-71.414109,-32.82847],[-71.414191,-32.828343],[-71.4142,-32.828253],[-71.414224,-32.828039],[-71.414224,-32.828038],[-71.414136,-32.827776],[-71.414109,-32.827697],[-71.413995,-32.827529],[-71.413958,-32.827473],[-71.413953,-32.82744],[-71.413939,-32.82732],[-71.41395,-32.827184],[-71.413964,-32.827141],[-71.41401,-32.827005],[-71.414051,-32.826931],[-71.414062,-32.826909],[-71.414114,-32.826812],[-71.4142,-32.826637],[-71.414226,-32.826583],[-71.414225,-32.82657],[-71.414204,-32.826362],[-71.414163,-32.826191],[-71.414069,-32.826079],[-71.413975,-32.825967],[-71.413552,-32.825668],[-71.413438,-32.825561],[-71.412992,-32.825144],[-71.412935,-32.825047],[-71.412877,-32.824948],[-71.412832,-32.824871],[-71.412823,-32.824828],[-71.41279,-32.824657],[-71.41279,-32.824656],[-71.412802,-32.824318],[-71.412886,-32.823899],[-71.412942,-32.823709],[-71.415495,-32.823006],[-71.419933,-32.82592],[-71.424991,-32.824527],[-71.429429,-32.82744],[-71.428809,-32.831746],[-71.42375,-32.833138]]]},"properties":{"comuna":"Quintero","mancha_id":"05107-88b2c41111fffff","clase":"Medio","nivel_medio":2.311,"nivel_medio_min":2.138,"nivel_medio_max":2.415,"pct_alto":25.5,"n_hexagonos":2,"area_ha":104.26}},{"type":"Feature","geometry":{"type":"Polygon","coordinates":[[[-71.41216,-32.81143],[-71.412195,-32.811411],[-71.412465,-32.811271],[-71.412753,-32.811062],[-71.412862,-32.810986],[-71.413,-32.81089],[-71.413009,-32.810884],[-71.41309,-32.810828],[-71.413129,-32.810801],[-71.413146,-32.810788],[-71.413327,-32.810537],[-71.413327,-32.810536],[-71.413326,-32.810375],[-71.413326,-32.810307],[-71.413252,-32.810141],[-71.413144,-32.809918],[-71.413127,-32.809893],[-71.412995,-32.809705],[-71.412939,-32.809624],[-71.412845,-32.8095],[-71.412754,-32.809312],[-71.412733,-32.809141],[-71.412744,-32.809102],[-71.412775,-32.808986],[-71.412784,-32.808952],[-71.412787,-32.808942],[-71.412822,-32.80886],[-71.412842,-32.808764],[-71.412855,-32.808701],[-71.412884,-32.808376],[-71.413042,-32.808111],[-71.413105,-32.808038],[-71.413177,-32.807956],[-71.413386,-32.807785],[-71.413441,-32.807751],[-71.413549,-32.807687],[-71.413581,-32.807649],[-71.413616,-32.807609],[-71.413674,-32.807599],[-71.413759,-32.807556],[-71.413875,-32.807509],[-71.413933,-32.807485],[-71.414135,-32.807436],[-71.414296,-32.807289],[-71.414431,-32.807156],[-71.414608,-32.807072],[-71.414711,-32.807024],[-71.415052,-32.806869],[-71.415085,-32.806854],[-71.415264,-32.806729],[-71.415284,-32.806666],[-71.415303,-32.806607],[-71.415303,-32.806607],[-71.415213,-32.806423],[-71.415113,-32.806295],[-71.414894,-32.8061],[-71.414627,-32.805955],[-71.414607,-32.805944],[-71.414587,-32.805923],[-71.414572,-32.805907],[-71.414507,-32.805839],[-71.414486,-32.805818],[-71.414475,-32.805806],[-71.414423,-32.80565],[-71.414423,-32.805649],[-71.414454,-32.805437],[-71.414474,-32.805332],[-71.414478,-32.80531],[-71.414564,-32.805142],[-71.414783,-32.804908],[-71.414792,-32.804898],[-71.414821,-32.804762],[-71.414829,-32.804702],[-71.414847,-32.804564],[-71.414847,-32.804563],[-71.414828,-32.804477],[-71.414811,-32.804398],[-71.414811,-32.804397],[-71.414819,-32.804339],[-71.414838,-32.804207],[-71.414853,-32.804146],[-71.414867,-32.804089],[-71.414932,-32.803962],[-71.415051,-32.803857],[-71.415078,-32.803833],[-71.415247,-32.803739],[-71.415485,-32.80369],[-71.415929,-32.803708],[-71.41601,-32.803711],[-71.416168,-32.803658],[-71.416178,-32.803609],[-71.416192,-32.803541],[-71.416192,-32.803541],[-71.416153,-32.80328],[-71.416153,-32.803207],[-71.416153,-32.803176],[-71.416152,-32.803063],[-71.416186,-32.802929],[-71.416186,-32.802927],[-71.41613,-32.802816],[-71.415981,-32.802652],[-71.415918,-32.802482],[-71.415904,-32.802396],[-71.415895,-32.802343],[-71.415835,-32.801979],[-71.415835,-32.801978],[-71.41587,-32.801725],[-71.415909,-32.801585],[-71.415969,-32.801366],[-71.41599,-32.801293],[-71.416056,-32.80123],[-71.416258,-32.801041],[-71.416532,-32.8009],[-71.416789,-32.800874],[-71.416988,-32.800956],[-71.41715,-32.801022],[-71.417198,-32.801111],[-71.417235,-32.801176],[-71.417234,-32.801177],[-71.417205,-32.801352],[-71.417207,-32.801445],[-71.41721,-32.801537],[-71.418358,-32.801006],[-71.419922,-32.800167],[-71.420054,-32.800097],[-71.420784,-32.799705],[-71.420914,-32.799636],[-71.4211,-32.799551],[-71.422139,-32.799082],[-71.423436,-32.798496],[-71.423986,-32.798248],[-71.4254,-32.797609],[-71.425677,-32.797484],[-71.426529,-32.797098],[-71.42657,-32.79708],[-71.427198,-32.796796],[-71.427184,-32.796778],[-71.42675,-32.796195],[-71.426615,-32.79598],[-71.426458,-32.79573],[-71.426316,-32.795503],[-71.426125,-32.79529],[-71.425539,-32.794638],[-71.425262,-32.794302],[-71.425149,-32.794167],[-71.424929,-32.7939],[-71.424865,-32.793838],[-71.424521,-32.7935],[-71.423763,-32.792756],[-71.423484,-32.792483],[-71.423394,-32.792394],[-71.423089,-32.792094],[-71.423027,-32.792033],[-71.422985,-32.791991],[-71.422619,-32.791618],[-71.422346,-32.791339],[-71.422169,-32.791159],[-71.421704,-32.790571],[-71.42147,-32.790275],[-71.420999,-32.789636],[-71.420658,-32.789156],[-71.420535,-32.788985],[-71.420284,-32.7887],[-71.420021,-32.788432],[-71.419719,-32.788125],[-71.419418,-32.787769],[-71.419155,-32.787445],[-71.419025,-32.787286],[-71.418937,-32.787177],[-71.41856,-32.786732],[-71.418308,-32.786436],[-71.418261,-32.78638],[-71.418129,-32.786224],[-71.417688,-32.785862],[-71.417146,-32.785458],[-71.417027,-32.785358],[-71.421082,-32.784241],[-71.425519,-32.787156],[-71.424898,-32.791464],[-71.429336,-32.794378],[-71.434394,-32.792984],[-71.435015,-32.788675],[-71.440073,-32.787281],[-71.444512,-32.790195],[-71.44957,-32.7888],[-71.450191,-32.784491],[-71.445752,-32.781577],[-71.445943,-32.780253],[-71.446299,-32.780143],[-71.446438,-32.78014],[-71.446764,-32.780196],[-71.44725,-32.780326],[-71.447731,-32.780495],[-71.448036,-32.780545],[-71.448753,-32.780648],[-71.450346,-32.780779],[-71.451,-32.780833],[-71.451289,-32.780812],[-71.451819,-32.780773],[-71.452512,-32.780615],[-71.452982,-32.781658],[-71.453929,-32.78346],[-71.454901,-32.785306],[-71.455479,-32.786565],[-71.45686,-32.78924],[-71.457076,-32.789773],[-71.457707,-32.790693],[-71.459169,-32.792827],[-71.462395,-32.797676],[-71.464575,-32.800953],[-71.466262,-32.799755],[-71.467326,-32.800453],[-71.472386,-32.799057],[-71.472971,-32.79499],[-71.473506,-32.794611],[-71.478065,-32.793353],[-71.482505,-32.796265],[-71.487565,-32.794869],[-71.488185,-32.79056],[-71.483745,-32.787647],[-71.483815,-32.78716],[-71.483945,-32.787067],[-71.485161,-32.786227],[-71.486223,-32.785503],[-71.488254,-32.783217],[-71.487538,-32.782461],[-71.489425,-32.78194],[-71.493865,-32.784853],[-71.498925,-32.783456],[-71.503365,-32.786368],[-71.502746,-32.790678],[-71.497685,-32.792075],[-71.497066,-32.796385],[-71.501506,-32.799297],[-71.500887,-32.803606],[-71.495826,-32.805002],[-71.491385,-32.80209],[-71.486325,-32.803487],[-71.485705,-32.807795],[-71.480645,-32.809191],[-71.480025,-32.813499],[-71.474965,-32.814894],[-71.470525,-32.811982],[-71.465465,-32.813377],[-71.464845,-32.817684],[-71.469285,-32.820597],[-71.474345,-32.819202],[-71.478785,-32.822114],[-71.483845,-32.820719],[-71.488286,-32.82363],[-71.493347,-32.822235],[-71.497788,-32.825146],[-71.502849,-32.82375],[-71.50729,-32.826662],[-71.512351,-32.825265],[-71.516793,-32.828176],[-71.521855,-32.826779],[-71.52511,-32.828912],[-71.5245,-32.82922],[-71.52395,-32.82959],[-71.52356,-32.82988],[-71.52334,-32.83001],[-71.52314,-32.83017],[-71.52296,-32.83034],[-71.5228,-32.83054],[-71.52271,-32.83071],[-71.52267,-32.83088],[-71.52253,-32.83102],[-71.52229,-32.8314],[-71.52195,-32.83224],[-71.52186,-32.8324],[-71.52181,-32.83257],[-71.52162,-32.8329],[-71.52144,-32.8334],[-71.52095,-32.8344],[-71.5209,-32.83457],[-71.52081,-32.83474],[-71.52066,-32.83507],[-71.52056,-32.83524],[-71.520517,-32.835329],[-71.5204,-32.83557],[-71.52033,-32.83574],[-71.520325,-32.83581],[-71.52031,-32.8359],[-71.52025,-32.83607],[-71.52017,-32.8364],[-71.52003,-32.83674],[-71.51998,-32.8369],[-71.5199,-32.83723],[-71.51972,-32.83773],[-71.51956,-32.83807],[-71.51951,-32.83823],[-71.51934,-32.83857],[-71.51904,-32.83907],[-71.51871,-32.83974],[-71.51866,-32.8399],[-71.51858,-32.84007],[-71.518579,-32.840092],[-71.514934,-32.841097],[-71.510492,-32.838187],[-71.511112,-32.83388],[-71.50667,-32.830969],[-71.501609,-32.832365],[-71.500989,-32.836672],[-71.495928,-32.838067],[-71.495308,-32.842373],[-71.490247,-32.843768],[-71.485806,-32.840857],[-71.480745,-32.842252],[-71.480125,-32.846558],[-71.475064,-32.847952],[-71.474444,-32.852257],[-71.469383,-32.853651],[-71.464943,-32.850739],[-71.459883,-32.852133],[-71.455443,-32.849221],[-71.456063,-32.844916],[-71.451624,-32.842004],[-71.452244,-32.837698],[-71.447805,-32.834786],[-71.448425,-32.83048],[-71.443986,-32.827567],[-71.444607,-32.823261],[-71.449666,-32.821867],[-71.450287,-32.81756],[-71.445848,-32.814647],[-71.440789,-32.816041],[-71.43635,-32.813128],[-71.431291,-32.814521],[-71.430671,-32.818828],[-71.425612,-32.820221],[-71.421174,-32.817307],[-71.421795,-32.813001],[-71.417357,-32.810087],[-71.412299,-32.81148],[-71.411848,-32.814608],[-71.411842,-32.814598],[-71.411691,-32.814357],[-71.411641,-32.814269],[-71.411501,-32.814019],[-71.411473,-32.81386],[-71.411457,-32.813766],[-71.411433,-32.813581],[-71.411423,-32.813473],[-71.411418,-32.81341],[-71.411411,-32.813153],[-71.411411,-32.813153],[-71.411427,-32.812955],[-71.411554,-32.812515],[-71.411675,-32.812057],[-71.411916,-32.8117],[-71.41216,-32.81143]]]},"properties":{"comuna":"Quintero","mancha_id":"05107-88b2c4102dfffff","clase":"Medio","nivel_medio":2.151,"nivel_medio_min":1.547,"nivel_medio_max":2.475,"pct_alto":28.0,"n_hexagonos":59,"area_ha":3523.3}},{"type":"Feature","geometry":{"type":"Polygon","coordinates":[[[-71.440358,-32.886434],[-71.435297,-32.887825],[-71.43285,-32.88622],[-71.432864,-32.885929],[-71.432217,-32.885358],[-71.431913,-32.884407],[-71.431456,-32.883303],[-71.43114,-32.88296],[-71.431479,-32.880611],[-71.436539,-32.87922],[-71.440978,-32.882131],[-71.440358,-32.886434]]]},"properties":{"comuna":"Quintero","mancha_id":"05107-88b2c4034dfffff","clase":"Medio","nivel_medio":2.237,"nivel_medio_min":2.237,"nivel_medio_max":2.237,"pct_alto":25.7,"n_hexagonos":1,"area_ha":62.83}},{"type":"Feature","geometry":{"type":"Polygon","coordinates":[[[-71.460078,-32.918192],[-71.465139,-32.916802],[-71.46576,-32.912501],[-71.470822,-32.911109],[-71.471442,-32.906808],[-71.467001,-32.903898],[-71.467621,-32.899596],[-71.46318,-32.896686],[-71.458119,-32.898077],[-71.453678,-32.895167],[-71.454299,-32.890865],[-71.449858,-32.887954],[-71.450479,-32.883651],[-71.446039,-32.88074],[-71.44666,-32.876437],[-71.45172,-32.875045],[-71.45616,-32.877957],[-71.461221,-32.876564],[-71.465662,-32.879475],[-71.470723,-32.878083],[-71.475164,-32.880993],[-71.474544,-32.885297],[-71.478985,-32.888207],[-71.484047,-32.886814],[-71.488488,-32.889724],[-71.49355,-32.888331],[-71.49417,-32.884028],[-71.499232,-32.882634],[-71.499852,-32.87833],[-71.504914,-32.876936],[-71.509357,-32.879846],[-71.508737,-32.88415],[-71.512442,-32.886576],[-71.51253,-32.8868],[-71.51284,-32.88736],[-71.513062,-32.887878],[-71.512783,-32.889815],[-71.51247,-32.89008],[-71.51169,-32.89056],[-71.51154,-32.89068],[-71.51111,-32.89095],[-71.51036,-32.89161],[-71.51006,-32.89197],[-71.509998,-32.892068],[-71.507497,-32.892757],[-71.506877,-32.89706],[-71.501815,-32.898453],[-71.501195,-32.902756],[-71.496132,-32.904149],[-71.49169,-32.901239],[-71.486628,-32.902632],[-71.486008,-32.906934],[-71.480946,-32.908326],[-71.480325,-32.912627],[-71.475263,-32.914019],[-71.474643,-32.91832],[-71.472095,-32.91902],[-71.471812,-32.918971],[-71.471675,-32.918938],[-71.471539,-32.918871],[-71.471425,-32.918862],[-71.471374,-32.91886],[-71.471278,-32.918825],[-71.471226,-32.918798],[-71.471154,-32.918759],[-71.471103,-32.918751],[-71.470996,-32.918743],[-71.470946,-32.918716],[-71.470891,-32.918687],[-71.470856,-32.918657],[-71.470724,-32.918634],[-71.470571,-32.918591],[-71.470249,-32.918504],[-71.469844,-32.918433],[-71.469244,-32.918398],[-71.468901,-32.918398],[-71.468722,-32.918391],[-71.468501,-32.91837],[-71.468148,-32.91832],[-71.467758,-32.918209],[-71.467336,-32.918117],[-71.466989,-32.918006],[-71.466967,-32.917999],[-71.466788,-32.917939],[-71.466664,-32.91792],[-71.466511,-32.917915],[-71.466342,-32.917915],[-71.466214,-32.917911],[-71.466129,-32.917909],[-71.465836,-32.917893],[-71.465564,-32.917884],[-71.465244,-32.917826],[-71.464847,-32.917737],[-71.464663,-32.917683],[-71.464309,-32.917605],[-71.463935,-32.917562],[-71.46356,-32.91753],[-71.463314,-32.917517],[-71.463128,-32.917531],[-71.462891,-32.917579],[-71.462692,-32.917685],[-71.462511,-32.917791],[-71.462238,-32.917963],[-71.46192,-32.918105],[-71.461743,-32.918184],[-71.46145,-32.918265],[-71.46112,-32.918325],[-71.460951,-32.918343],[-71.460754,-32.918347],[-71.46053,-32.918359],[-71.460245,-32.91838],[-71.460048,-32.918399],[-71.460078,-32.918192]]]},"properties":{"comuna":"Quintero","mancha_id":"05107-88b2c40325fffff","clase":"Medio","nivel_medio":2.19,"nivel_medio_min":1.55,"nivel_medio_max":2.47,"pct_alto":31.9,"n_hexagonos":22,"area_ha":1364.41}},{"type":"Feature","geometry":{"type":"Polygon","coordinates":[[[-71.446755,-32.909462],[-71.446134,-32.913763],[-71.450575,-32.916673],[-71.449954,-32.920973],[-71.452374,-32.922558],[-71.452307,-32.922577],[-71.452173,-32.922583],[-71.452053,-32.922585],[-71.452008,-32.922643],[-71.452006,-32.922696],[-71.451993,-32.922735],[-71.451973,-32.922766],[-71.451923,-32.922776],[-71.451867,-32.922777],[-71.451824,-32.922772],[-71.451757,-32.922776],[-71.45168,-32.922792],[-71.451565,-32.922866],[-71.451534,-32.922873],[-71.451463,-32.922883],[-71.451392,-32.922884],[-71.451343,-32.922894],[-71.451259,-32.922914],[-71.451213,-32.922933],[-71.451172,-32.922957],[-71.451102,-32.922989],[-71.451049,-32.92301],[-71.451022,-32.923038],[-71.450974,-32.923081],[-71.450965,-32.923086],[-71.450918,-32.923114],[-71.450851,-32.92314],[-71.450792,-32.923156],[-71.450711,-32.923163],[-71.450648,-32.923188],[-71.450606,-32.923216],[-71.450522,-32.923259],[-71.450488,-32.923311],[-71.450454,-32.923356],[-71.450395,-32.923372],[-71.450335,-32.923373],[-71.450256,-32.923357],[-71.450231,-32.923337],[-71.450192,-32.923317],[-71.450148,-32.923291],[-71.449969,-32.923321],[-71.449931,-32.923346],[-71.4499,-32.923379],[-71.449886,-32.9234],[-71.449873,-32.923433],[-71.44982,-32.923452],[-71.449785,-32.923441],[-71.449738,-32.923415],[-71.44971,-32.923404],[-71.449649,-32.923393],[-71.449621,-32.923384],[-71.44949,-32.923387],[-71.449412,-32.923391],[-71.449317,-32.92339],[-71.449218,-32.923392],[-71.449172,-32.92339],[-71.449105,-32.923395],[-71.449059,-32.923419],[-71.449028,-32.923441],[-71.448997,-32.923468],[-71.448973,-32.923493],[-71.448935,-32.923529],[-71.4489,-32.923539],[-71.44885,-32.92354],[-71.448811,-32.923528],[-71.448789,-32.923496],[-71.448775,-32.923479],[-71.448738,-32.923449],[-71.448671,-32.923433],[-71.448596,-32.923428],[-71.448526,-32.92343],[-71.448352,-32.923421],[-71.448288,-32.923405],[-71.448217,-32.923376],[-71.448089,-32.923367],[-71.44799,-32.923369],[-71.447891,-32.923377],[-71.4478,-32.923414],[-71.44771,-32.923464],[-71.447604,-32.923484],[-71.447435,-32.923487],[-71.447237,-32.923485],[-71.447088,-32.923476],[-71.446981,-32.923448],[-71.446847,-32.923451],[-71.446656,-32.923454],[-71.44655,-32.923468],[-71.446366,-32.923478],[-71.446294,-32.923432],[-71.446166,-32.923398],[-71.446117,-32.923399],[-71.446067,-32.9234],[-71.445947,-32.923409],[-71.445903,-32.92341],[-71.445827,-32.923411],[-71.445663,-32.923349],[-71.445528,-32.923327],[-71.445434,-32.923276],[-71.445278,-32.923231],[-71.445213,-32.923213],[-71.445114,-32.923186],[-71.445052,-32.923166],[-71.444972,-32.923157],[-71.444937,-32.923155],[-71.444877,-32.923156],[-71.44481,-32.923158],[-71.444778,-32.923158],[-71.444768,-32.923158],[-71.444701,-32.923168],[-71.444644,-32.923169],[-71.444593,-32.923175],[-71.44452,-32.923177],[-71.444437,-32.923168],[-71.44436,-32.923169],[-71.444283,-32.923149],[-71.444259,-32.92314],[-71.444189,-32.923113],[-71.444112,-32.923099],[-71.444045,-32.923081],[-71.443987,-32.923061],[-71.443938,-32.923029],[-71.443889,-32.922985],[-71.443824,-32.92294],[-71.443747,-32.922915],[-71.443705,-32.922902],[-71.443625,-32.922895],[-71.443557,-32.922875],[-71.443464,-32.92285],[-71.4434,-32.922825],[-71.443371,-32.922814],[-71.443306,-32.922778],[-71.443248,-32.922749],[-71.443649,-32.921938],[-71.44371,-32.921781],[-71.443692,-32.921576],[-71.443684,-32.921481],[-71.443561,-32.920844],[-71.443166,-32.918306],[-71.443042,-32.917507],[-71.44293,-32.916794],[-71.442889,-32.916552],[-71.442835,-32.91632],[-71.442777,-32.916186],[-71.442646,-32.916055],[-71.442532,-32.916006],[-71.442017,-32.915898],[-71.44156,-32.91582],[-71.441133,-32.915828],[-71.440973,-32.915845],[-71.441073,-32.915153],[-71.439081,-32.913847],[-71.439168,-32.913687],[-71.439247,-32.91348],[-71.439395,-32.913349],[-71.43951,-32.913281],[-71.439748,-32.913196],[-71.440169,-32.913065],[-71.440514,-32.912897],[-71.440785,-32.91271],[-71.441029,-32.912461],[-71.441262,-32.912194],[-71.44136,-32.912007],[-71.441384,-32.91175],[-71.441353,-32.911512],[-71.441168,-32.911071],[-71.441005,-32.910663],[-71.440894,-32.910391],[-71.440766,-32.910235],[-71.440614,-32.910101],[-71.440451,-32.909989],[-71.440225,-32.909847],[-71.439873,-32.909605],[-71.439568,-32.909341],[-71.439441,-32.909189],[-71.439316,-32.90899],[-71.439229,-32.908802],[-71.439156,-32.908556],[-71.439138,-32.908345],[-71.439145,-32.90805],[-71.439204,-32.907798],[-71.439286,-32.907603],[-71.439385,-32.907415],[-71.439442,-32.90734],[-71.442315,-32.906551],[-71.442429,-32.905761],[-71.44409,-32.905036],[-71.444431,-32.904587],[-71.44472,-32.90414],[-71.445043,-32.903015],[-71.44526,-32.90226],[-71.445878,-32.901442],[-71.447996,-32.900859],[-71.452437,-32.90377],[-71.451816,-32.908071],[-71.446755,-32.909462]]]},"properties":{"comuna":"Quintero","mancha_id":"05107-88b2c40305fffff","clase":"Medio","nivel_medio":2.168,"nivel_medio_min":1.722,"nivel_medio_max":2.432,"pct_alto":48.3,"n_hexagonos":5,"area_ha":170.14}},{"type":"Feature","geometry":{"type":"Polygon","coordinates":[[[-71.472386,-32.799057],[-71.467326,-32.800453],[-71.466262,-32.799755],[-71.471952,-32.795713],[-71.472971,-32.79499],[-71.472386,-32.799057]]]},"properties":{"comuna":"Quintero","mancha_id":"05107-88b2c4c497fffff","clase":"Alto","nivel_medio":2.509,"nivel_medio_min":2.509,"nivel_medio_max":2.509,"pct_alto":52.5,"n_hexagonos":1,"area_ha":15.33}},{"type":"Feature","geometry":{"type":"Polygon","coordinates":[[[-71.483815,-32.78716],[-71.483745,-32.787647],[-71.488185,-32.79056],[-71.487565,-32.794869],[-71.482505,-32.796265],[-71.478065,-32.793353],[-71.473506,-32.794611],[-71.475221,-32.793393],[-71.476807,-32.792197],[-71.478396,-32.791055],[-71.482759,-32.787919],[-71.483815,-32.78716]]]},"properties":{"comuna":"Quintero","mancha_id":"05107-88b2c4c483fffff","clase":"Alto","nivel_medio":2.866,"nivel_medio_min":2.856,"nivel_medio_max":3.355,"pct_alto":69.8,"n_hexagonos":3,"area_ha":66.6}},{"type":"Feature","geometry":{"type":"Polygon","coordinates":[[[-71.500887,-32.803606],[-71.501506,-32.799297],[-71.506567,-32.7979],[-71.507187,-32.79359],[-71.512247,-32.792192],[-71.512867,-32.787883],[-71.517927,-32.786484],[-71.522369,-32.789396],[-71.521749,-32.793706],[-71.526191,-32.796618],[-71.525572,-32.800928],[-71.52051,-32.802326],[-71.519891,-32.806635],[-71.51483,-32.808032],[-71.510388,-32.805121],[-71.505328,-32.806518],[-71.500887,-32.803606]]]},"properties":{"comuna":"Quintero","mancha_id":"05107-88b2c41a49fffff","clase":"Alto","nivel_medio":2.837,"nivel_medio_min":2.526,"nivel_medio_max":3.047,"pct_alto":74.8,"n_hexagonos":5,"area_ha":326.33}},{"type":"Feature","geometry":{"type":"Polygon","coordinates":[[[-71.512351,-32.825265],[-71.512971,-32.820957],[-71.518032,-32.81956],[-71.518652,-32.815252],[-71.523713,-32.813855],[-71.524333,-32.809546],[-71.529394,-32.808148],[-71.530014,-32.803839],[-71.535075,-32.802441],[-71.539517,-32.805352],[-71.544579,-32.803953],[-71.5468,-32.805408],[-71.54678,-32.80544],[-71.5467,-32.80563],[-71.54665,-32.80569],[-71.54666,-32.80601],[-71.54659,-32.8062],[-71.54663,-32.80639],[-71.5467,-32.80646],[-71.54676,-32.80657],[-71.546775,-32.80675],[-71.54672,-32.80688],[-71.54655,-32.80704],[-71.54649,-32.80715],[-71.54636,-32.80734],[-71.54637,-32.80772],[-71.54635,-32.8079],[-71.54634,-32.8082],[-71.546405,-32.80827],[-71.54646,-32.80833],[-71.54676,-32.80844],[-71.54713,-32.80847],[-71.54733,-32.80853],[-71.54753,-32.80853],[-71.54761,-32.8085],[-71.54779,-32.80849],[-71.54789,-32.8086],[-71.54795,-32.80877],[-71.54796,-32.80887],[-71.54792,-32.80896],[-71.54774,-32.80913],[-71.54752,-32.80925],[-71.54718,-32.80949],[-71.54707,-32.80959],[-71.54695,-32.81028],[-71.54687,-32.81047],[-71.54672,-32.81066],[-71.546615,-32.81086],[-71.54652,-32.8111],[-71.54643,-32.81114],[-71.54611,-32.81143],[-71.54595,-32.81159],[-71.545659,-32.811931],[-71.543341,-32.812572],[-71.542722,-32.816881],[-71.53766,-32.818279],[-71.53704,-32.822587],[-71.531978,-32.823985],[-71.531359,-32.828293],[-71.529163,-32.828899],[-71.52916,-32.82889],[-71.52909,-32.828865],[-71.52901,-32.82885],[-71.52883,-32.82866],[-71.52882,-32.82839],[-71.52879,-32.82833],[-71.52863,-32.82822],[-71.52846,-32.82818],[-71.52837,-32.82814],[-71.52785,-32.82813],[-71.52749,-32.82818],[-71.52732,-32.82819],[-71.52698,-32.82825],[-71.52665,-32.82834],[-71.52599,-32.82853],[-71.52565,-32.82864],[-71.52511,-32.828912],[-71.521855,-32.826779],[-71.516793,-32.828176],[-71.512351,-32.825265]]]},"properties":{"comuna":"Quintero","mancha_id":"05107-88b2c41a0dfffff","clase":"Alto","nivel_medio":2.904,"nivel_medio_min":2.529,"nivel_medio_max":3.205,"pct_alto":85.8,"n_hexagonos":8,"area_ha":507.46}},{"type":"Feature","geometry":{"type":"Polygon","coordinates":[[[-71.494219,-32.918044],[-71.494128,-32.918055],[-71.493871,-32.918086],[-71.493806,-32.918082],[-71.493805,-32.918082],[-71.493461,-32.918061],[-71.493176,-32.918026],[-71.493112,-32.918018],[-71.492866,-32.917988],[-71.492845,-32.917986],[-71.492813,-32.917982],[-71.492642,-32.917961],[-71.492494,-32.917956],[-71.492471,-32.917955],[-71.492282,-32.917946],[-71.492222,-32.91795],[-71.492146,-32.917956],[-71.491963,-32.917969],[-71.491705,-32.918027],[-71.491598,-32.918068],[-71.491541,-32.918089],[-71.491399,-32.918142],[-71.491155,-32.918257],[-71.490951,-32.918384],[-71.49091,-32.918417],[-71.490888,-32.918435],[-71.490789,-32.918513],[-71.49078,-32.918519],[-71.490576,-32.918747],[-71.490516,-32.918823],[-71.490468,-32.918882],[-71.490342,-32.91904],[-71.490322,-32.919065],[-71.49004,-32.919372],[-71.489866,-32.91956],[-71.489649,-32.919697],[-71.489397,-32.919798],[-71.488961,-32.919931],[-71.488646,-32.920005],[-71.488283,-32.920062],[-71.487782,-32.920111],[-71.48771,-32.920111],[-71.487425,-32.920114],[-71.487125,-32.920117],[-71.486438,-32.920123],[-71.485544,-32.920084],[-71.484602,-32.920065],[-71.484497,-32.920067],[-71.484147,-32.919838],[-71.482709,-32.920233],[-71.48237,-32.92029],[-71.482369,-32.92029],[-71.48181,-32.92031],[-71.481176,-32.920275],[-71.480789,-32.920293],[-71.480576,-32.920309],[-71.480498,-32.920314],[-71.480387,-32.920279],[-71.480186,-32.920197],[-71.47988,-32.920076],[-71.47969,-32.920005],[-71.479488,-32.919938],[-71.479294,-32.91988],[-71.47908,-32.919839],[-71.478884,-32.919778],[-71.478702,-32.91974],[-71.478479,-32.919687],[-71.478222,-32.919657],[-71.477958,-32.919615],[-71.477605,-32.919543],[-71.477401,-32.919494],[-71.477241,-32.919452],[-71.476983,-32.919345],[-71.476761,-32.919302],[-71.476529,-32.919261],[-71.476413,-32.919232],[-71.476241,-32.919219],[-71.476101,-32.919229],[-71.476038,-32.919234],[-71.474643,-32.91832],[-71.475263,-32.914019],[-71.480325,-32.912627],[-71.480946,-32.908326],[-71.486008,-32.906934],[-71.486628,-32.902632],[-71.49169,-32.901239],[-71.496132,-32.904149],[-71.501195,-32.902756],[-71.505638,-32.905665],[-71.505018,-32.909967],[-71.499955,-32.91136],[-71.495512,-32.908451],[-71.49045,-32.909843],[-71.48983,-32.914145],[-71.494272,-32.917054],[-71.497431,-32.916185],[-71.497361,-32.916221],[-71.497338,-32.916234],[-71.497258,-32.916292],[-71.497165,-32.916346],[-71.497144,-32.916359],[-71.497072,-32.916401],[-71.496907,-32.916488],[-71.496749,-32.916586],[-71.496549,-32.91674],[-71.496469,-32.916809],[-71.496469,-32.91681],[-71.496287,-32.916965],[-71.495985,-32.917195],[-71.495846,-32.917297],[-71.495833,-32.917307],[-71.4955,-32.917551],[-71.495222,-32.917731],[-71.49517,-32.917755],[-71.49514,-32.917769],[-71.494924,-32.91787],[-71.494629,-32.917964],[-71.494516,-32.917994],[-71.494512,-32.917995],[-71.494469,-32.918002],[-71.494219,-32.918044]]]},"properties":{"comuna":"Quintero","mancha_id":"05107-88b2c41881fffff","clase":"Alto","nivel_medio":2.727,"nivel_medio_min":2.667,"nivel_medio_max":2.918,"pct_alto":72.0,"n_hexagonos":6,"area_ha":299.2}},{"type":"Feature","geometry":{"type":"Polygon","coordinates":[[[-71.445943,-32.780253],[-71.445752,-32.781577],[-71.450191,-32.784491],[-71.44957,-32.7888],[-71.444512,-32.790195],[-71.440073,-32.787281],[-71.435015,-32.788675],[-71.434394,-32.792984],[-71.429336,-32.794378],[-71.424898,-32.791464],[-71.425519,-32.787156],[-71.421082,-32.784241],[-71.417027,-32.785358],[-71.416991,-32.785328],[-71.416538,-32.784949],[-71.416397,-32.78484],[-71.41622,-32.784702],[-71.416179,-32.784671],[-71.415834,-32.784402],[-71.415836,-32.784402],[-71.417453,-32.784288],[-71.418336,-32.784225],[-71.418642,-32.784197],[-71.419326,-32.784132],[-71.420044,-32.784027],[-71.42112,-32.783975],[-71.421401,-32.783961],[-71.421925,-32.783936],[-71.422054,-32.783919],[-71.423463,-32.783741],[-71.424549,-32.783521],[-71.424791,-32.783472],[-71.426289,-32.783126],[-71.426391,-32.783128],[-71.426571,-32.783133],[-71.426744,-32.783093],[-71.426951,-32.783046],[-71.427264,-32.782899],[-71.427506,-32.782785],[-71.427646,-32.782752],[-71.428051,-32.782653],[-71.428209,-32.782614],[-71.428238,-32.782607],[-71.42861,-32.782514],[-71.428628,-32.782513],[-71.428828,-32.782501],[-71.428998,-32.782491],[-71.429578,-32.782456],[-71.429631,-32.782452],[-71.429741,-32.782446],[-71.430094,-32.782424],[-71.430396,-32.782414],[-71.430541,-32.78241],[-71.431064,-32.782383],[-71.431335,-32.78237],[-71.431379,-32.782368],[-71.431886,-32.782342],[-71.432285,-32.782309],[-71.432304,-32.782308],[-71.432805,-32.782267],[-71.433322,-32.782206],[-71.433343,-32.782203],[-71.43386,-32.782142],[-71.434511,-32.782065],[-71.435009,-32.782029],[-71.435584,-32.781948],[-71.435802,-32.781918],[-71.435836,-32.781913],[-71.436264,-32.781853],[-71.436842,-32.781779],[-71.437169,-32.781737],[-71.437214,-32.781732],[-71.437215,-32.781615],[-71.437215,-32.781604],[-71.437215,-32.781548],[-71.437273,-32.781311],[-71.437365,-32.780937],[-71.437368,-32.780925],[-71.437388,-32.780842],[-71.437407,-32.780814],[-71.437567,-32.780585],[-71.437616,-32.780533],[-71.437921,-32.780216],[-71.437922,-32.780215],[-71.437965,-32.780185],[-71.438025,-32.780141],[-71.438465,-32.779828],[-71.438656,-32.779692],[-71.438878,-32.779506],[-71.43889,-32.779495],[-71.439109,-32.779311],[-71.439369,-32.779092],[-71.439787,-32.77874],[-71.439854,-32.778684],[-71.439909,-32.778638],[-71.439963,-32.778593],[-71.440071,-32.778503],[-71.440078,-32.778497],[-71.439913,-32.778819],[-71.439883,-32.778877],[-71.43986,-32.779273],[-71.43986,-32.779278],[-71.439857,-32.77932],[-71.439855,-32.779353],[-71.439849,-32.779462],[-71.439851,-32.779482],[-71.439853,-32.779519],[-71.439869,-32.779653],[-71.439887,-32.779801],[-71.439942,-32.780263],[-71.439944,-32.780279],[-71.439993,-32.780595],[-71.440019,-32.780768],[-71.440038,-32.780888],[-71.440064,-32.780943],[-71.440099,-32.781014],[-71.44018,-32.781182],[-71.440206,-32.781192],[-71.440322,-32.781233],[-71.440324,-32.781231],[-71.440786,-32.780709],[-71.44112,-32.780568],[-71.441618,-32.780413],[-71.442191,-32.780307],[-71.442526,-32.780245],[-71.442988,-32.780202],[-71.4433,-32.780258],[-71.443758,-32.780316],[-71.444011,-32.780372],[-71.444212,-32.780486],[-71.444366,-32.780544],[-71.444637,-32.780539],[-71.445066,-32.780486],[-71.445585,-32.780364],[-71.445943,-32.780253]]]},"properties":{"comuna":"Quintero","mancha_id":"05107-88b2c41321fffff","clase":"Alto","nivel_medio":2.692,"nivel_medio_min":2.547,"nivel_medio_max":2.939,"pct_alto":69.2,"n_hexagonos":6,"area_ha":236.14}},{"type":"Feature","geometry":{"type":"Polygon","coordinates":[[[-71.464845,-32.817684],[-71.465465,-32.813377],[-71.470525,-32.811982],[-71.474965,-32.814894],[-71.480025,-32.813499],[-71.484465,-32.816411],[-71.483845,-32.820719],[-71.478785,-32.822114],[-71.474345,-32.819202],[-71.469285,-32.820597],[-71.464845,-32.817684]]]},"properties":{"comuna":"Quintero","mancha_id":"05107-88b2c41167fffff","clase":"Alto","nivel_medio":2.796,"nivel_medio_min":2.704,"nivel_medio_max":2.889,"pct_alto":73.3,"n_hexagonos":2,"area_ha":130.43}},{"type":"Feature","geometry":{"type":"Polygon","coordinates":[[[-71.449954,-32.920973],[-71.450575,-32.916673],[-71.446134,-32.913763],[-71.446755,-32.909462],[-71.451816,-32.908071],[-71.452437,-32.90377],[-71.447996,-32.900859],[-71.445878,-32.901442],[-71.44606,-32.9012],[-71.447128,-32.900135],[-71.448267,-32.898985],[-71.448485,-32.898764],[-71.44893,-32.89834],[-71.44944,-32.89796],[-71.44961,-32.89784],[-71.45016,-32.897132],[-71.45056,-32.89651],[-71.450735,-32.896126],[-71.450815,-32.895954],[-71.451356,-32.894794],[-71.45171,-32.89406],[-71.45198,-32.89327],[-71.452113,-32.892786],[-71.45231,-32.89207],[-71.452373,-32.891155],[-71.451889,-32.890951],[-71.450219,-32.890702],[-71.449437,-32.890826],[-71.448724,-32.891018],[-71.448147,-32.891169],[-71.447475,-32.891446],[-71.446714,-32.891598],[-71.446143,-32.89175],[-71.445687,-32.891941],[-71.44523,-32.892321],[-71.444431,-32.892511],[-71.444338,-32.892531],[-71.443518,-32.892702],[-71.441501,-32.892816],[-71.438457,-32.893082],[-71.436402,-32.893158],[-71.43595,-32.892852],[-71.435569,-32.89242],[-71.43488,-32.891826],[-71.434744,-32.891658],[-71.434234,-32.891027],[-71.433867,-32.889828],[-71.43332,-32.88882],[-71.432902,-32.887603],[-71.432826,-32.886728],[-71.43285,-32.88622],[-71.435297,-32.887825],[-71.440358,-32.886434],[-71.440978,-32.882131],[-71.436539,-32.87922],[-71.431479,-32.880611],[-71.43114,-32.88296],[-71.430543,-32.882314],[-71.429706,-32.881248],[-71.428912,-32.880923],[-71.428131,-32.880809],[-71.426928,-32.881401],[-71.426342,-32.881622],[-71.425773,-32.881703],[-71.424968,-32.881363],[-71.423509,-32.880865],[-71.4222,-32.880466],[-71.4218,-32.880335],[-71.421477,-32.880229],[-71.421121,-32.879963],[-71.420853,-32.879493],[-71.420454,-32.878708],[-71.420317,-32.878475],[-71.419881,-32.877735],[-71.419842,-32.877688],[-71.419295,-32.877012],[-71.418572,-32.876102],[-71.417973,-32.875429],[-71.417688,-32.875161],[-71.417175,-32.87468],[-71.416589,-32.874194],[-71.416203,-32.873945],[-71.415392,-32.873695],[-71.414345,-32.873496],[-71.413766,-32.873489],[-71.412951,-32.873519],[-71.412016,-32.873504],[-71.411215,-32.873326],[-71.410622,-32.873207],[-71.409986,-32.872898],[-71.409108,-32.872636],[-71.408535,-32.872349],[-71.408388,-32.872269],[-71.408664,-32.870353],[-71.404226,-32.867441],[-71.401501,-32.868189],[-71.401428,-32.86806],[-71.401403,-32.867736],[-71.40149,-32.86715],[-71.401615,-32.866651],[-71.401914,-32.865791],[-71.401914,-32.865558],[-71.401914,-32.865105],[-71.401839,-32.864506],[-71.401577,-32.864082],[-71.401066,-32.863347],[-71.400767,-32.863097],[-71.400293,-32.862786],[-71.399258,-32.8621],[-71.398934,-32.861975],[-71.397912,-32.861863],[-71.39669,-32.861726],[-71.396079,-32.861539],[-71.395905,-32.861462],[-71.395568,-32.861314],[-71.394969,-32.860903],[-71.394109,-32.86023],[-71.39371,-32.860043],[-71.392937,-32.859881],[-71.392369,-32.859657],[-71.390913,-32.858702],[-71.390206,-32.858896],[-71.389994,-32.858833],[-71.389832,-32.858696],[-71.389309,-32.858135],[-71.388785,-32.857512],[-71.388186,-32.856863],[-71.388646,-32.855478],[-71.388747,-32.854568],[-71.388898,-32.85376],[-71.388949,-32.853103],[-71.389141,-32.852826],[-71.391535,-32.854398],[-71.396593,-32.853008],[-71.401031,-32.855921],[-71.406089,-32.854531],[-71.410527,-32.857444],[-71.409906,-32.861747],[-71.414344,-32.86466],[-71.419404,-32.863269],[-71.420025,-32.858966],[-71.415586,-32.856053],[-71.416207,-32.851749],[-71.415573,-32.851333],[-71.415887,-32.851256],[-71.41633,-32.851069],[-71.416886,-32.850375],[-71.417341,-32.849213],[-71.41754,-32.848354],[-71.41773,-32.847947],[-71.4182,-32.847243],[-71.418425,-32.846909],[-71.418604,-32.846233],[-71.418602,-32.845837],[-71.418705,-32.845475],[-71.419513,-32.844565],[-71.419562,-32.844527],[-71.41987,-32.844283],[-71.420185,-32.843958],[-71.420574,-32.843353],[-71.421079,-32.842848],[-71.421306,-32.842601],[-71.421326,-32.842404],[-71.421029,-32.84204],[-71.420473,-32.841484],[-71.419816,-32.841029],[-71.419311,-32.840473],[-71.41927,-32.840221],[-71.419311,-32.839867],[-71.419339,-32.839493],[-71.419251,-32.839011],[-71.419113,-32.838687],[-71.41902,-32.838574],[-71.418867,-32.838392],[-71.41869,-32.837949],[-71.418654,-32.837543],[-71.418806,-32.836836],[-71.419059,-32.836179],[-71.41921,-32.835421],[-71.419182,-32.834959],[-71.419078,-32.834648],[-71.418907,-32.834411],[-71.41869,-32.834251],[-71.418452,-32.834158],[-71.41812,-32.834045],[-71.417846,-32.833855],[-71.417559,-32.833602],[-71.417333,-32.833248],[-71.416937,-32.832643],[-71.416533,-32.831986],[-71.415944,-32.831152],[-71.419312,-32.830225],[-71.42375,-32.833138],[-71.428809,-32.831746],[-71.429429,-32.82744],[-71.424991,-32.824527],[-71.419933,-32.82592],[-71.415495,-32.823006],[-71.412942,-32.823709],[-71.412998,-32.823518],[-71.41324,-32.823184],[-71.413294,-32.823114],[-71.413384,-32.823001],[-71.413402,-32.822937],[-71.413417,-32.822885],[-71.413417,-32.822884],[-71.413416,-32.822859],[-71.413416,-32.822859],[-71.413456,-32.822672],[-71.413512,-32.822411],[-71.413669,-32.822027],[-71.413712,-32.821923],[-71.413797,-32.821678],[-71.413863,-32.821488],[-71.413897,-32.821287],[-71.413917,-32.821176],[-71.413952,-32.820885],[-71.413914,-32.820607],[-71.413849,-32.820524],[-71.413821,-32.820504],[-71.413801,-32.820489],[-71.413785,-32.820478],[-71.413729,-32.820407],[-71.413673,-32.820375],[-71.413533,-32.820342],[-71.413433,-32.820297],[-71.413338,-32.820256],[-71.41318,-32.820128],[-71.413084,-32.819927],[-71.413064,-32.819801],[-71.413071,-32.819634],[-71.413142,-32.819506],[-71.413298,-32.819336],[-71.413319,-32.819182],[-71.41332,-32.819179],[-71.41332,-32.819178],[-71.413267,-32.818999],[-71.413211,-32.818937],[-71.413118,-32.818835],[-71.41299,-32.818639],[-71.412874,-32.818545],[-71.412795,-32.818482],[-71.412788,-32.818476],[-71.412686,-32.818399],[-71.41263,-32.818357],[-71.412553,-32.818191],[-71.412551,-32.818187],[-71.412509,-32.818017],[-71.412486,-32.817748],[-71.412485,-32.817746],[-71.412483,-32.817444],[-71.412492,-32.81721],[-71.412517,-32.816804],[-71.412518,-32.816781],[-71.412539,-32.816578],[-71.412541,-32.816563],[-71.412552,-32.816455],[-71.412573,-32.816374],[-71.412586,-32.816324],[-71.412586,-32.816322],[-71.41256,-32.816151],[-71.412553,-32.816103],[-71.412454,-32.815799],[-71.412422,-32.815587],[-71.41232,-32.815356],[-71.412277,-32.815258],[-71.412144,-32.81506],[-71.412088,-32.814977],[-71.411959,-32.814784],[-71.411848,-32.814608],[-71.412299,-32.81148],[-71.417357,-32.810087],[-71.421795,-32.813001],[-71.421174,-32.817307],[-71.425612,-32.820221],[-71.430671,-32.818828],[-71.431291,-32.814521],[-71.43635,-32.813128],[-71.440789,-32.816041],[-71.445848,-32.814647],[-71.450287,-32.81756],[-71.449666,-32.821867],[-71.444607,-32.823261],[-71.443986,-32.827567],[-71.448425,-32.83048],[-71.447805,-32.834786],[-71.452244,-32.837698],[-71.451624,-32.842004],[-71.456063,-32.844916],[-71.455443,-32.849221],[-71.459883,-32.852133],[-71.464943,-32.850739],[-71.469383,-32.853651],[-71.474444,-32.852257],[-71.475064,-32.847952],[-71.480125,-32.846558],[-71.480745,-32.842252],[-71.485806,-32.840857],[-71.490247,-32.843768],[-71.495308,-32.842373],[-71.49975,-32.845284],[-71.49913,-32.84959],[-71.494068,-32.850985],[-71.493448,-32.855291],[-71.488387,-32.856685],[-71.487767,-32.86099],[-71.482706,-32.862384],[-71.482086,-32.866689],[-71.486527,-32.869599],[-71.491589,-32.868205],[-71.49603,-32.871116],[-71.49541,-32.87542],[-71.499852,-32.87833],[-71.499232,-32.882634],[-71.49417,-32.884028],[-71.49355,-32.888331],[-71.488488,-32.889724],[-71.484047,-32.886814],[-71.478985,-32.888207],[-71.474544,-32.885297],[-71.475164,-32.880993],[-71.470723,-32.878083],[-71.465662,-32.879475],[-71.461221,-32.876564],[-71.45616,-32.877957],[-71.45172,-32.875045],[-71.44666,-32.876437],[-71.446039,-32.88074],[-71.450479,-32.883651],[-71.449858,-32.887954],[-71.454299,-32.890865],[-71.453678,-32.895167],[-71.458119,-32.898077],[-71.46318,-32.896686],[-71.467621,-32.899596],[-71.467001,-32.903898],[-71.471442,-32.906808],[-71.470822,-32.911109],[-71.46576,-32.912501],[-71.465139,-32.916802],[-71.460078,-32.918192],[-71.460048,-32.918399],[-71.459959,-32.918408],[-71.45962,-32.918452],[-71.459272,-32.918497],[-71.458844,-32.918543],[-71.458452,-32.918604],[-71.45814,-32.91864],[-71.457712,-32.918701],[-71.457425,-32.918707],[-71.45721,-32.918673],[-71.457004,-32.918685],[-71.456879,-32.918702],[-71.456648,-32.918737],[-71.456471,-32.918809],[-71.456392,-32.918886],[-71.456324,-32.919015],[-71.456084,-32.91939],[-71.455527,-32.920277],[-71.454994,-32.921072],[-71.454692,-32.921471],[-71.454439,-32.92171],[-71.454238,-32.921815],[-71.45399,-32.921954],[-71.453841,-32.922034],[-71.453697,-32.922091],[-71.453609,-32.922098],[-71.453518,-32.922142],[-71.453427,-32.922179],[-71.453061,-32.922363],[-71.452809,-32.922442],[-71.452524,-32.922516],[-71.452374,-32.922558],[-71.449954,-32.920973]],[[-71.446564,-32.843397],[-71.442125,-32.840484],[-71.437065,-32.841877],[-71.436445,-32.846182],[-71.440884,-32.849094],[-71.445943,-32.847702],[-71.446564,-32.843397]],[[-71.485907,-32.873903],[-71.480845,-32.875297],[-71.480225,-32.8796],[-71.484667,-32.882511],[-71.489728,-32.881118],[-71.490348,-32.876814],[-71.485907,-32.873903]],[[-71.444082,-32.860615],[-71.448521,-32.863527],[-71.453582,-32.862134],[-71.454202,-32.85783],[-71.449762,-32.854918],[-71.444702,-32.856311],[-71.444082,-32.860615]]]},"properties":{"comuna":"Quintero","mancha_id":"05107-88b2c40321fffff","clase":"Alto","nivel_medio":2.758,"nivel_medio_min":2.504,"nivel_medio_max":3.323,"pct_alto":70.8,"n_hexagonos":75,"area_ha":4333.29}},{"type":"Feature","geometry":{"type":"Polygon","coordinates":[[[-71.442429,-32.905761],[-71.442315,-32.906551],[-71.439442,-32.90734],[-71.439544,-32.907206],[-71.439706,-32.907037],[-71.440039,-32.906801],[-71.440332,-32.90666],[-71.440941,-32.906401],[-71.442131,-32.905891],[-71.442429,-32.905761]]]},"properties":{"comuna":"Quintero","mancha_id":"05107-88b2c4030dfffff","clase":"Alto","nivel_medio":2.656,"nivel_medio_min":2.656,"nivel_medio_max":2.656,"pct_alto":81.4,"n_hexagonos":1,"area_ha":1.51}},{"type":"Feature","geometry":{"type":"Polygon","coordinates":[[[-71.439081,-32.913847],[-71.441073,-32.915153],[-71.440973,-32.915845],[-71.440792,-32.915864],[-71.440348,-32.915878],[-71.439518,-32.915762],[-71.439016,-32.915671],[-71.438703,-32.915563],[-71.438529,-32.915419],[-71.438419,-32.915253],[-71.438355,-32.915083],[-71.438363,-32.914918],[-71.438413,-32.914734],[-71.438481,-32.914601],[-71.438834,-32.91422],[-71.438987,-32.914018],[-71.439081,-32.913847]]]},"properties":{"comuna":"Quintero","mancha_id":"05107-88b2c40307fffff","clase":"Alto","nivel_medio":3.41,"nivel_medio_min":3.41,"nivel_medio_max":3.41,"pct_alto":94.0,"n_hexagonos":1,"area_ha":3.56}},{"type":"Feature","geometry":{"type":"Polygon","coordinates":[[[-71.482709,-32.920233],[-71.484147,-32.919838],[-71.484497,-32.920067],[-71.484116,-32.920073],[-71.483718,-32.920079],[-71.483126,-32.920163],[-71.482842,-32.920211],[-71.482709,-32.920233]]]},"properties":{"comuna":"Quintero","mancha_id":"05107-88b2c4189dfffff","clase":"Muy Alto","nivel_medio":3.816,"nivel_medio_min":3.816,"nivel_medio_max":3.816,"pct_alto":100.0,"n_hexagonos":1,"area_ha":0.18}}],"bbox":[-71.54796,-32.92355,-71.38818,-32.76282]}