{"type":"FeatureCollection","features":[{"type":"Feature","geometry":{"type":"Polygon","coordinates":[[[-70.612907,-32.843076],[-70.612856,-32.843419],[-70.612154,-32.843608],[-70.61259,-32.8433],[-70.612907,-32.843076]]]},"properties":{"comuna":"Calle Larga","mancha_id":"05302-88b2e36a35fffff","clase":"Muy Bajo","nivel_medio":0.0,"nivel_medio_min":0.0,"nivel_medio_max":0.0,"pct_alto":0.0,"n_hexagonos":1,"area_ha":0.12}},{"type":"Feature","geometry":{"type":"Polygon","coordinates":[[[-70.527799,-33.026594],[-70.528431,-33.02232],[-70.533467,-33.020975],[-70.53787,-33.023905],[-70.537237,-33.02818],[-70.532202,-33.029524],[-70.527799,-33.026594]]]},"properties":{"comuna":"Calle Larga","mancha_id":"05302-88b2c5d747fffff","clase":"Muy Bajo","nivel_medio":0.454,"nivel_medio_min":0.454,"nivel_medio_max":0.454,"pct_alto":0.0,"n_hexagonos":1,"area_ha":64.27}},{"type":"Feature","geometry":{"type":"Polygon","coordinates":[[[-70.660251,-32.948642],[-70.660241,-32.948664],[-70.660337,-32.948012],[-70.660348,-32.948035],[-70.660372,-32.948302],[-70.660251,-32.948642]]]},"properties":{"comuna":"Calle Larga","mancha_id":"05302-88b2c5d34bfffff","clase":"Muy Bajo","nivel_medio":0.0,"nivel_medio_min":0.0,"nivel_medio_max":0.0,"pct_alto":0.0,"n_hexagonos":1,"area_ha":0.03}},{"type":"Feature","geometry":{"type":"Polygon","coordinates":[[[-70.419189,-33.022716],[-70.422125,-33.021934],[-70.422759,-33.017661],[-70.418361,-33.014728],[-70.414391,-33.015785],[-70.413909,-33.013977],[-70.41355,-33.013473],[-70.413322,-33.012985],[-70.413089,-33.011607],[-70.413593,-33.010686],[-70.414269,-33.010212],[-70.414998,-33.010007],[-70.416167,-33.009206],[-70.416406,-33.008728],[-70.416537,-33.008467],[-70.416845,-33.007236],[-70.417091,-33.006066],[-70.417403,-33.004936],[-70.417291,-33.004575],[-70.416907,-33.00426],[-70.41629,-33.00385],[-70.415204,-33.003432],[-70.41469,-33.003234],[-70.413212,-33.002618],[-70.411673,-33.00188],[-70.409087,-33.001018],[-70.407732,-33.001141],[-70.407732,-33.001141],[-70.407425,-33.000973],[-70.407099,-33.00072],[-70.407122,-33.000291],[-70.407212,-33.0],[-70.40724,-32.999909],[-70.408902,-32.998493],[-70.411351,-32.996826],[-70.411796,-32.996523],[-70.412485,-32.995769],[-70.413766,-32.994368],[-70.415305,-32.993137],[-70.416849,-32.992339],[-70.417091,-32.992213],[-70.418445,-32.99092],[-70.419041,-32.989917],[-70.419615,-32.98895],[-70.420662,-32.987842],[-70.422386,-32.986672],[-70.422537,-32.986566],[-70.424048,-32.985502],[-70.425413,-32.984507],[-70.426908,-32.983713],[-70.42725,-32.983532],[-70.427877,-32.983142],[-70.43002,-32.981808],[-70.433099,-32.979653],[-70.434381,-32.978443],[-70.435315,-32.97756],[-70.437224,-32.97559],[-70.437854,-32.974543],[-70.438086,-32.97325],[-70.438594,-32.972383],[-70.439132,-32.971465],[-70.439294,-32.971313],[-70.439725,-32.97091],[-70.440364,-32.970788],[-70.441266,-32.97091],[-70.442202,-32.971075],[-70.442519,-32.969125],[-70.443102,-32.968734],[-70.443827,-32.968104],[-70.445183,-32.967505],[-70.445757,-32.967236],[-70.446192,-32.967032],[-70.447137,-32.966591],[-70.448209,-32.966149],[-70.449123,-32.965897],[-70.449974,-32.965582],[-70.450825,-32.965204],[-70.451487,-32.964636],[-70.452118,-32.964069],[-70.452937,-32.963155],[-70.453279,-32.962854],[-70.453726,-32.962461],[-70.454734,-32.961673],[-70.455365,-32.961421],[-70.456121,-32.961169],[-70.457004,-32.961011],[-70.457855,-32.960822],[-70.458706,-32.960538],[-70.459463,-32.960381],[-70.460303,-32.959986],[-70.460535,-32.959876],[-70.461133,-32.959309],[-70.461764,-32.958363],[-70.461949,-32.957932],[-70.462048,-32.957701],[-70.462205,-32.956945],[-70.462331,-32.956188],[-70.462552,-32.955337],[-70.462647,-32.95436],[-70.462804,-32.953666],[-70.462678,-32.952437],[-70.462489,-32.95146],[-70.462363,-32.950735],[-70.462234,-32.950027],[-70.466216,-32.952683],[-70.465583,-32.956961],[-70.469982,-32.959894],[-70.475014,-32.958549],[-70.479414,-32.961483],[-70.478781,-32.96576],[-70.483181,-32.968693],[-70.482548,-32.97297],[-70.477515,-32.974315],[-70.473115,-32.971382],[-70.468083,-32.972726],[-70.463684,-32.969793],[-70.458652,-32.971136],[-70.458018,-32.975413],[-70.452986,-32.976756],[-70.452353,-32.981032],[-70.447321,-32.982375],[-70.446688,-32.986651],[-70.451086,-32.989584],[-70.450453,-32.993859],[-70.445421,-32.995201],[-70.444787,-32.999476],[-70.439755,-33.000818],[-70.435357,-32.997885],[-70.430325,-32.999226],[-70.429692,-33.0035],[-70.42466,-33.004841],[-70.424026,-33.009115],[-70.428424,-33.012048],[-70.433456,-33.010707],[-70.437855,-33.01364],[-70.442887,-33.012298],[-70.447286,-33.015231],[-70.446652,-33.019504],[-70.44162,-33.020845],[-70.440986,-33.025118],[-70.445385,-33.028051],[-70.450418,-33.02671],[-70.454817,-33.029642],[-70.454184,-33.033914],[-70.458584,-33.036846],[-70.45795,-33.041118],[-70.462351,-33.044049],[-70.461717,-33.048321],[-70.45962,-33.04888],[-70.459521,-33.048243],[-70.459186,-33.047854],[-70.45874,-33.047667],[-70.458389,-33.047361],[-70.457871,-33.046843],[-70.457448,-33.046545],[-70.457091,-33.04633],[-70.456569,-33.045963],[-70.456461,-33.045612],[-70.456285,-33.045041],[-70.456301,-33.044593],[-70.455786,-33.04414],[-70.455567,-33.043737],[-70.455279,-33.043696],[-70.454437,-33.043022],[-70.453641,-33.042463],[-70.453554,-33.042289],[-70.453549,-33.042278],[-70.453246,-33.041667],[-70.45282,-33.040693],[-70.452421,-33.039633],[-70.451828,-33.038758],[-70.451398,-33.038309],[-70.451172,-33.038192],[-70.450833,-33.038098],[-70.450271,-33.037943],[-70.449926,-33.037929],[-70.449261,-33.037903],[-70.448763,-33.037869],[-70.448531,-33.037853],[-70.447542,-33.037624],[-70.447191,-33.037523],[-70.447027,-33.037006],[-70.446889,-33.036328],[-70.446674,-33.035252],[-70.446577,-33.035029],[-70.446159,-33.034322],[-70.445566,-33.03348],[-70.444984,-33.032759],[-70.444638,-33.032353],[-70.444239,-33.031886],[-70.443084,-33.030609],[-70.442398,-33.029893],[-70.441303,-33.028933],[-70.439641,-33.027563],[-70.438053,-33.026298],[-70.437637,-33.02601],[-70.43724,-33.025735],[-70.436638,-33.02476],[-70.436043,-33.023796],[-70.435778,-33.022969],[-70.435571,-33.022163],[-70.434984,-33.021542],[-70.434427,-33.021249],[-70.4335,-33.021055],[-70.432875,-33.021077],[-70.432156,-33.021161],[-70.4319,-33.021201],[-70.431336,-33.021288],[-70.430882,-33.021286],[-70.430293,-33.021278],[-70.42975,-33.0211],[-70.429131,-33.021013],[-70.428223,-33.020885],[-70.427434,-33.020777],[-70.426971,-33.020713],[-70.426451,-33.020783],[-70.426132,-33.020914],[-70.425531,-33.021163],[-70.424925,-33.021589],[-70.424111,-33.022163],[-70.423797,-33.022493],[-70.423571,-33.022733],[-70.423548,-33.022883],[-70.423502,-33.023193],[-70.423576,-33.023708],[-70.423378,-33.024101],[-70.422992,-33.02447],[-70.419189,-33.022716]]]},"properties":{"comuna":"Calle Larga","mancha_id":"05302-88b2c59921fffff","clase":"Muy Bajo","nivel_medio":0.161,"nivel_medio_min":0.0,"nivel_medio_max":0.429,"pct_alto":0.5,"n_hexagonos":41,"area_ha":1816.17}},{"type":"Feature","geometry":{"type":"Polygon","coordinates":[[[-70.514698,-32.886257],[-70.51533,-32.881973],[-70.518656,-32.881081],[-70.519325,-32.881069],[-70.521012,-32.881057],[-70.524762,-32.883558],[-70.52413,-32.887842],[-70.519098,-32.889191],[-70.514698,-32.886257]]]},"properties":{"comuna":"Calle Larga","mancha_id":"05302-88b2e36f47fffff","clase":"Bajo","nivel_medio":1.474,"nivel_medio_min":1.474,"nivel_medio_max":1.474,"pct_alto":3.8,"n_hexagonos":1,"area_ha":63.92}},{"type":"Feature","geometry":{"type":"Polygon","coordinates":[[[-70.501471,-32.910367],[-70.496439,-32.911714],[-70.495806,-32.915996],[-70.490774,-32.917343],[-70.486375,-32.914409],[-70.487008,-32.910128],[-70.48862,-32.909696],[-70.488874,-32.909912],[-70.489693,-32.910543],[-70.490481,-32.910953],[-70.491238,-32.911236],[-70.491868,-32.911268],[-70.49268,-32.911515],[-70.493395,-32.911515],[-70.493981,-32.911331],[-70.494863,-32.910953],[-70.49516,-32.910862],[-70.495542,-32.910744],[-70.496203,-32.910469],[-70.496691,-32.910228],[-70.497359,-32.909919],[-70.497826,-32.909534],[-70.498299,-32.90925],[-70.499308,-32.908777],[-70.5,-32.908465],[-70.500559,-32.908253],[-70.500987,-32.908137],[-70.501279,-32.907903],[-70.501279,-32.907553],[-70.501162,-32.907203],[-70.501199,-32.906823],[-70.501356,-32.906561],[-70.501672,-32.906319],[-70.501998,-32.906211],[-70.502087,-32.906199],[-70.501471,-32.910367]]]},"properties":{"comuna":"Calle Larga","mancha_id":"05302-88b2e36f11fffff","clase":"Bajo","nivel_medio":1.348,"nivel_medio_min":1.239,"nivel_medio_max":1.374,"pct_alto":0.1,"n_hexagonos":2,"area_ha":67.2}},{"type":"Feature","geometry":{"type":"Polygon","coordinates":[[[-70.471881,-32.94706],[-70.471248,-32.951338],[-70.475647,-32.954271],[-70.48068,-32.952926],[-70.485079,-32.955859],[-70.484446,-32.960138],[-70.488846,-32.96307],[-70.488213,-32.967348],[-70.483181,-32.968693],[-70.478781,-32.96576],[-70.479414,-32.961483],[-70.475014,-32.958549],[-70.469982,-32.959894],[-70.465583,-32.956961],[-70.466216,-32.952683],[-70.462234,-32.950027],[-70.462174,-32.949694],[-70.462142,-32.949095],[-70.462363,-32.948402],[-70.462647,-32.947488],[-70.46293,-32.946384],[-70.462962,-32.945754],[-70.462995,-32.945325],[-70.467483,-32.944126],[-70.471881,-32.94706]]]},"properties":{"comuna":"Calle Larga","mancha_id":"05302-88b2e36c15fffff","clase":"Bajo","nivel_medio":0.985,"nivel_medio_min":0.551,"nivel_medio_max":1.448,"pct_alto":17.6,"n_hexagonos":4,"area_ha":255.22}},{"type":"Feature","geometry":{"type":"Polygon","coordinates":[[[-70.648703,-32.928449],[-70.649334,-32.924166],[-70.650005,-32.923985],[-70.650184,-32.924458],[-70.650403,-32.925453],[-70.650694,-32.925865],[-70.650839,-32.926399],[-70.651082,-32.926884],[-70.651324,-32.927442],[-70.651591,-32.928072],[-70.651785,-32.928752],[-70.651907,-32.929358],[-70.652028,-32.930037],[-70.652067,-32.930686],[-70.652076,-32.930838],[-70.652149,-32.931541],[-70.65227,-32.931978],[-70.652319,-32.932536],[-70.65244,-32.93319],[-70.65261,-32.933773],[-70.652742,-32.93388],[-70.652479,-32.935662],[-70.647442,-32.937016],[-70.643035,-32.934086],[-70.643666,-32.929803],[-70.648703,-32.928449]]]},"properties":{"comuna":"Calle Larga","mancha_id":"05302-88b2e36987fffff","clase":"Bajo","nivel_medio":1.074,"nivel_medio_min":0.67,"nivel_medio_max":1.15,"pct_alto":0.9,"n_hexagonos":2,"area_ha":74.45}},{"type":"Feature","geometry":{"type":"Polygon","coordinates":[[[-70.573198,-32.882901],[-70.57383,-32.878616],[-70.578864,-32.877264],[-70.583266,-32.880197],[-70.582635,-32.884482],[-70.5776,-32.885834],[-70.573198,-32.882901]]]},"properties":{"comuna":"Calle Larga","mancha_id":"05302-88b2e368c9fffff","clase":"Bajo","nivel_medio":1.202,"nivel_medio_min":1.202,"nivel_medio_max":1.202,"pct_alto":2.2,"n_hexagonos":1,"area_ha":64.5}},{"type":"Feature","geometry":{"type":"Polygon","coordinates":[[[-70.586406,-32.891699],[-70.587037,-32.887414],[-70.592072,-32.886062],[-70.596475,-32.888994],[-70.595844,-32.893279],[-70.600248,-32.896211],[-70.599616,-32.900495],[-70.594581,-32.901847],[-70.590178,-32.898916],[-70.590809,-32.894631],[-70.586406,-32.891699]]]},"properties":{"comuna":"Calle Larga","mancha_id":"05302-88b2e368c5fffff","clase":"Bajo","nivel_medio":1.247,"nivel_medio_min":1.099,"nivel_medio_max":1.396,"pct_alto":8.3,"n_hexagonos":2,"area_ha":128.99}},{"type":"Feature","geometry":{"type":"Polygon","coordinates":[[[-70.571303,-32.895755],[-70.571935,-32.891471],[-70.576969,-32.890119],[-70.581372,-32.893051],[-70.58074,-32.897335],[-70.575706,-32.898687],[-70.571303,-32.895755]]]},"properties":{"comuna":"Calle Larga","mancha_id":"05302-88b2e368c3fffff","clase":"Bajo","nivel_medio":1.415,"nivel_medio_min":1.415,"nivel_medio_max":1.415,"pct_alto":7.1,"n_hexagonos":1,"area_ha":64.48}},{"type":"Feature","geometry":{"type":"Polygon","coordinates":[[[-70.603404,-32.874784],[-70.598369,-32.876138],[-70.597738,-32.880423],[-70.592703,-32.881776],[-70.5883,-32.878844],[-70.588932,-32.874558],[-70.584529,-32.871626],[-70.579495,-32.872978],[-70.575093,-32.870045],[-70.570059,-32.871398],[-70.569427,-32.875683],[-70.564394,-32.877035],[-70.563762,-32.88132],[-70.558729,-32.882672],[-70.554327,-32.879739],[-70.549294,-32.88109],[-70.544893,-32.878156],[-70.545525,-32.873872],[-70.550558,-32.87252],[-70.55119,-32.868235],[-70.556223,-32.866883],[-70.556639,-32.864055],[-70.556774,-32.86392],[-70.557121,-32.863416],[-70.557405,-32.863006],[-70.557909,-32.862502],[-70.558415,-32.862178],[-70.558426,-32.862171],[-70.559076,-32.861682],[-70.559585,-32.861351],[-70.559789,-32.861154],[-70.559897,-32.860959],[-70.560047,-32.860815],[-70.560565,-32.860977],[-70.560788,-32.861092],[-70.561029,-32.86111],[-70.561395,-32.861128],[-70.561653,-32.861084],[-70.561922,-32.861009],[-70.561938,-32.861004],[-70.5626,-32.860847],[-70.563356,-32.860721],[-70.563987,-32.860689],[-70.564274,-32.860656],[-70.564468,-32.8606],[-70.564569,-32.860513],[-70.56446,-32.860059],[-70.564319,-32.859416],[-70.564265,-32.858997],[-70.564212,-32.858605],[-70.564257,-32.858275],[-70.564397,-32.857947],[-70.564667,-32.857535],[-70.564821,-32.857351],[-70.565563,-32.856686],[-70.566225,-32.85615],[-70.566405,-32.855939],[-70.566592,-32.855864],[-70.566637,-32.855852],[-70.566878,-32.855921],[-70.567139,-32.855961],[-70.567734,-32.855966],[-70.56801,-32.855939],[-70.568039,-32.855931],[-70.571954,-32.85854],[-70.576987,-32.857187],[-70.581389,-32.86012],[-70.580758,-32.864407],[-70.58516,-32.86734],[-70.590194,-32.865986],[-70.594597,-32.868919],[-70.599632,-32.867565],[-70.604035,-32.870498],[-70.603404,-32.874784]]]},"properties":{"comuna":"Calle Larga","mancha_id":"05302-88b2e36819fffff","clase":"Bajo","nivel_medio":1.208,"nivel_medio_min":0.988,"nivel_medio_max":1.479,"pct_alto":4.8,"n_hexagonos":13,"area_ha":764.18}},{"type":"Feature","geometry":{"type":"Polygon","coordinates":[[[-70.618509,-32.870722],[-70.61914,-32.866435],[-70.624175,-32.86508],[-70.624806,-32.860793],[-70.620402,-32.85786],[-70.621032,-32.853573],[-70.616629,-32.85064],[-70.61726,-32.846352],[-70.622294,-32.844997],[-70.622925,-32.840708],[-70.621241,-32.839587],[-70.62155,-32.83926],[-70.62185,-32.83904],[-70.62282,-32.83864],[-70.62313,-32.83843],[-70.62327,-32.83834],[-70.62351,-32.83821],[-70.62379,-32.83818],[-70.62425,-32.83819],[-70.62471,-32.83818],[-70.62493,-32.8381],[-70.62541,-32.83784],[-70.62613,-32.83748],[-70.62647,-32.83737],[-70.6271,-32.83723],[-70.62759,-32.83715],[-70.62829,-32.837109],[-70.62796,-32.839352],[-70.632364,-32.842285],[-70.631733,-32.846573],[-70.636138,-32.849505],[-70.641173,-32.848149],[-70.645578,-32.851081],[-70.650613,-32.849724],[-70.651244,-32.845436],[-70.646839,-32.842504],[-70.64747,-32.838214],[-70.643065,-32.835282],[-70.63803,-32.836639],[-70.633792,-32.833818],[-70.63405,-32.83373],[-70.63523,-32.83325],[-70.63594,-32.83308],[-70.63649,-32.83304],[-70.63762,-32.83306],[-70.63822,-32.83286],[-70.63893,-32.83246],[-70.63918,-32.83227],[-70.63952,-32.83202],[-70.63988,-32.83169],[-70.64019,-32.83146],[-70.642838,-32.830421],[-70.643695,-32.830993],[-70.648731,-32.829635],[-70.653135,-32.832568],[-70.652505,-32.836857],[-70.65691,-32.839789],[-70.65628,-32.844079],[-70.66028,-32.84674],[-70.660667,-32.847132],[-70.66123,-32.8477],[-70.6605,-32.84856],[-70.660408,-32.848898],[-70.65989,-32.85079],[-70.659836,-32.851358],[-70.655019,-32.852656],[-70.654388,-32.856945],[-70.658794,-32.859876],[-70.66383,-32.858519],[-70.668236,-32.86145],[-70.669041,-32.861233],[-70.66998,-32.86257],[-70.67087,-32.8662],[-70.670522,-32.867679],[-70.67036,-32.86837],[-70.6705,-32.86896],[-70.671535,-32.871914],[-70.671381,-32.872957],[-70.666345,-32.874314],[-70.665714,-32.878601],[-70.660678,-32.879957],[-70.660047,-32.884244],[-70.664453,-32.887175],[-70.66949,-32.885818],[-70.673897,-32.888749],[-70.673267,-32.893035],[-70.668229,-32.894391],[-70.667599,-32.898677],[-70.662562,-32.900033],[-70.658155,-32.897103],[-70.653119,-32.898458],[-70.648713,-32.895527],[-70.649343,-32.891241],[-70.644938,-32.888311],[-70.645568,-32.884024],[-70.650605,-32.882669],[-70.651235,-32.878382],[-70.64683,-32.875451],[-70.641794,-32.876807],[-70.641163,-32.881093],[-70.636127,-32.882448],[-70.631722,-32.879517],[-70.626686,-32.880872],[-70.626055,-32.885158],[-70.63046,-32.888089],[-70.629829,-32.892375],[-70.634234,-32.895306],[-70.633603,-32.899591],[-70.638009,-32.902522],[-70.637378,-32.906807],[-70.632342,-32.90816],[-70.627936,-32.90523],[-70.6229,-32.906583],[-70.622269,-32.910867],[-70.617233,-32.91222],[-70.612829,-32.909289],[-70.61346,-32.905005],[-70.618496,-32.903652],[-70.619127,-32.899367],[-70.614722,-32.896436],[-70.609687,-32.897789],[-70.605283,-32.894858],[-70.605914,-32.890573],[-70.60151,-32.887641],[-70.602141,-32.883356],[-70.607176,-32.882002],[-70.61158,-32.884934],[-70.616615,-32.88358],[-70.617247,-32.879294],[-70.622282,-32.87794],[-70.622913,-32.873654],[-70.618509,-32.870722]]]},"properties":{"comuna":"Calle Larga","mancha_id":"05302-88b2e36801fffff","clase":"Bajo","nivel_medio":1.263,"nivel_medio_min":0.92,"nivel_medio_max":1.487,"pct_alto":9.2,"n_hexagonos":45,"area_ha":2704.67}},{"type":"Feature","geometry":{"type":"Polygon","coordinates":[[[-70.525901,-33.039417],[-70.526534,-33.035143],[-70.522131,-33.032213],[-70.517096,-33.033557],[-70.512693,-33.030627],[-70.513326,-33.026353],[-70.518361,-33.025009],[-70.518994,-33.020734],[-70.524029,-33.019389],[-70.524661,-33.015114],[-70.529696,-33.013769],[-70.534099,-33.0167],[-70.539134,-33.015354],[-70.543538,-33.018284],[-70.545722,-33.017701],[-70.545753,-33.017765],[-70.545886,-33.017923],[-70.546172,-33.018165],[-70.546387,-33.018793],[-70.546541,-33.019262],[-70.546692,-33.019623],[-70.546968,-33.019959],[-70.547473,-33.020175],[-70.547735,-33.020341],[-70.548108,-33.020559],[-70.548509,-33.020838],[-70.548918,-33.021224],[-70.549173,-33.021687],[-70.549125,-33.022207],[-70.549101,-33.022507],[-70.549083,-33.022971],[-70.549089,-33.023403],[-70.549066,-33.023755],[-70.549051,-33.023988],[-70.549033,-33.024258],[-70.549141,-33.024533],[-70.549218,-33.02473],[-70.549306,-33.024956],[-70.547309,-33.025489],[-70.546677,-33.029764],[-70.541641,-33.031109],[-70.541008,-33.035384],[-70.535972,-33.036729],[-70.53534,-33.041002],[-70.539743,-33.043932],[-70.53989,-33.043893],[-70.539819,-33.043978],[-70.539721,-33.044084],[-70.539632,-33.044181],[-70.539303,-33.044275],[-70.538928,-33.044337],[-70.538412,-33.044462],[-70.537973,-33.044647],[-70.537615,-33.044931],[-70.537271,-33.045103],[-70.53685,-33.045101],[-70.536474,-33.045291],[-70.536053,-33.045545],[-70.535759,-33.045905],[-70.535384,-33.046352],[-70.53519,-33.04676],[-70.53496,-33.046982],[-70.534621,-33.047127],[-70.533935,-33.047471],[-70.533604,-33.047921],[-70.533261,-33.048373],[-70.532985,-33.048825],[-70.529672,-33.04662],[-70.530304,-33.042347],[-70.525901,-33.039417]],[[-70.527799,-33.026594],[-70.532202,-33.029524],[-70.537237,-33.02818],[-70.53787,-33.023905],[-70.533467,-33.020975],[-70.528431,-33.02232],[-70.527799,-33.026594]]]},"properties":{"comuna":"Calle Larga","mancha_id":"05302-88b2c5d701fffff","clase":"Bajo","nivel_medio":1.133,"nivel_medio_min":0.791,"nivel_medio_max":1.493,"pct_alto":4.8,"n_hexagonos":11,"area_ha":591.36}},{"type":"Feature","geometry":{"type":"Polygon","coordinates":[[[-70.440986,-33.025118],[-70.44162,-33.020845],[-70.446652,-33.019504],[-70.451051,-33.022437],[-70.450418,-33.02671],[-70.445385,-33.028051],[-70.440986,-33.025118]]]},"properties":{"comuna":"Calle Larga","mancha_id":"05302-88b2c5d657fffff","clase":"Bajo","nivel_medio":0.567,"nivel_medio_min":0.567,"nivel_medio_max":0.567,"pct_alto":0.1,"n_hexagonos":1,"area_ha":64.21}},{"type":"Feature","geometry":{"type":"Polygon","coordinates":[[[-70.458618,-33.003999],[-70.454219,-33.001067],[-70.449186,-33.002409],[-70.444787,-32.999476],[-70.445421,-32.995201],[-70.450453,-32.993859],[-70.451086,-32.989584],[-70.446688,-32.986651],[-70.447321,-32.982375],[-70.452353,-32.981032],[-70.452986,-32.976756],[-70.458018,-32.975413],[-70.458652,-32.971136],[-70.463684,-32.969793],[-70.468083,-32.972726],[-70.46745,-32.977003],[-70.462417,-32.978346],[-70.461784,-32.982622],[-70.456752,-32.983965],[-70.456119,-32.988241],[-70.460518,-32.991174],[-70.459884,-32.995449],[-70.464284,-32.998382],[-70.463651,-33.002657],[-70.458618,-33.003999]]]},"properties":{"comuna":"Calle Larga","mancha_id":"05302-88b2c5d649fffff","clase":"Bajo","nivel_medio":0.886,"nivel_medio_min":0.584,"nivel_medio_max":1.086,"pct_alto":5.6,"n_hexagonos":6,"area_ha":385.59}},{"type":"Feature","geometry":{"type":"Polygon","coordinates":[[[-70.484355,-33.058703],[-70.484988,-33.054431],[-70.480587,-33.051501],[-70.48122,-33.047229],[-70.486254,-33.045887],[-70.490656,-33.048818],[-70.490022,-33.05309],[-70.494424,-33.05602],[-70.493791,-33.060292],[-70.488756,-33.061633],[-70.484355,-33.058703]]]},"properties":{"comuna":"Calle Larga","mancha_id":"05302-88b2c5d441fffff","clase":"Bajo","nivel_medio":1.331,"nivel_medio_min":1.235,"nivel_medio_max":1.428,"pct_alto":30.3,"n_hexagonos":2,"area_ha":128.39}},{"type":"Feature","geometry":{"type":"Polygon","coordinates":[[[-70.505732,-33.077623],[-70.510768,-33.076281],[-70.511401,-33.07201],[-70.516437,-33.070668],[-70.519103,-33.072442],[-70.519073,-33.072467],[-70.518881,-33.072783],[-70.518634,-33.073489],[-70.518617,-33.074432],[-70.518581,-33.075515],[-70.518525,-33.075951],[-70.518694,-33.076438],[-70.518791,-33.076793],[-70.518907,-33.077248],[-70.518965,-33.077475],[-70.518784,-33.07787],[-70.518375,-33.078357],[-70.518345,-33.078393],[-70.518021,-33.079073],[-70.517637,-33.079513],[-70.517303,-33.079687],[-70.51696,-33.079866],[-70.516407,-33.08012],[-70.515343,-33.080381],[-70.51498,-33.080497],[-70.51493,-33.080513],[-70.514719,-33.080636],[-70.514631,-33.080936],[-70.514622,-33.081117],[-70.514605,-33.081431],[-70.514465,-33.081921],[-70.51433,-33.082274],[-70.514007,-33.082421],[-70.513493,-33.082567],[-70.513015,-33.082661],[-70.512506,-33.083022],[-70.512091,-33.083443],[-70.511795,-33.083951],[-70.511563,-33.084274],[-70.509502,-33.084823],[-70.505099,-33.081894],[-70.505732,-33.077623]]]},"properties":{"comuna":"Calle Larga","mancha_id":"05302-88b2c5d429fffff","clase":"Bajo","nivel_medio":1.184,"nivel_medio_min":0.507,"nivel_medio_max":1.425,"pct_alto":23.0,"n_hexagonos":3,"area_ha":118.35}},{"type":"Feature","geometry":{"type":"Polygon","coordinates":[[[-70.491892,-33.073106],[-70.492525,-33.068835],[-70.49756,-33.067493],[-70.501962,-33.070423],[-70.50133,-33.074694],[-70.496294,-33.076035],[-70.491892,-33.073106]]]},"properties":{"comuna":"Calle Larga","mancha_id":"05302-88b2c5d40dfffff","clase":"Bajo","nivel_medio":1.129,"nivel_medio_min":1.129,"nivel_medio_max":1.129,"pct_alto":22.6,"n_hexagonos":1,"area_ha":64.18}},{"type":"Feature","geometry":{"type":"Polygon","coordinates":[[[-70.486224,-33.078717],[-70.490626,-33.081647],[-70.490463,-33.082741],[-70.490052,-33.082294],[-70.489362,-33.082132],[-70.488509,-33.081969],[-70.487212,-33.082175],[-70.486369,-33.082134],[-70.484976,-33.081959],[-70.483293,-33.081707],[-70.482758,-33.08152],[-70.48222,-33.081326],[-70.481959,-33.081075],[-70.481355,-33.080383],[-70.481174,-33.080156],[-70.481189,-33.080057],[-70.48099,-33.079925],[-70.480821,-33.079713],[-70.480672,-33.07938],[-70.48018,-33.077983],[-70.479816,-33.07703],[-70.479541,-33.076473],[-70.478946,-33.075883],[-70.478635,-33.075481],[-70.478335,-33.075061],[-70.478205,-33.07465],[-70.478191,-33.073723],[-70.4781,-33.072899],[-70.478047,-33.07269],[-70.477972,-33.0724],[-70.477824,-33.071365],[-70.477335,-33.070388],[-70.477074,-33.069624],[-70.476816,-33.06887],[-70.476825,-33.068379],[-70.476841,-33.067464],[-70.476801,-33.067293],[-70.476521,-33.066973],[-70.476068,-33.066825],[-70.475541,-33.066653],[-70.474738,-33.066492],[-70.473867,-33.066318],[-70.473567,-33.06623],[-70.473223,-33.066129],[-70.472557,-33.065918],[-70.470801,-33.065423],[-70.470229,-33.0654],[-70.469313,-33.065368],[-70.468571,-33.065203],[-70.468299,-33.06503],[-70.467391,-33.064453],[-70.466651,-33.063827],[-70.466366,-33.063494],[-70.466321,-33.063442],[-70.465793,-33.063031],[-70.465371,-33.062903],[-70.465065,-33.062544],[-70.464734,-33.062105],[-70.464481,-33.061573],[-70.464322,-33.061162],[-70.464211,-33.060873],[-70.464071,-33.059313],[-70.463963,-33.05869],[-70.463834,-33.057947],[-70.463731,-33.057178],[-70.463639,-33.056814],[-70.463292,-33.056245],[-70.46322,-33.056127],[-70.462981,-33.055733],[-70.462467,-33.054693],[-70.46197,-33.054175],[-70.461262,-33.053439],[-70.460686,-33.052767],[-70.460231,-33.052147],[-70.459951,-33.051713],[-70.459887,-33.051247],[-70.459771,-33.050403],[-70.459736,-33.049651],[-70.459661,-33.049143],[-70.45962,-33.04888],[-70.461717,-33.048321],[-70.462351,-33.044049],[-70.467384,-33.042708],[-70.471785,-33.045639],[-70.471151,-33.049911],[-70.475552,-33.052842],[-70.474919,-33.057114],[-70.469885,-33.058455],[-70.469252,-33.062726],[-70.473652,-33.065656],[-70.478687,-33.064316],[-70.483088,-33.067246],[-70.482455,-33.071517],[-70.486857,-33.074446],[-70.486224,-33.078717]]]},"properties":{"comuna":"Calle Larga","mancha_id":"05302-88b2c5d403fffff","clase":"Bajo","nivel_medio":1.245,"nivel_medio_min":0.708,"nivel_medio_max":1.494,"pct_alto":24.1,"n_hexagonos":8,"area_ha":326.86}},{"type":"Feature","geometry":{"type":"Polygon","coordinates":[[[-70.573773,-32.977333],[-70.578809,-32.975984],[-70.579756,-32.976614],[-70.579353,-32.976934],[-70.578855,-32.977336],[-70.578327,-32.977904],[-70.577951,-32.978333],[-70.577531,-32.978853],[-70.577161,-32.979746],[-70.576951,-32.980282],[-70.576884,-32.980985],[-70.576774,-32.981222],[-70.576558,-32.981693],[-70.576434,-32.981965],[-70.575896,-32.982459],[-70.575464,-32.982855],[-70.575328,-32.983066],[-70.575111,-32.983401],[-70.574746,-32.983953],[-70.574418,-32.984474],[-70.574001,-32.985142],[-70.573774,-32.985495],[-70.573107,-32.986107],[-70.572804,-32.986385],[-70.572369,-32.98662],[-70.571674,-32.986995],[-70.570058,-32.987646],[-70.569331,-32.98792],[-70.568783,-32.988108],[-70.567473,-32.987237],[-70.568105,-32.982959],[-70.573141,-32.981611],[-70.573773,-32.977333]]]},"properties":{"comuna":"Calle Larga","mancha_id":"05302-88b2c5d2c5fffff","clase":"Bajo","nivel_medio":1.396,"nivel_medio_min":1.377,"nivel_medio_max":1.41,"pct_alto":14.9,"n_hexagonos":2,"area_ha":57.77}},{"type":"Feature","geometry":{"type":"Polygon","coordinates":[[[-70.626662,-32.946709],[-70.631699,-32.945357],[-70.63233,-32.941075],[-70.637367,-32.939722],[-70.641774,-32.942652],[-70.646811,-32.941299],[-70.651218,-32.944228],[-70.655731,-32.943016],[-70.655715,-32.943136],[-70.656006,-32.943596],[-70.656442,-32.944179],[-70.657291,-32.944833],[-70.657825,-32.945367],[-70.658213,-32.945682],[-70.658917,-32.94624],[-70.659402,-32.946604],[-70.659693,-32.946919],[-70.659984,-32.94738],[-70.660178,-32.947647],[-70.660337,-32.948012],[-70.660241,-32.948664],[-70.660008,-32.949224],[-70.659547,-32.95],[-70.659414,-32.950252],[-70.659329,-32.950412],[-70.659038,-32.950849],[-70.658844,-32.951237],[-70.658747,-32.951601],[-70.658204,-32.953125],[-70.657371,-32.953217],[-70.656754,-32.953285],[-70.655601,-32.953274],[-70.654773,-32.953266],[-70.654725,-32.953266],[-70.653605,-32.953276],[-70.653038,-32.953447],[-70.652785,-32.953524],[-70.652304,-32.953415],[-70.652173,-32.953315],[-70.652015,-32.953194],[-70.651769,-32.953006],[-70.651494,-32.952795],[-70.650724,-32.952501],[-70.649924,-32.952195],[-70.649541,-32.952114],[-70.648898,-32.951977],[-70.647995,-32.951858],[-70.647414,-32.951785],[-70.646514,-32.951785],[-70.645969,-32.951854],[-70.645417,-32.951932],[-70.645238,-32.951975],[-70.645012,-32.952029],[-70.644594,-32.952113],[-70.644067,-32.95196],[-70.643618,-32.951764],[-70.643072,-32.951448],[-70.642545,-32.950816],[-70.642112,-32.950566],[-70.641722,-32.950356],[-70.641089,-32.950148],[-70.64044,-32.949924],[-70.63991,-32.949729],[-70.639366,-32.949408],[-70.63892,-32.949157],[-70.638153,-32.948486],[-70.637395,-32.94794],[-70.63727,-32.94785],[-70.636592,-32.947355],[-70.636014,-32.946835],[-70.635491,-32.94682],[-70.634298,-32.946786],[-70.633916,-32.946831],[-70.633736,-32.946852],[-70.633168,-32.946941],[-70.632703,-32.947015],[-70.631385,-32.947638],[-70.630654,-32.947925],[-70.630126,-32.948018],[-70.629425,-32.948138],[-70.628504,-32.948235],[-70.627484,-32.948407],[-70.62667,-32.948672],[-70.626371,-32.948686],[-70.626662,-32.946709]]]},"properties":{"comuna":"Calle Larga","mancha_id":"05302-88b2c5d261fffff","clase":"Bajo","nivel_medio":1.024,"nivel_medio_min":0.523,"nivel_medio_max":1.338,"pct_alto":16.4,"n_hexagonos":7,"area_ha":254.99}},{"type":"Feature","geometry":{"type":"Polygon","coordinates":[[[-70.592039,-32.951886],[-70.592671,-32.947605],[-70.594421,-32.947135],[-70.594104,-32.947515],[-70.593875,-32.947989],[-70.593734,-32.948598],[-70.593763,-32.949056],[-70.593858,-32.949377],[-70.594016,-32.949611],[-70.594234,-32.949685],[-70.594946,-32.949919],[-70.5953,-32.950106],[-70.595694,-32.950325],[-70.596084,-32.951095],[-70.596328,-32.951433],[-70.596714,-32.951965],[-70.597065,-32.952355],[-70.597165,-32.952732],[-70.597095,-32.953087],[-70.596931,-32.953733],[-70.596692,-32.954111],[-70.596474,-32.954445],[-70.596155,-32.954624],[-70.592039,-32.951886]]]},"properties":{"comuna":"Calle Larga","mancha_id":"05302-88b2c5d255fffff","clase":"Bajo","nivel_medio":1.091,"nivel_medio_min":1.091,"nivel_medio_max":1.091,"pct_alto":15.3,"n_hexagonos":1,"area_ha":19.39}},{"type":"Feature","geometry":{"type":"Polygon","coordinates":[[[-70.424026,-33.009115],[-70.42466,-33.004841],[-70.429692,-33.0035],[-70.430325,-32.999226],[-70.435357,-32.997885],[-70.439755,-33.000818],[-70.439122,-33.005092],[-70.44352,-33.008025],[-70.442887,-33.012298],[-70.437855,-33.01364],[-70.433456,-33.010707],[-70.428424,-33.012048],[-70.424026,-33.009115]]]},"properties":{"comuna":"Calle Larga","mancha_id":"05302-88b2c59965fffff","clase":"Bajo","nivel_medio":0.908,"nivel_medio_min":0.559,"nivel_medio_max":1.418,"pct_alto":7.0,"n_hexagonos":3,"area_ha":192.67}},{"type":"Feature","geometry":{"type":"Polygon","coordinates":[[[-70.422759,-33.017661],[-70.422125,-33.021934],[-70.419189,-33.022716],[-70.418999,-33.022628],[-70.417629,-33.021666],[-70.41666,-33.020535],[-70.415305,-33.018811],[-70.41469,-33.016902],[-70.414391,-33.015785],[-70.418361,-33.014728],[-70.422759,-33.017661]]]},"properties":{"comuna":"Calle Larga","mancha_id":"05302-88b2c59929fffff","clase":"Bajo","nivel_medio":1.139,"nivel_medio_min":1.139,"nivel_medio_max":1.139,"pct_alto":13.1,"n_hexagonos":1,"area_ha":45.51}},{"type":"Feature","geometry":{"type":"Polygon","coordinates":[[[-70.648731,-32.829635],[-70.643695,-32.830993],[-70.642838,-32.830421],[-70.643145,-32.830301],[-70.64629,-32.82912],[-70.64757,-32.82872],[-70.64887,-32.82829],[-70.648931,-32.82827],[-70.648731,-32.829635]]]},"properties":{"comuna":"Calle Larga","mancha_id":"05302-88b2e36b57fffff","clase":"Medio","nivel_medio":2.429,"nivel_medio_min":2.429,"nivel_medio_max":2.429,"pct_alto":47.6,"n_hexagonos":1,"area_ha":6.45}},{"type":"Feature","geometry":{"type":"Polygon","coordinates":[[[-70.654388,-32.856945],[-70.655019,-32.852656],[-70.659836,-32.851358],[-70.65976,-32.85217],[-70.65992,-32.8532],[-70.66108,-32.85629],[-70.66214,-32.85692],[-70.663935,-32.857804],[-70.66539,-32.85852],[-70.66732,-32.85945],[-70.66835,-32.86025],[-70.669041,-32.861233],[-70.668236,-32.86145],[-70.66383,-32.858519],[-70.658794,-32.859876],[-70.654388,-32.856945]]]},"properties":{"comuna":"Calle Larga","mancha_id":"05302-88b2e36b33fffff","clase":"Medio","nivel_medio":1.775,"nivel_medio_min":1.768,"nivel_medio_max":1.825,"pct_alto":26.7,"n_hexagonos":2,"area_ha":52.94}},{"type":"Feature","geometry":{"type":"Polygon","coordinates":[[[-70.64747,-32.838214],[-70.646839,-32.842504],[-70.651244,-32.845436],[-70.650613,-32.849724],[-70.645578,-32.851081],[-70.641173,-32.848149],[-70.636138,-32.849505],[-70.631733,-32.846573],[-70.632364,-32.842285],[-70.62796,-32.839352],[-70.62829,-32.837109],[-70.62844,-32.8371],[-70.62942,-32.8371],[-70.63007,-32.83698],[-70.63035,-32.83699],[-70.63075,-32.83702],[-70.63105,-32.83703],[-70.63159,-32.83689],[-70.63241,-32.83671],[-70.63286,-32.8367],[-70.63288,-32.83666],[-70.63287,-32.8363],[-70.63272,-32.83576],[-70.63226,-32.83465],[-70.63205,-32.83435],[-70.63246,-32.83427],[-70.633792,-32.833818],[-70.63803,-32.836639],[-70.643065,-32.835282],[-70.64747,-32.838214]]]},"properties":{"comuna":"Calle Larga","mancha_id":"05302-88b2e36b11fffff","clase":"Medio","nivel_medio":1.792,"nivel_medio_min":1.706,"nivel_medio_max":1.98,"pct_alto":20.9,"n_hexagonos":4,"area_ha":247.74}},{"type":"Feature","geometry":{"type":"Polygon","coordinates":[[[-70.65868,-32.82531],[-70.658633,-32.826807],[-70.657032,-32.825742],[-70.65772,-32.82552],[-70.658586,-32.825331],[-70.65868,-32.82531]]]},"properties":{"comuna":"Calle Larga","mancha_id":"05302-88b2e36b09fffff","clase":"Medio","nivel_medio":2.296,"nivel_medio_min":2.296,"nivel_medio_max":2.296,"pct_alto":61.5,"n_hexagonos":1,"area_ha":1.31}},{"type":"Feature","geometry":{"type":"Polygon","coordinates":[[[-70.653135,-32.832568],[-70.658171,-32.83121],[-70.66012,-32.832507],[-70.66019,-32.83475],[-70.6603,-32.83624],[-70.66056,-32.83788],[-70.66068,-32.838773],[-70.66088,-32.84026],[-70.66088,-32.84136],[-70.66035,-32.84226],[-70.66048,-32.84376],[-70.66019,-32.84665],[-70.66028,-32.84674],[-70.65628,-32.844079],[-70.65691,-32.839789],[-70.652505,-32.836857],[-70.653135,-32.832568]]]},"properties":{"comuna":"Calle Larga","mancha_id":"05302-88b2e36b03fffff","clase":"Medio","nivel_medio":1.645,"nivel_medio_min":1.516,"nivel_medio_max":1.917,"pct_alto":15.6,"n_hexagonos":2,"area_ha":79.49}},{"type":"Feature","geometry":{"type":"Polygon","coordinates":[[[-70.576987,-32.857187],[-70.571954,-32.85854],[-70.568039,-32.855931],[-70.568274,-32.855866],[-70.568607,-32.855627],[-70.568942,-32.855398],[-70.569535,-32.855046],[-70.570512,-32.854384],[-70.571489,-32.853754],[-70.572782,-32.853218],[-70.573422,-32.852854],[-70.574074,-32.852398],[-70.574453,-32.851926],[-70.574579,-32.851327],[-70.574602,-32.850889],[-70.577619,-32.8529],[-70.576987,-32.857187]]]},"properties":{"comuna":"Calle Larga","mancha_id":"05302-88b2e36ae3fffff","clase":"Medio","nivel_medio":1.861,"nivel_medio_min":1.861,"nivel_medio_max":1.861,"pct_alto":22.2,"n_hexagonos":1,"area_ha":40.83}},{"type":"Feature","geometry":{"type":"Polygon","coordinates":[[[-70.566628,-32.85585],[-70.566637,-32.855852],[-70.566592,-32.855864],[-70.566628,-32.85585]]]},"properties":{"comuna":"Calle Larga","mancha_id":"05302-88b2e36a8dfffff","clase":"Medio","nivel_medio":2.0,"nivel_medio_min":2.0,"nivel_medio_max":2.0,"pct_alto":0.0,"n_hexagonos":1,"area_ha":0.0}},{"type":"Feature","geometry":{"type":"Polygon","coordinates":[[[-70.535972,-33.036729],[-70.541008,-33.035384],[-70.541641,-33.031109],[-70.546677,-33.029764],[-70.547309,-33.025489],[-70.549306,-33.024956],[-70.549341,-33.025043],[-70.549489,-33.025226],[-70.549739,-33.025535],[-70.550019,-33.025972],[-70.550097,-33.026344],[-70.550199,-33.026671],[-70.550351,-33.026963],[-70.550577,-33.027399],[-70.550931,-33.02808],[-70.551105,-33.028351],[-70.551369,-33.028629],[-70.551833,-33.029035],[-70.552054,-33.029362],[-70.552288,-33.029813],[-70.552359,-33.030455],[-70.552492,-33.03112],[-70.552643,-33.031665],[-70.552865,-33.032217],[-70.553019,-33.032598],[-70.552993,-33.032857],[-70.552844,-33.033215],[-70.552317,-33.034121],[-70.552133,-33.034445],[-70.551833,-33.034789],[-70.551346,-33.035326],[-70.550677,-33.035899],[-70.550593,-33.035988],[-70.55024,-33.036363],[-70.550105,-33.036705],[-70.549949,-33.037102],[-70.545412,-33.038313],[-70.545173,-33.039925],[-70.54425,-33.040135],[-70.543996,-33.040338],[-70.543751,-33.040583],[-70.543459,-33.04097],[-70.542921,-33.041733],[-70.542274,-33.042414],[-70.541789,-33.042805],[-70.541398,-33.043118],[-70.54107,-33.043212],[-70.540685,-33.043327],[-70.540241,-33.043493],[-70.540054,-33.043696],[-70.53989,-33.043893],[-70.539743,-33.043932],[-70.53534,-33.041002],[-70.535972,-33.036729]]]},"properties":{"comuna":"Calle Larga","mancha_id":"05302-88b2c5d705fffff","clase":"Medio","nivel_medio":1.724,"nivel_medio_min":1.587,"nivel_medio_max":1.854,"pct_alto":22.8,"n_hexagonos":4,"area_ha":154.7}},{"type":"Feature","geometry":{"type":"Polygon","coordinates":[[[-70.587114,-32.971735],[-70.586965,-32.972011],[-70.586826,-32.972269],[-70.586514,-32.972835],[-70.585928,-32.973236],[-70.584514,-32.973995],[-70.583923,-32.974224],[-70.582982,-32.974588],[-70.581674,-32.975095],[-70.581206,-32.975465],[-70.580263,-32.976211],[-70.579756,-32.976614],[-70.578809,-32.975984],[-70.573773,-32.977333],[-70.573141,-32.981611],[-70.568105,-32.982959],[-70.567473,-32.987237],[-70.568783,-32.988108],[-70.568764,-32.988115],[-70.568392,-32.988237],[-70.56815,-32.988263],[-70.567644,-32.988315],[-70.566804,-32.988625],[-70.566406,-32.988811],[-70.565864,-32.989065],[-70.565551,-32.989334],[-70.565224,-32.989615],[-70.564913,-32.990106],[-70.564665,-32.990487],[-70.564295,-32.991055],[-70.563966,-32.991503],[-70.563599,-32.992005],[-70.56334,-32.992359],[-70.562906,-32.992951],[-70.562599,-32.993391],[-70.562421,-32.993646],[-70.562171,-32.994123],[-70.561941,-32.994563],[-70.56169,-32.994828],[-70.561454,-32.995055],[-70.560205,-32.995652],[-70.559606,-32.996006],[-70.558794,-32.996485],[-70.558465,-32.996824],[-70.558144,-32.997155],[-70.557294,-32.997845],[-70.557084,-32.998415],[-70.557029,-32.998847],[-70.556997,-32.999059],[-70.556974,-32.999216],[-70.556925,-32.999825],[-70.556912,-33.0],[-70.556883,-33.000415],[-70.556993,-33.00069],[-70.557189,-33.001232],[-70.557401,-33.001713],[-70.557402,-33.002061],[-70.557383,-33.002405],[-70.557293,-33.002715],[-70.557107,-33.003065],[-70.556691,-33.003337],[-70.556295,-33.003569],[-70.555996,-33.003675],[-70.555639,-33.003849],[-70.555176,-33.00409],[-70.554761,-33.00437],[-70.554394,-33.004708],[-70.554162,-33.005084],[-70.553989,-33.005364],[-70.55369,-33.005692],[-70.553236,-33.005846],[-70.553127,-33.005879],[-70.552522,-33.006059],[-70.551707,-33.006247],[-70.551209,-33.006476],[-70.550941,-33.006686],[-70.550631,-33.007033],[-70.550461,-33.007223],[-70.55009,-33.007775],[-70.549763,-33.008265],[-70.549501,-33.008663],[-70.549396,-33.008925],[-70.549265,-33.009404],[-70.54921,-33.010084],[-70.549192,-33.010847],[-70.549142,-33.011106],[-70.548941,-33.011663],[-70.548643,-33.011945],[-70.548346,-33.012091],[-70.547873,-33.012325],[-70.547134,-33.012868],[-70.546561,-33.013303],[-70.546311,-33.013563],[-70.546172,-33.013804],[-70.546241,-33.014018],[-70.546374,-33.014281],[-70.546463,-33.014455],[-70.546849,-33.015031],[-70.547013,-33.015275],[-70.547139,-33.0157],[-70.547221,-33.016133],[-70.547115,-33.016414],[-70.547002,-33.016712],[-70.546663,-33.017001],[-70.546261,-33.017243],[-70.545703,-33.017545],[-70.545671,-33.017593],[-70.545722,-33.017701],[-70.543538,-33.018284],[-70.539134,-33.015354],[-70.534099,-33.0167],[-70.529696,-33.013769],[-70.524661,-33.015114],[-70.524029,-33.019389],[-70.518994,-33.020734],[-70.518361,-33.025009],[-70.513326,-33.026353],[-70.512693,-33.030627],[-70.517096,-33.033557],[-70.522131,-33.032213],[-70.526534,-33.035143],[-70.525901,-33.039417],[-70.530304,-33.042347],[-70.529672,-33.04662],[-70.532985,-33.048825],[-70.532864,-33.049023],[-70.53234,-33.04906],[-70.53187,-33.048825],[-70.531502,-33.048985],[-70.530783,-33.049288],[-70.529707,-33.049741],[-70.528823,-33.050061],[-70.527805,-33.05036],[-70.527435,-33.050741],[-70.527236,-33.050991],[-70.52703,-33.05144],[-70.526848,-33.051731],[-70.526741,-33.052033],[-70.526711,-33.052493],[-70.526811,-33.052916],[-70.526923,-33.053347],[-70.526981,-33.053553],[-70.526968,-33.05373],[-70.526875,-33.054061],[-70.526828,-33.054116],[-70.526599,-33.054383],[-70.526183,-33.054998],[-70.526061,-33.055463],[-70.526143,-33.055956],[-70.526184,-33.056466],[-70.526167,-33.056987],[-70.526067,-33.057519],[-70.526015,-33.058196],[-70.525812,-33.058589],[-70.525531,-33.059023],[-70.525395,-33.059267],[-70.525195,-33.05963],[-70.524929,-33.060175],[-70.524919,-33.0602],[-70.524678,-33.060828],[-70.524611,-33.061171],[-70.524624,-33.062311],[-70.524641,-33.062863],[-70.524526,-33.063238],[-70.524411,-33.063613],[-70.524138,-33.064007],[-70.523708,-33.064722],[-70.523371,-33.065313],[-70.523241,-33.06581],[-70.523234,-33.065837],[-70.523091,-33.066895],[-70.522972,-33.067295],[-70.522802,-33.067789],[-70.522625,-33.068301],[-70.522459,-33.068542],[-70.522203,-33.068913],[-70.521839,-33.069439],[-70.521555,-33.069851],[-70.52123,-33.07027],[-70.521024,-33.070621],[-70.521012,-33.070925],[-70.521065,-33.071179],[-70.521015,-33.071471],[-70.520835,-33.071821],[-70.520574,-33.071997],[-70.520257,-33.072086],[-70.519879,-33.072095],[-70.519339,-33.072245],[-70.519103,-33.072442],[-70.516437,-33.070668],[-70.511401,-33.07201],[-70.510768,-33.076281],[-70.505732,-33.077623],[-70.505099,-33.081894],[-70.509502,-33.084823],[-70.511563,-33.084274],[-70.51134,-33.084583],[-70.511093,-33.084965],[-70.510654,-33.085849],[-70.510205,-33.086751],[-70.509842,-33.087226],[-70.509608,-33.087803],[-70.509344,-33.088377],[-70.508958,-33.088495],[-70.508899,-33.088513],[-70.508572,-33.088513],[-70.508115,-33.08845],[-70.507519,-33.088371],[-70.50679,-33.088366],[-70.505823,-33.0883],[-70.505014,-33.08824],[-70.50439,-33.0881],[-70.504043,-33.088023],[-70.50377,-33.087805],[-70.503453,-33.087596],[-70.503117,-33.087405],[-70.501937,-33.086904],[-70.500604,-33.086673],[-70.5,-33.086633],[-70.499613,-33.086606],[-70.499564,-33.086602],[-70.49876,-33.086528],[-70.497764,-33.086228],[-70.497091,-33.085873],[-70.496274,-33.085441],[-70.495311,-33.084933],[-70.493759,-33.084298],[-70.492486,-33.083864],[-70.491709,-33.083659],[-70.491228,-33.083422],[-70.490656,-33.082951],[-70.490463,-33.082741],[-70.490626,-33.081647],[-70.486224,-33.078717],[-70.486857,-33.074446],[-70.482455,-33.071517],[-70.483088,-33.067246],[-70.478687,-33.064316],[-70.473652,-33.065656],[-70.469252,-33.062726],[-70.469885,-33.058455],[-70.474919,-33.057114],[-70.475552,-33.052842],[-70.471151,-33.049911],[-70.471785,-33.045639],[-70.467384,-33.042708],[-70.462351,-33.044049],[-70.45795,-33.041118],[-70.458584,-33.036846],[-70.454184,-33.033914],[-70.454817,-33.029642],[-70.450418,-33.02671],[-70.451051,-33.022437],[-70.446652,-33.019504],[-70.447286,-33.015231],[-70.442887,-33.012298],[-70.44352,-33.008025],[-70.439122,-33.005092],[-70.439755,-33.000818],[-70.444787,-32.999476],[-70.449186,-33.002409],[-70.454219,-33.001067],[-70.458618,-33.003999],[-70.463651,-33.002657],[-70.464284,-32.998382],[-70.459884,-32.995449],[-70.460518,-32.991174],[-70.456119,-32.988241],[-70.456752,-32.983965],[-70.461784,-32.982622],[-70.462417,-32.978346],[-70.46745,-32.977003],[-70.468083,-32.972726],[-70.473115,-32.971382],[-70.477515,-32.974315],[-70.482548,-32.97297],[-70.483181,-32.968693],[-70.488213,-32.967348],[-70.488846,-32.96307],[-70.484446,-32.960138],[-70.485079,-32.955859],[-70.48068,-32.952926],[-70.475647,-32.954271],[-70.471248,-32.951338],[-70.471881,-32.94706],[-70.467483,-32.944126],[-70.462995,-32.945325],[-70.463056,-32.944525],[-70.463246,-32.943295],[-70.46334,-32.942129],[-70.463655,-32.941089],[-70.463876,-32.940143],[-70.46416,-32.939071],[-70.464223,-32.937684],[-70.464244,-32.937265],[-70.464286,-32.936455],[-70.464475,-32.935604],[-70.464696,-32.935162],[-70.464979,-32.934973],[-70.465704,-32.934752],[-70.466587,-32.934626],[-70.467564,-32.934248],[-70.468321,-32.933775],[-70.469014,-32.932987],[-70.469424,-32.932294],[-70.469833,-32.93159],[-70.469991,-32.931316],[-70.470653,-32.930654],[-70.471662,-32.930182],[-70.472829,-32.929425],[-70.473427,-32.929078],[-70.474279,-32.928416],[-70.474878,-32.927565],[-70.475508,-32.926651],[-70.475778,-32.926151],[-70.476138,-32.925485],[-70.476611,-32.92476],[-70.476769,-32.924192],[-70.476958,-32.923436],[-70.47699,-32.923152],[-70.47699,-32.922868],[-70.477242,-32.922017],[-70.477494,-32.921324],[-70.477676,-32.920848],[-70.477904,-32.920252],[-70.47803,-32.919054],[-70.478219,-32.917699],[-70.478219,-32.916973],[-70.478377,-32.915965],[-70.478723,-32.915145],[-70.479133,-32.914326],[-70.479152,-32.914294],[-70.479543,-32.913632],[-70.480016,-32.912686],[-70.480552,-32.911741],[-70.481056,-32.9107],[-70.481623,-32.910007],[-70.48238,-32.909534],[-70.48301,-32.909061],[-70.483925,-32.908683],[-70.48467,-32.908568],[-70.484744,-32.908557],[-70.485217,-32.908525],[-70.486068,-32.908651],[-70.48714,-32.908967],[-70.488243,-32.909376],[-70.48862,-32.909696],[-70.487008,-32.910128],[-70.486375,-32.914409],[-70.490774,-32.917343],[-70.495806,-32.915996],[-70.496439,-32.911714],[-70.501471,-32.910367],[-70.502087,-32.906199],[-70.502366,-32.906161],[-70.502579,-32.905958],[-70.50264,-32.9059],[-70.503122,-32.905436],[-70.503564,-32.905026],[-70.504041,-32.904655],[-70.504546,-32.904402],[-70.50476,-32.904169],[-70.504682,-32.90376],[-70.504635,-32.903324],[-70.504446,-32.902347],[-70.504352,-32.901348],[-70.504254,-32.900473],[-70.504194,-32.899604],[-70.504274,-32.899092],[-70.504383,-32.898596],[-70.504446,-32.898239],[-70.504478,-32.89806],[-70.504605,-32.897497],[-70.504793,-32.896925],[-70.505045,-32.896357],[-70.505344,-32.895863],[-70.505613,-32.895223],[-70.50583,-32.894638],[-70.506054,-32.894182],[-70.506433,-32.893782],[-70.50681,-32.893268],[-70.507189,-32.892669],[-70.507308,-32.892352],[-70.507378,-32.892165],[-70.507472,-32.891692],[-70.507472,-32.890998],[-70.507472,-32.890179],[-70.507189,-32.88958],[-70.507094,-32.888666],[-70.507126,-32.888004],[-70.507252,-32.887342],[-70.507252,-32.886774],[-70.507157,-32.886175],[-70.507157,-32.885933],[-70.507157,-32.885545],[-70.507209,-32.884905],[-70.507157,-32.884284],[-70.507164,-32.883656],[-70.506969,-32.883009],[-70.50696,-32.882444],[-70.506997,-32.882084],[-70.507059,-32.88185],[-70.507356,-32.8813],[-70.50862,-32.881272],[-70.514122,-32.881168],[-70.518656,-32.881081],[-70.51533,-32.881973],[-70.514698,-32.886257],[-70.519098,-32.889191],[-70.52413,-32.887842],[-70.524762,-32.883558],[-70.521012,-32.881057],[-70.523833,-32.881037],[-70.526701,-32.88069],[-70.527553,-32.880407],[-70.528309,-32.879965],[-70.528845,-32.879524],[-70.529066,-32.879083],[-70.529286,-32.878515],[-70.529412,-32.877916],[-70.529567,-32.87735],[-70.529602,-32.877223],[-70.52998,-32.876655],[-70.530642,-32.876088],[-70.531209,-32.875741],[-70.531556,-32.875395],[-70.531714,-32.875016],[-70.531934,-32.874543],[-70.531934,-32.874134],[-70.531997,-32.873629],[-70.532344,-32.873283],[-70.532785,-32.873219],[-70.533101,-32.873219],[-70.53351,-32.873219],[-70.534109,-32.873062],[-70.53474,-32.872904],[-70.535402,-32.872747],[-70.536032,-32.872684],[-70.536033,-32.872683],[-70.53682,-32.8724],[-70.537545,-32.872116],[-70.538113,-32.871769],[-70.538155,-32.871735],[-70.53846,-32.871486],[-70.538806,-32.871139],[-70.539027,-32.87054],[-70.539248,-32.869878],[-70.539594,-32.869216],[-70.539993,-32.86882],[-70.540449,-32.86863],[-70.540942,-32.868516],[-70.541483,-32.868503],[-70.54199,-32.868491],[-70.543062,-32.868491],[-70.544386,-32.868459],[-70.545048,-32.868428],[-70.545373,-32.868359],[-70.545584,-32.86827],[-70.545756,-32.868136],[-70.54589,-32.867931],[-70.546277,-32.867608],[-70.546719,-32.867388],[-70.547379,-32.867235],[-70.547948,-32.867136],[-70.548547,-32.867041],[-70.549146,-32.867009],[-70.549329,-32.866995],[-70.549934,-32.866946],[-70.550281,-32.866694],[-70.550564,-32.866316],[-70.550943,-32.865812],[-70.551177,-32.865541],[-70.551383,-32.865471],[-70.551668,-32.865433],[-70.552141,-32.865433],[-70.552487,-32.865465],[-70.55296,-32.865465],[-70.553237,-32.865452],[-70.553575,-32.865354],[-70.553763,-32.865212],[-70.554158,-32.864929],[-70.554694,-32.864771],[-70.555356,-32.864582],[-70.555923,-32.864425],[-70.556455,-32.864186],[-70.556629,-32.864066],[-70.556639,-32.864055],[-70.556223,-32.866883],[-70.55119,-32.868235],[-70.550558,-32.87252],[-70.545525,-32.873872],[-70.544893,-32.878156],[-70.549294,-32.88109],[-70.554327,-32.879739],[-70.558729,-32.882672],[-70.563762,-32.88132],[-70.564394,-32.877035],[-70.569427,-32.875683],[-70.570059,-32.871398],[-70.575093,-32.870045],[-70.579495,-32.872978],[-70.584529,-32.871626],[-70.588932,-32.874558],[-70.5883,-32.878844],[-70.592703,-32.881776],[-70.597738,-32.880423],[-70.598369,-32.876138],[-70.603404,-32.874784],[-70.604035,-32.870498],[-70.599632,-32.867565],[-70.594597,-32.868919],[-70.590194,-32.865986],[-70.58516,-32.86734],[-70.580758,-32.864407],[-70.581389,-32.86012],[-70.586423,-32.858767],[-70.590826,-32.8617],[-70.59586,-32.860346],[-70.600263,-32.863279],[-70.605297,-32.861925],[-70.605929,-32.857638],[-70.604462,-32.856661],[-70.604886,-32.855627],[-70.60572,-32.85299],[-70.606019,-32.852602],[-70.606688,-32.852139],[-70.606969,-32.851875],[-70.606969,-32.851619],[-70.606721,-32.851239],[-70.60626,-32.85071],[-70.60591,-32.85009],[-70.605642,-32.849479],[-70.605561,-32.849294],[-70.6055,-32.84885],[-70.605455,-32.848236],[-70.60546,-32.84773],[-70.605957,-32.847271],[-70.60604,-32.84709],[-70.60618,-32.84664],[-70.60639,-32.84553],[-70.60704,-32.84561],[-70.60766,-32.84568],[-70.607691,-32.845661],[-70.60828,-32.84531],[-70.60832,-32.84529],[-70.60876,-32.84516],[-70.6091,-32.84508],[-70.60962,-32.84496],[-70.61041,-32.84476],[-70.61052,-32.8447],[-70.6108,-32.84454],[-70.61119,-32.84422],[-70.61129,-32.84416],[-70.61194,-32.84376],[-70.612154,-32.843608],[-70.612856,-32.843419],[-70.612907,-32.843076],[-70.61317,-32.84289],[-70.61396,-32.84239],[-70.61432,-32.84216],[-70.61464,-32.84196],[-70.61523,-32.84154],[-70.61544,-32.84141],[-70.61575,-32.84123],[-70.61601,-32.84115],[-70.61633,-32.84113],[-70.61656,-32.84116],[-70.61701,-32.84125],[-70.61759,-32.84122],[-70.61794,-32.84105],[-70.61822,-32.84095],[-70.61847,-32.84086],[-70.61864,-32.84069],[-70.61886,-32.84037],[-70.6192,-32.84002],[-70.61946,-32.83983],[-70.61977,-32.83971],[-70.61995,-32.83971],[-70.62028,-32.83978],[-70.62079,-32.83985],[-70.62098,-32.83981],[-70.62121,-32.83962],[-70.621241,-32.839587],[-70.622925,-32.840708],[-70.622294,-32.844997],[-70.61726,-32.846352],[-70.616629,-32.85064],[-70.621032,-32.853573],[-70.620402,-32.85786],[-70.624806,-32.860793],[-70.624175,-32.86508],[-70.61914,-32.866435],[-70.618509,-32.870722],[-70.622913,-32.873654],[-70.622282,-32.87794],[-70.617247,-32.879294],[-70.616615,-32.88358],[-70.61158,-32.884934],[-70.607176,-32.882002],[-70.602141,-32.883356],[-70.60151,-32.887641],[-70.605914,-32.890573],[-70.605283,-32.894858],[-70.609687,-32.897789],[-70.614722,-32.896436],[-70.619127,-32.899367],[-70.618496,-32.903652],[-70.61346,-32.905005],[-70.612829,-32.909289],[-70.617233,-32.91222],[-70.622269,-32.910867],[-70.6229,-32.906583],[-70.627936,-32.90523],[-70.632342,-32.90816],[-70.637378,-32.906807],[-70.638009,-32.902522],[-70.633603,-32.899591],[-70.634234,-32.895306],[-70.629829,-32.892375],[-70.63046,-32.888089],[-70.626055,-32.885158],[-70.626686,-32.880872],[-70.631722,-32.879517],[-70.636127,-32.882448],[-70.641163,-32.881093],[-70.641794,-32.876807],[-70.64683,-32.875451],[-70.651235,-32.878382],[-70.650605,-32.882669],[-70.645568,-32.884024],[-70.644938,-32.888311],[-70.649343,-32.891241],[-70.648713,-32.895527],[-70.653119,-32.898458],[-70.658155,-32.897103],[-70.662562,-32.900033],[-70.667599,-32.898677],[-70.668229,-32.894391],[-70.673267,-32.893035],[-70.673897,-32.888749],[-70.66949,-32.885818],[-70.664453,-32.887175],[-70.660047,-32.884244],[-70.660678,-32.879957],[-70.665714,-32.878601],[-70.666345,-32.874314],[-70.671381,-32.872957],[-70.671535,-32.871914],[-70.672057,-32.873407],[-70.67285,-32.87567],[-70.674398,-32.88038],[-70.67516,-32.8827],[-70.675645,-32.888278],[-70.67599,-32.89224],[-70.67611,-32.89362],[-70.67616,-32.89436],[-70.676106,-32.894923],[-70.67609,-32.895084],[-70.675678,-32.895933],[-70.676163,-32.898407],[-70.676007,-32.90053],[-70.67592,-32.901706],[-70.676017,-32.902288],[-70.676357,-32.902458],[-70.676454,-32.902919],[-70.676066,-32.903282],[-70.67478,-32.903719],[-70.673907,-32.903913],[-70.672718,-32.903962],[-70.671671,-32.903883],[-70.671433,-32.903865],[-70.67005,-32.903622],[-70.669201,-32.903452],[-70.668134,-32.903501],[-70.667261,-32.903549],[-70.66629,-32.903671],[-70.665441,-32.903768],[-70.664932,-32.903962],[-70.663865,-32.90418],[-70.663452,-32.904301],[-70.663089,-32.904374],[-70.662652,-32.90452],[-70.662439,-32.904656],[-70.662046,-32.904908],[-70.661415,-32.905369],[-70.660906,-32.905757],[-70.660348,-32.90612],[-70.65979,-32.906387],[-70.659377,-32.906654],[-70.658528,-32.907188],[-70.658092,-32.907503],[-70.657558,-32.907964],[-70.65734,-32.908376],[-70.657194,-32.908886],[-70.657194,-32.909298],[-70.656952,-32.909807],[-70.656636,-32.910147],[-70.656617,-32.910193],[-70.656442,-32.910608],[-70.656248,-32.911239],[-70.656006,-32.91199],[-70.65586,-32.9125],[-70.655715,-32.912961],[-70.655424,-32.913397],[-70.655108,-32.913785],[-70.654963,-32.914028],[-70.654453,-32.914368],[-70.653871,-32.914562],[-70.65341,-32.914731],[-70.652731,-32.915047],[-70.652149,-32.915362],[-70.651712,-32.915653],[-70.651349,-32.916066],[-70.651331,-32.916087],[-70.651009,-32.916478],[-70.650572,-32.916914],[-70.650306,-32.917303],[-70.650015,-32.917836],[-70.649942,-32.918176],[-70.649651,-32.918782],[-70.649287,-32.91934],[-70.648971,-32.919922],[-70.648705,-32.920553],[-70.648559,-32.921159],[-70.648486,-32.921693],[-70.648486,-32.922202],[-70.648826,-32.922566],[-70.649214,-32.922857],[-70.649651,-32.923245],[-70.649917,-32.923755],[-70.650005,-32.923985],[-70.649334,-32.924166],[-70.648703,-32.928449],[-70.643666,-32.929803],[-70.643035,-32.934086],[-70.647442,-32.937016],[-70.652479,-32.935662],[-70.652742,-32.93388],[-70.653144,-32.934209],[-70.653483,-32.934403],[-70.653701,-32.934549],[-70.653896,-32.934864],[-70.654162,-32.935325],[-70.654356,-32.93564],[-70.654502,-32.936077],[-70.654672,-32.936465],[-70.654744,-32.936877],[-70.654793,-32.9372],[-70.654817,-32.937363],[-70.654987,-32.937848],[-70.655157,-32.93826],[-70.655399,-32.9386],[-70.655545,-32.939036],[-70.65569,-32.939643],[-70.655763,-32.940006],[-70.655909,-32.940564],[-70.65603,-32.940928],[-70.656176,-32.941389],[-70.656176,-32.941704],[-70.656127,-32.94202],[-70.655885,-32.942384],[-70.655763,-32.942772],[-70.655731,-32.943016],[-70.651218,-32.944228],[-70.646811,-32.941299],[-70.641774,-32.942652],[-70.637367,-32.939722],[-70.63233,-32.941075],[-70.631699,-32.945357],[-70.626662,-32.946709],[-70.626371,-32.948686],[-70.626058,-32.948701],[-70.625324,-32.948565],[-70.624647,-32.948366],[-70.623665,-32.947914],[-70.622784,-32.947545],[-70.621538,-32.947371],[-70.620661,-32.947473],[-70.619926,-32.947507],[-70.618888,-32.947738],[-70.618417,-32.947922],[-70.617651,-32.948513],[-70.617116,-32.948892],[-70.616639,-32.949075],[-70.61722,-32.945131],[-70.612815,-32.942201],[-70.608375,-32.943392],[-70.607584,-32.942805],[-70.607045,-32.942597],[-70.606593,-32.942365],[-70.606164,-32.942175],[-70.605657,-32.94214],[-70.605338,-32.942118],[-70.604712,-32.942075],[-70.604,-32.942066],[-70.603517,-32.942337],[-70.602521,-32.942933],[-70.601781,-32.943287],[-70.600811,-32.943753],[-70.600222,-32.943973],[-70.599446,-32.944229],[-70.59813,-32.944692],[-70.597926,-32.944764],[-70.597305,-32.944984],[-70.596577,-32.945242],[-70.596034,-32.945395],[-70.594984,-32.946425],[-70.594572,-32.946954],[-70.594421,-32.947135],[-70.592671,-32.947605],[-70.592039,-32.951886],[-70.596155,-32.954624],[-70.596122,-32.954642],[-70.595593,-32.954938],[-70.595064,-32.955235],[-70.594525,-32.955557],[-70.59433,-32.955725],[-70.594104,-32.955943],[-70.593741,-32.956269],[-70.593543,-32.956612],[-70.59329,-32.957019],[-70.592424,-32.95791],[-70.591741,-32.958574],[-70.591394,-32.958885],[-70.591397,-32.959389],[-70.5914,-32.95983],[-70.591403,-32.960278],[-70.590776,-32.960447],[-70.590144,-32.964727],[-70.591762,-32.965803],[-70.591785,-32.965886],[-70.592058,-32.96642],[-70.592435,-32.967091],[-70.592751,-32.967853],[-70.593022,-32.968206],[-70.593022,-32.968606],[-70.592956,-32.968978],[-70.592891,-32.969336],[-70.592874,-32.969515],[-70.592541,-32.969702],[-70.59228,-32.969849],[-70.591984,-32.970015],[-70.591785,-32.97031],[-70.591629,-32.970531],[-70.591155,-32.970725],[-70.590444,-32.970985],[-70.589925,-32.971035],[-70.588982,-32.971125],[-70.588209,-32.971212],[-70.587114,-32.971735]],[[-70.581336,-32.958866],[-70.586372,-32.957516],[-70.587003,-32.953236],[-70.582599,-32.950305],[-70.583231,-32.946024],[-70.578827,-32.943093],[-70.573792,-32.944443],[-70.57316,-32.948724],[-70.577564,-32.951655],[-70.576932,-32.955935],[-70.581336,-32.958866]],[[-70.604005,-32.93634],[-70.609041,-32.934988],[-70.609673,-32.930706],[-70.605268,-32.927775],[-70.600232,-32.929127],[-70.599601,-32.933409],[-70.604005,-32.93634]],[[-70.491892,-33.073106],[-70.496294,-33.076035],[-70.50133,-33.074694],[-70.501962,-33.070423],[-70.49756,-33.067493],[-70.492525,-33.068835],[-70.491892,-33.073106]],[[-70.484355,-33.058703],[-70.488756,-33.061633],[-70.493791,-33.060292],[-70.494424,-33.05602],[-70.490022,-33.05309],[-70.490656,-33.048818],[-70.486254,-33.045887],[-70.48122,-33.047229],[-70.480587,-33.051501],[-70.484988,-33.054431],[-70.484355,-33.058703]],[[-70.478718,-33.03148],[-70.473684,-33.032822],[-70.473051,-33.037095],[-70.477452,-33.040026],[-70.482486,-33.038684],[-70.483119,-33.034411],[-70.478718,-33.03148]],[[-70.456718,-33.016822],[-70.461751,-33.01548],[-70.462384,-33.011206],[-70.457984,-33.008274],[-70.452952,-33.009615],[-70.452318,-33.013889],[-70.456718,-33.016822]],[[-70.477483,-33.007178],[-70.47685,-33.011453],[-70.481251,-33.014384],[-70.486284,-33.013041],[-70.490685,-33.015973],[-70.495719,-33.014629],[-70.496352,-33.010354],[-70.491951,-33.007423],[-70.492584,-33.003148],[-70.488183,-33.000216],[-70.48315,-33.00156],[-70.482517,-33.005835],[-70.477483,-33.007178]],[[-70.596475,-32.888994],[-70.592072,-32.886062],[-70.587037,-32.887414],[-70.586406,-32.891699],[-70.590809,-32.894631],[-70.590178,-32.898916],[-70.594581,-32.901847],[-70.599616,-32.900495],[-70.600248,-32.896211],[-70.595844,-32.893279],[-70.596475,-32.888994]],[[-70.575706,-32.898687],[-70.58074,-32.897335],[-70.581372,-32.893051],[-70.576969,-32.890119],[-70.571935,-32.891471],[-70.571303,-32.895755],[-70.575706,-32.898687]],[[-70.5776,-32.885834],[-70.582635,-32.884482],[-70.583266,-32.880197],[-70.578864,-32.877264],[-70.57383,-32.878616],[-70.573198,-32.882901],[-70.5776,-32.885834]]]},"properties":{"comuna":"Calle Larga","mancha_id":"05302-88b2c5d211fffff","clase":"Medio","nivel_medio":1.98,"nivel_medio_min":1.501,"nivel_medio_max":2.494,"pct_alto":20.7,"n_hexagonos":375,"area_ha":22428.76}},{"type":"Feature","geometry":{"type":"Polygon","coordinates":[[[-70.612893,-32.950834],[-70.612624,-32.950476],[-70.615498,-32.949705],[-70.61527,-32.949843],[-70.614991,-32.950093],[-70.614846,-32.950542],[-70.614498,-32.951099],[-70.614304,-32.951455],[-70.613941,-32.951491],[-70.613713,-32.951446],[-70.613403,-32.951278],[-70.612893,-32.950834]]]},"properties":{"comuna":"Calle Larga","mancha_id":"05302-88b2c5d20dfffff","clase":"Medio","nivel_medio":1.714,"nivel_medio_min":1.714,"nivel_medio_max":1.714,"pct_alto":28.8,"n_hexagonos":1,"area_ha":2.35}},{"type":"Feature","geometry":{"type":"Polygon","coordinates":[[[-70.66012,-32.832507],[-70.658171,-32.83121],[-70.653135,-32.832568],[-70.648731,-32.829635],[-70.648931,-32.82827],[-70.64923,-32.82817],[-70.65008,-32.82789],[-70.65066,-32.8277],[-70.65174,-32.82734],[-70.65234,-32.82717],[-70.65324,-32.8269],[-70.65378,-32.82676],[-70.65463,-32.82652],[-70.65561,-32.8262],[-70.657032,-32.825742],[-70.658633,-32.826807],[-70.65859,-32.82816],[-70.658595,-32.828321],[-70.65861,-32.82875],[-70.65982,-32.8289],[-70.66002,-32.83035],[-70.66009,-32.83155],[-70.66012,-32.832507]]]},"properties":{"comuna":"Calle Larga","mancha_id":"05302-88b2e36b01fffff","clase":"Alto","nivel_medio":2.981,"nivel_medio_min":2.953,"nivel_medio_max":3.228,"pct_alto":72.0,"n_hexagonos":2,"area_ha":51.71}},{"type":"Feature","geometry":{"type":"Polygon","coordinates":[[[-70.600263,-32.863279],[-70.59586,-32.860346],[-70.590826,-32.8617],[-70.586423,-32.858767],[-70.581389,-32.86012],[-70.576987,-32.857187],[-70.577619,-32.8529],[-70.574602,-32.850889],[-70.57461,-32.850728],[-70.574736,-32.850097],[-70.574635,-32.84968],[-70.574617,-32.849404],[-70.574723,-32.849177],[-70.574862,-32.848836],[-70.575461,-32.848237],[-70.576132,-32.847674],[-70.576534,-32.847469],[-70.576943,-32.847323],[-70.577573,-32.847323],[-70.578424,-32.847449],[-70.579402,-32.847575],[-70.580064,-32.847733],[-70.580635,-32.847728],[-70.581107,-32.847603],[-70.581419,-32.84738],[-70.581749,-32.847059],[-70.58205,-32.846724],[-70.582182,-32.846525],[-70.582239,-32.846441],[-70.582396,-32.845936],[-70.582418,-32.845632],[-70.582491,-32.845337],[-70.582901,-32.844959],[-70.583121,-32.844738],[-70.583437,-32.844455],[-70.583672,-32.844097],[-70.583858,-32.84419],[-70.584006,-32.844574],[-70.583883,-32.845329],[-70.583852,-32.845694],[-70.583858,-32.846226],[-70.583858,-32.847105],[-70.583858,-32.84747],[-70.583907,-32.847637],[-70.583994,-32.847953],[-70.584291,-32.848361],[-70.5846,-32.848726],[-70.584718,-32.848831],[-70.584743,-32.849122],[-70.584613,-32.849475],[-70.584266,-32.849648],[-70.583623,-32.849834],[-70.583381,-32.850063],[-70.582899,-32.850255],[-70.582836,-32.850302],[-70.582633,-32.850453],[-70.582509,-32.850676],[-70.582509,-32.850874],[-70.582645,-32.851035],[-70.58271,-32.851155],[-70.582769,-32.851264],[-70.582784,-32.851634],[-70.582812,-32.852328],[-70.582979,-32.852935],[-70.583064,-32.853198],[-70.583157,-32.853995],[-70.582925,-32.854482],[-70.582778,-32.855109],[-70.582314,-32.855821],[-70.582322,-32.856594],[-70.582267,-32.857422],[-70.581981,-32.858721],[-70.581989,-32.859309],[-70.583603,-32.8589],[-70.584963,-32.858556],[-70.586512,-32.858163],[-70.586983,-32.858044],[-70.589295,-32.857457],[-70.589323,-32.856876],[-70.589083,-32.855106],[-70.588987,-32.854157],[-70.588919,-32.853978],[-70.588653,-32.85328],[-70.589165,-32.853386],[-70.589467,-32.853464],[-70.589867,-32.853567],[-70.590039,-32.853677],[-70.59048,-32.853959],[-70.591193,-32.854195],[-70.591465,-32.854346],[-70.591668,-32.85467],[-70.592052,-32.854945],[-70.59231,-32.855283],[-70.594642,-32.857152],[-70.59497,-32.857226],[-70.595221,-32.85725],[-70.59592,-32.857285],[-70.596306,-32.857315],[-70.596844,-32.857357],[-70.598599,-32.8576],[-70.599269,-32.857651],[-70.600963,-32.857631],[-70.601752,-32.857537],[-70.602697,-32.857537],[-70.603094,-32.857508],[-70.604199,-32.857303],[-70.604462,-32.856661],[-70.605929,-32.857638],[-70.605297,-32.861925],[-70.600263,-32.863279]]]},"properties":{"comuna":"Calle Larga","mancha_id":"05302-88b2e36851fffff","clase":"Alto","nivel_medio":2.711,"nivel_medio_min":2.554,"nivel_medio_max":2.987,"pct_alto":78.5,"n_hexagonos":6,"area_ha":178.76}},{"type":"Feature","geometry":{"type":"Polygon","coordinates":[[[-70.545173,-33.039925],[-70.545412,-33.038313],[-70.549949,-33.037102],[-70.549886,-33.037262],[-70.549807,-33.037649],[-70.549292,-33.038408],[-70.548969,-33.038777],[-70.548533,-33.039219],[-70.547841,-33.039493],[-70.547304,-33.03954],[-70.546452,-33.039572],[-70.545476,-33.039856],[-70.545173,-33.039925]]]},"properties":{"comuna":"Calle Larga","mancha_id":"05302-88b2c5d729fffff","clase":"Alto","nivel_medio":2.635,"nivel_medio_min":2.635,"nivel_medio_max":2.635,"pct_alto":75.1,"n_hexagonos":1,"area_ha":7.18}},{"type":"Feature","geometry":{"type":"Polygon","coordinates":[[[-70.47685,-33.011453],[-70.477483,-33.007178],[-70.482517,-33.005835],[-70.48315,-33.00156],[-70.488183,-33.000216],[-70.492584,-33.003148],[-70.491951,-33.007423],[-70.496352,-33.010354],[-70.495719,-33.014629],[-70.490685,-33.015973],[-70.486284,-33.013041],[-70.481251,-33.014384],[-70.47685,-33.011453]]]},"properties":{"comuna":"Calle Larga","mancha_id":"05302-88b2c5d669fffff","clase":"Alto","nivel_medio":2.663,"nivel_medio_min":2.608,"nivel_medio_max":2.749,"pct_alto":73.4,"n_hexagonos":3,"area_ha":192.77}},{"type":"Feature","geometry":{"type":"Polygon","coordinates":[[[-70.452318,-33.013889],[-70.452952,-33.009615],[-70.457984,-33.008274],[-70.462384,-33.011206],[-70.461751,-33.01548],[-70.456718,-33.016822],[-70.452318,-33.013889]]]},"properties":{"comuna":"Calle Larga","mancha_id":"05302-88b2c5d643fffff","clase":"Alto","nivel_medio":2.557,"nivel_medio_min":2.557,"nivel_medio_max":2.557,"pct_alto":65.9,"n_hexagonos":1,"area_ha":64.23}},{"type":"Feature","geometry":{"type":"Polygon","coordinates":[[[-70.473051,-33.037095],[-70.473684,-33.032822],[-70.478718,-33.03148],[-70.483119,-33.034411],[-70.482486,-33.038684],[-70.477452,-33.040026],[-70.473051,-33.037095]]]},"properties":{"comuna":"Calle Larga","mancha_id":"05302-88b2c5d62bfffff","clase":"Alto","nivel_medio":2.706,"nivel_medio_min":2.706,"nivel_medio_max":2.706,"pct_alto":75.4,"n_hexagonos":1,"area_ha":64.21}},{"type":"Feature","geometry":{"type":"Polygon","coordinates":[[[-70.576932,-32.955935],[-70.577564,-32.951655],[-70.57316,-32.948724],[-70.573792,-32.944443],[-70.578827,-32.943093],[-70.583231,-32.946024],[-70.582599,-32.950305],[-70.587003,-32.953236],[-70.586372,-32.957516],[-70.581336,-32.958866],[-70.576932,-32.955935]]]},"properties":{"comuna":"Calle Larga","mancha_id":"05302-88b2c5d253fffff","clase":"Alto","nivel_medio":2.592,"nivel_medio_min":2.551,"nivel_medio_max":2.632,"pct_alto":62.3,"n_hexagonos":2,"area_ha":128.81}},{"type":"Feature","geometry":{"type":"Polygon","coordinates":[[[-70.599601,-32.933409],[-70.600232,-32.929127],[-70.605268,-32.927775],[-70.609673,-32.930706],[-70.609041,-32.934988],[-70.604005,-32.93634],[-70.599601,-32.933409]]]},"properties":{"comuna":"Calle Larga","mancha_id":"05302-88b2c5d249fffff","clase":"Alto","nivel_medio":2.691,"nivel_medio_min":2.691,"nivel_medio_max":2.691,"pct_alto":81.8,"n_hexagonos":1,"area_ha":64.45}},{"type":"Feature","geometry":{"type":"Polygon","coordinates":[[[-70.612815,-32.942201],[-70.61722,-32.945131],[-70.616639,-32.949075],[-70.616364,-32.94918],[-70.615753,-32.94955],[-70.615498,-32.949705],[-70.612624,-32.950476],[-70.612617,-32.950467],[-70.612398,-32.950034],[-70.612089,-32.949439],[-70.611988,-32.948935],[-70.611798,-32.948584],[-70.611493,-32.948362],[-70.611195,-32.947826],[-70.610972,-32.946895],[-70.610817,-32.946429],[-70.610264,-32.945414],[-70.610044,-32.944838],[-70.609864,-32.944467],[-70.609554,-32.94383],[-70.60919,-32.94372],[-70.60856,-32.943529],[-70.608375,-32.943392],[-70.612815,-32.942201]]]},"properties":{"comuna":"Calle Larga","mancha_id":"05302-88b2c5d247fffff","clase":"Alto","nivel_medio":2.588,"nivel_medio_min":2.588,"nivel_medio_max":2.588,"pct_alto":79.2,"n_hexagonos":1,"area_ha":43.21}},{"type":"Feature","geometry":{"type":"Polygon","coordinates":[[[-70.590144,-32.964727],[-70.590776,-32.960447],[-70.591403,-32.960278],[-70.591404,-32.960325],[-70.591514,-32.961245],[-70.591464,-32.961975],[-70.591423,-32.962857],[-70.591497,-32.963635],[-70.591591,-32.964623],[-70.591625,-32.965318],[-70.591762,-32.965803],[-70.590144,-32.964727]]]},"properties":{"comuna":"Calle Larga","mancha_id":"05302-88b2c5d21dfffff","clase":"Alto","nivel_medio":2.639,"nivel_medio_min":2.639,"nivel_medio_max":2.639,"pct_alto":65.5,"n_hexagonos":1,"area_ha":5.38}}],"bbox":[-70.67646,-33.08852,-70.40709,-32.82531]}