{"type":"FeatureCollection","features":[{"type":"Feature","geometry":{"type":"Polygon","coordinates":[[[-71.434666,-32.495433],[-71.433549,-32.494697],[-71.433757,-32.493248],[-71.43378,-32.49334],[-71.43404,-32.49383],[-71.43412,-32.49418],[-71.43422,-32.49452],[-71.43441,-32.49497],[-71.434666,-32.495433]]]},"properties":{"comuna":"Papudo","mancha_id":"05403-88b2e26cd7fffff","clase":"Muy Bajo","nivel_medio":0.0,"nivel_medio_min":0.0,"nivel_medio_max":0.0,"pct_alto":0.0,"n_hexagonos":1,"area_ha":0.87}},{"type":"Feature","geometry":{"type":"Polygon","coordinates":[[[-71.4266,-32.41427],[-71.42661,-32.414299],[-71.425739,-32.413724],[-71.425792,-32.413354],[-71.42593,-32.41339],[-71.42618,-32.41333],[-71.42639,-32.41331],[-71.42657,-32.41342],[-71.42669,-32.41359],[-71.42666,-32.41385],[-71.4266,-32.41408],[-71.4266,-32.41427]]]},"properties":{"comuna":"Papudo","mancha_id":"05403-88b2e26527fffff","clase":"Muy Bajo","nivel_medio":0.173,"nivel_medio_min":0.173,"nivel_medio_max":0.173,"pct_alto":0.0,"n_hexagonos":1,"area_ha":0.61}},{"type":"Feature","geometry":{"type":"Polygon","coordinates":[[[-71.42712,-32.41454],[-71.42713,-32.41461],[-71.427113,-32.414631],[-71.426831,-32.414445],[-71.427,-32.41446],[-71.42712,-32.41454]]]},"properties":{"comuna":"Papudo","mancha_id":"05403-88b2e26527fffff-2","clase":"Muy Bajo","nivel_medio":0.173,"nivel_medio_min":0.173,"nivel_medio_max":0.173,"pct_alto":0.0,"n_hexagonos":1,"area_ha":0.02}},{"type":"Feature","geometry":{"type":"Polygon","coordinates":[[[-71.38277,-32.409061],[-71.378341,-32.406135],[-71.378481,-32.405154],[-71.380349,-32.405984],[-71.381326,-32.405204],[-71.382691,-32.404681],[-71.383678,-32.404449],[-71.385014,-32.40442],[-71.386466,-32.404565],[-71.388209,-32.404856],[-71.388219,-32.404857],[-71.387819,-32.407654],[-71.38277,-32.409061]]]},"properties":{"comuna":"Papudo","mancha_id":"05403-88b2e26511fffff","clase":"Muy Bajo","nivel_medio":0.396,"nivel_medio_min":0.396,"nivel_medio_max":0.396,"pct_alto":12.8,"n_hexagonos":1,"area_ha":31.02}},{"type":"Feature","geometry":{"type":"Polygon","coordinates":[[[-71.398241,-32.40475],[-71.397918,-32.404841],[-71.397835,-32.404786],[-71.398241,-32.40475]]]},"properties":{"comuna":"Papudo","mancha_id":"05403-88b2e26503fffff","clase":"Muy Bajo","nivel_medio":0.0,"nivel_medio_min":0.0,"nivel_medio_max":0.0,"pct_alto":0.0,"n_hexagonos":1,"area_ha":0.01}},{"type":"Feature","geometry":{"type":"Polygon","coordinates":[[[-71.427691,-32.433976],[-71.428311,-32.429645],[-71.4294,-32.429341],[-71.4294,-32.4295],[-71.42931,-32.42965],[-71.42935,-32.42978],[-71.42943,-32.42994],[-71.42947,-32.43007],[-71.42949,-32.43013],[-71.42943,-32.43018],[-71.42905,-32.4304],[-71.4289,-32.4305],[-71.42886,-32.43057],[-71.42889,-32.43082],[-71.4289,-32.43104],[-71.42883,-32.43118],[-71.4287,-32.43124],[-71.42856,-32.43131],[-71.42853,-32.43138],[-71.42841,-32.43167],[-71.42825,-32.43176],[-71.42811,-32.43182],[-71.42799,-32.4319],[-71.42799,-32.43197],[-71.42805,-32.43207],[-71.42812,-32.43216],[-71.42822,-32.43225],[-71.42828,-32.43232],[-71.4283,-32.43247],[-71.42827,-32.43256],[-71.42817,-32.43263],[-71.42804,-32.4327],[-71.42798,-32.43279],[-71.42795,-32.43284],[-71.42797,-32.43298],[-71.42804,-32.43305],[-71.42806,-32.43312],[-71.42806,-32.43319],[-71.42807,-32.43337],[-71.42816,-32.43348],[-71.42826,-32.43347],[-71.42853,-32.43343],[-71.42862,-32.43348],[-71.42869,-32.43357],[-71.42863,-32.43369],[-71.42845,-32.43385],[-71.42828,-32.43405],[-71.42828,-32.43429],[-71.428312,-32.434386],[-71.427691,-32.433976]]]},"properties":{"comuna":"Papudo","mancha_id":"05403-88b2e26ec7fffff","clase":"Bajo","nivel_medio":0.851,"nivel_medio_min":0.851,"nivel_medio_max":0.851,"pct_alto":10.0,"n_hexagonos":1,"area_ha":2.87}},{"type":"Feature","geometry":{"type":"Polygon","coordinates":[[[-71.4609,-32.49924],[-71.46107,-32.49939],[-71.461129,-32.499488],[-71.459171,-32.500033],[-71.45921,-32.5],[-71.45931,-32.49992],[-71.45944,-32.49967],[-71.45951,-32.49945],[-71.45957,-32.49932],[-71.45975,-32.49923],[-71.46002,-32.4991],[-71.46019,-32.49903],[-71.46034,-32.49905],[-71.46057,-32.49912],[-71.46072,-32.49913],[-71.4609,-32.49924]]]},"properties":{"comuna":"Papudo","mancha_id":"05403-88b2e26c81fffff","clase":"Bajo","nivel_medio":0.592,"nivel_medio_min":0.592,"nivel_medio_max":0.592,"pct_alto":11.4,"n_hexagonos":1,"area_ha":0.97}},{"type":"Feature","geometry":{"type":"Polygon","coordinates":[[[-71.45755,-32.50037],[-71.457585,-32.500475],[-71.456955,-32.50065],[-71.456335,-32.504978],[-71.451282,-32.506384],[-71.450662,-32.510711],[-71.445609,-32.512116],[-71.441176,-32.509195],[-71.436123,-32.5106],[-71.43169,-32.507678],[-71.43231,-32.503351],[-71.437362,-32.501946],[-71.437744,-32.499279],[-71.43805,-32.49952],[-71.43845,-32.49983],[-71.43863,-32.5],[-71.43877,-32.50014],[-71.43901,-32.50031],[-71.43917,-32.50047],[-71.43974,-32.50097],[-71.43992,-32.50102],[-71.44012,-32.50117],[-71.44026,-32.50128],[-71.44074,-32.50155],[-71.44124,-32.50189],[-71.44236,-32.50254],[-71.44335,-32.50316],[-71.4438,-32.50351],[-71.44399,-32.50369],[-71.44405,-32.50382],[-71.44446,-32.50405],[-71.444562,-32.504098],[-71.44482,-32.50422],[-71.44533,-32.50441],[-71.44566,-32.50436],[-71.44582,-32.50435],[-71.44589,-32.5044],[-71.44613,-32.50443],[-71.44622,-32.5044],[-71.44636,-32.5044],[-71.44643,-32.50441],[-71.44647,-32.5045],[-71.44645,-32.50459],[-71.4463,-32.50474],[-71.44629,-32.50486],[-71.44646,-32.50496],[-71.44699,-32.50514],[-71.44746,-32.50538],[-71.44768,-32.50552],[-71.44795,-32.50559],[-71.44815,-32.50559],[-71.44873,-32.50558],[-71.44909,-32.50555],[-71.44977,-32.50543],[-71.449813,-32.505416],[-71.45002,-32.50535],[-71.4502,-32.50525],[-71.45053,-32.50491],[-71.45055,-32.50435],[-71.45068,-32.50405],[-71.45084,-32.50382],[-71.45094,-32.50345],[-71.45105,-32.50331],[-71.4512,-32.50321],[-71.45136,-32.50315],[-71.45162,-32.50311],[-71.45184,-32.50288],[-71.45211,-32.50277],[-71.45216,-32.50263],[-71.45229,-32.50234],[-71.45237,-32.50227],[-71.45249,-32.50216],[-71.45271,-32.50207],[-71.45307,-32.50202],[-71.45364,-32.50201],[-71.45391,-32.50196],[-71.45414,-32.5019],[-71.45441,-32.50193],[-71.45463,-32.50185],[-71.45475,-32.5016],[-71.45487,-32.50145],[-71.45514,-32.50131],[-71.45536,-32.50117],[-71.45552,-32.5011],[-71.45579,-32.50107],[-71.45611,-32.50093],[-71.45633,-32.50069],[-71.45651,-32.50055],[-71.456695,-32.500479],[-71.45677,-32.50045],[-71.45719,-32.50034],[-71.45737,-32.50031],[-71.45747,-32.50033],[-71.45755,-32.50037]]]},"properties":{"comuna":"Papudo","mancha_id":"05403-88b2e26c81fffff-2","clase":"Bajo","nivel_medio":1.079,"nivel_medio_min":0.592,"nivel_medio_max":1.214,"pct_alto":28.0,"n_hexagonos":5,"area_ha":165.99}},{"type":"Feature","geometry":{"type":"Polygon","coordinates":[[[-71.41633,-32.4108],[-71.416457,-32.410819],[-71.416258,-32.412208],[-71.413483,-32.412981],[-71.41364,-32.41233],[-71.41387,-32.41211],[-71.41414,-32.4118],[-71.41439,-32.41136],[-71.41461,-32.41105],[-71.41479,-32.41085],[-71.41496,-32.41075],[-71.41513,-32.4107],[-71.41526,-32.4107],[-71.41545,-32.41073],[-71.41568,-32.41092],[-71.41574,-32.41112],[-71.4158,-32.41125],[-71.41593,-32.41129],[-71.41604,-32.41122],[-71.41616,-32.41094],[-71.41626,-32.41082],[-71.41633,-32.4108]]]},"properties":{"comuna":"Papudo","mancha_id":"05403-88b2e2653dfffff","clase":"Bajo","nivel_medio":0.764,"nivel_medio_min":0.764,"nivel_medio_max":0.764,"pct_alto":22.0,"n_hexagonos":1,"area_ha":3.89}},{"type":"Feature","geometry":{"type":"Polygon","coordinates":[[[-71.397298,-32.409173],[-71.392248,-32.41058],[-71.391628,-32.414912],[-71.386578,-32.416318],[-71.382149,-32.413393],[-71.38277,-32.409061],[-71.387819,-32.407654],[-71.388219,-32.404857],[-71.389809,-32.405112],[-71.391926,-32.405378],[-71.393814,-32.405146],[-71.395084,-32.405025],[-71.397835,-32.404786],[-71.397918,-32.404841],[-71.397298,-32.409173]]]},"properties":{"comuna":"Papudo","mancha_id":"05403-88b2e26515fffff","clase":"Bajo","nivel_medio":0.581,"nivel_medio_min":0.523,"nivel_medio_max":0.666,"pct_alto":18.0,"n_hexagonos":2,"area_ha":110.35}},{"type":"Feature","geometry":{"type":"Polygon","coordinates":[[[-71.408,-32.40539],[-71.408255,-32.406119],[-71.40848,-32.40676],[-71.40905,-32.40768],[-71.41002,-32.40892],[-71.41076,-32.40989],[-71.41132,-32.41053],[-71.41166,-32.41086],[-71.41219,-32.41159],[-71.41273,-32.41258],[-71.41284,-32.41288],[-71.413257,-32.413044],[-71.411208,-32.413616],[-71.406777,-32.410691],[-71.407397,-32.406358],[-71.403693,-32.403912],[-71.407148,-32.403262],[-71.40717,-32.40336],[-71.40721,-32.40345],[-71.40768,-32.40471],[-71.408,-32.40539]]]},"properties":{"comuna":"Papudo","mancha_id":"05403-88b2e26507fffff","clase":"Bajo","nivel_medio":0.901,"nivel_medio_min":0.764,"nivel_medio_max":1.287,"pct_alto":27.4,"n_hexagonos":2,"area_ha":29.3}},{"type":"Feature","geometry":{"type":"Polygon","coordinates":[[[-71.456335,-32.504978],[-71.456955,-32.50065],[-71.457585,-32.500475],[-71.45769,-32.50079],[-71.45785,-32.50105],[-71.45803,-32.50113],[-71.45823,-32.50114],[-71.4584,-32.50107],[-71.45851,-32.50102],[-71.45872,-32.50082],[-71.45876,-32.5005],[-71.45885,-32.50026],[-71.45907,-32.50012],[-71.459171,-32.500033],[-71.461129,-32.499488],[-71.46113,-32.49949],[-71.46133,-32.49951],[-71.46153,-32.49952],[-71.46169,-32.49958],[-71.46179,-32.49963],[-71.46198,-32.49965],[-71.4621,-32.49961],[-71.4622,-32.49958],[-71.4623,-32.49962],[-71.46246,-32.49971],[-71.46264,-32.49985],[-71.46276,-32.5],[-71.46285,-32.50011],[-71.46299,-32.5002],[-71.463003,-32.500209],[-71.46309,-32.50027],[-71.462945,-32.500557],[-71.462974,-32.500908],[-71.462945,-32.501128],[-71.462857,-32.501465],[-71.462784,-32.501699],[-71.462784,-32.501904],[-71.462842,-32.502168],[-71.462974,-32.502519],[-71.462974,-32.502739],[-71.462901,-32.502944],[-71.462637,-32.503339],[-71.462432,-32.503588],[-71.462183,-32.503881],[-71.461876,-32.504511],[-71.461509,-32.504672],[-71.461246,-32.504848],[-71.461026,-32.505141],[-71.460777,-32.505595],[-71.460572,-32.506093],[-71.460528,-32.506591],[-71.460528,-32.506825],[-71.460558,-32.50722],[-71.460572,-32.507748],[-71.460572,-32.507769],[-71.456335,-32.504978]]]},"properties":{"comuna":"Papudo","mancha_id":"05403-88b2e26c87fffff","clase":"Medio","nivel_medio":1.998,"nivel_medio_min":1.998,"nivel_medio_max":1.998,"pct_alto":53.2,"n_hexagonos":1,"area_ha":36.53}},{"type":"Feature","geometry":{"type":"Polygon","coordinates":[[[-71.37648,-32.41913],[-71.3771,-32.414799],[-71.382149,-32.413393],[-71.386578,-32.416318],[-71.385958,-32.42065],[-71.380909,-32.422056],[-71.37648,-32.41913]]]},"properties":{"comuna":"Papudo","mancha_id":"05403-88b2e265e9fffff","clase":"Medio","nivel_medio":1.595,"nivel_medio_min":1.595,"nivel_medio_max":1.595,"pct_alto":46.3,"n_hexagonos":1,"area_ha":65.71}},{"type":"Feature","geometry":{"type":"Polygon","coordinates":[[[-71.397298,-32.409173],[-71.397918,-32.404841],[-71.398241,-32.40475],[-71.400098,-32.404589],[-71.403693,-32.403912],[-71.407397,-32.406358],[-71.406777,-32.410691],[-71.401728,-32.412098],[-71.401107,-32.41643],[-71.396058,-32.417837],[-71.391628,-32.414912],[-71.392248,-32.41058],[-71.397298,-32.409173]]]},"properties":{"comuna":"Papudo","mancha_id":"05403-88b2e26539fffff","clase":"Medio","nivel_medio":2.227,"nivel_medio_min":2.206,"nivel_medio_max":2.247,"pct_alto":73.8,"n_hexagonos":2,"area_ha":129.43}},{"type":"Feature","geometry":{"type":"Polygon","coordinates":[[[-71.2855,-32.441129],[-71.286081,-32.441129],[-71.286221,-32.441129],[-71.287322,-32.441121],[-71.288554,-32.440846],[-71.289157,-32.440616],[-71.289894,-32.440262],[-71.291375,-32.439654],[-71.291949,-32.439101],[-71.292027,-32.439026],[-71.293982,-32.437651],[-71.296039,-32.43693],[-71.296414,-32.436751],[-71.29752,-32.43614],[-71.298387,-32.435675],[-71.298859,-32.435487],[-71.299443,-32.435349],[-71.300377,-32.435454],[-71.301374,-32.435866],[-71.300754,-32.440185],[-71.303377,-32.441919],[-71.303036,-32.442162],[-71.302531,-32.442259],[-71.302223,-32.442262],[-71.301706,-32.442226],[-71.300946,-32.4419],[-71.300547,-32.441563],[-71.300316,-32.441362],[-71.300006,-32.441176],[-71.299528,-32.441018],[-71.299127,-32.440842],[-71.29893,-32.440692],[-71.298903,-32.440671],[-71.298622,-32.440481],[-71.298448,-32.440411],[-71.298188,-32.440403],[-71.297856,-32.440368],[-71.297665,-32.440266],[-71.297472,-32.440105],[-71.297184,-32.439941],[-71.296993,-32.439915],[-71.296643,-32.439938],[-71.296498,-32.439953],[-71.296238,-32.440024],[-71.296133,-32.440009],[-71.295905,-32.439985],[-71.295665,-32.439977],[-71.295446,-32.440015],[-71.29527,-32.44004],[-71.295207,-32.440057],[-71.294881,-32.440185],[-71.294551,-32.440167],[-71.294048,-32.440108],[-71.293894,-32.440082],[-71.293617,-32.440021],[-71.29324,-32.439955],[-71.293125,-32.439935],[-71.293055,-32.439931],[-71.292522,-32.439943],[-71.292409,-32.439958],[-71.291745,-32.440055],[-71.29159,-32.440077],[-71.291303,-32.440167],[-71.291132,-32.440217],[-71.291068,-32.440234],[-71.291039,-32.440245],[-71.291015,-32.440263],[-71.290925,-32.440334],[-71.290898,-32.440353],[-71.290851,-32.440389],[-71.2908,-32.44043],[-71.290776,-32.440459],[-71.290728,-32.44054],[-71.290663,-32.44062],[-71.290612,-32.440677],[-71.290527,-32.440744],[-71.29043,-32.440799],[-71.290375,-32.440896],[-71.290247,-32.441121],[-71.290074,-32.441763],[-71.289885,-32.442009],[-71.289828,-32.442046],[-71.289715,-32.44211],[-71.289481,-32.44221],[-71.289201,-32.442332],[-71.28903,-32.442387],[-71.288763,-32.442466],[-71.28823,-32.442593],[-71.287841,-32.442676],[-71.287458,-32.442755],[-71.28729,-32.442755],[-71.286825,-32.442755],[-71.286244,-32.442673],[-71.285892,-32.442646],[-71.285863,-32.442643],[-71.285424,-32.442584],[-71.285099,-32.442457],[-71.284664,-32.442222],[-71.284212,-32.44186],[-71.283806,-32.441705],[-71.283692,-32.441658],[-71.283692,-32.441592],[-71.283782,-32.44149],[-71.283926,-32.441406],[-71.28422,-32.441274],[-71.284534,-32.441202],[-71.284821,-32.441144],[-71.2855,-32.441129]]]},"properties":{"comuna":"Papudo","mancha_id":"05403-88b2e26497fffff","clase":"Medio","nivel_medio":2.075,"nivel_medio_min":1.995,"nivel_medio_max":2.282,"pct_alto":11.1,"n_hexagonos":4,"area_ha":47.79}},{"type":"Feature","geometry":{"type":"Polygon","coordinates":[[[-71.353717,-32.408832],[-71.348669,-32.410237],[-71.348369,-32.410039],[-71.348525,-32.409908],[-71.34931,-32.409472],[-71.353277,-32.408033],[-71.353862,-32.407822],[-71.353717,-32.408832]]]},"properties":{"comuna":"Papudo","mancha_id":"05403-88b2e26435fffff","clase":"Medio","nivel_medio":2.265,"nivel_medio_min":2.265,"nivel_medio_max":2.265,"pct_alto":65.8,"n_hexagonos":1,"area_ha":4.03}},{"type":"Feature","geometry":{"type":"Polygon","coordinates":[[[-71.368863,-32.404616],[-71.363815,-32.406021],[-71.362141,-32.404916],[-71.362693,-32.40472],[-71.36483,-32.403979],[-71.368099,-32.402845],[-71.369102,-32.402453],[-71.369171,-32.402466],[-71.368863,-32.404616]]]},"properties":{"comuna":"Papudo","mancha_id":"05403-88b2e26427fffff","clase":"Medio","nivel_medio":2.387,"nivel_medio_min":2.387,"nivel_medio_max":2.387,"pct_alto":65.3,"n_hexagonos":1,"area_ha":11.64}},{"type":"Feature","geometry":{"type":"Polygon","coordinates":[[[-71.439316,-32.522173],[-71.439936,-32.517848],[-71.444989,-32.516442],[-71.449423,-32.519364],[-71.454476,-32.517958],[-71.458344,-32.520506],[-71.458258,-32.520752],[-71.458112,-32.521074],[-71.457936,-32.52125],[-71.457643,-32.521704],[-71.457424,-32.521997],[-71.457248,-32.522261],[-71.457175,-32.522539],[-71.45716,-32.522817],[-71.457131,-32.52333],[-71.457057,-32.523901],[-71.457014,-32.524267],[-71.456896,-32.524589],[-71.456721,-32.524823],[-71.456545,-32.525028],[-71.456325,-32.525248],[-71.455959,-32.525717],[-71.45579,-32.5259],[-71.453237,-32.52661],[-71.448803,-32.52369],[-71.44375,-32.525095],[-71.439316,-32.522173]]]},"properties":{"comuna":"Papudo","mancha_id":"05403-88b2c4996dfffff","clase":"Medio","nivel_medio":2.41,"nivel_medio_min":2.406,"nivel_medio_max":2.414,"pct_alto":40.9,"n_hexagonos":2,"area_ha":124.25}},{"type":"Feature","geometry":{"type":"Polygon","coordinates":[[[-71.353876,-32.516941],[-71.353769,-32.516859],[-71.353104,-32.516352],[-71.35215,-32.515758],[-71.351783,-32.515337],[-71.351642,-32.515015],[-71.351512,-32.514658],[-71.351267,-32.514562],[-71.350973,-32.514513],[-71.350411,-32.514331],[-71.349745,-32.514087],[-71.348968,-32.514012],[-71.34835,-32.513849],[-71.348174,-32.513803],[-71.347505,-32.513343],[-71.346711,-32.512842],[-71.345918,-32.512508],[-71.344873,-32.511964],[-71.34387,-32.511338],[-71.342659,-32.510711],[-71.342115,-32.510586],[-71.341321,-32.510711],[-71.340402,-32.510878],[-71.339943,-32.511003],[-71.339274,-32.511003],[-71.339064,-32.510982],[-71.338439,-32.51092],[-71.337436,-32.510669],[-71.337101,-32.51021],[-71.336684,-32.509583],[-71.33614,-32.509165],[-71.33589,-32.508705],[-71.335221,-32.508162],[-71.334553,-32.507912],[-71.333759,-32.507912],[-71.333174,-32.508162],[-71.33192,-32.508162],[-71.330834,-32.508037],[-71.32981,-32.507895],[-71.32933,-32.507828],[-71.327868,-32.507494],[-71.327115,-32.507285],[-71.326113,-32.507368],[-71.325319,-32.507243],[-71.324692,-32.506909],[-71.324107,-32.506658],[-71.323271,-32.506574],[-71.322478,-32.506157],[-71.3216,-32.505405],[-71.321218,-32.505126],[-71.320514,-32.504611],[-71.319929,-32.504193],[-71.31972,-32.50365],[-71.319636,-32.503148],[-71.319595,-32.502689],[-71.319595,-32.502313],[-71.319618,-32.50168],[-71.319747,-32.501184],[-71.319863,-32.500702],[-71.319835,-32.500199],[-71.319624,-32.5],[-71.319604,-32.499981],[-71.31921,-32.4999],[-71.318803,-32.499913],[-71.317933,-32.499818],[-71.316461,-32.499722],[-71.31644,-32.499719],[-71.315249,-32.499555],[-71.314455,-32.499263],[-71.313992,-32.49918],[-71.313544,-32.499098],[-71.31315,-32.498908],[-71.312932,-32.498799],[-71.312674,-32.498718],[-71.312334,-32.498663],[-71.311907,-32.498719],[-71.310528,-32.498928],[-71.309441,-32.499179],[-71.308439,-32.49943],[-71.307561,-32.499513],[-71.306774,-32.499513],[-71.307199,-32.496555],[-71.302771,-32.49363],[-71.303393,-32.489305],[-71.300063,-32.487105],[-71.300139,-32.487017],[-71.300547,-32.486641],[-71.300564,-32.486625],[-71.300719,-32.486481],[-71.300878,-32.486319],[-71.301067,-32.486126],[-71.301178,-32.486054],[-71.301328,-32.485956],[-71.301602,-32.485714],[-71.301646,-32.485675],[-71.302012,-32.485351],[-71.302848,-32.484637],[-71.302865,-32.484622],[-71.303094,-32.484426],[-71.303673,-32.483867],[-71.303878,-32.483475],[-71.303898,-32.483193],[-71.303899,-32.483177],[-71.303907,-32.483059],[-71.303803,-32.482674],[-71.303645,-32.48215],[-71.303558,-32.481861],[-71.303599,-32.481518],[-71.303618,-32.481359],[-71.303714,-32.48091],[-71.303717,-32.480893],[-71.303792,-32.480681],[-71.303792,-32.480681],[-71.303857,-32.480497],[-71.303998,-32.480152],[-71.304363,-32.47901],[-71.304711,-32.478164],[-71.304994,-32.477695],[-71.305078,-32.477579],[-71.305097,-32.477552],[-71.305249,-32.477342],[-71.305356,-32.477194],[-71.305534,-32.476962],[-71.305648,-32.476814],[-71.305656,-32.476804],[-71.305728,-32.476737],[-71.305787,-32.476683],[-71.306007,-32.47648],[-71.306325,-32.476138],[-71.306337,-32.476126],[-71.306507,-32.475981],[-71.310306,-32.474928],[-71.310645,-32.472565],[-71.310732,-32.472516],[-71.31089,-32.472409],[-71.311001,-32.472334],[-71.311057,-32.472296],[-71.311133,-32.472232],[-71.311354,-32.472047],[-71.311548,-32.471849],[-71.311668,-32.471727],[-71.311684,-32.471711],[-71.311888,-32.471543],[-71.312044,-32.47143],[-71.312065,-32.47142],[-71.312143,-32.471385],[-71.312285,-32.471366],[-71.312359,-32.471357],[-71.312703,-32.47132],[-71.312844,-32.471304],[-71.31297,-32.47129],[-71.31322,-32.471262],[-71.313809,-32.471184],[-71.314034,-32.471059],[-71.314242,-32.470944],[-71.314376,-32.47086],[-71.314433,-32.470824],[-71.314604,-32.470717],[-71.315065,-32.470452],[-71.315497,-32.470152],[-71.315589,-32.470088],[-71.315737,-32.469982],[-71.315834,-32.469923],[-71.316158,-32.469724],[-71.316205,-32.469696],[-71.316241,-32.469674],[-71.316442,-32.469509],[-71.316805,-32.469211],[-71.317429,-32.468694],[-71.317785,-32.4684],[-71.31853,-32.467663],[-71.318628,-32.467566],[-71.318909,-32.467292],[-71.319101,-32.467197],[-71.319351,-32.467086],[-71.319526,-32.467009],[-71.319781,-32.466895],[-71.319977,-32.466809],[-71.320406,-32.466697],[-71.320365,-32.46639],[-71.320335,-32.466173],[-71.320325,-32.465758],[-71.320251,-32.465418],[-71.320213,-32.465157],[-71.320164,-32.464821],[-71.320114,-32.464447],[-71.320092,-32.464279],[-71.320042,-32.463917],[-71.320027,-32.463807],[-71.319924,-32.463055],[-71.319898,-32.462856],[-71.319861,-32.46258],[-71.31985,-32.462462],[-71.319837,-32.462328],[-71.319813,-32.462076],[-71.319812,-32.462062],[-71.319809,-32.461927],[-71.319828,-32.461855],[-71.319844,-32.461796],[-71.319848,-32.46178],[-71.319952,-32.461625],[-71.320339,-32.46099],[-71.321086,-32.459773],[-71.321682,-32.458758],[-71.321962,-32.458281],[-71.32259,-32.457212],[-71.322667,-32.457081],[-71.32308,-32.456385],[-71.323611,-32.455489],[-71.323817,-32.455123],[-71.324114,-32.454595],[-71.324212,-32.454383],[-71.324216,-32.454373],[-71.324233,-32.454184],[-71.324255,-32.453939],[-71.324242,-32.453566],[-71.324241,-32.453536],[-71.324234,-32.45331],[-71.324228,-32.453146],[-71.324238,-32.452975],[-71.32425,-32.452745],[-71.324258,-32.45262],[-71.324258,-32.45262],[-71.324258,-32.452542],[-71.324258,-32.452509],[-71.324258,-32.452452],[-71.32426,-32.452144],[-71.324241,-32.451949],[-71.32423,-32.451839],[-71.324214,-32.451793],[-71.324191,-32.45173],[-71.323909,-32.451193],[-71.323554,-32.450519],[-71.323515,-32.450444],[-71.32413,-32.44616],[-71.329178,-32.444758],[-71.329799,-32.440429],[-71.325372,-32.437503],[-71.320324,-32.438906],[-71.319807,-32.442504],[-71.319729,-32.442564],[-71.319159,-32.442969],[-71.318868,-32.443197],[-71.318653,-32.443387],[-71.318488,-32.443552],[-71.318471,-32.443576],[-71.314655,-32.444636],[-71.310228,-32.44171],[-71.310849,-32.437381],[-71.315897,-32.435979],[-71.316518,-32.43165],[-71.312092,-32.428723],[-71.307044,-32.430126],[-71.306423,-32.434455],[-71.304681,-32.434938],[-71.304943,-32.434394],[-71.30513,-32.434068],[-71.305455,-32.433151],[-71.305695,-32.432258],[-71.306301,-32.429634],[-71.306313,-32.429579],[-71.306829,-32.42896],[-71.30755,-32.427998],[-71.309886,-32.424907],[-71.311044,-32.42329],[-71.313699,-32.419583],[-71.315764,-32.41693],[-71.317683,-32.414464],[-71.318336,-32.413606],[-71.318748,-32.412712],[-71.319435,-32.411029],[-71.319916,-32.410377],[-71.320007,-32.410254],[-71.320775,-32.409209],[-71.321325,-32.408178],[-71.321565,-32.407285],[-71.322286,-32.406151],[-71.323076,-32.405258],[-71.32423,-32.404561],[-71.324725,-32.404262],[-71.325419,-32.403383],[-71.325612,-32.403138],[-71.325702,-32.402952],[-71.329184,-32.405165],[-71.33149,-32.4067],[-71.332238,-32.407199],[-71.336259,-32.409769],[-71.338805,-32.411427],[-71.338573,-32.413046],[-71.343,-32.415973],[-71.348048,-32.414568],[-71.352476,-32.417494],[-71.357525,-32.41609],[-71.361953,-32.419015],[-71.367002,-32.41761],[-71.37143,-32.420536],[-71.37081,-32.424867],[-71.365761,-32.426272],[-71.36514,-32.430602],[-71.360091,-32.432007],[-71.359471,-32.436337],[-71.354421,-32.437741],[-71.349993,-32.434815],[-71.344945,-32.436219],[-71.344324,-32.440549],[-71.339275,-32.441952],[-71.338654,-32.446281],[-71.343082,-32.449206],[-71.348131,-32.447803],[-71.352559,-32.450728],[-71.357609,-32.449325],[-71.358229,-32.444996],[-71.363279,-32.443592],[-71.363899,-32.439262],[-71.368948,-32.437858],[-71.369569,-32.433528],[-71.374618,-32.432123],[-71.379048,-32.435048],[-71.384097,-32.433642],[-71.388527,-32.436567],[-71.393577,-32.435161],[-71.394197,-32.430831],[-71.399247,-32.429424],[-71.399867,-32.425093],[-71.404917,-32.423686],[-71.409348,-32.426611],[-71.414398,-32.425204],[-71.418829,-32.428128],[-71.42388,-32.426721],[-71.424499,-32.422389],[-71.420069,-32.419465],[-71.420688,-32.415132],[-71.425739,-32.413724],[-71.42661,-32.414299],[-71.42664,-32.41439],[-71.42677,-32.41444],[-71.426831,-32.414445],[-71.427113,-32.414631],[-71.42706,-32.4147],[-71.42706,-32.41479],[-71.42713,-32.41488],[-71.42723,-32.41494],[-71.42731,-32.41501],[-71.42733,-32.41515],[-71.42724,-32.41529],[-71.42719,-32.41541],[-71.4272,-32.41548],[-71.42728,-32.41557],[-71.42732,-32.41568],[-71.42731,-32.41576],[-71.42727,-32.41582],[-71.42726,-32.41588],[-71.42727,-32.41597],[-71.42737,-32.41606],[-71.42742,-32.41613],[-71.42747,-32.41625],[-71.42748,-32.41672],[-71.42754,-32.41686],[-71.42765,-32.41693],[-71.42782,-32.41695],[-71.42818,-32.41685],[-71.42824,-32.41688],[-71.42824,-32.41696],[-71.42819,-32.41706],[-71.42819,-32.41723],[-71.42827,-32.41735],[-71.42834,-32.41748],[-71.42833,-32.417575],[-71.42826,-32.41764],[-71.42813,-32.4177],[-71.42798,-32.41776],[-71.4279,-32.41784],[-71.42787,-32.41801],[-71.42786,-32.41815],[-71.42782,-32.41824],[-71.42769,-32.41838],[-71.42762,-32.4186],[-71.42763,-32.41874],[-71.42742,-32.41901],[-71.42741,-32.41919],[-71.42747,-32.41934],[-71.42762,-32.41944],[-71.42773,-32.41951],[-71.42777,-32.41957],[-71.42777,-32.41964],[-71.42766,-32.41979],[-71.42747,-32.41994],[-71.42727,-32.42006],[-71.42714,-32.42024],[-71.42703,-32.42045],[-71.42673,-32.42071],[-71.4259,-32.42127],[-71.4257,-32.42143],[-71.42566,-32.42157],[-71.42568,-32.42166],[-71.42585,-32.42183],[-71.42586,-32.422],[-71.425853,-32.422012],[-71.42572,-32.42222],[-71.42555,-32.42244],[-71.42548,-32.42264],[-71.42548,-32.42271],[-71.42548,-32.4228],[-71.42566,-32.42298],[-71.42582,-32.42314],[-71.42591,-32.42338],[-71.42605,-32.42359],[-71.42621,-32.42369],[-71.42639,-32.42373],[-71.42663,-32.42373],[-71.42683,-32.42385],[-71.42694,-32.42387],[-71.42703,-32.42379],[-71.42716,-32.42361],[-71.42728,-32.4235],[-71.42744,-32.42352],[-71.42759,-32.42358],[-71.42782,-32.4236],[-71.42817,-32.42355],[-71.42838,-32.42359],[-71.42848,-32.42373],[-71.4285,-32.42392],[-71.42846,-32.42408],[-71.42852,-32.42424],[-71.42861,-32.42437],[-71.42861,-32.42454],[-71.42866,-32.42466],[-71.42882,-32.42476],[-71.42892,-32.42486],[-71.42894,-32.42497],[-71.42883,-32.42513],[-71.4287,-32.42535],[-71.42863,-32.42553],[-71.4284,-32.42564],[-71.42812,-32.42572],[-71.42796,-32.42576],[-71.42795,-32.42585],[-71.42801,-32.4259],[-71.42812,-32.42591],[-71.42822,-32.42592],[-71.42835,-32.42597],[-71.42842,-32.42616],[-71.42851,-32.42633],[-71.42866,-32.4264],[-71.42876,-32.42647],[-71.42885,-32.42658],[-71.42886,-32.4267],[-71.42892,-32.4268],[-71.429,-32.42685],[-71.42928,-32.42694],[-71.42945,-32.42703],[-71.42951,-32.42717],[-71.42951,-32.42745],[-71.42955,-32.42775],[-71.42967,-32.42798],[-71.42965,-32.42815],[-71.42947,-32.42832],[-71.42931,-32.42845],[-71.42923,-32.42856],[-71.42922,-32.42874],[-71.42927,-32.42887],[-71.42927,-32.42903],[-71.4293,-32.42917],[-71.4294,-32.42933],[-71.4294,-32.429341],[-71.428311,-32.429645],[-71.427691,-32.433976],[-71.428312,-32.434386],[-71.42837,-32.43456],[-71.42838,-32.4348],[-71.42834,-32.43499],[-71.42841,-32.43515],[-71.42845,-32.43525],[-71.42848,-32.43539],[-71.4285,-32.43551],[-71.42868,-32.43581],[-71.42874,-32.43603],[-71.42873,-32.43622],[-71.42856,-32.43638],[-71.42838,-32.43645],[-71.42812,-32.43643],[-71.42794,-32.43642],[-71.42787,-32.43655],[-71.42785,-32.43665],[-71.42775,-32.43674],[-71.42762,-32.43681],[-71.42751,-32.43688],[-71.42747,-32.43696],[-71.42745,-32.43702],[-71.42745,-32.4371],[-71.42747,-32.43729],[-71.42748,-32.43752],[-71.4275,-32.43758],[-71.42756,-32.43764],[-71.42765,-32.4377],[-71.42785,-32.43782],[-71.42791,-32.43798],[-71.4278,-32.43817],[-71.42778,-32.43831],[-71.42791,-32.4385],[-71.42803,-32.43855],[-71.42825,-32.43856],[-71.4284,-32.43862],[-71.42842,-32.43874],[-71.42838,-32.43887],[-71.42824,-32.43897],[-71.42803,-32.43906],[-71.42782,-32.43923],[-71.42765,-32.43947],[-71.42755,-32.43962],[-71.42733,-32.43965],[-71.42713,-32.4397],[-71.42711,-32.43977],[-71.42714,-32.43991],[-71.42745,-32.44026],[-71.42747,-32.44045],[-71.42738,-32.44063],[-71.42714,-32.44083],[-71.42698,-32.44108],[-71.42696,-32.44138],[-71.42689,-32.44163],[-71.42688,-32.44191],[-71.42694,-32.44212],[-71.42691,-32.44232],[-71.42678,-32.44251],[-71.426764,-32.442551],[-71.426452,-32.442638],[-71.42202,-32.439714],[-71.42264,-32.435383],[-71.418209,-32.432459],[-71.413158,-32.433866],[-71.408728,-32.430942],[-71.403677,-32.432349],[-71.403057,-32.43668],[-71.407488,-32.439604],[-71.406868,-32.443934],[-71.411298,-32.446858],[-71.410678,-32.451188],[-71.415109,-32.454112],[-71.420161,-32.452705],[-71.420781,-32.448375],[-71.425832,-32.446969],[-71.430263,-32.449892],[-71.434169,-32.448804],[-71.4342,-32.44881],[-71.43447,-32.44881],[-71.43465,-32.44885],[-71.4348,-32.44892],[-71.43487,-32.44899],[-71.43487,-32.44912],[-71.43474,-32.44924],[-71.43471,-32.44935],[-71.43474,-32.44952],[-71.43483,-32.4496],[-71.43505,-32.44959],[-71.43532,-32.44963],[-71.4355,-32.44974],[-71.43557,-32.44994],[-71.43553,-32.45022],[-71.43563,-32.45042],[-71.43572,-32.45054],[-71.43579,-32.45068],[-71.4358,-32.45075],[-71.43577,-32.45085],[-71.4357,-32.45099],[-71.43569,-32.45113],[-71.43565,-32.4512],[-71.43556,-32.45126],[-71.43542,-32.45132],[-71.4353,-32.45134],[-71.4352,-32.45134],[-71.435,-32.45123],[-71.43489,-32.451245],[-71.43483,-32.45135],[-71.43483,-32.45141],[-71.43497,-32.45184],[-71.43492,-32.45197],[-71.43481,-32.45209],[-71.4348,-32.45224],[-71.43489,-32.45241],[-71.43494,-32.45258],[-71.43485,-32.45275],[-71.43488,-32.45285],[-71.43494,-32.45295],[-71.43498,-32.45306],[-71.43498,-32.45318],[-71.43493,-32.45329],[-71.43488,-32.45335],[-71.43482,-32.45346],[-71.43484,-32.45363],[-71.43484,-32.45385],[-71.43479,-32.45392],[-71.43464,-32.45404],[-71.43416,-32.45428],[-71.43377,-32.45437],[-71.43349,-32.45457],[-71.4333,-32.45481],[-71.43324,-32.45504],[-71.43326,-32.45528],[-71.43341,-32.45543],[-71.4336,-32.45554],[-71.43384,-32.4556],[-71.43405,-32.45572],[-71.43407,-32.45585],[-71.43384,-32.45601],[-71.43358,-32.45621],[-71.43339,-32.45639],[-71.43333,-32.45655],[-71.4334,-32.45668],[-71.43341,-32.456706],[-71.429644,-32.454222],[-71.424592,-32.455629],[-71.423972,-32.459958],[-71.428404,-32.462881],[-71.427784,-32.467211],[-71.432216,-32.470133],[-71.431596,-32.474462],[-71.426544,-32.475868],[-71.425924,-32.480197],[-71.430357,-32.483119],[-71.43101,-32.482937],[-71.43107,-32.48302],[-71.43112,-32.48317],[-71.43108,-32.48336],[-71.43105,-32.48358],[-71.43076,-32.48404],[-71.4305,-32.48445],[-71.43036,-32.4847],[-71.43036,-32.48499],[-71.43042,-32.4853],[-71.43052,-32.48551],[-71.4307,-32.4858],[-71.43087,-32.48601],[-71.43096,-32.48633],[-71.43098,-32.48652],[-71.43099,-32.48664],[-71.43118,-32.48687],[-71.43164,-32.48712],[-71.43182,-32.48722],[-71.43243,-32.48744],[-71.4328,-32.48753],[-71.43311,-32.48756],[-71.43332,-32.48757],[-71.43375,-32.48764],[-71.43391,-32.4877],[-71.43399,-32.48785],[-71.43396,-32.48799],[-71.43394,-32.48829],[-71.43396,-32.4888],[-71.43381,-32.48914],[-71.433238,-32.489756],[-71.429737,-32.487447],[-71.424685,-32.488853],[-71.424065,-32.49318],[-71.419013,-32.494585],[-71.418393,-32.498912],[-71.422825,-32.501834],[-71.427877,-32.50043],[-71.428497,-32.496102],[-71.433549,-32.494697],[-71.434666,-32.495433],[-71.4352,-32.4964],[-71.43573,-32.49702],[-71.43662,-32.49808],[-71.43753,-32.49911],[-71.437744,-32.499279],[-71.437362,-32.501946],[-71.43231,-32.503351],[-71.43169,-32.507678],[-71.426637,-32.509083],[-71.422205,-32.506161],[-71.417152,-32.507565],[-71.416532,-32.511892],[-71.420965,-32.514814],[-71.420345,-32.519139],[-71.424777,-32.522061],[-71.42983,-32.520657],[-71.434263,-32.523578],[-71.433643,-32.527904],[-71.42859,-32.529308],[-71.42797,-32.533633],[-71.422917,-32.535036],[-71.418484,-32.532115],[-71.413432,-32.533518],[-71.412812,-32.537843],[-71.407759,-32.539245],[-71.407139,-32.543569],[-71.402086,-32.544972],[-71.397654,-32.54205],[-71.392602,-32.543452],[-71.38817,-32.54053],[-71.383118,-32.541932],[-71.378687,-32.53901],[-71.379307,-32.534686],[-71.384359,-32.533284],[-71.38498,-32.52896],[-71.380549,-32.526038],[-71.381169,-32.521713],[-71.386221,-32.520311],[-71.386841,-32.515986],[-71.38241,-32.513063],[-71.383031,-32.508738],[-71.3786,-32.505815],[-71.373549,-32.507217],[-71.372929,-32.511543],[-71.377359,-32.514466],[-71.376739,-32.51879],[-71.371687,-32.520192],[-71.367257,-32.517269],[-71.362206,-32.518671],[-71.361931,-32.520584],[-71.361461,-32.520363],[-71.360792,-32.520028],[-71.360458,-32.519569],[-71.359748,-32.519026],[-71.358996,-32.518483],[-71.358619,-32.518399],[-71.357784,-32.517856],[-71.357282,-32.517354],[-71.356489,-32.516978],[-71.355653,-32.516978],[-71.354859,-32.517229],[-71.354474,-32.517212],[-71.353876,-32.516941]],[[-71.360175,-32.465235],[-71.359555,-32.469563],[-71.363984,-32.472487],[-71.369034,-32.471084],[-71.369654,-32.466756],[-71.365225,-32.463831],[-71.360175,-32.465235]],[[-71.386133,-32.487106],[-71.390564,-32.49003],[-71.395615,-32.488626],[-71.396235,-32.484299],[-71.391805,-32.481375],[-71.392425,-32.477048],[-71.387994,-32.474124],[-71.382944,-32.475528],[-71.378514,-32.472604],[-71.373463,-32.474008],[-71.372843,-32.478335],[-71.367793,-32.479739],[-71.367172,-32.484065],[-71.371602,-32.486989],[-71.376652,-32.485586],[-71.381082,-32.48851],[-71.386133,-32.487106]],[[-71.331041,-32.431771],[-71.335468,-32.434697],[-71.340517,-32.433293],[-71.341138,-32.428964],[-71.33671,-32.426038],[-71.331662,-32.427441],[-71.331041,-32.431771]]]},"properties":{"comuna":"Papudo","mancha_id":"05403-88b2c4980dfffff","clase":"Medio","nivel_medio":2.125,"nivel_medio_min":1.658,"nivel_medio_max":2.479,"pct_alto":18.4,"n_hexagonos":180,"area_ha":10900.36}},{"type":"Feature","geometry":{"type":"Polygon","coordinates":[[[-71.427784,-32.467211],[-71.428404,-32.462881],[-71.423972,-32.459958],[-71.424592,-32.455629],[-71.429644,-32.454222],[-71.43341,-32.456706],[-71.43351,-32.45697],[-71.43347,-32.45716],[-71.43331,-32.45727],[-71.43308,-32.45735],[-71.43286,-32.45742],[-71.43282,-32.45752],[-71.43294,-32.45761],[-71.43316,-32.45765],[-71.43351,-32.45773],[-71.43357,-32.4578],[-71.4336,-32.45791],[-71.43358,-32.45799],[-71.43353,-32.45808],[-71.43342,-32.45811],[-71.43326,-32.45814],[-71.43314,-32.45815],[-71.43303,-32.458265],[-71.43291,-32.45843],[-71.43273,-32.45844],[-71.43259,-32.45842],[-71.43239,-32.45833],[-71.43231,-32.45831],[-71.43217,-32.45834],[-71.43196,-32.45848],[-71.43185,-32.45869],[-71.43169,-32.45912],[-71.4315,-32.45935],[-71.4312,-32.45968],[-71.43118,-32.46],[-71.43113,-32.46036],[-71.43109,-32.4607],[-71.43111,-32.46096],[-71.43128,-32.46121],[-71.43133,-32.46137],[-71.43122,-32.46151],[-71.43121,-32.46164],[-71.4313,-32.46175],[-71.43148,-32.46186],[-71.4315,-32.462],[-71.431501,-32.462019],[-71.43151,-32.46225],[-71.43152,-32.46237],[-71.43159,-32.46252],[-71.43162,-32.46258],[-71.43172,-32.46277],[-71.43172,-32.46291],[-71.43163,-32.46308],[-71.43149,-32.46333],[-71.431515,-32.463675],[-71.43143,-32.46388],[-71.43122,-32.46407],[-71.43109,-32.46421],[-71.43108,-32.46437],[-71.43116,-32.46464],[-71.43132,-32.46488],[-71.43135,-32.46511],[-71.43142,-32.46538],[-71.43159,-32.46551],[-71.43177,-32.4657],[-71.43174,-32.46586],[-71.43171,-32.46594],[-71.43168,-32.46602],[-71.43168,-32.46619],[-71.43178,-32.46644],[-71.43173,-32.46658],[-71.43152,-32.46665],[-71.43124,-32.46674],[-71.43107,-32.46686],[-71.431,-32.46696],[-71.43101,-32.4671],[-71.43102,-32.46718],[-71.43109,-32.46723],[-71.43118,-32.46726],[-71.43138,-32.46733],[-71.43146,-32.46744],[-71.4316,-32.4677],[-71.4316,-32.46785],[-71.43143,-32.46812],[-71.43119,-32.46848],[-71.43111,-32.46876],[-71.43116,-32.46895],[-71.43131,-32.46913],[-71.43156,-32.46929],[-71.43177,-32.46942],[-71.43197,-32.4696],[-71.43219,-32.46976],[-71.43243,-32.46987],[-71.432549,-32.470041],[-71.432216,-32.470133],[-71.427784,-32.467211]]]},"properties":{"comuna":"Papudo","mancha_id":"05403-88b2e26eb1fffff","clase":"Alto","nivel_medio":2.676,"nivel_medio_min":2.515,"nivel_medio_max":2.735,"pct_alto":82.9,"n_hexagonos":2,"area_ha":77.86}},{"type":"Feature","geometry":{"type":"Polygon","coordinates":[[[-71.430263,-32.449892],[-71.425832,-32.446969],[-71.420781,-32.448375],[-71.420161,-32.452705],[-71.415109,-32.454112],[-71.410678,-32.451188],[-71.411298,-32.446858],[-71.406868,-32.443934],[-71.407488,-32.439604],[-71.403057,-32.43668],[-71.403677,-32.432349],[-71.408728,-32.430942],[-71.413158,-32.433866],[-71.418209,-32.432459],[-71.42264,-32.435383],[-71.42202,-32.439714],[-71.426452,-32.442638],[-71.426764,-32.442551],[-71.4267,-32.44272],[-71.42669,-32.44294],[-71.42655,-32.44317],[-71.42648,-32.44339],[-71.42654,-32.44356],[-71.42662,-32.4437],[-71.42669,-32.44387],[-71.42669,-32.44399],[-71.42661,-32.44413],[-71.4265,-32.44427],[-71.42648,-32.44437],[-71.42649,-32.44457],[-71.42657,-32.44465],[-71.42664,-32.44479],[-71.42673,-32.44488],[-71.42677,-32.44496],[-71.42721,-32.44586],[-71.42747,-32.44647],[-71.42768,-32.44665],[-71.42784,-32.44685],[-71.428,-32.44703],[-71.42835,-32.44721],[-71.42863,-32.44741],[-71.42882,-32.44758],[-71.42906,-32.44768],[-71.42957,-32.4477],[-71.42984,-32.44775],[-71.43003,-32.4478],[-71.43027,-32.44774],[-71.43061,-32.4475],[-71.43086,-32.44737],[-71.43115,-32.4473],[-71.43137,-32.44731],[-71.43161,-32.44738],[-71.43186,-32.44741],[-71.4321,-32.44736],[-71.43238,-32.44725],[-71.43258,-32.44724],[-71.43274,-32.44727],[-71.43303,-32.44726],[-71.43323,-32.44719],[-71.43347,-32.44715],[-71.43366,-32.44718],[-71.43392,-32.44734],[-71.43406,-32.44744],[-71.4341,-32.44765],[-71.43415,-32.44798],[-71.4342,-32.44818],[-71.43417,-32.44833],[-71.43405,-32.44846],[-71.43394,-32.44859],[-71.43395,-32.44874],[-71.43405,-32.44878],[-71.434169,-32.448804],[-71.430263,-32.449892]]]},"properties":{"comuna":"Papudo","mancha_id":"05403-88b2e26e81fffff","clase":"Alto","nivel_medio":2.672,"nivel_medio_min":2.503,"nivel_medio_max":2.86,"pct_alto":68.4,"n_hexagonos":6,"area_ha":345.48}},{"type":"Feature","geometry":{"type":"Polygon","coordinates":[[[-71.43289,-32.47699],[-71.43278,-32.47702],[-71.43268,-32.47703],[-71.4326,-32.47702],[-71.43252,-32.47701],[-71.43241,-32.47695],[-71.43236,-32.4769],[-71.43232,-32.47683],[-71.43232,-32.4767],[-71.43241,-32.47656],[-71.43249,-32.47649],[-71.43256,-32.47646],[-71.43268,-32.47645],[-71.43275,-32.47646],[-71.4329,-32.47654],[-71.43297,-32.47661],[-71.43304,-32.47677],[-71.43304,-32.47685],[-71.433,-32.47692],[-71.43289,-32.47699]]]},"properties":{"comuna":"Papudo","mancha_id":"05403-88b2e26cd9fffff","clase":"Alto","nivel_medio":2.536,"nivel_medio_min":2.536,"nivel_medio_max":2.536,"pct_alto":65.2,"n_hexagonos":1,"area_ha":0.34}},{"type":"Feature","geometry":{"type":"Polygon","coordinates":[[[-71.425924,-32.480197],[-71.426544,-32.475868],[-71.431596,-32.474462],[-71.431872,-32.474644],[-71.43195,-32.47484],[-71.43199,-32.47514],[-71.43192,-32.47533],[-71.43167,-32.47553],[-71.43141,-32.47566],[-71.43119,-32.47585],[-71.43107,-32.47612],[-71.43108,-32.47632],[-71.43095,-32.47656],[-71.43068,-32.47681],[-71.43051,-32.47705],[-71.43048,-32.47723],[-71.43048,-32.47738],[-71.43053,-32.4775],[-71.4306,-32.47761],[-71.43065,-32.47764],[-71.43085,-32.47768],[-71.43121,-32.47769],[-71.43134,-32.47772],[-71.43145,-32.4778],[-71.43155,-32.4779],[-71.43164,-32.47799],[-71.4318,-32.47807],[-71.43227,-32.47812],[-71.43247,-32.47826],[-71.43266,-32.47842],[-71.4327,-32.47849],[-71.43255,-32.47875],[-71.43254,-32.47885],[-71.43261,-32.47895],[-71.43268,-32.47901],[-71.4326,-32.47921],[-71.43265,-32.47929],[-71.43273,-32.47933],[-71.4328,-32.47942],[-71.43284,-32.47951],[-71.43286,-32.47958],[-71.4328,-32.47963],[-71.43276,-32.47973],[-71.432765,-32.479875],[-71.43269,-32.47995],[-71.43259,-32.47997],[-71.43245,-32.48001],[-71.4323,-32.48011],[-71.43226,-32.48032],[-71.43218,-32.4805],[-71.43199,-32.4806],[-71.43186,-32.4808],[-71.43168,-32.48102],[-71.43124,-32.48132],[-71.43102,-32.4816],[-71.43091,-32.48198],[-71.43083,-32.48232],[-71.43082,-32.48265],[-71.43094,-32.48284],[-71.43101,-32.482937],[-71.430357,-32.483119],[-71.425924,-32.480197]]]},"properties":{"comuna":"Papudo","mancha_id":"05403-88b2e26cd9fffff-2","clase":"Alto","nivel_medio":2.536,"nivel_medio_min":2.536,"nivel_medio_max":2.536,"pct_alto":65.2,"n_hexagonos":1,"area_ha":38.38}},{"type":"Feature","geometry":{"type":"Polygon","coordinates":[[[-71.331041,-32.431771],[-71.331662,-32.427441],[-71.33671,-32.426038],[-71.341138,-32.428964],[-71.340517,-32.433293],[-71.335468,-32.434697],[-71.331041,-32.431771]]]},"properties":{"comuna":"Papudo","mancha_id":"05403-88b2e265d3fffff","clase":"Alto","nivel_medio":2.597,"nivel_medio_min":2.597,"nivel_medio_max":2.597,"pct_alto":46.4,"n_hexagonos":1,"area_ha":65.66}},{"type":"Feature","geometry":{"type":"Polygon","coordinates":[[[-71.343,-32.415973],[-71.338573,-32.413046],[-71.338805,-32.411427],[-71.339269,-32.41173],[-71.340125,-32.412336],[-71.340995,-32.412959],[-71.342901,-32.41479],[-71.343294,-32.414354],[-71.344079,-32.413657],[-71.348369,-32.410039],[-71.348669,-32.410237],[-71.353717,-32.408832],[-71.353862,-32.407822],[-71.359337,-32.405853],[-71.361342,-32.405199],[-71.362141,-32.404916],[-71.363815,-32.406021],[-71.368863,-32.404616],[-71.373292,-32.407542],[-71.378341,-32.406135],[-71.38277,-32.409061],[-71.382149,-32.413393],[-71.3771,-32.414799],[-71.37648,-32.41913],[-71.380909,-32.422056],[-71.385958,-32.42065],[-71.386578,-32.416318],[-71.391628,-32.414912],[-71.396058,-32.417837],[-71.401107,-32.41643],[-71.401728,-32.412098],[-71.406777,-32.410691],[-71.411208,-32.413616],[-71.413257,-32.413044],[-71.41345,-32.41312],[-71.413483,-32.412981],[-71.416258,-32.412208],[-71.416457,-32.410819],[-71.41646,-32.41082],[-71.41692,-32.4112],[-71.41724,-32.41144],[-71.41747,-32.41155],[-71.41764,-32.4116],[-71.41794,-32.41161],[-71.41828,-32.41146],[-71.4185,-32.41132],[-71.41878,-32.41103],[-71.41918,-32.41076],[-71.41951,-32.41059],[-71.4197,-32.41056],[-71.41986,-32.4106],[-71.41993,-32.41071],[-71.41993,-32.4109],[-71.42002,-32.41108],[-71.42012,-32.4111],[-71.42021,-32.41107],[-71.42029,-32.41095],[-71.42032,-32.41068],[-71.42038,-32.41054],[-71.42048,-32.41049],[-71.42076,-32.41048],[-71.42116,-32.41045],[-71.42137,-32.41037],[-71.42158,-32.41014],[-71.42161,-32.4098],[-71.42171,-32.40966],[-71.42184,-32.4096],[-71.42233,-32.40959],[-71.4225,-32.40952],[-71.42267,-32.40948],[-71.4228,-32.40947],[-71.42295,-32.40949],[-71.42308,-32.4095],[-71.42318,-32.40944],[-71.42324,-32.40927],[-71.42337,-32.40908],[-71.4235,-32.40896],[-71.42369,-32.40894],[-71.42388,-32.40899],[-71.42396,-32.4091],[-71.42398,-32.40928],[-71.4241,-32.40949],[-71.42424,-32.40963],[-71.42438,-32.40978],[-71.42443,-32.41006],[-71.42433,-32.41029],[-71.42412,-32.41043],[-71.42403,-32.41059],[-71.42403,-32.41069],[-71.42411,-32.41078],[-71.42441,-32.41081],[-71.42457,-32.41088],[-71.42468,-32.41101],[-71.4247,-32.41128],[-71.42472,-32.4116],[-71.42483,-32.41183],[-71.42493,-32.41196],[-71.4251,-32.41199],[-71.42543,-32.41195],[-71.42557,-32.41192],[-71.42575,-32.41194],[-71.42589,-32.41209],[-71.42591,-32.41222],[-71.42592,-32.41239],[-71.42577,-32.41256],[-71.42562,-32.41277],[-71.42559,-32.41304],[-71.42564,-32.41327],[-71.42574,-32.41334],[-71.425792,-32.413354],[-71.425739,-32.413724],[-71.420688,-32.415132],[-71.420069,-32.419465],[-71.424499,-32.422389],[-71.42388,-32.426721],[-71.418829,-32.428128],[-71.414398,-32.425204],[-71.409348,-32.426611],[-71.404917,-32.423686],[-71.399867,-32.425093],[-71.399247,-32.429424],[-71.394197,-32.430831],[-71.393577,-32.435161],[-71.388527,-32.436567],[-71.384097,-32.433642],[-71.379048,-32.435048],[-71.374618,-32.432123],[-71.369569,-32.433528],[-71.368948,-32.437858],[-71.363899,-32.439262],[-71.363279,-32.443592],[-71.358229,-32.444996],[-71.357609,-32.449325],[-71.352559,-32.450728],[-71.348131,-32.447803],[-71.343082,-32.449206],[-71.338654,-32.446281],[-71.339275,-32.441952],[-71.344324,-32.440549],[-71.344945,-32.436219],[-71.349993,-32.434815],[-71.354421,-32.437741],[-71.359471,-32.436337],[-71.360091,-32.432007],[-71.36514,-32.430602],[-71.365761,-32.426272],[-71.37081,-32.424867],[-71.37143,-32.420536],[-71.367002,-32.41761],[-71.361953,-32.419015],[-71.357525,-32.41609],[-71.352476,-32.417494],[-71.348048,-32.414568],[-71.343,-32.415973]]]},"properties":{"comuna":"Papudo","mancha_id":"05403-88b2e26437fffff","clase":"Alto","nivel_medio":2.89,"nivel_medio_min":2.509,"nivel_medio_max":3.465,"pct_alto":75.7,"n_hexagonos":25,"area_ha":1548.32}},{"type":"Feature","geometry":{"type":"Polygon","coordinates":[[[-71.359555,-32.469563],[-71.360175,-32.465235],[-71.365225,-32.463831],[-71.369654,-32.466756],[-71.369034,-32.471084],[-71.363984,-32.472487],[-71.359555,-32.469563]]]},"properties":{"comuna":"Papudo","mancha_id":"05403-88b2c49b59fffff","clase":"Alto","nivel_medio":2.557,"nivel_medio_min":2.557,"nivel_medio_max":2.557,"pct_alto":51.7,"n_hexagonos":1,"area_ha":65.63}},{"type":"Feature","geometry":{"type":"Polygon","coordinates":[[[-71.418393,-32.498912],[-71.419013,-32.494585],[-71.424065,-32.49318],[-71.424685,-32.488853],[-71.429737,-32.487447],[-71.433238,-32.489756],[-71.43316,-32.48984],[-71.43296,-32.49009],[-71.43289,-32.49035],[-71.4329,-32.49067],[-71.433,-32.4911],[-71.43316,-32.49161],[-71.43358,-32.49221],[-71.43367,-32.49241],[-71.4337,-32.49264],[-71.4337,-32.49302],[-71.433757,-32.493248],[-71.433549,-32.494697],[-71.428497,-32.496102],[-71.427877,-32.50043],[-71.422825,-32.501834],[-71.418393,-32.498912]]]},"properties":{"comuna":"Papudo","mancha_id":"05403-88b2c49b25fffff","clase":"Alto","nivel_medio":2.895,"nivel_medio_min":2.846,"nivel_medio_max":2.946,"pct_alto":85.6,"n_hexagonos":2,"area_ha":128.9}},{"type":"Feature","geometry":{"type":"Polygon","coordinates":[[[-71.390564,-32.49003],[-71.386133,-32.487106],[-71.381082,-32.48851],[-71.376652,-32.485586],[-71.371602,-32.486989],[-71.367172,-32.484065],[-71.367793,-32.479739],[-71.372843,-32.478335],[-71.373463,-32.474008],[-71.378514,-32.472604],[-71.382944,-32.475528],[-71.387994,-32.474124],[-71.392425,-32.477048],[-71.391805,-32.481375],[-71.396235,-32.484299],[-71.395615,-32.488626],[-71.390564,-32.49003]]]},"properties":{"comuna":"Papudo","mancha_id":"05403-88b2c49b01fffff","clase":"Alto","nivel_medio":3.025,"nivel_medio_min":2.565,"nivel_medio_max":3.278,"pct_alto":68.3,"n_hexagonos":5,"area_ha":328.11}},{"type":"Feature","geometry":{"type":"Polygon","coordinates":[[[-71.310645,-32.472565],[-71.310306,-32.474928],[-71.306507,-32.475981],[-71.306668,-32.475845],[-71.306955,-32.475545],[-71.307131,-32.47536],[-71.307261,-32.475175],[-71.30734,-32.475063],[-71.307378,-32.475004],[-71.307437,-32.474915],[-71.307558,-32.474601],[-71.307748,-32.47439],[-71.307893,-32.474262],[-71.307973,-32.474191],[-71.308343,-32.47375],[-71.308486,-32.473589],[-71.308574,-32.47349],[-71.308706,-32.473357],[-71.308729,-32.473334],[-71.3089,-32.473264],[-71.308951,-32.473247],[-71.309011,-32.473228],[-71.309157,-32.47318],[-71.309404,-32.473128],[-71.309537,-32.4731],[-71.309678,-32.473055],[-71.309922,-32.472977],[-71.310084,-32.472884],[-71.310285,-32.472769],[-71.310462,-32.472669],[-71.310645,-32.472565]]]},"properties":{"comuna":"Papudo","mancha_id":"05403-88b2c49a57fffff","clase":"Alto","nivel_medio":2.586,"nivel_medio_min":2.586,"nivel_medio_max":2.586,"pct_alto":58.6,"n_hexagonos":1,"area_ha":6.13}},{"type":"Feature","geometry":{"type":"Polygon","coordinates":[[[-71.314691,-32.446779],[-71.31434,-32.446827],[-71.313944,-32.446881],[-71.313157,-32.446888],[-71.312994,-32.446868],[-71.312833,-32.446801],[-71.312627,-32.446655],[-71.312425,-32.446381],[-71.312195,-32.445844],[-71.31222,-32.44526],[-71.312128,-32.44495],[-71.31194,-32.444835],[-71.311782,-32.444786],[-71.311538,-32.444768],[-71.311234,-32.444798],[-71.31079,-32.444889],[-71.310291,-32.445011],[-71.309968,-32.444974],[-71.309762,-32.444871],[-71.309634,-32.44478],[-71.309476,-32.444682],[-71.309299,-32.444622],[-71.309032,-32.444506],[-71.308819,-32.444372],[-71.308673,-32.444196],[-71.308324,-32.443724],[-71.30821,-32.443637],[-71.307646,-32.443309],[-71.307357,-32.443136],[-71.307225,-32.443069],[-71.306852,-32.442912],[-71.306619,-32.442856],[-71.30635,-32.442787],[-71.306221,-32.442754],[-71.305843,-32.442655],[-71.305588,-32.442551],[-71.305281,-32.442369],[-71.304739,-32.442031],[-71.304167,-32.441681],[-71.303948,-32.441642],[-71.303711,-32.441697],[-71.303498,-32.441834],[-71.303377,-32.441919],[-71.300754,-32.440185],[-71.301374,-32.435866],[-71.301539,-32.435933],[-71.303059,-32.436678],[-71.303679,-32.436767],[-71.303845,-32.436679],[-71.304681,-32.434938],[-71.306423,-32.434455],[-71.307044,-32.430126],[-71.312092,-32.428723],[-71.316518,-32.43165],[-71.315897,-32.435979],[-71.310849,-32.437381],[-71.310228,-32.44171],[-71.314655,-32.444636],[-71.318471,-32.443576],[-71.318248,-32.443906],[-71.318045,-32.444222],[-71.317817,-32.444615],[-71.317539,-32.445184],[-71.317222,-32.445767],[-71.316969,-32.446058],[-71.316792,-32.446197],[-71.316539,-32.446311],[-71.316134,-32.446476],[-71.315513,-32.44664],[-71.314691,-32.446779]]]},"properties":{"comuna":"Papudo","mancha_id":"05403-88b2c49a49fffff","clase":"Alto","nivel_medio":2.715,"nivel_medio_min":2.605,"nivel_medio_max":3.193,"pct_alto":63.2,"n_hexagonos":4,"area_ha":152.75}},{"type":"Feature","geometry":{"type":"Polygon","coordinates":[[[-71.322614,-32.445387],[-71.322444,-32.445046],[-71.322437,-32.445033],[-71.322209,-32.44445],[-71.321728,-32.443741],[-71.32107,-32.442476],[-71.32083,-32.441944],[-71.320728,-32.441843],[-71.320096,-32.442286],[-71.319807,-32.442504],[-71.320324,-32.438906],[-71.325372,-32.437503],[-71.329799,-32.440429],[-71.329178,-32.444758],[-71.32413,-32.44616],[-71.323515,-32.450444],[-71.323495,-32.450406],[-71.323346,-32.450124],[-71.323343,-32.450117],[-71.323264,-32.449906],[-71.323388,-32.448904],[-71.323295,-32.447328],[-71.323425,-32.446349],[-71.322868,-32.445741],[-71.322804,-32.445552],[-71.322614,-32.445387]]]},"properties":{"comuna":"Papudo","mancha_id":"05403-88b2c49a49fffff-2","clase":"Alto","nivel_medio":3.061,"nivel_medio_min":2.893,"nivel_medio_max":3.068,"pct_alto":81.5,"n_hexagonos":2,"area_ha":64.98}},{"type":"Feature","geometry":{"type":"Polygon","coordinates":[[[-71.303393,-32.489305],[-71.302771,-32.49363],[-71.307199,-32.496555],[-71.306774,-32.499513],[-71.306642,-32.499513],[-71.305597,-32.499179],[-71.305054,-32.499012],[-71.303926,-32.498928],[-71.30309,-32.498803],[-71.302297,-32.498594],[-71.300374,-32.498005],[-71.300384,-32.497043],[-71.30022,-32.49626],[-71.300122,-32.495562],[-71.299531,-32.494579],[-71.29951,-32.494534],[-71.299222,-32.49393],[-71.298992,-32.493431],[-71.298703,-32.493151],[-71.298511,-32.493033],[-71.29818,-32.492703],[-71.298012,-32.492554],[-71.297893,-32.492426],[-71.29786,-32.492401],[-71.297752,-32.49232],[-71.297747,-32.492312],[-71.297721,-32.49227],[-71.297689,-32.492219],[-71.297689,-32.492218],[-71.297709,-32.492055],[-71.297714,-32.492048],[-71.297715,-32.492047],[-71.297758,-32.49198],[-71.297823,-32.49188],[-71.297986,-32.491602],[-71.298194,-32.491245],[-71.298332,-32.490838],[-71.298429,-32.490553],[-71.298545,-32.490263],[-71.298548,-32.490256],[-71.298667,-32.489957],[-71.298805,-32.489616],[-71.299018,-32.489093],[-71.299176,-32.488634],[-71.299264,-32.488376],[-71.299333,-32.488175],[-71.299694,-32.487528],[-71.299885,-32.487309],[-71.300063,-32.487105],[-71.303393,-32.489305]]]},"properties":{"comuna":"Papudo","mancha_id":"05403-88b2c49a13fffff","clase":"Alto","nivel_medio":2.681,"nivel_medio_min":2.644,"nivel_medio_max":2.717,"pct_alto":67.8,"n_hexagonos":2,"area_ha":58.17}},{"type":"Feature","geometry":{"type":"Polygon","coordinates":[[[-71.379307,-32.534686],[-71.378687,-32.53901],[-71.383118,-32.541932],[-71.38817,-32.54053],[-71.392602,-32.543452],[-71.397654,-32.54205],[-71.402086,-32.544972],[-71.407139,-32.543569],[-71.407759,-32.539245],[-71.412812,-32.537843],[-71.413432,-32.533518],[-71.418484,-32.532115],[-71.422917,-32.535036],[-71.42797,-32.533633],[-71.42859,-32.529308],[-71.433643,-32.527904],[-71.434263,-32.523578],[-71.42983,-32.520657],[-71.424777,-32.522061],[-71.420345,-32.519139],[-71.420965,-32.514814],[-71.416532,-32.511892],[-71.417152,-32.507565],[-71.422205,-32.506161],[-71.426637,-32.509083],[-71.43169,-32.507678],[-71.436123,-32.5106],[-71.441176,-32.509195],[-71.445609,-32.512116],[-71.450662,-32.510711],[-71.451282,-32.506384],[-71.456335,-32.504978],[-71.460572,-32.507769],[-71.460572,-32.508084],[-71.460499,-32.508407],[-71.46044,-32.508641],[-71.460338,-32.508875],[-71.460323,-32.509212],[-71.460338,-32.509549],[-71.460382,-32.5099],[-71.460411,-32.51034],[-71.460416,-32.510362],[-71.460499,-32.51072],[-71.460499,-32.511087],[-71.460514,-32.511409],[-71.460484,-32.511658],[-71.46044,-32.512068],[-71.460499,-32.512317],[-71.460516,-32.512467],[-71.460528,-32.51258],[-71.460499,-32.512815],[-71.460323,-32.513269],[-71.460104,-32.513649],[-71.459942,-32.513957],[-71.459811,-32.514133],[-71.459445,-32.514616],[-71.459181,-32.514865],[-71.459152,-32.51507],[-71.459137,-32.515377],[-71.459166,-32.515626],[-71.459488,-32.515993],[-71.459679,-32.516183],[-71.459767,-32.516329],[-71.459796,-32.516608],[-71.459781,-32.517032],[-71.459723,-32.51734],[-71.459591,-32.517823],[-71.45943,-32.518248],[-71.459283,-32.518555],[-71.459166,-32.518819],[-71.458961,-32.519083],[-71.4588,-32.519244],[-71.458727,-32.519419],[-71.458551,-32.519903],[-71.458361,-32.520459],[-71.458344,-32.520506],[-71.454476,-32.517958],[-71.449423,-32.519364],[-71.444989,-32.516442],[-71.439936,-32.517848],[-71.439316,-32.522173],[-71.44375,-32.525095],[-71.448803,-32.52369],[-71.453237,-32.52661],[-71.45579,-32.5259],[-71.455622,-32.526083],[-71.455388,-32.526464],[-71.455315,-32.526713],[-71.455359,-32.52702],[-71.455285,-32.527415],[-71.455198,-32.527796],[-71.455036,-32.528162],[-71.454817,-32.52847],[-71.454553,-32.528763],[-71.454363,-32.529158],[-71.454158,-32.529554],[-71.454114,-32.529847],[-71.454099,-32.530227],[-71.454187,-32.53093],[-71.45429,-32.531311],[-71.454407,-32.531633],[-71.45445,-32.532143],[-71.454451,-32.532146],[-71.454451,-32.53257],[-71.454377,-32.533039],[-71.454348,-32.533566],[-71.454334,-32.533918],[-71.454319,-32.534489],[-71.454348,-32.534987],[-71.454348,-32.535382],[-71.454319,-32.535704],[-71.454246,-32.535968],[-71.454055,-32.536261],[-71.45385,-32.536554],[-71.453645,-32.536817],[-71.453513,-32.537008],[-71.453396,-32.53711],[-71.453045,-32.537301],[-71.452781,-32.537359],[-71.45243,-32.537374],[-71.451932,-32.537433],[-71.451463,-32.537506],[-71.451024,-32.537579],[-71.450379,-32.537623],[-71.449896,-32.537652],[-71.449691,-32.537652],[-71.449384,-32.537711],[-71.448974,-32.537872],[-71.448848,-32.53792],[-71.448476,-32.538062],[-71.448051,-32.538253],[-71.447831,-32.53837],[-71.447421,-32.538531],[-71.446967,-32.538677],[-71.446718,-32.538853],[-71.44644,-32.538985],[-71.445854,-32.539263],[-71.445342,-32.53941],[-71.444873,-32.539615],[-71.444522,-32.539732],[-71.444185,-32.53982],[-71.443687,-32.539922],[-71.44313,-32.539937],[-71.44253,-32.539981],[-71.441973,-32.539995],[-71.44162,-32.539953],[-71.441607,-32.539951],[-71.441241,-32.539951],[-71.440904,-32.539966],[-71.440567,-32.539893],[-71.440216,-32.539864],[-71.439908,-32.540069],[-71.439498,-32.540361],[-71.439015,-32.540625],[-71.43881,-32.540947],[-71.438634,-32.54124],[-71.438708,-32.541826],[-71.438708,-32.542192],[-71.438693,-32.542544],[-71.438561,-32.542793],[-71.438268,-32.543115],[-71.438117,-32.543271],[-71.437829,-32.543569],[-71.437726,-32.543906],[-71.437551,-32.544257],[-71.437492,-32.544491],[-71.43736,-32.544652],[-71.437009,-32.544857],[-71.436687,-32.545092],[-71.436247,-32.54537],[-71.435952,-32.545645],[-71.435823,-32.545765],[-71.435486,-32.546146],[-71.435222,-32.546483],[-71.434915,-32.546805],[-71.434622,-32.54701],[-71.434285,-32.547201],[-71.433948,-32.547376],[-71.433582,-32.547596],[-71.433143,-32.547728],[-71.432689,-32.54783],[-71.432352,-32.547918],[-71.43181,-32.548094],[-71.431414,-32.548079],[-71.43096,-32.548079],[-71.430506,-32.548123],[-71.430155,-32.548182],[-71.42976,-32.548372],[-71.429467,-32.548636],[-71.429342,-32.548735],[-71.429101,-32.548929],[-71.428749,-32.549266],[-71.428427,-32.549617],[-71.428061,-32.549881],[-71.427783,-32.550071],[-71.427197,-32.550261],[-71.426377,-32.550466],[-71.425762,-32.550613],[-71.425205,-32.550906],[-71.424707,-32.551257],[-71.424077,-32.551814],[-71.423594,-32.552385],[-71.423228,-32.552766],[-71.422774,-32.553029],[-71.422261,-32.55319],[-71.4218,-32.553231],[-71.421764,-32.553234],[-71.421207,-32.55322],[-71.420929,-32.553132],[-71.420445,-32.553],[-71.420006,-32.552883],[-71.419552,-32.552722],[-71.419165,-32.552686],[-71.418922,-32.552663],[-71.418249,-32.552648],[-71.417311,-32.552605],[-71.41677,-32.552429],[-71.416286,-32.552341],[-71.415701,-32.552385],[-71.4151,-32.552531],[-71.4145,-32.552546],[-71.413797,-32.552517],[-71.413478,-32.55248],[-71.413167,-32.552443],[-71.412816,-32.552356],[-71.412142,-32.552107],[-71.411498,-32.551843],[-71.411029,-32.551697],[-71.410439,-32.551369],[-71.409734,-32.551152],[-71.409725,-32.551149],[-71.408774,-32.550948],[-71.408115,-32.550893],[-71.407016,-32.551021],[-71.406192,-32.551314],[-71.405204,-32.551552],[-71.404982,-32.551613],[-71.404472,-32.551753],[-71.403483,-32.551973],[-71.402128,-32.552394],[-71.401689,-32.552559],[-71.401268,-32.552742],[-71.400554,-32.552925],[-71.399804,-32.55298],[-71.399163,-32.552998],[-71.398266,-32.553016],[-71.397698,-32.553053],[-71.397168,-32.552998],[-71.396618,-32.552925],[-71.396116,-32.552768],[-71.396033,-32.552742],[-71.395374,-32.552504],[-71.394623,-32.552412],[-71.394056,-32.552302],[-71.393671,-32.552229],[-71.393195,-32.552064],[-71.392719,-32.55179],[-71.392426,-32.551698],[-71.392115,-32.55157],[-71.391566,-32.551534],[-71.391035,-32.551552],[-71.390449,-32.551607],[-71.390028,-32.551607],[-71.389607,-32.55179],[-71.389186,-32.552064],[-71.388527,-32.552412],[-71.387795,-32.552559],[-71.387447,-32.552559],[-71.387154,-32.552302],[-71.386806,-32.551845],[-71.386574,-32.551652],[-71.386385,-32.551497],[-71.386074,-32.551149],[-71.385653,-32.550875],[-71.385305,-32.550673],[-71.384976,-32.550673],[-71.384518,-32.55071],[-71.383896,-32.550655],[-71.383383,-32.55038],[-71.382779,-32.550179],[-71.382504,-32.549849],[-71.382029,-32.5493],[-71.381516,-32.548678],[-71.381003,-32.548184],[-71.380509,-32.547854],[-71.38007,-32.547616],[-71.379594,-32.547305],[-71.37938,-32.54712],[-71.379319,-32.547067],[-71.379008,-32.546646],[-71.378697,-32.546042],[-71.378404,-32.545566],[-71.378239,-32.545163],[-71.378001,-32.54487],[-71.377617,-32.544596],[-71.377159,-32.544358],[-71.376866,-32.54412],[-71.376683,-32.543717],[-71.3765,-32.543387],[-71.376079,-32.54304],[-71.375438,-32.542765],[-71.374962,-32.542509],[-71.374523,-32.542307],[-71.373827,-32.542069],[-71.373419,-32.541913],[-71.373205,-32.541831],[-71.372601,-32.54163],[-71.37196,-32.541246],[-71.37121,-32.540495],[-71.370917,-32.540019],[-71.370825,-32.539562],[-71.370825,-32.539415],[-71.370898,-32.538866],[-71.370915,-32.538617],[-71.370917,-32.538591],[-71.370953,-32.538097],[-71.370953,-32.537621],[-71.371008,-32.537072],[-71.371118,-32.536523],[-71.371191,-32.536102],[-71.371173,-32.535699],[-71.371173,-32.535278],[-71.371173,-32.534948],[-71.371283,-32.534564],[-71.371557,-32.534289],[-71.371724,-32.533925],[-71.371874,-32.533476],[-71.371788,-32.533005],[-71.371601,-32.532672],[-71.371596,-32.532663],[-71.371446,-32.532214],[-71.371189,-32.5317],[-71.370804,-32.531358],[-71.370462,-32.531037],[-71.370162,-32.530417],[-71.369713,-32.529625],[-71.369457,-32.529176],[-71.369178,-32.528812],[-71.368879,-32.52862],[-71.368729,-32.52847],[-71.368301,-32.528149],[-71.367873,-32.527572],[-71.367488,-32.527165],[-71.36721,-32.526844],[-71.366975,-32.526331],[-71.366611,-32.525753],[-71.366611,-32.525753],[-71.366376,-32.525283],[-71.366012,-32.524855],[-71.36582,-32.524534],[-71.365734,-32.524085],[-71.365563,-32.523614],[-71.365328,-32.523207],[-71.365199,-32.522737],[-71.365114,-32.522309],[-71.364878,-32.521881],[-71.364385,-32.521282],[-71.363592,-32.521073],[-71.362798,-32.520906],[-71.362171,-32.520697],[-71.361931,-32.520584],[-71.362206,-32.518671],[-71.367257,-32.517269],[-71.371687,-32.520192],[-71.376739,-32.51879],[-71.377359,-32.514466],[-71.372929,-32.511543],[-71.373549,-32.507217],[-71.3786,-32.505815],[-71.383031,-32.508738],[-71.38241,-32.513063],[-71.386841,-32.515986],[-71.386221,-32.520311],[-71.381169,-32.521713],[-71.380549,-32.526038],[-71.38498,-32.52896],[-71.384359,-32.533284],[-71.379307,-32.534686]]]},"properties":{"comuna":"Papudo","mancha_id":"05403-88b2c49821fffff","clase":"Alto","nivel_medio":2.747,"nivel_medio_min":2.508,"nivel_medio_max":3.089,"pct_alto":76.3,"n_hexagonos":42,"area_ha":2032.05}},{"type":"Feature","geometry":{"type":"Polygon","coordinates":[[[-71.373292,-32.407542],[-71.368863,-32.404616],[-71.369171,-32.402466],[-71.371107,-32.402845],[-71.374377,-32.403673],[-71.376208,-32.404197],[-71.377995,-32.404938],[-71.378481,-32.405154],[-71.378341,-32.406135],[-71.373292,-32.407542]]]},"properties":{"comuna":"Papudo","mancha_id":"05403-88b2e2651bfffff","clase":"Muy Alto","nivel_medio":3.665,"nivel_medio_min":3.665,"nivel_medio_max":3.665,"pct_alto":96.5,"n_hexagonos":1,"area_ha":28.72}}],"bbox":[-71.46309,-32.55324,-71.28369,-32.40245]}