{"type":"FeatureCollection","features":[{"type":"Feature","geometry":{"type":"Polygon","coordinates":[[[-71.015515,-32.837479],[-71.019936,-32.840402],[-71.019724,-32.841853],[-71.019642,-32.841859],[-71.019235,-32.841682],[-71.018597,-32.841381],[-71.017854,-32.841044],[-71.017269,-32.840531],[-71.016862,-32.840442],[-71.016455,-32.840424],[-71.015853,-32.840424],[-71.015463,-32.840548],[-71.015091,-32.840442],[-71.014524,-32.840194],[-71.013905,-32.84023],[-71.013303,-32.840106],[-71.012948,-32.839911],[-71.012523,-32.839397],[-71.01224,-32.838937],[-71.012033,-32.838426],[-71.015515,-32.837479]]]},"properties":{"comuna":"Hijuelas","mancha_id":"05503-88b2c4b8d7fffff","clase":"Muy Bajo","nivel_medio":0.498,"nivel_medio_min":0.498,"nivel_medio_max":0.498,"pct_alto":14.7,"n_hexagonos":1,"area_ha":16.64}},{"type":"Feature","geometry":{"type":"Polygon","coordinates":[[[-71.03441,-32.807566],[-71.035036,-32.803266],[-71.040083,-32.80189],[-71.044504,-32.804814],[-71.043878,-32.809113],[-71.038831,-32.810489],[-71.038206,-32.814788],[-71.033159,-32.816164],[-71.028738,-32.81324],[-71.029363,-32.808941],[-71.03441,-32.807566]]]},"properties":{"comuna":"Hijuelas","mancha_id":"05503-88b2c4baa5fffff","clase":"Bajo","nivel_medio":1.289,"nivel_medio_min":1.21,"nivel_medio_max":1.367,"pct_alto":5.6,"n_hexagonos":2,"area_ha":129.85}},{"type":"Feature","geometry":{"type":"Polygon","coordinates":[[[-71.04651,-32.735462],[-71.049734,-32.735501],[-71.054903,-32.735564],[-71.055336,-32.735542],[-71.055707,-32.735542],[-71.05619,-32.735524],[-71.056784,-32.735542],[-71.057192,-32.735542],[-71.057527,-32.735505],[-71.057768,-32.735394],[-71.057972,-32.735227],[-71.058232,-32.735134],[-71.058399,-32.735134],[-71.058678,-32.73519],[-71.059216,-32.735301],[-71.05944,-32.735398],[-71.059643,-32.735487],[-71.060014,-32.735654],[-71.060627,-32.735895],[-71.061296,-32.736229],[-71.061741,-32.736526],[-71.061964,-32.736675],[-71.062298,-32.736786],[-71.062595,-32.736879],[-71.062948,-32.73712],[-71.063505,-32.73751],[-71.063746,-32.73764],[-71.064081,-32.737807],[-71.064378,-32.737863],[-71.064972,-32.738067],[-71.065436,-32.738234],[-71.065863,-32.73829],[-71.066216,-32.73842],[-71.066494,-32.738624],[-71.06681,-32.738921],[-71.066995,-32.738977],[-71.067478,-32.739033],[-71.067979,-32.7392],[-71.068351,-32.739441],[-71.068523,-32.739592],[-71.068648,-32.739701],[-71.069038,-32.740128],[-71.069279,-32.740388],[-71.069539,-32.740648],[-71.069929,-32.740815],[-71.070579,-32.740908],[-71.070857,-32.740908],[-71.07121,-32.740889],[-71.071414,-32.740945],[-71.071786,-32.741019],[-71.072157,-32.741075],[-71.072435,-32.741224],[-71.072844,-32.741354],[-71.073252,-32.741521],[-71.073512,-32.741688],[-71.073995,-32.741948],[-71.074403,-32.742208],[-71.074998,-32.742523],[-71.075331,-32.74269],[-71.07282,-32.743377],[-71.068398,-32.740452],[-71.063352,-32.741832],[-71.058931,-32.738907],[-71.053885,-32.740286],[-71.053681,-32.740151],[-71.053715,-32.740049],[-71.053622,-32.739447],[-71.05353,-32.738914],[-71.053437,-32.738613],[-71.053414,-32.738149],[-71.053182,-32.737779],[-71.052904,-32.737478],[-71.05258,-32.737061],[-71.052232,-32.736806],[-71.051862,-32.736644],[-71.051445,-32.736528],[-71.051097,-32.736505],[-71.050657,-32.736528],[-71.049985,-32.736551],[-71.049582,-32.736551],[-71.049453,-32.736551],[-71.048966,-32.736458],[-71.048456,-32.736203],[-71.047877,-32.736018],[-71.047321,-32.735786],[-71.046858,-32.735601],[-71.04651,-32.735462]]]},"properties":{"comuna":"Hijuelas","mancha_id":"05503-88b2c4ba41fffff","clase":"Bajo","nivel_medio":1.412,"nivel_medio_min":0.775,"nivel_medio_max":1.48,"pct_alto":14.3,"n_hexagonos":4,"area_ha":72.19}},{"type":"Feature","geometry":{"type":"Polygon","coordinates":[[[-71.08373,-32.868418],[-71.084355,-32.864122],[-71.089405,-32.862746],[-71.093829,-32.865666],[-71.093204,-32.869963],[-71.097629,-32.872883],[-71.097004,-32.877179],[-71.091954,-32.878555],[-71.087529,-32.875635],[-71.088154,-32.871339],[-71.08373,-32.868418]]]},"properties":{"comuna":"Hijuelas","mancha_id":"05503-88b2c4b995fffff","clase":"Bajo","nivel_medio":1.32,"nivel_medio_min":1.277,"nivel_medio_max":1.364,"pct_alto":6.7,"n_hexagonos":2,"area_ha":129.75}},{"type":"Feature","geometry":{"type":"Polygon","coordinates":[[[-71.117777,-32.834369],[-71.118402,-32.83007],[-71.123452,-32.828691],[-71.127877,-32.831612],[-71.132927,-32.830233],[-71.137353,-32.833153],[-71.136984,-32.835695],[-71.136578,-32.836184],[-71.136168,-32.836862],[-71.136114,-32.837523],[-71.136117,-32.83762],[-71.131679,-32.838832],[-71.131054,-32.843131],[-71.129402,-32.843582],[-71.129294,-32.843539],[-71.128812,-32.84348],[-71.128296,-32.843488],[-71.127871,-32.843589],[-71.127675,-32.844035],[-71.127675,-32.844053],[-71.126004,-32.844509],[-71.121578,-32.841589],[-71.116528,-32.842967],[-71.112103,-32.840046],[-71.112728,-32.835748],[-71.117777,-32.834369]]]},"properties":{"comuna":"Hijuelas","mancha_id":"05503-88b2c4b917fffff","clase":"Bajo","nivel_medio":1.24,"nivel_medio_min":1.027,"nivel_medio_max":1.418,"pct_alto":10.1,"n_hexagonos":4,"area_ha":258.44}},{"type":"Feature","geometry":{"type":"Polygon","coordinates":[[[-71.047718,-32.849343],[-71.048343,-32.845046],[-71.043921,-32.842124],[-71.044547,-32.837827],[-71.040626,-32.835236],[-71.040626,-32.835123],[-71.040348,-32.834798],[-71.040153,-32.834709],[-71.04075,-32.830606],[-71.045798,-32.829231],[-71.05022,-32.832154],[-71.055268,-32.830778],[-71.05969,-32.8337],[-71.059065,-32.837998],[-71.054017,-32.839374],[-71.053391,-32.843671],[-71.057814,-32.846593],[-71.057189,-32.85089],[-71.05214,-32.852265],[-71.047718,-32.849343]]]},"properties":{"comuna":"Hijuelas","mancha_id":"05503-88b2c4b8a9fffff","clase":"Bajo","nivel_medio":1.308,"nivel_medio_min":1.205,"nivel_medio_max":1.417,"pct_alto":7.9,"n_hexagonos":4,"area_ha":259.47}},{"type":"Feature","geometry":{"type":"Polygon","coordinates":[[[-71.060986,-32.858109],[-71.061612,-32.853812],[-71.06666,-32.852437],[-71.067285,-32.84814],[-71.072334,-32.846764],[-71.076758,-32.849685],[-71.076132,-32.853983],[-71.071083,-32.855358],[-71.070458,-32.859655],[-71.074882,-32.862576],[-71.074257,-32.866873],[-71.069207,-32.868248],[-71.064784,-32.865327],[-71.065409,-32.86103],[-71.060986,-32.858109]]]},"properties":{"comuna":"Hijuelas","mancha_id":"05503-88b2c4b8a5fffff","clase":"Bajo","nivel_medio":1.179,"nivel_medio_min":1.033,"nivel_medio_max":1.4,"pct_alto":3.4,"n_hexagonos":3,"area_ha":194.64}},{"type":"Feature","geometry":{"type":"Polygon","coordinates":[[[-71.019724,-32.841853],[-71.019936,-32.840402],[-71.015515,-32.837479],[-71.012033,-32.838426],[-71.011975,-32.838282],[-71.011461,-32.837857],[-71.010823,-32.837379],[-71.010257,-32.837007],[-71.009779,-32.836599],[-71.009141,-32.836068],[-71.008663,-32.835856],[-71.008185,-32.835714],[-71.007849,-32.835626],[-71.007512,-32.835448],[-71.007211,-32.835165],[-71.00691,-32.834776],[-71.006627,-32.834333],[-71.006467,-32.833908],[-71.006359,-32.83379],[-71.00606,-32.833465],[-71.005724,-32.833076],[-71.005281,-32.832296],[-71.004998,-32.831907],[-71.004891,-32.8315],[-71.004697,-32.831234],[-71.004342,-32.830791],[-71.004094,-32.830437],[-71.003935,-32.830171],[-71.003994,-32.82991],[-71.004018,-32.829875],[-71.00413,-32.829711],[-71.004378,-32.829003],[-71.004395,-32.828507],[-71.004289,-32.827781],[-71.004077,-32.827126],[-71.003829,-32.826612],[-71.003758,-32.826116],[-71.003687,-32.82578],[-71.003616,-32.825408],[-71.003492,-32.825125],[-71.003839,-32.824953],[-71.00451,-32.824675],[-71.004858,-32.82442],[-71.005414,-32.824142],[-71.006039,-32.823679],[-71.006155,-32.823563],[-71.00641,-32.82345],[-71.006572,-32.823377],[-71.006966,-32.823053],[-71.00729,-32.822775],[-71.007545,-32.822497],[-71.007846,-32.82208],[-71.008101,-32.821663],[-71.008131,-32.821629],[-71.008425,-32.821292],[-71.00868,-32.820968],[-71.009005,-32.82076],[-71.009259,-32.82069],[-71.009491,-32.820482],[-71.009561,-32.820204],[-71.009584,-32.819926],[-71.009839,-32.819347],[-71.009839,-32.818999],[-71.009723,-32.818559],[-71.00965,-32.81844],[-71.013598,-32.817365],[-71.014224,-32.813066],[-71.01927,-32.811692],[-71.023691,-32.814615],[-71.023065,-32.818914],[-71.018019,-32.820288],[-71.017393,-32.824586],[-71.012346,-32.825961],[-71.01172,-32.830258],[-71.016141,-32.833181],[-71.021188,-32.831807],[-71.025609,-32.834731],[-71.024983,-32.839028],[-71.025441,-32.839331],[-71.025406,-32.839362],[-71.025105,-32.839501],[-71.024804,-32.839547],[-71.024456,-32.839617],[-71.024086,-32.839756],[-71.023669,-32.839895],[-71.023182,-32.84008],[-71.022835,-32.840196],[-71.022534,-32.840358],[-71.022186,-32.840567],[-71.021931,-32.840775],[-71.021491,-32.841146],[-71.021144,-32.841424],[-71.020819,-32.841655],[-71.020518,-32.841748],[-71.020138,-32.841823],[-71.019724,-32.841853]]]},"properties":{"comuna":"Hijuelas","mancha_id":"05503-88b2c4b88bfffff","clase":"Bajo","nivel_medio":1.264,"nivel_medio_min":0.754,"nivel_medio_max":1.472,"pct_alto":16.8,"n_hexagonos":8,"area_ha":312.69}},{"type":"Feature","geometry":{"type":"Polygon","coordinates":[[[-71.055224,-32.797761],[-71.055849,-32.79346],[-71.060896,-32.792083],[-71.065318,-32.795006],[-71.064693,-32.799307],[-71.059646,-32.800684],[-71.055224,-32.797761]]]},"properties":{"comuna":"Hijuelas","mancha_id":"05503-88b2c4b855fffff","clase":"Bajo","nivel_medio":1.18,"nivel_medio_min":1.18,"nivel_medio_max":1.18,"pct_alto":2.7,"n_hexagonos":1,"area_ha":64.96}},{"type":"Feature","geometry":{"type":"Polygon","coordinates":[[[-71.070366,-32.793628],[-71.070991,-32.789327],[-71.076039,-32.787949],[-71.080461,-32.790872],[-71.079836,-32.795173],[-71.074788,-32.796551],[-71.070366,-32.793628]]]},"properties":{"comuna":"Hijuelas","mancha_id":"05503-88b2c4b847fffff","clase":"Bajo","nivel_medio":1.113,"nivel_medio_min":1.113,"nivel_medio_max":1.113,"pct_alto":0.1,"n_hexagonos":1,"area_ha":64.98}},{"type":"Feature","geometry":{"type":"Polygon","coordinates":[[[-71.060941,-32.825104],[-71.061566,-32.820805],[-71.066614,-32.819428],[-71.071037,-32.822351],[-71.070412,-32.82665],[-71.065364,-32.828026],[-71.060941,-32.825104]]]},"properties":{"comuna":"Hijuelas","mancha_id":"05503-88b2c4b83bfffff","clase":"Bajo","nivel_medio":1.477,"nivel_medio_min":1.477,"nivel_medio_max":1.477,"pct_alto":6.8,"n_hexagonos":1,"area_ha":64.92}},{"type":"Feature","geometry":{"type":"Polygon","coordinates":[[[-71.089981,-32.82544],[-71.085557,-32.822519],[-71.080509,-32.823896],[-71.076085,-32.820974],[-71.076711,-32.816674],[-71.081759,-32.815297],[-71.086182,-32.818219],[-71.091231,-32.816841],[-71.095655,-32.819763],[-71.100704,-32.818385],[-71.105128,-32.821306],[-71.104503,-32.825606],[-71.099454,-32.826984],[-71.09503,-32.824063],[-71.089981,-32.82544]]]},"properties":{"comuna":"Hijuelas","mancha_id":"05503-88b2c4b823fffff","clase":"Bajo","nivel_medio":1.145,"nivel_medio_min":1.055,"nivel_medio_max":1.27,"pct_alto":3.6,"n_hexagonos":3,"area_ha":194.84}},{"type":"Feature","geometry":{"type":"Polygon","coordinates":[[[-71.062817,-32.812206],[-71.063442,-32.807907],[-71.06849,-32.80653],[-71.072913,-32.809452],[-71.072288,-32.813752],[-71.06724,-32.815129],[-71.062817,-32.812206]]]},"properties":{"comuna":"Hijuelas","mancha_id":"05503-88b2c4b803fffff","clase":"Bajo","nivel_medio":1.451,"nivel_medio_min":1.451,"nivel_medio_max":1.451,"pct_alto":15.0,"n_hexagonos":1,"area_ha":64.94}},{"type":"Feature","geometry":{"type":"Polygon","coordinates":[[[-71.080604,-32.889896],[-71.076179,-32.886976],[-71.07113,-32.88835],[-71.066706,-32.885429],[-71.067331,-32.881134],[-71.072381,-32.87976],[-71.076805,-32.88268],[-71.081854,-32.881306],[-71.086279,-32.884226],[-71.085654,-32.888521],[-71.080604,-32.889896]]]},"properties":{"comuna":"Hijuelas","mancha_id":"05503-88b2c4aa61fffff","clase":"Bajo","nivel_medio":1.297,"nivel_medio_min":1.213,"nivel_medio_max":1.382,"pct_alto":3.7,"n_hexagonos":2,"area_ha":129.69}},{"type":"Feature","geometry":{"type":"Polygon","coordinates":[[[-71.177076,-32.793376],[-71.17265,-32.790456],[-71.173024,-32.78787],[-71.17474,-32.78905],[-71.177,-32.79048],[-71.17844,-32.79083],[-71.179637,-32.791156],[-71.17931,-32.791705],[-71.178953,-32.792311],[-71.178774,-32.792793],[-71.178744,-32.79292],[-71.177076,-32.793376]]]},"properties":{"comuna":"Hijuelas","mancha_id":"05503-88b2c48cb9fffff","clase":"Bajo","nivel_medio":0.755,"nivel_medio_min":0.755,"nivel_medio_max":0.755,"pct_alto":19.7,"n_hexagonos":1,"area_ha":17.47}},{"type":"Feature","geometry":{"type":"Polygon","coordinates":[[[-71.157498,-32.794602],[-71.158122,-32.7903],[-71.163173,-32.788918],[-71.167599,-32.791838],[-71.166975,-32.796141],[-71.161925,-32.797523],[-71.161301,-32.801825],[-71.15625,-32.803207],[-71.151824,-32.800286],[-71.152448,-32.795984],[-71.157498,-32.794602]]]},"properties":{"comuna":"Hijuelas","mancha_id":"05503-88b2c48c97fffff","clase":"Bajo","nivel_medio":1.02,"nivel_medio_min":0.948,"nivel_medio_max":1.092,"pct_alto":24.2,"n_hexagonos":2,"area_ha":130.06}},{"type":"Feature","geometry":{"type":"Polygon","coordinates":[[[-71.143084,-32.860487],[-71.138657,-32.857568],[-71.133606,-32.858946],[-71.132982,-32.863244],[-71.127931,-32.864622],[-71.123505,-32.861702],[-71.12413,-32.857404],[-71.12918,-32.856026],[-71.129805,-32.851728],[-71.132978,-32.850862],[-71.133117,-32.850904],[-71.133652,-32.850958],[-71.134223,-32.8511],[-71.134634,-32.851225],[-71.135312,-32.851475],[-71.135793,-32.851671],[-71.136329,-32.851975],[-71.136864,-32.852242],[-71.137417,-32.85251],[-71.137988,-32.852831],[-71.138523,-32.853241],[-71.138916,-32.853562],[-71.139203,-32.853815],[-71.139362,-32.853955],[-71.139861,-32.854151],[-71.140468,-32.854365],[-71.140807,-32.854526],[-71.141289,-32.854865],[-71.14177,-32.855204],[-71.142127,-32.855525],[-71.142752,-32.856328],[-71.14318,-32.856988],[-71.143626,-32.857755],[-71.144143,-32.858647],[-71.144304,-32.8592],[-71.144607,-32.859754],[-71.144774,-32.860026],[-71.143084,-32.860487]]]},"properties":{"comuna":"Hijuelas","mancha_id":"05503-88b2c416d1fffff","clase":"Bajo","nivel_medio":1.284,"nivel_medio_min":1.065,"nivel_medio_max":1.493,"pct_alto":9.0,"n_hexagonos":3,"area_ha":147.87}},{"type":"Feature","geometry":{"type":"Polygon","coordinates":[[[-71.057055,-32.751818],[-71.052009,-32.753197],[-71.048655,-32.750978],[-71.048711,-32.750752],[-71.048734,-32.750219],[-71.048723,-32.75],[-71.048711,-32.749756],[-71.048711,-32.749292],[-71.04885,-32.748736],[-71.049128,-32.74825],[-71.049383,-32.747972],[-71.049568,-32.747485],[-71.049707,-32.747138],[-71.049777,-32.746721],[-71.0498,-32.746188],[-71.049916,-32.745725],[-71.049904,-32.745507],[-71.049893,-32.745285],[-71.049939,-32.745007],[-71.050009,-32.744613],[-71.050101,-32.743918],[-71.05024,-32.743385],[-71.050263,-32.742759],[-71.050564,-32.742157],[-71.050588,-32.741763],[-71.050912,-32.741416],[-71.051236,-32.741161],[-71.051607,-32.740953],[-71.052024,-32.740953],[-71.052464,-32.740976],[-71.052812,-32.740929],[-71.053252,-32.74079],[-71.053391,-32.740628],[-71.053576,-32.740466],[-71.053681,-32.740151],[-71.053885,-32.740286],[-71.058931,-32.738907],[-71.063352,-32.741832],[-71.068398,-32.740452],[-71.07282,-32.743377],[-71.072195,-32.747681],[-71.067148,-32.74906],[-71.062727,-32.746136],[-71.05768,-32.747515],[-71.057055,-32.751818]]]},"properties":{"comuna":"Hijuelas","mancha_id":"05503-88b2c4ba0dfffff","clase":"Medio","nivel_medio":2.184,"nivel_medio_min":1.61,"nivel_medio_max":2.292,"pct_alto":36.0,"n_hexagonos":4,"area_ha":201.84}},{"type":"Feature","geometry":{"type":"Polygon","coordinates":[[[-71.045712,-32.763181],[-71.040666,-32.764559],[-71.04004,-32.768861],[-71.044461,-32.771785],[-71.043836,-32.776087],[-71.038789,-32.777464],[-71.034369,-32.774539],[-71.031224,-32.775397],[-71.031499,-32.775146],[-71.031707,-32.774983],[-71.031962,-32.774613],[-71.032217,-32.774011],[-71.032356,-32.773385],[-71.032541,-32.773014],[-71.032727,-32.772528],[-71.032981,-32.77225],[-71.03319,-32.772041],[-71.033445,-32.771833],[-71.033584,-32.771717],[-71.033839,-32.771393],[-71.034093,-32.770999],[-71.034371,-32.77079],[-71.034603,-32.770651],[-71.034858,-32.770559],[-71.034948,-32.770559],[-71.03509,-32.770559],[-71.035437,-32.770466],[-71.035738,-32.770211],[-71.03591,-32.769988],[-71.03597,-32.76991],[-71.036317,-32.769539],[-71.036433,-32.769169],[-71.036595,-32.768868],[-71.036734,-32.76852],[-71.037036,-32.768242],[-71.037314,-32.767941],[-71.037522,-32.767733],[-71.03773,-32.767501],[-71.037962,-32.767339],[-71.038194,-32.767107],[-71.038425,-32.76676],[-71.038449,-32.766505],[-71.038611,-32.766018],[-71.038819,-32.76574],[-71.039028,-32.765393],[-71.039283,-32.76486],[-71.039491,-32.76435],[-71.039514,-32.764026],[-71.039539,-32.763813],[-71.039561,-32.763632],[-71.039746,-32.763354],[-71.040163,-32.762983],[-71.040626,-32.762844],[-71.040881,-32.762914],[-71.040997,-32.762914],[-71.041229,-32.762636],[-71.04146,-32.762381],[-71.041599,-32.762242],[-71.041738,-32.762103],[-71.042063,-32.761779],[-71.042178,-32.761663],[-71.042433,-32.761385],[-71.042619,-32.761223],[-71.04285,-32.760991],[-71.043012,-32.76076],[-71.043175,-32.760597],[-71.043221,-32.760319],[-71.043221,-32.760018],[-71.04336,-32.759694],[-71.043522,-32.759439],[-71.043661,-32.759277],[-71.043916,-32.759045],[-71.04431,-32.758953],[-71.044541,-32.758953],[-71.044912,-32.759045],[-71.045167,-32.759022],[-71.045259,-32.758906],[-71.045051,-32.758628],[-71.044796,-32.758443],[-71.044564,-32.758188],[-71.044356,-32.757933],[-71.04431,-32.757539],[-71.04431,-32.757537],[-71.046337,-32.758878],[-71.045712,-32.763181]]]},"properties":{"comuna":"Hijuelas","mancha_id":"05503-88b2c4ba03fffff","clase":"Medio","nivel_medio":2.262,"nivel_medio_min":2.047,"nivel_medio_max":2.34,"pct_alto":32.2,"n_hexagonos":4,"area_ha":105.9}},{"type":"Feature","geometry":{"type":"Polygon","coordinates":[[[-71.131054,-32.843131],[-71.131679,-32.838832],[-71.136117,-32.83762],[-71.136132,-32.838129],[-71.136087,-32.838396],[-71.135893,-32.838692],[-71.135597,-32.83895],[-71.134973,-32.839806],[-71.134491,-32.840431],[-71.133973,-32.841002],[-71.133617,-32.841537],[-71.133367,-32.842179],[-71.133313,-32.842697],[-71.133153,-32.843339],[-71.132867,-32.843749],[-71.132519,-32.844097],[-71.131054,-32.843131]]]},"properties":{"comuna":"Hijuelas","mancha_id":"05503-88b2c4b933fffff","clase":"Medio","nivel_medio":1.521,"nivel_medio_min":1.521,"nivel_medio_max":1.521,"pct_alto":27.0,"n_hexagonos":1,"area_ha":16.43}},{"type":"Feature","geometry":{"type":"Polygon","coordinates":[[[-71.098779,-32.798261],[-71.099404,-32.79396],[-71.104452,-32.79258],[-71.108876,-32.795502],[-71.108252,-32.799804],[-71.103203,-32.801183],[-71.102578,-32.805484],[-71.097529,-32.806863],[-71.093106,-32.803941],[-71.093731,-32.79964],[-71.098779,-32.798261]]]},"properties":{"comuna":"Hijuelas","mancha_id":"05503-88b2c4b865fffff","clase":"Medio","nivel_medio":2.281,"nivel_medio_min":2.247,"nivel_medio_max":2.315,"pct_alto":28.1,"n_hexagonos":2,"area_ha":129.97}},{"type":"Feature","geometry":{"type":"Polygon","coordinates":[[[-71.012396,-32.958578],[-71.011874,-32.96215],[-71.011503,-32.962251],[-71.011563,-32.961726],[-71.011748,-32.961263],[-71.01181,-32.960907],[-71.011887,-32.960459],[-71.011918,-32.960119],[-71.012072,-32.959579],[-71.012227,-32.959223],[-71.01232,-32.958899],[-71.012396,-32.958578]]]},"properties":{"comuna":"Hijuelas","mancha_id":"05503-88b2c4af6dfffff","clase":"Medio","nivel_medio":2.257,"nivel_medio_min":2.257,"nivel_medio_max":2.257,"pct_alto":72.3,"n_hexagonos":1,"area_ha":0.81}},{"type":"Feature","geometry":{"type":"Polygon","coordinates":[[[-71.139337,-32.88627],[-71.144389,-32.884892],[-71.14471,-32.885104],[-71.144481,-32.885592],[-71.14428,-32.886361],[-71.144079,-32.886862],[-71.143745,-32.887197],[-71.143477,-32.887665],[-71.143444,-32.888133],[-71.143544,-32.888668],[-71.143812,-32.889404],[-71.144113,-32.889906],[-71.144213,-32.890441],[-71.14423,-32.890829],[-71.14423,-32.89117],[-71.144276,-32.89148],[-71.144493,-32.891727],[-71.145016,-32.892147],[-71.145551,-32.892815],[-71.145556,-32.892826],[-71.14314,-32.893485],[-71.138712,-32.890566],[-71.139337,-32.88627]]]},"properties":{"comuna":"Hijuelas","mancha_id":"05503-88b2c4ab69fffff","clase":"Medio","nivel_medio":2.5,"nivel_medio_min":2.5,"nivel_medio_max":2.5,"pct_alto":50.0,"n_hexagonos":1,"area_ha":36.25}},{"type":"Feature","geometry":{"type":"Polygon","coordinates":[[[-71.144445,-32.917878],[-71.145069,-32.913584],[-71.14622,-32.91327],[-71.14622,-32.913383],[-71.14622,-32.913952],[-71.146053,-32.914487],[-71.145752,-32.914855],[-71.145417,-32.915223],[-71.145317,-32.91549],[-71.145384,-32.915691],[-71.145919,-32.916025],[-71.146253,-32.916627],[-71.146554,-32.917263],[-71.146788,-32.9184],[-71.146889,-32.918801],[-71.147089,-32.919203],[-71.14745,-32.919859],[-71.144445,-32.917878]]]},"properties":{"comuna":"Hijuelas","mancha_id":"05503-88b2c4ab21fffff","clase":"Medio","nivel_medio":2.444,"nivel_medio_min":2.444,"nivel_medio_max":2.444,"pct_alto":47.0,"n_hexagonos":1,"area_ha":8.1}},{"type":"Feature","geometry":{"type":"Polygon","coordinates":[[[-71.091378,-32.915831],[-71.092003,-32.911538],[-71.097054,-32.910163],[-71.101479,-32.913083],[-71.100854,-32.917376],[-71.095803,-32.918751],[-71.091378,-32.915831]]]},"properties":{"comuna":"Hijuelas","mancha_id":"05503-88b2c4ab1bfffff","clase":"Medio","nivel_medio":1.955,"nivel_medio_min":1.955,"nivel_medio_max":1.955,"pct_alto":31.5,"n_hexagonos":1,"area_ha":64.82}},{"type":"Feature","geometry":{"type":"Polygon","coordinates":[[[-71.033283,-32.915134],[-71.032657,-32.919427],[-71.029896,-32.920176],[-71.029877,-32.920003],[-71.029993,-32.919401],[-71.030155,-32.918729],[-71.030248,-32.917965],[-71.030317,-32.917223],[-71.030456,-32.916366],[-71.030526,-32.915741],[-71.03048,-32.915138],[-71.030456,-32.914605],[-71.030456,-32.914188],[-71.030456,-32.913864],[-71.030572,-32.91347],[-71.030589,-32.913356],[-71.033283,-32.915134]]]},"properties":{"comuna":"Hijuelas","mancha_id":"05503-88b2c4aac5fffff","clase":"Medio","nivel_medio":2.498,"nivel_medio_min":2.498,"nivel_medio_max":2.498,"pct_alto":49.8,"n_hexagonos":1,"area_ha":15.56}},{"type":"Feature","geometry":{"type":"Polygon","coordinates":[[[-71.114185,-32.959095],[-71.11481,-32.954803],[-71.110383,-32.951886],[-71.111008,-32.947594],[-71.11606,-32.94622],[-71.116685,-32.941928],[-71.121737,-32.940554],[-71.126164,-32.943471],[-71.125539,-32.947764],[-71.126268,-32.948244],[-71.126104,-32.948318],[-71.125686,-32.94852],[-71.125206,-32.948674],[-71.124521,-32.948745],[-71.123651,-32.948678],[-71.122983,-32.948678],[-71.122447,-32.948745],[-71.121828,-32.948773],[-71.121712,-32.948778],[-71.121244,-32.948879],[-71.120876,-32.948946],[-71.120817,-32.949048],[-71.120742,-32.94918],[-71.120675,-32.949815],[-71.120608,-32.950484],[-71.120575,-32.951086],[-71.120372,-32.951897],[-71.120274,-32.95239],[-71.120073,-32.952992],[-71.119952,-32.953489],[-71.119925,-32.953598],[-71.119799,-32.953765],[-71.119699,-32.95405],[-71.119641,-32.954284],[-71.119574,-32.954568],[-71.119429,-32.954771],[-71.119249,-32.955041],[-71.118918,-32.955251],[-71.118497,-32.955582],[-71.118226,-32.955777],[-71.11785,-32.956031],[-71.11758,-32.956301],[-71.117432,-32.956501],[-71.117385,-32.956694],[-71.117385,-32.957295],[-71.117325,-32.957926],[-71.117385,-32.958257],[-71.117385,-32.958738],[-71.117325,-32.959129],[-71.117025,-32.959489],[-71.116634,-32.95973],[-71.116213,-32.960061],[-71.116019,-32.960303],[-71.114185,-32.959095]]]},"properties":{"comuna":"Hijuelas","mancha_id":"05503-88b2c4a825fffff","clase":"Medio","nivel_medio":2.336,"nivel_medio_min":1.879,"nivel_medio_max":2.392,"pct_alto":68.1,"n_hexagonos":4,"area_ha":152.71}},{"type":"Feature","geometry":{"type":"Polygon","coordinates":[[[-71.132982,-32.863244],[-71.133606,-32.858946],[-71.138657,-32.857568],[-71.143084,-32.860487],[-71.142459,-32.864785],[-71.137408,-32.866163],[-71.136784,-32.870461],[-71.131733,-32.871838],[-71.131108,-32.876135],[-71.126057,-32.877513],[-71.125432,-32.881809],[-71.120382,-32.883186],[-71.119757,-32.887482],[-71.124183,-32.890401],[-71.129234,-32.889024],[-71.133661,-32.891943],[-71.133036,-32.896239],[-71.127985,-32.897615],[-71.12736,-32.901911],[-71.122309,-32.903287],[-71.117882,-32.900368],[-71.112831,-32.901744],[-71.108405,-32.898824],[-71.103354,-32.9002],[-71.102729,-32.904494],[-71.097679,-32.905869],[-71.093253,-32.90295],[-71.093878,-32.898656],[-71.089453,-32.895736],[-71.084403,-32.897111],[-71.079978,-32.894191],[-71.074929,-32.895565],[-71.074303,-32.899859],[-71.078728,-32.902779],[-71.078102,-32.907073],[-71.073052,-32.908447],[-71.068628,-32.905527],[-71.069253,-32.901233],[-71.064829,-32.898313],[-71.05978,-32.899686],[-71.055356,-32.896766],[-71.050307,-32.898139],[-71.049681,-32.902432],[-71.044632,-32.903805],[-71.040209,-32.900884],[-71.040835,-32.896591],[-71.045884,-32.895218],[-71.04651,-32.890924],[-71.051558,-32.889551],[-71.052184,-32.885256],[-71.057233,-32.883883],[-71.057859,-32.879588],[-71.062908,-32.878214],[-71.067331,-32.881134],[-71.066706,-32.885429],[-71.07113,-32.88835],[-71.076179,-32.886976],[-71.080604,-32.889896],[-71.085654,-32.888521],[-71.086279,-32.884226],[-71.081854,-32.881306],[-71.076805,-32.88268],[-71.072381,-32.87976],[-71.073006,-32.875464],[-71.068582,-32.872544],[-71.069207,-32.868248],[-71.074257,-32.866873],[-71.074882,-32.862576],[-71.070458,-32.859655],[-71.071083,-32.855358],[-71.076132,-32.853983],[-71.076758,-32.849685],[-71.081807,-32.848309],[-71.082432,-32.844011],[-71.078008,-32.84109],[-71.072959,-32.842466],[-71.072334,-32.846764],[-71.067285,-32.84814],[-71.06666,-32.852437],[-71.061612,-32.853812],[-71.060986,-32.858109],[-71.065409,-32.86103],[-71.064784,-32.865327],[-71.059735,-32.866701],[-71.055312,-32.86378],[-71.050264,-32.865154],[-71.045841,-32.862233],[-71.046467,-32.857936],[-71.042044,-32.855014],[-71.036996,-32.856389],[-71.034607,-32.85481],[-71.034788,-32.854281],[-71.035159,-32.85354],[-71.035437,-32.852984],[-71.035715,-32.852544],[-71.036039,-32.852219],[-71.036549,-32.851571],[-71.03692,-32.851269],[-71.037314,-32.850922],[-71.037684,-32.850505],[-71.038008,-32.850134],[-71.03831,-32.84974],[-71.038657,-32.849462],[-71.039028,-32.849184],[-71.03919,-32.848767],[-71.039228,-32.848443],[-71.039236,-32.848374],[-71.039375,-32.847818],[-71.039537,-32.847308],[-71.0397,-32.846914],[-71.039839,-32.846381],[-71.039978,-32.845964],[-71.040047,-32.845571],[-71.040001,-32.845038],[-71.039792,-32.844389],[-71.03963,-32.843764],[-71.039423,-32.843349],[-71.039259,-32.843022],[-71.038912,-32.842466],[-71.038634,-32.842072],[-71.038124,-32.841516],[-71.037962,-32.840984],[-71.038078,-32.840497],[-71.038194,-32.840034],[-71.03831,-32.839455],[-71.038472,-32.83876],[-71.038866,-32.837833],[-71.039283,-32.837231],[-71.039653,-32.836791],[-71.04007,-32.836466],[-71.040371,-32.836072],[-71.04058,-32.835841],[-71.040626,-32.83554],[-71.040626,-32.835236],[-71.044547,-32.837827],[-71.043921,-32.842124],[-71.048343,-32.845046],[-71.047718,-32.849343],[-71.05214,-32.852265],[-71.057189,-32.85089],[-71.057814,-32.846593],[-71.053391,-32.843671],[-71.054017,-32.839374],[-71.059065,-32.837998],[-71.05969,-32.8337],[-71.055268,-32.830778],[-71.05022,-32.832154],[-71.045798,-32.829231],[-71.04075,-32.830606],[-71.040153,-32.834709],[-71.039792,-32.834543],[-71.039292,-32.834522],[-71.038914,-32.8349],[-71.038395,-32.835372],[-71.037946,-32.83549],[-71.037356,-32.835631],[-71.036648,-32.835679],[-71.03575,-32.835726],[-71.0349,-32.835915],[-71.034409,-32.835837],[-71.034003,-32.835773],[-71.033082,-32.835466],[-71.032303,-32.834923],[-71.031878,-32.834687],[-71.031453,-32.834711],[-71.030839,-32.834876],[-71.030296,-32.835088],[-71.029659,-32.835513],[-71.029281,-32.835962],[-71.028974,-32.836293],[-71.02858,-32.836513],[-71.027885,-32.836837],[-71.027392,-32.837024],[-71.026944,-32.837072],[-71.026542,-32.837591],[-71.026424,-32.838016],[-71.02624,-32.838435],[-71.025846,-32.838876],[-71.025638,-32.839154],[-71.025441,-32.839331],[-71.024983,-32.839028],[-71.025609,-32.834731],[-71.021188,-32.831807],[-71.016141,-32.833181],[-71.01172,-32.830258],[-71.012346,-32.825961],[-71.017393,-32.824586],[-71.018019,-32.820288],[-71.023065,-32.818914],[-71.023691,-32.814615],[-71.01927,-32.811692],[-71.019896,-32.807393],[-71.024943,-32.806018],[-71.025568,-32.801718],[-71.030615,-32.800343],[-71.031241,-32.796043],[-71.036287,-32.794667],[-71.036913,-32.790366],[-71.032492,-32.787442],[-71.033118,-32.783142],[-71.038164,-32.781765],[-71.042585,-32.784689],[-71.041959,-32.78899],[-71.04638,-32.791914],[-71.051427,-32.790537],[-71.052053,-32.786236],[-71.047631,-32.783312],[-71.048257,-32.779011],[-71.053303,-32.777633],[-71.057725,-32.780557],[-71.0571,-32.784858],[-71.061521,-32.787782],[-71.066569,-32.786404],[-71.067194,-32.782103],[-71.062772,-32.779179],[-71.063397,-32.774877],[-71.068444,-32.773499],[-71.069069,-32.769196],[-71.074116,-32.767818],[-71.074742,-32.763515],[-71.07032,-32.760591],[-71.070945,-32.756288],[-71.075992,-32.754908],[-71.080414,-32.757832],[-71.085461,-32.756452],[-71.085972,-32.75293],[-71.086082,-32.752939],[-71.08662,-32.752976],[-71.087177,-32.753013],[-71.08763,-32.75306],[-71.087655,-32.75306],[-71.087337,-32.753764],[-71.086838,-32.754301],[-71.086416,-32.754916],[-71.08607,-32.755722],[-71.085571,-32.756221],[-71.085485,-32.756468],[-71.085302,-32.756989],[-71.085149,-32.757718],[-71.084842,-32.758601],[-71.084534,-32.759523],[-71.084458,-32.760444],[-71.084688,-32.761135],[-71.084918,-32.762095],[-71.08511,-32.76294],[-71.085302,-32.763861],[-71.085379,-32.764668],[-71.085385,-32.764738],[-71.084211,-32.765059],[-71.083586,-32.769362],[-71.078539,-32.770741],[-71.077914,-32.775044],[-71.072866,-32.776422],[-71.072241,-32.780724],[-71.076664,-32.783647],[-71.081711,-32.782269],[-71.082336,-32.777967],[-71.087384,-32.776588],[-71.091807,-32.779511],[-71.093586,-32.779025],[-71.093864,-32.779373],[-71.094478,-32.77991],[-71.094555,-32.780294],[-71.09467,-32.780755],[-71.094978,-32.781024],[-71.0954,-32.781254],[-71.095861,-32.781638],[-71.096129,-32.781945],[-71.096475,-32.782329],[-71.097013,-32.782675],[-71.097281,-32.783212],[-71.097588,-32.783788],[-71.097896,-32.784287],[-71.09828,-32.784978],[-71.098433,-32.785439],[-71.098532,-32.785936],[-71.095605,-32.786735],[-71.09498,-32.791037],[-71.089932,-32.792416],[-71.089307,-32.796717],[-71.084259,-32.798096],[-71.079836,-32.795173],[-71.080461,-32.790872],[-71.076039,-32.787949],[-71.070991,-32.789327],[-71.070366,-32.793628],[-71.074788,-32.796551],[-71.074163,-32.800852],[-71.078586,-32.803774],[-71.077961,-32.808075],[-71.082384,-32.810997],[-71.087432,-32.809619],[-71.091856,-32.812541],[-71.096905,-32.811163],[-71.101328,-32.814085],[-71.106377,-32.812706],[-71.110802,-32.815628],[-71.115851,-32.814249],[-71.120276,-32.81717],[-71.125326,-32.815791],[-71.12595,-32.81149],[-71.131,-32.81011],[-71.135425,-32.813031],[-71.140475,-32.811651],[-71.1411,-32.80735],[-71.136674,-32.804429],[-71.137298,-32.800127],[-71.142348,-32.798746],[-71.142972,-32.794444],[-71.148022,-32.793063],[-71.148646,-32.78876],[-71.153696,-32.787379],[-71.158122,-32.7903],[-71.157498,-32.794602],[-71.152448,-32.795984],[-71.151824,-32.800286],[-71.15625,-32.803207],[-71.161301,-32.801825],[-71.161925,-32.797523],[-71.166975,-32.796141],[-71.167599,-32.791838],[-71.163173,-32.788918],[-71.163797,-32.784614],[-71.16716,-32.783694],[-71.17045,-32.7861],[-71.173024,-32.78787],[-71.17265,-32.790456],[-71.177076,-32.793376],[-71.176822,-32.79513],[-71.176723,-32.795237],[-71.176437,-32.795719],[-71.175991,-32.79629],[-71.17542,-32.797039],[-71.175135,-32.797575],[-71.175085,-32.798054],[-71.171402,-32.799062],[-71.170778,-32.803364],[-71.17126,-32.803682],[-71.170995,-32.803891],[-71.170603,-32.804265],[-71.170317,-32.804818],[-71.170192,-32.805175],[-71.169996,-32.805371],[-71.16955,-32.805568],[-71.169104,-32.805871],[-71.168747,-32.806246],[-71.168426,-32.80671],[-71.168281,-32.80723],[-71.16819,-32.807533],[-71.167948,-32.807702],[-71.167588,-32.807789],[-71.167213,-32.807834],[-71.167025,-32.807962],[-71.166838,-32.808173],[-71.166535,-32.808744],[-71.166178,-32.809457],[-71.166042,-32.809667],[-71.165393,-32.810671],[-71.165161,-32.811206],[-71.16509,-32.811616],[-71.164911,-32.812205],[-71.164822,-32.812651],[-71.164358,-32.813258],[-71.163198,-32.81431],[-71.162396,-32.815006],[-71.16145,-32.815827],[-71.161287,-32.815957],[-71.160754,-32.81638],[-71.160379,-32.816737],[-71.159933,-32.817254],[-71.159612,-32.818021],[-71.159309,-32.818503],[-71.15892,-32.818871],[-71.158573,-32.819319],[-71.158361,-32.819675],[-71.157989,-32.820216],[-71.157328,-32.820894],[-71.156915,-32.821299],[-71.156762,-32.82157],[-71.156543,-32.821849],[-71.156238,-32.822018],[-71.156206,-32.82203],[-71.155925,-32.822136],[-71.155633,-32.822518],[-71.155116,-32.823231],[-71.154831,-32.823874],[-71.153956,-32.824605],[-71.153492,-32.825033],[-71.152975,-32.825461],[-71.152547,-32.825854],[-71.152261,-32.826104],[-71.152047,-32.826354],[-71.151958,-32.826764],[-71.151958,-32.827156],[-71.152029,-32.827692],[-71.151994,-32.828352],[-71.15188,-32.828601],[-71.148079,-32.826094],[-71.143028,-32.827474],[-71.142404,-32.831774],[-71.142485,-32.831827],[-71.142109,-32.832473],[-71.141984,-32.833062],[-71.14186,-32.833455],[-71.14173,-32.833608],[-71.1414,-32.833743],[-71.140753,-32.833829],[-71.139843,-32.83399],[-71.138987,-32.834329],[-71.137952,-32.834882],[-71.137096,-32.83556],[-71.136984,-32.835695],[-71.137353,-32.833153],[-71.132927,-32.830233],[-71.127877,-32.831612],[-71.123452,-32.828691],[-71.118402,-32.83007],[-71.113977,-32.827149],[-71.114602,-32.822849],[-71.110177,-32.819928],[-71.105128,-32.821306],[-71.100704,-32.818385],[-71.095655,-32.819763],[-71.091231,-32.816841],[-71.086182,-32.818219],[-71.081759,-32.815297],[-71.076711,-32.816674],[-71.076085,-32.820974],[-71.080509,-32.823896],[-71.085557,-32.822519],[-71.089981,-32.82544],[-71.09503,-32.824063],[-71.099454,-32.826984],[-71.104503,-32.825606],[-71.108928,-32.828527],[-71.108303,-32.832827],[-71.112728,-32.835748],[-71.112103,-32.840046],[-71.116528,-32.842967],[-71.121578,-32.841589],[-71.126004,-32.844509],[-71.125379,-32.848808],[-71.120329,-32.850186],[-71.119704,-32.854484],[-71.114654,-32.855862],[-71.114029,-32.860159],[-71.118455,-32.863079],[-71.123505,-32.861702],[-71.127931,-32.864622],[-71.132982,-32.863244]],[[-71.087529,-32.875635],[-71.091954,-32.878555],[-71.097004,-32.877179],[-71.097629,-32.872883],[-71.093204,-32.869963],[-71.093829,-32.865666],[-71.089405,-32.862746],[-71.084355,-32.864122],[-71.08373,-32.868418],[-71.088154,-32.871339],[-71.087529,-32.875635]],[[-71.072913,-32.809452],[-71.06849,-32.80653],[-71.063442,-32.807907],[-71.062817,-32.812206],[-71.06724,-32.815129],[-71.072288,-32.813752],[-71.072913,-32.809452]],[[-71.064693,-32.799307],[-71.065318,-32.795006],[-71.060896,-32.792083],[-71.055849,-32.79346],[-71.055224,-32.797761],[-71.059646,-32.800684],[-71.064693,-32.799307]],[[-71.066614,-32.819428],[-71.061566,-32.820805],[-71.060941,-32.825104],[-71.065364,-32.828026],[-71.070412,-32.82665],[-71.071037,-32.822351],[-71.066614,-32.819428]],[[-71.043878,-32.809113],[-71.044504,-32.804814],[-71.040083,-32.80189],[-71.035036,-32.803266],[-71.03441,-32.807566],[-71.029363,-32.808941],[-71.028738,-32.81324],[-71.033159,-32.816164],[-71.038206,-32.814788],[-71.038831,-32.810489],[-71.043878,-32.809113]],[[-71.096954,-32.844179],[-71.101379,-32.8471],[-71.106428,-32.845723],[-71.107053,-32.841424],[-71.102629,-32.838503],[-71.097579,-32.839881],[-71.096954,-32.844179]]]},"properties":{"comuna":"Hijuelas","mancha_id":"05503-88b2c416d3fffff","clase":"Medio","nivel_medio":1.981,"nivel_medio_min":1.507,"nivel_medio_max":2.49,"pct_alto":31.5,"n_hexagonos":150,"area_ha":9293.69}},{"type":"Feature","geometry":{"type":"Polygon","coordinates":[[[-71.129785,-32.843734],[-71.129402,-32.843582],[-71.131054,-32.843131],[-71.132519,-32.844097],[-71.132493,-32.844124],[-71.132213,-32.844334],[-71.131883,-32.844554],[-71.131511,-32.844622],[-71.131206,-32.844597],[-71.130876,-32.84452],[-71.130673,-32.844351],[-71.130298,-32.844071],[-71.129785,-32.843734]]]},"properties":{"comuna":"Hijuelas","mancha_id":"05503-88b2c4b9e5fffff","clase":"Alto","nivel_medio":2.912,"nivel_medio_min":2.912,"nivel_medio_max":2.912,"pct_alto":87.4,"n_hexagonos":1,"area_ha":2.51}},{"type":"Feature","geometry":{"type":"Polygon","coordinates":[[[-71.072334,-32.846764],[-71.072959,-32.842466],[-71.078008,-32.84109],[-71.082432,-32.844011],[-71.081807,-32.848309],[-71.076758,-32.849685],[-71.072334,-32.846764]]]},"properties":{"comuna":"Hijuelas","mancha_id":"05503-88b2c4b9d1fffff","clase":"Alto","nivel_medio":2.608,"nivel_medio_min":2.608,"nivel_medio_max":2.608,"pct_alto":73.5,"n_hexagonos":1,"area_ha":64.9}},{"type":"Feature","geometry":{"type":"Polygon","coordinates":[[[-71.096954,-32.844179],[-71.097579,-32.839881],[-71.102629,-32.838503],[-71.107053,-32.841424],[-71.106428,-32.845723],[-71.101379,-32.8471],[-71.096954,-32.844179]]]},"properties":{"comuna":"Hijuelas","mancha_id":"05503-88b2c4b9c7fffff","clase":"Alto","nivel_medio":2.675,"nivel_medio_min":2.675,"nivel_medio_max":2.675,"pct_alto":71.6,"n_hexagonos":1,"area_ha":64.92}},{"type":"Feature","geometry":{"type":"Polygon","coordinates":[[[-71.114029,-32.860159],[-71.114654,-32.855862],[-71.119704,-32.854484],[-71.120329,-32.850186],[-71.125379,-32.848808],[-71.126004,-32.844509],[-71.127675,-32.844053],[-71.127675,-32.844909],[-71.128692,-32.847086],[-71.129388,-32.848085],[-71.129709,-32.848549],[-71.130066,-32.848977],[-71.130423,-32.849191],[-71.130815,-32.849566],[-71.131137,-32.849869],[-71.131565,-32.850297],[-71.131832,-32.85044],[-71.132296,-32.850636],[-71.132528,-32.850726],[-71.132978,-32.850862],[-71.129805,-32.851728],[-71.12918,-32.856026],[-71.12413,-32.857404],[-71.123505,-32.861702],[-71.118455,-32.863079],[-71.114029,-32.860159]]]},"properties":{"comuna":"Hijuelas","mancha_id":"05503-88b2c4b9a9fffff","clase":"Alto","nivel_medio":2.76,"nivel_medio_min":2.695,"nivel_medio_max":2.912,"pct_alto":68.1,"n_hexagonos":3,"area_ha":154.17}},{"type":"Feature","geometry":{"type":"Polygon","coordinates":[[[-71.143028,-32.827474],[-71.148079,-32.826094],[-71.15188,-32.828601],[-71.151726,-32.828941],[-71.151262,-32.829529],[-71.150798,-32.829886],[-71.150138,-32.830154],[-71.149424,-32.830368],[-71.149014,-32.830422],[-71.1483,-32.830457],[-71.147569,-32.830457],[-71.146837,-32.830261],[-71.146142,-32.830083],[-71.145428,-32.830047],[-71.144821,-32.8301],[-71.144375,-32.830279],[-71.143626,-32.830761],[-71.142984,-32.831189],[-71.142555,-32.831706],[-71.142485,-32.831827],[-71.142404,-32.831774],[-71.143028,-32.827474]]]},"properties":{"comuna":"Hijuelas","mancha_id":"05503-88b2c4b93dfffff","clase":"Alto","nivel_medio":2.554,"nivel_medio_min":2.554,"nivel_medio_max":2.554,"pct_alto":75.9,"n_hexagonos":1,"area_ha":30.48}},{"type":"Feature","geometry":{"type":"Polygon","coordinates":[[[-71.108303,-32.832827],[-71.108928,-32.828527],[-71.104503,-32.825606],[-71.105128,-32.821306],[-71.110177,-32.819928],[-71.114602,-32.822849],[-71.113977,-32.827149],[-71.118402,-32.83007],[-71.117777,-32.834369],[-71.112728,-32.835748],[-71.108303,-32.832827]]]},"properties":{"comuna":"Hijuelas","mancha_id":"05503-88b2c4b913fffff","clase":"Alto","nivel_medio":2.691,"nivel_medio_min":2.647,"nivel_medio_max":2.734,"pct_alto":75.2,"n_hexagonos":2,"area_ha":129.9}},{"type":"Feature","geometry":{"type":"Polygon","coordinates":[[[-71.072241,-32.780724],[-71.072866,-32.776422],[-71.077914,-32.775044],[-71.078539,-32.770741],[-71.083586,-32.769362],[-71.084211,-32.765059],[-71.085385,-32.764738],[-71.085456,-32.765551],[-71.085878,-32.766357],[-71.086339,-32.766895],[-71.086608,-32.767662],[-71.086761,-32.768277],[-71.086454,-32.768776],[-71.086032,-32.769467],[-71.085763,-32.770081],[-71.085651,-32.770727],[-71.085609,-32.770964],[-71.085609,-32.771425],[-71.086032,-32.771847],[-71.086569,-32.772347],[-71.086838,-32.772654],[-71.086915,-32.772922],[-71.087376,-32.772922],[-71.087867,-32.773263],[-71.087875,-32.773268],[-71.08822,-32.773614],[-71.088566,-32.773882],[-71.089027,-32.774305],[-71.089142,-32.774689],[-71.089257,-32.775034],[-71.089602,-32.775533],[-71.089986,-32.776071],[-71.09037,-32.776493],[-71.090985,-32.777069],[-71.091522,-32.777568],[-71.092252,-32.777952],[-71.092981,-32.778413],[-71.093403,-32.778797],[-71.093586,-32.779025],[-71.091807,-32.779511],[-71.087384,-32.776588],[-71.082336,-32.777967],[-71.081711,-32.782269],[-71.076664,-32.783647],[-71.072241,-32.780724]]]},"properties":{"comuna":"Hijuelas","mancha_id":"05503-88b2c4b84dfffff","clase":"Alto","nivel_medio":2.717,"nivel_medio_min":2.53,"nivel_medio_max":2.772,"pct_alto":71.8,"n_hexagonos":4,"area_ha":152.9}},{"type":"Feature","geometry":{"type":"Polygon","coordinates":[[[-71.0571,-32.784858],[-71.057725,-32.780557],[-71.053303,-32.777633],[-71.048257,-32.779011],[-71.047631,-32.783312],[-71.052053,-32.786236],[-71.051427,-32.790537],[-71.04638,-32.791914],[-71.041959,-32.78899],[-71.042585,-32.784689],[-71.038164,-32.781765],[-71.033118,-32.783142],[-71.032492,-32.787442],[-71.036913,-32.790366],[-71.036287,-32.794667],[-71.031241,-32.796043],[-71.030615,-32.800343],[-71.025568,-32.801718],[-71.024943,-32.806018],[-71.019896,-32.807393],[-71.01927,-32.811692],[-71.014224,-32.813066],[-71.013598,-32.817365],[-71.00965,-32.81844],[-71.009537,-32.818258],[-71.009422,-32.817818],[-71.009375,-32.817377],[-71.009398,-32.816636],[-71.009329,-32.816173],[-71.009445,-32.815802],[-71.009676,-32.815269],[-71.009885,-32.815014],[-71.01014,-32.814505],[-71.010302,-32.814018],[-71.010626,-32.813601],[-71.010881,-32.8133],[-71.011182,-32.812953],[-71.011391,-32.812513],[-71.011599,-32.812281],[-71.011923,-32.81191],[-71.012152,-32.811696],[-71.012294,-32.811563],[-71.012665,-32.811262],[-71.013082,-32.811007],[-71.013615,-32.810752],[-71.013985,-32.81052],[-71.01431,-32.810474],[-71.014773,-32.810335],[-71.015097,-32.81008],[-71.01512,-32.809964],[-71.01512,-32.80964],[-71.01512,-32.809246],[-71.015144,-32.808968],[-71.015144,-32.808713],[-71.015097,-32.808296],[-71.015097,-32.80781],[-71.015167,-32.807138],[-71.01519,-32.806582],[-71.015167,-32.806188],[-71.01512,-32.805841],[-71.01519,-32.805516],[-71.015352,-32.805308],[-71.015537,-32.80503],[-71.015839,-32.804752],[-71.015862,-32.804724],[-71.01614,-32.804404],[-71.016464,-32.804057],[-71.016649,-32.803756],[-71.016649,-32.803269],[-71.016696,-32.802852],[-71.016696,-32.802343],[-71.016603,-32.801833],[-71.016534,-32.801439],[-71.016441,-32.801092],[-71.01651,-32.800582],[-71.016395,-32.800188],[-71.016395,-32.80009],[-71.016395,-32.799864],[-71.016487,-32.799563],[-71.016742,-32.799215],[-71.016951,-32.798821],[-71.017066,-32.79852],[-71.01702,-32.798265],[-71.016881,-32.797918],[-71.016788,-32.797408],[-71.016603,-32.796991],[-71.016395,-32.796667],[-71.01614,-32.796273],[-71.015978,-32.795926],[-71.015839,-32.795601],[-71.015676,-32.7953],[-71.015607,-32.794976],[-71.015514,-32.79442],[-71.015445,-32.793794],[-71.015468,-32.793424],[-71.0157,-32.79303],[-71.015792,-32.792497],[-71.015952,-32.791952],[-71.016024,-32.791709],[-71.016186,-32.791177],[-71.016371,-32.790435],[-71.016487,-32.789949],[-71.016626,-32.789393],[-71.016719,-32.789115],[-71.016951,-32.788767],[-71.017159,-32.788651],[-71.017344,-32.788582],[-71.017483,-32.788327],[-71.017344,-32.788003],[-71.017205,-32.787655],[-71.017136,-32.787308],[-71.017136,-32.787053],[-71.017298,-32.786891],[-71.017349,-32.786853],[-71.017576,-32.786682],[-71.017854,-32.786567],[-71.018016,-32.786381],[-71.018178,-32.786265],[-71.01834,-32.78615],[-71.018665,-32.785964],[-71.01892,-32.785709],[-71.019082,-32.785385],[-71.019082,-32.784922],[-71.019128,-32.784482],[-71.019198,-32.784134],[-71.019452,-32.783532],[-71.019777,-32.782883],[-71.020078,-32.782234],[-71.020495,-32.781887],[-71.020935,-32.781516],[-71.021213,-32.781331],[-71.021676,-32.781192],[-71.022001,-32.781169],[-71.02258,-32.781053],[-71.022762,-32.781005],[-71.023113,-32.780914],[-71.023298,-32.780775],[-71.023646,-32.780497],[-71.024294,-32.780265],[-71.024549,-32.78008],[-71.02492,-32.77964],[-71.02529,-32.779292],[-71.025545,-32.779061],[-71.025707,-32.779038],[-71.025916,-32.779038],[-71.026194,-32.779038],[-71.026402,-32.778806],[-71.026773,-32.778343],[-71.027005,-32.778088],[-71.027283,-32.77774],[-71.027561,-32.777416],[-71.027978,-32.777254],[-71.028441,-32.777184],[-71.028649,-32.777207],[-71.028927,-32.777138],[-71.029182,-32.776883],[-71.029252,-32.776814],[-71.029599,-32.776466],[-71.029761,-32.776165],[-71.029947,-32.775956],[-71.030155,-32.775817],[-71.030503,-32.775678],[-71.030804,-32.775563],[-71.031221,-32.7754],[-71.031224,-32.775397],[-71.034369,-32.774539],[-71.038789,-32.777464],[-71.043836,-32.776087],[-71.044461,-32.771785],[-71.04004,-32.768861],[-71.040666,-32.764559],[-71.045712,-32.763181],[-71.046337,-32.758878],[-71.04431,-32.757537],[-71.044333,-32.757354],[-71.044449,-32.756868],[-71.04468,-32.756427],[-71.044935,-32.756103],[-71.04519,-32.755617],[-71.045306,-32.755362],[-71.045607,-32.755014],[-71.045931,-32.75469],[-71.046117,-32.754273],[-71.046371,-32.753856],[-71.046603,-32.753555],[-71.046951,-32.753346],[-71.047136,-32.753161],[-71.047321,-32.752953],[-71.047576,-32.752698],[-71.047831,-32.752397],[-71.048063,-32.752095],[-71.048225,-32.751817],[-71.048456,-32.7514],[-71.048619,-32.751122],[-71.048655,-32.750978],[-71.052009,-32.753197],[-71.057055,-32.751818],[-71.05768,-32.747515],[-71.062727,-32.746136],[-71.067148,-32.74906],[-71.072195,-32.747681],[-71.07282,-32.743377],[-71.075331,-32.74269],[-71.075555,-32.742802],[-71.076037,-32.743136],[-71.076557,-32.743526],[-71.076836,-32.743693],[-71.077133,-32.743934],[-71.077634,-32.744176],[-71.078024,-32.744473],[-71.078284,-32.744863],[-71.078618,-32.745457],[-71.078971,-32.746255],[-71.079398,-32.747109],[-71.079732,-32.747722],[-71.079936,-32.748223],[-71.080066,-32.748613],[-71.080085,-32.748836],[-71.080141,-32.749003],[-71.08027,-32.749207],[-71.080679,-32.74943],[-71.080741,-32.749477],[-71.080995,-32.749671],[-71.081403,-32.749987],[-71.081417,-32.75],[-71.08183,-32.750377],[-71.08222,-32.750822],[-71.082517,-32.751157],[-71.082758,-32.751528],[-71.083148,-32.751936],[-71.083445,-32.752085],[-71.083817,-32.752159],[-71.084188,-32.752252],[-71.084615,-32.752475],[-71.085005,-32.752661],[-71.085618,-32.752902],[-71.085972,-32.75293],[-71.085461,-32.756452],[-71.080414,-32.757832],[-71.075992,-32.754908],[-71.070945,-32.756288],[-71.07032,-32.760591],[-71.074742,-32.763515],[-71.074116,-32.767818],[-71.069069,-32.769196],[-71.068444,-32.773499],[-71.063397,-32.774877],[-71.062772,-32.779179],[-71.067194,-32.782103],[-71.066569,-32.786404],[-71.061521,-32.787782],[-71.0571,-32.784858]]]},"properties":{"comuna":"Hijuelas","mancha_id":"05503-88b2c4b84bfffff","clase":"Alto","nivel_medio":2.713,"nivel_medio_min":2.501,"nivel_medio_max":2.985,"pct_alto":72.9,"n_hexagonos":30,"area_ha":1635.05}},{"type":"Feature","geometry":{"type":"Polygon","coordinates":[[[-71.049681,-32.902432],[-71.050307,-32.898139],[-71.055356,-32.896766],[-71.05978,-32.899686],[-71.064829,-32.898313],[-71.069253,-32.901233],[-71.068628,-32.905527],[-71.063578,-32.9069],[-71.059154,-32.90398],[-71.054105,-32.905353],[-71.049681,-32.902432]]]},"properties":{"comuna":"Hijuelas","mancha_id":"05503-88b2c4aa03fffff","clase":"Alto","nivel_medio":3.084,"nivel_medio_min":2.683,"nivel_medio_max":3.485,"pct_alto":69.0,"n_hexagonos":2,"area_ha":129.62}},{"type":"Feature","geometry":{"type":"Polygon","coordinates":[[[-71.170778,-32.803364],[-71.171402,-32.799062],[-71.175085,-32.798054],[-71.175081,-32.798092],[-71.174831,-32.798485],[-71.174314,-32.799038],[-71.173707,-32.799484],[-71.173368,-32.799841],[-71.173172,-32.800358],[-71.172904,-32.800858],[-71.172619,-32.801464],[-71.172262,-32.802231],[-71.171977,-32.802909],[-71.171584,-32.803427],[-71.17126,-32.803682],[-71.170778,-32.803364]]]},"properties":{"comuna":"Hijuelas","mancha_id":"05503-88b2c48cb3fffff","clase":"Alto","nivel_medio":3.088,"nivel_medio_min":3.088,"nivel_medio_max":3.088,"pct_alto":84.5,"n_hexagonos":1,"area_ha":9.26}},{"type":"Feature","geometry":{"type":"Polygon","coordinates":[[[-71.158122,-32.7903],[-71.153696,-32.787379],[-71.148646,-32.78876],[-71.148022,-32.793063],[-71.142972,-32.794444],[-71.142348,-32.798746],[-71.137298,-32.800127],[-71.136674,-32.804429],[-71.1411,-32.80735],[-71.140475,-32.811651],[-71.135425,-32.813031],[-71.131,-32.81011],[-71.12595,-32.81149],[-71.125326,-32.815791],[-71.120276,-32.81717],[-71.115851,-32.814249],[-71.110802,-32.815628],[-71.106377,-32.812706],[-71.101328,-32.814085],[-71.096905,-32.811163],[-71.091856,-32.812541],[-71.087432,-32.809619],[-71.082384,-32.810997],[-71.077961,-32.808075],[-71.078586,-32.803774],[-71.074163,-32.800852],[-71.074788,-32.796551],[-71.079836,-32.795173],[-71.084259,-32.798096],[-71.089307,-32.796717],[-71.089932,-32.792416],[-71.09498,-32.791037],[-71.095605,-32.786735],[-71.098532,-32.785936],[-71.098587,-32.786207],[-71.098971,-32.787013],[-71.099431,-32.787781],[-71.099738,-32.788165],[-71.099969,-32.788626],[-71.100161,-32.78924],[-71.100391,-32.789816],[-71.100698,-32.790238],[-71.101236,-32.790161],[-71.102004,-32.790008],[-71.102733,-32.789816],[-71.10354,-32.789586],[-71.104231,-32.78947],[-71.104845,-32.789662],[-71.104872,-32.78969],[-71.105306,-32.790123],[-71.105613,-32.79043],[-71.106227,-32.790545],[-71.106957,-32.790699],[-71.107264,-32.790968],[-71.107724,-32.791467],[-71.108185,-32.792043],[-71.108377,-32.792849],[-71.108416,-32.793655],[-71.108723,-32.794692],[-71.109346,-32.795374],[-71.109529,-32.795575],[-71.109875,-32.796305],[-71.110067,-32.796688],[-71.110642,-32.79665],[-71.11141,-32.79665],[-71.111986,-32.796727],[-71.112562,-32.796842],[-71.113292,-32.796688],[-71.113944,-32.796381],[-71.114751,-32.795921],[-71.11571,-32.795805],[-71.11625,-32.795658],[-71.116555,-32.795575],[-71.117169,-32.79546],[-71.117822,-32.795268],[-71.118436,-32.795191],[-71.119089,-32.795114],[-71.119703,-32.79473],[-71.120395,-32.794231],[-71.121124,-32.794039],[-71.122045,-32.793809],[-71.122775,-32.793502],[-71.123389,-32.79354],[-71.123713,-32.793502],[-71.124042,-32.793463],[-71.124771,-32.793118],[-71.125463,-32.792811],[-71.126038,-32.792619],[-71.126614,-32.79258],[-71.127114,-32.792619],[-71.127689,-32.792619],[-71.128342,-32.792465],[-71.129379,-32.792273],[-71.129993,-32.792158],[-71.130415,-32.791851],[-71.130991,-32.791544],[-71.131293,-32.791448],[-71.131721,-32.791313],[-71.132604,-32.791083],[-71.13341,-32.790891],[-71.134255,-32.790776],[-71.134754,-32.790814],[-71.135099,-32.790814],[-71.135407,-32.790699],[-71.135522,-32.790315],[-71.13556,-32.789739],[-71.135944,-32.789394],[-71.136482,-32.789125],[-71.136981,-32.788702],[-71.137672,-32.788165],[-71.138171,-32.787627],[-71.139016,-32.787243],[-71.139124,-32.787189],[-71.139476,-32.787013],[-71.139844,-32.787036],[-71.140091,-32.787052],[-71.140628,-32.787052],[-71.141204,-32.787013],[-71.141818,-32.786706],[-71.142394,-32.786399],[-71.143162,-32.786207],[-71.143738,-32.786168],[-71.143969,-32.785938],[-71.144247,-32.785856],[-71.144621,-32.785746],[-71.145351,-32.785554],[-71.146157,-32.785516],[-71.14704,-32.785401],[-71.147462,-32.785362],[-71.148,-32.78517],[-71.148422,-32.785055],[-71.148806,-32.784901],[-71.149728,-32.784518],[-71.150419,-32.78421],[-71.15134,-32.783865],[-71.151801,-32.78398],[-71.152338,-32.784287],[-71.152799,-32.784748],[-71.153145,-32.784978],[-71.153644,-32.785093],[-71.153989,-32.785132],[-71.154021,-32.785138],[-71.154604,-32.785247],[-71.155295,-32.785593],[-71.155832,-32.785976],[-71.156408,-32.786552],[-71.156677,-32.786552],[-71.15683,-32.78618],[-71.156857,-32.782381],[-71.15686,-32.78194],[-71.15681,-32.7818],[-71.15867,-32.77964],[-71.15962,-32.77868],[-71.159815,-32.778629],[-71.16257,-32.77791],[-71.16376,-32.78023],[-71.16464,-32.78185],[-71.16716,-32.783694],[-71.163797,-32.784614],[-71.163173,-32.788918],[-71.158122,-32.7903]],[[-71.093106,-32.803941],[-71.097529,-32.806863],[-71.102578,-32.805484],[-71.103203,-32.801183],[-71.108252,-32.799804],[-71.108876,-32.795502],[-71.104452,-32.79258],[-71.099404,-32.79396],[-71.098779,-32.798261],[-71.093731,-32.79964],[-71.093106,-32.803941]]]},"properties":{"comuna":"Hijuelas","mancha_id":"05503-88b2c48c91fffff","clase":"Alto","nivel_medio":2.753,"nivel_medio_min":2.509,"nivel_medio_max":3.423,"pct_alto":73.2,"n_hexagonos":27,"area_ha":1350.78}},{"type":"Feature","geometry":{"type":"Polygon","coordinates":[[[-71.146721,-32.88004],[-71.146685,-32.88014],[-71.146454,-32.880776],[-71.146387,-32.881411],[-71.146354,-32.881846],[-71.146153,-32.882247],[-71.145952,-32.882548],[-71.145718,-32.882983],[-71.145451,-32.883685],[-71.14515,-32.884187],[-71.144915,-32.884588],[-71.144748,-32.885023],[-71.14471,-32.885104],[-71.144389,-32.884892],[-71.139337,-32.88627],[-71.138712,-32.890566],[-71.14314,-32.893485],[-71.145556,-32.892826],[-71.145885,-32.893551],[-71.145919,-32.894153],[-71.145986,-32.89509],[-71.145934,-32.895631],[-71.145885,-32.896193],[-71.145885,-32.896795],[-71.145685,-32.897498],[-71.145484,-32.898033],[-71.145283,-32.898568],[-71.14515,-32.89917],[-71.145176,-32.899534],[-71.145183,-32.899638],[-71.145183,-32.900006],[-71.145183,-32.900407],[-71.145083,-32.900875],[-71.144915,-32.90131],[-71.144581,-32.901812],[-71.144213,-32.902715],[-71.143912,-32.903183],[-71.143879,-32.903451],[-71.14428,-32.903685],[-71.144681,-32.903986],[-71.144949,-32.904153],[-71.145618,-32.904855],[-71.145823,-32.905129],[-71.145919,-32.905257],[-71.146119,-32.905725],[-71.146153,-32.906093],[-71.146086,-32.906561],[-71.146153,-32.907196],[-71.14622,-32.907665],[-71.14642,-32.908233],[-71.146354,-32.909002],[-71.146253,-32.909805],[-71.146119,-32.910741],[-71.146119,-32.91121],[-71.146153,-32.911878],[-71.146186,-32.91238],[-71.14622,-32.913016],[-71.14622,-32.91327],[-71.145069,-32.913584],[-71.144445,-32.917878],[-71.14745,-32.919859],[-71.147457,-32.919871],[-71.147557,-32.92034],[-71.147624,-32.920708],[-71.147892,-32.920942],[-71.148327,-32.921209],[-71.148661,-32.921644],[-71.148735,-32.921742],[-71.149062,-32.922179],[-71.14943,-32.922614],[-71.149798,-32.923182],[-71.150032,-32.924052],[-71.150133,-32.924754],[-71.1503,-32.92539],[-71.150501,-32.925958],[-71.150835,-32.92656],[-71.150935,-32.926861],[-71.151103,-32.927363],[-71.15134,-32.927947],[-71.151638,-32.9286],[-71.151905,-32.929102],[-71.151437,-32.929537],[-71.151002,-32.929771],[-71.150501,-32.930139],[-71.149932,-32.930507],[-71.149163,-32.930707],[-71.148226,-32.930975],[-71.147792,-32.931109],[-71.147123,-32.931577],[-71.146487,-32.932379],[-71.146153,-32.932747],[-71.145952,-32.932988],[-71.145651,-32.933349],[-71.145116,-32.933751],[-71.144481,-32.934353],[-71.143979,-32.935122],[-71.143711,-32.935824],[-71.143611,-32.936593],[-71.143477,-32.937429],[-71.14331,-32.938266],[-71.14331,-32.938805],[-71.14331,-32.938915],[-71.14313,-32.93972],[-71.142909,-32.940372],[-71.142781,-32.941019],[-71.142447,-32.941187],[-71.141778,-32.941354],[-71.141176,-32.941521],[-71.140996,-32.941585],[-71.140139,-32.941889],[-71.139069,-32.942123],[-71.138133,-32.942357],[-71.137297,-32.942591],[-71.13626,-32.943026],[-71.135089,-32.94336],[-71.134119,-32.943528],[-71.133546,-32.943632],[-71.131217,-32.942097],[-71.126164,-32.943471],[-71.121737,-32.940554],[-71.122362,-32.936261],[-71.127414,-32.934886],[-71.128039,-32.930593],[-71.123611,-32.927675],[-71.124236,-32.923382],[-71.119809,-32.920464],[-71.120434,-32.91617],[-71.116008,-32.913251],[-71.110956,-32.914627],[-71.110331,-32.91892],[-71.114758,-32.921839],[-71.114133,-32.926132],[-71.11856,-32.92905],[-71.117935,-32.933343],[-71.112883,-32.934718],[-71.112258,-32.93901],[-71.116685,-32.941928],[-71.11606,-32.94622],[-71.111008,-32.947594],[-71.110383,-32.951886],[-71.11481,-32.954803],[-71.114185,-32.959095],[-71.116019,-32.960303],[-71.115852,-32.960511],[-71.115612,-32.960692],[-71.115402,-32.960842],[-71.115221,-32.961052],[-71.115101,-32.961323],[-71.114891,-32.961804],[-71.114861,-32.962104],[-71.11468,-32.962285],[-71.11441,-32.962435],[-71.114079,-32.962585],[-71.113779,-32.962736],[-71.113538,-32.963006],[-71.113538,-32.963277],[-71.113358,-32.963637],[-71.113207,-32.963938],[-71.113087,-32.964419],[-71.112727,-32.96517],[-71.112396,-32.965531],[-71.111795,-32.965922],[-71.111194,-32.966463],[-71.111155,-32.966504],[-71.110322,-32.967394],[-71.110052,-32.967695],[-71.109691,-32.968056],[-71.10927,-32.968326],[-71.108729,-32.968837],[-71.108068,-32.969258],[-71.107797,-32.969348],[-71.107437,-32.969468],[-71.107076,-32.969679],[-71.106535,-32.969829],[-71.105783,-32.97019],[-71.105423,-32.97037],[-71.105032,-32.97055],[-71.104701,-32.970761],[-71.104281,-32.971121],[-71.104093,-32.971254],[-71.10377,-32.971482],[-71.103529,-32.971753],[-71.103259,-32.972173],[-71.103168,-32.972474],[-71.102988,-32.973045],[-71.102898,-32.973526],[-71.102808,-32.973977],[-71.102567,-32.974217],[-71.102327,-32.974548],[-71.102117,-32.974818],[-71.101606,-32.975059],[-71.101065,-32.97545],[-71.100734,-32.975931],[-71.100433,-32.976201],[-71.100043,-32.976472],[-71.099652,-32.976562],[-71.099381,-32.976562],[-71.09893,-32.976562],[-71.09857,-32.976472],[-71.098149,-32.976532],[-71.097983,-32.976631],[-71.097848,-32.976712],[-71.097548,-32.977013],[-71.096977,-32.977463],[-71.096496,-32.977644],[-71.096075,-32.977674],[-71.095564,-32.977854],[-71.095023,-32.978095],[-71.094602,-32.978155],[-71.094272,-32.977974],[-71.093701,-32.978065],[-71.09319,-32.978215],[-71.092829,-32.978245],[-71.092498,-32.978245],[-71.091987,-32.978425],[-71.09196,-32.978425],[-71.091567,-32.978425],[-71.091056,-32.978576],[-71.090695,-32.978816],[-71.090274,-32.978966],[-71.089673,-32.978966],[-71.089072,-32.978906],[-71.088411,-32.978606],[-71.087809,-32.978125],[-71.087238,-32.977914],[-71.086517,-32.977674],[-71.085976,-32.977313],[-71.085585,-32.977073],[-71.085255,-32.976712],[-71.084924,-32.976562],[-71.084203,-32.976411],[-71.083601,-32.976351],[-71.083601,-32.976111],[-71.083301,-32.976201],[-71.08282,-32.976321],[-71.082541,-32.976474],[-71.082489,-32.976502],[-71.082069,-32.976682],[-71.081467,-32.976952],[-71.081227,-32.977103],[-71.080806,-32.977193],[-71.080325,-32.977193],[-71.079814,-32.977133],[-71.079333,-32.977163],[-71.078762,-32.977223],[-71.078522,-32.977403],[-71.078342,-32.977614],[-71.078101,-32.977944],[-71.077951,-32.978305],[-71.07774,-32.979056],[-71.07756,-32.979838],[-71.07747,-32.980379],[-71.07747,-32.9808],[-71.077139,-32.981371],[-71.076865,-32.981517],[-71.076688,-32.981611],[-71.076208,-32.981882],[-71.075606,-32.982062],[-71.074825,-32.982212],[-71.074344,-32.982423],[-71.073923,-32.982513],[-71.073532,-32.982693],[-71.072991,-32.982814],[-71.072601,-32.982964],[-71.07212,-32.983234],[-71.071729,-32.983535],[-71.071308,-32.983745],[-71.071038,-32.983926],[-71.070527,-32.984046],[-71.070196,-32.984226],[-71.069835,-32.984377],[-71.069385,-32.984437],[-71.068994,-32.984617],[-71.068693,-32.984797],[-71.068333,-32.985008],[-71.067921,-32.985022],[-71.067491,-32.985038],[-71.06686,-32.985008],[-71.066259,-32.984978],[-71.065778,-32.984978],[-71.065086,-32.985008],[-71.064365,-32.985218],[-71.063884,-32.985218],[-71.063502,-32.985218],[-71.066843,-32.984312],[-71.067469,-32.980023],[-71.063043,-32.977105],[-71.057992,-32.978475],[-71.057366,-32.982764],[-71.059286,-32.984029],[-71.059255,-32.984016],[-71.058744,-32.983805],[-71.058053,-32.983986],[-71.057482,-32.984196],[-71.057182,-32.984407],[-71.05664,-32.984677],[-71.056099,-32.984827],[-71.055859,-32.985008],[-71.055468,-32.985248],[-71.055168,-32.985248],[-71.054717,-32.985398],[-71.054236,-32.985549],[-71.053424,-32.985849],[-71.052823,-32.98609],[-71.052252,-32.98636],[-71.05197,-32.986501],[-71.052316,-32.984134],[-71.047891,-32.981215],[-71.04284,-32.982585],[-71.038416,-32.979666],[-71.033365,-32.981035],[-71.028941,-32.978116],[-71.023892,-32.979485],[-71.023265,-32.983773],[-71.027689,-32.986692],[-71.032739,-32.985323],[-71.037164,-32.988242],[-71.036951,-32.9897],[-71.036923,-32.989697],[-71.036442,-32.989426],[-71.036082,-32.989396],[-71.035751,-32.989276],[-71.03533,-32.989186],[-71.034849,-32.989005],[-71.034459,-32.988825],[-71.033767,-32.988735],[-71.033136,-32.988735],[-71.032415,-32.988735],[-71.031934,-32.988645],[-71.031513,-32.988645],[-71.030912,-32.988645],[-71.030401,-32.988765],[-71.02995,-32.988855],[-71.029499,-32.988855],[-71.028748,-32.988855],[-71.028207,-32.988855],[-71.027876,-32.988795],[-71.027397,-32.988695],[-71.02713,-32.988639],[-71.026527,-32.988233],[-71.026003,-32.987953],[-71.02556,-32.987568],[-71.024661,-32.986318],[-71.023698,-32.985707],[-71.022491,-32.984883],[-71.022142,-32.984265],[-71.022045,-32.984104],[-71.021857,-32.983787],[-71.021807,-32.982877],[-71.021367,-32.982057],[-71.020967,-32.981657],[-71.020197,-32.981307],[-71.019447,-32.980957],[-71.019129,-32.98061],[-71.019047,-32.980023],[-71.018969,-32.97947],[-71.018062,-32.978672],[-71.016918,-32.97728],[-71.0169,-32.977262],[-71.016327,-32.976676],[-71.015358,-32.97613],[-71.014899,-32.976],[-71.014239,-32.97624],[-71.013071,-32.976411],[-71.013277,-32.97614],[-71.013532,-32.975768],[-71.013772,-32.97512],[-71.013864,-32.974872],[-71.013818,-32.974456],[-71.013766,-32.97398],[-71.013729,-32.973637],[-71.013787,-32.97305],[-71.01371,-32.972741],[-71.013741,-32.972278],[-71.013648,-32.97183],[-71.013614,-32.971663],[-71.01354,-32.97132],[-71.013447,-32.970841],[-71.01337,-32.970331],[-71.013324,-32.970115],[-71.01329,-32.970004],[-71.013216,-32.96976],[-71.013061,-32.969481],[-71.012876,-32.969111],[-71.012659,-32.968709],[-71.012381,-32.968369],[-71.012165,-32.96806],[-71.011964,-32.967689],[-71.011763,-32.96738],[-71.011593,-32.966948],[-71.011393,-32.9665],[-71.011099,-32.965897],[-71.010898,-32.965418],[-71.010759,-32.964986],[-71.01062,-32.964692],[-71.01062,-32.964491],[-71.010682,-32.964352],[-71.01079,-32.964152],[-71.010991,-32.963796],[-71.011192,-32.963302],[-71.011285,-32.963008],[-71.011501,-32.962267],[-71.011503,-32.962251],[-71.011874,-32.96215],[-71.012396,-32.958578],[-71.012397,-32.958574],[-71.012505,-32.958157],[-71.012581,-32.957839],[-71.01755,-32.956492],[-71.018176,-32.952203],[-71.023225,-32.950833],[-71.027649,-32.953753],[-71.032698,-32.952383],[-71.033324,-32.948093],[-71.028901,-32.945173],[-71.023851,-32.946543],[-71.019428,-32.943623],[-71.01438,-32.944993],[-71.011009,-32.942767],[-71.011622,-32.942358],[-71.012364,-32.941849],[-71.013082,-32.941501],[-71.013684,-32.940992],[-71.013916,-32.940806],[-71.014402,-32.940482],[-71.015097,-32.939926],[-71.015561,-32.939625],[-71.015931,-32.939439],[-71.016163,-32.939439],[-71.016395,-32.93937],[-71.016696,-32.939231],[-71.016974,-32.938953],[-71.017136,-32.938605],[-71.017205,-32.938235],[-71.017275,-32.93805],[-71.017275,-32.937887],[-71.017275,-32.937679],[-71.017296,-32.937511],[-71.017298,-32.937494],[-71.017669,-32.937192],[-71.018039,-32.936891],[-71.018364,-32.936521],[-71.018618,-32.936173],[-71.018966,-32.935687],[-71.019313,-32.9352],[-71.019568,-32.934945],[-71.019754,-32.934714],[-71.019869,-32.934459],[-71.020055,-32.934134],[-71.020286,-32.933856],[-71.020518,-32.933509],[-71.020634,-32.933092],[-71.020588,-32.932443],[-71.020564,-32.932026],[-71.020727,-32.93147],[-71.021097,-32.930868],[-71.021172,-32.930788],[-71.021326,-32.930623],[-71.021422,-32.930521],[-71.021746,-32.930405],[-71.022186,-32.930196],[-71.022812,-32.929895],[-71.023275,-32.929826],[-71.023646,-32.929663],[-71.024155,-32.929432],[-71.024618,-32.929084],[-71.025221,-32.928621],[-71.02573,-32.928204],[-71.026078,-32.927764],[-71.026356,-32.927439],[-71.026819,-32.927022],[-71.027306,-32.926675],[-71.027653,-32.92649],[-71.028209,-32.926374],[-71.028632,-32.926179],[-71.028812,-32.926096],[-71.029298,-32.925725],[-71.029808,-32.925262],[-71.030225,-32.924775],[-71.03048,-32.924266],[-71.030572,-32.923826],[-71.030433,-32.923154],[-71.030341,-32.922389],[-71.030178,-32.921787],[-71.030039,-32.921138],[-71.029947,-32.920629],[-71.029896,-32.920176],[-71.032657,-32.919427],[-71.033283,-32.915134],[-71.030589,-32.913356],[-71.030688,-32.912683],[-71.030734,-32.911802],[-71.030758,-32.9112],[-71.030781,-32.910853],[-71.030688,-32.910134],[-71.030572,-32.909509],[-71.030526,-32.909092],[-71.030526,-32.908605],[-71.030364,-32.908026],[-71.030307,-32.907698],[-71.030271,-32.907493],[-71.030109,-32.906961],[-71.029877,-32.906381],[-71.029692,-32.905895],[-71.029391,-32.905385],[-71.029136,-32.905015],[-71.028927,-32.904667],[-71.028788,-32.904204],[-71.028788,-32.903833],[-71.028835,-32.903509],[-71.028904,-32.903115],[-71.028904,-32.902559],[-71.028904,-32.902142],[-71.028835,-32.901679],[-71.028742,-32.901007],[-71.028742,-32.900405],[-71.028835,-32.900173],[-71.028974,-32.899815],[-71.028997,-32.899756],[-71.029159,-32.899339],[-71.029321,-32.898945],[-71.029507,-32.898598],[-71.029692,-32.898134],[-71.029831,-32.897787],[-71.02997,-32.897463],[-71.030086,-32.897161],[-71.030132,-32.89693],[-71.030294,-32.896536],[-71.03041,-32.896049],[-71.030572,-32.895447],[-71.030804,-32.895053],[-71.030975,-32.894785],[-71.031174,-32.894474],[-71.031522,-32.893872],[-71.031754,-32.893362],[-71.032032,-32.892922],[-71.032263,-32.892297],[-71.032541,-32.891717],[-71.032727,-32.891185],[-71.032819,-32.890629],[-71.03312,-32.889934],[-71.033375,-32.889331],[-71.033723,-32.888868],[-71.034024,-32.888428],[-71.034302,-32.888034],[-71.034557,-32.887737],[-71.03458,-32.88771],[-71.034812,-32.887316],[-71.035113,-32.886922],[-71.035414,-32.886528],[-71.035715,-32.886111],[-71.036086,-32.88537],[-71.03641,-32.88486],[-71.036758,-32.884397],[-71.036966,-32.884073],[-71.037221,-32.883563],[-71.037522,-32.883146],[-71.037777,-32.882798],[-71.037985,-32.882474],[-71.03824,-32.882057],[-71.038263,-32.881918],[-71.038286,-32.881501],[-71.03824,-32.881177],[-71.038082,-32.880844],[-71.038008,-32.88069],[-71.037661,-32.880088],[-71.03736,-32.879578],[-71.036897,-32.878791],[-71.036503,-32.878188],[-71.036132,-32.877563],[-71.035622,-32.876798],[-71.035344,-32.876405],[-71.03502,-32.875779],[-71.034835,-32.875269],[-71.034788,-32.874737],[-71.034765,-32.874088],[-71.034712,-32.873715],[-71.034696,-32.873601],[-71.034603,-32.873231],[-71.034559,-32.873117],[-71.034371,-32.872629],[-71.034093,-32.872026],[-71.034001,-32.871702],[-71.034001,-32.871215],[-71.033978,-32.870752],[-71.033978,-32.870266],[-71.033978,-32.869918],[-71.034093,-32.869501],[-71.034093,-32.869154],[-71.034047,-32.868574],[-71.034046,-32.868567],[-71.033978,-32.867949],[-71.033931,-32.867393],[-71.033839,-32.867092],[-71.033769,-32.866675],[-71.033676,-32.866281],[-71.033375,-32.865771],[-71.033005,-32.865354],[-71.032819,-32.864914],[-71.032657,-32.864474],[-71.032727,-32.864127],[-71.032912,-32.863825],[-71.03319,-32.863408],[-71.033468,-32.863015],[-71.0337,-32.862528],[-71.033862,-32.861995],[-71.034001,-32.861393],[-71.034012,-32.861326],[-71.034093,-32.86086],[-71.034163,-32.86035],[-71.034163,-32.859957],[-71.03414,-32.859169],[-71.034117,-32.858822],[-71.034047,-32.858474],[-71.034024,-32.858103],[-71.033978,-32.857547],[-71.034047,-32.857107],[-71.03414,-32.856505],[-71.034325,-32.855694],[-71.03451,-32.855092],[-71.034607,-32.85481],[-71.036996,-32.856389],[-71.042044,-32.855014],[-71.046467,-32.857936],[-71.045841,-32.862233],[-71.050264,-32.865154],[-71.055312,-32.86378],[-71.059735,-32.866701],[-71.064784,-32.865327],[-71.069207,-32.868248],[-71.068582,-32.872544],[-71.073006,-32.875464],[-71.072381,-32.87976],[-71.067331,-32.881134],[-71.062908,-32.878214],[-71.057859,-32.879588],[-71.057233,-32.883883],[-71.052184,-32.885256],[-71.051558,-32.889551],[-71.04651,-32.890924],[-71.045884,-32.895218],[-71.040835,-32.896591],[-71.040209,-32.900884],[-71.044632,-32.903805],[-71.044007,-32.908098],[-71.038958,-32.90947],[-71.038332,-32.913763],[-71.042755,-32.916683],[-71.042129,-32.920975],[-71.046553,-32.923896],[-71.045927,-32.928187],[-71.050351,-32.931107],[-71.0554,-32.929736],[-71.056026,-32.925444],[-71.061076,-32.924071],[-71.0655,-32.926991],[-71.070551,-32.925618],[-71.071176,-32.921326],[-71.076226,-32.919953],[-71.076852,-32.91566],[-71.081902,-32.914286],[-71.082527,-32.909993],[-71.078102,-32.907073],[-71.078728,-32.902779],[-71.074303,-32.899859],[-71.074929,-32.895565],[-71.079978,-32.894191],[-71.084403,-32.897111],[-71.089453,-32.895736],[-71.093878,-32.898656],[-71.093253,-32.90295],[-71.097679,-32.905869],[-71.102729,-32.904494],[-71.103354,-32.9002],[-71.108405,-32.898824],[-71.112831,-32.901744],[-71.117882,-32.900368],[-71.122309,-32.903287],[-71.12736,-32.901911],[-71.127985,-32.897615],[-71.133036,-32.896239],[-71.133661,-32.891943],[-71.129234,-32.889024],[-71.124183,-32.890401],[-71.119757,-32.887482],[-71.120382,-32.883186],[-71.125432,-32.881809],[-71.126057,-32.877513],[-71.131108,-32.876135],[-71.131733,-32.871838],[-71.136784,-32.870461],[-71.137408,-32.866163],[-71.142459,-32.864785],[-71.143084,-32.860487],[-71.144774,-32.860026],[-71.145,-32.860396],[-71.145321,-32.860878],[-71.145678,-32.861556],[-71.14591,-32.862251],[-71.146035,-32.862947],[-71.146177,-32.863714],[-71.146249,-32.864375],[-71.146338,-32.864963],[-71.146338,-32.865302],[-71.146266,-32.865873],[-71.146124,-32.866266],[-71.145856,-32.866641],[-71.145646,-32.866886],[-71.145642,-32.86689],[-71.14548,-32.86726],[-71.145484,-32.867833],[-71.145651,-32.868535],[-71.145919,-32.869137],[-71.146053,-32.869672],[-71.146287,-32.870107],[-71.146464,-32.870613],[-71.146521,-32.870776],[-71.146788,-32.871445],[-71.147022,-32.872248],[-71.147095,-32.872551],[-71.147223,-32.873084],[-71.147457,-32.873886],[-71.147524,-32.87489],[-71.147557,-32.875759],[-71.147624,-32.876629],[-71.147557,-32.877298],[-71.147457,-32.878033],[-71.147323,-32.878468],[-71.147223,-32.878869],[-71.147142,-32.879613],[-71.146721,-32.88004]],[[-71.080699,-32.955832],[-71.076273,-32.952914],[-71.071222,-32.954286],[-71.070597,-32.958576],[-71.075022,-32.961494],[-71.080073,-32.960123],[-71.080699,-32.955832]],[[-71.091378,-32.915831],[-71.095803,-32.918751],[-71.100854,-32.917376],[-71.101479,-32.913083],[-71.097054,-32.910163],[-71.092003,-32.911538],[-71.091378,-32.915831]],[[-71.020094,-32.972278],[-71.025144,-32.970909],[-71.02577,-32.96662],[-71.021347,-32.963701],[-71.016297,-32.96507],[-71.015671,-32.969358],[-71.020094,-32.972278]]]},"properties":{"comuna":"Hijuelas","mancha_id":"05503-88b2c41691fffff","clase":"Alto","nivel_medio":3.06,"nivel_medio_min":2.502,"nivel_medio_max":3.499,"pct_alto":91.2,"n_hexagonos":163,"area_ha":9080.78}},{"type":"Feature","geometry":{"type":"Polygon","coordinates":[[[-71.011009,-32.942767],[-71.01438,-32.944993],[-71.019428,-32.943623],[-71.023851,-32.946543],[-71.028901,-32.945173],[-71.033324,-32.948093],[-71.032698,-32.952383],[-71.027649,-32.953753],[-71.023225,-32.950833],[-71.018176,-32.952203],[-71.01755,-32.956492],[-71.012581,-32.957839],[-71.012582,-32.957833],[-71.012721,-32.957539],[-71.012721,-32.95723],[-71.012706,-32.957076],[-71.012659,-32.956891],[-71.012443,-32.956721],[-71.012165,-32.956396],[-71.011779,-32.956118],[-71.011516,-32.955809],[-71.011145,-32.955531],[-71.010806,-32.955438],[-71.010404,-32.955268],[-71.009987,-32.955052],[-71.009446,-32.954774],[-71.008983,-32.954511],[-71.008581,-32.954341],[-71.008185,-32.954207],[-71.007901,-32.95411],[-71.00733,-32.953909],[-71.007012,-32.953779],[-71.006711,-32.95371],[-71.006387,-32.953594],[-71.006039,-32.953524],[-71.005692,-32.953385],[-71.005437,-32.953293],[-71.00502,-32.953246],[-71.004742,-32.953177],[-71.004371,-32.953038],[-71.00414,-32.952876],[-71.003862,-32.952737],[-71.0037,-32.952528],[-71.0037,-32.952204],[-71.003746,-32.951972],[-71.003862,-32.951579],[-71.00414,-32.951069],[-71.00414,-32.950768],[-71.003908,-32.950235],[-71.003746,-32.949864],[-71.003607,-32.949355],[-71.003561,-32.949007],[-71.003514,-32.948729],[-71.003769,-32.948289],[-71.004093,-32.947941],[-71.004295,-32.94774],[-71.004557,-32.947478],[-71.005182,-32.946806],[-71.005761,-32.946181],[-71.006294,-32.945694],[-71.006943,-32.945161],[-71.007916,-32.944629],[-71.008981,-32.944003],[-71.009746,-32.943586],[-71.010719,-32.942961],[-71.011009,-32.942767]]]},"properties":{"comuna":"Hijuelas","mancha_id":"05503-88b2c4aa95fffff","clase":"Muy Alto","nivel_medio":3.622,"nivel_medio_min":3.562,"nivel_medio_max":3.687,"pct_alto":97.1,"n_hexagonos":5,"area_ha":261.5}},{"type":"Feature","geometry":{"type":"Polygon","coordinates":[[[-71.044007,-32.908098],[-71.044632,-32.903805],[-71.049681,-32.902432],[-71.054105,-32.905353],[-71.059154,-32.90398],[-71.063578,-32.9069],[-71.068628,-32.905527],[-71.073052,-32.908447],[-71.078102,-32.907073],[-71.082527,-32.909993],[-71.081902,-32.914286],[-71.076852,-32.91566],[-71.076226,-32.919953],[-71.071176,-32.921326],[-71.070551,-32.925618],[-71.0655,-32.926991],[-71.061076,-32.924071],[-71.056026,-32.925444],[-71.0554,-32.929736],[-71.050351,-32.931107],[-71.045927,-32.928187],[-71.046553,-32.923896],[-71.042129,-32.920975],[-71.042755,-32.916683],[-71.038332,-32.913763],[-71.038958,-32.90947],[-71.044007,-32.908098]]]},"properties":{"comuna":"Hijuelas","mancha_id":"05503-88b2c4aa15fffff","clase":"Muy Alto","nivel_medio":3.865,"nivel_medio_min":3.537,"nivel_medio_max":3.992,"pct_alto":97.8,"n_hexagonos":12,"area_ha":777.49}},{"type":"Feature","geometry":{"type":"Polygon","coordinates":[[[-71.126164,-32.943471],[-71.131217,-32.942097],[-71.133546,-32.943632],[-71.133416,-32.943655],[-71.133045,-32.943764],[-71.132715,-32.943929],[-71.13228,-32.94423],[-71.131812,-32.944498],[-71.130775,-32.9452],[-71.130073,-32.945735],[-71.129638,-32.94617],[-71.129002,-32.946638],[-71.128334,-32.947073],[-71.127732,-32.947508],[-71.126929,-32.947942],[-71.126268,-32.948244],[-71.125539,-32.947764],[-71.126164,-32.943471]]]},"properties":{"comuna":"Hijuelas","mancha_id":"05503-88b2c4a951fffff","clase":"Muy Alto","nivel_medio":3.658,"nivel_medio_min":3.658,"nivel_medio_max":3.658,"pct_alto":99.3,"n_hexagonos":1,"area_ha":25.48}},{"type":"Feature","geometry":{"type":"Polygon","coordinates":[[[-71.067469,-32.980023],[-71.066843,-32.984312],[-71.063502,-32.985218],[-71.063133,-32.985218],[-71.062381,-32.985008],[-71.06193,-32.984948],[-71.061359,-32.984857],[-71.060879,-32.984677],[-71.060428,-32.984527],[-71.059857,-32.984286],[-71.059286,-32.984029],[-71.057366,-32.982764],[-71.057992,-32.978475],[-71.063043,-32.977105],[-71.067469,-32.980023]]]},"properties":{"comuna":"Hijuelas","mancha_id":"05503-88b2c4a8e3fffff","clase":"Muy Alto","nivel_medio":3.638,"nivel_medio_min":3.638,"nivel_medio_max":3.638,"pct_alto":98.9,"n_hexagonos":1,"area_ha":63.23}},{"type":"Feature","geometry":{"type":"Polygon","coordinates":[[[-71.015671,-32.969358],[-71.016297,-32.96507],[-71.021347,-32.963701],[-71.02577,-32.96662],[-71.025144,-32.970909],[-71.020094,-32.972278],[-71.015671,-32.969358]]]},"properties":{"comuna":"Hijuelas","mancha_id":"05503-88b2c4a8d9fffff","clase":"Muy Alto","nivel_medio":3.595,"nivel_medio_min":3.595,"nivel_medio_max":3.595,"pct_alto":99.2,"n_hexagonos":1,"area_ha":64.69}},{"type":"Feature","geometry":{"type":"Polygon","coordinates":[[[-71.047891,-32.981215],[-71.052316,-32.984134],[-71.05197,-32.986501],[-71.051771,-32.986601],[-71.051411,-32.986781],[-71.05099,-32.986991],[-71.050449,-32.987292],[-71.050088,-32.987532],[-71.049667,-32.987743],[-71.049126,-32.988074],[-71.048555,-32.988494],[-71.048044,-32.988735],[-71.047563,-32.988945],[-71.047112,-32.989156],[-71.046481,-32.989216],[-71.046211,-32.989456],[-71.046164,-32.989478],[-71.045429,-32.989817],[-71.044798,-32.990117],[-71.044017,-32.990177],[-71.043295,-32.990208],[-71.042484,-32.990358],[-71.041822,-32.990298],[-71.041342,-32.990177],[-71.040831,-32.990147],[-71.04044,-32.990147],[-71.039929,-32.990117],[-71.039268,-32.990027],[-71.038666,-32.989877],[-71.038035,-32.989847],[-71.037344,-32.989757],[-71.036951,-32.9897],[-71.037164,-32.988242],[-71.032739,-32.985323],[-71.027689,-32.986692],[-71.023265,-32.983773],[-71.023892,-32.979485],[-71.028941,-32.978116],[-71.033365,-32.981035],[-71.038416,-32.979666],[-71.04284,-32.982585],[-71.047891,-32.981215]]]},"properties":{"comuna":"Hijuelas","mancha_id":"05503-88b2c4a881fffff","clase":"Muy Alto","nivel_medio":3.624,"nivel_medio_min":3.517,"nivel_medio_max":3.72,"pct_alto":99.0,"n_hexagonos":4,"area_ha":208.97}},{"type":"Feature","geometry":{"type":"Polygon","coordinates":[[[-71.112258,-32.93901],[-71.112883,-32.934718],[-71.117935,-32.933343],[-71.11856,-32.92905],[-71.114133,-32.926132],[-71.114758,-32.921839],[-71.110331,-32.91892],[-71.110956,-32.914627],[-71.116008,-32.913251],[-71.120434,-32.91617],[-71.119809,-32.920464],[-71.124236,-32.923382],[-71.123611,-32.927675],[-71.128039,-32.930593],[-71.127414,-32.934886],[-71.122362,-32.936261],[-71.121737,-32.940554],[-71.116685,-32.941928],[-71.112258,-32.93901]]]},"properties":{"comuna":"Hijuelas","mancha_id":"05503-88b2c4a865fffff","clase":"Muy Alto","nivel_medio":3.626,"nivel_medio_min":3.561,"nivel_medio_max":3.78,"pct_alto":99.1,"n_hexagonos":4,"area_ha":259.26}},{"type":"Feature","geometry":{"type":"Polygon","coordinates":[[[-71.070597,-32.958576],[-71.071222,-32.954286],[-71.076273,-32.952914],[-71.080699,-32.955832],[-71.080073,-32.960123],[-71.075022,-32.961494],[-71.070597,-32.958576]]]},"properties":{"comuna":"Hijuelas","mancha_id":"05503-88b2c4a815fffff","clase":"Muy Alto","nivel_medio":3.553,"nivel_medio_min":3.553,"nivel_medio_max":3.553,"pct_alto":100.0,"n_hexagonos":1,"area_ha":64.74}},{"type":"Feature","geometry":{"type":"Polygon","coordinates":[[[-71.176822,-32.79513],[-71.177076,-32.793376],[-71.178744,-32.79292],[-71.178685,-32.793168],[-71.178346,-32.793542],[-71.177704,-32.794238],[-71.177204,-32.79472],[-71.176822,-32.79513]]]},"properties":{"comuna":"Hijuelas","mancha_id":"05503-88b2c48cb1fffff","clase":"Muy Alto","nivel_medio":3.897,"nivel_medio_min":3.897,"nivel_medio_max":3.897,"pct_alto":97.4,"n_hexagonos":1,"area_ha":1.67}}],"bbox":[-71.17964,-32.99036,-71.00349,-32.73513]}