{"type":"FeatureCollection","features":[{"type":"Feature","geometry":{"type":"Polygon","coordinates":[[[-71.202955,-32.782155],[-71.207383,-32.785075],[-71.212435,-32.783691],[-71.216863,-32.786611],[-71.21624,-32.790915],[-71.220669,-32.793834],[-71.225721,-32.792449],[-71.227875,-32.793869],[-71.227747,-32.793928],[-71.226865,-32.794334],[-71.226287,-32.794607],[-71.225969,-32.794758],[-71.224425,-32.795489],[-71.223739,-32.795783],[-71.223528,-32.795883],[-71.220142,-32.797468],[-71.218964,-32.79802],[-71.218086,-32.798432],[-71.216837,-32.799017],[-71.216571,-32.799141],[-71.215472,-32.799656],[-71.214938,-32.799907],[-71.214993,-32.799522],[-71.210565,-32.796603],[-71.205513,-32.797987],[-71.201085,-32.795067],[-71.196033,-32.796451],[-71.191606,-32.793531],[-71.192229,-32.789227],[-71.187802,-32.786307],[-71.188426,-32.782003],[-71.193477,-32.780619],[-71.197904,-32.783539],[-71.202955,-32.782155]]]},"properties":{"comuna":"Calera","mancha_id":"05502-88b2c48ca1fffff","clase":"Muy Bajo","nivel_medio":0.245,"nivel_medio_min":0.085,"nivel_medio_max":0.409,"pct_alto":6.6,"n_hexagonos":8,"area_ha":408.56}},{"type":"Feature","geometry":{"type":"Polygon","coordinates":[[[-71.136984,-32.835695],[-71.136729,-32.837453],[-71.136117,-32.83762],[-71.136114,-32.837523],[-71.136168,-32.836862],[-71.136578,-32.836184],[-71.136984,-32.835695]]]},"properties":{"comuna":"Calera","mancha_id":"05502-88b2c4b93bfffff","clase":"Bajo","nivel_medio":0.911,"nivel_medio_min":0.911,"nivel_medio_max":0.911,"pct_alto":1.7,"n_hexagonos":1,"area_ha":0.87}},{"type":"Feature","geometry":{"type":"Polygon","coordinates":[[[-71.167034,-32.829172],[-71.171461,-32.832092],[-71.17123,-32.833682],[-71.170566,-32.833842],[-71.169967,-32.834141],[-71.169547,-32.834321],[-71.169067,-32.834621],[-71.168857,-32.834951],[-71.168528,-32.835311],[-71.168348,-32.835551],[-71.167868,-32.83597],[-71.167058,-32.83636],[-71.166549,-32.8366],[-71.166039,-32.83675],[-71.165709,-32.83696],[-71.165589,-32.83726],[-71.165589,-32.8375],[-71.165529,-32.837603],[-71.161359,-32.834853],[-71.161983,-32.830553],[-71.167034,-32.829172]]]},"properties":{"comuna":"Calera","mancha_id":"05502-88b2c4b927fffff","clase":"Bajo","nivel_medio":1.29,"nivel_medio_min":1.29,"nivel_medio_max":1.29,"pct_alto":4.7,"n_hexagonos":1,"area_ha":55.41}},{"type":"Feature","geometry":{"type":"Polygon","coordinates":[[[-71.21624,-32.790915],[-71.216863,-32.786611],[-71.221915,-32.785226],[-71.226344,-32.788145],[-71.225721,-32.792449],[-71.220669,-32.793834],[-71.21624,-32.790915]]]},"properties":{"comuna":"Calera","mancha_id":"05502-88b2c48d99fffff","clase":"Bajo","nivel_medio":1.394,"nivel_medio_min":1.394,"nivel_medio_max":1.394,"pct_alto":39.1,"n_hexagonos":1,"area_ha":65.08}},{"type":"Feature","geometry":{"type":"Polygon","coordinates":[[[-71.156193,-32.770164],[-71.151767,-32.767243],[-71.152286,-32.763661],[-71.152805,-32.763559],[-71.153436,-32.763339],[-71.153579,-32.76329],[-71.153747,-32.763257],[-71.154251,-32.76316],[-71.154437,-32.763147],[-71.154821,-32.763121],[-71.155518,-32.763059],[-71.156134,-32.763],[-71.156532,-32.762874],[-71.156828,-32.762781],[-71.157381,-32.762516],[-71.157546,-32.762432],[-71.157582,-32.762414],[-71.157875,-32.76237],[-71.158247,-32.762389],[-71.158995,-32.762581],[-71.161866,-32.764477],[-71.161242,-32.768782],[-71.156193,-32.770164]]]},"properties":{"comuna":"Calera","mancha_id":"05502-88b2c48cd1fffff","clase":"Bajo","nivel_medio":1.381,"nivel_medio_min":1.381,"nivel_medio_max":1.381,"pct_alto":17.8,"n_hexagonos":1,"area_ha":59.87}},{"type":"Feature","geometry":{"type":"Polygon","coordinates":[[[-71.182127,-32.791994],[-71.182751,-32.78769],[-71.187802,-32.786307],[-71.192229,-32.789227],[-71.191606,-32.793531],[-71.186555,-32.794914],[-71.182127,-32.791994]]]},"properties":{"comuna":"Calera","mancha_id":"05502-88b2c48cbdfffff","clase":"Bajo","nivel_medio":0.827,"nivel_medio_min":0.827,"nivel_medio_max":0.827,"pct_alto":21.9,"n_hexagonos":1,"area_ha":65.06}},{"type":"Feature","geometry":{"type":"Polygon","coordinates":[[[-71.183998,-32.779082],[-71.184622,-32.774778],[-71.189673,-32.773394],[-71.190296,-32.76909],[-71.185869,-32.766169],[-71.186066,-32.764814],[-71.187542,-32.764833],[-71.187543,-32.764833],[-71.193672,-32.76488],[-71.193886,-32.76364],[-71.194275,-32.76381],[-71.194855,-32.764017],[-71.195373,-32.764203],[-71.195746,-32.764348],[-71.19583,-32.764371],[-71.196057,-32.764431],[-71.196637,-32.764597],[-71.197093,-32.76468],[-71.197507,-32.764804],[-71.197818,-32.764928],[-71.198108,-32.76499],[-71.198377,-32.765115],[-71.198563,-32.765322],[-71.198812,-32.765633],[-71.199143,-32.766005],[-71.199454,-32.766503],[-71.199806,-32.767062],[-71.200096,-32.767559],[-71.200324,-32.768056],[-71.200552,-32.768553],[-71.200801,-32.768989],[-71.201049,-32.769299],[-71.201526,-32.769817],[-71.201775,-32.770077],[-71.199775,-32.770626],[-71.199151,-32.774931],[-71.1941,-32.776315],[-71.193477,-32.780619],[-71.188426,-32.782003],[-71.183998,-32.779082]]]},"properties":{"comuna":"Calera","mancha_id":"05502-88b2c48c85fffff","clase":"Bajo","nivel_medio":0.784,"nivel_medio_min":0.608,"nivel_medio_max":0.96,"pct_alto":16.5,"n_hexagonos":4,"area_ha":185.14}},{"type":"Feature","geometry":{"type":"Polygon","coordinates":[[[-71.139282,-32.853269],[-71.144333,-32.85189],[-71.144957,-32.847592],[-71.150008,-32.846212],[-71.154435,-32.849132],[-71.153811,-32.853431],[-71.158238,-32.85635],[-71.157878,-32.858829],[-71.157643,-32.859208],[-71.157464,-32.859718],[-71.157284,-32.860227],[-71.157104,-32.860737],[-71.15708,-32.860794],[-71.152562,-32.862028],[-71.148135,-32.859108],[-71.144774,-32.860026],[-71.144607,-32.859754],[-71.144304,-32.8592],[-71.144143,-32.858647],[-71.143626,-32.857755],[-71.14318,-32.856988],[-71.142752,-32.856328],[-71.142127,-32.855525],[-71.14177,-32.855204],[-71.141289,-32.854865],[-71.140807,-32.854526],[-71.140468,-32.854365],[-71.139861,-32.854151],[-71.139362,-32.853955],[-71.139203,-32.853815],[-71.138916,-32.853562],[-71.138523,-32.853241],[-71.137988,-32.852831],[-71.137417,-32.85251],[-71.136864,-32.852242],[-71.136329,-32.851975],[-71.135793,-32.851671],[-71.135312,-32.851475],[-71.134634,-32.851225],[-71.134223,-32.8511],[-71.133652,-32.850958],[-71.133117,-32.850904],[-71.132978,-32.850862],[-71.134855,-32.850349],[-71.139282,-32.853269]]]},"properties":{"comuna":"Calera","mancha_id":"05502-88b2c416d1fffff","clase":"Bajo","nivel_medio":1.214,"nivel_medio_min":1.08,"nivel_medio_max":1.396,"pct_alto":8.2,"n_hexagonos":4,"area_ha":176.23}},{"type":"Feature","geometry":{"type":"Polygon","coordinates":[[[-71.210565,-32.796603],[-71.214993,-32.799522],[-71.214938,-32.799907],[-71.213902,-32.800392],[-71.213281,-32.800683],[-71.21262,-32.800992],[-71.211628,-32.801704],[-71.210886,-32.802236],[-71.210291,-32.802662],[-71.207974,-32.804323],[-71.20489,-32.80229],[-71.205513,-32.797987],[-71.210565,-32.796603]]]},"properties":{"comuna":"Calera","mancha_id":"05502-88b2c4164dfffff","clase":"Bajo","nivel_medio":1.348,"nivel_medio_min":1.348,"nivel_medio_max":1.348,"pct_alto":26.3,"n_hexagonos":1,"area_ha":47.5}},{"type":"Feature","geometry":{"type":"Polygon","coordinates":[[[-71.193477,-32.780619],[-71.1941,-32.776315],[-71.199151,-32.774931],[-71.199775,-32.770626],[-71.201775,-32.770077],[-71.202002,-32.770314],[-71.202437,-32.770729],[-71.20308,-32.771143],[-71.203908,-32.771702],[-71.204571,-32.772034],[-71.205089,-32.772365],[-71.205607,-32.772614],[-71.206021,-32.772925],[-71.206436,-32.773132],[-71.206705,-32.77336],[-71.206871,-32.77365],[-71.207098,-32.77396],[-71.207347,-32.774271],[-71.207533,-32.774354],[-71.207677,-32.774419],[-71.20786,-32.774465],[-71.208043,-32.774503],[-71.208196,-32.774549],[-71.208379,-32.774564],[-71.208585,-32.774564],[-71.208815,-32.774564],[-71.208908,-32.774551],[-71.20863,-32.776466],[-71.203579,-32.777851],[-71.202955,-32.782155],[-71.197904,-32.783539],[-71.193477,-32.780619]]]},"properties":{"comuna":"Calera","mancha_id":"05502-88b2c48ca9fffff","clase":"Medio","nivel_medio":2.053,"nivel_medio_min":2.017,"nivel_medio_max":2.079,"pct_alto":44.1,"n_hexagonos":2,"area_ha":111.92}},{"type":"Feature","geometry":{"type":"Polygon","coordinates":[[[-71.184622,-32.774778],[-71.183998,-32.779082],[-71.188426,-32.782003],[-71.187802,-32.786307],[-71.182751,-32.78769],[-71.182127,-32.791994],[-71.178744,-32.79292],[-71.178774,-32.792793],[-71.178953,-32.792311],[-71.17931,-32.791705],[-71.179637,-32.791156],[-71.17844,-32.79083],[-71.177,-32.79048],[-71.17474,-32.78905],[-71.173024,-32.78787],[-71.173273,-32.786153],[-71.168847,-32.783232],[-71.169471,-32.778928],[-71.165044,-32.776007],[-71.159994,-32.77739],[-71.155569,-32.774468],[-71.150519,-32.775851],[-71.149895,-32.780154],[-71.144845,-32.781536],[-71.144221,-32.785839],[-71.139844,-32.787036],[-71.139476,-32.787013],[-71.139124,-32.787189],[-71.134746,-32.784299],[-71.135371,-32.779996],[-71.130946,-32.777074],[-71.125897,-32.778455],[-71.125272,-32.782758],[-71.120223,-32.784138],[-71.115799,-32.781216],[-71.116424,-32.776913],[-71.112,-32.773991],[-71.112624,-32.769688],[-71.117673,-32.768307],[-71.118297,-32.764003],[-71.113873,-32.761081],[-71.114498,-32.756777],[-71.110074,-32.753854],[-71.110527,-32.750735],[-71.110627,-32.75086],[-71.111184,-32.751231],[-71.111555,-32.751305],[-71.112056,-32.751361],[-71.112613,-32.751379],[-71.113077,-32.751528],[-71.11343,-32.751565],[-71.113931,-32.751676],[-71.114488,-32.751714],[-71.114841,-32.751862],[-71.115231,-32.752085],[-71.115565,-32.752419],[-71.115992,-32.753088],[-71.116475,-32.753626],[-71.117143,-32.75422],[-71.117719,-32.754759],[-71.118146,-32.755223],[-71.118406,-32.755707],[-71.118424,-32.755743],[-71.118852,-32.756429],[-71.119167,-32.756782],[-71.119538,-32.757135],[-71.119947,-32.757543],[-71.120337,-32.757803],[-71.12082,-32.758249],[-71.121247,-32.758676],[-71.121599,-32.758955],[-71.122008,-32.759307],[-71.122361,-32.75966],[-71.122676,-32.759939],[-71.123066,-32.760328],[-71.123605,-32.760718],[-71.123621,-32.760726],[-71.124013,-32.760904],[-71.124403,-32.761201],[-71.124811,-32.761535],[-71.125164,-32.761721],[-71.125313,-32.761777],[-71.125459,-32.762139],[-71.125487,-32.76219],[-71.125509,-32.762228],[-71.125521,-32.762249],[-71.125768,-32.762813],[-71.125792,-32.76322],[-71.125801,-32.763591],[-71.126016,-32.764044],[-71.126061,-32.764094],[-71.126287,-32.764348],[-71.1263,-32.764364],[-71.126448,-32.764541],[-71.126633,-32.764762],[-71.126658,-32.76481],[-71.126765,-32.765017],[-71.126817,-32.765117],[-71.126818,-32.765121],[-71.127019,-32.765621],[-71.127096,-32.765709],[-71.127169,-32.765791],[-71.127394,-32.765979],[-71.127632,-32.766178],[-71.127672,-32.766219],[-71.127146,-32.769848],[-71.13157,-32.772771],[-71.136619,-32.771389],[-71.141044,-32.774311],[-71.146094,-32.772929],[-71.146718,-32.768625],[-71.151767,-32.767243],[-71.156193,-32.770164],[-71.161242,-32.768782],[-71.161866,-32.764477],[-71.165908,-32.76337],[-71.165946,-32.764947],[-71.168019,-32.764939],[-71.169701,-32.764932],[-71.169764,-32.764932],[-71.173259,-32.764915],[-71.175386,-32.764907],[-71.176802,-32.764902],[-71.178539,-32.764895],[-71.185513,-32.764807],[-71.186066,-32.764814],[-71.185869,-32.766169],[-71.190296,-32.76909],[-71.189673,-32.773394],[-71.184622,-32.774778]]]},"properties":{"comuna":"Calera","mancha_id":"05502-88b2c48c81fffff","clase":"Medio","nivel_medio":2.175,"nivel_medio_min":1.556,"nivel_medio_max":2.489,"pct_alto":44.1,"n_hexagonos":22,"area_ha":1190.62}},{"type":"Feature","geometry":{"type":"Polygon","coordinates":[[[-71.148135,-32.859108],[-71.152562,-32.862028],[-71.152102,-32.865193],[-71.151917,-32.865235],[-71.151107,-32.865324],[-71.150268,-32.865384],[-71.149518,-32.865594],[-71.148468,-32.865864],[-71.147419,-32.866164],[-71.146669,-32.866614],[-71.145882,-32.867042],[-71.145646,-32.866886],[-71.145856,-32.866641],[-71.146124,-32.866266],[-71.146266,-32.865873],[-71.146338,-32.865302],[-71.146338,-32.864963],[-71.146249,-32.864375],[-71.146177,-32.863714],[-71.146035,-32.862947],[-71.14591,-32.862251],[-71.145678,-32.861556],[-71.145321,-32.860878],[-71.145,-32.860396],[-71.144774,-32.860026],[-71.148135,-32.859108]]]},"properties":{"comuna":"Calera","mancha_id":"05502-88b2c416d7fffff","clase":"Medio","nivel_medio":1.854,"nivel_medio_min":1.854,"nivel_medio_max":1.854,"pct_alto":50.5,"n_hexagonos":1,"area_ha":38.2}},{"type":"Feature","geometry":{"type":"Polygon","coordinates":[[[-71.161361,-32.848833],[-71.161248,-32.848914],[-71.160942,-32.849133],[-71.160552,-32.849583],[-71.160342,-32.850213],[-71.160162,-32.850872],[-71.160012,-32.851262],[-71.159772,-32.851712],[-71.159413,-32.852132],[-71.159293,-32.852551],[-71.159143,-32.853241],[-71.158963,-32.854051],[-71.158813,-32.85483],[-71.158693,-32.85546],[-71.158573,-32.85609],[-71.15853,-32.85627],[-71.158238,-32.85635],[-71.153811,-32.853431],[-71.154435,-32.849132],[-71.150008,-32.846212],[-71.144957,-32.847592],[-71.144333,-32.85189],[-71.139282,-32.853269],[-71.134855,-32.850349],[-71.13548,-32.846051],[-71.132519,-32.844097],[-71.132867,-32.843749],[-71.133153,-32.843339],[-71.133313,-32.842697],[-71.133367,-32.842179],[-71.133617,-32.841537],[-71.133973,-32.841002],[-71.134491,-32.840431],[-71.134973,-32.839806],[-71.135597,-32.83895],[-71.135893,-32.838692],[-71.136087,-32.838396],[-71.136132,-32.838129],[-71.136117,-32.83762],[-71.136729,-32.837453],[-71.136984,-32.835695],[-71.137096,-32.83556],[-71.137952,-32.834882],[-71.138987,-32.834329],[-71.139843,-32.83399],[-71.140753,-32.833829],[-71.1414,-32.833743],[-71.14173,-32.833608],[-71.14186,-32.833455],[-71.141984,-32.833062],[-71.142109,-32.832473],[-71.142485,-32.831827],[-71.142555,-32.831706],[-71.142984,-32.831189],[-71.143626,-32.830761],[-71.144375,-32.830279],[-71.144821,-32.8301],[-71.145428,-32.830047],[-71.146142,-32.830083],[-71.146837,-32.830261],[-71.147569,-32.830457],[-71.1483,-32.830457],[-71.149014,-32.830422],[-71.149424,-32.830368],[-71.150138,-32.830154],[-71.150798,-32.829886],[-71.151262,-32.829529],[-71.151726,-32.828941],[-71.15188,-32.828601],[-71.152505,-32.829014],[-71.151881,-32.833314],[-71.156308,-32.836234],[-71.161359,-32.834853],[-71.165529,-32.837603],[-71.165379,-32.837859],[-71.165169,-32.838129],[-71.16487,-32.838489],[-71.1646,-32.838969],[-71.16451,-32.839329],[-71.16436,-32.839688],[-71.16397,-32.840378],[-71.16361,-32.841008],[-71.16337,-32.841727],[-71.16331,-32.842147],[-71.163379,-32.84256],[-71.1634,-32.842687],[-71.16337,-32.843286],[-71.16337,-32.843916],[-71.16337,-32.844576],[-71.16337,-32.845145],[-71.16316,-32.845595],[-71.162861,-32.845985],[-71.162531,-32.846495],[-71.162201,-32.847034],[-71.161991,-32.847544],[-71.161691,-32.848024],[-71.161571,-32.848384],[-71.161361,-32.848833]]]},"properties":{"comuna":"Calera","mancha_id":"05502-88b2c416c1fffff","clase":"Medio","nivel_medio":1.918,"nivel_medio_min":1.676,"nivel_medio_max":2.463,"pct_alto":37.5,"n_hexagonos":10,"area_ha":513.98}},{"type":"Feature","geometry":{"type":"Polygon","coordinates":[[[-71.201123,-32.809234],[-71.199214,-32.807976],[-71.194163,-32.809359],[-71.189735,-32.806439],[-71.190358,-32.802137],[-71.19541,-32.800754],[-71.196033,-32.796451],[-71.201085,-32.795067],[-71.205513,-32.797987],[-71.20489,-32.80229],[-71.207974,-32.804323],[-71.206679,-32.805251],[-71.206225,-32.805576],[-71.205453,-32.80613],[-71.204429,-32.806864],[-71.201123,-32.809234]]]},"properties":{"comuna":"Calera","mancha_id":"05502-88b2c41641fffff","clase":"Medio","nivel_medio":2.064,"nivel_medio_min":1.819,"nivel_medio_max":2.396,"pct_alto":56.4,"n_hexagonos":3,"area_ha":165.38}},{"type":"Feature","geometry":{"type":"Polygon","coordinates":[[[-71.177137,-32.82641],[-71.182188,-32.825029],[-71.182812,-32.820727],[-71.178384,-32.817808],[-71.179008,-32.813506],[-71.174581,-32.810586],[-71.16953,-32.811968],[-71.168906,-32.81627],[-71.163855,-32.817651],[-71.161287,-32.815957],[-71.16145,-32.815827],[-71.162396,-32.815006],[-71.163198,-32.81431],[-71.164358,-32.813258],[-71.164822,-32.812651],[-71.164911,-32.812205],[-71.16509,-32.811616],[-71.165161,-32.811206],[-71.165393,-32.810671],[-71.166042,-32.809667],[-71.166178,-32.809457],[-71.166535,-32.808744],[-71.166838,-32.808173],[-71.167025,-32.807962],[-71.167213,-32.807834],[-71.167588,-32.807789],[-71.167948,-32.807702],[-71.16819,-32.807533],[-71.168281,-32.80723],[-71.168426,-32.80671],[-71.168747,-32.806246],[-71.169104,-32.805871],[-71.16955,-32.805568],[-71.169996,-32.805371],[-71.170192,-32.805175],[-71.170317,-32.804818],[-71.170603,-32.804265],[-71.170995,-32.803891],[-71.17126,-32.803682],[-71.175205,-32.806284],[-71.180256,-32.804902],[-71.184683,-32.807822],[-71.18406,-32.812124],[-71.188487,-32.815044],[-71.193539,-32.813661],[-71.194272,-32.814144],[-71.193891,-32.814417],[-71.193589,-32.814634],[-71.193564,-32.814652],[-71.193668,-32.814775],[-71.193894,-32.815042],[-71.194164,-32.815282],[-71.194313,-32.816091],[-71.194313,-32.816541],[-71.194254,-32.817021],[-71.194104,-32.817591],[-71.193894,-32.81822],[-71.193564,-32.81891],[-71.193174,-32.81942],[-71.192754,-32.819659],[-71.192245,-32.819929],[-71.191585,-32.820109],[-71.190925,-32.820289],[-71.190595,-32.820559],[-71.190146,-32.820799],[-71.190092,-32.820815],[-71.189546,-32.820979],[-71.188886,-32.821308],[-71.188467,-32.821668],[-71.188347,-32.821968],[-71.188137,-32.822538],[-71.187507,-32.823078],[-71.187177,-32.823377],[-71.186488,-32.823587],[-71.185828,-32.824067],[-71.185198,-32.824427],[-71.184659,-32.824757],[-71.183309,-32.825356],[-71.18289,-32.825476],[-71.182878,-32.825484],[-71.18238,-32.825806],[-71.18199,-32.826226],[-71.18163,-32.826736],[-71.181151,-32.827095],[-71.180671,-32.827365],[-71.180011,-32.827455],[-71.179472,-32.827515],[-71.179172,-32.827755],[-71.178662,-32.827935],[-71.177822,-32.828235],[-71.177133,-32.828295],[-71.176852,-32.828375],[-71.176083,-32.828595],[-71.175484,-32.828834],[-71.175124,-32.829194],[-71.174734,-32.829704],[-71.174344,-32.830094],[-71.173985,-32.830573],[-71.173715,-32.831173],[-71.173547,-32.831522],[-71.173355,-32.831923],[-71.173235,-32.832372],[-71.172965,-32.832672],[-71.172575,-32.833062],[-71.171946,-32.833392],[-71.171316,-32.833662],[-71.17123,-32.833682],[-71.171461,-32.832092],[-71.167034,-32.829172],[-71.161983,-32.830553],[-71.157556,-32.827633],[-71.15818,-32.823333],[-71.163231,-32.821952],[-71.167658,-32.824872],[-71.172709,-32.823491],[-71.177137,-32.82641]]]},"properties":{"comuna":"Calera","mancha_id":"05502-88b2c41619fffff","clase":"Medio","nivel_medio":2.24,"nivel_medio_min":1.975,"nivel_medio_max":2.48,"pct_alto":49.3,"n_hexagonos":10,"area_ha":413.98}},{"type":"Feature","geometry":{"type":"Polygon","coordinates":[[[-71.13548,-32.846051],[-71.134855,-32.850349],[-71.132978,-32.850862],[-71.132528,-32.850726],[-71.132296,-32.850636],[-71.131832,-32.85044],[-71.131565,-32.850297],[-71.131137,-32.849869],[-71.130815,-32.849566],[-71.130423,-32.849191],[-71.130066,-32.848977],[-71.129709,-32.848549],[-71.129388,-32.848085],[-71.128692,-32.847086],[-71.127675,-32.844909],[-71.127675,-32.844053],[-71.127675,-32.844035],[-71.127871,-32.843589],[-71.128296,-32.843488],[-71.128812,-32.84348],[-71.129294,-32.843539],[-71.129402,-32.843582],[-71.129785,-32.843734],[-71.130298,-32.844071],[-71.130673,-32.844351],[-71.130876,-32.84452],[-71.131206,-32.844597],[-71.131511,-32.844622],[-71.131883,-32.844554],[-71.132213,-32.844334],[-71.132493,-32.844124],[-71.132519,-32.844097],[-71.13548,-32.846051]]]},"properties":{"comuna":"Calera","mancha_id":"05502-88b2c4b9e5fffff","clase":"Alto","nivel_medio":2.515,"nivel_medio_min":2.515,"nivel_medio_max":2.516,"pct_alto":71.9,"n_hexagonos":2,"area_ha":38.58}},{"type":"Feature","geometry":{"type":"Polygon","coordinates":[[[-71.098587,-32.786207],[-71.098532,-32.785936],[-71.098433,-32.785439],[-71.09828,-32.784978],[-71.097896,-32.784287],[-71.097588,-32.783788],[-71.097281,-32.783212],[-71.097013,-32.782675],[-71.096475,-32.782329],[-71.096129,-32.781945],[-71.095861,-32.781638],[-71.0954,-32.781254],[-71.094978,-32.781024],[-71.09467,-32.780755],[-71.094555,-32.780294],[-71.094478,-32.77991],[-71.093864,-32.779373],[-71.093586,-32.779025],[-71.093403,-32.778797],[-71.092981,-32.778413],[-71.092252,-32.777952],[-71.091522,-32.777568],[-71.090985,-32.777069],[-71.09037,-32.776493],[-71.089986,-32.776071],[-71.089602,-32.775533],[-71.089257,-32.775034],[-71.089142,-32.774689],[-71.089027,-32.774305],[-71.088566,-32.773882],[-71.08822,-32.773614],[-71.087875,-32.773268],[-71.087867,-32.773263],[-71.087376,-32.772922],[-71.086915,-32.772922],[-71.086838,-32.772654],[-71.086569,-32.772347],[-71.086032,-32.771847],[-71.085609,-32.771425],[-71.085609,-32.770964],[-71.085651,-32.770727],[-71.085763,-32.770081],[-71.086032,-32.769467],[-71.086454,-32.768776],[-71.086761,-32.768277],[-71.086608,-32.767662],[-71.086339,-32.766895],[-71.085878,-32.766357],[-71.085456,-32.765551],[-71.085385,-32.764738],[-71.085379,-32.764668],[-71.085302,-32.763861],[-71.08511,-32.76294],[-71.084918,-32.762095],[-71.084688,-32.761135],[-71.084458,-32.760444],[-71.084534,-32.759523],[-71.084842,-32.758601],[-71.085149,-32.757718],[-71.085302,-32.756989],[-71.085485,-32.756468],[-71.085571,-32.756221],[-71.08607,-32.755722],[-71.086416,-32.754916],[-71.086838,-32.754301],[-71.087337,-32.753764],[-71.087655,-32.75306],[-71.088124,-32.75305],[-71.088514,-32.75305],[-71.088997,-32.752976],[-71.089294,-32.75279],[-71.089424,-32.752623],[-71.089572,-32.752363],[-71.089776,-32.752085],[-71.090129,-32.751899],[-71.090482,-32.751751],[-71.090705,-32.751565],[-71.090835,-32.751417],[-71.091002,-32.751231],[-71.091169,-32.751027],[-71.091346,-32.750909],[-71.091503,-32.750804],[-71.091949,-32.75073],[-71.09232,-32.750692],[-71.09258,-32.750692],[-71.092877,-32.750692],[-71.093453,-32.750822],[-71.093787,-32.750897],[-71.094065,-32.750878],[-71.094288,-32.750822],[-71.094511,-32.750785],[-71.094789,-32.750674],[-71.095049,-32.750637],[-71.095346,-32.750637],[-71.095736,-32.750674],[-71.096071,-32.75073],[-71.096386,-32.750841],[-71.09685,-32.750971],[-71.097296,-32.751119],[-71.097704,-32.751268],[-71.098224,-32.751417],[-71.098614,-32.751565],[-71.098874,-32.751658],[-71.099115,-32.751751],[-71.099598,-32.751844],[-71.099932,-32.751899],[-71.100415,-32.751936],[-71.100653,-32.751966],[-71.100712,-32.751974],[-71.100953,-32.751881],[-71.101213,-32.751714],[-71.10151,-32.751547],[-71.101752,-32.751417],[-71.102049,-32.751305],[-71.10255,-32.751157],[-71.102996,-32.751101],[-71.103404,-32.751082],[-71.10385,-32.751027],[-71.10437,-32.750971],[-71.104797,-32.75086],[-71.105224,-32.75073],[-71.105577,-32.750525],[-71.105911,-32.750377],[-71.106263,-32.75021],[-71.106715,-32.75],[-71.106783,-32.749968],[-71.107266,-32.749801],[-71.107637,-32.74969],[-71.10786,-32.749616],[-71.108139,-32.749393],[-71.108417,-32.749077],[-71.108714,-32.748947],[-71.10903,-32.748873],[-71.109253,-32.748947],[-71.109513,-32.74917],[-71.109698,-32.749541],[-71.109735,-32.749783],[-71.109869,-32.75],[-71.109884,-32.750024],[-71.110088,-32.750265],[-71.110404,-32.750581],[-71.110527,-32.750735],[-71.110074,-32.753854],[-71.114498,-32.756777],[-71.113873,-32.761081],[-71.118297,-32.764003],[-71.117673,-32.768307],[-71.112624,-32.769688],[-71.112,-32.773991],[-71.116424,-32.776913],[-71.115799,-32.781216],[-71.120223,-32.784138],[-71.125272,-32.782758],[-71.125897,-32.778455],[-71.130946,-32.777074],[-71.135371,-32.779996],[-71.134746,-32.784299],[-71.139124,-32.787189],[-71.139016,-32.787243],[-71.138171,-32.787627],[-71.137672,-32.788165],[-71.136981,-32.788702],[-71.136482,-32.789125],[-71.135944,-32.789394],[-71.13556,-32.789739],[-71.135522,-32.790315],[-71.135407,-32.790699],[-71.135099,-32.790814],[-71.134754,-32.790814],[-71.134255,-32.790776],[-71.13341,-32.790891],[-71.132604,-32.791083],[-71.131721,-32.791313],[-71.131293,-32.791448],[-71.130991,-32.791544],[-71.130415,-32.791851],[-71.129993,-32.792158],[-71.129379,-32.792273],[-71.128342,-32.792465],[-71.127689,-32.792619],[-71.127114,-32.792619],[-71.126614,-32.79258],[-71.126038,-32.792619],[-71.125463,-32.792811],[-71.124771,-32.793118],[-71.124042,-32.793463],[-71.123713,-32.793502],[-71.123389,-32.79354],[-71.122775,-32.793502],[-71.122045,-32.793809],[-71.121124,-32.794039],[-71.120395,-32.794231],[-71.119703,-32.79473],[-71.119089,-32.795114],[-71.118436,-32.795191],[-71.117822,-32.795268],[-71.117169,-32.79546],[-71.116555,-32.795575],[-71.11625,-32.795658],[-71.11571,-32.795805],[-71.114751,-32.795921],[-71.113944,-32.796381],[-71.113292,-32.796688],[-71.112562,-32.796842],[-71.111986,-32.796727],[-71.11141,-32.79665],[-71.110642,-32.79665],[-71.110067,-32.796688],[-71.109875,-32.796305],[-71.109529,-32.795575],[-71.109346,-32.795374],[-71.108723,-32.794692],[-71.108416,-32.793655],[-71.108377,-32.792849],[-71.108185,-32.792043],[-71.107724,-32.791467],[-71.107264,-32.790968],[-71.106957,-32.790699],[-71.106227,-32.790545],[-71.105613,-32.79043],[-71.105306,-32.790123],[-71.104872,-32.78969],[-71.104845,-32.789662],[-71.104231,-32.78947],[-71.10354,-32.789586],[-71.102733,-32.789816],[-71.102004,-32.790008],[-71.101236,-32.790161],[-71.100698,-32.790238],[-71.100391,-32.789816],[-71.100161,-32.78924],[-71.099969,-32.788626],[-71.099738,-32.788165],[-71.099431,-32.787781],[-71.098971,-32.787013],[-71.098587,-32.786207]]]},"properties":{"comuna":"Calera","mancha_id":"05502-88b2c4b86dfffff","clase":"Alto","nivel_medio":2.808,"nivel_medio_min":2.502,"nivel_medio_max":2.965,"pct_alto":81.0,"n_hexagonos":27,"area_ha":1318.91}},{"type":"Feature","geometry":{"type":"Polygon","coordinates":[[[-71.225721,-32.792449],[-71.226344,-32.788145],[-71.227018,-32.78796],[-71.227122,-32.788117],[-71.227533,-32.7883],[-71.228158,-32.788284],[-71.22892,-32.788223],[-71.229347,-32.788284],[-71.229667,-32.788543],[-71.229911,-32.789016],[-71.230139,-32.789473],[-71.230251,-32.789698],[-71.230543,-32.79031],[-71.230842,-32.790822],[-71.230951,-32.791009],[-71.23109,-32.791149],[-71.231184,-32.791242],[-71.231941,-32.791563],[-71.232478,-32.791713],[-71.228954,-32.793371],[-71.227875,-32.793869],[-71.225721,-32.792449]]]},"properties":{"comuna":"Calera","mancha_id":"05502-88b2c48d9dfffff","clase":"Alto","nivel_medio":2.996,"nivel_medio_min":2.996,"nivel_medio_max":2.996,"pct_alto":79.7,"n_hexagonos":1,"area_ha":24.34}},{"type":"Feature","geometry":{"type":"Polygon","coordinates":[[[-71.165908,-32.76337],[-71.161866,-32.764477],[-71.158995,-32.762581],[-71.159126,-32.762615],[-71.159174,-32.762628],[-71.159303,-32.762322],[-71.159368,-32.762035],[-71.159347,-32.761746],[-71.159266,-32.761492],[-71.159149,-32.761116],[-71.159073,-32.760955],[-71.158846,-32.760457],[-71.158897,-32.760469],[-71.161836,-32.761119],[-71.165875,-32.762013],[-71.165886,-32.762484],[-71.165908,-32.76337]]]},"properties":{"comuna":"Calera","mancha_id":"05502-88b2c48cddfffff","clase":"Alto","nivel_medio":2.586,"nivel_medio_min":2.586,"nivel_medio_max":2.586,"pct_alto":48.8,"n_hexagonos":1,"area_ha":17.52}},{"type":"Feature","geometry":{"type":"Polygon","coordinates":[[[-71.151767,-32.767243],[-71.146718,-32.768625],[-71.146094,-32.772929],[-71.141044,-32.774311],[-71.136619,-32.771389],[-71.13157,-32.772771],[-71.127146,-32.769848],[-71.127672,-32.766219],[-71.127777,-32.766324],[-71.127946,-32.766494],[-71.127948,-32.766496],[-71.128351,-32.766907],[-71.128668,-32.767211],[-71.12877,-32.767308],[-71.128843,-32.767356],[-71.129081,-32.767512],[-71.129393,-32.767692],[-71.130132,-32.76805],[-71.130195,-32.768074],[-71.130929,-32.768346],[-71.131286,-32.768484],[-71.131785,-32.768677],[-71.131888,-32.768702],[-71.131945,-32.768716],[-71.132228,-32.768785],[-71.132402,-32.768827],[-71.133084,-32.768954],[-71.133372,-32.769008],[-71.133595,-32.76904],[-71.133798,-32.76907],[-71.134061,-32.769108],[-71.13445,-32.769133],[-71.134662,-32.769147],[-71.134761,-32.769168],[-71.13484,-32.769185],[-71.134926,-32.769204],[-71.134928,-32.769205],[-71.135418,-32.769226],[-71.13614,-32.769363],[-71.136198,-32.769368],[-71.136508,-32.769394],[-71.13658,-32.769375],[-71.136924,-32.769285],[-71.137091,-32.769241],[-71.137499,-32.769185],[-71.138098,-32.769175],[-71.138315,-32.769047],[-71.13835,-32.769003],[-71.138613,-32.768672],[-71.139304,-32.768228],[-71.140187,-32.767891],[-71.140765,-32.767585],[-71.141143,-32.767492],[-71.141696,-32.767384],[-71.14236,-32.767101],[-71.142362,-32.767101],[-71.142914,-32.766835],[-71.143027,-32.76678],[-71.143166,-32.766707],[-71.143527,-32.766518],[-71.143734,-32.76641],[-71.144049,-32.766235],[-71.144124,-32.766194],[-71.144194,-32.766188],[-71.144518,-32.766162],[-71.144885,-32.766255],[-71.145309,-32.766235],[-71.145714,-32.766043],[-71.146345,-32.76555],[-71.146919,-32.765108],[-71.146937,-32.765087],[-71.147133,-32.764857],[-71.14727,-32.764484],[-71.147277,-32.764472],[-71.147428,-32.76421],[-71.147479,-32.764123],[-71.147508,-32.764073],[-71.147764,-32.763772],[-71.148081,-32.763758],[-71.148125,-32.763763],[-71.148712,-32.763826],[-71.149592,-32.763963],[-71.149904,-32.764012],[-71.15018,-32.764001],[-71.150565,-32.763986],[-71.1508,-32.763977],[-71.151646,-32.763794],[-71.151982,-32.763721],[-71.152286,-32.763661],[-71.151767,-32.767243]]]},"properties":{"comuna":"Calera","mancha_id":"05502-88b2c48cdbfffff","clase":"Alto","nivel_medio":2.871,"nivel_medio_min":2.707,"nivel_medio_max":2.951,"pct_alto":86.6,"n_hexagonos":3,"area_ha":113.63}},{"type":"Feature","geometry":{"type":"Polygon","coordinates":[[[-71.202955,-32.782155],[-71.203579,-32.777851],[-71.20863,-32.776466],[-71.213058,-32.779386],[-71.216844,-32.778349],[-71.217449,-32.778421],[-71.217925,-32.779006],[-71.218327,-32.779531],[-71.218449,-32.780043],[-71.218961,-32.780543],[-71.219681,-32.780933],[-71.220156,-32.781311],[-71.220729,-32.781396],[-71.221302,-32.781738],[-71.222324,-32.7824],[-71.221915,-32.785226],[-71.216863,-32.786611],[-71.212435,-32.783691],[-71.207383,-32.785075],[-71.202955,-32.782155]]]},"properties":{"comuna":"Calera","mancha_id":"05502-88b2c48cadfffff","clase":"Alto","nivel_medio":2.999,"nivel_medio_min":2.775,"nivel_medio_max":3.255,"pct_alto":77.6,"n_hexagonos":2,"area_ha":121.71}},{"type":"Feature","geometry":{"type":"Polygon","coordinates":[[[-71.168847,-32.783232],[-71.173273,-32.786153],[-71.173024,-32.78787],[-71.17045,-32.7861],[-71.16716,-32.783694],[-71.16464,-32.78185],[-71.16376,-32.78023],[-71.16257,-32.77791],[-71.159815,-32.778629],[-71.15962,-32.77868],[-71.15867,-32.77964],[-71.15681,-32.7818],[-71.15686,-32.78194],[-71.156857,-32.782381],[-71.15432,-32.783075],[-71.154021,-32.785138],[-71.153989,-32.785132],[-71.153644,-32.785093],[-71.153145,-32.784978],[-71.152799,-32.784748],[-71.152338,-32.784287],[-71.151801,-32.78398],[-71.15134,-32.783865],[-71.150419,-32.78421],[-71.149728,-32.784518],[-71.148806,-32.784901],[-71.148422,-32.785055],[-71.148,-32.78517],[-71.147462,-32.785362],[-71.14704,-32.785401],[-71.146157,-32.785516],[-71.145351,-32.785554],[-71.144621,-32.785746],[-71.144247,-32.785856],[-71.144221,-32.785839],[-71.144845,-32.781536],[-71.149895,-32.780154],[-71.150519,-32.775851],[-71.155569,-32.774468],[-71.159994,-32.77739],[-71.165044,-32.776007],[-71.169471,-32.778928],[-71.168847,-32.783232]]]},"properties":{"comuna":"Calera","mancha_id":"05502-88b2c48c95fffff","clase":"Alto","nivel_medio":2.651,"nivel_medio_min":2.536,"nivel_medio_max":2.751,"pct_alto":63.5,"n_hexagonos":4,"area_ha":144.77}},{"type":"Feature","geometry":{"type":"Polygon","coordinates":[[[-71.145642,-32.86689],[-71.145646,-32.866886],[-71.145882,-32.867042],[-71.14548,-32.86726],[-71.145642,-32.86689]]]},"properties":{"comuna":"Calera","mancha_id":"05502-88b2c41699fffff","clase":"Alto","nivel_medio":3.0,"nivel_medio_min":3.0,"nivel_medio_max":3.0,"pct_alto":100.0,"n_hexagonos":1,"area_ha":0.06}},{"type":"Feature","geometry":{"type":"Polygon","coordinates":[[[-71.152102,-32.865193],[-71.152562,-32.862028],[-71.15708,-32.860794],[-71.156894,-32.861247],[-71.156894,-32.861756],[-71.156984,-32.862446],[-71.157044,-32.863106],[-71.156864,-32.863615],[-71.156564,-32.863945],[-71.156354,-32.864215],[-71.155844,-32.864215],[-71.155125,-32.864365],[-71.153686,-32.864815],[-71.152456,-32.865115],[-71.152102,-32.865193]]]},"properties":{"comuna":"Calera","mancha_id":"05502-88b2c4168bfffff","clase":"Alto","nivel_medio":2.5,"nivel_medio_min":2.5,"nivel_medio_max":2.5,"pct_alto":71.2,"n_hexagonos":1,"area_ha":14.7}},{"type":"Feature","geometry":{"type":"Polygon","coordinates":[[[-71.157878,-32.858829],[-71.158238,-32.85635],[-71.15853,-32.85627],[-71.158393,-32.856839],[-71.158333,-32.857319],[-71.158153,-32.857978],[-71.158033,-32.858578],[-71.157878,-32.858829]]]},"properties":{"comuna":"Calera","mancha_id":"05502-88b2c41689fffff","clase":"Alto","nivel_medio":2.916,"nivel_medio_min":2.916,"nivel_medio_max":2.916,"pct_alto":91.6,"n_hexagonos":1,"area_ha":0.49}},{"type":"Feature","geometry":{"type":"Polygon","coordinates":[[[-71.177137,-32.82641],[-71.172709,-32.823491],[-71.167658,-32.824872],[-71.163231,-32.821952],[-71.15818,-32.823333],[-71.157556,-32.827633],[-71.161983,-32.830553],[-71.161359,-32.834853],[-71.156308,-32.836234],[-71.151881,-32.833314],[-71.152505,-32.829014],[-71.15188,-32.828601],[-71.151994,-32.828352],[-71.152029,-32.827692],[-71.151958,-32.827156],[-71.151958,-32.826764],[-71.152047,-32.826354],[-71.152261,-32.826104],[-71.152547,-32.825854],[-71.152975,-32.825461],[-71.153492,-32.825033],[-71.153956,-32.824605],[-71.154831,-32.823874],[-71.155116,-32.823231],[-71.155633,-32.822518],[-71.155925,-32.822136],[-71.156206,-32.82203],[-71.156238,-32.822018],[-71.156543,-32.821849],[-71.156762,-32.82157],[-71.156915,-32.821299],[-71.157328,-32.820894],[-71.157989,-32.820216],[-71.158361,-32.819675],[-71.158573,-32.819319],[-71.15892,-32.818871],[-71.159309,-32.818503],[-71.159612,-32.818021],[-71.159933,-32.817254],[-71.160379,-32.816737],[-71.160754,-32.81638],[-71.161287,-32.815957],[-71.163855,-32.817651],[-71.168906,-32.81627],[-71.16953,-32.811968],[-71.174581,-32.810586],[-71.179008,-32.813506],[-71.178384,-32.817808],[-71.182812,-32.820727],[-71.182188,-32.825029],[-71.177137,-32.82641]]]},"properties":{"comuna":"Calera","mancha_id":"05502-88b2c41653fffff","clase":"Alto","nivel_medio":2.735,"nivel_medio_min":2.554,"nivel_medio_max":2.894,"pct_alto":74.6,"n_hexagonos":6,"area_ha":320.27}},{"type":"Feature","geometry":{"type":"Polygon","coordinates":[[[-71.194163,-32.809359],[-71.199214,-32.807976],[-71.201123,-32.809234],[-71.200357,-32.809783],[-71.199838,-32.810155],[-71.199797,-32.810184],[-71.199265,-32.810565],[-71.198323,-32.811241],[-71.198072,-32.811421],[-71.1979,-32.811544],[-71.197277,-32.81199],[-71.196665,-32.812429],[-71.196289,-32.812699],[-71.195613,-32.813184],[-71.1949,-32.813694],[-71.194554,-32.813943],[-71.194434,-32.814028],[-71.194272,-32.814144],[-71.193539,-32.813661],[-71.188487,-32.815044],[-71.18406,-32.812124],[-71.184683,-32.807822],[-71.180256,-32.804902],[-71.175205,-32.806284],[-71.17126,-32.803682],[-71.171584,-32.803427],[-71.171977,-32.802909],[-71.172262,-32.802231],[-71.172619,-32.801464],[-71.172904,-32.800858],[-71.173172,-32.800358],[-71.173368,-32.799841],[-71.173707,-32.799484],[-71.174314,-32.799038],[-71.174831,-32.798485],[-71.175081,-32.798092],[-71.175085,-32.798054],[-71.176453,-32.797679],[-71.176822,-32.79513],[-71.177204,-32.79472],[-71.177704,-32.794238],[-71.178346,-32.793542],[-71.178685,-32.793168],[-71.178744,-32.79292],[-71.182127,-32.791994],[-71.186555,-32.794914],[-71.191606,-32.793531],[-71.196033,-32.796451],[-71.19541,-32.800754],[-71.190358,-32.802137],[-71.189735,-32.806439],[-71.194163,-32.809359]]]},"properties":{"comuna":"Calera","mancha_id":"05502-88b2c41643fffff","clase":"Alto","nivel_medio":2.657,"nivel_medio_min":2.518,"nivel_medio_max":2.869,"pct_alto":71.2,"n_hexagonos":6,"area_ha":338.03}},{"type":"Feature","geometry":{"type":"Polygon","coordinates":[[[-71.139844,-32.787036],[-71.144221,-32.785839],[-71.144247,-32.785856],[-71.143969,-32.785938],[-71.143738,-32.786168],[-71.143162,-32.786207],[-71.142394,-32.786399],[-71.141818,-32.786706],[-71.141204,-32.787013],[-71.140628,-32.787052],[-71.140091,-32.787052],[-71.139844,-32.787036]]]},"properties":{"comuna":"Calera","mancha_id":"05502-88b2c4b94dfffff","clase":"Muy Alto","nivel_medio":3.569,"nivel_medio_min":3.569,"nivel_medio_max":3.569,"pct_alto":100.0,"n_hexagonos":1,"area_ha":0.7}},{"type":"Feature","geometry":{"type":"Polygon","coordinates":[[[-71.213058,-32.779386],[-71.20863,-32.776466],[-71.208908,-32.774551],[-71.209028,-32.774534],[-71.209181,-32.774526],[-71.209357,-32.774526],[-71.209639,-32.774526],[-71.209845,-32.774519],[-71.210105,-32.774526],[-71.210426,-32.774557],[-71.2108,-32.774595],[-71.21138,-32.774633],[-71.211907,-32.774702],[-71.212312,-32.774755],[-71.21277,-32.774816],[-71.213343,-32.774885],[-71.213564,-32.774939],[-71.213847,-32.774977],[-71.214,-32.77503],[-71.214053,-32.775068],[-71.214091,-32.775152],[-71.214099,-32.775305],[-71.213939,-32.775763],[-71.213779,-32.776104],[-71.214047,-32.776482],[-71.214486,-32.776787],[-71.215193,-32.777251],[-71.215596,-32.777872],[-71.216132,-32.778153],[-71.216839,-32.778348],[-71.216844,-32.778349],[-71.213058,-32.779386]]]},"properties":{"comuna":"Calera","mancha_id":"05502-88b2c48ddbfffff","clase":"Muy Alto","nivel_medio":3.812,"nivel_medio_min":3.812,"nivel_medio_max":3.812,"pct_alto":98.5,"n_hexagonos":1,"area_ha":22.68}},{"type":"Feature","geometry":{"type":"Polygon","coordinates":[[[-71.226344,-32.788145],[-71.221915,-32.785226],[-71.222324,-32.7824],[-71.222397,-32.782447],[-71.223326,-32.782645],[-71.224028,-32.782675],[-71.224546,-32.782934],[-71.224862,-32.78396],[-71.225095,-32.784484],[-71.225095,-32.784979],[-71.224912,-32.785419],[-71.225034,-32.785754],[-71.22543,-32.786044],[-71.225969,-32.78661],[-71.226314,-32.786974],[-71.226695,-32.787477],[-71.227018,-32.78796],[-71.226344,-32.788145]]]},"properties":{"comuna":"Calera","mancha_id":"05502-88b2c48dd7fffff","clase":"Muy Alto","nivel_medio":3.52,"nivel_medio_min":3.52,"nivel_medio_max":3.52,"pct_alto":94.6,"n_hexagonos":1,"area_ha":12.96}},{"type":"Feature","geometry":{"type":"Polygon","coordinates":[[[-71.176822,-32.79513],[-71.176453,-32.797679],[-71.175085,-32.798054],[-71.175135,-32.797575],[-71.17542,-32.797039],[-71.175991,-32.79629],[-71.176437,-32.795719],[-71.176723,-32.795237],[-71.176822,-32.79513]]]},"properties":{"comuna":"Calera","mancha_id":"05502-88b2c48cbbfffff","clase":"Muy Alto","nivel_medio":4.0,"nivel_medio_min":4.0,"nivel_medio_max":4.0,"pct_alto":100.0,"n_hexagonos":1,"area_ha":2.17}},{"type":"Feature","geometry":{"type":"Polygon","coordinates":[[[-71.154021,-32.785138],[-71.15432,-32.783075],[-71.156857,-32.782381],[-71.15683,-32.78618],[-71.156677,-32.786552],[-71.156408,-32.786552],[-71.155832,-32.785976],[-71.155295,-32.785593],[-71.154604,-32.785247],[-71.154021,-32.785138]]]},"properties":{"comuna":"Calera","mancha_id":"05502-88b2c48c91fffff","clase":"Muy Alto","nivel_medio":3.645,"nivel_medio_min":3.645,"nivel_medio_max":3.645,"pct_alto":92.3,"n_hexagonos":1,"area_ha":8.51}}],"bbox":[-71.23248,-32.86726,-71.08445,-32.74887]}