{"type":"FeatureCollection","features":[{"type":"Feature","geometry":{"type":"Polygon","coordinates":[[[-71.229661,-32.86573],[-71.230285,-32.861431],[-71.235338,-32.860048],[-71.239769,-32.862965],[-71.239146,-32.867265],[-71.234092,-32.868647],[-71.229661,-32.86573]]]},"properties":{"comuna":"Quillota","mancha_id":"05501-88b2c41447fffff","clase":"Muy Bajo","nivel_medio":0.347,"nivel_medio_min":0.347,"nivel_medio_max":0.347,"pct_alto":5.9,"n_hexagonos":1,"area_ha":64.98}},{"type":"Feature","geometry":{"type":"Polygon","coordinates":[[[-71.237276,-32.880162],[-71.237899,-32.875863],[-71.242954,-32.874481],[-71.247385,-32.877397],[-71.25244,-32.876014],[-71.256871,-32.878931],[-71.261926,-32.877547],[-71.266359,-32.880463],[-71.265736,-32.884762],[-71.26068,-32.886145],[-71.260057,-32.890444],[-71.26449,-32.89336],[-71.263867,-32.897658],[-71.258811,-32.89904],[-71.254379,-32.896125],[-71.249324,-32.897507],[-71.244892,-32.894591],[-71.245516,-32.890293],[-71.241084,-32.887377],[-71.241707,-32.883078],[-71.237276,-32.880162]]]},"properties":{"comuna":"Quillota","mancha_id":"05501-88b2c41405fffff","clase":"Muy Bajo","nivel_medio":0.167,"nivel_medio_min":0.087,"nivel_medio_max":0.235,"pct_alto":4.5,"n_hexagonos":7,"area_ha":454.76}},{"type":"Feature","geometry":{"type":"Polygon","coordinates":[[[-71.121712,-32.948778],[-71.121828,-32.948773],[-71.120817,-32.949048],[-71.120876,-32.948946],[-71.121244,-32.948879],[-71.121712,-32.948778]]]},"properties":{"comuna":"Quillota","mancha_id":"05501-88b2c4a95bfffff","clase":"Bajo","nivel_medio":0.984,"nivel_medio_min":0.984,"nivel_medio_max":0.984,"pct_alto":32.8,"n_hexagonos":1,"area_ha":0.05}},{"type":"Feature","geometry":{"type":"Polygon","coordinates":[[[-71.119925,-32.953598],[-71.119952,-32.953489],[-71.123767,-32.956003],[-71.123697,-32.956003],[-71.123246,-32.955943],[-71.122736,-32.955823],[-71.122495,-32.955702],[-71.122134,-32.955552],[-71.121783,-32.95527],[-71.121644,-32.955189],[-71.121503,-32.955101],[-71.120973,-32.954878],[-71.120753,-32.954682],[-71.120524,-32.954338],[-71.120241,-32.954049],[-71.120159,-32.953807],[-71.120025,-32.953665],[-71.119925,-32.953598]]]},"properties":{"comuna":"Quillota","mancha_id":"05501-88b2c4a825fffff","clase":"Bajo","nivel_medio":0.64,"nivel_medio_min":0.64,"nivel_medio_max":0.64,"pct_alto":19.4,"n_hexagonos":1,"area_ha":1.85}},{"type":"Feature","geometry":{"type":"Polygon","coordinates":[[[-71.241015,-32.854365],[-71.241639,-32.850064],[-71.246693,-32.848681],[-71.251124,-32.851598],[-71.250501,-32.855898],[-71.245446,-32.857282],[-71.241015,-32.854365]]]},"properties":{"comuna":"Quillota","mancha_id":"05501-88b2c41713fffff","clase":"Bajo","nivel_medio":1.284,"nivel_medio_min":1.284,"nivel_medio_max":1.284,"pct_alto":20.6,"n_hexagonos":1,"area_ha":65.01}},{"type":"Feature","geometry":{"type":"Polygon","coordinates":[[[-71.188611,-32.881077],[-71.184182,-32.878159],[-71.179129,-32.879539],[-71.174701,-32.876621],[-71.175325,-32.872323],[-71.180377,-32.870943],[-71.180772,-32.868224],[-71.180828,-32.868318],[-71.181145,-32.868717],[-71.181528,-32.869233],[-71.181777,-32.8695],[-71.181961,-32.869599],[-71.182327,-32.869583],[-71.18271,-32.869466],[-71.183126,-32.869216],[-71.183426,-32.869083],[-71.183992,-32.86915],[-71.184591,-32.8693],[-71.185007,-32.869266],[-71.18544,-32.8691],[-71.185806,-32.8689],[-71.186289,-32.868667],[-71.186655,-32.868417],[-71.187138,-32.868201],[-71.187604,-32.868068],[-71.187887,-32.867868],[-71.18812,-32.867702],[-71.18842,-32.867602],[-71.188819,-32.867435],[-71.18918,-32.867325],[-71.190482,-32.868183],[-71.189858,-32.872481],[-71.194287,-32.875399],[-71.193664,-32.879697],[-71.188611,-32.881077]]]},"properties":{"comuna":"Quillota","mancha_id":"05501-88b2c416a1fffff","clase":"Bajo","nivel_medio":1.386,"nivel_medio_min":1.376,"nivel_medio_max":1.399,"pct_alto":14.7,"n_hexagonos":3,"area_ha":171.95}},{"type":"Feature","geometry":{"type":"Polygon","coordinates":[[[-71.267749,-32.937861],[-71.268372,-32.933566],[-71.273428,-32.932184],[-71.277862,-32.935098],[-71.277239,-32.939394],[-71.272182,-32.940775],[-71.267749,-32.937861]]]},"properties":{"comuna":"Quillota","mancha_id":"05501-88b2c415abfffff","clase":"Bajo","nivel_medio":1.069,"nivel_medio_min":1.069,"nivel_medio_max":1.069,"pct_alto":24.9,"n_hexagonos":1,"area_ha":64.91}},{"type":"Feature","geometry":{"type":"Polygon","coordinates":[[[-71.239283,-32.93326],[-71.239906,-32.928964],[-71.235474,-32.926049],[-71.236097,-32.921753],[-71.241153,-32.920373],[-71.245585,-32.923288],[-71.244961,-32.927584],[-71.249394,-32.930499],[-71.248771,-32.934794],[-71.243715,-32.936175],[-71.239283,-32.93326]]]},"properties":{"comuna":"Quillota","mancha_id":"05501-88b2c4159dfffff","clase":"Bajo","nivel_medio":1.342,"nivel_medio_min":1.294,"nivel_medio_max":1.389,"pct_alto":13.2,"n_hexagonos":2,"area_ha":129.8}},{"type":"Feature","geometry":{"type":"Polygon","coordinates":[[[-71.311238,-32.872302],[-71.31186,-32.868001],[-71.316917,-32.866615],[-71.321351,-32.86953],[-71.320729,-32.873831],[-71.315672,-32.875217],[-71.311238,-32.872302]]]},"properties":{"comuna":"Quillota","mancha_id":"05501-88b2c41569fffff","clase":"Bajo","nivel_medio":1.481,"nivel_medio_min":1.481,"nivel_medio_max":1.481,"pct_alto":4.8,"n_hexagonos":1,"area_ha":65.03}},{"type":"Feature","geometry":{"type":"Polygon","coordinates":[[[-71.28277,-32.867712],[-71.283393,-32.863411],[-71.288448,-32.862026],[-71.292881,-32.864942],[-71.292259,-32.869243],[-71.287203,-32.870627],[-71.28658,-32.874927],[-71.281525,-32.876312],[-71.277092,-32.873396],[-71.277715,-32.869096],[-71.28277,-32.867712]]]},"properties":{"comuna":"Quillota","mancha_id":"05501-88b2c4154bfffff","clase":"Bajo","nivel_medio":1.266,"nivel_medio_min":1.241,"nivel_medio_max":1.292,"pct_alto":0.4,"n_hexagonos":2,"area_ha":130.02}},{"type":"Feature","geometry":{"type":"Polygon","coordinates":[[[-71.277165,-32.906403],[-71.277788,-32.902105],[-71.282844,-32.900722],[-71.287278,-32.903637],[-71.286655,-32.907935],[-71.281599,-32.909318],[-71.277165,-32.906403]]]},"properties":{"comuna":"Quillota","mancha_id":"05501-88b2c41517fffff","clase":"Bajo","nivel_medio":1.215,"nivel_medio_min":1.215,"nivel_medio_max":1.215,"pct_alto":10.4,"n_hexagonos":1,"area_ha":64.96}},{"type":"Feature","geometry":{"type":"Polygon","coordinates":[[[-71.290391,-32.882143],[-71.291014,-32.877843],[-71.29607,-32.876458],[-71.300503,-32.879373],[-71.299881,-32.883673],[-71.294824,-32.885058],[-71.290391,-32.882143]]]},"properties":{"comuna":"Quillota","mancha_id":"05501-88b2c41509fffff","clase":"Bajo","nivel_medio":1.471,"nivel_medio_min":1.471,"nivel_medio_max":1.471,"pct_alto":4.8,"n_hexagonos":1,"area_ha":65.0}},{"type":"Feature","geometry":{"type":"Polygon","coordinates":[[[-71.191792,-32.892589],[-71.192416,-32.888292],[-71.197469,-32.886912],[-71.201899,-32.88983],[-71.201275,-32.894127],[-71.196222,-32.895507],[-71.191792,-32.892589]]]},"properties":{"comuna":"Quillota","mancha_id":"05501-88b2c414cdfffff","clase":"Bajo","nivel_medio":1.27,"nivel_medio_min":1.27,"nivel_medio_max":1.27,"pct_alto":10.5,"n_hexagonos":1,"area_ha":64.92}},{"type":"Feature","geometry":{"type":"Polygon","coordinates":[[[-71.188048,-32.918365],[-71.188672,-32.91407],[-71.193726,-32.912691],[-71.19435,-32.908396],[-71.199404,-32.907016],[-71.203834,-32.909933],[-71.208888,-32.908554],[-71.213318,-32.91147],[-71.212694,-32.915766],[-71.20764,-32.917145],[-71.20321,-32.914229],[-71.198156,-32.915608],[-71.197532,-32.919903],[-71.192478,-32.921282],[-71.188048,-32.918365]]]},"properties":{"comuna":"Quillota","mancha_id":"05501-88b2c41481fffff","clase":"Bajo","nivel_medio":1.205,"nivel_medio_min":1.108,"nivel_medio_max":1.361,"pct_alto":12.7,"n_hexagonos":3,"area_ha":194.67}},{"type":"Feature","geometry":{"type":"Polygon","coordinates":[[[-71.235338,-32.860048],[-71.230285,-32.861431],[-71.225957,-32.858581],[-71.226281,-32.858537],[-71.226305,-32.858533],[-71.226666,-32.858475],[-71.227029,-32.858417],[-71.227742,-32.858301],[-71.22802,-32.858247],[-71.228268,-32.858198],[-71.228563,-32.858118],[-71.229086,-32.858],[-71.229205,-32.85798],[-71.229296,-32.857964],[-71.229395,-32.857964],[-71.229591,-32.858004],[-71.229648,-32.85802],[-71.229907,-32.858092],[-71.230141,-32.858128],[-71.230301,-32.858128],[-71.230364,-32.858123],[-71.230488,-32.858112],[-71.230512,-32.858111],[-71.230583,-32.858098],[-71.230595,-32.858095],[-71.230713,-32.858074],[-71.230773,-32.858063],[-71.230818,-32.858047],[-71.23087,-32.858029],[-71.231123,-32.857941],[-71.231267,-32.857903],[-71.231462,-32.857851],[-71.231732,-32.857774],[-71.233065,-32.857397],[-71.233187,-32.857362],[-71.23344,-32.857284],[-71.234249,-32.857035],[-71.234345,-32.857005],[-71.234409,-32.856986],[-71.235406,-32.856691],[-71.235285,-32.856349],[-71.235279,-32.856331],[-71.235207,-32.856127],[-71.235157,-32.855987],[-71.235034,-32.85564],[-71.235175,-32.855592],[-71.235504,-32.855482],[-71.23554,-32.85547],[-71.235962,-32.855748],[-71.235338,-32.860048]]]},"properties":{"comuna":"Quillota","mancha_id":"05501-88b2c41441fffff","clase":"Bajo","nivel_medio":0.647,"nivel_medio_min":0.647,"nivel_medio_max":0.647,"pct_alto":15.9,"n_hexagonos":1,"area_ha":26.79}},{"type":"Feature","geometry":{"type":"Polygon","coordinates":[[[-71.260057,-32.890444],[-71.26068,-32.886145],[-71.265736,-32.884762],[-71.270168,-32.887678],[-71.269545,-32.891977],[-71.273978,-32.894892],[-71.273355,-32.89919],[-71.268299,-32.900573],[-71.267676,-32.904871],[-71.262621,-32.906253],[-71.258188,-32.903338],[-71.253133,-32.90472],[-71.248701,-32.901804],[-71.249324,-32.897507],[-71.254379,-32.896125],[-71.258811,-32.89904],[-71.263867,-32.897658],[-71.26449,-32.89336],[-71.260057,-32.890444]]]},"properties":{"comuna":"Quillota","mancha_id":"05501-88b2c41425fffff","clase":"Bajo","nivel_medio":0.806,"nivel_medio_min":0.512,"nivel_medio_max":0.968,"pct_alto":15.9,"n_hexagonos":4,"area_ha":259.83}},{"type":"Feature","geometry":{"type":"Polygon","coordinates":[[[-71.227791,-32.878627],[-71.228414,-32.874328],[-71.233468,-32.872946],[-71.234092,-32.868647],[-71.239146,-32.867265],[-71.243577,-32.870181],[-71.248631,-32.868799],[-71.253063,-32.871715],[-71.25244,-32.876014],[-71.247385,-32.877397],[-71.242954,-32.874481],[-71.237899,-32.875863],[-71.237276,-32.880162],[-71.241707,-32.883078],[-71.241084,-32.887377],[-71.245516,-32.890293],[-71.244892,-32.894591],[-71.239838,-32.895973],[-71.235406,-32.893056],[-71.23603,-32.888759],[-71.231598,-32.885842],[-71.232222,-32.881544],[-71.227791,-32.878627]]]},"properties":{"comuna":"Quillota","mancha_id":"05501-88b2c41401fffff","clase":"Bajo","nivel_medio":0.861,"nivel_medio_min":0.654,"nivel_medio_max":1.05,"pct_alto":15.4,"n_hexagonos":5,"area_ha":324.83}},{"type":"Feature","geometry":{"type":"Polygon","coordinates":[[[-71.326408,-32.868144],[-71.32703,-32.863842],[-71.332087,-32.862456],[-71.336522,-32.86537],[-71.3359,-32.869672],[-71.330843,-32.871058],[-71.326408,-32.868144]]]},"properties":{"comuna":"Quillota","mancha_id":"05501-88b2c410bbfffff","clase":"Bajo","nivel_medio":1.455,"nivel_medio_min":1.455,"nivel_medio_max":1.455,"pct_alto":2.4,"n_hexagonos":1,"area_ha":65.05}},{"type":"Feature","geometry":{"type":"Polygon","coordinates":[[[-71.269585,-32.966318],[-71.269264,-32.966318],[-71.270358,-32.96602],[-71.270279,-32.966126],[-71.26997,-32.966203],[-71.269585,-32.966318]]]},"properties":{"comuna":"Quillota","mancha_id":"05501-88b2c40755fffff","clase":"Bajo","nivel_medio":1.255,"nivel_medio_min":1.255,"nivel_medio_max":1.255,"pct_alto":10.2,"n_hexagonos":1,"area_ha":0.08}},{"type":"Feature","geometry":{"type":"Polygon","coordinates":[[[-71.298089,-32.929569],[-71.298712,-32.925272],[-71.303769,-32.923889],[-71.308204,-32.926802],[-71.307581,-32.931099],[-71.302524,-32.932482],[-71.298089,-32.929569]]]},"properties":{"comuna":"Quillota","mancha_id":"05501-88b2c402d1fffff","clase":"Bajo","nivel_medio":1.329,"nivel_medio_min":1.329,"nivel_medio_max":1.329,"pct_alto":13.2,"n_hexagonos":1,"area_ha":64.94}},{"type":"Feature","geometry":{"type":"Polygon","coordinates":[[[-71.319563,-32.915439],[-71.315128,-32.912526],[-71.310071,-32.91391],[-71.305637,-32.910996],[-71.306259,-32.906698],[-71.311316,-32.905313],[-71.311938,-32.901015],[-71.316995,-32.89963],[-71.32143,-32.902544],[-71.320808,-32.906843],[-71.325243,-32.909756],[-71.324621,-32.914055],[-71.319563,-32.915439]]]},"properties":{"comuna":"Quillota","mancha_id":"05501-88b2c402c9fffff","clase":"Bajo","nivel_medio":1.31,"nivel_medio_min":1.233,"nivel_medio_max":1.379,"pct_alto":4.7,"n_hexagonos":3,"area_ha":194.93}},{"type":"Feature","geometry":{"type":"Polygon","coordinates":[[[-71.305714,-32.943988],[-71.310149,-32.946901],[-71.315207,-32.945518],[-71.319642,-32.948431],[-71.324701,-32.947047],[-71.329137,-32.94996],[-71.32888,-32.95173],[-71.328848,-32.951705],[-71.328424,-32.951551],[-71.327614,-32.951628],[-71.327306,-32.951782],[-71.326766,-32.951666],[-71.326496,-32.951435],[-71.325879,-32.951358],[-71.325339,-32.951589],[-71.324645,-32.951589],[-71.324151,-32.951523],[-71.323805,-32.95157],[-71.323334,-32.951633],[-71.322795,-32.951705],[-71.322255,-32.951744],[-71.321792,-32.951744],[-71.321368,-32.951744],[-71.320635,-32.951821],[-71.320366,-32.951821],[-71.319941,-32.951859],[-71.319734,-32.951979],[-71.319556,-32.952206],[-71.31917,-32.952438],[-71.319063,-32.952428],[-71.318746,-32.952399],[-71.318206,-32.952707],[-71.317936,-32.952746],[-71.317705,-32.952746],[-71.317397,-32.952746],[-71.316857,-32.952746],[-71.316355,-32.952746],[-71.316163,-32.952746],[-71.315816,-32.952862],[-71.315353,-32.95317],[-71.315122,-32.953324],[-71.314466,-32.95344],[-71.313965,-32.953247],[-71.313814,-32.953048],[-71.313541,-32.9529],[-71.313078,-32.9529],[-71.312654,-32.9529],[-71.312065,-32.952863],[-71.312037,-32.952862],[-71.311883,-32.952785],[-71.311652,-32.952592],[-71.311651,-32.952592],[-71.311343,-32.95236],[-71.310919,-32.951975],[-71.310498,-32.951835],[-71.31034,-32.951782],[-71.309955,-32.951782],[-71.309029,-32.951898],[-71.308567,-32.952245],[-71.308335,-32.95263],[-71.307911,-32.952977],[-71.307526,-32.953402],[-71.307217,-32.953594],[-71.306562,-32.953941],[-71.306099,-32.954173],[-71.305829,-32.954635],[-71.305829,-32.954944],[-71.305366,-32.955252],[-71.304942,-32.955368],[-71.304672,-32.955368],[-71.304325,-32.955522],[-71.304017,-32.95569],[-71.303901,-32.955754],[-71.3034,-32.956062],[-71.302976,-32.956178],[-71.30259,-32.956293],[-71.302282,-32.956332],[-71.302012,-32.956486],[-71.301742,-32.956756],[-71.301549,-32.957065],[-71.301395,-32.957296],[-71.30115,-32.957611],[-71.301125,-32.957643],[-71.300778,-32.957874],[-71.300508,-32.958067],[-71.300238,-32.958106],[-71.299891,-32.958106],[-71.299621,-32.958106],[-71.299159,-32.958221],[-71.298769,-32.958388],[-71.298619,-32.958453],[-71.298079,-32.958607],[-71.297578,-32.958723],[-71.297269,-32.958723],[-71.296999,-32.958684],[-71.296652,-32.958684],[-71.296382,-32.958915],[-71.296074,-32.959185],[-71.295881,-32.959455],[-71.295688,-32.959648],[-71.295341,-32.959918],[-71.294669,-32.960389],[-71.294185,-32.960496],[-71.293809,-32.960849],[-71.293349,-32.961187],[-71.292797,-32.961344],[-71.292372,-32.961344],[-71.29191,-32.961152],[-71.291416,-32.961016],[-71.291244,-32.960874],[-71.291139,-32.960728],[-71.290889,-32.96046],[-71.290739,-32.960395],[-71.290572,-32.960373],[-71.29032,-32.960334],[-71.290057,-32.960344],[-71.289845,-32.960309],[-71.289598,-32.960258],[-71.289365,-32.960226],[-71.288825,-32.960188],[-71.288794,-32.960185],[-71.289296,-32.956725],[-71.284861,-32.953812],[-71.285484,-32.949517],[-71.28105,-32.946603],[-71.281673,-32.942308],[-71.28673,-32.940926],[-71.291164,-32.943839],[-71.296221,-32.942457],[-71.300656,-32.94537],[-71.305714,-32.943988]]]},"properties":{"comuna":"Quillota","mancha_id":"05501-88b2c40291fffff","clase":"Bajo","nivel_medio":1.194,"nivel_medio_min":1.0,"nivel_medio_max":1.458,"pct_alto":6.8,"n_hexagonos":10,"area_ha":466.83}},{"type":"Feature","geometry":{"type":"Polygon","coordinates":[[[-71.370145,-32.901581],[-71.365086,-32.902968],[-71.364464,-32.907267],[-71.359406,-32.908654],[-71.354969,-32.905741],[-71.349911,-32.907127],[-71.345474,-32.904214],[-71.346096,-32.899915],[-71.34166,-32.897002],[-71.342282,-32.892702],[-71.34734,-32.891315],[-71.351776,-32.894229],[-71.356834,-32.892842],[-71.357456,-32.888542],[-71.362514,-32.887154],[-71.366951,-32.890067],[-71.366329,-32.894368],[-71.370766,-32.897281],[-71.375825,-32.895893],[-71.380262,-32.898805],[-71.379641,-32.903106],[-71.374582,-32.904493],[-71.370145,-32.901581]]]},"properties":{"comuna":"Quillota","mancha_id":"05501-88b2c40201fffff","clase":"Bajo","nivel_medio":1.302,"nivel_medio_min":1.064,"nivel_medio_max":1.445,"pct_alto":4.1,"n_hexagonos":7,"area_ha":455.14}},{"type":"Feature","geometry":{"type":"Polygon","coordinates":[[[-71.169143,-32.948262],[-71.169767,-32.943969],[-71.165338,-32.941052],[-71.165962,-32.936759],[-71.171015,-32.935382],[-71.175445,-32.938299],[-71.174821,-32.942592],[-71.17925,-32.945508],[-71.178626,-32.949801],[-71.183056,-32.952717],[-71.182432,-32.95701],[-71.177378,-32.958387],[-71.172948,-32.955471],[-71.173572,-32.951178],[-71.169143,-32.948262]]]},"properties":{"comuna":"Quillota","mancha_id":"05501-88b2c4a961fffff","clase":"Medio","nivel_medio":2.417,"nivel_medio_min":2.343,"nivel_medio_max":2.464,"pct_alto":41.8,"n_hexagonos":3,"area_ha":194.48}},{"type":"Feature","geometry":{"type":"Polygon","coordinates":[[[-71.152052,-32.932301],[-71.146999,-32.933677],[-71.145952,-32.932988],[-71.146153,-32.932747],[-71.146487,-32.932379],[-71.147123,-32.931577],[-71.147792,-32.931109],[-71.148226,-32.930975],[-71.149163,-32.930707],[-71.149932,-32.930507],[-71.150501,-32.930139],[-71.151002,-32.929771],[-71.151437,-32.929537],[-71.151905,-32.929102],[-71.151638,-32.9286],[-71.15134,-32.927947],[-71.151103,-32.927363],[-71.150935,-32.926861],[-71.152676,-32.928008],[-71.152052,-32.932301]]]},"properties":{"comuna":"Quillota","mancha_id":"05501-88b2c4a949fffff","clase":"Medio","nivel_medio":2.407,"nivel_medio_min":2.407,"nivel_medio_max":2.407,"pct_alto":58.5,"n_hexagonos":1,"area_ha":16.91}},{"type":"Feature","geometry":{"type":"Polygon","coordinates":[[[-71.163904,-32.863059],[-71.162041,-32.863567],[-71.161589,-32.86327],[-71.162595,-32.863046],[-71.163355,-32.862919],[-71.163698,-32.86299],[-71.163904,-32.863059]]]},"properties":{"comuna":"Quillota","mancha_id":"05501-88b2c41689fffff","clase":"Medio","nivel_medio":2.243,"nivel_medio_min":2.243,"nivel_medio_max":2.243,"pct_alto":24.3,"n_hexagonos":1,"area_ha":0.66}},{"type":"Feature","geometry":{"type":"Polygon","coordinates":[[[-71.180377,-32.870943],[-71.175325,-32.872323],[-71.174701,-32.876621],[-71.169648,-32.878],[-71.16522,-32.875082],[-71.165845,-32.870784],[-71.170897,-32.869405],[-71.171321,-32.866482],[-71.171439,-32.866453],[-71.172155,-32.866386],[-71.172655,-32.866303],[-71.17332,-32.86622],[-71.174003,-32.866336],[-71.174785,-32.866403],[-71.175318,-32.866486],[-71.175917,-32.86647],[-71.17635,-32.86627],[-71.176783,-32.866037],[-71.177016,-32.865887],[-71.177482,-32.865854],[-71.178015,-32.865987],[-71.178631,-32.866037],[-71.179114,-32.866087],[-71.179597,-32.866237],[-71.17983,-32.86657],[-71.180079,-32.866869],[-71.180279,-32.867319],[-71.180545,-32.867851],[-71.180772,-32.868224],[-71.180377,-32.870943]]]},"properties":{"comuna":"Quillota","mancha_id":"05501-88b2c41685fffff","clase":"Medio","nivel_medio":1.898,"nivel_medio_min":1.882,"nivel_medio_max":1.911,"pct_alto":37.8,"n_hexagonos":2,"area_ha":114.0}},{"type":"Feature","geometry":{"type":"Polygon","coordinates":[[[-71.197532,-32.919903],[-71.198156,-32.915608],[-71.20321,-32.914229],[-71.20764,-32.917145],[-71.207016,-32.921441],[-71.201962,-32.92282],[-71.201338,-32.927115],[-71.196284,-32.928493],[-71.191854,-32.925577],[-71.192478,-32.921282],[-71.197532,-32.919903]]]},"properties":{"comuna":"Quillota","mancha_id":"05501-88b2c41485fffff","clase":"Medio","nivel_medio":1.807,"nivel_medio_min":1.705,"nivel_medio_max":1.91,"pct_alto":38.4,"n_hexagonos":2,"area_ha":129.76}},{"type":"Feature","geometry":{"type":"Polygon","coordinates":[[[-71.25244,-32.876014],[-71.253063,-32.871715],[-71.258117,-32.870332],[-71.262549,-32.873248],[-71.261926,-32.877547],[-71.256871,-32.878931],[-71.25244,-32.876014]]]},"properties":{"comuna":"Quillota","mancha_id":"05501-88b2c41467fffff","clase":"Medio","nivel_medio":1.765,"nivel_medio_min":1.765,"nivel_medio_max":1.765,"pct_alto":44.8,"n_hexagonos":1,"area_ha":64.98}},{"type":"Feature","geometry":{"type":"Polygon","coordinates":[[[-71.18811,-32.95134],[-71.188734,-32.947047],[-71.193788,-32.94567],[-71.194412,-32.941376],[-71.199467,-32.939998],[-71.203897,-32.942914],[-71.203274,-32.947208],[-71.198219,-32.948585],[-71.197595,-32.952879],[-71.19254,-32.954256],[-71.18811,-32.95134]]]},"properties":{"comuna":"Quillota","mancha_id":"05501-88b2c40659fffff","clase":"Medio","nivel_medio":2.284,"nivel_medio_min":2.228,"nivel_medio_max":2.341,"pct_alto":36.1,"n_hexagonos":2,"area_ha":129.68}},{"type":"Feature","geometry":{"type":"Polygon","coordinates":[[[-71.435544,-32.9208],[-71.440453,-32.919453],[-71.443692,-32.921576],[-71.44371,-32.921781],[-71.443649,-32.921938],[-71.443248,-32.922749],[-71.443211,-32.922819],[-71.443042,-32.92314],[-71.443032,-32.923158],[-71.442936,-32.923335],[-71.442161,-32.923023],[-71.441548,-32.922839],[-71.440907,-32.9226],[-71.440448,-32.922316],[-71.439902,-32.922225],[-71.439117,-32.921779],[-71.438525,-32.921576],[-71.4376,-32.921373],[-71.436232,-32.921024],[-71.435544,-32.9208]]]},"properties":{"comuna":"Quillota","mancha_id":"05501-88b2c4033dfffff","clase":"Medio","nivel_medio":2.406,"nivel_medio_min":2.406,"nivel_medio_max":2.406,"pct_alto":70.5,"n_hexagonos":1,"area_ha":14.78}},{"type":"Feature","geometry":{"type":"Polygon","coordinates":[[[-71.429182,-32.91846],[-71.429,-32.918468],[-71.430951,-32.917932],[-71.431629,-32.918376],[-71.431591,-32.918371],[-71.430942,-32.918408],[-71.430324,-32.918563],[-71.429985,-32.918599],[-71.42958,-32.918506],[-71.429182,-32.91846]]]},"properties":{"comuna":"Quillota","mancha_id":"05501-88b2c40339fffff","clase":"Medio","nivel_medio":2.492,"nivel_medio_min":2.492,"nivel_medio_max":2.492,"pct_alto":60.7,"n_hexagonos":1,"area_ha":0.8}},{"type":"Feature","geometry":{"type":"Polygon","coordinates":[[[-71.43342,-32.919797],[-71.433138,-32.919593],[-71.433056,-32.919312],[-71.435114,-32.92066],[-71.435091,-32.920653],[-71.434257,-32.920156],[-71.43342,-32.919797]]]},"properties":{"comuna":"Quillota","mancha_id":"05501-88b2c40339fffff-2","clase":"Medio","nivel_medio":2.492,"nivel_medio_min":2.492,"nivel_medio_max":2.492,"pct_alto":60.7,"n_hexagonos":1,"area_ha":0.24}},{"type":"Feature","geometry":{"type":"Polygon","coordinates":[[[-71.381979,-32.921208],[-71.381881,-32.921216],[-71.381736,-32.921227],[-71.381427,-32.921071],[-71.381126,-32.920833],[-71.381042,-32.920644],[-71.380819,-32.920357],[-71.380503,-32.920182],[-71.380177,-32.920031],[-71.379946,-32.919859],[-71.379723,-32.919548],[-71.379644,-32.919163],[-71.379593,-32.91892],[-71.379475,-32.918751],[-71.379258,-32.918669],[-71.378999,-32.918722],[-71.378616,-32.918782],[-71.378321,-32.918754],[-71.377995,-32.918636],[-71.377707,-32.918436],[-71.37734,-32.918243],[-71.376945,-32.918079],[-71.376529,-32.917967],[-71.376048,-32.917948],[-71.375647,-32.917989],[-71.375211,-32.917964],[-71.374702,-32.917992],[-71.373959,-32.918111],[-71.3733,-32.918215],[-71.372692,-32.918341],[-71.372574,-32.918378],[-71.372717,-32.917391],[-71.377776,-32.916004],[-71.378398,-32.911705],[-71.37396,-32.908793],[-71.368901,-32.91018],[-71.364464,-32.907267],[-71.365086,-32.902968],[-71.370145,-32.901581],[-71.374582,-32.904493],[-71.379641,-32.903106],[-71.380262,-32.898805],[-71.375825,-32.895893],[-71.370766,-32.897281],[-71.366329,-32.894368],[-71.366951,-32.890067],[-71.362514,-32.887154],[-71.357456,-32.888542],[-71.356834,-32.892842],[-71.351776,-32.894229],[-71.34734,-32.891315],[-71.342282,-32.892702],[-71.34166,-32.897002],[-71.346096,-32.899915],[-71.345474,-32.904214],[-71.349911,-32.907127],[-71.349289,-32.911426],[-71.353725,-32.914339],[-71.353103,-32.918638],[-71.35754,-32.92155],[-71.357078,-32.924747],[-71.356514,-32.925201],[-71.35598,-32.925573],[-71.355383,-32.925651],[-71.35454,-32.925887],[-71.353142,-32.926075],[-71.352187,-32.926351],[-71.351808,-32.926568],[-71.351363,-32.926908],[-71.351309,-32.92695],[-71.350935,-32.927358],[-71.350526,-32.927709],[-71.350145,-32.927859],[-71.349765,-32.928048],[-71.349329,-32.928247],[-71.348994,-32.928387],[-71.348799,-32.928734],[-71.348516,-32.92915],[-71.348104,-32.929424],[-71.347779,-32.929517],[-71.347336,-32.929477],[-71.346745,-32.929355],[-71.346156,-32.929347],[-71.345461,-32.929483],[-71.344646,-32.929708],[-71.344011,-32.929889],[-71.344999,-32.931956],[-71.345107,-32.932213],[-71.345596,-32.933376],[-71.346005,-32.93412],[-71.345557,-32.937214],[-71.340498,-32.938599],[-71.339876,-32.942895],[-71.334817,-32.94428],[-71.334195,-32.948576],[-71.329137,-32.94996],[-71.324701,-32.947047],[-71.319642,-32.948431],[-71.315207,-32.945518],[-71.310149,-32.946901],[-71.305714,-32.943988],[-71.300656,-32.94537],[-71.296221,-32.942457],[-71.291164,-32.943839],[-71.28673,-32.940926],[-71.281673,-32.942308],[-71.28105,-32.946603],[-71.285484,-32.949517],[-71.284861,-32.953812],[-71.289296,-32.956725],[-71.288794,-32.960185],[-71.288285,-32.960149],[-71.287861,-32.960111],[-71.287506,-32.960176],[-71.287232,-32.960296],[-71.286903,-32.960438],[-71.286641,-32.960504],[-71.286367,-32.960559],[-71.285779,-32.960535],[-71.285355,-32.960496],[-71.284892,-32.960419],[-71.284545,-32.960381],[-71.284237,-32.960419],[-71.283813,-32.960535],[-71.283466,-32.960766],[-71.282972,-32.96088],[-71.282573,-32.960941],[-71.282205,-32.96091],[-71.281898,-32.960788],[-71.28156,-32.960818],[-71.281278,-32.960865],[-71.279181,-32.959487],[-71.279804,-32.955193],[-71.27537,-32.952279],[-71.275993,-32.947984],[-71.271559,-32.945071],[-71.266502,-32.946452],[-71.265879,-32.950746],[-71.260823,-32.952127],[-71.2602,-32.956421],[-71.255143,-32.957801],[-71.25452,-32.962095],[-71.249463,-32.963475],[-71.24884,-32.967768],[-71.243784,-32.969147],[-71.239351,-32.966233],[-71.234295,-32.967612],[-71.229863,-32.964698],[-71.224807,-32.966076],[-71.220375,-32.963161],[-71.215319,-32.964539],[-71.210888,-32.961625],[-71.211512,-32.957332],[-71.207081,-32.954416],[-71.207704,-32.950123],[-71.212759,-32.948745],[-71.217191,-32.95166],[-71.222246,-32.950281],[-71.22287,-32.945987],[-71.227925,-32.944608],[-71.232357,-32.947523],[-71.231733,-32.951817],[-71.236165,-32.954732],[-71.241221,-32.953353],[-71.241845,-32.949059],[-71.246901,-32.947679],[-71.247524,-32.943384],[-71.25258,-32.942004],[-71.257013,-32.944918],[-71.262069,-32.943538],[-71.262692,-32.939242],[-71.267749,-32.937861],[-71.272182,-32.940775],[-71.277239,-32.939394],[-71.277862,-32.935098],[-71.273428,-32.932184],[-71.274051,-32.927888],[-71.269618,-32.924974],[-71.264561,-32.926355],[-71.263938,-32.930651],[-71.258882,-32.932033],[-71.258259,-32.936328],[-71.253203,-32.937709],[-71.248771,-32.934794],[-71.249394,-32.930499],[-71.244961,-32.927584],[-71.245585,-32.923288],[-71.241153,-32.920373],[-71.236097,-32.921753],[-71.235474,-32.926049],[-71.239906,-32.928964],[-71.239283,-32.93326],[-71.234227,-32.93464],[-71.229795,-32.931724],[-71.230419,-32.927429],[-71.225987,-32.924514],[-71.226611,-32.920218],[-71.22218,-32.917302],[-71.217125,-32.918682],[-71.212694,-32.915766],[-71.213318,-32.91147],[-71.208888,-32.908554],[-71.203834,-32.909933],[-71.199404,-32.907016],[-71.19435,-32.908396],[-71.193726,-32.912691],[-71.188672,-32.91407],[-71.184243,-32.911153],[-71.184867,-32.906858],[-71.18992,-32.905479],[-71.190544,-32.901183],[-71.195598,-32.899803],[-71.196222,-32.895507],[-71.201275,-32.894127],[-71.201899,-32.88983],[-71.197469,-32.886912],[-71.192416,-32.888292],[-71.191792,-32.892589],[-71.186739,-32.893969],[-71.186115,-32.898265],[-71.181062,-32.899644],[-71.176633,-32.896727],[-71.177257,-32.89243],[-71.18231,-32.891051],[-71.182934,-32.886754],[-71.187987,-32.885375],[-71.188611,-32.881077],[-71.193664,-32.879697],[-71.194287,-32.875399],[-71.189858,-32.872481],[-71.190482,-32.868183],[-71.195535,-32.866803],[-71.195865,-32.864525],[-71.196144,-32.864422],[-71.19661,-32.864289],[-71.19706,-32.864139],[-71.197443,-32.864022],[-71.198035,-32.863885],[-71.198105,-32.863868],[-71.198159,-32.863856],[-71.198258,-32.863832],[-71.19922,-32.863599],[-71.199452,-32.863508],[-71.200072,-32.863265],[-71.200629,-32.862898],[-71.2007,-32.86266],[-71.200689,-32.862451],[-71.20067,-32.862281],[-71.200703,-32.862054],[-71.200706,-32.862032],[-71.200772,-32.861917],[-71.200892,-32.861804],[-71.201168,-32.861637],[-71.201203,-32.861617],[-71.201282,-32.861571],[-71.201607,-32.861383],[-71.201689,-32.861335],[-71.202036,-32.861139],[-71.202116,-32.861094],[-71.202623,-32.860824],[-71.202744,-32.86076],[-71.202881,-32.860719],[-71.203118,-32.860666],[-71.203168,-32.860654],[-71.20334,-32.860616],[-71.203374,-32.860609],[-71.203542,-32.860571],[-71.203547,-32.86057],[-71.20388,-32.860468],[-71.204027,-32.860372],[-71.204052,-32.860346],[-71.204151,-32.86024],[-71.204354,-32.860029],[-71.204399,-32.859982],[-71.204487,-32.859892],[-71.204635,-32.859742],[-71.204768,-32.859607],[-71.204898,-32.859484],[-71.205051,-32.859398],[-71.205235,-32.859328],[-71.205374,-32.859295],[-71.20542,-32.859284],[-71.205561,-32.859269],[-71.205859,-32.859238],[-71.206211,-32.85924],[-71.206386,-32.859224],[-71.206612,-32.859204],[-71.206904,-32.85918],[-71.207175,-32.859157],[-71.207407,-32.859153],[-71.207523,-32.85915],[-71.207742,-32.859164],[-71.207876,-32.859165],[-71.20808,-32.859167],[-71.208343,-32.859187],[-71.208501,-32.85923],[-71.208641,-32.859313],[-71.208742,-32.859359],[-71.209204,-32.859391],[-71.209581,-32.859406],[-71.209602,-32.859406],[-71.209906,-32.859427],[-71.210416,-32.859461],[-71.210968,-32.859491],[-71.211152,-32.859504],[-71.211503,-32.859529],[-71.211809,-32.859535],[-71.212024,-32.859531],[-71.212128,-32.859529],[-71.212444,-32.859473],[-71.212732,-32.859384],[-71.212804,-32.859362],[-71.21305,-32.859293],[-71.213209,-32.859296],[-71.213423,-32.859333],[-71.213676,-32.859405],[-71.214259,-32.85958],[-71.214843,-32.859785],[-71.215237,-32.859836],[-71.215446,-32.85981],[-71.215593,-32.859797],[-71.215598,-32.859796],[-71.216009,-32.859758],[-71.216199,-32.859739],[-71.216354,-32.859732],[-71.216597,-32.859771],[-71.216964,-32.859795],[-71.217159,-32.859807],[-71.217503,-32.859836],[-71.217522,-32.859838],[-71.217884,-32.859866],[-71.218087,-32.859849],[-71.218833,-32.859727],[-71.219578,-32.859584],[-71.21975,-32.859551],[-71.220143,-32.859463],[-71.220801,-32.859896],[-71.224704,-32.858828],[-71.224824,-32.8588],[-71.225405,-32.858678],[-71.225808,-32.858602],[-71.225957,-32.858581],[-71.230285,-32.861431],[-71.229661,-32.86573],[-71.234092,-32.868647],[-71.233468,-32.872946],[-71.228414,-32.874328],[-71.223984,-32.871411],[-71.21893,-32.872793],[-71.218307,-32.877092],[-71.222737,-32.880009],[-71.227791,-32.878627],[-71.232222,-32.881544],[-71.231598,-32.885842],[-71.23603,-32.888759],[-71.235406,-32.893056],[-71.239838,-32.895973],[-71.244892,-32.894591],[-71.249324,-32.897507],[-71.248701,-32.901804],[-71.243646,-32.903186],[-71.243023,-32.907483],[-71.237968,-32.908864],[-71.233536,-32.905948],[-71.228481,-32.907329],[-71.227858,-32.911626],[-71.232289,-32.914542],[-71.237344,-32.913161],[-71.241776,-32.916076],[-71.246831,-32.914695],[-71.251263,-32.917611],[-71.256319,-32.916229],[-71.256942,-32.911932],[-71.25251,-32.909017],[-71.253133,-32.90472],[-71.258188,-32.903338],[-71.262621,-32.906253],[-71.267676,-32.904871],[-71.268299,-32.900573],[-71.273355,-32.89919],[-71.273978,-32.894892],[-71.279034,-32.893509],[-71.279657,-32.88921],[-71.284712,-32.887826],[-71.285335,-32.883527],[-71.280902,-32.880611],[-71.281525,-32.876312],[-71.28658,-32.874927],[-71.287203,-32.870627],[-71.292259,-32.869243],[-71.292881,-32.864942],[-71.288448,-32.862026],[-71.283393,-32.863411],[-71.28277,-32.867712],[-71.277715,-32.869096],[-71.273282,-32.86618],[-71.273905,-32.86188],[-71.269473,-32.858964],[-71.264418,-32.860348],[-71.263795,-32.864648],[-71.25874,-32.866032],[-71.254309,-32.863115],[-71.249254,-32.864499],[-71.244823,-32.861582],[-71.245446,-32.857282],[-71.250501,-32.855898],[-71.251124,-32.851598],[-71.246693,-32.848681],[-71.241639,-32.850064],[-71.238167,-32.847778],[-71.238168,-32.847757],[-71.238312,-32.847147],[-71.238457,-32.84652],[-71.238602,-32.846022],[-71.238682,-32.845636],[-71.238698,-32.845395],[-71.238746,-32.845106],[-71.238907,-32.844897],[-71.239212,-32.844688],[-71.239694,-32.844527],[-71.24016,-32.844302],[-71.240755,-32.84419],[-71.241334,-32.84419],[-71.241735,-32.844077],[-71.241976,-32.843852],[-71.242153,-32.843579],[-71.242378,-32.843274],[-71.242555,-32.843033],[-71.242555,-32.842711],[-71.242459,-32.842245],[-71.242266,-32.841779],[-71.242266,-32.841632],[-71.242885,-32.841462],[-71.242901,-32.841351],[-71.245014,-32.840622],[-71.245673,-32.84051],[-71.24683,-32.840526],[-71.247248,-32.840526],[-71.248132,-32.840477],[-71.249273,-32.840445],[-71.25,-32.840381],[-71.250365,-32.840349],[-71.251121,-32.840333],[-71.251603,-32.840349],[-71.252326,-32.840381],[-71.252746,-32.840397],[-71.253146,-32.840413],[-71.253998,-32.840413],[-71.254865,-32.840461],[-71.255846,-32.840542],[-71.256778,-32.840686],[-71.257662,-32.840815],[-71.258337,-32.840959],[-71.259044,-32.841072],[-71.260137,-32.841313],[-71.260747,-32.841313],[-71.261294,-32.841265],[-71.261969,-32.841152],[-71.262356,-32.841066],[-71.262692,-32.840992],[-71.263447,-32.840831],[-71.263817,-32.840735],[-71.264042,-32.840622],[-71.264379,-32.840301],[-71.264733,-32.83969],[-71.26479,-32.839593],[-71.265086,-32.839095],[-71.265601,-32.838436],[-71.265842,-32.838067],[-71.266051,-32.83752],[-71.266211,-32.836958],[-71.266388,-32.836235],[-71.266517,-32.83572],[-71.26687,-32.835126],[-71.267095,-32.834708],[-71.267304,-32.834386],[-71.267545,-32.834403],[-71.268092,-32.834579],[-71.268146,-32.834601],[-71.268574,-32.834772],[-71.268943,-32.834836],[-71.269345,-32.834836],[-71.269667,-32.834885],[-71.270165,-32.834997],[-71.270518,-32.835045],[-71.271081,-32.834997],[-71.271402,-32.835045],[-71.272045,-32.83519],[-71.27272,-32.835399],[-71.273315,-32.835592],[-71.273845,-32.835769],[-71.274456,-32.835961],[-71.275002,-32.836058],[-71.275452,-32.836106],[-71.275886,-32.836106],[-71.276481,-32.836074],[-71.276866,-32.836074],[-71.277316,-32.836106],[-71.277629,-32.836158],[-71.278281,-32.836267],[-71.278731,-32.836428],[-71.27902,-32.836524],[-71.279663,-32.836476],[-71.280466,-32.836283],[-71.281238,-32.836026],[-71.2818,-32.835817],[-71.282507,-32.835608],[-71.283022,-32.835479],[-71.28366,-32.83532],[-71.283922,-32.835254],[-71.284388,-32.835094],[-71.284822,-32.834885],[-71.28548,-32.834531],[-71.28622,-32.834226],[-71.286895,-32.834097],[-71.287489,-32.833953],[-71.2881,-32.833856],[-71.288566,-32.833808],[-71.288936,-32.833744],[-71.289771,-32.833551],[-71.290511,-32.833422],[-71.291395,-32.83331],[-71.291957,-32.833197],[-71.292439,-32.833004],[-71.292659,-32.832931],[-71.292873,-32.83286],[-71.293468,-32.832651],[-71.294625,-32.832056],[-71.295718,-32.831558],[-71.296377,-32.831221],[-71.29681,-32.830963],[-71.296987,-32.830787],[-71.297111,-32.830733],[-71.297501,-32.830562],[-71.297873,-32.830447],[-71.298176,-32.830353],[-71.298867,-32.83024],[-71.299623,-32.830224],[-71.30041,-32.830272],[-71.301278,-32.830401],[-71.301712,-32.830433],[-71.302676,-32.830497],[-71.303528,-32.830722],[-71.304573,-32.830947],[-71.30544,-32.831188],[-71.306051,-32.831333],[-71.306742,-32.831413],[-71.307385,-32.831462],[-71.307436,-32.831458],[-71.307803,-32.831429],[-71.308156,-32.831446],[-71.309105,-32.831381],[-71.310149,-32.831285],[-71.31121,-32.831108],[-71.311451,-32.831044],[-71.312271,-32.830883],[-71.313331,-32.830835],[-71.314055,-32.830819],[-71.31534,-32.830979],[-71.316224,-32.831156],[-71.316738,-32.831317],[-71.317076,-32.831429],[-71.317149,-32.831438],[-71.317494,-32.831478],[-71.318072,-32.831638],[-71.318667,-32.831896],[-71.31931,-32.832137],[-71.319567,-32.832297],[-71.320065,-32.832747],[-71.32037,-32.83294],[-71.320708,-32.833036],[-71.320997,-32.833053],[-71.32172,-32.833101],[-71.322329,-32.832931],[-71.322652,-32.83278],[-71.32291,-32.83263],[-71.323247,-32.832522],[-71.323519,-32.832433],[-71.323761,-32.83241],[-71.324067,-32.832345],[-71.324243,-32.832243],[-71.324458,-32.832028],[-71.324695,-32.831834],[-71.324931,-32.831641],[-71.325318,-32.831426],[-71.326449,-32.831275],[-71.326548,-32.831456],[-71.326722,-32.831658],[-71.326814,-32.83175],[-71.327026,-32.831962],[-71.327113,-32.832381],[-71.327232,-32.832778],[-71.327471,-32.833138],[-71.328153,-32.833797],[-71.328486,-32.834216],[-71.32928,-32.835211],[-71.329678,-32.835741],[-71.33044,-32.836205],[-71.33107,-32.836602],[-71.331666,-32.837033],[-71.332063,-32.83753],[-71.332269,-32.837615],[-71.332627,-32.837762],[-71.333588,-32.837828],[-71.335244,-32.838127],[-71.336073,-32.838325],[-71.336702,-32.838557],[-71.337166,-32.838789],[-71.337729,-32.83912],[-71.338359,-32.83922],[-71.339518,-32.839286],[-71.340043,-32.839417],[-71.340313,-32.839485],[-71.340379,-32.839521],[-71.340678,-32.839684],[-71.341473,-32.839684],[-71.3426,-32.839386],[-71.343726,-32.839187],[-71.34472,-32.83922],[-71.34535,-32.83922],[-71.345813,-32.839054],[-71.346277,-32.839021],[-71.346774,-32.839154],[-71.346887,-32.839204],[-71.347371,-32.839419],[-71.347967,-32.839783],[-71.34863,-32.840181],[-71.349425,-32.84038],[-71.349823,-32.840711],[-71.350075,-32.840991],[-71.350419,-32.841374],[-71.350585,-32.841837],[-71.35085,-32.843163],[-71.350817,-32.84409],[-71.35075,-32.844919],[-71.35085,-32.845548],[-71.351512,-32.846907],[-71.351567,-32.846991],[-71.352539,-32.848497],[-71.352904,-32.849325],[-71.353103,-32.849822],[-71.353317,-32.849973],[-71.353666,-32.85022],[-71.353997,-32.850485],[-71.354229,-32.850849],[-71.35456,-32.851711],[-71.354925,-32.852307],[-71.355886,-32.853765],[-71.356317,-32.85456],[-71.356524,-32.85496],[-71.356747,-32.855389],[-71.35702,-32.8559],[-71.357303,-32.855994],[-71.357377,-32.856018],[-71.357576,-32.856184],[-71.358304,-32.856548],[-71.359961,-32.856813],[-71.361253,-32.857012],[-71.36281,-32.857211],[-71.363871,-32.857377],[-71.365201,-32.857573],[-71.36569,-32.857696],[-71.366129,-32.858003],[-71.366651,-32.858525],[-71.366656,-32.85853],[-71.367314,-32.859188],[-71.36806,-32.860285],[-71.368806,-32.861075],[-71.369333,-32.861602],[-71.369991,-32.861777],[-71.370606,-32.861953],[-71.370869,-32.862128],[-71.371264,-32.862479],[-71.371834,-32.862918],[-71.372127,-32.862873],[-71.372738,-32.862836],[-71.373299,-32.862773],[-71.373973,-32.862649],[-71.374571,-32.862561],[-71.37509,-32.86248],[-71.375303,-32.862382],[-71.37583,-32.86205],[-71.37586,-32.862028],[-71.37704,-32.861152],[-71.377971,-32.860316],[-71.378658,-32.859827],[-71.379375,-32.859276],[-71.380279,-32.858694],[-71.381225,-32.858102],[-71.381889,-32.85752],[-71.381915,-32.857504],[-71.382322,-32.857253],[-71.382645,-32.857071],[-71.383055,-32.856907],[-71.383388,-32.856707],[-71.383774,-32.856596],[-71.384168,-32.856587],[-71.384498,-32.85665],[-71.385125,-32.856877],[-71.38533,-32.857104],[-71.385492,-32.857406],[-71.385795,-32.857514],[-71.386037,-32.857574],[-71.386391,-32.857487],[-71.387388,-32.857],[-71.387837,-32.856901],[-71.388186,-32.856863],[-71.388785,-32.857512],[-71.389309,-32.858135],[-71.389832,-32.858696],[-71.389994,-32.858833],[-71.390206,-32.858896],[-71.390456,-32.85897],[-71.390755,-32.859045],[-71.391378,-32.85927],[-71.392176,-32.859581],[-71.392369,-32.859657],[-71.392937,-32.859881],[-71.39371,-32.860043],[-71.394109,-32.86023],[-71.394969,-32.860903],[-71.395568,-32.861314],[-71.395905,-32.861462],[-71.396079,-32.861539],[-71.39669,-32.861726],[-71.397912,-32.861863],[-71.398934,-32.861975],[-71.399258,-32.8621],[-71.400293,-32.862786],[-71.400767,-32.863097],[-71.401066,-32.863347],[-71.401577,-32.864082],[-71.401839,-32.864506],[-71.401914,-32.865105],[-71.401914,-32.865558],[-71.401914,-32.865791],[-71.401615,-32.866651],[-71.40149,-32.86715],[-71.401403,-32.867736],[-71.401428,-32.86806],[-71.401501,-32.868189],[-71.401652,-32.868459],[-71.402375,-32.869207],[-71.403086,-32.87003],[-71.404108,-32.870653],[-71.404744,-32.871027],[-71.405667,-32.871551],[-71.40639,-32.871937],[-71.406988,-32.872082],[-71.407226,-32.872087],[-71.407824,-32.872124],[-71.408235,-32.872187],[-71.408388,-32.872269],[-71.408535,-32.872349],[-71.409108,-32.872636],[-71.409986,-32.872898],[-71.410622,-32.873207],[-71.411215,-32.873326],[-71.412016,-32.873504],[-71.412951,-32.873519],[-71.413766,-32.873489],[-71.414345,-32.873496],[-71.415392,-32.873695],[-71.416203,-32.873945],[-71.416589,-32.874194],[-71.417175,-32.87468],[-71.417688,-32.875161],[-71.417973,-32.875429],[-71.418572,-32.876102],[-71.419295,-32.877012],[-71.419842,-32.877688],[-71.419881,-32.877735],[-71.420317,-32.878475],[-71.420454,-32.878708],[-71.420853,-32.879493],[-71.421121,-32.879963],[-71.421477,-32.880229],[-71.4218,-32.880335],[-71.4222,-32.880466],[-71.423509,-32.880865],[-71.424968,-32.881363],[-71.425773,-32.881703],[-71.426342,-32.881622],[-71.426928,-32.881401],[-71.428131,-32.880809],[-71.428912,-32.880923],[-71.429706,-32.881248],[-71.430543,-32.882314],[-71.43114,-32.88296],[-71.431456,-32.883303],[-71.431913,-32.884407],[-71.432217,-32.885358],[-71.432864,-32.885929],[-71.43285,-32.88622],[-71.432826,-32.886728],[-71.432902,-32.887603],[-71.43332,-32.88882],[-71.433867,-32.889828],[-71.434234,-32.891027],[-71.434744,-32.891658],[-71.434677,-32.892127],[-71.439116,-32.895038],[-71.438496,-32.899339],[-71.442936,-32.90225],[-71.442429,-32.905761],[-71.442131,-32.905891],[-71.440941,-32.906401],[-71.440332,-32.90666],[-71.440039,-32.906801],[-71.439706,-32.907037],[-71.439544,-32.907206],[-71.439442,-32.90734],[-71.437254,-32.907941],[-71.432814,-32.905031],[-71.433435,-32.90073],[-71.428995,-32.897818],[-71.423935,-32.899208],[-71.423314,-32.903509],[-71.418254,-32.904899],[-71.417633,-32.909199],[-71.422072,-32.91211],[-71.421451,-32.91641],[-71.423191,-32.917551],[-71.422586,-32.917991],[-71.421565,-32.918435],[-71.420834,-32.918586],[-71.420036,-32.918613],[-71.419725,-32.918619],[-71.41944,-32.918559],[-71.419096,-32.918387],[-71.418746,-32.918245],[-71.418319,-32.91814],[-71.417838,-32.918137],[-71.417358,-32.91817],[-71.416639,-32.918256],[-71.416302,-32.918415],[-71.415717,-32.918691],[-71.414623,-32.919034],[-71.413521,-32.919085],[-71.412741,-32.918993],[-71.412426,-32.918843],[-71.412091,-32.918493],[-71.411736,-32.918177],[-71.411303,-32.917852],[-71.410711,-32.917672],[-71.410215,-32.917634],[-71.409615,-32.917687],[-71.409016,-32.917771],[-71.408235,-32.917917],[-71.407302,-32.918197],[-71.406719,-32.918334],[-71.406591,-32.918353],[-71.405458,-32.918519],[-71.404624,-32.91878],[-71.403869,-32.91911],[-71.403616,-32.919175],[-71.403473,-32.919112],[-71.40322,-32.918908],[-71.403003,-32.918866],[-71.402795,-32.91888],[-71.402474,-32.919115],[-71.402131,-32.919333],[-71.401854,-32.919466],[-71.401559,-32.919506],[-71.401054,-32.919516],[-71.40054,-32.919549],[-71.40011,-32.919538],[-71.399657,-32.919509],[-71.39927,-32.919435],[-71.398776,-32.919363],[-71.398434,-32.919265],[-71.398133,-32.919242],[-71.397913,-32.919261],[-71.39747,-32.919412],[-71.397352,-32.919433],[-71.396771,-32.919053],[-71.397393,-32.914753],[-71.402452,-32.913365],[-71.406891,-32.916277],[-71.411951,-32.914888],[-71.412573,-32.910588],[-71.408134,-32.907677],[-71.403074,-32.909065],[-71.398635,-32.906154],[-71.393576,-32.907542],[-71.389138,-32.90463],[-71.384078,-32.906018],[-71.383457,-32.910318],[-71.387895,-32.91323],[-71.387273,-32.917529],[-71.391468,-32.920281],[-71.391174,-32.920398],[-71.390692,-32.920565],[-71.390282,-32.920682],[-71.389928,-32.920799],[-71.38955,-32.92082],[-71.38918,-32.920751],[-71.388738,-32.920712],[-71.388431,-32.920646],[-71.388072,-32.920567],[-71.38755,-32.920515],[-71.387362,-32.920466],[-71.387123,-32.920404],[-71.386801,-32.92042],[-71.386011,-32.920482],[-71.38538,-32.920609],[-71.385099,-32.920681],[-71.384729,-32.920588],[-71.384479,-32.920555],[-71.384206,-32.920488],[-71.383986,-32.920521],[-71.383741,-32.920645],[-71.383459,-32.920712],[-71.383084,-32.920764],[-71.38269,-32.920913],[-71.382349,-32.921063],[-71.381979,-32.921208]],[[-71.34423,-32.912812],[-71.339794,-32.909899],[-71.334736,-32.911285],[-71.334114,-32.915583],[-71.33855,-32.918496],[-71.343608,-32.917111],[-71.34423,-32.912812]],[[-71.326568,-32.934158],[-71.331003,-32.937071],[-71.336062,-32.935686],[-71.336684,-32.931389],[-71.332248,-32.928476],[-71.32719,-32.929861],[-71.322754,-32.926948],[-71.317696,-32.928332],[-71.313261,-32.925418],[-71.308204,-32.926802],[-71.303769,-32.923889],[-71.298712,-32.925272],[-71.298089,-32.929569],[-71.302524,-32.932482],[-71.307581,-32.931099],[-71.312016,-32.934012],[-71.317074,-32.932629],[-71.32151,-32.935542],[-71.326568,-32.934158]],[[-71.319563,-32.915439],[-71.324621,-32.914055],[-71.325243,-32.909756],[-71.320808,-32.906843],[-71.32143,-32.902544],[-71.316995,-32.89963],[-71.311938,-32.901015],[-71.311316,-32.905313],[-71.306259,-32.906698],[-71.305637,-32.910996],[-71.310071,-32.91391],[-71.315128,-32.912526],[-71.319563,-32.915439]],[[-71.316917,-32.866615],[-71.31186,-32.868001],[-71.311238,-32.872302],[-71.315672,-32.875217],[-71.320729,-32.873831],[-71.321351,-32.86953],[-71.316917,-32.866615]],[[-71.332087,-32.862456],[-71.32703,-32.863842],[-71.326408,-32.868144],[-71.330843,-32.871058],[-71.3359,-32.869672],[-71.336522,-32.86537],[-71.332087,-32.862456]],[[-71.226544,-32.887224],[-71.222114,-32.884307],[-71.21706,-32.885688],[-71.216436,-32.889986],[-71.220867,-32.892902],[-71.225921,-32.891521],[-71.226544,-32.887224]],[[-71.298636,-32.892272],[-71.294202,-32.889357],[-71.289146,-32.890741],[-71.288523,-32.89504],[-71.292957,-32.897955],[-71.298013,-32.896571],[-71.298636,-32.892272]],[[-71.294824,-32.885058],[-71.299881,-32.883673],[-71.300503,-32.879373],[-71.29607,-32.876458],[-71.291014,-32.877843],[-71.290391,-32.882143],[-71.294824,-32.885058]],[[-71.282844,-32.900722],[-71.277788,-32.902105],[-71.277165,-32.906403],[-71.281599,-32.909318],[-71.286655,-32.907935],[-71.287278,-32.903637],[-71.282844,-32.900722]],[[-71.280828,-32.847592],[-71.275773,-32.848977],[-71.275151,-32.853278],[-71.279583,-32.856194],[-71.284638,-32.854809],[-71.285261,-32.850508],[-71.280828,-32.847592]]]},"properties":{"comuna":"Quillota","mancha_id":"05501-88b2c40049fffff","clase":"Medio","nivel_medio":2.066,"nivel_medio_min":1.5,"nivel_medio_max":2.497,"pct_alto":26.1,"n_hexagonos":269,"area_ha":16055.04}},{"type":"Feature","geometry":{"type":"Polygon","coordinates":[[[-71.275151,-32.853278],[-71.275773,-32.848977],[-71.280828,-32.847592],[-71.285261,-32.850508],[-71.284638,-32.854809],[-71.279583,-32.856194],[-71.275151,-32.853278]]]},"properties":{"comuna":"Quillota","mancha_id":"05501-88b2c4173dfffff","clase":"Alto","nivel_medio":2.775,"nivel_medio_min":2.775,"nivel_medio_max":2.775,"pct_alto":44.3,"n_hexagonos":1,"area_ha":65.03}},{"type":"Feature","geometry":{"type":"Polygon","coordinates":[[[-71.195535,-32.866803],[-71.190482,-32.868183],[-71.18918,-32.867325],[-71.189202,-32.867319],[-71.189652,-32.867269],[-71.189985,-32.867219],[-71.190284,-32.867219],[-71.190601,-32.867102],[-71.1909,-32.866919],[-71.19125,-32.86657],[-71.191566,-32.86622],[-71.191966,-32.866004],[-71.192432,-32.86577],[-71.192948,-32.865571],[-71.193364,-32.865404],[-71.19383,-32.865321],[-71.194213,-32.865288],[-71.194463,-32.865288],[-71.194746,-32.865271],[-71.194896,-32.865188],[-71.195079,-32.865021],[-71.195378,-32.864788],[-71.195695,-32.864588],[-71.195865,-32.864525],[-71.195535,-32.866803]]]},"properties":{"comuna":"Quillota","mancha_id":"05501-88b2c416e7fffff","clase":"Alto","nivel_medio":2.712,"nivel_medio_min":2.712,"nivel_medio_max":2.712,"pct_alto":80.3,"n_hexagonos":1,"area_ha":10.25}},{"type":"Feature","geometry":{"type":"Polygon","coordinates":[[[-71.242901,-32.841351],[-71.242885,-32.841462],[-71.242266,-32.841632],[-71.242266,-32.84157],[-71.242901,-32.841351]]]},"properties":{"comuna":"Quillota","mancha_id":"05501-88b2c41625fffff","clase":"Alto","nivel_medio":3.389,"nivel_medio_min":3.389,"nivel_medio_max":3.389,"pct_alto":84.7,"n_hexagonos":1,"area_ha":0.05}},{"type":"Feature","geometry":{"type":"Polygon","coordinates":[[[-71.251263,-32.917611],[-71.246831,-32.914695],[-71.241776,-32.916076],[-71.237344,-32.913161],[-71.232289,-32.914542],[-71.227858,-32.911626],[-71.228481,-32.907329],[-71.233536,-32.905948],[-71.237968,-32.908864],[-71.243023,-32.907483],[-71.243646,-32.903186],[-71.248701,-32.901804],[-71.253133,-32.90472],[-71.25251,-32.909017],[-71.256942,-32.911932],[-71.256319,-32.916229],[-71.251263,-32.917611]]]},"properties":{"comuna":"Quillota","mancha_id":"05501-88b2c415c3fffff","clase":"Alto","nivel_medio":2.73,"nivel_medio_min":2.63,"nivel_medio_max":2.831,"pct_alto":72.3,"n_hexagonos":4,"area_ha":259.7}},{"type":"Feature","geometry":{"type":"Polygon","coordinates":[[[-71.288523,-32.89504],[-71.289146,-32.890741],[-71.294202,-32.889357],[-71.298636,-32.892272],[-71.298013,-32.896571],[-71.292957,-32.897955],[-71.288523,-32.89504]]]},"properties":{"comuna":"Quillota","mancha_id":"05501-88b2c41503fffff","clase":"Alto","nivel_medio":2.607,"nivel_medio_min":2.607,"nivel_medio_max":2.607,"pct_alto":55.6,"n_hexagonos":1,"area_ha":64.98}},{"type":"Feature","geometry":{"type":"Polygon","coordinates":[[[-71.224704,-32.858828],[-71.220801,-32.859896],[-71.220143,-32.859463],[-71.221101,-32.859248],[-71.221605,-32.859121],[-71.221806,-32.859094],[-71.221854,-32.859106],[-71.221991,-32.85914],[-71.222058,-32.859158],[-71.2222,-32.859198],[-71.222415,-32.859235],[-71.222577,-32.859223],[-71.22277,-32.859208],[-71.223175,-32.859183],[-71.223547,-32.859122],[-71.223588,-32.859115],[-71.22409,-32.858972],[-71.224238,-32.858937],[-71.224704,-32.858828]]]},"properties":{"comuna":"Quillota","mancha_id":"05501-88b2c4144bfffff","clase":"Alto","nivel_medio":3.179,"nivel_medio_min":3.179,"nivel_medio_max":3.179,"pct_alto":84.9,"n_hexagonos":1,"area_ha":1.16}},{"type":"Feature","geometry":{"type":"Polygon","coordinates":[[[-71.235338,-32.860048],[-71.235962,-32.855748],[-71.23554,-32.85547],[-71.236129,-32.855272],[-71.236171,-32.855258],[-71.236646,-32.855102],[-71.236821,-32.855045],[-71.23698,-32.854993],[-71.23706,-32.854972],[-71.237617,-32.854829],[-71.237673,-32.854814],[-71.237947,-32.854742],[-71.238031,-32.85472],[-71.238065,-32.854711],[-71.238185,-32.85468],[-71.238359,-32.854634],[-71.238363,-32.854633],[-71.23843,-32.854614],[-71.238517,-32.854591],[-71.238713,-32.854536],[-71.238854,-32.854497],[-71.239206,-32.854399],[-71.239283,-32.854378],[-71.239391,-32.854348],[-71.239731,-32.854254],[-71.240037,-32.854169],[-71.24008,-32.854009],[-71.240064,-32.853736],[-71.240064,-32.853479],[-71.240112,-32.853222],[-71.24016,-32.853013],[-71.240257,-32.852836],[-71.240466,-32.852563],[-71.240771,-32.852161],[-71.240916,-32.85184],[-71.240964,-32.851566],[-71.240932,-32.851325],[-71.240659,-32.850923],[-71.240321,-32.850602],[-71.240016,-32.850425],[-71.239694,-32.850281],[-71.239405,-32.849991],[-71.238891,-32.849493],[-71.238505,-32.849091],[-71.23828,-32.848706],[-71.238152,-32.848288],[-71.238167,-32.847778],[-71.241639,-32.850064],[-71.241015,-32.854365],[-71.245446,-32.857282],[-71.244823,-32.861582],[-71.249254,-32.864499],[-71.254309,-32.863115],[-71.25874,-32.866032],[-71.263795,-32.864648],[-71.264418,-32.860348],[-71.269473,-32.858964],[-71.273905,-32.86188],[-71.273282,-32.86618],[-71.277715,-32.869096],[-71.277092,-32.873396],[-71.281525,-32.876312],[-71.280902,-32.880611],[-71.285335,-32.883527],[-71.284712,-32.887826],[-71.279657,-32.88921],[-71.279034,-32.893509],[-71.273978,-32.894892],[-71.269545,-32.891977],[-71.270168,-32.887678],[-71.265736,-32.884762],[-71.266359,-32.880463],[-71.261926,-32.877547],[-71.262549,-32.873248],[-71.258117,-32.870332],[-71.253063,-32.871715],[-71.248631,-32.868799],[-71.243577,-32.870181],[-71.239146,-32.867265],[-71.239769,-32.862965],[-71.235338,-32.860048]]]},"properties":{"comuna":"Quillota","mancha_id":"05501-88b2c41445fffff","clase":"Alto","nivel_medio":2.885,"nivel_medio_min":2.517,"nivel_medio_max":3.465,"pct_alto":73.7,"n_hexagonos":12,"area_ha":724.48}},{"type":"Feature","geometry":{"type":"Polygon","coordinates":[[[-71.216436,-32.889986],[-71.21706,-32.885688],[-71.222114,-32.884307],[-71.226544,-32.887224],[-71.225921,-32.891521],[-71.220867,-32.892902],[-71.216436,-32.889986]]]},"properties":{"comuna":"Quillota","mancha_id":"05501-88b2c41415fffff","clase":"Alto","nivel_medio":2.741,"nivel_medio_min":2.741,"nivel_medio_max":2.741,"pct_alto":67.9,"n_hexagonos":1,"area_ha":64.94}},{"type":"Feature","geometry":{"type":"Polygon","coordinates":[[[-71.218307,-32.877092],[-71.21893,-32.872793],[-71.223984,-32.871411],[-71.228414,-32.874328],[-71.227791,-32.878627],[-71.222737,-32.880009],[-71.218307,-32.877092]]]},"properties":{"comuna":"Quillota","mancha_id":"05501-88b2c4140bfffff","clase":"Alto","nivel_medio":2.5,"nivel_medio_min":2.5,"nivel_medio_max":2.5,"pct_alto":62.8,"n_hexagonos":1,"area_ha":64.96}},{"type":"Feature","geometry":{"type":"Polygon","coordinates":[[[-71.220375,-32.963161],[-71.224807,-32.966076],[-71.229863,-32.964698],[-71.234295,-32.967612],[-71.239351,-32.966233],[-71.243784,-32.969147],[-71.24884,-32.967768],[-71.249463,-32.963475],[-71.25452,-32.962095],[-71.255143,-32.957801],[-71.2602,-32.956421],[-71.260823,-32.952127],[-71.265879,-32.950746],[-71.266502,-32.946452],[-71.271559,-32.945071],[-71.275993,-32.947984],[-71.27537,-32.952279],[-71.279804,-32.955193],[-71.279181,-32.959487],[-71.281278,-32.960865],[-71.281192,-32.96088],[-71.280689,-32.961113],[-71.280265,-32.961306],[-71.279841,-32.96146],[-71.279378,-32.961614],[-71.279031,-32.961807],[-71.278453,-32.962154],[-71.277913,-32.962308],[-71.277412,-32.962578],[-71.276911,-32.962848],[-71.276487,-32.962964],[-71.276024,-32.962964],[-71.275445,-32.962964],[-71.275021,-32.962964],[-71.274636,-32.962964],[-71.274019,-32.963118],[-71.273786,-32.963196],[-71.273556,-32.963272],[-71.272978,-32.963542],[-71.272477,-32.963812],[-71.271937,-32.963851],[-71.271435,-32.963851],[-71.270934,-32.964121],[-71.270626,-32.964468],[-71.270472,-32.96466],[-71.270433,-32.964853],[-71.270433,-32.965239],[-71.270472,-32.965624],[-71.270394,-32.965971],[-71.270358,-32.96602],[-71.269264,-32.966318],[-71.269122,-32.966318],[-71.268698,-32.966318],[-71.268274,-32.966357],[-71.268197,-32.96638],[-71.267772,-32.966511],[-71.267387,-32.966704],[-71.267194,-32.966897],[-71.266847,-32.966974],[-71.266076,-32.96709],[-71.26542,-32.967321],[-71.265112,-32.967398],[-71.264688,-32.967591],[-71.264071,-32.967745],[-71.263685,-32.968015],[-71.263261,-32.968246],[-71.262606,-32.968362],[-71.262104,-32.968362],[-71.261526,-32.968401],[-71.260948,-32.968632],[-71.260446,-32.968863],[-71.259907,-32.969133],[-71.259405,-32.96921],[-71.25875,-32.969365],[-71.258507,-32.969419],[-71.258056,-32.969519],[-71.257516,-32.969596],[-71.256938,-32.969827],[-71.256436,-32.970097],[-71.256012,-32.970483],[-71.255395,-32.970791],[-71.254971,-32.971177],[-71.254663,-32.97137],[-71.254277,-32.971755],[-71.253699,-32.972025],[-71.253236,-32.972218],[-71.253038,-32.972306],[-71.252889,-32.972372],[-71.252388,-32.972333],[-71.251809,-32.972295],[-71.251077,-32.972218],[-71.25046,-32.972218],[-71.250074,-32.972295],[-71.25,-32.972305],[-71.249496,-32.972372],[-71.248879,-32.972333],[-71.248108,-32.972218],[-71.247414,-32.972333],[-71.247337,-32.972449],[-71.24699,-32.97295],[-71.246758,-32.97322],[-71.246257,-32.973606],[-71.245833,-32.973606],[-71.245177,-32.973567],[-71.244445,-32.973452],[-71.244021,-32.973413],[-71.243674,-32.973336],[-71.243286,-32.973419],[-71.243165,-32.97341],[-71.242633,-32.973375],[-71.242286,-32.97322],[-71.241977,-32.973028],[-71.241129,-32.972989],[-71.240512,-32.972989],[-71.239741,-32.973105],[-71.23924,-32.973066],[-71.238623,-32.973028],[-71.237659,-32.973143],[-71.236888,-32.973143],[-71.236425,-32.973143],[-71.235885,-32.973066],[-71.235384,-32.972912],[-71.235103,-32.972846],[-71.234728,-32.972758],[-71.234188,-32.973105],[-71.233726,-32.97349],[-71.232993,-32.973529],[-71.232453,-32.973259],[-71.231952,-32.972719],[-71.231643,-32.972458],[-71.231451,-32.972295],[-71.230988,-32.971832],[-71.230641,-32.971794],[-71.230063,-32.971794],[-71.229523,-32.971794],[-71.229099,-32.971794],[-71.228559,-32.971639],[-71.228212,-32.971639],[-71.227711,-32.971639],[-71.227171,-32.971639],[-71.226708,-32.971639],[-71.226168,-32.971562],[-71.225966,-32.971541],[-71.225436,-32.971485],[-71.225012,-32.971524],[-71.224472,-32.971562],[-71.224086,-32.971639],[-71.223662,-32.971755],[-71.223431,-32.971871],[-71.223007,-32.971909],[-71.22266,-32.971909],[-71.222428,-32.971832],[-71.222158,-32.971755],[-71.221927,-32.971639],[-71.221541,-32.971601],[-71.221233,-32.971639],[-71.22077,-32.971639],[-71.220115,-32.971794],[-71.219768,-32.971794],[-71.21918,-32.9719],[-71.219104,-32.971909],[-71.218678,-32.971959],[-71.218251,-32.972003],[-71.217594,-32.972053],[-71.217189,-32.972091],[-71.21655,-32.972372],[-71.21624,-32.972718],[-71.216076,-32.973155],[-71.215857,-32.973338],[-71.215493,-32.973447],[-71.214454,-32.973356],[-71.213744,-32.973228],[-71.21276,-32.973119],[-71.212377,-32.972955],[-71.212304,-32.972518],[-71.21225,-32.971989],[-71.212067,-32.971552],[-71.211812,-32.971424],[-71.211284,-32.971406],[-71.210471,-32.971392],[-71.20984,-32.971362],[-71.209473,-32.971362],[-71.209299,-32.971362],[-71.208668,-32.971482],[-71.208247,-32.971542],[-71.207706,-32.971542],[-71.207225,-32.971542],[-71.206744,-32.971542],[-71.206294,-32.971542],[-71.205662,-32.971542],[-71.205332,-32.971392],[-71.205001,-32.971121],[-71.20467,-32.970911],[-71.20434,-32.97061],[-71.203739,-32.97061],[-71.203228,-32.970881],[-71.202927,-32.971151],[-71.202506,-32.971422],[-71.202206,-32.971512],[-71.201845,-32.971512],[-71.201394,-32.971512],[-71.200913,-32.971452],[-71.200312,-32.971332],[-71.199831,-32.971121],[-71.199801,-32.9711],[-71.199621,-32.970971],[-71.19926,-32.97061],[-71.19896,-32.9704],[-71.198569,-32.97031],[-71.198178,-32.97031],[-71.197757,-32.97031],[-71.197337,-32.97052],[-71.197006,-32.970941],[-71.196675,-32.971242],[-71.195954,-32.971061],[-71.195203,-32.971001],[-71.194662,-32.970971],[-71.19409,-32.971242],[-71.19358,-32.971512],[-71.193129,-32.971693],[-71.192558,-32.971723],[-71.191956,-32.971693],[-71.191506,-32.971813],[-71.191025,-32.971873],[-71.190724,-32.971873],[-71.190664,-32.971873],[-71.190303,-32.971843],[-71.189913,-32.971843],[-71.189372,-32.971632],[-71.189347,-32.971615],[-71.189071,-32.971422],[-71.18874,-32.971121],[-71.18832,-32.971061],[-71.187869,-32.971061],[-71.187568,-32.971121],[-71.186847,-32.971212],[-71.186366,-32.971212],[-71.185915,-32.971182],[-71.185284,-32.971182],[-71.184743,-32.971182],[-71.184442,-32.971242],[-71.183841,-32.971362],[-71.18348,-32.971362],[-71.18315,-32.971362],[-71.182639,-32.971212],[-71.182506,-32.971167],[-71.182368,-32.971121],[-71.181857,-32.970971],[-71.18171,-32.970913],[-71.181016,-32.970641],[-71.180324,-32.97043],[-71.179573,-32.97028],[-71.179427,-32.970195],[-71.179212,-32.970069],[-71.178972,-32.969739],[-71.17822,-32.969468],[-71.17795,-32.969408],[-71.177679,-32.969228],[-71.177319,-32.969228],[-71.177078,-32.969138],[-71.176658,-32.968957],[-71.176116,-32.968777],[-71.175756,-32.968777],[-71.175215,-32.968777],[-71.174734,-32.968777],[-71.174223,-32.968837],[-71.173682,-32.968837],[-71.173381,-32.968837],[-71.173021,-32.968777],[-71.17263,-32.968657],[-71.172329,-32.968657],[-71.172089,-32.968807],[-71.171996,-32.968953],[-71.171878,-32.969138],[-71.171608,-32.969288],[-71.171247,-32.969348],[-71.170977,-32.969558],[-71.170346,-32.969859],[-71.169805,-32.969979],[-71.169264,-32.97013],[-71.168602,-32.97028],[-71.167821,-32.97055],[-71.16719,-32.970791],[-71.166679,-32.971091],[-71.166318,-32.971302],[-71.165987,-32.971362],[-71.165776,-32.971402],[-71.166021,-32.969722],[-71.161591,-32.966806],[-71.156538,-32.968181],[-71.152109,-32.965265],[-71.152733,-32.960974],[-71.148304,-32.958057],[-71.143251,-32.959432],[-71.138823,-32.956515],[-71.13377,-32.95789],[-71.133145,-32.962181],[-71.137573,-32.965098],[-71.142626,-32.963724],[-71.147055,-32.96664],[-71.146536,-32.970208],[-71.14621,-32.9701],[-71.145909,-32.969709],[-71.145278,-32.969468],[-71.144978,-32.969138],[-71.144557,-32.968717],[-71.144226,-32.968386],[-71.143896,-32.968266],[-71.143144,-32.968356],[-71.142513,-32.968506],[-71.141972,-32.968627],[-71.141371,-32.968537],[-71.140649,-32.968386],[-71.140229,-32.968266],[-71.139658,-32.968116],[-71.139387,-32.967845],[-71.138966,-32.967274],[-71.138485,-32.966853],[-71.137914,-32.966643],[-71.137403,-32.966312],[-71.137397,-32.966312],[-71.136832,-32.966282],[-71.136291,-32.966282],[-71.13572,-32.966403],[-71.135239,-32.966342],[-71.134728,-32.966222],[-71.134277,-32.965531],[-71.133887,-32.96511],[-71.133706,-32.964629],[-71.133436,-32.964299],[-71.133075,-32.964088],[-71.132684,-32.963758],[-71.132053,-32.963307],[-71.131692,-32.962916],[-71.131242,-32.962706],[-71.131217,-32.962706],[-71.13058,-32.962706],[-71.129919,-32.962615],[-71.129528,-32.962435],[-71.129108,-32.962134],[-71.128506,-32.961744],[-71.128056,-32.961052],[-71.127605,-32.960632],[-71.127094,-32.960091],[-71.126733,-32.95976],[-71.126553,-32.959429],[-71.126342,-32.958978],[-71.126072,-32.958197],[-71.125922,-32.957566],[-71.125651,-32.957025],[-71.12523,-32.956394],[-71.124839,-32.956213],[-71.124817,-32.956204],[-71.124419,-32.956033],[-71.124088,-32.956003],[-71.123767,-32.956003],[-71.119952,-32.953489],[-71.120073,-32.952992],[-71.120274,-32.95239],[-71.120372,-32.951897],[-71.120575,-32.951086],[-71.120608,-32.950484],[-71.120675,-32.949815],[-71.120742,-32.94918],[-71.120817,-32.949048],[-71.121828,-32.948773],[-71.122447,-32.948745],[-71.122983,-32.948678],[-71.123651,-32.948678],[-71.124521,-32.948745],[-71.125206,-32.948674],[-71.125686,-32.94852],[-71.126104,-32.948318],[-71.126268,-32.948244],[-71.126929,-32.947942],[-71.127732,-32.947508],[-71.128334,-32.947073],[-71.129002,-32.946638],[-71.129638,-32.94617],[-71.130073,-32.945735],[-71.130775,-32.9452],[-71.131812,-32.944498],[-71.13228,-32.94423],[-71.132715,-32.943929],[-71.133045,-32.943764],[-71.133416,-32.943655],[-71.133546,-32.943632],[-71.134119,-32.943528],[-71.135089,-32.94336],[-71.13626,-32.943026],[-71.137297,-32.942591],[-71.138133,-32.942357],[-71.139069,-32.942123],[-71.140139,-32.941889],[-71.140996,-32.941585],[-71.141176,-32.941521],[-71.141778,-32.941354],[-71.142447,-32.941187],[-71.142781,-32.941019],[-71.142909,-32.940372],[-71.14313,-32.93972],[-71.14331,-32.938915],[-71.14331,-32.938805],[-71.14331,-32.938266],[-71.143477,-32.937429],[-71.143611,-32.936593],[-71.143711,-32.935824],[-71.143979,-32.935122],[-71.144481,-32.934353],[-71.145116,-32.933751],[-71.145651,-32.933349],[-71.145952,-32.932988],[-71.146999,-32.933677],[-71.152052,-32.932301],[-71.152676,-32.928008],[-71.150935,-32.926861],[-71.150835,-32.92656],[-71.150501,-32.925958],[-71.1503,-32.92539],[-71.150133,-32.924754],[-71.150032,-32.924052],[-71.149798,-32.923182],[-71.14943,-32.922614],[-71.149062,-32.922179],[-71.148735,-32.921742],[-71.148661,-32.921644],[-71.148327,-32.921209],[-71.147892,-32.920942],[-71.147624,-32.920708],[-71.147557,-32.92034],[-71.147457,-32.919871],[-71.14745,-32.919859],[-71.147089,-32.919203],[-71.146889,-32.918801],[-71.146788,-32.9184],[-71.146554,-32.917263],[-71.146253,-32.916627],[-71.145919,-32.916025],[-71.145384,-32.915691],[-71.145317,-32.91549],[-71.145417,-32.915223],[-71.145752,-32.914855],[-71.146053,-32.914487],[-71.14622,-32.913952],[-71.14622,-32.913383],[-71.14622,-32.91327],[-71.14622,-32.913016],[-71.146186,-32.91238],[-71.146153,-32.911878],[-71.146119,-32.91121],[-71.146119,-32.910741],[-71.146253,-32.909805],[-71.146354,-32.909002],[-71.14642,-32.908233],[-71.14622,-32.907665],[-71.146153,-32.907196],[-71.146086,-32.906561],[-71.146153,-32.906093],[-71.146119,-32.905725],[-71.145919,-32.905257],[-71.145823,-32.905129],[-71.145618,-32.904855],[-71.144949,-32.904153],[-71.144681,-32.903986],[-71.14428,-32.903685],[-71.143879,-32.903451],[-71.143912,-32.903183],[-71.144213,-32.902715],[-71.144581,-32.901812],[-71.144915,-32.90131],[-71.145083,-32.900875],[-71.145183,-32.900407],[-71.145183,-32.900006],[-71.145183,-32.899638],[-71.145176,-32.899534],[-71.14515,-32.89917],[-71.145283,-32.898568],[-71.145484,-32.898033],[-71.145685,-32.897498],[-71.145885,-32.896795],[-71.145885,-32.896193],[-71.145934,-32.895631],[-71.145986,-32.89509],[-71.145919,-32.894153],[-71.145885,-32.893551],[-71.145556,-32.892826],[-71.145551,-32.892815],[-71.145016,-32.892147],[-71.144493,-32.891727],[-71.144276,-32.89148],[-71.14423,-32.89117],[-71.14423,-32.890829],[-71.144213,-32.890441],[-71.144113,-32.889906],[-71.143812,-32.889404],[-71.143544,-32.888668],[-71.143444,-32.888133],[-71.143477,-32.887665],[-71.143745,-32.887197],[-71.144079,-32.886862],[-71.14428,-32.886361],[-71.144481,-32.885592],[-71.14471,-32.885104],[-71.144748,-32.885023],[-71.144915,-32.884588],[-71.14515,-32.884187],[-71.145451,-32.883685],[-71.145718,-32.882983],[-71.145952,-32.882548],[-71.146153,-32.882247],[-71.146354,-32.881846],[-71.146387,-32.881411],[-71.146454,-32.880776],[-71.146685,-32.88014],[-71.146721,-32.88004],[-71.147142,-32.879613],[-71.147223,-32.878869],[-71.147323,-32.878468],[-71.147457,-32.878033],[-71.147557,-32.877298],[-71.147624,-32.876629],[-71.147557,-32.875759],[-71.147524,-32.87489],[-71.147457,-32.873886],[-71.147223,-32.873084],[-71.147095,-32.872551],[-71.147022,-32.872248],[-71.146788,-32.871445],[-71.146521,-32.870776],[-71.146464,-32.870613],[-71.146287,-32.870107],[-71.146053,-32.869672],[-71.145919,-32.869137],[-71.145651,-32.868535],[-71.145484,-32.867833],[-71.14548,-32.86726],[-71.145882,-32.867042],[-71.146669,-32.866614],[-71.147419,-32.866164],[-71.148468,-32.865864],[-71.149518,-32.865594],[-71.150268,-32.865384],[-71.151107,-32.865324],[-71.151917,-32.865235],[-71.152102,-32.865193],[-71.152456,-32.865115],[-71.153686,-32.864815],[-71.155125,-32.864365],[-71.155844,-32.864215],[-71.156354,-32.864215],[-71.157006,-32.864039],[-71.157372,-32.864022],[-71.157705,-32.864056],[-71.158071,-32.864106],[-71.158437,-32.864106],[-71.158854,-32.864122],[-71.159286,-32.864089],[-71.159769,-32.863989],[-71.160568,-32.863743],[-71.161455,-32.863299],[-71.161589,-32.86327],[-71.162041,-32.863567],[-71.163904,-32.863059],[-71.163998,-32.86309],[-71.164247,-32.86314],[-71.16463,-32.86314],[-71.16503,-32.863123],[-71.165487,-32.863021],[-71.165862,-32.86295],[-71.166237,-32.863003],[-71.166505,-32.863217],[-71.166755,-32.863557],[-71.167058,-32.864021],[-71.167379,-32.864663],[-71.167719,-32.865234],[-71.167986,-32.865716],[-71.168272,-32.866145],[-71.168575,-32.866591],[-71.168892,-32.866769],[-71.169242,-32.866853],[-71.169682,-32.866823],[-71.170182,-32.866698],[-71.170735,-32.866627],[-71.171321,-32.866482],[-71.170897,-32.869405],[-71.165845,-32.870784],[-71.16522,-32.875082],[-71.169648,-32.878],[-71.174701,-32.876621],[-71.179129,-32.879539],[-71.184182,-32.878159],[-71.188611,-32.881077],[-71.187987,-32.885375],[-71.182934,-32.886754],[-71.18231,-32.891051],[-71.177257,-32.89243],[-71.176633,-32.896727],[-71.181062,-32.899644],[-71.186115,-32.898265],[-71.186739,-32.893969],[-71.191792,-32.892589],[-71.196222,-32.895507],[-71.195598,-32.899803],[-71.190544,-32.901183],[-71.18992,-32.905479],[-71.184867,-32.906858],[-71.184243,-32.911153],[-71.188672,-32.91407],[-71.188048,-32.918365],[-71.192478,-32.921282],[-71.191854,-32.925577],[-71.196284,-32.928493],[-71.201338,-32.927115],[-71.201962,-32.92282],[-71.207016,-32.921441],[-71.20764,-32.917145],[-71.212694,-32.915766],[-71.217125,-32.918682],[-71.22218,-32.917302],[-71.226611,-32.920218],[-71.225987,-32.924514],[-71.230419,-32.927429],[-71.229795,-32.931724],[-71.234227,-32.93464],[-71.239283,-32.93326],[-71.243715,-32.936175],[-71.248771,-32.934794],[-71.253203,-32.937709],[-71.258259,-32.936328],[-71.258882,-32.932033],[-71.263938,-32.930651],[-71.264561,-32.926355],[-71.269618,-32.924974],[-71.274051,-32.927888],[-71.273428,-32.932184],[-71.268372,-32.933566],[-71.267749,-32.937861],[-71.262692,-32.939242],[-71.262069,-32.943538],[-71.257013,-32.944918],[-71.25258,-32.942004],[-71.247524,-32.943384],[-71.246901,-32.947679],[-71.241845,-32.949059],[-71.241221,-32.953353],[-71.236165,-32.954732],[-71.231733,-32.951817],[-71.232357,-32.947523],[-71.227925,-32.944608],[-71.22287,-32.945987],[-71.222246,-32.950281],[-71.217191,-32.95166],[-71.212759,-32.948745],[-71.207704,-32.950123],[-71.207081,-32.954416],[-71.211512,-32.957332],[-71.210888,-32.961625],[-71.215319,-32.964539],[-71.220375,-32.963161]],[[-71.203274,-32.947208],[-71.203897,-32.942914],[-71.199467,-32.939998],[-71.194412,-32.941376],[-71.193788,-32.94567],[-71.188734,-32.947047],[-71.18811,-32.95134],[-71.19254,-32.954256],[-71.197595,-32.952879],[-71.198219,-32.948585],[-71.203274,-32.947208]],[[-71.182432,-32.95701],[-71.183056,-32.952717],[-71.178626,-32.949801],[-71.17925,-32.945508],[-71.174821,-32.942592],[-71.175445,-32.938299],[-71.171015,-32.935382],[-71.165962,-32.936759],[-71.165338,-32.941052],[-71.169767,-32.943969],[-71.169143,-32.948262],[-71.173572,-32.951178],[-71.172948,-32.955471],[-71.177378,-32.958387],[-71.182432,-32.95701]]]},"properties":{"comuna":"Quillota","mancha_id":"05501-88b2c40601fffff","clase":"Alto","nivel_medio":2.86,"nivel_medio_min":2.513,"nivel_medio_max":3.495,"pct_alto":84.3,"n_hexagonos":130,"area_ha":7152.54}},{"type":"Feature","geometry":{"type":"Polygon","coordinates":[[[-71.439116,-32.895038],[-71.434677,-32.892127],[-71.434744,-32.891658],[-71.43488,-32.891826],[-71.435569,-32.89242],[-71.43595,-32.892852],[-71.436402,-32.893158],[-71.438457,-32.893082],[-71.441501,-32.892816],[-71.443518,-32.892702],[-71.444338,-32.892531],[-71.444431,-32.892511],[-71.44523,-32.892321],[-71.445687,-32.891941],[-71.446143,-32.89175],[-71.446714,-32.891598],[-71.447475,-32.891446],[-71.448147,-32.891169],[-71.448724,-32.891018],[-71.449437,-32.890826],[-71.450219,-32.890702],[-71.451889,-32.890951],[-71.452373,-32.891155],[-71.45231,-32.89207],[-71.452113,-32.892786],[-71.45198,-32.89327],[-71.45171,-32.89406],[-71.451356,-32.894794],[-71.450815,-32.895954],[-71.450735,-32.896126],[-71.45056,-32.89651],[-71.45016,-32.897132],[-71.44961,-32.89784],[-71.44944,-32.89796],[-71.44893,-32.89834],[-71.448485,-32.898764],[-71.448267,-32.898985],[-71.447128,-32.900135],[-71.44606,-32.9012],[-71.445878,-32.901442],[-71.44526,-32.90226],[-71.445043,-32.903015],[-71.44472,-32.90414],[-71.444431,-32.904587],[-71.44409,-32.905036],[-71.442429,-32.905761],[-71.442936,-32.90225],[-71.438496,-32.899339],[-71.439116,-32.895038]]]},"properties":{"comuna":"Quillota","mancha_id":"05501-88b2c40345fffff","clase":"Alto","nivel_medio":2.859,"nivel_medio_min":2.55,"nivel_medio_max":2.921,"pct_alto":88.9,"n_hexagonos":5,"area_ha":118.22}},{"type":"Feature","geometry":{"type":"Polygon","coordinates":[[[-71.432814,-32.905031],[-71.437254,-32.907941],[-71.439442,-32.90734],[-71.439385,-32.907415],[-71.439286,-32.907603],[-71.439204,-32.907798],[-71.439145,-32.90805],[-71.439138,-32.908345],[-71.439156,-32.908556],[-71.439229,-32.908802],[-71.439316,-32.90899],[-71.439441,-32.909189],[-71.439568,-32.909341],[-71.439873,-32.909605],[-71.440225,-32.909847],[-71.440451,-32.909989],[-71.440614,-32.910101],[-71.440766,-32.910235],[-71.440894,-32.910391],[-71.441005,-32.910663],[-71.441168,-32.911071],[-71.441353,-32.911512],[-71.441384,-32.91175],[-71.44136,-32.912007],[-71.441262,-32.912194],[-71.441029,-32.912461],[-71.440785,-32.91271],[-71.440514,-32.912897],[-71.440169,-32.913065],[-71.439748,-32.913196],[-71.43951,-32.913281],[-71.439395,-32.913349],[-71.439247,-32.91348],[-71.439168,-32.913687],[-71.439081,-32.913847],[-71.438987,-32.914018],[-71.438834,-32.91422],[-71.438481,-32.914601],[-71.438413,-32.914734],[-71.438363,-32.914918],[-71.438355,-32.915083],[-71.438419,-32.915253],[-71.438529,-32.915419],[-71.438703,-32.915563],[-71.439016,-32.915671],[-71.439518,-32.915762],[-71.440348,-32.915878],[-71.440792,-32.915864],[-71.440973,-32.915845],[-71.441133,-32.915828],[-71.44156,-32.91582],[-71.442017,-32.915898],[-71.442532,-32.916006],[-71.442646,-32.916055],[-71.442777,-32.916186],[-71.442835,-32.91632],[-71.442889,-32.916552],[-71.44293,-32.916794],[-71.443042,-32.917507],[-71.443166,-32.918306],[-71.443561,-32.920844],[-71.443684,-32.921481],[-71.443692,-32.921576],[-71.440453,-32.919453],[-71.435544,-32.9208],[-71.435114,-32.92066],[-71.433056,-32.919312],[-71.433021,-32.91919],[-71.432907,-32.918894],[-71.432666,-32.918624],[-71.432409,-32.918522],[-71.432138,-32.918444],[-71.431629,-32.918376],[-71.430951,-32.917932],[-71.429,-32.918468],[-71.428469,-32.918491],[-71.427604,-32.918407],[-71.426752,-32.918268],[-71.426188,-32.918082],[-71.425762,-32.917757],[-71.425506,-32.917469],[-71.425216,-32.917207],[-71.424949,-32.917015],[-71.424699,-32.916924],[-71.424409,-32.916888],[-71.424126,-32.916912],[-71.423826,-32.917061],[-71.423251,-32.917507],[-71.423191,-32.917551],[-71.421451,-32.91641],[-71.422072,-32.91211],[-71.417633,-32.909199],[-71.418254,-32.904899],[-71.423314,-32.903509],[-71.423935,-32.899208],[-71.428995,-32.897818],[-71.433435,-32.90073],[-71.432814,-32.905031]]]},"properties":{"comuna":"Quillota","mancha_id":"05501-88b2c40301fffff","clase":"Alto","nivel_medio":2.717,"nivel_medio_min":2.51,"nivel_medio_max":2.861,"pct_alto":66.9,"n_hexagonos":7,"area_ha":347.3}},{"type":"Feature","geometry":{"type":"Polygon","coordinates":[[[-71.340498,-32.938599],[-71.345557,-32.937214],[-71.346005,-32.93412],[-71.346078,-32.934254],[-71.346406,-32.935107],[-71.34668,-32.935818],[-71.346914,-32.936343],[-71.346892,-32.936787],[-71.346878,-32.937546],[-71.346867,-32.938074],[-71.346862,-32.938316],[-71.346615,-32.938866],[-71.346331,-32.939265],[-71.346141,-32.939607],[-71.345514,-32.940157],[-71.345097,-32.940366],[-71.344204,-32.941107],[-71.343673,-32.941372],[-71.343013,-32.941723],[-71.3426,-32.942037],[-71.342443,-32.942293],[-71.342434,-32.942654],[-71.342325,-32.942921],[-71.342094,-32.943225],[-71.341973,-32.943492],[-71.341875,-32.94399],[-71.341806,-32.944162],[-71.341742,-32.944319],[-71.341414,-32.944562],[-71.340758,-32.944768],[-71.340284,-32.944926],[-71.34,-32.944999],[-71.339628,-32.945096],[-71.339129,-32.9454],[-71.338681,-32.945613],[-71.338102,-32.946037],[-71.337909,-32.946191],[-71.337562,-32.9465],[-71.337512,-32.94687],[-71.337433,-32.947263],[-71.337386,-32.94764],[-71.33737,-32.948081],[-71.337307,-32.948301],[-71.337023,-32.948389],[-71.336367,-32.948659],[-71.335904,-32.94889],[-71.335596,-32.949083],[-71.335347,-32.949332],[-71.33521,-32.949469],[-71.334632,-32.9497],[-71.334116,-32.94981],[-71.333591,-32.949854],[-71.333205,-32.950008],[-71.332974,-32.950278],[-71.332743,-32.950587],[-71.332277,-32.950941],[-71.3319,-32.951161],[-71.33146,-32.951334],[-71.331008,-32.951397],[-71.330391,-32.951512],[-71.329812,-32.951744],[-71.329542,-32.951936],[-71.329275,-32.951979],[-71.329102,-32.9519],[-71.32888,-32.95173],[-71.329137,-32.94996],[-71.334195,-32.948576],[-71.334817,-32.94428],[-71.339876,-32.942895],[-71.340498,-32.938599]]]},"properties":{"comuna":"Quillota","mancha_id":"05501-88b2c402a9fffff","clase":"Alto","nivel_medio":2.914,"nivel_medio_min":2.62,"nivel_medio_max":3.322,"pct_alto":89.3,"n_hexagonos":4,"area_ha":62.47}},{"type":"Feature","geometry":{"type":"Polygon","coordinates":[[[-71.32151,-32.935542],[-71.317074,-32.932629],[-71.312016,-32.934012],[-71.307581,-32.931099],[-71.308204,-32.926802],[-71.313261,-32.925418],[-71.317696,-32.928332],[-71.322754,-32.926948],[-71.32719,-32.929861],[-71.332248,-32.928476],[-71.336684,-32.931389],[-71.336062,-32.935686],[-71.331003,-32.937071],[-71.326568,-32.934158],[-71.32151,-32.935542]]]},"properties":{"comuna":"Quillota","mancha_id":"05501-88b2c40289fffff","clase":"Alto","nivel_medio":2.942,"nivel_medio_min":2.732,"nivel_medio_max":3.072,"pct_alto":89.0,"n_hexagonos":3,"area_ha":194.85}},{"type":"Feature","geometry":{"type":"Polygon","coordinates":[[[-71.349289,-32.911426],[-71.349911,-32.907127],[-71.354969,-32.905741],[-71.359406,-32.908654],[-71.364464,-32.907267],[-71.368901,-32.91018],[-71.37396,-32.908793],[-71.378398,-32.911705],[-71.377776,-32.916004],[-71.372717,-32.917391],[-71.372574,-32.918378],[-71.372204,-32.918493],[-71.371671,-32.918625],[-71.370761,-32.918862],[-71.369692,-32.919101],[-71.368592,-32.919408],[-71.367852,-32.919671],[-71.367314,-32.919862],[-71.366713,-32.920265],[-71.366434,-32.920404],[-71.366096,-32.920448],[-71.365671,-32.920638],[-71.365269,-32.920846],[-71.36489,-32.921063],[-71.364499,-32.921242],[-71.364296,-32.921278],[-71.363958,-32.921338],[-71.3636,-32.921536],[-71.363076,-32.921733],[-71.362536,-32.921959],[-71.362047,-32.922233],[-71.361221,-32.922659],[-71.360138,-32.923195],[-71.358816,-32.923688],[-71.3578,-32.924222],[-71.357267,-32.924595],[-71.357078,-32.924747],[-71.35754,-32.92155],[-71.353103,-32.918638],[-71.353725,-32.914339],[-71.349289,-32.911426]]]},"properties":{"comuna":"Quillota","mancha_id":"05501-88b2c40215fffff","clase":"Alto","nivel_medio":2.906,"nivel_medio_min":2.568,"nivel_medio_max":3.113,"pct_alto":67.8,"n_hexagonos":6,"area_ha":317.51}},{"type":"Feature","geometry":{"type":"Polygon","coordinates":[[[-71.334114,-32.915583],[-71.334736,-32.911285],[-71.339794,-32.909899],[-71.34423,-32.912812],[-71.343608,-32.917111],[-71.33855,-32.918496],[-71.334114,-32.915583]]]},"properties":{"comuna":"Quillota","mancha_id":"05501-88b2c40213fffff","clase":"Alto","nivel_medio":2.525,"nivel_medio_min":2.525,"nivel_medio_max":2.525,"pct_alto":47.6,"n_hexagonos":1,"area_ha":64.98}},{"type":"Feature","geometry":{"type":"Polygon","coordinates":[[[-71.393782,-32.919981],[-71.393703,-32.919894],[-71.393654,-32.91984],[-71.393453,-32.919763],[-71.393221,-32.919734],[-71.392892,-32.919721],[-71.392526,-32.919795],[-71.392219,-32.919925],[-71.391817,-32.920142],[-71.391468,-32.920281],[-71.387273,-32.917529],[-71.387895,-32.91323],[-71.383457,-32.910318],[-71.384078,-32.906018],[-71.389138,-32.90463],[-71.393576,-32.907542],[-71.398635,-32.906154],[-71.403074,-32.909065],[-71.408134,-32.907677],[-71.412573,-32.910588],[-71.411951,-32.914888],[-71.406891,-32.916277],[-71.402452,-32.913365],[-71.397393,-32.914753],[-71.396771,-32.919053],[-71.397352,-32.919433],[-71.396902,-32.919514],[-71.396681,-32.919509],[-71.396275,-32.919545],[-71.395999,-32.919617],[-71.395683,-32.919637],[-71.395434,-32.919637],[-71.395324,-32.91973],[-71.395289,-32.919926],[-71.395264,-32.920056],[-71.395148,-32.920153],[-71.394847,-32.920302],[-71.394584,-32.920408],[-71.39442,-32.920439],[-71.394222,-32.92041],[-71.393999,-32.920319],[-71.393896,-32.920222],[-71.393782,-32.919981]]]},"properties":{"comuna":"Quillota","mancha_id":"05501-88b2c4004dfffff","clase":"Alto","nivel_medio":2.698,"nivel_medio_min":2.527,"nivel_medio_max":3.044,"pct_alto":51.9,"n_hexagonos":5,"area_ha":261.08}},{"type":"Feature","geometry":{"type":"Polygon","coordinates":[[[-71.147055,-32.96664],[-71.142626,-32.963724],[-71.137573,-32.965098],[-71.133145,-32.962181],[-71.13377,-32.95789],[-71.138823,-32.956515],[-71.143251,-32.959432],[-71.148304,-32.958057],[-71.152733,-32.960974],[-71.152109,-32.965265],[-71.156538,-32.968181],[-71.161591,-32.966806],[-71.166021,-32.969722],[-71.165776,-32.971402],[-71.165356,-32.971482],[-71.164785,-32.971632],[-71.164244,-32.971693],[-71.163643,-32.971843],[-71.163132,-32.972023],[-71.162591,-32.972023],[-71.16211,-32.972173],[-71.161689,-32.972384],[-71.161298,-32.972384],[-71.160998,-32.972294],[-71.160697,-32.972264],[-71.160337,-32.972264],[-71.159856,-32.972264],[-71.159495,-32.972264],[-71.159285,-32.972053],[-71.158714,-32.971963],[-71.158293,-32.971933],[-71.157752,-32.971933],[-71.157151,-32.972143],[-71.15679,-32.972444],[-71.156489,-32.972714],[-71.156394,-32.972789],[-71.156219,-32.972925],[-71.155888,-32.973165],[-71.155528,-32.973255],[-71.155017,-32.973316],[-71.154506,-32.973105],[-71.154309,-32.972909],[-71.154115,-32.972714],[-71.153814,-32.972354],[-71.153303,-32.971963],[-71.152883,-32.971783],[-71.152492,-32.971693],[-71.152071,-32.971422],[-71.1515,-32.971091],[-71.151169,-32.970791],[-71.150839,-32.97037],[-71.150448,-32.9704],[-71.149847,-32.97049],[-71.149276,-32.97043],[-71.148915,-32.97019],[-71.148524,-32.97016],[-71.148013,-32.97016],[-71.147412,-32.97037],[-71.146991,-32.97037],[-71.146661,-32.97025],[-71.146536,-32.970208],[-71.147055,-32.96664]]]},"properties":{"comuna":"Quillota","mancha_id":"05501-88b2c4a903fffff","clase":"Muy Alto","nivel_medio":3.663,"nivel_medio_min":3.513,"nivel_medio_max":3.934,"pct_alto":100.0,"n_hexagonos":5,"area_ha":221.94}}],"bbox":[-71.45238,-32.97361,-71.11992,-32.83022]}