{"type":"FeatureCollection","features":[{"type":"Feature","geometry":{"type":"Polygon","coordinates":[[[-71.556616,-33.562044],[-71.551539,-33.563415],[-71.551081,-33.563118],[-71.552261,-33.562838],[-71.553939,-33.562441],[-71.555765,-33.562008],[-71.556249,-33.561894],[-71.556652,-33.561798],[-71.556616,-33.562044]]]},"properties":{"comuna":"San Antonio","mancha_id":"05601-88b2c0d6ebfffff","clase":"Muy Bajo","nivel_medio":0.195,"nivel_medio_min":0.195,"nivel_medio_max":0.195,"pct_alto":4.9,"n_hexagonos":1,"area_ha":1.78}},{"type":"Feature","geometry":{"type":"Polygon","coordinates":[[[-71.602435,-33.582409],[-71.603056,-33.57815],[-71.608135,-33.576777],[-71.612594,-33.579665],[-71.611974,-33.583925],[-71.613274,-33.584766],[-71.61326,-33.58536],[-71.61317,-33.58581],[-71.61316,-33.58666],[-71.61321,-33.58694],[-71.61331,-33.58707],[-71.61338,-33.58711],[-71.6134,-33.58719],[-71.61353,-33.58723],[-71.61359,-33.58732],[-71.61384,-33.58735],[-71.61436,-33.58748],[-71.61442,-33.58728],[-71.61392,-33.58632],[-71.61378,-33.5854],[-71.6141,-33.58539],[-71.61419,-33.58602],[-71.61431,-33.58594],[-71.614803,-33.585756],[-71.614904,-33.585822],[-71.61431,-33.58605],[-71.61414,-33.58623],[-71.61476,-33.58742],[-71.61479,-33.58761],[-71.61499,-33.58778],[-71.61538,-33.58743],[-71.61526,-33.58732],[-71.616093,-33.586592],[-71.616433,-33.586812],[-71.619194,-33.586066],[-71.61946,-33.58616],[-71.6197,-33.58623],[-71.61969,-33.586315],[-71.616115,-33.588996],[-71.61591,-33.58915],[-71.61599,-33.58956],[-71.616019,-33.589655],[-71.61623,-33.59034],[-71.61631,-33.59081],[-71.6163,-33.59129],[-71.616321,-33.5914],[-71.61638,-33.59171],[-71.61639,-33.59194],[-71.61633,-33.59223],[-71.61644,-33.59269],[-71.61649,-33.59316],[-71.61658,-33.59346],[-71.61663,-33.5939],[-71.61696,-33.59434],[-71.6174,-33.59455],[-71.61787,-33.59466],[-71.61806,-33.59465],[-71.61825,-33.59457],[-71.61849,-33.59452],[-71.61881,-33.59437],[-71.61942,-33.59413],[-71.6199,-33.59385],[-71.619986,-33.593772],[-71.62011,-33.59366],[-71.62172,-33.58879],[-71.62193,-33.58883],[-71.62239,-33.58757],[-71.62303,-33.58737],[-71.623314,-33.586606],[-71.623649,-33.586822],[-71.62189,-33.59209],[-71.62182,-33.59354],[-71.62182,-33.59355],[-71.6217,-33.59499],[-71.62211,-33.59562],[-71.62263,-33.59643],[-71.62266,-33.59732],[-71.62273,-33.59742],[-71.62283,-33.59813],[-71.62329,-33.59919],[-71.62341,-33.59956],[-71.62387,-33.60028],[-71.62418,-33.60099],[-71.624224,-33.601074],[-71.62437,-33.60135],[-71.62467,-33.60172],[-71.62482,-33.60207],[-71.62505,-33.60243],[-71.62559,-33.60351],[-71.62589,-33.60387],[-71.62605,-33.60422],[-71.62631,-33.60458],[-71.62651,-33.60495],[-71.62742,-33.60639],[-71.62774,-33.60704],[-71.62818,-33.60815],[-71.6282,-33.608182],[-71.627953,-33.608249],[-71.623493,-33.605363],[-71.618412,-33.606734],[-71.617792,-33.610993],[-71.622252,-33.613879],[-71.621632,-33.618137],[-71.624439,-33.619953],[-71.624079,-33.620091],[-71.623294,-33.620468],[-71.622414,-33.621159],[-71.621221,-33.621787],[-71.620059,-33.622101],[-71.618645,-33.622258],[-71.617577,-33.622384],[-71.616698,-33.622635],[-71.616081,-33.622741],[-71.616552,-33.619508],[-71.612091,-33.616622],[-71.607011,-33.617993],[-71.602552,-33.615106],[-71.603172,-33.610849],[-71.608252,-33.609477],[-71.608872,-33.605219],[-71.604413,-33.602333],[-71.605033,-33.598074],[-71.600574,-33.595187],[-71.595495,-33.596558],[-71.591036,-33.593671],[-71.591656,-33.589412],[-71.596736,-33.588041],[-71.597356,-33.583781],[-71.602435,-33.582409]]]},"properties":{"comuna":"San Antonio","mancha_id":"05601-88b2c0d401fffff","clase":"Muy Bajo","nivel_medio":0.215,"nivel_medio_min":0.0,"nivel_medio_max":0.426,"pct_alto":6.0,"n_hexagonos":15,"area_ha":760.45}},{"type":"Feature","geometry":{"type":"Polygon","coordinates":[[[-71.557867,-33.725842],[-71.557169,-33.72539],[-71.557258,-33.724778],[-71.557406,-33.725074],[-71.557867,-33.725842]]]},"properties":{"comuna":"San Antonio","mancha_id":"05601-88b2c0c6bdfffff","clase":"Muy Bajo","nivel_medio":0.031,"nivel_medio_min":0.031,"nivel_medio_max":0.031,"pct_alto":0.0,"n_hexagonos":1,"area_ha":0.23}},{"type":"Feature","geometry":{"type":"Polygon","coordinates":[[[-71.561152,-33.732617],[-71.561007,-33.732524],[-71.561099,-33.731893],[-71.561118,-33.732147],[-71.561152,-33.732617]]]},"properties":{"comuna":"San Antonio","mancha_id":"05601-88b2c0c6b5fffff","clase":"Muy Bajo","nivel_medio":0.0,"nivel_medio_min":0.0,"nivel_medio_max":0.0,"pct_alto":0.0,"n_hexagonos":1,"area_ha":0.05}},{"type":"Feature","geometry":{"type":"Polygon","coordinates":[[[-71.572839,-33.684959],[-71.57292,-33.684403],[-71.57348,-33.684252],[-71.573359,-33.68444],[-71.572839,-33.684959]]]},"properties":{"comuna":"San Antonio","mancha_id":"05601-88b2c0c617fffff","clase":"Muy Bajo","nivel_medio":0.231,"nivel_medio_min":0.231,"nivel_medio_max":0.231,"pct_alto":0.0,"n_hexagonos":1,"area_ha":0.17}},{"type":"Feature","geometry":{"type":"Polygon","coordinates":[[[-71.471978,-33.784936],[-71.475367,-33.78403],[-71.475435,-33.784074],[-71.474806,-33.784323],[-71.473882,-33.78446],[-71.472831,-33.784851],[-71.471978,-33.784936]]]},"properties":{"comuna":"San Antonio","mancha_id":"05601-88b2c01001fffff","clase":"Muy Bajo","nivel_medio":0.397,"nivel_medio_min":0.397,"nivel_medio_max":0.397,"pct_alto":13.2,"n_hexagonos":1,"area_ha":0.3}},{"type":"Feature","geometry":{"type":"Polygon","coordinates":[[[-71.571021,-33.558148],[-71.571031,-33.558152],[-71.567489,-33.559108],[-71.56751,-33.559099],[-71.567518,-33.559094],[-71.567737,-33.558954],[-71.568024,-33.558756],[-71.568223,-33.558564],[-71.568448,-33.558312],[-71.568464,-33.558295],[-71.568473,-33.558285],[-71.568504,-33.558213],[-71.568531,-33.558108],[-71.568533,-33.55809],[-71.568542,-33.557988],[-71.568548,-33.557917],[-71.568728,-33.557881],[-71.568821,-33.557862],[-71.568847,-33.557864],[-71.568914,-33.55787],[-71.569249,-33.557897],[-71.569539,-33.55792],[-71.56984,-33.557944],[-71.570133,-33.557994],[-71.570571,-33.55807],[-71.571021,-33.558148]]]},"properties":{"comuna":"San Antonio","mancha_id":"05601-88b2c0d6edfffff","clase":"Bajo","nivel_medio":1.152,"nivel_medio_min":1.152,"nivel_medio_max":1.152,"pct_alto":34.1,"n_hexagonos":1,"area_ha":1.6}},{"type":"Feature","geometry":{"type":"Polygon","coordinates":[[[-71.561073,-33.564933],[-71.556616,-33.562044],[-71.556652,-33.561798],[-71.557057,-33.561703],[-71.558411,-33.561381],[-71.558911,-33.561262],[-71.560839,-33.560802],[-71.562764,-33.560342],[-71.563901,-33.56007],[-71.565189,-33.559765],[-71.566491,-33.559456],[-71.566691,-33.559409],[-71.566759,-33.559388],[-71.566151,-33.563563],[-71.570608,-33.566452],[-71.569987,-33.570711],[-71.564909,-33.572082],[-71.560452,-33.569193],[-71.561073,-33.564933]]]},"properties":{"comuna":"San Antonio","mancha_id":"05601-88b2c0d6e1fffff","clase":"Bajo","nivel_medio":1.204,"nivel_medio_min":0.829,"nivel_medio_max":1.395,"pct_alto":32.5,"n_hexagonos":2,"area_ha":97.09}},{"type":"Feature","geometry":{"type":"Polygon","coordinates":[[[-71.541384,-33.566155],[-71.536307,-33.567525],[-71.535239,-33.566832],[-71.538261,-33.56615],[-71.540495,-33.565623],[-71.541496,-33.565387],[-71.541384,-33.566155]]]},"properties":{"comuna":"San Antonio","mancha_id":"05601-88b2c0d689fffff","clase":"Bajo","nivel_medio":1.03,"nivel_medio_min":1.03,"nivel_medio_max":1.03,"pct_alto":30.1,"n_hexagonos":1,"area_ha":4.9}},{"type":"Feature","geometry":{"type":"Polygon","coordinates":[[[-71.593013,-33.61359],[-71.593633,-33.609332],[-71.598713,-33.607962],[-71.603172,-33.610849],[-71.602552,-33.615106],[-71.607011,-33.617993],[-71.612091,-33.616622],[-71.616552,-33.619508],[-71.616081,-33.622741],[-71.615599,-33.622823],[-71.614468,-33.622949],[-71.613495,-33.623106],[-71.612929,-33.623389],[-71.612332,-33.623546],[-71.611673,-33.623703],[-71.610574,-33.623923],[-71.609474,-33.624237],[-71.609467,-33.62424],[-71.606391,-33.62225],[-71.601311,-33.62362],[-71.596851,-33.620734],[-71.597472,-33.616477],[-71.593013,-33.61359]]]},"properties":{"comuna":"San Antonio","mancha_id":"05601-88b2c0d4e5fffff","clase":"Bajo","nivel_medio":0.734,"nivel_medio_min":0.603,"nivel_medio_max":0.856,"pct_alto":19.4,"n_hexagonos":3,"area_ha":185.22}},{"type":"Feature","geometry":{"type":"Polygon","coordinates":[[[-71.62381,-33.58621],[-71.62381,-33.58634],[-71.623649,-33.586822],[-71.623314,-33.586606],[-71.62351,-33.58608],[-71.62364,-33.58608],[-71.62375,-33.58611],[-71.62381,-33.58621]]]},"properties":{"comuna":"San Antonio","mancha_id":"05601-88b2c0d429fffff","clase":"Bajo","nivel_medio":0.919,"nivel_medio_min":0.919,"nivel_medio_max":0.919,"pct_alto":24.3,"n_hexagonos":1,"area_ha":0.24}},{"type":"Feature","geometry":{"type":"Polygon","coordinates":[[[-71.581498,-33.592154],[-71.582119,-33.587895],[-71.587198,-33.586524],[-71.591656,-33.589412],[-71.591036,-33.593671],[-71.595495,-33.596558],[-71.600574,-33.595187],[-71.605033,-33.598074],[-71.604413,-33.602333],[-71.599333,-33.603704],[-71.594874,-33.600816],[-71.589795,-33.602187],[-71.585336,-33.5993],[-71.585957,-33.595042],[-71.581498,-33.592154]]]},"properties":{"comuna":"San Antonio","mancha_id":"05601-88b2c0d411fffff","clase":"Bajo","nivel_medio":1.194,"nivel_medio_min":0.829,"nivel_medio_max":1.492,"pct_alto":27.8,"n_hexagonos":3,"area_ha":192.53}},{"type":"Feature","geometry":{"type":"Polygon","coordinates":[[[-71.611974,-33.583925],[-71.612594,-33.579665],[-71.608135,-33.576777],[-71.603056,-33.57815],[-71.598597,-33.575262],[-71.599217,-33.571002],[-71.604296,-33.569629],[-71.604916,-33.565369],[-71.600458,-33.562481],[-71.600598,-33.56152],[-71.601071,-33.561376],[-71.601138,-33.561355],[-71.601441,-33.561258],[-71.601753,-33.561158],[-71.602318,-33.560958],[-71.60592,-33.56016],[-71.606015,-33.560113],[-71.606108,-33.560067],[-71.606553,-33.559846],[-71.606772,-33.559579],[-71.606982,-33.55916],[-71.607201,-33.558485],[-71.607191,-33.557923],[-71.607231,-33.557543],[-71.607248,-33.557381],[-71.607353,-33.557124],[-71.607515,-33.55699],[-71.607734,-33.556952],[-71.60784,-33.557],[-71.608571,-33.557533],[-71.609095,-33.557799],[-71.609247,-33.557888],[-71.609308,-33.557923],[-71.610297,-33.557993],[-71.611282,-33.558021],[-71.611979,-33.557957],[-71.612616,-33.557916],[-71.613937,-33.557827],[-71.614648,-33.557642],[-71.615576,-33.557333],[-71.615865,-33.557195],[-71.615695,-33.558361],[-71.610616,-33.559735],[-71.609995,-33.563996],[-71.614455,-33.566884],[-71.613834,-33.571144],[-71.618294,-33.574032],[-71.623373,-33.572659],[-71.623993,-33.568398],[-71.624553,-33.568247],[-71.62498,-33.56846],[-71.62529,-33.56868],[-71.62572,-33.56963],[-71.62572,-33.56984],[-71.62557,-33.56999],[-71.62535,-33.57004],[-71.62532,-33.5701],[-71.62512,-33.57013],[-71.62501,-33.57019],[-71.62488,-33.5702],[-71.62483,-33.57026],[-71.62476,-33.57027],[-71.6246,-33.57054],[-71.62468,-33.57108],[-71.62511,-33.57219],[-71.62541,-33.57254],[-71.6255,-33.5726],[-71.62607,-33.57274],[-71.62692,-33.57267],[-71.62722,-33.57272],[-71.62742,-33.57288],[-71.62774,-33.57327],[-71.62779,-33.57342],[-71.62786,-33.57345],[-71.62787,-33.57401],[-71.62772,-33.57461],[-71.62769,-33.57491],[-71.62762,-33.57501],[-71.62762,-33.57513],[-71.62756,-33.57522],[-71.62753,-33.57535],[-71.62749,-33.57552],[-71.62746,-33.57598],[-71.62668,-33.57678],[-71.62653,-33.57706],[-71.62646,-33.57736],[-71.62646,-33.57767],[-71.62626,-33.57798],[-71.62613,-33.57828],[-71.62607,-33.57857],[-71.62607,-33.57875],[-71.62615,-33.57889],[-71.62622,-33.57917],[-71.62554,-33.57927],[-71.62537,-33.57954],[-71.62538,-33.57971],[-71.62544,-33.57988],[-71.62535,-33.57995],[-71.62523,-33.57996],[-71.62506,-33.58002],[-71.624841,-33.580448],[-71.62484,-33.58045],[-71.62484,-33.58051],[-71.62448,-33.5807],[-71.62433,-33.58074],[-71.62425,-33.58086],[-71.6237,-33.58131],[-71.62287,-33.58161],[-71.622042,-33.581805],[-71.62202,-33.58181],[-71.62169,-33.58198],[-71.62137,-33.5821],[-71.62082,-33.58242],[-71.62122,-33.58299],[-71.62186,-33.58286],[-71.621879,-33.582928],[-71.62189,-33.58297],[-71.621872,-33.582973],[-71.62114,-33.5831],[-71.6207,-33.58243],[-71.61951,-33.58227],[-71.6189,-33.58213],[-71.61854,-33.58257],[-71.61854,-33.58267],[-71.61816,-33.58264],[-71.61815,-33.58246],[-71.61846,-33.58246],[-71.61881,-33.58211],[-71.61827,-33.58183],[-71.61765,-33.58158],[-71.61773,-33.58189],[-71.61786,-33.58193],[-71.6178,-33.58199],[-71.61759,-33.58194],[-71.61756,-33.58154],[-71.617,-33.58131],[-71.61644,-33.58124],[-71.61619,-33.58127],[-71.61597,-33.58136],[-71.61585,-33.58146],[-71.61543,-33.58162],[-71.61496,-33.58198],[-71.61541,-33.58224],[-71.61533,-33.58232],[-71.61483,-33.58208],[-71.61457,-33.58228],[-71.61402,-33.58283],[-71.61381,-33.58317],[-71.61337,-33.5841],[-71.61328,-33.5845],[-71.613274,-33.584766],[-71.611974,-33.583925]]]},"properties":{"comuna":"San Antonio","mancha_id":"05601-88b2c0d405fffff","clase":"Bajo","nivel_medio":1.069,"nivel_medio_min":0.587,"nivel_medio_max":1.399,"pct_alto":28.8,"n_hexagonos":9,"area_ha":350.42}},{"type":"Feature","geometry":{"type":"Polygon","coordinates":[[[-71.614803,-33.585756],[-71.6149,-33.58572],[-71.61496,-33.5858],[-71.614904,-33.585822],[-71.614803,-33.585756]]]},"properties":{"comuna":"San Antonio","mancha_id":"05601-88b2c0d405fffff-2","clase":"Bajo","nivel_medio":0.893,"nivel_medio_min":0.893,"nivel_medio_max":0.893,"pct_alto":26.3,"n_hexagonos":1,"area_ha":0.01}},{"type":"Feature","geometry":{"type":"Polygon","coordinates":[[[-71.61802,-33.58565],[-71.619194,-33.586066],[-71.616433,-33.586812],[-71.616093,-33.586592],[-71.61757,-33.5853],[-71.61765,-33.58536],[-71.61779,-33.58536],[-71.6178,-33.58547],[-71.61802,-33.58565]]]},"properties":{"comuna":"San Antonio","mancha_id":"05601-88b2c0d405fffff-3","clase":"Bajo","nivel_medio":0.893,"nivel_medio_min":0.893,"nivel_medio_max":0.893,"pct_alto":26.3,"n_hexagonos":1,"area_ha":2.0}},{"type":"Feature","geometry":{"type":"Polygon","coordinates":[[[-71.550114,-33.706871],[-71.545655,-33.703986],[-71.540575,-33.70535],[-71.536117,-33.702464],[-71.536738,-33.698214],[-71.541818,-33.696849],[-71.546276,-33.699735],[-71.551357,-33.69837],[-71.551978,-33.694119],[-71.547519,-33.691233],[-71.542439,-33.692598],[-71.537981,-33.689712],[-71.538603,-33.685461],[-71.543682,-33.684096],[-71.54814,-33.686982],[-71.55322,-33.685616],[-71.557679,-33.688502],[-71.557058,-33.692753],[-71.561517,-33.695639],[-71.560896,-33.69989],[-71.555816,-33.701256],[-71.555194,-33.705506],[-71.550114,-33.706871]]]},"properties":{"comuna":"San Antonio","mancha_id":"05601-88b2c0c689fffff","clase":"Bajo","nivel_medio":1.318,"nivel_medio_min":1.157,"nivel_medio_max":1.469,"pct_alto":9.9,"n_hexagonos":5,"area_ha":320.02}},{"type":"Feature","geometry":{"type":"Polygon","coordinates":[[[-71.544521,-33.745111],[-71.549602,-33.743748],[-71.55032,-33.744212],[-71.54953,-33.744589],[-71.548526,-33.74509],[-71.547473,-33.745492],[-71.54667,-33.745692],[-71.546018,-33.745692],[-71.545015,-33.745542],[-71.544458,-33.745542],[-71.544521,-33.745111]]]},"properties":{"comuna":"San Antonio","mancha_id":"05601-88b2c0c4dbfffff","clase":"Bajo","nivel_medio":1.444,"nivel_medio_min":1.444,"nivel_medio_max":1.444,"pct_alto":39.5,"n_hexagonos":1,"area_ha":5.27}},{"type":"Feature","geometry":{"type":"Polygon","coordinates":[[[-71.423396,-33.606095],[-71.424018,-33.601841],[-71.424373,-33.601745],[-71.424902,-33.601683],[-71.425155,-33.601535],[-71.429093,-33.600477],[-71.433545,-33.603369],[-71.43862,-33.602005],[-71.443072,-33.604896],[-71.44245,-33.609151],[-71.437375,-33.610515],[-71.436752,-33.614769],[-71.431677,-33.616132],[-71.427225,-33.613241],[-71.427848,-33.608987],[-71.423396,-33.606095]]]},"properties":{"comuna":"San Antonio","mancha_id":"05601-88b2c08a03fffff","clase":"Bajo","nivel_medio":1.244,"nivel_medio_min":1.0,"nivel_medio_max":1.438,"pct_alto":5.9,"n_hexagonos":3,"area_ha":192.14}},{"type":"Feature","geometry":{"type":"Polygon","coordinates":[[[-71.544303,-33.679844],[-71.539845,-33.676957],[-71.534766,-33.678323],[-71.534145,-33.682575],[-71.529065,-33.683939],[-71.524608,-33.681053],[-71.525229,-33.676801],[-71.530308,-33.675436],[-71.53093,-33.671184],[-71.536009,-33.669819],[-71.540467,-33.672705],[-71.545546,-33.671339],[-71.550004,-33.674226],[-71.549383,-33.678478],[-71.544303,-33.679844]]]},"properties":{"comuna":"San Antonio","mancha_id":"05601-88b2c08923fffff","clase":"Bajo","nivel_medio":1.19,"nivel_medio_min":1.087,"nivel_medio_max":1.304,"pct_alto":5.6,"n_hexagonos":3,"area_ha":192.07}},{"type":"Feature","geometry":{"type":"Polygon","coordinates":[[[-71.511236,-33.672391],[-71.506158,-33.673756],[-71.505536,-33.678007],[-71.509993,-33.680894],[-71.515072,-33.67953],[-71.519529,-33.682417],[-71.518907,-33.686668],[-71.523364,-33.689555],[-71.522743,-33.693806],[-71.517664,-33.69517],[-71.517042,-33.69942],[-71.511963,-33.700784],[-71.507506,-33.697897],[-71.508128,-33.693647],[-71.513206,-33.692283],[-71.513828,-33.688033],[-71.509371,-33.685146],[-71.504293,-33.686509],[-71.499836,-33.683622],[-71.494758,-33.684985],[-71.494136,-33.689236],[-71.489057,-33.690599],[-71.484601,-33.687711],[-71.479524,-33.689073],[-71.478901,-33.693323],[-71.473823,-33.694685],[-71.469368,-33.691798],[-71.46999,-33.687548],[-71.475068,-33.686186],[-71.47569,-33.681935],[-71.480768,-33.680573],[-71.48139,-33.676322],[-71.486468,-33.674959],[-71.48709,-33.670708],[-71.492168,-33.669344],[-71.49279,-33.665092],[-71.497867,-33.663728],[-71.502324,-33.666616],[-71.507402,-33.665252],[-71.508023,-33.661],[-71.513102,-33.659635],[-71.517558,-33.662522],[-71.516937,-33.666775],[-71.511858,-33.66814],[-71.511236,-33.672391]]]},"properties":{"comuna":"San Antonio","mancha_id":"05601-88b2c08911fffff","clase":"Bajo","nivel_medio":1.2,"nivel_medio_min":1.081,"nivel_medio_max":1.457,"pct_alto":3.0,"n_hexagonos":14,"area_ha":895.92}},{"type":"Feature","geometry":{"type":"Polygon","coordinates":[[[-71.463472,-33.632111],[-71.464094,-33.627858],[-71.46917,-33.626494],[-71.469792,-33.622239],[-71.474869,-33.620875],[-71.479323,-33.623765],[-71.478701,-33.628019],[-71.483156,-33.630908],[-71.488232,-33.629544],[-71.488854,-33.625289],[-71.493931,-33.623924],[-71.498387,-33.626813],[-71.497765,-33.631067],[-71.492688,-33.632433],[-71.492066,-33.636687],[-71.486989,-33.638051],[-71.486367,-33.642305],[-71.490822,-33.645194],[-71.4902,-33.649447],[-71.485123,-33.650811],[-71.480667,-33.647922],[-71.48129,-33.643669],[-71.476835,-33.64078],[-71.477457,-33.636527],[-71.473002,-33.633637],[-71.467926,-33.635001],[-71.467304,-33.639254],[-71.462227,-33.640618],[-71.457773,-33.637728],[-71.458396,-33.633475],[-71.463472,-33.632111]]]},"properties":{"comuna":"San Antonio","mancha_id":"05601-88b2c08845fffff","clase":"Bajo","nivel_medio":1.273,"nivel_medio_min":1.0,"nivel_medio_max":1.469,"pct_alto":11.9,"n_hexagonos":8,"area_ha":512.38}},{"type":"Feature","geometry":{"type":"Polygon","coordinates":[[[-71.513416,-33.757531],[-71.514038,-33.753285],[-71.519118,-33.751924],[-71.523577,-33.754808],[-71.522955,-33.759055],[-71.517874,-33.760416],[-71.513416,-33.757531]]]},"properties":{"comuna":"San Antonio","mancha_id":"05601-88b2c01307fffff","clase":"Bajo","nivel_medio":1.217,"nivel_medio_min":1.217,"nivel_medio_max":1.217,"pct_alto":5.9,"n_hexagonos":1,"area_ha":63.9}},{"type":"Feature","geometry":{"type":"Polygon","coordinates":[[[-71.400966,-33.759066],[-71.401589,-33.754822],[-71.406666,-33.753465],[-71.40729,-33.749221],[-71.412367,-33.747864],[-71.416821,-33.750752],[-71.416197,-33.754996],[-71.420652,-33.757884],[-71.420029,-33.762128],[-71.414951,-33.763484],[-71.410497,-33.760597],[-71.40542,-33.761953],[-71.404796,-33.766197],[-71.399719,-33.767553],[-71.399423,-33.769569],[-71.398918,-33.768508],[-71.398229,-33.767865],[-71.397286,-33.767335],[-71.397214,-33.76729],[-71.396545,-33.766872],[-71.395805,-33.766481],[-71.395233,-33.766445],[-71.394621,-33.766516],[-71.394055,-33.766501],[-71.393698,-33.766393],[-71.393157,-33.76627],[-71.392656,-33.766308],[-71.392231,-33.766651],[-71.391765,-33.767165],[-71.39136,-33.767364],[-71.390754,-33.767376],[-71.390339,-33.767231],[-71.390047,-33.766986],[-71.390189,-33.76602],[-71.395266,-33.764665],[-71.395889,-33.760422],[-71.400966,-33.759066]]]},"properties":{"comuna":"San Antonio","mancha_id":"05601-88b2c012c1fffff","clase":"Bajo","nivel_medio":1.373,"nivel_medio_min":1.228,"nivel_medio_max":1.486,"pct_alto":9.6,"n_hexagonos":5,"area_ha":269.23}},{"type":"Feature","geometry":{"type":"Polygon","coordinates":[[[-71.4504,-33.721371],[-71.451023,-33.717123],[-71.4561,-33.715763],[-71.460556,-33.718651],[-71.459933,-33.722898],[-71.454855,-33.724258],[-71.4504,-33.721371]]]},"properties":{"comuna":"San Antonio","mancha_id":"05601-88b2c01245fffff","clase":"Bajo","nivel_medio":1.26,"nivel_medio_min":1.26,"nivel_medio_max":1.26,"pct_alto":8.3,"n_hexagonos":1,"area_ha":63.91}},{"type":"Feature","geometry":{"type":"Polygon","coordinates":[[[-71.43143,-33.750924],[-71.432053,-33.746679],[-71.437131,-33.745321],[-71.441586,-33.748208],[-71.440963,-33.752453],[-71.435885,-33.753811],[-71.43143,-33.750924]]]},"properties":{"comuna":"San Antonio","mancha_id":"05601-88b2c01215fffff","clase":"Bajo","nivel_medio":1.348,"nivel_medio_min":1.348,"nivel_medio_max":1.348,"pct_alto":15.3,"n_hexagonos":1,"area_ha":63.85}},{"type":"Feature","geometry":{"type":"Polygon","coordinates":[[[-71.481202,-33.777525],[-71.481692,-33.774183],[-71.485562,-33.773148],[-71.485541,-33.773269],[-71.48512,-33.774141],[-71.484639,-33.774712],[-71.484098,-33.774952],[-71.482836,-33.776005],[-71.482144,-33.776486],[-71.481783,-33.776906],[-71.481212,-33.777508],[-71.481202,-33.777525]]]},"properties":{"comuna":"San Antonio","mancha_id":"05601-88b2c0106bfffff","clase":"Bajo","nivel_medio":1.492,"nivel_medio_min":1.492,"nivel_medio_max":1.492,"pct_alto":0.9,"n_hexagonos":1,"area_ha":7.36}},{"type":"Feature","geometry":{"type":"Polygon","coordinates":[[[-71.475367,-33.78403],[-71.47599,-33.779786],[-71.480415,-33.778603],[-71.480371,-33.77865],[-71.479787,-33.779195],[-71.479462,-33.779682],[-71.479083,-33.780196],[-71.478515,-33.780846],[-71.478022,-33.781585],[-71.477646,-33.782509],[-71.476823,-33.783249],[-71.476242,-33.783714],[-71.475592,-33.784012],[-71.475435,-33.784074],[-71.475367,-33.78403]]]},"properties":{"comuna":"San Antonio","mancha_id":"05601-88b2c0100dfffff","clase":"Bajo","nivel_medio":1.136,"nivel_medio_min":1.136,"nivel_medio_max":1.136,"pct_alto":20.8,"n_hexagonos":1,"area_ha":11.26}},{"type":"Feature","geometry":{"type":"Polygon","coordinates":[[[-71.570608,-33.566452],[-71.566151,-33.563563],[-71.566759,-33.559388],[-71.566926,-33.559338],[-71.567172,-33.559247],[-71.567265,-33.559213],[-71.567489,-33.559108],[-71.571031,-33.558152],[-71.571482,-33.558335],[-71.571873,-33.558494],[-71.572325,-33.558677],[-71.572983,-33.558817],[-71.57333,-33.55889],[-71.576307,-33.56082],[-71.575686,-33.56508],[-71.570608,-33.566452]]]},"properties":{"comuna":"San Antonio","mancha_id":"05601-88b2c0d6e5fffff","clase":"Medio","nivel_medio":2.048,"nivel_medio_min":2.048,"nivel_medio_max":2.048,"pct_alto":50.9,"n_hexagonos":1,"area_ha":63.47}},{"type":"Feature","geometry":{"type":"Polygon","coordinates":[[[-71.545219,-33.573304],[-71.540142,-33.574673],[-71.539521,-33.578932],[-71.534443,-33.580301],[-71.529987,-33.577411],[-71.530609,-33.573153],[-71.526153,-33.570263],[-71.521076,-33.571632],[-71.519308,-33.570484],[-71.519689,-33.570401],[-71.520728,-33.570172],[-71.522383,-33.569809],[-71.524981,-33.569205],[-71.525449,-33.569096],[-71.526354,-33.568884],[-71.527577,-33.568597],[-71.527803,-33.568544],[-71.529871,-33.568051],[-71.530018,-33.568044],[-71.530426,-33.567944],[-71.530623,-33.567891],[-71.530829,-33.567867],[-71.530854,-33.567864],[-71.530901,-33.567852],[-71.534465,-33.567002],[-71.5345,-33.566999],[-71.535239,-33.566832],[-71.536307,-33.567525],[-71.541384,-33.566155],[-71.541496,-33.565387],[-71.542797,-33.565079],[-71.543205,-33.564982],[-71.545844,-33.564358],[-71.546899,-33.56411],[-71.54797,-33.563856],[-71.548306,-33.563776],[-71.549533,-33.563485],[-71.551081,-33.563118],[-71.551539,-33.563415],[-71.556616,-33.562044],[-71.561073,-33.564933],[-71.560452,-33.569193],[-71.555374,-33.570564],[-71.550918,-33.567674],[-71.54584,-33.569044],[-71.545219,-33.573304]]]},"properties":{"comuna":"San Antonio","mancha_id":"05601-88b2c0d681fffff","clase":"Medio","nivel_medio":2.009,"nivel_medio_min":1.698,"nivel_medio_max":2.447,"pct_alto":59.7,"n_hexagonos":6,"area_ha":282.82}},{"type":"Feature","geometry":{"type":"Polygon","coordinates":[[[-71.587861,-33.561791],[-71.585842,-33.562337],[-71.58429,-33.561331],[-71.584491,-33.56135],[-71.585862,-33.56182],[-71.586645,-33.561817],[-71.586987,-33.561815],[-71.587398,-33.561813],[-71.587861,-33.561791]]]},"properties":{"comuna":"San Antonio","mancha_id":"05601-88b2c0d637fffff","clase":"Medio","nivel_medio":2.345,"nivel_medio_min":2.345,"nivel_medio_max":2.345,"pct_alto":56.4,"n_hexagonos":1,"area_ha":0.97}},{"type":"Feature","geometry":{"type":"Polygon","coordinates":[[[-71.621632,-33.618137],[-71.622252,-33.613879],[-71.617792,-33.610993],[-71.618412,-33.606734],[-71.623493,-33.605363],[-71.627953,-33.608249],[-71.627333,-33.612507],[-71.630352,-33.614461],[-71.630329,-33.614563],[-71.630172,-33.61538],[-71.629952,-33.616134],[-71.629387,-33.61717],[-71.628853,-33.617955],[-71.628444,-33.618364],[-71.627691,-33.618835],[-71.626748,-33.619306],[-71.625869,-33.619557],[-71.624895,-33.619777],[-71.624439,-33.619953],[-71.621632,-33.618137]]]},"properties":{"comuna":"San Antonio","mancha_id":"05601-88b2c0d5c3fffff","clase":"Medio","nivel_medio":1.638,"nivel_medio_min":1.624,"nivel_medio_max":1.648,"pct_alto":43.2,"n_hexagonos":2,"area_ha":110.95}},{"type":"Feature","geometry":{"type":"Polygon","coordinates":[[[-71.587312,-33.619217],[-71.587933,-33.61496],[-71.593013,-33.61359],[-71.597472,-33.616477],[-71.596851,-33.620734],[-71.591771,-33.622104],[-71.587312,-33.619217]]]},"properties":{"comuna":"San Antonio","mancha_id":"05601-88b2c0d4e7fffff","clase":"Medio","nivel_medio":2.446,"nivel_medio_min":2.446,"nivel_medio_max":2.446,"pct_alto":61.4,"n_hexagonos":1,"area_ha":64.15}},{"type":"Feature","geometry":{"type":"Polygon","coordinates":[[[-71.566262,-33.596264],[-71.561184,-33.597634],[-71.560563,-33.601892],[-71.555485,-33.603261],[-71.554864,-33.607518],[-71.549785,-33.608887],[-71.545328,-33.605998],[-71.545949,-33.601741],[-71.551027,-33.600373],[-71.551648,-33.596115],[-71.547191,-33.593226],[-71.547813,-33.588968],[-71.55289,-33.587599],[-71.557348,-33.590488],[-71.562426,-33.589118],[-71.566883,-33.592006],[-71.566262,-33.596264]]]},"properties":{"comuna":"San Antonio","mancha_id":"05601-88b2c0d4c9fffff","clase":"Medio","nivel_medio":2.368,"nivel_medio_min":2.285,"nivel_medio_max":2.424,"pct_alto":36.8,"n_hexagonos":4,"area_ha":256.6}},{"type":"Feature","geometry":{"type":"Polygon","coordinates":[[[-71.59561,-33.629247],[-71.60069,-33.627877],[-71.604976,-33.630651],[-71.604858,-33.630769],[-71.603947,-33.631272],[-71.603004,-33.63168],[-71.602094,-33.631931],[-71.601089,-33.632026],[-71.600398,-33.632057],[-71.599361,-33.632151],[-71.598482,-33.632371],[-71.597759,-33.632999],[-71.597226,-33.633376],[-71.596378,-33.63413],[-71.596206,-33.63429],[-71.59499,-33.633503],[-71.59561,-33.629247]]]},"properties":{"comuna":"San Antonio","mancha_id":"05601-88b2c0d4a5fffff","clase":"Medio","nivel_medio":1.521,"nivel_medio_min":1.521,"nivel_medio_max":1.521,"pct_alto":43.8,"n_hexagonos":1,"area_ha":34.49}},{"type":"Feature","geometry":{"type":"Polygon","coordinates":[[[-71.600458,-33.562481],[-71.595379,-33.563853],[-71.591977,-33.561649],[-71.593457,-33.561616],[-71.593632,-33.561574],[-71.593813,-33.561531],[-71.59453,-33.56136],[-71.59569,-33.561274],[-71.596166,-33.561193],[-71.59678,-33.56146],[-71.597626,-33.561749],[-71.598403,-33.56197],[-71.599272,-33.561923],[-71.600598,-33.56152],[-71.600458,-33.562481]]]},"properties":{"comuna":"San Antonio","mancha_id":"05601-88b2c0d44bfffff","clase":"Medio","nivel_medio":1.905,"nivel_medio_min":1.905,"nivel_medio_max":1.905,"pct_alto":49.0,"n_hexagonos":1,"area_ha":12.36}},{"type":"Feature","geometry":{"type":"Polygon","coordinates":[[[-71.609995,-33.563996],[-71.610616,-33.559735],[-71.615695,-33.558361],[-71.615865,-33.557195],[-71.617739,-33.556302],[-71.618013,-33.556197],[-71.61909,-33.555785],[-71.620597,-33.555215],[-71.622267,-33.554278],[-71.623142,-33.553858],[-71.623842,-33.553522],[-71.62424,-33.553331],[-71.624304,-33.5533],[-71.625184,-33.552986],[-71.625442,-33.552893],[-71.625535,-33.55286],[-71.625754,-33.552782],[-71.625968,-33.552706],[-71.626057,-33.552674],[-71.626145,-33.552642],[-71.626168,-33.552634],[-71.626182,-33.552629],[-71.626184,-33.552628],[-71.626197,-33.552624],[-71.626199,-33.552623],[-71.626203,-33.552622],[-71.626266,-33.552599],[-71.626299,-33.552587],[-71.626407,-33.552549],[-71.626791,-33.552412],[-71.626933,-33.552361],[-71.626992,-33.55234],[-71.62719,-33.552269],[-71.62724,-33.552251],[-71.627265,-33.552242],[-71.627275,-33.552239],[-71.627314,-33.552225],[-71.627339,-33.552216],[-71.627355,-33.55221],[-71.627383,-33.5522],[-71.627402,-33.552193],[-71.627419,-33.552187],[-71.627426,-33.552185],[-71.62743,-33.552183],[-71.627448,-33.552177],[-71.627548,-33.552141],[-71.62758,-33.55219],[-71.62758,-33.55241],[-71.62752,-33.55251],[-71.62748,-33.55265],[-71.62733,-33.55279],[-71.62681,-33.55305],[-71.62675,-33.55323],[-71.62696,-33.55362],[-71.62691,-33.55365],[-71.62716,-33.55396],[-71.62744,-33.55393],[-71.62774,-33.55384],[-71.62787,-33.55383],[-71.62796,-33.55387],[-71.628,-33.55395],[-71.62796,-33.55418],[-71.62783,-33.55426],[-71.62781,-33.55432],[-71.62747,-33.55436],[-71.6273,-33.55448],[-71.62743,-33.55487],[-71.62702,-33.55506],[-71.62699,-33.555306],[-71.62698,-33.55539],[-71.62679,-33.55575],[-71.62668,-33.55588],[-71.62654,-33.55589],[-71.62647,-33.55597],[-71.62672,-33.55643],[-71.62624,-33.55665],[-71.62573,-33.55673],[-71.6257,-33.55705],[-71.625624,-33.557193],[-71.62554,-33.55735],[-71.62553,-33.55743],[-71.625587,-33.557443],[-71.62585,-33.5575],[-71.62597,-33.55763],[-71.62597,-33.55785],[-71.62591,-33.55792],[-71.62575,-33.55794],[-71.625472,-33.558233],[-71.62539,-33.55832],[-71.62526,-33.55858],[-71.62479,-33.55882],[-71.62453,-33.55909],[-71.62441,-33.55949],[-71.62441,-33.55967],[-71.62466,-33.55971],[-71.62495,-33.55961],[-71.62523,-33.55961],[-71.625266,-33.559653],[-71.62528,-33.55967],[-71.62547,-33.55973],[-71.62568,-33.56007],[-71.625685,-33.560168],[-71.625233,-33.559876],[-71.620154,-33.561249],[-71.619534,-33.565511],[-71.623993,-33.568398],[-71.623373,-33.572659],[-71.618294,-33.574032],[-71.613834,-33.571144],[-71.614455,-33.566884],[-71.609995,-33.563996]]]},"properties":{"comuna":"San Antonio","mancha_id":"05601-88b2c0d445fffff","clase":"Medio","nivel_medio":2.213,"nivel_medio_min":1.985,"nivel_medio_max":2.45,"pct_alto":58.9,"n_hexagonos":5,"area_ha":186.37}},{"type":"Feature","geometry":{"type":"Polygon","coordinates":[[[-71.598713,-33.607962],[-71.599333,-33.603704],[-71.604413,-33.602333],[-71.608872,-33.605219],[-71.608252,-33.609477],[-71.603172,-33.610849],[-71.598713,-33.607962]]]},"properties":{"comuna":"San Antonio","mancha_id":"05601-88b2c0d433fffff","clase":"Medio","nivel_medio":2.217,"nivel_medio_min":2.217,"nivel_medio_max":2.217,"pct_alto":56.8,"n_hexagonos":1,"area_ha":64.17}},{"type":"Feature","geometry":{"type":"Polygon","coordinates":[[[-71.571962,-33.590636],[-71.572582,-33.586378],[-71.577661,-33.585007],[-71.582119,-33.587895],[-71.581498,-33.592154],[-71.57642,-33.593524],[-71.571962,-33.590636]]]},"properties":{"comuna":"San Antonio","mancha_id":"05601-88b2c0d41bfffff","clase":"Medio","nivel_medio":2.426,"nivel_medio_min":2.426,"nivel_medio_max":2.426,"pct_alto":72.5,"n_hexagonos":1,"area_ha":64.18}},{"type":"Feature","geometry":{"type":"Polygon","coordinates":[[[-71.592897,-33.580894],[-71.593518,-33.576634],[-71.598597,-33.575262],[-71.603056,-33.57815],[-71.602435,-33.582409],[-71.597356,-33.583781],[-71.592897,-33.580894]]]},"properties":{"comuna":"San Antonio","mancha_id":"05601-88b2c0d40bfffff","clase":"Medio","nivel_medio":1.705,"nivel_medio_min":1.705,"nivel_medio_max":1.705,"pct_alto":36.1,"n_hexagonos":1,"area_ha":64.2}},{"type":"Feature","geometry":{"type":"Polygon","coordinates":[[[-71.538895,-33.751562],[-71.538794,-33.752264],[-71.538522,-33.752748],[-71.538796,-33.750874],[-71.538895,-33.751562]]]},"properties":{"comuna":"San Antonio","mancha_id":"05601-88b2c0132dfffff","clase":"Medio","nivel_medio":1.811,"nivel_medio_min":1.811,"nivel_medio_max":1.811,"pct_alto":16.4,"n_hexagonos":1,"area_ha":0.26}},{"type":"Feature","geometry":{"type":"Polygon","coordinates":[[[-71.451216,-33.782333],[-71.456295,-33.780976],[-71.460611,-33.78377],[-71.460367,-33.783673],[-71.459443,-33.783809],[-71.458264,-33.784082],[-71.45736,-33.784868],[-71.456731,-33.785104],[-71.456297,-33.785083],[-71.455714,-33.78511],[-71.455385,-33.785422],[-71.454995,-33.785931],[-71.454097,-33.786126],[-71.452463,-33.786547],[-71.450948,-33.786806],[-71.450593,-33.786576],[-71.451216,-33.782333]]]},"properties":{"comuna":"San Antonio","mancha_id":"05601-88b2c01057fffff","clase":"Medio","nivel_medio":1.801,"nivel_medio_min":1.801,"nivel_medio_max":1.801,"pct_alto":27.2,"n_hexagonos":1,"area_ha":33.04}},{"type":"Feature","geometry":{"type":"Polygon","coordinates":[[[-71.47599,-33.779786],[-71.475367,-33.78403],[-71.471978,-33.784936],[-71.471749,-33.784959],[-71.470531,-33.78523],[-71.469994,-33.785198],[-71.465831,-33.782503],[-71.466453,-33.77826],[-71.471533,-33.776901],[-71.472155,-33.772657],[-71.467698,-33.769771],[-71.462619,-33.77113],[-71.458163,-33.768244],[-71.453084,-33.769602],[-71.452461,-33.773846],[-71.447383,-33.775204],[-71.44676,-33.779447],[-71.441681,-33.780805],[-71.441058,-33.785048],[-71.444158,-33.787055],[-71.443554,-33.787142],[-71.443103,-33.787185],[-71.442631,-33.787034],[-71.442266,-33.786798],[-71.441922,-33.786669],[-71.441813,-33.786658],[-71.441761,-33.786652],[-71.441515,-33.786626],[-71.440999,-33.786648],[-71.440587,-33.786668],[-71.44057,-33.786669],[-71.440098,-33.786755],[-71.439768,-33.786663],[-71.439561,-33.786606],[-71.439479,-33.786583],[-71.438707,-33.7866],[-71.438378,-33.786608],[-71.438116,-33.786621],[-71.437323,-33.786662],[-71.436555,-33.786792],[-71.435899,-33.786952],[-71.43598,-33.786404],[-71.431524,-33.783518],[-71.426446,-33.784875],[-71.421991,-33.781988],[-71.416913,-33.783344],[-71.416587,-33.785561],[-71.416497,-33.785531],[-71.41573,-33.785119],[-71.415013,-33.784484],[-71.414342,-33.783524],[-71.413872,-33.782615],[-71.413084,-33.781824],[-71.412258,-33.780903],[-71.412097,-33.780554],[-71.411667,-33.779626],[-71.411097,-33.778311],[-71.410706,-33.777818],[-71.410093,-33.77733],[-71.409552,-33.777043],[-71.409041,-33.777044],[-71.408092,-33.77737],[-71.407369,-33.77754],[-71.406741,-33.777564],[-71.406205,-33.777288],[-71.40553,-33.776657],[-71.405214,-33.776091],[-71.405221,-33.775976],[-71.405253,-33.775446],[-71.405015,-33.77458],[-71.404816,-33.774345],[-71.404099,-33.7735],[-71.40298,-33.772794],[-71.401674,-33.772068],[-71.400436,-33.771198],[-71.399722,-33.770198],[-71.399423,-33.769569],[-71.399719,-33.767553],[-71.404796,-33.766197],[-71.40542,-33.761953],[-71.410497,-33.760597],[-71.414951,-33.763484],[-71.420029,-33.762128],[-71.420652,-33.757884],[-71.416197,-33.754996],[-71.416821,-33.750752],[-71.412367,-33.747864],[-71.40729,-33.749221],[-71.406666,-33.753465],[-71.401589,-33.754822],[-71.400966,-33.759066],[-71.395889,-33.760422],[-71.395266,-33.764665],[-71.390189,-33.76602],[-71.385735,-33.763133],[-71.382063,-33.764113],[-71.381932,-33.764016],[-71.381734,-33.763944],[-71.381332,-33.763798],[-71.380919,-33.763619],[-71.380514,-33.763557],[-71.380141,-33.763678],[-71.379741,-33.763892],[-71.379567,-33.763985],[-71.379093,-33.764195],[-71.378672,-33.76426],[-71.377706,-33.764031],[-71.377007,-33.763968],[-71.376239,-33.763897],[-71.375379,-33.763761],[-71.374604,-33.763413],[-71.373401,-33.762892],[-71.372488,-33.762701],[-71.372356,-33.762674],[-71.372236,-33.762659],[-71.370808,-33.762484],[-71.370163,-33.762327],[-71.368187,-33.761045],[-71.367672,-33.760626],[-71.366921,-33.759906],[-71.366723,-33.759759],[-71.365603,-33.758929],[-71.364219,-33.75845],[-71.363365,-33.758533],[-71.362754,-33.758745],[-71.362641,-33.75876],[-71.361262,-33.758936],[-71.360096,-33.758491],[-71.359478,-33.758037],[-71.35936,-33.757481],[-71.359691,-33.757053],[-71.359865,-33.756527],[-71.359736,-33.755549],[-71.359381,-33.754497],[-71.35917,-33.754079],[-71.359097,-33.753935],[-71.358983,-33.75371],[-71.358971,-33.752665],[-71.358949,-33.75214],[-71.358921,-33.751464],[-71.358967,-33.751007],[-71.359003,-33.750654],[-71.359036,-33.750331],[-71.358995,-33.750081],[-71.358957,-33.749999],[-71.358803,-33.74967],[-71.358576,-33.74918],[-71.358261,-33.748524],[-71.358194,-33.748386],[-71.358281,-33.747808],[-71.358368,-33.747223],[-71.358362,-33.747067],[-71.358347,-33.746722],[-71.358333,-33.746393],[-71.358325,-33.746198],[-71.358318,-33.746022],[-71.358961,-33.746038],[-71.359405,-33.746049],[-71.359411,-33.74605],[-71.359741,-33.746058],[-71.360095,-33.746067],[-71.360583,-33.746079],[-71.362835,-33.746136],[-71.363297,-33.746147],[-71.3635,-33.746153],[-71.363733,-33.746158],[-71.364082,-33.746167],[-71.364412,-33.746176],[-71.364875,-33.746187],[-71.364885,-33.746188],[-71.365108,-33.746193],[-71.365461,-33.746202],[-71.36584,-33.746212],[-71.366355,-33.746225],[-71.36646,-33.746227],[-71.367115,-33.746244],[-71.36741,-33.746251],[-71.368204,-33.746271],[-71.368182,-33.746137],[-71.368038,-33.745985],[-71.367767,-33.74588],[-71.367547,-33.745794],[-71.367352,-33.745536],[-71.367374,-33.745298],[-71.367452,-33.744986],[-71.367723,-33.744431],[-71.36792,-33.743893],[-71.368273,-33.743636],[-71.368779,-33.743659],[-71.369087,-33.743676],[-71.369368,-33.743692],[-71.370131,-33.743269],[-71.370703,-33.742905],[-71.37114,-33.742565],[-71.371232,-33.742541],[-71.371614,-33.742541],[-71.372056,-33.742563],[-71.372419,-33.742913],[-71.372632,-33.743333],[-71.37311,-33.743773],[-71.373699,-33.743918],[-71.374391,-33.743874],[-71.374956,-33.743697],[-71.375473,-33.743577],[-71.375853,-33.74341],[-71.376485,-33.743186],[-71.37671,-33.743107],[-71.377579,-33.742843],[-71.378352,-33.742445],[-71.378842,-33.742109],[-71.379603,-33.741837],[-71.379852,-33.741704],[-71.381034,-33.741288],[-71.381883,-33.740855],[-71.382644,-33.740487],[-71.384164,-33.739873],[-71.384282,-33.739832],[-71.385402,-33.739442],[-71.38652,-33.739108],[-71.387521,-33.739002],[-71.388445,-33.739013],[-71.389173,-33.738921],[-71.389557,-33.738741],[-71.389856,-33.738375],[-71.390042,-33.738034],[-71.390156,-33.737826],[-71.390572,-33.737509],[-71.390907,-33.737117],[-71.391376,-33.73673],[-71.391728,-33.736235],[-71.391904,-33.735911],[-71.39192,-33.735528],[-71.391887,-33.734913],[-71.391787,-33.73448],[-71.391454,-33.734147],[-71.391188,-33.733881],[-71.390755,-33.733598],[-71.390456,-33.733327],[-71.390406,-33.733281],[-71.390189,-33.732699],[-71.389823,-33.731866],[-71.38984,-33.731167],[-71.389858,-33.730601],[-71.389973,-33.729952],[-71.389851,-33.729102],[-71.389845,-33.728816],[-71.389903,-33.728374],[-71.390422,-33.728038],[-71.390789,-33.727738],[-71.391521,-33.727555],[-71.392386,-33.727339],[-71.393419,-33.727023],[-71.393901,-33.72664],[-71.393938,-33.726612],[-71.3958,-33.72782],[-71.400876,-33.726463],[-71.401499,-33.722217],[-71.397456,-33.719593],[-71.397557,-33.719422],[-71.397724,-33.719004],[-71.398354,-33.718749],[-71.399039,-33.718762],[-71.399915,-33.718672],[-71.401322,-33.718641],[-71.401851,-33.718588],[-71.40278,-33.718395],[-71.403416,-33.718095],[-71.404218,-33.717438],[-71.404922,-33.716591],[-71.405246,-33.715879],[-71.405608,-33.71558],[-71.40583,-33.715396],[-71.406479,-33.71517],[-71.407487,-33.714807],[-71.408992,-33.714459],[-71.410556,-33.714099],[-71.411404,-33.713547],[-71.412468,-33.71264],[-71.412677,-33.712515],[-71.413158,-33.712227],[-71.413709,-33.711734],[-71.414039,-33.710956],[-71.414161,-33.710669],[-71.417975,-33.709648],[-71.418171,-33.708313],[-71.418396,-33.708261],[-71.418872,-33.708345],[-71.419463,-33.708443],[-71.420028,-33.708261],[-71.420033,-33.708008],[-71.419642,-33.707756],[-71.419375,-33.707222],[-71.419464,-33.706481],[-71.420028,-33.705709],[-71.420502,-33.704891],[-71.420661,-33.704616],[-71.421011,-33.703413],[-71.42131,-33.702412],[-71.421778,-33.70203],[-71.422254,-33.701623],[-71.422727,-33.701165],[-71.42344,-33.700604],[-71.423938,-33.70001],[-71.423842,-33.699498],[-71.424297,-33.699794],[-71.429374,-33.698434],[-71.433828,-33.701323],[-71.438904,-33.699963],[-71.439527,-33.695714],[-71.435073,-33.692826],[-71.429997,-33.694186],[-71.425543,-33.691297],[-71.426166,-33.687048],[-71.431242,-33.685687],[-71.431314,-33.685201],[-71.431731,-33.685143],[-71.433097,-33.684793],[-71.434726,-33.684284],[-71.43591,-33.683951],[-71.436738,-33.683734],[-71.43768,-33.683231],[-71.437538,-33.682708],[-71.437182,-33.682257],[-71.437159,-33.681809],[-71.437236,-33.680598],[-71.437305,-33.680313],[-71.441395,-33.682966],[-71.446472,-33.681605],[-71.450926,-33.684494],[-71.450304,-33.688744],[-71.454758,-33.691632],[-71.454136,-33.695882],[-71.458591,-33.69877],[-71.463668,-33.697408],[-71.468123,-33.700296],[-71.473201,-33.698935],[-71.473823,-33.694685],[-71.478901,-33.693323],[-71.479524,-33.689073],[-71.484601,-33.687711],[-71.489057,-33.690599],[-71.494136,-33.689236],[-71.494758,-33.684985],[-71.499836,-33.683622],[-71.504293,-33.686509],[-71.509371,-33.685146],[-71.513828,-33.688033],[-71.513206,-33.692283],[-71.508128,-33.693647],[-71.507506,-33.697897],[-71.511963,-33.700784],[-71.517042,-33.69942],[-71.517664,-33.69517],[-71.522743,-33.693806],[-71.523364,-33.689555],[-71.518907,-33.686668],[-71.519529,-33.682417],[-71.515072,-33.67953],[-71.509993,-33.680894],[-71.505536,-33.678007],[-71.506158,-33.673756],[-71.511236,-33.672391],[-71.511858,-33.66814],[-71.516937,-33.666775],[-71.517558,-33.662522],[-71.513102,-33.659635],[-71.508023,-33.661],[-71.507402,-33.665252],[-71.502324,-33.666616],[-71.497867,-33.663728],[-71.49279,-33.665092],[-71.492168,-33.669344],[-71.48709,-33.670708],[-71.486468,-33.674959],[-71.48139,-33.676322],[-71.480768,-33.680573],[-71.47569,-33.681935],[-71.475068,-33.686186],[-71.46999,-33.687548],[-71.469368,-33.691798],[-71.46429,-33.693159],[-71.459835,-33.690271],[-71.460458,-33.686021],[-71.465535,-33.68466],[-71.466158,-33.680409],[-71.471235,-33.679047],[-71.471857,-33.674796],[-71.467402,-33.671908],[-71.462325,-33.67327],[-71.461703,-33.677521],[-71.456626,-33.678883],[-71.452171,-33.675994],[-71.452794,-33.671743],[-71.44834,-33.668854],[-71.443263,-33.670216],[-71.442641,-33.674466],[-71.437564,-33.675827],[-71.433636,-33.673279],[-71.433717,-33.67293],[-71.433693,-33.672147],[-71.433705,-33.671322],[-71.433407,-33.670917],[-71.433733,-33.668688],[-71.438809,-33.667327],[-71.439432,-33.663076],[-71.444508,-33.661714],[-71.448962,-33.664603],[-71.454039,-33.663241],[-71.458493,-33.66613],[-71.46357,-33.664768],[-71.464192,-33.660517],[-71.459738,-33.657627],[-71.46036,-33.653376],[-71.455906,-33.650486],[-71.45083,-33.651849],[-71.446376,-33.648959],[-71.4413,-33.650321],[-71.440677,-33.654573],[-71.435601,-33.655935],[-71.431148,-33.653045],[-71.426073,-33.654406],[-71.42162,-33.651516],[-71.416545,-33.652877],[-71.415922,-33.657128],[-71.416545,-33.657533],[-71.416235,-33.657638],[-71.415381,-33.657806],[-71.414112,-33.658263],[-71.413282,-33.658476],[-71.411794,-33.658469],[-71.411112,-33.658417],[-71.410688,-33.658386],[-71.406394,-33.655598],[-71.401319,-33.656958],[-71.396868,-33.654067],[-71.396123,-33.654267],[-71.396185,-33.653565],[-71.39584,-33.651954],[-71.395627,-33.651018],[-71.395226,-33.649666],[-71.395196,-33.648716],[-71.395208,-33.648333],[-71.395226,-33.647735],[-71.395419,-33.647275],[-71.395731,-33.646621],[-71.396099,-33.645578],[-71.395911,-33.644823],[-71.395663,-33.644048],[-71.395171,-33.642653],[-71.395041,-33.642305],[-71.398737,-33.641314],[-71.39936,-33.637062],[-71.404435,-33.635701],[-71.405058,-33.631449],[-71.400606,-33.628557],[-71.395532,-33.629918],[-71.394909,-33.63417],[-71.389835,-33.635531],[-71.385384,-33.632639],[-71.386007,-33.628387],[-71.391081,-33.627026],[-71.391704,-33.622774],[-71.387254,-33.619882],[-71.387877,-33.615629],[-71.383426,-33.612736],[-71.38405,-33.608483],[-71.3796,-33.60559],[-71.374526,-33.606951],[-71.373903,-33.611204],[-71.36883,-33.612565],[-71.36438,-33.609672],[-71.359308,-33.611032],[-71.354859,-33.608139],[-71.355482,-33.603886],[-71.351033,-33.600992],[-71.345961,-33.602352],[-71.341513,-33.599458],[-71.342136,-33.595204],[-71.337688,-33.59231],[-71.338312,-33.588056],[-71.343384,-33.586697],[-71.344008,-33.582442],[-71.33956,-33.579548],[-71.340183,-33.575293],[-71.339869,-33.575089],[-71.340271,-33.575037],[-71.341335,-33.574937],[-71.341575,-33.57492],[-71.342232,-33.574871],[-71.343262,-33.57507],[-71.344293,-33.57517],[-71.344957,-33.575635],[-71.345855,-33.575968],[-71.346686,-33.576034],[-71.347483,-33.576001],[-71.348203,-33.575851],[-71.348281,-33.575835],[-71.349178,-33.575768],[-71.350042,-33.576068],[-71.350549,-33.576358],[-71.350842,-33.576521],[-71.351297,-33.576774],[-71.351962,-33.577148],[-71.352585,-33.577563],[-71.353416,-33.577522],[-71.354538,-33.577522],[-71.355535,-33.577688],[-71.356615,-33.578103],[-71.357279,-33.578311],[-71.358069,-33.57856],[-71.358863,-33.578999],[-71.35913,-33.578999],[-71.359853,-33.578999],[-71.361185,-33.578934],[-71.362722,-33.578934],[-71.363873,-33.579119],[-71.365007,-33.579557],[-71.366087,-33.580056],[-71.367084,-33.580762],[-71.36725,-33.582008],[-71.367209,-33.583379],[-71.367167,-33.584252],[-71.367234,-33.584386],[-71.367541,-33.585],[-71.367915,-33.585789],[-71.36833,-33.586495],[-71.368787,-33.58716],[-71.369577,-33.587492],[-71.370325,-33.588157],[-71.370865,-33.588822],[-71.37128,-33.589819],[-71.371612,-33.590691],[-71.37195,-33.591274],[-71.371972,-33.591313],[-71.372069,-33.591481],[-71.372859,-33.592104],[-71.37334,-33.592347],[-71.373594,-33.592367],[-71.373922,-33.592393],[-71.374915,-33.592431],[-71.376505,-33.592415],[-71.378133,-33.592527],[-71.379497,-33.592552],[-71.380633,-33.592651],[-71.381333,-33.592608],[-71.381509,-33.592555],[-71.381469,-33.592828],[-71.385919,-33.595721],[-71.386831,-33.595476],[-71.38772,-33.59602],[-71.38897,-33.596697],[-71.389823,-33.597239],[-71.390858,-33.597843],[-71.391462,-33.598243],[-71.391844,-33.598435],[-71.392532,-33.598243],[-71.393626,-33.598074],[-71.394117,-33.597981],[-71.39538,-33.597684],[-71.395736,-33.5976],[-71.396679,-33.597507],[-71.397577,-33.597747],[-71.398265,-33.597938],[-71.398991,-33.598205],[-71.399602,-33.598587],[-71.400481,-33.599161],[-71.401475,-33.599849],[-71.402201,-33.600116],[-71.402632,-33.600448],[-71.402927,-33.600957],[-71.402965,-33.601912],[-71.403111,-33.603368],[-71.403118,-33.603441],[-71.403692,-33.604205],[-71.404609,-33.60497],[-71.405106,-33.605658],[-71.405908,-33.606269],[-71.406787,-33.606575],[-71.407475,-33.606728],[-71.407843,-33.606999],[-71.408211,-33.607528],[-71.408211,-33.608038],[-71.408091,-33.608668],[-71.408181,-33.609268],[-71.408275,-33.609482],[-71.408391,-33.609748],[-71.408691,-33.610018],[-71.409021,-33.609988],[-71.409806,-33.609365],[-71.410915,-33.608944],[-71.412482,-33.608677],[-71.413361,-33.608639],[-71.413781,-33.608371],[-71.414431,-33.607912],[-71.415271,-33.607339],[-71.415998,-33.606995],[-71.416571,-33.606842],[-71.416779,-33.606456],[-71.416838,-33.606346],[-71.417412,-33.605658],[-71.418367,-33.605084],[-71.419461,-33.604498],[-71.420331,-33.603928],[-71.420931,-33.603628],[-71.421539,-33.603479],[-71.421861,-33.603208],[-71.422189,-33.602677],[-71.422953,-33.601989],[-71.42397,-33.601809],[-71.424253,-33.601759],[-71.424373,-33.601745],[-71.424018,-33.601841],[-71.423396,-33.606095],[-71.427848,-33.608987],[-71.427225,-33.613241],[-71.42215,-33.614604],[-71.417698,-33.611712],[-71.412624,-33.613074],[-71.412001,-33.617328],[-71.416453,-33.62022],[-71.421527,-33.618857],[-71.425979,-33.621749],[-71.425357,-33.626002],[-71.429809,-33.628893],[-71.434884,-33.62753],[-71.435507,-33.623277],[-71.431054,-33.620386],[-71.431677,-33.616132],[-71.436752,-33.614769],[-71.437375,-33.610515],[-71.44245,-33.609151],[-71.443072,-33.604896],[-71.43862,-33.602005],[-71.433545,-33.603369],[-71.429093,-33.600477],[-71.425155,-33.601535],[-71.426469,-33.600766],[-71.427769,-33.600269],[-71.429233,-33.59952],[-71.429412,-33.599428],[-71.43075,-33.598778],[-71.432011,-33.598091],[-71.432928,-33.597403],[-71.434189,-33.59702],[-71.435565,-33.596524],[-71.43656,-33.596368],[-71.436849,-33.596196],[-71.437244,-33.595958],[-71.43794,-33.595528],[-71.43869,-33.595138],[-71.43971,-33.594838],[-71.44061,-33.594598],[-71.44121,-33.594448],[-71.441642,-33.594154],[-71.442215,-33.593963],[-71.44307,-33.593519],[-71.44385,-33.593009],[-71.444878,-33.592552],[-71.44493,-33.592529],[-71.44559,-33.591959],[-71.445596,-33.591954],[-71.44607,-33.591569],[-71.44664,-33.591479],[-71.447258,-33.591507],[-71.4473,-33.591509],[-71.44784,-33.591629],[-71.44835,-33.591719],[-71.448865,-33.591632],[-71.449231,-33.5915],[-71.450135,-33.591139],[-71.450404,-33.591018],[-71.45105,-33.590729],[-71.45189,-33.590279],[-71.452845,-33.589393],[-71.453206,-33.589212],[-71.454109,-33.588791],[-71.454839,-33.588645],[-71.4554,-33.588539],[-71.455976,-33.588309],[-71.456397,-33.587586],[-71.456638,-33.586563],[-71.457099,-33.586045],[-71.45712,-33.586021],[-71.458023,-33.585539],[-71.458806,-33.584997],[-71.459589,-33.585057],[-71.460613,-33.585117],[-71.461516,-33.585117],[-71.462479,-33.584696],[-71.463142,-33.584515],[-71.463503,-33.584154],[-71.463684,-33.583732],[-71.464105,-33.583311],[-71.464948,-33.582769],[-71.46586,-33.582427],[-71.465912,-33.582407],[-71.465955,-33.582389],[-71.466996,-33.581926],[-71.467959,-33.581745],[-71.469284,-33.581324],[-71.470489,-33.580902],[-71.470967,-33.580844],[-71.471839,-33.580739],[-71.472596,-33.58024],[-71.473439,-33.579457],[-71.474583,-33.578975],[-71.475547,-33.578553],[-71.476571,-33.578012],[-71.477715,-33.57765],[-71.478855,-33.57736],[-71.47954,-33.57731],[-71.479822,-33.577289],[-71.480967,-33.577048],[-71.482156,-33.576909],[-71.483737,-33.576807],[-71.484881,-33.576626],[-71.485667,-33.576528],[-71.486236,-33.576457],[-71.486326,-33.576446],[-71.487771,-33.576386],[-71.490927,-33.576395],[-71.493847,-33.576403],[-71.495996,-33.576409],[-71.495694,-33.578472],[-71.500149,-33.581362],[-71.505225,-33.579995],[-71.505747,-33.576419],[-71.508499,-33.576418],[-71.509293,-33.575878],[-71.510836,-33.574775],[-71.511173,-33.57453],[-71.515378,-33.577259],[-71.514757,-33.581517],[-71.519212,-33.584407],[-71.518591,-33.588664],[-71.523046,-33.591554],[-71.528124,-33.590186],[-71.53258,-33.593075],[-71.531958,-33.597332],[-71.536415,-33.600221],[-71.535793,-33.604478],[-71.530716,-33.605846],[-71.530094,-33.610103],[-71.534551,-33.612991],[-71.53393,-33.617247],[-71.538386,-33.620136],[-71.543465,-33.618768],[-71.547922,-33.621656],[-71.553,-33.620288],[-71.557458,-33.623175],[-71.556837,-33.627431],[-71.551758,-33.628799],[-71.547301,-33.625912],[-71.542222,-33.627279],[-71.541601,-33.631534],[-71.536522,-33.632902],[-71.532066,-33.630014],[-71.532687,-33.625758],[-71.52823,-33.62287],[-71.523152,-33.624237],[-71.522531,-33.628492],[-71.517453,-33.629859],[-71.512997,-33.62697],[-71.507919,-33.628336],[-71.507298,-33.632591],[-71.50222,-33.633956],[-71.501598,-33.63821],[-71.496521,-33.639575],[-71.495899,-33.643829],[-71.500355,-33.646718],[-71.499733,-33.650971],[-71.504189,-33.653859],[-71.509267,-33.652494],[-71.513723,-33.655382],[-71.518802,-33.654017],[-71.523258,-33.656904],[-71.522637,-33.661157],[-71.527094,-33.664044],[-71.532173,-33.662679],[-71.532794,-33.658426],[-71.537873,-33.65706],[-71.542331,-33.659947],[-71.54741,-33.65858],[-71.548031,-33.654327],[-71.543573,-33.65144],[-71.538494,-33.652806],[-71.534037,-33.649919],[-71.528958,-33.651285],[-71.524501,-33.648397],[-71.525123,-33.644144],[-71.530201,-33.642777],[-71.534658,-33.645665],[-71.539737,-33.644298],[-71.544195,-33.647186],[-71.549274,-33.645819],[-71.553732,-33.648706],[-71.55311,-33.65296],[-71.557569,-33.655847],[-71.556947,-33.6601],[-71.561406,-33.662987],[-71.566486,-33.66162],[-71.570945,-33.664506],[-71.576025,-33.663138],[-71.576646,-33.658885],[-71.581726,-33.657516],[-71.582347,-33.653262],[-71.577887,-33.650376],[-71.578508,-33.646121],[-71.574049,-33.643235],[-71.57467,-33.63898],[-71.57975,-33.637611],[-71.584209,-33.640497],[-71.583588,-33.644753],[-71.587878,-33.647529],[-71.587521,-33.647886],[-71.586955,-33.6482],[-71.586453,-33.648577],[-71.585856,-33.648891],[-71.585448,-33.649174],[-71.585102,-33.64952],[-71.584694,-33.649991],[-71.58438,-33.650462],[-71.584003,-33.650901],[-71.583689,-33.651435],[-71.583595,-33.651875],[-71.583438,-33.652566],[-71.583368,-33.652987],[-71.583344,-33.653131],[-71.583438,-33.653885],[-71.583626,-33.654513],[-71.58416,-33.655141],[-71.584788,-33.655707],[-71.585197,-33.656618],[-71.585636,-33.657623],[-71.586359,-33.658596],[-71.586798,-33.659256],[-71.586798,-33.659758],[-71.586296,-33.660373],[-71.586185,-33.660402],[-71.586174,-33.66048],[-71.585511,-33.660826],[-71.58482,-33.661203],[-71.584474,-33.661768],[-71.584317,-33.662679],[-71.5846,-33.663339],[-71.585165,-33.664061],[-71.585342,-33.664716],[-71.585385,-33.664878],[-71.585291,-33.665789],[-71.584945,-33.666856],[-71.584506,-33.667327],[-71.583752,-33.667736],[-71.583092,-33.667987],[-71.582244,-33.668333],[-71.581114,-33.668804],[-71.580391,-33.669149],[-71.579994,-33.669384],[-71.5797,-33.669557],[-71.579104,-33.669871],[-71.578287,-33.670374],[-71.577874,-33.670813],[-71.574783,-33.671645],[-71.570324,-33.668759],[-71.565244,-33.670126],[-71.564623,-33.674379],[-71.559543,-33.675746],[-71.558922,-33.679998],[-71.563381,-33.682884],[-71.568461,-33.681517],[-71.569082,-33.677265],[-71.574162,-33.675898],[-71.577245,-33.677893],[-71.577125,-33.678163],[-71.576811,-33.67854],[-71.57634,-33.679294],[-71.576026,-33.679859],[-71.575616,-33.680477],[-71.575114,-33.681279],[-71.574613,-33.682132],[-71.574312,-33.682985],[-71.57391,-33.683587],[-71.57348,-33.684252],[-71.57292,-33.684403],[-71.572839,-33.684959],[-71.572656,-33.685142],[-71.571803,-33.685894],[-71.571502,-33.686848],[-71.571201,-33.68755],[-71.5707,-33.688353],[-71.570198,-33.688854],[-71.569245,-33.689306],[-71.568398,-33.689704],[-71.568392,-33.689707],[-71.567941,-33.690058],[-71.56769,-33.69061],[-71.567339,-33.691513],[-71.567188,-33.692366],[-71.567188,-33.693068],[-71.567539,-33.69352],[-71.567991,-33.694373],[-71.567991,-33.695174],[-71.566598,-33.694273],[-71.561517,-33.695639],[-71.557058,-33.692753],[-71.557679,-33.688502],[-71.55322,-33.685616],[-71.54814,-33.686982],[-71.543682,-33.684096],[-71.538603,-33.685461],[-71.537981,-33.689712],[-71.542439,-33.692598],[-71.547519,-33.691233],[-71.551978,-33.694119],[-71.551357,-33.69837],[-71.546276,-33.699735],[-71.541818,-33.696849],[-71.536738,-33.698214],[-71.536117,-33.702464],[-71.540575,-33.70535],[-71.545655,-33.703986],[-71.550114,-33.706871],[-71.555194,-33.705506],[-71.557707,-33.707132],[-71.557657,-33.707165],[-71.556954,-33.707967],[-71.556603,-33.70867],[-71.556503,-33.709222],[-71.556302,-33.709974],[-71.556603,-33.710777],[-71.557005,-33.711579],[-71.557255,-33.712232],[-71.557356,-33.713034],[-71.557336,-33.713097],[-71.557155,-33.713686],[-71.557005,-33.714339],[-71.556754,-33.715242],[-71.556453,-33.715944],[-71.556001,-33.716696],[-71.55565,-33.717549],[-71.555299,-33.718452],[-71.555349,-33.719255],[-71.555397,-33.719593],[-71.5555,-33.720308],[-71.5557,-33.721362],[-71.555851,-33.722315],[-71.556252,-33.723218],[-71.556904,-33.724071],[-71.557258,-33.724778],[-71.557169,-33.72539],[-71.557867,-33.725842],[-71.558158,-33.726328],[-71.558911,-33.72703],[-71.559563,-33.727733],[-71.560215,-33.728636],[-71.560867,-33.729589],[-71.561018,-33.730793],[-71.561099,-33.731893],[-71.561007,-33.732524],[-71.561152,-33.732617],[-71.561218,-33.733552],[-71.561118,-33.734656],[-71.560817,-33.73591],[-71.560616,-33.737013],[-71.560366,-33.738318],[-71.559764,-33.739371],[-71.559362,-33.739873],[-71.558674,-33.740315],[-71.55866,-33.740324],[-71.557958,-33.740676],[-71.556954,-33.740525],[-71.55575,-33.740375],[-71.554546,-33.740475],[-71.553794,-33.740776],[-71.553292,-33.741127],[-71.55259,-33.741629],[-71.552088,-33.74213],[-71.551787,-33.742732],[-71.551336,-33.743385],[-71.550583,-33.744087],[-71.55032,-33.744212],[-71.549602,-33.743748],[-71.544521,-33.745111],[-71.544458,-33.745542],[-71.544212,-33.745542],[-71.543209,-33.745542],[-71.542306,-33.745542],[-71.541453,-33.745241],[-71.54045,-33.74494],[-71.539798,-33.74509],[-71.539196,-33.745441],[-71.538794,-33.745692],[-71.538543,-33.746194],[-71.538443,-33.746796],[-71.538493,-33.747297],[-71.538694,-33.747749],[-71.538694,-33.748301],[-71.538744,-33.749053],[-71.538744,-33.749705],[-71.538765,-33.75],[-71.538794,-33.750408],[-71.538794,-33.750706],[-71.53436,-33.747837],[-71.529279,-33.7492],[-71.528657,-33.753446],[-71.533116,-33.756331],[-71.538197,-33.754969],[-71.538267,-33.754491],[-71.538293,-33.754822],[-71.538355,-33.755071],[-71.538543,-33.755826],[-71.538744,-33.756929],[-71.539045,-33.757933],[-71.538694,-33.758735],[-71.538242,-33.759488],[-71.537941,-33.76024],[-71.53749,-33.761143],[-71.537039,-33.761846],[-71.536537,-33.762548],[-71.536162,-33.762949],[-71.535835,-33.7633],[-71.534917,-33.763901],[-71.534136,-33.764416],[-71.533185,-33.765309],[-71.531724,-33.766681],[-71.530668,-33.767907],[-71.530287,-33.768446],[-71.526792,-33.766185],[-71.521711,-33.767547],[-71.521089,-33.771792],[-71.525548,-33.774676],[-71.527043,-33.774276],[-71.526459,-33.77482],[-71.525433,-33.775693],[-71.525395,-33.775725],[-71.524719,-33.7763],[-71.523669,-33.77701],[-71.522603,-33.777379],[-71.521574,-33.777461],[-71.520735,-33.777325],[-71.519896,-33.77673],[-71.519057,-33.776378],[-71.518245,-33.776053],[-71.517542,-33.775945],[-71.516784,-33.775891],[-71.515619,-33.775813],[-71.515566,-33.77581],[-71.513718,-33.775262],[-71.512819,-33.77489],[-71.511081,-33.773863],[-71.508707,-33.772596],[-71.506398,-33.772115],[-71.50647,-33.771629],[-71.502011,-33.768744],[-71.496931,-33.770105],[-71.496895,-33.770349],[-71.49634,-33.770356],[-71.495579,-33.770241],[-71.494835,-33.770047],[-71.494158,-33.769722],[-71.492994,-33.769397],[-71.491809,-33.769181],[-71.489259,-33.769668],[-71.487479,-33.769811],[-71.487197,-33.769923],[-71.486472,-33.770209],[-71.485739,-33.770781],[-71.485795,-33.771779],[-71.485562,-33.773148],[-71.481692,-33.774183],[-71.481202,-33.777525],[-71.480791,-33.778199],[-71.480415,-33.778603],[-71.47599,-33.779786]],[[-71.469566,-33.757037],[-71.474023,-33.759923],[-71.479102,-33.758563],[-71.483559,-33.761449],[-71.488638,-33.760089],[-71.489261,-33.755843],[-71.484803,-33.752958],[-71.479724,-33.754318],[-71.475267,-33.751432],[-71.470188,-33.752791],[-71.469566,-33.757037]],[[-71.441586,-33.748208],[-71.437131,-33.745321],[-71.432053,-33.746679],[-71.43143,-33.750924],[-71.435885,-33.753811],[-71.440963,-33.752453],[-71.441586,-33.748208]],[[-71.442831,-33.739717],[-71.447287,-33.742604],[-71.452365,-33.741245],[-71.452987,-33.736999],[-71.448532,-33.734112],[-71.443454,-33.735471],[-71.442831,-33.739717]],[[-71.456198,-33.748378],[-71.451119,-33.749736],[-71.450497,-33.753982],[-71.454952,-33.756868],[-71.460031,-33.75551],[-71.460654,-33.751264],[-71.456198,-33.748378]],[[-71.477135,-33.738693],[-71.481591,-33.741579],[-71.48667,-33.740219],[-71.491127,-33.743105],[-71.496207,-33.741744],[-71.500664,-33.744629],[-71.500042,-33.748876],[-71.5045,-33.751761],[-71.50958,-33.7504],[-71.510202,-33.746153],[-71.505744,-33.743268],[-71.506366,-33.739021],[-71.501908,-33.736135],[-71.50253,-33.731888],[-71.50761,-33.730526],[-71.508232,-33.726278],[-71.503774,-33.723392],[-71.498695,-33.724754],[-71.498073,-33.729002],[-71.492994,-33.730363],[-71.492372,-33.734611],[-71.487292,-33.735972],[-71.482836,-33.733085],[-71.477757,-33.734446],[-71.477135,-33.738693]],[[-71.451023,-33.717123],[-71.4504,-33.721371],[-71.454855,-33.724258],[-71.459933,-33.722898],[-71.460556,-33.718651],[-71.4561,-33.715763],[-71.451023,-33.717123]],[[-71.519118,-33.751924],[-71.514038,-33.753285],[-71.513416,-33.757531],[-71.517874,-33.760416],[-71.522955,-33.759055],[-71.523577,-33.754808],[-71.519118,-33.751924]],[[-71.541926,-33.729482],[-71.546386,-33.732367],[-71.551466,-33.731003],[-71.552088,-33.726755],[-71.547628,-33.72387],[-71.542548,-33.725234],[-71.541926,-33.729482]],[[-71.457773,-33.637728],[-71.462227,-33.640618],[-71.467304,-33.639254],[-71.467926,-33.635001],[-71.473002,-33.633637],[-71.477457,-33.636527],[-71.476835,-33.64078],[-71.48129,-33.643669],[-71.480667,-33.647922],[-71.485123,-33.650811],[-71.4902,-33.649447],[-71.490822,-33.645194],[-71.486367,-33.642305],[-71.486989,-33.638051],[-71.492066,-33.636687],[-71.492688,-33.632433],[-71.497765,-33.631067],[-71.498387,-33.626813],[-71.493931,-33.623924],[-71.488854,-33.625289],[-71.488232,-33.629544],[-71.483156,-33.630908],[-71.478701,-33.628019],[-71.479323,-33.623765],[-71.474869,-33.620875],[-71.469792,-33.622239],[-71.465338,-33.619349],[-71.460262,-33.620714],[-71.455809,-33.617823],[-71.456431,-33.613569],[-71.451978,-33.610678],[-71.446903,-33.612042],[-71.44628,-33.616297],[-71.441205,-33.61766],[-71.440582,-33.621914],[-71.445035,-33.624804],[-71.450111,-33.623441],[-71.454564,-33.626331],[-71.45964,-33.624968],[-71.464094,-33.627858],[-71.463472,-33.632111],[-71.458396,-33.633475],[-71.457773,-33.637728]],[[-71.536009,-33.669819],[-71.53093,-33.671184],[-71.530308,-33.675436],[-71.525229,-33.676801],[-71.524608,-33.681053],[-71.529065,-33.683939],[-71.534145,-33.682575],[-71.534766,-33.678323],[-71.539845,-33.676957],[-71.544303,-33.679844],[-71.549383,-33.678478],[-71.550004,-33.674226],[-71.545546,-33.671339],[-71.540467,-33.672705],[-71.536009,-33.669819]],[[-71.492892,-33.697736],[-71.49227,-33.701985],[-71.496726,-33.704872],[-71.501805,-33.70351],[-71.502427,-33.69926],[-71.49797,-33.696373],[-71.492892,-33.697736]],[[-71.484702,-33.720342],[-71.489159,-33.723229],[-71.494238,-33.721867],[-71.49486,-33.717619],[-71.490403,-33.714732],[-71.485325,-33.716094],[-71.484702,-33.720342]],[[-71.553952,-33.714006],[-71.549493,-33.711121],[-71.544412,-33.712486],[-71.543791,-33.716735],[-71.54825,-33.719621],[-71.55333,-33.718256],[-71.553952,-33.714006]]]},"properties":{"comuna":"San Antonio","mancha_id":"05601-88b2c01009fffff","clase":"Medio","nivel_medio":2.11,"nivel_medio_min":1.508,"nivel_medio_max":2.498,"pct_alto":27.2,"n_hexagonos":407,"area_ha":23861.89}},{"type":"Feature","geometry":{"type":"Polygon","coordinates":[[[-71.620154,-33.561249],[-71.625233,-33.559876],[-71.625685,-33.560168],[-71.6257,-33.56043],[-71.62566,-33.56065],[-71.62511,-33.56111],[-71.6249,-33.56146],[-71.62497,-33.56173],[-71.62499,-33.56208],[-71.62504,-33.56222],[-71.6251,-33.56227],[-71.62553,-33.5622],[-71.62571,-33.56226],[-71.62562,-33.56256],[-71.62559,-33.56286],[-71.62574,-33.5631],[-71.62574,-33.56325],[-71.62547,-33.56338],[-71.62539,-33.56347],[-71.62532,-33.56349],[-71.625325,-33.56413],[-71.62502,-33.56433],[-71.62459,-33.56446],[-71.62448,-33.56446],[-71.62429,-33.5644],[-71.62382,-33.56441],[-71.62344,-33.56451],[-71.62323,-33.56466],[-71.62304,-33.56468],[-71.62295,-33.56508],[-71.62305,-33.56523],[-71.62332,-33.56552],[-71.62333,-33.56581],[-71.62324,-33.56623],[-71.62328,-33.56648],[-71.62357,-33.5667],[-71.62355,-33.56714],[-71.62371,-33.56729],[-71.62407,-33.56753],[-71.62428,-33.56811],[-71.624553,-33.568247],[-71.623993,-33.568398],[-71.619534,-33.565511],[-71.620154,-33.561249]]]},"properties":{"comuna":"San Antonio","mancha_id":"05601-88b2c0d469fffff","clase":"Alto","nivel_medio":2.619,"nivel_medio_min":2.619,"nivel_medio_max":2.619,"pct_alto":71.0,"n_hexagonos":1,"area_ha":31.24}},{"type":"Feature","geometry":{"type":"Polygon","coordinates":[[[-71.594759,-33.568114],[-71.595379,-33.563853],[-71.600458,-33.562481],[-71.604916,-33.565369],[-71.604296,-33.569629],[-71.599217,-33.571002],[-71.594759,-33.568114]]]},"properties":{"comuna":"San Antonio","mancha_id":"05601-88b2c0d443fffff","clase":"Alto","nivel_medio":2.664,"nivel_medio_min":2.664,"nivel_medio_max":2.664,"pct_alto":67.0,"n_hexagonos":1,"area_ha":64.22}},{"type":"Feature","geometry":{"type":"Polygon","coordinates":[[[-71.541926,-33.729482],[-71.542548,-33.725234],[-71.547628,-33.72387],[-71.552088,-33.726755],[-71.551466,-33.731003],[-71.546386,-33.732367],[-71.541926,-33.729482]]]},"properties":{"comuna":"San Antonio","mancha_id":"05601-88b2c0c6bbfffff","clase":"Alto","nivel_medio":2.526,"nivel_medio_min":2.526,"nivel_medio_max":2.526,"pct_alto":71.9,"n_hexagonos":1,"area_ha":63.96}},{"type":"Feature","geometry":{"type":"Polygon","coordinates":[[[-71.555816,-33.701256],[-71.560896,-33.69989],[-71.561517,-33.695639],[-71.566598,-33.694273],[-71.567991,-33.695174],[-71.567991,-33.695175],[-71.56784,-33.696229],[-71.56784,-33.697633],[-71.568091,-33.698436],[-71.568192,-33.698887],[-71.568091,-33.699489],[-71.567238,-33.699991],[-71.566436,-33.700443],[-71.565884,-33.700994],[-71.565784,-33.701346],[-71.565332,-33.702098],[-71.564967,-33.702524],[-71.56473,-33.7028],[-71.564529,-33.703352],[-71.564279,-33.704055],[-71.563927,-33.704757],[-71.563376,-33.70576],[-71.562874,-33.706312],[-71.562021,-33.706663],[-71.561118,-33.706663],[-71.560215,-33.706663],[-71.559362,-33.706613],[-71.558409,-33.706663],[-71.557707,-33.707132],[-71.555194,-33.705506],[-71.555816,-33.701256]]]},"properties":{"comuna":"San Antonio","mancha_id":"05601-88b2c0c68dfffff","clase":"Alto","nivel_medio":2.564,"nivel_medio_min":2.501,"nivel_medio_max":2.641,"pct_alto":75.9,"n_hexagonos":2,"area_ha":93.85}},{"type":"Feature","geometry":{"type":"Polygon","coordinates":[[[-71.543791,-33.716735],[-71.544412,-33.712486],[-71.549493,-33.711121],[-71.553952,-33.714006],[-71.55333,-33.718256],[-71.54825,-33.719621],[-71.543791,-33.716735]]]},"properties":{"comuna":"San Antonio","mancha_id":"05601-88b2c0c683fffff","clase":"Alto","nivel_medio":2.813,"nivel_medio_min":2.813,"nivel_medio_max":2.813,"pct_alto":84.4,"n_hexagonos":1,"area_ha":63.98}},{"type":"Feature","geometry":{"type":"Polygon","coordinates":[[[-71.572187,-33.655998],[-71.572808,-33.651744],[-71.577887,-33.650376],[-71.582347,-33.653262],[-71.581726,-33.657516],[-71.576646,-33.658885],[-71.572187,-33.655998]]]},"properties":{"comuna":"San Antonio","mancha_id":"05601-88b2c0c65dfffff","clase":"Alto","nivel_medio":3.066,"nivel_medio_min":3.066,"nivel_medio_max":3.066,"pct_alto":87.9,"n_hexagonos":1,"area_ha":64.08}},{"type":"Feature","geometry":{"type":"Polygon","coordinates":[[[-71.564623,-33.674379],[-71.565244,-33.670126],[-71.570324,-33.668759],[-71.574783,-33.671645],[-71.577874,-33.670813],[-71.577784,-33.670908],[-71.577219,-33.67163],[-71.576685,-33.672227],[-71.575931,-33.672981],[-71.57546,-33.673609],[-71.575083,-33.674017],[-71.574769,-33.674426],[-71.574989,-33.67474],[-71.575492,-33.674991],[-71.576183,-33.675556],[-71.576811,-33.675902],[-71.577125,-33.676216],[-71.577313,-33.676498],[-71.577376,-33.677064],[-71.577376,-33.677598],[-71.577245,-33.677893],[-71.574162,-33.675898],[-71.569082,-33.677265],[-71.568461,-33.681517],[-71.563381,-33.682884],[-71.558922,-33.679998],[-71.559543,-33.675746],[-71.564623,-33.674379]]]},"properties":{"comuna":"San Antonio","mancha_id":"05601-88b2c0c619fffff","clase":"Alto","nivel_medio":2.847,"nivel_medio_min":2.688,"nivel_medio_max":2.932,"pct_alto":86.0,"n_hexagonos":3,"area_ha":138.39}},{"type":"Feature","geometry":{"type":"Polygon","coordinates":[[[-71.586174,-33.66048],[-71.586185,-33.660402],[-71.586296,-33.660373],[-71.586233,-33.660449],[-71.586174,-33.66048]]]},"properties":{"comuna":"San Antonio","mancha_id":"05601-88b2c0c609fffff","clase":"Alto","nivel_medio":3.0,"nivel_medio_min":3.0,"nivel_medio_max":3.0,"pct_alto":100.0,"n_hexagonos":1,"area_ha":0.01}},{"type":"Feature","geometry":{"type":"Polygon","coordinates":[[[-71.500149,-33.581362],[-71.495694,-33.578472],[-71.495996,-33.576409],[-71.499858,-33.57642],[-71.505745,-33.576419],[-71.505747,-33.576419],[-71.505225,-33.579995],[-71.500149,-33.581362]]]},"properties":{"comuna":"San Antonio","mancha_id":"05601-88b2c099a7fffff","clase":"Alto","nivel_medio":2.665,"nivel_medio_min":2.665,"nivel_medio_max":2.665,"pct_alto":76.9,"n_hexagonos":1,"area_ha":38.97}},{"type":"Feature","geometry":{"type":"Polygon","coordinates":[[[-71.36828,-33.76112],[-71.368187,-33.761045],[-71.370163,-33.762327],[-71.369646,-33.762201],[-71.36828,-33.76112]]]},"properties":{"comuna":"San Antonio","mancha_id":"05601-88b2c08de7fffff","clase":"Alto","nivel_medio":3.0,"nivel_medio_min":3.0,"nivel_medio_max":3.0,"pct_alto":100.0,"n_hexagonos":1,"area_ha":0.21}},{"type":"Feature","geometry":{"type":"Polygon","coordinates":[[[-71.400876,-33.726463],[-71.3958,-33.72782],[-71.393938,-33.726612],[-71.39455,-33.72614],[-71.394767,-33.725724],[-71.394917,-33.725341],[-71.395066,-33.725008],[-71.395064,-33.724592],[-71.395017,-33.724226],[-71.395098,-33.723737],[-71.395316,-33.722978],[-71.395606,-33.722206],[-71.395976,-33.721541],[-71.396374,-33.72092],[-71.396906,-33.720406],[-71.39734,-33.719789],[-71.397456,-33.719593],[-71.401499,-33.722217],[-71.400876,-33.726463]]]},"properties":{"comuna":"San Antonio","mancha_id":"05601-88b2c08d63fffff","clase":"Alto","nivel_medio":2.56,"nivel_medio_min":2.56,"nivel_medio_max":2.56,"pct_alto":55.2,"n_hexagonos":1,"area_ha":39.9}},{"type":"Feature","geometry":{"type":"Polygon","coordinates":[[[-71.396868,-33.654067],[-71.401319,-33.656958],[-71.406394,-33.655598],[-71.410688,-33.658386],[-71.410639,-33.658382],[-71.409461,-33.658998],[-71.408606,-33.659568],[-71.407918,-33.659971],[-71.407111,-33.660232],[-71.406344,-33.660435],[-71.405211,-33.661012],[-71.404229,-33.661798],[-71.403896,-33.662146],[-71.403396,-33.66238],[-71.402665,-33.662448],[-71.40262,-33.662458],[-71.401829,-33.662644],[-71.400894,-33.662959],[-71.400278,-33.663171],[-71.399801,-33.663294],[-71.399205,-33.662775],[-71.398907,-33.662282],[-71.398746,-33.661795],[-71.398729,-33.661736],[-71.398591,-33.661229],[-71.398567,-33.660517],[-71.398638,-33.660019],[-71.398662,-33.659544],[-71.398709,-33.659188],[-71.398603,-33.658844],[-71.398224,-33.658245],[-71.397958,-33.657856],[-71.397097,-33.657312],[-71.396429,-33.657127],[-71.395839,-33.656936],[-71.395505,-33.656299],[-71.39553,-33.655419],[-71.395712,-33.655054],[-71.396123,-33.65427],[-71.396123,-33.654267],[-71.396868,-33.654067]]]},"properties":{"comuna":"San Antonio","mancha_id":"05601-88b2c08ab1fffff","clase":"Alto","nivel_medio":2.54,"nivel_medio_min":2.502,"nivel_medio_max":2.805,"pct_alto":54.0,"n_hexagonos":3,"area_ha":68.24}},{"type":"Feature","geometry":{"type":"Polygon","coordinates":[[[-71.412001,-33.617328],[-71.412624,-33.613074],[-71.417698,-33.611712],[-71.42215,-33.614604],[-71.427225,-33.613241],[-71.431677,-33.616132],[-71.431054,-33.620386],[-71.435507,-33.623277],[-71.434884,-33.62753],[-71.429809,-33.628893],[-71.425357,-33.626002],[-71.425979,-33.621749],[-71.421527,-33.618857],[-71.416453,-33.62022],[-71.412001,-33.617328]]]},"properties":{"comuna":"San Antonio","mancha_id":"05601-88b2c08a17fffff","clase":"Alto","nivel_medio":2.563,"nivel_medio_min":2.531,"nivel_medio_max":2.601,"pct_alto":65.2,"n_hexagonos":3,"area_ha":192.1}},{"type":"Feature","geometry":{"type":"Polygon","coordinates":[[[-71.484702,-33.720342],[-71.485325,-33.716094],[-71.490403,-33.714732],[-71.49486,-33.717619],[-71.494238,-33.721867],[-71.489159,-33.723229],[-71.484702,-33.720342]]]},"properties":{"comuna":"San Antonio","mancha_id":"05601-88b2c089b1fffff","clase":"Alto","nivel_medio":2.568,"nivel_medio_min":2.568,"nivel_medio_max":2.568,"pct_alto":56.8,"n_hexagonos":1,"area_ha":63.93}},{"type":"Feature","geometry":{"type":"Polygon","coordinates":[[[-71.49227,-33.701985],[-71.492892,-33.697736],[-71.49797,-33.696373],[-71.502427,-33.69926],[-71.501805,-33.70351],[-71.496726,-33.704872],[-71.49227,-33.701985]]]},"properties":{"comuna":"San Antonio","mancha_id":"05601-88b2c08985fffff","clase":"Alto","nivel_medio":2.541,"nivel_medio_min":2.541,"nivel_medio_max":2.541,"pct_alto":54.1,"n_hexagonos":1,"area_ha":63.96}},{"type":"Feature","geometry":{"type":"Polygon","coordinates":[[[-71.522637,-33.661157],[-71.523258,-33.656904],[-71.518802,-33.654017],[-71.513723,-33.655382],[-71.509267,-33.652494],[-71.504189,-33.653859],[-71.499733,-33.650971],[-71.500355,-33.646718],[-71.495899,-33.643829],[-71.496521,-33.639575],[-71.501598,-33.63821],[-71.50222,-33.633956],[-71.507298,-33.632591],[-71.507919,-33.628336],[-71.512997,-33.62697],[-71.517453,-33.629859],[-71.522531,-33.628492],[-71.523152,-33.624237],[-71.52823,-33.62287],[-71.532687,-33.625758],[-71.532066,-33.630014],[-71.536522,-33.632902],[-71.541601,-33.631534],[-71.542222,-33.627279],[-71.547301,-33.625912],[-71.551758,-33.628799],[-71.556837,-33.627431],[-71.557458,-33.623175],[-71.553,-33.620288],[-71.547922,-33.621656],[-71.543465,-33.618768],[-71.538386,-33.620136],[-71.53393,-33.617247],[-71.534551,-33.612991],[-71.530094,-33.610103],[-71.530716,-33.605846],[-71.535793,-33.604478],[-71.536415,-33.600221],[-71.531958,-33.597332],[-71.53258,-33.593075],[-71.528124,-33.590186],[-71.523046,-33.591554],[-71.518591,-33.588664],[-71.519212,-33.584407],[-71.514757,-33.581517],[-71.515378,-33.577259],[-71.511173,-33.57453],[-71.511766,-33.5741],[-71.512429,-33.573643],[-71.513109,-33.573159],[-71.513566,-33.572898],[-71.515029,-33.572208],[-71.516698,-33.571408],[-71.516926,-33.571304],[-71.517199,-33.57118],[-71.517557,-33.571001],[-71.518123,-33.570788],[-71.519189,-33.57051],[-71.519308,-33.570484],[-71.521076,-33.571632],[-71.526153,-33.570263],[-71.530609,-33.573153],[-71.529987,-33.577411],[-71.534443,-33.580301],[-71.539521,-33.578932],[-71.540142,-33.574673],[-71.545219,-33.573304],[-71.54584,-33.569044],[-71.550918,-33.567674],[-71.555374,-33.570564],[-71.560452,-33.569193],[-71.564909,-33.572082],[-71.569987,-33.570711],[-71.570608,-33.566452],[-71.575686,-33.56508],[-71.576307,-33.56082],[-71.57333,-33.55889],[-71.573669,-33.558962],[-71.574769,-33.55937],[-71.574897,-33.559439],[-71.576912,-33.560331],[-71.577338,-33.560541],[-71.577448,-33.560596],[-71.577578,-33.56066],[-71.578269,-33.561001],[-71.579251,-33.561376],[-71.580202,-33.561641],[-71.581106,-33.561641],[-71.581228,-33.561597],[-71.581234,-33.561595],[-71.581714,-33.561422],[-71.582518,-33.561166],[-71.58389,-33.561294],[-71.584032,-33.561307],[-71.58429,-33.561331],[-71.585842,-33.562337],[-71.585222,-33.566597],[-71.58968,-33.569486],[-71.589059,-33.573746],[-71.593518,-33.576634],[-71.592897,-33.580894],[-71.597356,-33.583781],[-71.596736,-33.588041],[-71.591656,-33.589412],[-71.587198,-33.586524],[-71.582119,-33.587895],[-71.577661,-33.585007],[-71.572582,-33.586378],[-71.571962,-33.590636],[-71.57642,-33.593524],[-71.581498,-33.592154],[-71.585957,-33.595042],[-71.585336,-33.5993],[-71.589795,-33.602187],[-71.589174,-33.606445],[-71.584095,-33.607815],[-71.583474,-33.612073],[-71.587933,-33.61496],[-71.587312,-33.619217],[-71.582233,-33.620587],[-71.581612,-33.624843],[-71.586071,-33.62773],[-71.591151,-33.62636],[-71.591771,-33.622104],[-71.596851,-33.620734],[-71.601311,-33.62362],[-71.606391,-33.62225],[-71.609467,-33.62424],[-71.608626,-33.624645],[-71.608187,-33.625022],[-71.607778,-33.625524],[-71.607747,-33.626215],[-71.60759,-33.626875],[-71.607213,-33.627629],[-71.606836,-33.628068],[-71.606396,-33.628602],[-71.606082,-33.629513],[-71.605391,-33.630235],[-71.604976,-33.630651],[-71.60069,-33.627877],[-71.59561,-33.629247],[-71.59499,-33.633503],[-71.596206,-33.63429],[-71.595906,-33.63457],[-71.595435,-33.635009],[-71.595373,-33.635512],[-71.595373,-33.635983],[-71.595435,-33.63636],[-71.595498,-33.636925],[-71.595373,-33.637365],[-71.595058,-33.638056],[-71.594996,-33.638841],[-71.594901,-33.639281],[-71.594556,-33.639689],[-71.594022,-33.639815],[-71.593645,-33.639972],[-71.593143,-33.640349],[-71.592703,-33.640757],[-71.592394,-33.641138],[-71.592295,-33.641259],[-71.591384,-33.641416],[-71.590316,-33.641793],[-71.589813,-33.642107],[-71.589405,-33.642547],[-71.588934,-33.643018],[-71.588651,-33.643615],[-71.588526,-33.644243],[-71.588777,-33.644903],[-71.58884,-33.645594],[-71.588808,-33.646033],[-71.588651,-33.64641],[-71.588306,-33.646913],[-71.588055,-33.647352],[-71.587878,-33.647529],[-71.583588,-33.644753],[-71.584209,-33.640497],[-71.57975,-33.637611],[-71.57467,-33.63898],[-71.574049,-33.643235],[-71.56897,-33.644603],[-71.568349,-33.648858],[-71.563269,-33.650225],[-71.562648,-33.654479],[-71.567107,-33.657366],[-71.566486,-33.66162],[-71.561406,-33.662987],[-71.556947,-33.6601],[-71.557569,-33.655847],[-71.55311,-33.65296],[-71.553732,-33.648706],[-71.549274,-33.645819],[-71.544195,-33.647186],[-71.539737,-33.644298],[-71.534658,-33.645665],[-71.530201,-33.642777],[-71.525123,-33.644144],[-71.524501,-33.648397],[-71.528958,-33.651285],[-71.534037,-33.649919],[-71.538494,-33.652806],[-71.543573,-33.65144],[-71.548031,-33.654327],[-71.54741,-33.65858],[-71.542331,-33.659947],[-71.537873,-33.65706],[-71.532794,-33.658426],[-71.532173,-33.662679],[-71.527094,-33.664044],[-71.522637,-33.661157]],[[-71.560563,-33.601892],[-71.561184,-33.597634],[-71.566262,-33.596264],[-71.566883,-33.592006],[-71.562426,-33.589118],[-71.557348,-33.590488],[-71.55289,-33.587599],[-71.547813,-33.588968],[-71.547191,-33.593226],[-71.551648,-33.596115],[-71.551027,-33.600373],[-71.545949,-33.601741],[-71.545328,-33.605998],[-71.549785,-33.608887],[-71.554864,-33.607518],[-71.555485,-33.603261],[-71.560563,-33.601892]]]},"properties":{"comuna":"San Antonio","mancha_id":"05601-88b2c08901fffff","clase":"Alto","nivel_medio":2.867,"nivel_medio_min":2.51,"nivel_medio_max":3.496,"pct_alto":76.6,"n_hexagonos":87,"area_ha":5413.41}},{"type":"Feature","geometry":{"type":"Polygon","coordinates":[[[-71.426166,-33.687048],[-71.425543,-33.691297],[-71.429997,-33.694186],[-71.435073,-33.692826],[-71.439527,-33.695714],[-71.438904,-33.699963],[-71.433828,-33.701323],[-71.429374,-33.698434],[-71.424297,-33.699794],[-71.423842,-33.699498],[-71.423785,-33.699197],[-71.423831,-33.697937],[-71.423713,-33.696853],[-71.423459,-33.695915],[-71.423085,-33.694255],[-71.42291,-33.693292],[-71.422892,-33.692328],[-71.422808,-33.692029],[-71.422561,-33.691153],[-71.42241,-33.690302],[-71.421838,-33.689269],[-71.421249,-33.688923],[-71.420476,-33.688676],[-71.420217,-33.68854],[-71.419912,-33.688253],[-71.419981,-33.687848],[-71.420084,-33.687379],[-71.420458,-33.686718],[-71.420951,-33.686299],[-71.421522,-33.685954],[-71.422023,-33.685776],[-71.422728,-33.685723],[-71.423392,-33.685723],[-71.424225,-33.685788],[-71.426166,-33.687048]]]},"properties":{"comuna":"San Antonio","mancha_id":"05601-88b2c08881fffff","clase":"Alto","nivel_medio":2.661,"nivel_medio_min":2.588,"nivel_medio_max":2.763,"pct_alto":65.9,"n_hexagonos":3,"area_ha":135.07}},{"type":"Feature","geometry":{"type":"Polygon","coordinates":[[[-71.454564,-33.626331],[-71.450111,-33.623441],[-71.445035,-33.624804],[-71.440582,-33.621914],[-71.441205,-33.61766],[-71.44628,-33.616297],[-71.446903,-33.612042],[-71.451978,-33.610678],[-71.456431,-33.613569],[-71.455809,-33.617823],[-71.460262,-33.620714],[-71.465338,-33.619349],[-71.469792,-33.622239],[-71.46917,-33.626494],[-71.464094,-33.627858],[-71.45964,-33.624968],[-71.454564,-33.626331]]]},"properties":{"comuna":"San Antonio","mancha_id":"05601-88b2c08849fffff","clase":"Alto","nivel_medio":2.688,"nivel_medio_min":2.502,"nivel_medio_max":2.925,"pct_alto":78.7,"n_hexagonos":4,"area_ha":256.21}},{"type":"Feature","geometry":{"type":"Polygon","coordinates":[[[-71.461703,-33.677521],[-71.462325,-33.67327],[-71.467402,-33.671908],[-71.471857,-33.674796],[-71.471235,-33.679047],[-71.466158,-33.680409],[-71.465535,-33.68466],[-71.460458,-33.686021],[-71.459835,-33.690271],[-71.46429,-33.693159],[-71.469368,-33.691798],[-71.473823,-33.694685],[-71.473201,-33.698935],[-71.468123,-33.700296],[-71.463668,-33.697408],[-71.458591,-33.69877],[-71.454136,-33.695882],[-71.454758,-33.691632],[-71.450304,-33.688744],[-71.450926,-33.684494],[-71.446472,-33.681605],[-71.441395,-33.682966],[-71.437305,-33.680313],[-71.437578,-33.679203],[-71.437419,-33.678769],[-71.43715,-33.678655],[-71.436968,-33.678579],[-71.43628,-33.678484],[-71.435686,-33.678341],[-71.435378,-33.677843],[-71.434832,-33.677582],[-71.434073,-33.676727],[-71.433883,-33.675778],[-71.433475,-33.675227],[-71.433185,-33.674527],[-71.433559,-33.673615],[-71.433636,-33.673279],[-71.437564,-33.675827],[-71.442641,-33.674466],[-71.443263,-33.670216],[-71.44834,-33.668854],[-71.452794,-33.671743],[-71.452171,-33.675994],[-71.456626,-33.678883],[-71.461703,-33.677521]]]},"properties":{"comuna":"San Antonio","mancha_id":"05601-88b2c08837fffff","clase":"Alto","nivel_medio":2.67,"nivel_medio_min":2.523,"nivel_medio_max":2.815,"pct_alto":68.7,"n_hexagonos":9,"area_ha":524.14}},{"type":"Feature","geometry":{"type":"Polygon","coordinates":[[[-71.46036,-33.653376],[-71.459738,-33.657627],[-71.464192,-33.660517],[-71.46357,-33.664768],[-71.458493,-33.66613],[-71.454039,-33.663241],[-71.448962,-33.664603],[-71.444508,-33.661714],[-71.439432,-33.663076],[-71.438809,-33.667327],[-71.433733,-33.668688],[-71.433407,-33.670917],[-71.433394,-33.6709],[-71.433052,-33.670557],[-71.432656,-33.670236],[-71.431775,-33.669444],[-71.431115,-33.668838],[-71.430797,-33.668539],[-71.430679,-33.66816],[-71.430584,-33.667376],[-71.430465,-33.666783],[-71.430484,-33.666579],[-71.430512,-33.666261],[-71.43041,-33.664806],[-71.43051,-33.664382],[-71.430494,-33.663912],[-71.430607,-33.66365],[-71.430084,-33.663251],[-71.429691,-33.662993],[-71.429517,-33.662879],[-71.429141,-33.662443],[-71.428661,-33.661918],[-71.42821,-33.661562],[-71.427525,-33.661075],[-71.426725,-33.660516],[-71.425842,-33.659761],[-71.42539,-33.659728],[-71.424824,-33.659744],[-71.424206,-33.659944],[-71.423487,-33.659908],[-71.422062,-33.659831],[-71.421245,-33.659785],[-71.42103,-33.659772],[-71.420305,-33.659487],[-71.419839,-33.65924],[-71.419449,-33.658929],[-71.419009,-33.658435],[-71.41853,-33.657962],[-71.417864,-33.657242],[-71.416951,-33.657395],[-71.416545,-33.657533],[-71.415922,-33.657128],[-71.416545,-33.652877],[-71.42162,-33.651516],[-71.426073,-33.654406],[-71.431148,-33.653045],[-71.435601,-33.655935],[-71.440677,-33.654573],[-71.4413,-33.650321],[-71.446376,-33.648959],[-71.45083,-33.651849],[-71.455906,-33.650486],[-71.46036,-33.653376]]]},"properties":{"comuna":"San Antonio","mancha_id":"05601-88b2c08803fffff","clase":"Alto","nivel_medio":2.623,"nivel_medio_min":2.516,"nivel_medio_max":2.84,"pct_alto":62.3,"n_hexagonos":10,"area_ha":520.15}},{"type":"Feature","geometry":{"type":"Polygon","coordinates":[[[-71.385919,-33.595721],[-71.381469,-33.592828],[-71.381509,-33.592555],[-71.38174,-33.592486],[-71.382223,-33.592385],[-71.382587,-33.592235],[-71.383653,-33.591492],[-71.386115,-33.589605],[-71.387931,-33.587784],[-71.388313,-33.588682],[-71.388244,-33.589306],[-71.387869,-33.590476],[-71.386745,-33.592355],[-71.386272,-33.593697],[-71.386253,-33.594304],[-71.386278,-33.594856],[-71.386746,-33.595424],[-71.386831,-33.595476],[-71.385919,-33.595721]]]},"properties":{"comuna":"San Antonio","mancha_id":"05601-88b2c08129fffff","clase":"Alto","nivel_medio":2.534,"nivel_medio_min":2.534,"nivel_medio_max":2.534,"pct_alto":53.4,"n_hexagonos":1,"area_ha":21.76}},{"type":"Feature","geometry":{"type":"Polygon","coordinates":[[[-71.338312,-33.588056],[-71.337688,-33.59231],[-71.342136,-33.595204],[-71.341513,-33.599458],[-71.345961,-33.602352],[-71.351033,-33.600992],[-71.355482,-33.603886],[-71.354859,-33.608139],[-71.359308,-33.611032],[-71.36438,-33.609672],[-71.36883,-33.612565],[-71.373903,-33.611204],[-71.374526,-33.606951],[-71.3796,-33.60559],[-71.38405,-33.608483],[-71.383426,-33.612736],[-71.387877,-33.615629],[-71.387254,-33.619882],[-71.391704,-33.622774],[-71.391081,-33.627026],[-71.386007,-33.628387],[-71.385384,-33.632639],[-71.389835,-33.635531],[-71.394909,-33.63417],[-71.395532,-33.629918],[-71.400606,-33.628557],[-71.405058,-33.631449],[-71.404435,-33.635701],[-71.39936,-33.637062],[-71.398737,-33.641314],[-71.395041,-33.642305],[-71.394834,-33.641752],[-71.394629,-33.641483],[-71.39372,-33.640934],[-71.392924,-33.640486],[-71.391931,-33.639873],[-71.391158,-33.639483],[-71.390143,-33.639202],[-71.389495,-33.639133],[-71.389309,-33.639116],[-71.388732,-33.639063],[-71.388107,-33.639225],[-71.38746,-33.63904],[-71.387136,-33.638716],[-71.386882,-33.638508],[-71.386732,-33.638314],[-71.386559,-33.638088],[-71.386211,-33.637768],[-71.385633,-33.637606],[-71.385133,-33.637496],[-71.38454,-33.637329],[-71.384137,-33.636997],[-71.384065,-33.636451],[-71.384374,-33.635787],[-71.384208,-33.63479],[-71.384018,-33.634315],[-71.383448,-33.633935],[-71.382784,-33.633603],[-71.3824,-33.633439],[-71.382119,-33.633318],[-71.381526,-33.633034],[-71.381336,-33.632678],[-71.381336,-33.632203],[-71.381747,-33.63157],[-71.382325,-33.630483],[-71.382953,-33.629336],[-71.383261,-33.628558],[-71.383572,-33.627638],[-71.383803,-33.626955],[-71.383814,-33.626922],[-71.384,-33.625614],[-71.38384,-33.624882],[-71.383602,-33.624205],[-71.38314,-33.623632],[-71.382581,-33.623178],[-71.382239,-33.622899],[-71.381958,-33.622757],[-71.381741,-33.622647],[-71.380929,-33.622295],[-71.38011,-33.62202],[-71.37958,-33.621912],[-71.378857,-33.621786],[-71.378092,-33.621724],[-71.376946,-33.62163],[-71.376152,-33.621565],[-71.375123,-33.621309],[-71.374279,-33.62131],[-71.373469,-33.62158],[-71.37243,-33.621877],[-71.372335,-33.621904],[-71.371415,-33.622168],[-71.370856,-33.622424],[-71.369958,-33.622604],[-71.369425,-33.62297],[-71.368599,-33.62314],[-71.367883,-33.622968],[-71.367249,-33.622746],[-71.366677,-33.622665],[-71.366258,-33.622825],[-71.365456,-33.622944],[-71.364947,-33.623004],[-71.364247,-33.623048],[-71.36377,-33.623118],[-71.363586,-33.623129],[-71.363373,-33.623143],[-71.362804,-33.623179],[-71.361806,-33.623241],[-71.36095,-33.623251],[-71.360275,-33.623309],[-71.359814,-33.623152],[-71.359767,-33.623136],[-71.35922,-33.622947],[-71.358546,-33.622793],[-71.357629,-33.62256],[-71.35734,-33.622089],[-71.356995,-33.62177],[-71.356495,-33.621614],[-71.356009,-33.621515],[-71.355545,-33.621256],[-71.355057,-33.621096],[-71.35468,-33.620833],[-71.354497,-33.620579],[-71.354393,-33.620215],[-71.354328,-33.619558],[-71.353801,-33.618992],[-71.353331,-33.618555],[-71.353248,-33.618478],[-71.352565,-33.618153],[-71.351881,-33.61796],[-71.35134,-33.617739],[-71.350729,-33.617842],[-71.350177,-33.617635],[-71.349781,-33.617486],[-71.349513,-33.617283],[-71.349136,-33.616997],[-71.348873,-33.616801],[-71.348337,-33.61613],[-71.347576,-33.615433],[-71.347171,-33.614987],[-71.346842,-33.614373],[-71.34645,-33.613642],[-71.34569,-33.612842],[-71.345089,-33.612457],[-71.34469,-33.612202],[-71.343863,-33.611837],[-71.343338,-33.611674],[-71.342495,-33.611441],[-71.341612,-33.611247],[-71.340656,-33.610989],[-71.339927,-33.610581],[-71.339886,-33.610548],[-71.339453,-33.610191],[-71.339086,-33.609936],[-71.338716,-33.609542],[-71.338388,-33.609095],[-71.338118,-33.60877],[-71.33768,-33.608242],[-71.337174,-33.607976],[-71.336508,-33.607563],[-71.33623,-33.607218],[-71.336035,-33.606771],[-71.33586,-33.606206],[-71.335802,-33.605447],[-71.335783,-33.605079],[-71.335767,-33.604785],[-71.335847,-33.604163],[-71.336022,-33.603672],[-71.33605,-33.603592],[-71.336249,-33.602958],[-71.336249,-33.602477],[-71.336209,-33.602399],[-71.336071,-33.602134],[-71.335824,-33.601599],[-71.335618,-33.601242],[-71.335384,-33.600885],[-71.33533,-33.600514],[-71.335394,-33.600136],[-71.335426,-33.599952],[-71.335357,-33.599581],[-71.334959,-33.599128],[-71.334657,-33.598881],[-71.33441,-33.598524],[-71.334047,-33.59803],[-71.333554,-33.596828],[-71.333399,-33.596136],[-71.333066,-33.595432],[-71.332746,-33.595017],[-71.332477,-33.594624],[-71.332326,-33.594404],[-71.332111,-33.593975],[-71.332051,-33.593302],[-71.332035,-33.593125],[-71.331919,-33.591933],[-71.331482,-33.590652],[-71.331253,-33.589442],[-71.331174,-33.588305],[-71.33122,-33.587348],[-71.331491,-33.586529],[-71.331714,-33.585865],[-71.331796,-33.585716],[-71.331857,-33.585607],[-71.332122,-33.585412],[-71.332218,-33.585131],[-71.332167,-33.584916],[-71.332012,-33.584796],[-71.331824,-33.584702],[-71.331405,-33.584541],[-71.330959,-33.58437],[-71.330288,-33.584179],[-71.329494,-33.584047],[-71.329035,-33.584031],[-71.328819,-33.583984],[-71.328618,-33.583871],[-71.32847,-33.583801],[-71.328369,-33.583723],[-71.328315,-33.583648],[-71.328307,-33.583637],[-71.328213,-33.583441],[-71.328213,-33.583227],[-71.328299,-33.583],[-71.328447,-33.582759],[-71.32854,-33.582572],[-71.328563,-33.582385],[-71.328649,-33.582144],[-71.328851,-33.581483],[-71.329052,-33.58094],[-71.329884,-33.580516],[-71.331032,-33.579657],[-71.33179,-33.579151],[-71.331929,-33.579059],[-71.33266,-33.578261],[-71.333657,-33.577497],[-71.334054,-33.577079],[-71.334384,-33.576809],[-71.334834,-33.576389],[-71.335584,-33.576149],[-71.336781,-33.575735],[-71.337878,-33.575469],[-71.338975,-33.575203],[-71.339869,-33.575089],[-71.340183,-33.575293],[-71.33956,-33.579548],[-71.344008,-33.582442],[-71.343384,-33.586697],[-71.338312,-33.588056]]]},"properties":{"comuna":"San Antonio","mancha_id":"05601-88b2c08025fffff","clase":"Alto","nivel_medio":2.743,"nivel_medio_min":2.539,"nivel_medio_max":2.991,"pct_alto":75.6,"n_hexagonos":26,"area_ha":1100.77}},{"type":"Feature","geometry":{"type":"Polygon","coordinates":[[[-71.521711,-33.767547],[-71.526792,-33.766185],[-71.530287,-33.768446],[-71.529694,-33.769287],[-71.52899,-33.770695],[-71.528422,-33.772048],[-71.527907,-33.773184],[-71.527285,-33.774051],[-71.527043,-33.774276],[-71.525548,-33.774676],[-71.521089,-33.771792],[-71.521711,-33.767547]]]},"properties":{"comuna":"San Antonio","mancha_id":"05601-88b2c01335fffff","clase":"Alto","nivel_medio":2.824,"nivel_medio_min":2.824,"nivel_medio_max":2.824,"pct_alto":74.8,"n_hexagonos":1,"area_ha":52.74}},{"type":"Feature","geometry":{"type":"Polygon","coordinates":[[[-71.529279,-33.7492],[-71.53436,-33.747837],[-71.538794,-33.750706],[-71.538794,-33.750859],[-71.538796,-33.750874],[-71.538522,-33.752748],[-71.538343,-33.753067],[-71.538242,-33.753669],[-71.538242,-33.75417],[-71.538267,-33.754491],[-71.538197,-33.754969],[-71.533116,-33.756331],[-71.528657,-33.753446],[-71.529279,-33.7492]]]},"properties":{"comuna":"San Antonio","mancha_id":"05601-88b2c01329fffff","clase":"Alto","nivel_medio":2.786,"nivel_medio_min":2.786,"nivel_medio_max":2.786,"pct_alto":83.5,"n_hexagonos":1,"area_ha":63.74}},{"type":"Feature","geometry":{"type":"Polygon","coordinates":[[[-71.500042,-33.748876],[-71.500664,-33.744629],[-71.496207,-33.741744],[-71.491127,-33.743105],[-71.48667,-33.740219],[-71.481591,-33.741579],[-71.477135,-33.738693],[-71.477757,-33.734446],[-71.482836,-33.733085],[-71.487292,-33.735972],[-71.492372,-33.734611],[-71.492994,-33.730363],[-71.498073,-33.729002],[-71.498695,-33.724754],[-71.503774,-33.723392],[-71.508232,-33.726278],[-71.50761,-33.730526],[-71.50253,-33.731888],[-71.501908,-33.736135],[-71.506366,-33.739021],[-71.505744,-33.743268],[-71.510202,-33.746153],[-71.50958,-33.7504],[-71.5045,-33.751761],[-71.500042,-33.748876]]]},"properties":{"comuna":"San Antonio","mancha_id":"05601-88b2c0130bfffff","clase":"Alto","nivel_medio":2.656,"nivel_medio_min":2.521,"nivel_medio_max":2.854,"pct_alto":65.6,"n_hexagonos":6,"area_ha":383.46}},{"type":"Feature","geometry":{"type":"Polygon","coordinates":[[[-71.385735,-33.763133],[-71.390189,-33.76602],[-71.390047,-33.766986],[-71.389883,-33.766849],[-71.389491,-33.766723],[-71.389253,-33.766695],[-71.388654,-33.766625],[-71.387429,-33.766534],[-71.386695,-33.766414],[-71.386023,-33.766093],[-71.385292,-33.765678],[-71.384866,-33.765553],[-71.384316,-33.765525],[-71.383668,-33.765232],[-71.382854,-33.764685],[-71.38241,-33.764341],[-71.382096,-33.764137],[-71.382063,-33.764113],[-71.385735,-33.763133]]]},"properties":{"comuna":"San Antonio","mancha_id":"05601-88b2c012d1fffff","clase":"Alto","nivel_medio":2.664,"nivel_medio_min":2.664,"nivel_medio_max":2.664,"pct_alto":78.3,"n_hexagonos":1,"area_ha":14.76}},{"type":"Feature","geometry":{"type":"Polygon","coordinates":[[[-71.431524,-33.783518],[-71.43598,-33.786404],[-71.435899,-33.786952],[-71.435749,-33.786989],[-71.435047,-33.787274],[-71.434452,-33.787578],[-71.434211,-33.787656],[-71.433574,-33.787861],[-71.433014,-33.78826],[-71.432468,-33.788774],[-71.432434,-33.788815],[-71.431991,-33.789356],[-71.431908,-33.789415],[-71.431351,-33.789807],[-71.430971,-33.790018],[-71.430601,-33.790085],[-71.430359,-33.789997],[-71.429945,-33.789611],[-71.429784,-33.789415],[-71.42952,-33.789092],[-71.429167,-33.788815],[-71.429163,-33.788812],[-71.428904,-33.788654],[-71.428633,-33.788558],[-71.428048,-33.788463],[-71.427711,-33.788409],[-71.427273,-33.78841],[-71.426886,-33.78841],[-71.426132,-33.788392],[-71.42593,-33.788383],[-71.425531,-33.788365],[-71.424911,-33.788267],[-71.424089,-33.787881],[-71.423535,-33.787363],[-71.423197,-33.786846],[-71.42257,-33.786274],[-71.421837,-33.785871],[-71.421032,-33.785674],[-71.420777,-33.785683],[-71.4198,-33.785716],[-71.418193,-33.785831],[-71.41717,-33.785759],[-71.416587,-33.785561],[-71.416913,-33.783344],[-71.421991,-33.781988],[-71.426446,-33.784875],[-71.431524,-33.783518]]]},"properties":{"comuna":"San Antonio","mancha_id":"05601-88b2c012a1fffff","clase":"Alto","nivel_medio":2.795,"nivel_medio_min":2.795,"nivel_medio_max":2.795,"pct_alto":86.5,"n_hexagonos":2,"area_ha":74.72}},{"type":"Feature","geometry":{"type":"Polygon","coordinates":[[[-71.450497,-33.753982],[-71.451119,-33.749736],[-71.456198,-33.748378],[-71.460654,-33.751264],[-71.460031,-33.75551],[-71.454952,-33.756868],[-71.450497,-33.753982]]]},"properties":{"comuna":"San Antonio","mancha_id":"05601-88b2c0123dfffff","clase":"Alto","nivel_medio":2.597,"nivel_medio_min":2.597,"nivel_medio_max":2.597,"pct_alto":61.2,"n_hexagonos":1,"area_ha":63.86}},{"type":"Feature","geometry":{"type":"Polygon","coordinates":[[[-71.469566,-33.757037],[-71.470188,-33.752791],[-71.475267,-33.751432],[-71.479724,-33.754318],[-71.484803,-33.752958],[-71.489261,-33.755843],[-71.488638,-33.760089],[-71.483559,-33.761449],[-71.479102,-33.758563],[-71.474023,-33.759923],[-71.469566,-33.757037]]]},"properties":{"comuna":"San Antonio","mancha_id":"05601-88b2c01227fffff","clase":"Alto","nivel_medio":2.544,"nivel_medio_min":2.514,"nivel_medio_max":2.575,"pct_alto":54.5,"n_hexagonos":2,"area_ha":127.74}},{"type":"Feature","geometry":{"type":"Polygon","coordinates":[[[-71.442831,-33.739717],[-71.443454,-33.735471],[-71.448532,-33.734112],[-71.452987,-33.736999],[-71.452365,-33.741245],[-71.447287,-33.742604],[-71.442831,-33.739717]]]},"properties":{"comuna":"San Antonio","mancha_id":"05601-88b2c01201fffff","clase":"Alto","nivel_medio":2.566,"nivel_medio_min":2.566,"nivel_medio_max":2.566,"pct_alto":57.6,"n_hexagonos":1,"area_ha":63.88}},{"type":"Feature","geometry":{"type":"Polygon","coordinates":[[[-71.471533,-33.776901],[-71.466453,-33.77826],[-71.465831,-33.782503],[-71.460804,-33.783847],[-71.460611,-33.78377],[-71.456295,-33.780976],[-71.451216,-33.782333],[-71.450593,-33.786576],[-71.448695,-33.787084],[-71.448186,-33.787094],[-71.447805,-33.786945],[-71.44757,-33.786853],[-71.447031,-33.787056],[-71.445786,-33.787142],[-71.445029,-33.78704],[-71.444455,-33.787013],[-71.444158,-33.787055],[-71.441058,-33.785048],[-71.441681,-33.780805],[-71.44676,-33.779447],[-71.447383,-33.775204],[-71.452461,-33.773846],[-71.453084,-33.769602],[-71.458163,-33.768244],[-71.462619,-33.77113],[-71.467698,-33.769771],[-71.472155,-33.772657],[-71.471533,-33.776901]]]},"properties":{"comuna":"San Antonio","mancha_id":"05601-88b2c01043fffff","clase":"Alto","nivel_medio":2.706,"nivel_medio_min":2.621,"nivel_medio_max":2.83,"pct_alto":72.0,"n_hexagonos":5,"area_ha":317.0}},{"type":"Feature","geometry":{"type":"Polygon","coordinates":[[[-71.583474,-33.612073],[-71.584095,-33.607815],[-71.589174,-33.606445],[-71.589795,-33.602187],[-71.594874,-33.600816],[-71.599333,-33.603704],[-71.598713,-33.607962],[-71.593633,-33.609332],[-71.593013,-33.61359],[-71.587933,-33.61496],[-71.583474,-33.612073]]]},"properties":{"comuna":"San Antonio","mancha_id":"05601-88b2c0d4e1fffff","clase":"Muy Alto","nivel_medio":3.594,"nivel_medio_min":3.562,"nivel_medio_max":3.627,"pct_alto":95.2,"n_hexagonos":2,"area_ha":128.32}},{"type":"Feature","geometry":{"type":"Polygon","coordinates":[[[-71.581612,-33.624843],[-71.582233,-33.620587],[-71.587312,-33.619217],[-71.591771,-33.622104],[-71.591151,-33.62636],[-71.586071,-33.62773],[-71.581612,-33.624843]]]},"properties":{"comuna":"San Antonio","mancha_id":"05601-88b2c0d4a9fffff","clase":"Muy Alto","nivel_medio":3.522,"nivel_medio_min":3.522,"nivel_medio_max":3.522,"pct_alto":94.4,"n_hexagonos":1,"area_ha":64.13}},{"type":"Feature","geometry":{"type":"Polygon","coordinates":[[[-71.589059,-33.573746],[-71.58968,-33.569486],[-71.585222,-33.566597],[-71.585842,-33.562337],[-71.587861,-33.561791],[-71.589974,-33.561693],[-71.590233,-33.561687],[-71.590342,-33.561685],[-71.591977,-33.561649],[-71.595379,-33.563853],[-71.594759,-33.568114],[-71.599217,-33.571002],[-71.598597,-33.575262],[-71.593518,-33.576634],[-71.589059,-33.573746]]]},"properties":{"comuna":"San Antonio","mancha_id":"05601-88b2c0d455fffff","clase":"Muy Alto","nivel_medio":3.503,"nivel_medio_min":3.501,"nivel_medio_max":3.506,"pct_alto":90.4,"n_hexagonos":2,"area_ha":126.96}},{"type":"Feature","geometry":{"type":"Polygon","coordinates":[[[-71.566486,-33.66162],[-71.567107,-33.657366],[-71.562648,-33.654479],[-71.563269,-33.650225],[-71.568349,-33.648858],[-71.56897,-33.644603],[-71.574049,-33.643235],[-71.578508,-33.646121],[-71.577887,-33.650376],[-71.572808,-33.651744],[-71.572187,-33.655998],[-71.576646,-33.658885],[-71.576025,-33.663138],[-71.570945,-33.664506],[-71.566486,-33.66162]]]},"properties":{"comuna":"San Antonio","mancha_id":"05601-88b2c0c651fffff","clase":"Muy Alto","nivel_medio":3.657,"nivel_medio_min":3.544,"nivel_medio_max":3.751,"pct_alto":92.9,"n_hexagonos":3,"area_ha":192.24}}],"bbox":[-71.63036,-33.79009,-71.32821,-33.55214]}