{"type":"FeatureCollection","features":[{"type":"Feature","geometry":{"type":"Polygon","coordinates":[[[-71.674754,-33.454073],[-71.675037,-33.452128],[-71.675902,-33.451893],[-71.67591,-33.45201],[-71.67601,-33.45259],[-71.67605,-33.45308],[-71.67599,-33.45327],[-71.67586,-33.45345],[-71.67553,-33.45371],[-71.67476,-33.45407],[-71.674754,-33.454073]]]},"properties":{"comuna":"El Tabo","mancha_id":"05605-88b2c46d29fffff","clase":"Muy Bajo","nivel_medio":0.175,"nivel_medio_min":0.175,"nivel_medio_max":0.175,"pct_alto":5.5,"n_hexagonos":1,"area_ha":1.91}},{"type":"Feature","geometry":{"type":"Polygon","coordinates":[[[-71.664879,-33.454888],[-71.669339,-33.457777],[-71.671997,-33.457055],[-71.67202,-33.45711],[-71.67203,-33.45729],[-71.672,-33.45745],[-71.67186,-33.4576],[-71.67163,-33.45769],[-71.67135,-33.45774],[-71.67078,-33.45776],[-71.67023,-33.45778],[-71.66983,-33.4579],[-71.66944,-33.45796],[-71.669312,-33.45796],[-71.66905,-33.45796],[-71.66844,-33.45786],[-71.66823,-33.45787],[-71.66781,-33.4581],[-71.66727,-33.45844],[-71.66672,-33.45862],[-71.66637,-33.45872],[-71.66619,-33.45884],[-71.66588,-33.45913],[-71.66552,-33.45932],[-71.6652,-33.4594],[-71.66485,-33.4594],[-71.66441,-33.45934],[-71.66397,-33.4592],[-71.66362,-33.45921],[-71.66332,-33.45928],[-71.66296,-33.45946],[-71.66261,-33.45968],[-71.66212,-33.45994],[-71.66167,-33.46008],[-71.66114,-33.46018],[-71.66077,-33.4603],[-71.66041,-33.46049],[-71.65976,-33.460911],[-71.65916,-33.4613],[-71.65866,-33.46166],[-71.65833,-33.46199],[-71.65811,-33.46234],[-71.65796,-33.46281],[-71.65784,-33.46329],[-71.65768,-33.4636],[-71.65659,-33.46465],[-71.65562,-33.46547],[-71.655175,-33.46592],[-71.655,-33.46618],[-71.65489,-33.46634],[-71.654653,-33.466941],[-71.65461,-33.46705],[-71.65444,-33.46758],[-71.65434,-33.46804],[-71.65407,-33.46837],[-71.65387,-33.46854],[-71.65361,-33.46865],[-71.65334,-33.46881],[-71.65314,-33.46901],[-71.65301,-33.46924],[-71.65287,-33.4696],[-71.65282,-33.46975],[-71.65272,-33.47014],[-71.65244,-33.4706],[-71.65215,-33.4709],[-71.65102,-33.47173],[-71.65087,-33.47188],[-71.65074,-33.47212],[-71.65067,-33.47228],[-71.6507,-33.47239],[-71.6508,-33.47257],[-71.65079,-33.47274],[-71.65066,-33.4729],[-71.65046,-33.47309],[-71.650091,-33.473324],[-71.64997,-33.4734],[-71.64965,-33.47364],[-71.64936,-33.47395],[-71.64856,-33.47507],[-71.647,-33.47734],[-71.6458,-33.4795],[-71.645691,-33.47981],[-71.642088,-33.477476],[-71.642708,-33.473208],[-71.647786,-33.47183],[-71.648406,-33.467562],[-71.653484,-33.466184],[-71.654103,-33.461915],[-71.659182,-33.460536],[-71.659801,-33.456267],[-71.664879,-33.454888]]]},"properties":{"comuna":"El Tabo","mancha_id":"05605-88b2c46d07fffff","clase":"Muy Bajo","nivel_medio":0.272,"nivel_medio_min":0.1,"nivel_medio_max":0.375,"pct_alto":6.6,"n_hexagonos":5,"area_ha":118.73}},{"type":"Feature","geometry":{"type":"Polygon","coordinates":[[[-71.606626,-33.520093],[-71.60666,-33.519857],[-71.605719,-33.519247],[-71.605633,-33.51911],[-71.605343,-33.518841],[-71.604929,-33.518676],[-71.604814,-33.518661],[-71.602202,-33.516968],[-71.602822,-33.512704],[-71.6079,-33.511329],[-71.60852,-33.507064],[-71.613598,-33.505689],[-71.615849,-33.507147],[-71.61533,-33.50786],[-71.61463,-33.50882],[-71.61429,-33.50947],[-71.61358,-33.51033],[-71.61344,-33.51084],[-71.61322,-33.51103],[-71.61256,-33.51188],[-71.61213,-33.51304],[-71.61169,-33.51335],[-71.61153,-33.51354],[-71.611494,-33.513658],[-71.61118,-33.51468],[-71.61052,-33.51536],[-71.61033,-33.51626],[-71.61035,-33.51688],[-71.61,-33.51721],[-71.60974,-33.51773],[-71.6092,-33.51821],[-71.60909,-33.51863],[-71.609049,-33.519211],[-71.60902,-33.51961],[-71.60844,-33.52066],[-71.60828,-33.52152],[-71.608128,-33.52172],[-71.607411,-33.521065],[-71.60704,-33.520498],[-71.60675,-33.520208],[-71.606626,-33.520093]]]},"properties":{"comuna":"El Tabo","mancha_id":"05605-88b2c0d665fffff","clase":"Muy Bajo","nivel_medio":0.14,"nivel_medio_min":0.023,"nivel_medio_max":0.312,"pct_alto":3.5,"n_hexagonos":3,"area_ha":96.95}},{"type":"Feature","geometry":{"type":"Polygon","coordinates":[[[-71.624994,-33.494407],[-71.625614,-33.490141],[-71.630692,-33.488764],[-71.631312,-33.484497],[-71.63639,-33.48312],[-71.63701,-33.478853],[-71.642088,-33.477476],[-71.645691,-33.47981],[-71.64562,-33.48001],[-71.64556,-33.48018],[-71.64544,-33.48074],[-71.64545,-33.48172],[-71.64554,-33.48203],[-71.64574,-33.4825],[-71.64608,-33.48303],[-71.646144,-33.483143],[-71.645927,-33.484632],[-71.646479,-33.48499],[-71.64652,-33.48511],[-71.64653,-33.48542],[-71.64646,-33.48571],[-71.64633,-33.48588],[-71.64616,-33.48599],[-71.64602,-33.48605],[-71.64547,-33.48607],[-71.64535,-33.48613],[-71.64526,-33.48623],[-71.64523,-33.48658],[-71.64509,-33.48671],[-71.64489,-33.48686],[-71.64465,-33.48695],[-71.64437,-33.487],[-71.64402,-33.4871],[-71.64361,-33.48718],[-71.6433,-33.48722],[-71.64301,-33.48735],[-71.64265,-33.48754],[-71.64252,-33.48767],[-71.64208,-33.48834],[-71.64186,-33.48881],[-71.64179,-33.48906],[-71.64184,-33.48921],[-71.64216,-33.48944],[-71.64225,-33.48956],[-71.64229,-33.48975],[-71.64221,-33.49137],[-71.642241,-33.49158],[-71.64225,-33.49164],[-71.64233,-33.49178],[-71.6425,-33.49194],[-71.64281,-33.49216],[-71.643711,-33.492532],[-71.64402,-33.49266],[-71.64435,-33.49292],[-71.644377,-33.492964],[-71.64453,-33.49321],[-71.64464,-33.49348],[-71.644641,-33.493489],[-71.64442,-33.49501],[-71.6442,-33.49525],[-71.64399,-33.49538],[-71.64369,-33.49549],[-71.64339,-33.49556],[-71.64307,-33.4956],[-71.64284,-33.4956],[-71.64261,-33.49556],[-71.64232,-33.49546],[-71.64213,-33.49542],[-71.64196,-33.49545],[-71.64162,-33.49553],[-71.64145,-33.49552],[-71.64121,-33.49547],[-71.64105,-33.49547],[-71.64089,-33.49559],[-71.64082,-33.4957],[-71.64083,-33.49584],[-71.64093,-33.49605],[-71.64098,-33.49624],[-71.64089,-33.49642],[-71.64073,-33.49652],[-71.64033,-33.4965],[-71.63951,-33.49622],[-71.63872,-33.49571],[-71.6384,-33.49553],[-71.63823,-33.49552],[-71.63804,-33.49559],[-71.63784,-33.49576],[-71.63766,-33.49603],[-71.63748,-33.49624],[-71.63714,-33.49643],[-71.63691,-33.49662],[-71.63683,-33.49682],[-71.6369,-33.49709],[-71.63703,-33.49739],[-71.637064,-33.497561],[-71.63707,-33.49759],[-71.63704,-33.49774],[-71.63695,-33.49788],[-71.6367,-33.49801],[-71.63622,-33.49808],[-71.63592,-33.49819],[-71.63565,-33.49839],[-71.63549,-33.49868],[-71.63535,-33.49909],[-71.63532,-33.49919],[-71.63529,-33.49955],[-71.6354,-33.5],[-71.63542,-33.5001],[-71.63558,-33.50037],[-71.63593,-33.50085],[-71.63641,-33.50123],[-71.63699,-33.50159],[-71.63709,-33.50171],[-71.63711,-33.5018],[-71.63703,-33.50196],[-71.63684,-33.50208],[-71.63642,-33.50214],[-71.63585,-33.50225],[-71.63552,-33.50238],[-71.6351,-33.50267],[-71.63473,-33.50279],[-71.6345,-33.50283],[-71.63392,-33.50279],[-71.63349,-33.50283],[-71.63312,-33.50293],[-71.63271,-33.50302],[-71.63245,-33.50294],[-71.6323,-33.50281],[-71.63225,-33.50258],[-71.6322,-33.50209],[-71.63212,-33.50192],[-71.63183,-33.50169],[-71.63137,-33.50158],[-71.63106,-33.50158],[-71.6306,-33.50176],[-71.63021,-33.50184],[-71.63005,-33.50181],[-71.62991,-33.50167],[-71.62983,-33.50143],[-71.62976,-33.50093],[-71.62966,-33.50075],[-71.62941,-33.50061],[-71.62903,-33.50066],[-71.62896,-33.50069],[-71.62847,-33.5009],[-71.6281,-33.50105],[-71.62758,-33.5011],[-71.62752,-33.50118],[-71.62745,-33.50147],[-71.62731,-33.50166],[-71.62709,-33.50169],[-71.62687,-33.50163],[-71.62662,-33.50145],[-71.62626,-33.50113],[-71.62554,-33.50075],[-71.62522,-33.50067],[-71.62503,-33.50072],[-71.62493,-33.50082],[-71.62486,-33.5009],[-71.62448,-33.50188],[-71.62427,-33.50205],[-71.62411,-33.50211],[-71.62368,-33.50215],[-71.6231,-33.50233],[-71.62284,-33.50232],[-71.622777,-33.502304],[-71.62256,-33.50225],[-71.62168,-33.50184],[-71.62143,-33.50181],[-71.62119,-33.50177],[-71.621,-33.50179],[-71.62073,-33.50186],[-71.62057,-33.50199],[-71.62026,-33.50224],[-71.62001,-33.50248],[-71.61973,-33.50274],[-71.61955,-33.50287],[-71.61916,-33.50314],[-71.61867,-33.50352],[-71.61837,-33.50384],[-71.61784,-33.50434],[-71.61775,-33.50455],[-71.6168,-33.50584],[-71.615849,-33.507147],[-71.613598,-33.505689],[-71.614218,-33.501424],[-71.619296,-33.500048],[-71.619916,-33.495783],[-71.624994,-33.494407]]]},"properties":{"comuna":"El Tabo","mancha_id":"05605-88b2c46d85fffff","clase":"Bajo","nivel_medio":0.758,"nivel_medio_min":0.615,"nivel_medio_max":1.12,"pct_alto":16.6,"n_hexagonos":8,"area_ha":382.12}},{"type":"Feature","geometry":{"type":"Polygon","coordinates":[[[-71.665499,-33.450618],[-71.670577,-33.449238],[-71.671196,-33.444968],[-71.676275,-33.443588],[-71.676309,-33.443354],[-71.676533,-33.443424],[-71.676944,-33.443777],[-71.677243,-33.444091],[-71.677372,-33.444299],[-71.677393,-33.444333],[-71.677576,-33.444542],[-71.677795,-33.444657],[-71.678127,-33.444799],[-71.678188,-33.444828],[-71.678461,-33.444956],[-71.678777,-33.445062],[-71.679057,-33.445098],[-71.679489,-33.445167],[-71.679742,-33.445341],[-71.679969,-33.445596],[-71.680143,-33.446095],[-71.68046,-33.447],[-71.68032,-33.44714],[-71.68023,-33.44728],[-71.68023,-33.44743],[-71.68024,-33.44758],[-71.68039,-33.44775],[-71.680533,-33.447868],[-71.68024,-33.44989],[-71.68002,-33.45],[-71.67971,-33.45025],[-71.6795,-33.45035],[-71.67916,-33.4505],[-71.67902,-33.45063],[-71.67901,-33.45081],[-71.67896,-33.45095],[-71.6788,-33.45104],[-71.67855,-33.45103],[-71.67824,-33.45103],[-71.67804,-33.45111],[-71.67765,-33.45131],[-71.67736,-33.45134],[-71.67726,-33.45134],[-71.67714,-33.45124],[-71.67688,-33.45095],[-71.67676,-33.45086],[-71.67662,-33.45084],[-71.67648,-33.45088],[-71.67632,-33.45098],[-71.67607,-33.45124],[-71.67595,-33.45147],[-71.67589,-33.45172],[-71.675902,-33.451893],[-71.675037,-33.452128],[-71.674754,-33.454073],[-71.67345,-33.45475],[-71.67314,-33.45499],[-71.67294,-33.45531],[-71.67281,-33.45547],[-71.67251,-33.45556],[-71.672,-33.4557],[-71.67178,-33.45585],[-71.67169,-33.45599],[-71.67166,-33.4562],[-71.67174,-33.45645],[-71.671997,-33.457055],[-71.669339,-33.457777],[-71.664879,-33.454888],[-71.665499,-33.450618]]]},"properties":{"comuna":"El Tabo","mancha_id":"05605-88b2c46d05fffff","clase":"Bajo","nivel_medio":0.828,"nivel_medio_min":0.553,"nivel_medio_max":1.124,"pct_alto":20.6,"n_hexagonos":3,"area_ha":122.28}},{"type":"Feature","geometry":{"type":"Polygon","coordinates":[[[-71.659182,-33.460536],[-71.654103,-33.461915],[-71.653484,-33.466184],[-71.648406,-33.467562],[-71.643947,-33.464672],[-71.638869,-33.466051],[-71.634411,-33.46316],[-71.63503,-33.458892],[-71.630572,-33.456002],[-71.631192,-33.451733],[-71.636269,-33.450355],[-71.636889,-33.446086],[-71.641967,-33.444707],[-71.646425,-33.447597],[-71.645805,-33.451866],[-71.650264,-33.454757],[-71.655342,-33.453377],[-71.659801,-33.456267],[-71.659182,-33.460536]]]},"properties":{"comuna":"El Tabo","mancha_id":"05605-88b2c46d03fffff","clase":"Bajo","nivel_medio":1.076,"nivel_medio_min":0.919,"nivel_medio_max":1.239,"pct_alto":27.6,"n_hexagonos":6,"area_ha":386.47}},{"type":"Feature","geometry":{"type":"Polygon","coordinates":[[[-71.595301,-33.522931],[-71.596504,-33.522606],[-71.59672,-33.522746],[-71.596719,-33.522771],[-71.596719,-33.522788],[-71.596719,-33.522829],[-71.59672,-33.522844],[-71.59672,-33.522849],[-71.59672,-33.52289],[-71.59672,-33.522917],[-71.59672,-33.52299],[-71.596697,-33.52299],[-71.596683,-33.522992],[-71.596654,-33.522991],[-71.596519,-33.522988],[-71.596474,-33.522982],[-71.596394,-33.52297],[-71.596241,-33.522948],[-71.596054,-33.522915],[-71.59586,-33.522909],[-71.59563,-33.522917],[-71.595394,-33.522929],[-71.595301,-33.522931]]]},"properties":{"comuna":"El Tabo","mancha_id":"05605-88b2c0d663fffff","clase":"Bajo","nivel_medio":1.497,"nivel_medio_min":1.497,"nivel_medio_max":1.497,"pct_alto":22.9,"n_hexagonos":1,"area_ha":0.27}},{"type":"Feature","geometry":{"type":"Polygon","coordinates":[[[-71.501553,-33.50299],[-71.501807,-33.503155],[-71.501693,-33.503941],[-71.501632,-33.503758],[-71.501622,-33.503702],[-71.501597,-33.503571],[-71.501574,-33.503274],[-71.501556,-33.503037],[-71.501553,-33.50299]]]},"properties":{"comuna":"El Tabo","mancha_id":"05605-88b2c0995dfffff","clase":"Bajo","nivel_medio":1.0,"nivel_medio_min":1.0,"nivel_medio_max":1.0,"pct_alto":25.0,"n_hexagonos":1,"area_ha":0.14}},{"type":"Feature","geometry":{"type":"Polygon","coordinates":[[[-71.624875,-33.461648],[-71.625495,-33.45738],[-71.630572,-33.456002],[-71.63503,-33.458892],[-71.634411,-33.46316],[-71.629333,-33.464538],[-71.624875,-33.461648]]]},"properties":{"comuna":"El Tabo","mancha_id":"05605-88b2c46d1bfffff","clase":"Medio","nivel_medio":1.712,"nivel_medio_min":1.712,"nivel_medio_max":1.712,"pct_alto":48.7,"n_hexagonos":1,"area_ha":64.4}},{"type":"Feature","geometry":{"type":"Polygon","coordinates":[[[-71.638249,-33.470318],[-71.638869,-33.466051],[-71.643947,-33.464672],[-71.648406,-33.467562],[-71.647786,-33.47183],[-71.642708,-33.473208],[-71.642088,-33.477476],[-71.63701,-33.478853],[-71.63639,-33.48312],[-71.631312,-33.484497],[-71.630692,-33.488764],[-71.625614,-33.490141],[-71.624994,-33.494407],[-71.619916,-33.495783],[-71.615458,-33.492893],[-71.616078,-33.488627],[-71.621156,-33.487251],[-71.621776,-33.482984],[-71.626854,-33.481608],[-71.627474,-33.477341],[-71.632552,-33.475964],[-71.633171,-33.471696],[-71.638249,-33.470318]]]},"properties":{"comuna":"El Tabo","mancha_id":"05605-88b2c46d17fffff","clase":"Medio","nivel_medio":1.838,"nivel_medio_min":1.586,"nivel_medio_max":2.018,"pct_alto":52.7,"n_hexagonos":5,"area_ha":321.85}},{"type":"Feature","geometry":{"type":"Polygon","coordinates":[[[-71.659801,-33.456267],[-71.655342,-33.453377],[-71.650264,-33.454757],[-71.645805,-33.451866],[-71.646425,-33.447597],[-71.651503,-33.446218],[-71.652122,-33.441948],[-71.655633,-33.440994],[-71.655708,-33.441016],[-71.656538,-33.441214],[-71.657062,-33.441287],[-71.657513,-33.441269],[-71.657784,-33.441251],[-71.658037,-33.441214],[-71.658164,-33.441193],[-71.661659,-33.443459],[-71.661039,-33.447728],[-71.665499,-33.450618],[-71.664879,-33.454888],[-71.659801,-33.456267]]]},"properties":{"comuna":"El Tabo","mancha_id":"05605-88b2c46d01fffff","clase":"Medio","nivel_medio":2.098,"nivel_medio_min":1.706,"nivel_medio_max":2.454,"pct_alto":55.0,"n_hexagonos":3,"area_ha":192.3}},{"type":"Feature","geometry":{"type":"Polygon","coordinates":[[[-71.606212,-33.519752],[-71.605881,-33.519504],[-71.605719,-33.519247],[-71.60666,-33.519857],[-71.606626,-33.520093],[-71.606502,-33.51998],[-71.606212,-33.519752]]]},"properties":{"comuna":"El Tabo","mancha_id":"05605-88b2c0d661fffff","clase":"Medio","nivel_medio":1.717,"nivel_medio_min":1.717,"nivel_medio_max":1.717,"pct_alto":39.7,"n_hexagonos":1,"area_ha":0.17}},{"type":"Feature","geometry":{"type":"Polygon","coordinates":[[[-71.59673,-33.522558],[-71.596722,-33.522722],[-71.59672,-33.522746],[-71.596504,-33.522606],[-71.595301,-33.522931],[-71.595286,-33.522932],[-71.594923,-33.522939],[-71.59465,-33.522898],[-71.594514,-33.522836],[-71.594385,-33.522785],[-71.594298,-33.522732],[-71.594254,-33.522705],[-71.594202,-33.52267],[-71.594092,-33.522612],[-71.593886,-33.52258],[-71.593772,-33.522521],[-71.593741,-33.522482],[-71.593644,-33.522409],[-71.593476,-33.522359],[-71.593343,-33.52236],[-71.593153,-33.522413],[-71.593138,-33.522416],[-71.593026,-33.522438],[-71.592879,-33.522448],[-71.592836,-33.52245],[-71.592651,-33.522459],[-71.592484,-33.522471],[-71.592292,-33.522453],[-71.592069,-33.522449],[-71.591797,-33.52245],[-71.591673,-33.522444],[-71.5916,-33.52244],[-71.591461,-33.52243],[-71.591314,-33.522416],[-71.59111,-33.522407],[-71.590968,-33.522409],[-71.590773,-33.522436],[-71.590763,-33.522437],[-71.590603,-33.522453],[-71.590584,-33.522454],[-71.590559,-33.522455],[-71.590464,-33.52246],[-71.590464,-33.52246],[-71.590295,-33.52249],[-71.590209,-33.522483],[-71.590065,-33.522455],[-71.590009,-33.522422],[-71.589892,-33.522383],[-71.589876,-33.52238],[-71.589714,-33.522349],[-71.589571,-33.522323],[-71.589433,-33.522282],[-71.589431,-33.522281],[-71.589233,-33.522249],[-71.589031,-33.522236],[-71.58898,-33.522237],[-71.588828,-33.52224],[-71.588732,-33.522233],[-71.586969,-33.52109],[-71.587589,-33.516826],[-71.592667,-33.515452],[-71.593287,-33.511188],[-71.598365,-33.509814],[-71.598985,-33.50555],[-71.604063,-33.504175],[-71.604683,-33.49991],[-71.609761,-33.498534],[-71.614218,-33.501424],[-71.613598,-33.505689],[-71.60852,-33.507064],[-71.6079,-33.511329],[-71.602822,-33.512704],[-71.602202,-33.516968],[-71.604814,-33.518661],[-71.604452,-33.518614],[-71.603997,-33.518614],[-71.603521,-33.518676],[-71.603065,-33.518903],[-71.602527,-33.519028],[-71.602051,-33.51909],[-71.601616,-33.519048],[-71.601264,-33.518862],[-71.600767,-33.518676],[-71.600415,-33.518427],[-71.600167,-33.518324],[-71.599877,-33.518262],[-71.599629,-33.518075],[-71.59949,-33.517783],[-71.599455,-33.517711],[-71.599442,-33.517684],[-71.599421,-33.51764],[-71.599396,-33.517586],[-71.599172,-33.517738],[-71.599037,-33.517824],[-71.598709,-33.518034],[-71.598125,-33.518381],[-71.597992,-33.518475],[-71.597923,-33.518551],[-71.59792,-33.518554],[-71.597901,-33.518578],[-71.59738,-33.519236],[-71.597029,-33.519698],[-71.596933,-33.519829],[-71.596914,-33.519866],[-71.596899,-33.519895],[-71.596892,-33.519907],[-71.596865,-33.519983],[-71.59685,-33.520065],[-71.596809,-33.520302],[-71.596802,-33.520556],[-71.596796,-33.520796],[-71.596791,-33.520986],[-71.596787,-33.521121],[-71.596784,-33.521227],[-71.596782,-33.521287],[-71.596755,-33.522],[-71.596755,-33.522011],[-71.596753,-33.522045],[-71.596752,-33.522083],[-71.596749,-33.522176],[-71.596746,-33.522246],[-71.596746,-33.522251],[-71.596735,-33.522464],[-71.596731,-33.52254],[-71.59673,-33.522558]]]},"properties":{"comuna":"El Tabo","mancha_id":"05605-88b2c0d661fffff-2","clase":"Medio","nivel_medio":1.624,"nivel_medio_min":1.567,"nivel_medio_max":1.717,"pct_alto":44.4,"n_hexagonos":5,"area_ha":259.2}},{"type":"Feature","geometry":{"type":"Polygon","coordinates":[[[-71.507664,-33.51058],[-71.507485,-33.510407],[-71.50697,-33.50995],[-71.510165,-33.509088],[-71.510045,-33.50928],[-71.50968,-33.509519],[-71.509353,-33.509725],[-71.508616,-33.510078],[-71.507943,-33.510464],[-71.507664,-33.51058]]]},"properties":{"comuna":"El Tabo","mancha_id":"05605-88b2c09909fffff","clase":"Medio","nivel_medio":2.417,"nivel_medio_min":2.417,"nivel_medio_max":2.417,"pct_alto":39.2,"n_hexagonos":1,"area_ha":1.58}},{"type":"Feature","geometry":{"type":"Polygon","coordinates":[[[-71.511868,-33.509874],[-71.51174,-33.509605],[-71.511437,-33.508965],[-71.511402,-33.508891],[-71.511211,-33.508489],[-71.511164,-33.50839],[-71.510982,-33.508095],[-71.510882,-33.508202],[-71.510811,-33.508276],[-71.511336,-33.504676],[-71.516411,-33.503305],[-71.517032,-33.499042],[-71.512578,-33.49615],[-71.5132,-33.491886],[-71.508746,-33.488993],[-71.503672,-33.490365],[-71.499219,-33.487472],[-71.494144,-33.488842],[-71.49376,-33.49148],[-71.493539,-33.491421],[-71.493293,-33.491376],[-71.493126,-33.491351],[-71.492966,-33.491336],[-71.492678,-33.491343],[-71.492418,-33.49136],[-71.492399,-33.491364],[-71.492303,-33.491387],[-71.492115,-33.491418],[-71.491489,-33.491555],[-71.491249,-33.491607],[-71.490782,-33.491703],[-71.490383,-33.491799],[-71.490358,-33.491805],[-71.49034,-33.491809],[-71.490165,-33.491846],[-71.489802,-33.491912],[-71.489684,-33.491925],[-71.489611,-33.491933],[-71.489319,-33.491941],[-71.489248,-33.491942],[-71.488839,-33.491895],[-71.488676,-33.491856],[-71.488601,-33.491838],[-71.48836,-33.491757],[-71.488052,-33.491621],[-71.487896,-33.491521],[-71.48771,-33.491402],[-71.487613,-33.491312],[-71.487529,-33.491233],[-71.487365,-33.491053],[-71.4871,-33.490728],[-71.486901,-33.490439],[-71.486629,-33.490117],[-71.486354,-33.48979],[-71.486211,-33.489619],[-71.485804,-33.489012],[-71.485749,-33.48893],[-71.485468,-33.488459],[-71.485374,-33.488247],[-71.485372,-33.488243],[-71.485369,-33.488236],[-71.485363,-33.488222],[-71.485213,-33.487858],[-71.485136,-33.487645],[-71.485101,-33.487549],[-71.485009,-33.487353],[-71.484982,-33.48731],[-71.484946,-33.487253],[-71.484942,-33.487247],[-71.484934,-33.487234],[-71.484881,-33.487157],[-71.48456,-33.486803],[-71.484319,-33.486588],[-71.484193,-33.48647],[-71.483952,-33.486246],[-71.483885,-33.486176],[-71.483807,-33.486096],[-71.483766,-33.486054],[-71.483737,-33.486023],[-71.48368,-33.485959],[-71.483644,-33.485917],[-71.483627,-33.485897],[-71.483515,-33.485735],[-71.483419,-33.485537],[-71.483418,-33.485535],[-71.483361,-33.485419],[-71.483293,-33.485218],[-71.48328,-33.485182],[-71.483256,-33.485087],[-71.483216,-33.484925],[-71.483141,-33.484385],[-71.483118,-33.484219],[-71.483073,-33.483961],[-71.483015,-33.483736],[-71.482997,-33.483681],[-71.482989,-33.483662],[-71.482912,-33.48347],[-71.482884,-33.483411],[-71.482836,-33.483309],[-71.482776,-33.483182],[-71.482707,-33.483048],[-71.482654,-33.482947],[-71.482636,-33.482912],[-71.48247,-33.482624],[-71.482272,-33.48229],[-71.481937,-33.48163],[-71.481931,-33.481618],[-71.481905,-33.481562],[-71.481859,-33.481461],[-71.481841,-33.481421],[-71.481645,-33.480993],[-71.481434,-33.480564],[-71.481348,-33.480389],[-71.481297,-33.48031],[-71.481293,-33.480301],[-71.481251,-33.480206],[-71.481223,-33.480128],[-71.481196,-33.480052],[-71.481144,-33.479904],[-71.481048,-33.479664],[-71.480965,-33.479486],[-71.480845,-33.479311],[-71.480613,-33.478832],[-71.480569,-33.478742],[-71.480354,-33.4783],[-71.480278,-33.47815],[-71.480273,-33.478141],[-71.479947,-33.477497],[-71.479898,-33.477401],[-71.479749,-33.477107],[-71.47957,-33.476811],[-71.479415,-33.476586],[-71.479352,-33.476518],[-71.47933,-33.476494],[-71.479278,-33.476437],[-71.479125,-33.476298],[-71.478856,-33.476051],[-71.478428,-33.475719],[-71.478065,-33.475438],[-71.477894,-33.475305],[-71.477743,-33.475179],[-71.477476,-33.474958],[-71.477571,-33.47486],[-71.477698,-33.474684],[-71.477883,-33.474421],[-71.478048,-33.474178],[-71.478301,-33.473866],[-71.478512,-33.473588],[-71.478738,-33.473346],[-71.479081,-33.472996],[-71.47926,-33.47284],[-71.479455,-33.472754],[-71.479634,-33.472715],[-71.479852,-33.472738],[-71.48007,-33.472785],[-71.480304,-33.47284],[-71.480514,-33.472972],[-71.480733,-33.47312],[-71.480912,-33.473292],[-71.481036,-33.473564],[-71.481107,-33.473821],[-71.481146,-33.474188],[-71.481177,-33.474523],[-71.481239,-33.474975],[-71.48134,-33.475294],[-71.481457,-33.475583],[-71.481613,-33.475847],[-71.481761,-33.476011],[-71.481964,-33.476198],[-71.482088,-33.476307],[-71.482166,-33.476416],[-71.482252,-33.476595],[-71.482283,-33.476736],[-71.482369,-33.476962],[-71.482408,-33.477149],[-71.482423,-33.477375],[-71.482408,-33.477655],[-71.482392,-33.477967],[-71.482338,-33.478263],[-71.482353,-33.478473],[-71.482423,-33.478614],[-71.482517,-33.478707],[-71.482673,-33.478808],[-71.482829,-33.478886],[-71.483078,-33.478964],[-71.483242,-33.478956],[-71.483483,-33.478902],[-71.483779,-33.478801],[-71.484021,-33.478684],[-71.484262,-33.47852],[-71.484481,-33.478364],[-71.484683,-33.478185],[-71.484784,-33.478014],[-71.48487,-33.47778],[-71.484901,-33.477577],[-71.484901,-33.477344],[-71.484878,-33.477195],[-71.484847,-33.476977],[-71.4848,-33.476728],[-71.484738,-33.476479],[-71.484699,-33.476237],[-71.484605,-33.475832],[-71.484566,-33.475497],[-71.484496,-33.475029],[-71.484457,-33.474772],[-71.484434,-33.474499],[-71.484449,-33.474125],[-71.484488,-33.473899],[-71.484543,-33.473603],[-71.484644,-33.473346],[-71.48465,-33.473337],[-71.486483,-33.474527],[-71.485861,-33.478792],[-71.490313,-33.481685],[-71.495387,-33.480314],[-71.496009,-33.47605],[-71.498964,-33.475251],[-71.499278,-33.475606],[-71.499675,-33.475995],[-71.5,-33.476252],[-71.500119,-33.476346],[-71.500408,-33.476518],[-71.500641,-33.476572],[-71.500891,-33.47658],[-71.501187,-33.476557],[-71.501537,-33.476455],[-71.501857,-33.476253],[-71.502067,-33.47605],[-71.502285,-33.475863],[-71.502511,-33.475684],[-71.502558,-33.475637],[-71.502667,-33.475528],[-71.502831,-33.47538],[-71.502987,-33.475131],[-71.50315,-33.474866],[-71.503314,-33.474562],[-71.50347,-33.474351],[-71.503735,-33.474071],[-71.503953,-33.473907],[-71.504187,-33.47379],[-71.504452,-33.473681],[-71.50467,-33.473666],[-71.504958,-33.473611],[-71.505208,-33.47358],[-71.505449,-33.473572],[-71.505683,-33.47358],[-71.506143,-33.473611],[-71.506587,-33.473658],[-71.506992,-33.473728],[-71.50728,-33.473806],[-71.507576,-33.473876],[-71.507826,-33.474016],[-71.508153,-33.47425],[-71.508465,-33.474492],[-71.508792,-33.474718],[-71.509072,-33.474928],[-71.509291,-33.475037],[-71.509532,-33.475099],[-71.509735,-33.475123],[-71.509937,-33.475146],[-71.510187,-33.475123],[-71.510506,-33.475092],[-71.510782,-33.47502],[-71.510896,-33.47499],[-71.511215,-33.474858],[-71.511496,-33.474686],[-71.511729,-33.474507],[-71.511932,-33.474289],[-71.512072,-33.474102],[-71.512158,-33.473938],[-71.512205,-33.473736],[-71.512244,-33.473502],[-71.512252,-33.473276],[-71.512236,-33.472972],[-71.51222,-33.472785],[-71.512189,-33.472505],[-71.512142,-33.472271],[-71.512072,-33.472006],[-71.51201,-33.471749],[-71.512002,-33.471727],[-71.511831,-33.471281],[-71.511675,-33.470728],[-71.511628,-33.47044],[-71.511644,-33.470128],[-71.511659,-33.469785],[-71.511675,-33.469419],[-71.511737,-33.469068],[-71.511815,-33.46864],[-71.51194,-33.468258],[-71.512096,-33.467946],[-71.512306,-33.467635],[-71.512548,-33.467432],[-71.512929,-33.467245],[-71.513381,-33.467081],[-71.513935,-33.466957],[-71.514418,-33.466949],[-71.514846,-33.466933],[-71.515259,-33.467011],[-71.515626,-33.467058],[-71.515984,-33.467151],[-71.516303,-33.467229],[-71.516623,-33.467362],[-71.516764,-33.467414],[-71.516833,-33.46744],[-71.517254,-33.46758],[-71.517605,-33.467713],[-71.517916,-33.467845],[-71.518127,-33.468001],[-71.518431,-33.468149],[-71.518812,-33.468305],[-71.519257,-33.468484],[-71.519561,-33.468585],[-71.519786,-33.468585],[-71.519981,-33.468538],[-71.520075,-33.468429],[-71.520153,-33.468258],[-71.520215,-33.468087],[-71.520293,-33.467814],[-71.52034,-33.467541],[-71.520348,-33.467315],[-71.52034,-33.467019],[-71.520363,-33.466598],[-71.520418,-33.466271],[-71.520511,-33.465975],[-71.520636,-33.465702],[-71.520776,-33.465531],[-71.520948,-33.465383],[-71.52115,-33.465242],[-71.521384,-33.465149],[-71.521555,-33.46511],[-71.52175,-33.46511],[-71.521953,-33.465118],[-71.522186,-33.465196],[-71.522412,-33.465289],[-71.522638,-33.465406],[-71.522958,-33.465562],[-71.523034,-33.465596],[-71.523238,-33.465687],[-71.523511,-33.46571],[-71.523908,-33.465702],[-71.524259,-33.465671],[-71.524657,-33.465601],[-71.524999,-33.465492],[-71.525272,-33.465398],[-71.525576,-33.465289],[-71.525958,-33.465126],[-71.526355,-33.464931],[-71.526924,-33.464658],[-71.527586,-33.464307],[-71.528272,-33.46398],[-71.528724,-33.463715],[-71.529316,-33.463372],[-71.529675,-33.463115],[-71.529908,-33.462913],[-71.53001,-33.46278],[-71.530049,-33.462671],[-71.530072,-33.462554],[-71.530056,-33.462367],[-71.530033,-33.462133],[-71.530017,-33.461822],[-71.530017,-33.461541],[-71.530103,-33.461237],[-71.530212,-33.461004],[-71.530258,-33.460949],[-71.530376,-33.460809],[-71.530547,-33.460637],[-71.530719,-33.460497],[-71.530906,-33.460396],[-71.531163,-33.460271],[-71.531443,-33.460123],[-71.531911,-33.459928],[-71.532316,-33.459726],[-71.532791,-33.459515],[-71.53322,-33.45932],[-71.533742,-33.459087],[-71.534249,-33.458822],[-71.534638,-33.458635],[-71.534903,-33.458518],[-71.535075,-33.458487],[-71.535254,-33.458557],[-71.535355,-33.458619],[-71.535449,-33.458736],[-71.535526,-33.458907],[-71.535542,-33.459063],[-71.535511,-33.459305],[-71.535472,-33.459632],[-71.535425,-33.459998],[-71.535433,-33.460201],[-71.535433,-33.46045],[-71.535503,-33.460559],[-71.535589,-33.460645],[-71.535768,-33.460723],[-71.536056,-33.460754],[-71.536454,-33.46077],[-71.536952,-33.460754],[-71.537234,-33.46075],[-71.537467,-33.460746],[-71.53802,-33.460746],[-71.538316,-33.460739],[-71.538573,-33.460684],[-71.53876,-33.460606],[-71.538947,-33.46045],[-71.539111,-33.460217],[-71.539313,-33.459936],[-71.539454,-33.459726],[-71.539594,-33.459515],[-71.539742,-33.459219],[-71.53996,-33.458798],[-71.540093,-33.458533],[-71.540202,-33.458463],[-71.540381,-33.458409],[-71.540584,-33.458409],[-71.540802,-33.458471],[-71.541082,-33.458526],[-71.541316,-33.458604],[-71.541511,-33.458658],[-71.541846,-33.458736],[-71.542181,-33.458798],[-71.542469,-33.458837],[-71.542765,-33.458837],[-71.5431,-33.458861],[-71.543459,-33.458876],[-71.543903,-33.458837],[-71.544215,-33.45883],[-71.54462,-33.458791],[-71.545025,-33.458736],[-71.545446,-33.458635],[-71.545843,-33.458541],[-71.546139,-33.458463],[-71.54649,-33.458362],[-71.546856,-33.458269],[-71.547207,-33.458167],[-71.547363,-33.458145],[-71.54748,-33.458128],[-71.547838,-33.458113],[-71.548181,-33.458152],[-71.548492,-33.458198],[-71.54882,-33.458253],[-71.549272,-33.458354],[-71.549778,-33.458479],[-71.550285,-33.458572],[-71.550713,-33.458674],[-71.551087,-33.458744],[-71.551422,-33.458775],[-71.551882,-33.458845],[-71.552342,-33.458876],[-71.5527,-33.458892],[-71.553144,-33.458907],[-71.553627,-33.458907],[-71.55422,-33.4589],[-71.554812,-33.458923],[-71.555614,-33.458939],[-71.555932,-33.458944],[-71.556105,-33.458946],[-71.556908,-33.458993],[-71.557461,-33.459017],[-71.557859,-33.459048],[-71.558162,-33.459079],[-71.558381,-33.459118],[-71.558487,-33.459147],[-71.558661,-33.459196],[-71.558895,-33.459243],[-71.559285,-33.459375],[-71.559885,-33.459585],[-71.56057,-33.459835],[-71.56117,-33.460037],[-71.561607,-33.460123],[-71.561895,-33.46017],[-71.56209,-33.46017],[-71.562339,-33.460131],[-71.562542,-33.460107],[-71.562744,-33.460045],[-71.562931,-33.459889],[-71.563258,-33.459687],[-71.563601,-33.459453],[-71.563788,-33.459374],[-71.566436,-33.461093],[-71.571512,-33.459718],[-71.575968,-33.46261],[-71.580133,-33.461481],[-71.580156,-33.461499],[-71.580483,-33.461686],[-71.580563,-33.461737],[-71.580598,-33.46176],[-71.580739,-33.461851],[-71.580812,-33.461898],[-71.581029,-33.462042],[-71.581058,-33.462062],[-71.581071,-33.462089],[-71.581112,-33.462179],[-71.581246,-33.462302],[-71.581247,-33.462303],[-71.581359,-33.462364],[-71.581441,-33.462408],[-71.581519,-33.462424],[-71.581586,-33.462438],[-71.581704,-33.462462],[-71.581819,-33.462525],[-71.581868,-33.462551],[-71.581944,-33.462594],[-71.582095,-33.462679],[-71.582113,-33.46269],[-71.582128,-33.462691],[-71.582203,-33.462698],[-71.582487,-33.462724],[-71.582638,-33.462783],[-71.582731,-33.46282],[-71.582828,-33.462896],[-71.582854,-33.462917],[-71.582934,-33.46298],[-71.583081,-33.462959],[-71.583178,-33.462945],[-71.583238,-33.462936],[-71.583339,-33.4629],[-71.583411,-33.462875],[-71.583467,-33.462855],[-71.583504,-33.462831],[-71.583663,-33.462726],[-71.583704,-33.462699],[-71.583862,-33.462559],[-71.583939,-33.462491],[-71.583994,-33.462438],[-71.584034,-33.462399],[-71.584058,-33.462375],[-71.584196,-33.462241],[-71.584204,-33.462233],[-71.584213,-33.462224],[-71.584335,-33.46203],[-71.584396,-33.461933],[-71.584523,-33.461792],[-71.584659,-33.461641],[-71.584699,-33.461538],[-71.584771,-33.461352],[-71.584801,-33.461289],[-71.584828,-33.461233],[-71.584924,-33.461148],[-71.584945,-33.461129],[-71.584979,-33.461094],[-71.584998,-33.461075],[-71.585021,-33.461052],[-71.585032,-33.46104],[-71.585063,-33.461008],[-71.585066,-33.461001],[-71.585074,-33.460985],[-71.585102,-33.460929],[-71.585117,-33.4609],[-71.585148,-33.460838],[-71.585231,-33.460732],[-71.585235,-33.460727],[-71.585245,-33.460715],[-71.585352,-33.460581],[-71.585465,-33.46054],[-71.585501,-33.460527],[-71.58558,-33.460466],[-71.585657,-33.460355],[-71.58579,-33.460322],[-71.585854,-33.460305],[-71.585872,-33.460301],[-71.585877,-33.4603],[-71.586158,-33.460294],[-71.586247,-33.460335],[-71.586281,-33.46035],[-71.586294,-33.460366],[-71.586354,-33.460433],[-71.586364,-33.460462],[-71.586387,-33.460525],[-71.5866,-33.46058],[-71.586758,-33.460623],[-71.587005,-33.46069],[-71.587006,-33.46069],[-71.5873,-33.460776],[-71.587646,-33.460895],[-71.587726,-33.460902],[-71.587743,-33.460904],[-71.587807,-33.460909],[-71.587919,-33.460884],[-71.588057,-33.460853],[-71.588288,-33.460848],[-71.588343,-33.460856],[-71.58849,-33.460878],[-71.588729,-33.460858],[-71.588761,-33.460855],[-71.588885,-33.460881],[-71.589096,-33.460924],[-71.58921,-33.460947],[-71.589246,-33.460954],[-71.589288,-33.460962],[-71.589312,-33.460964],[-71.589329,-33.460965],[-71.589355,-33.460967],[-71.589671,-33.460988],[-71.589975,-33.46103],[-71.590045,-33.461039],[-71.590071,-33.461057],[-71.590121,-33.461091],[-71.590178,-33.461129],[-71.590256,-33.461184],[-71.590307,-33.461219],[-71.590343,-33.461245],[-71.590435,-33.46131],[-71.590561,-33.461355],[-71.590768,-33.46143],[-71.590832,-33.461453],[-71.591094,-33.461491],[-71.591287,-33.46152],[-71.591659,-33.461512],[-71.591816,-33.461477],[-71.592039,-33.461428],[-71.592281,-33.461324],[-71.592347,-33.461295],[-71.592705,-33.461152],[-71.592945,-33.461083],[-71.593174,-33.461016],[-71.593344,-33.460963],[-71.593493,-33.460917],[-71.593659,-33.460844],[-71.59392,-33.460731],[-71.593984,-33.460706],[-71.594179,-33.460632],[-71.594202,-33.460612],[-71.594227,-33.460591],[-71.594248,-33.460572],[-71.594252,-33.460568],[-71.594326,-33.460503],[-71.594362,-33.460342],[-71.594358,-33.460232],[-71.594359,-33.460226],[-71.594359,-33.460192],[-71.594363,-33.460055],[-71.594351,-33.459642],[-71.594387,-33.459557],[-71.594426,-33.459463],[-71.594451,-33.459277],[-71.594461,-33.459171],[-71.594474,-33.459032],[-71.594479,-33.459013],[-71.594491,-33.458967],[-71.594501,-33.45893],[-71.594522,-33.458888],[-71.594539,-33.458853],[-71.594565,-33.458726],[-71.59456,-33.458541],[-71.594502,-33.458306],[-71.5945,-33.458271],[-71.594481,-33.457927],[-71.594455,-33.457748],[-71.594435,-33.457605],[-71.59443,-33.457574],[-71.59443,-33.457573],[-71.59443,-33.457568],[-71.594433,-33.457413],[-71.594434,-33.457392],[-71.594434,-33.457371],[-71.594511,-33.457251],[-71.594518,-33.457231],[-71.594548,-33.457149],[-71.594651,-33.457073],[-71.594676,-33.457054],[-71.594763,-33.456926],[-71.594777,-33.456904],[-71.59484,-33.456806],[-71.594908,-33.456729],[-71.594967,-33.456711],[-71.595058,-33.456683],[-71.595146,-33.456614],[-71.595198,-33.456551],[-71.595253,-33.456485],[-71.59534,-33.45642],[-71.595381,-33.45639],[-71.5955,-33.456345],[-71.595702,-33.456341],[-71.595762,-33.456363],[-71.595874,-33.456405],[-71.595914,-33.456519],[-71.595918,-33.456529],[-71.59593,-33.456564],[-71.596093,-33.456701],[-71.596136,-33.456737],[-71.596243,-33.456803],[-71.596311,-33.456845],[-71.596321,-33.456851],[-71.596634,-33.456895],[-71.596659,-33.456904],[-71.596729,-33.45693],[-71.596777,-33.456948],[-71.596807,-33.456959],[-71.596879,-33.456947],[-71.596937,-33.456938],[-71.597117,-33.45691],[-71.597387,-33.456854],[-71.597557,-33.4568],[-71.597564,-33.456797],[-71.597646,-33.456764],[-71.597735,-33.456733],[-71.597776,-33.456719],[-71.597853,-33.45669],[-71.597965,-33.456648],[-71.598139,-33.45654],[-71.598162,-33.456525],[-71.598181,-33.45651],[-71.5983,-33.456413],[-71.598438,-33.456334],[-71.598546,-33.456222],[-71.598616,-33.45612],[-71.598681,-33.456025],[-71.598719,-33.455957],[-71.598864,-33.455751],[-71.598977,-33.455689],[-71.599072,-33.455637],[-71.599259,-33.455507],[-71.599281,-33.455472],[-71.599317,-33.455413],[-71.599411,-33.4553],[-71.599424,-33.455284],[-71.599523,-33.455219],[-71.599627,-33.455151],[-71.599651,-33.455136],[-71.599785,-33.455062],[-71.59984,-33.455031],[-71.599851,-33.455025],[-71.599873,-33.455013],[-71.599888,-33.455005],[-71.59994,-33.454983],[-71.600072,-33.454929],[-71.600105,-33.454915],[-71.600108,-33.454914],[-71.600147,-33.454898],[-71.600198,-33.454862],[-71.600334,-33.454768],[-71.600386,-33.454722],[-71.60051,-33.454612],[-71.600625,-33.454511],[-71.600659,-33.454481],[-71.600687,-33.454456],[-71.600731,-33.454399],[-71.60074,-33.454387],[-71.60075,-33.454375],[-71.600763,-33.454358],[-71.600832,-33.454268],[-71.600891,-33.454211],[-71.600899,-33.454204],[-71.601057,-33.454052],[-71.601233,-33.453871],[-71.601361,-33.453797],[-71.601485,-33.453725],[-71.60152,-33.453705],[-71.601541,-33.45368],[-71.601617,-33.45359],[-71.601666,-33.453533],[-71.601774,-33.453461],[-71.601823,-33.453429],[-71.601864,-33.453401],[-71.601901,-33.453375],[-71.601961,-33.453333],[-71.602085,-33.453231],[-71.60211,-33.45321],[-71.602128,-33.453195],[-71.602226,-33.453108],[-71.602247,-33.453104],[-71.602344,-33.453083],[-71.602356,-33.45308],[-71.602498,-33.453094],[-71.602505,-33.453098],[-71.602559,-33.453126],[-71.602653,-33.453234],[-71.602682,-33.453242],[-71.602685,-33.453243],[-71.602764,-33.453266],[-71.602835,-33.453277],[-71.60289,-33.453286],[-71.60292,-33.453291],[-71.603037,-33.45331],[-71.603186,-33.453344],[-71.603341,-33.45338],[-71.60349,-33.453404],[-71.603523,-33.45341],[-71.603594,-33.453405],[-71.603653,-33.453401],[-71.603714,-33.453397],[-71.603727,-33.453396],[-71.603739,-33.453394],[-71.603856,-33.453378],[-71.603995,-33.453358],[-71.604045,-33.453352],[-71.604078,-33.453348],[-71.604212,-33.453332],[-71.604256,-33.453327],[-71.60442,-33.45333],[-71.604477,-33.453331],[-71.604646,-33.453268],[-71.6047,-33.453248],[-71.604715,-33.453243],[-71.604716,-33.453242],[-71.60474,-33.453233],[-71.604766,-33.453224],[-71.604891,-33.453233],[-71.604999,-33.453242],[-71.605018,-33.453244],[-71.60503,-33.453245],[-71.605134,-33.45326],[-71.60522,-33.453273],[-71.605248,-33.453269],[-71.605254,-33.453268],[-71.605259,-33.453268],[-71.605271,-33.453266],[-71.605288,-33.453263],[-71.605317,-33.453259],[-71.605377,-33.453251],[-71.60543,-33.453243],[-71.605687,-33.453205],[-71.60574,-33.453197],[-71.605789,-33.453189],[-71.605821,-33.453184],[-71.60586,-33.453176],[-71.605954,-33.453156],[-71.606041,-33.453138],[-71.606159,-33.453078],[-71.606249,-33.453032],[-71.606323,-33.452977],[-71.606403,-33.452917],[-71.606416,-33.452907],[-71.606435,-33.452893],[-71.606446,-33.452885],[-71.606577,-33.45278],[-71.606643,-33.452729],[-71.606704,-33.452678],[-71.606778,-33.452618],[-71.60678,-33.452616],[-71.606781,-33.452615],[-71.60689,-33.452535],[-71.606957,-33.452486],[-71.606989,-33.452443],[-71.607012,-33.452413],[-71.607056,-33.452354],[-71.607093,-33.452306],[-71.607097,-33.452299],[-71.607163,-33.452192],[-71.607199,-33.452135],[-71.607296,-33.452049],[-71.607331,-33.452018],[-71.607365,-33.451988],[-71.607383,-33.451973],[-71.607393,-33.451965],[-71.607451,-33.451916],[-71.607581,-33.451806],[-71.60763,-33.451741],[-71.607665,-33.451694],[-71.607717,-33.451626],[-71.60774,-33.451605],[-71.607997,-33.451371],[-71.608001,-33.451367],[-71.608029,-33.451342],[-71.608122,-33.45126],[-71.608153,-33.451233],[-71.608179,-33.45121],[-71.608387,-33.451026],[-71.608399,-33.451016],[-71.608405,-33.451011],[-71.608426,-33.450992],[-71.608471,-33.450952],[-71.6085,-33.450935],[-71.60852,-33.450922],[-71.608722,-33.450795],[-71.608861,-33.450707],[-71.608898,-33.450684],[-71.608933,-33.450662],[-71.608985,-33.45063],[-71.60924,-33.45043],[-71.609353,-33.450355],[-71.609378,-33.450338],[-71.609464,-33.45028],[-71.609527,-33.450239],[-71.60965,-33.450191],[-71.609722,-33.450164],[-71.610064,-33.450033],[-71.610088,-33.450023],[-71.610695,-33.449763],[-71.610793,-33.449721],[-71.610798,-33.449718],[-71.610809,-33.449714],[-71.611528,-33.449408],[-71.611643,-33.449359],[-71.611657,-33.449353],[-71.611821,-33.44928],[-71.611947,-33.449224],[-71.611961,-33.449217],[-71.612001,-33.4492],[-71.612055,-33.449175],[-71.612279,-33.449076],[-71.612413,-33.449021],[-71.61259,-33.448949],[-71.612716,-33.448898],[-71.612751,-33.448884],[-71.61276,-33.44888],[-71.61277,-33.448876],[-71.612985,-33.448791],[-71.613013,-33.448789],[-71.613047,-33.448787],[-71.6131,-33.448784],[-71.613128,-33.448783],[-71.613177,-33.44878],[-71.613236,-33.448777],[-71.613279,-33.448766],[-71.613397,-33.448738],[-71.613426,-33.448731],[-71.613466,-33.448709],[-71.613513,-33.448683],[-71.613535,-33.448671],[-71.613672,-33.448595],[-71.613697,-33.448582],[-71.613713,-33.448573],[-71.613841,-33.448465],[-71.613939,-33.448383],[-71.614114,-33.448202],[-71.614167,-33.448157],[-71.614176,-33.44815],[-71.61433,-33.44802],[-71.614388,-33.44796],[-71.614506,-33.447839],[-71.614584,-33.447706],[-71.614688,-33.447532],[-71.614724,-33.447473],[-71.614776,-33.447435],[-71.614876,-33.447363],[-71.615959,-33.446704],[-71.61596,-33.446704],[-71.616247,-33.446529],[-71.616252,-33.446525],[-71.616789,-33.446146],[-71.616888,-33.445947],[-71.616906,-33.44591],[-71.61699,-33.445739],[-71.617004,-33.445707],[-71.617184,-33.445289],[-71.617189,-33.445227],[-71.617209,-33.444998],[-71.617209,-33.444997],[-71.617162,-33.444914],[-71.617131,-33.444858],[-71.617029,-33.444674],[-71.617023,-33.444663],[-71.616984,-33.444593],[-71.616664,-33.444306],[-71.616653,-33.444295],[-71.616632,-33.444277],[-71.61646,-33.444041],[-71.61638,-33.443937],[-71.61624,-33.443758],[-71.61599,-33.443348],[-71.61599,-33.443347],[-71.615984,-33.443309],[-71.615922,-33.442924],[-71.615897,-33.442822],[-71.615877,-33.442751],[-71.615843,-33.442637],[-71.615845,-33.44239],[-71.615845,-33.442256],[-71.615896,-33.442141],[-71.615932,-33.442057],[-71.616007,-33.441885],[-71.61782,-33.44306],[-71.6172,-33.447329],[-71.621657,-33.45022],[-71.621037,-33.454489],[-71.61596,-33.455867],[-71.61534,-33.460135],[-71.619798,-33.463025],[-71.619178,-33.467293],[-71.623636,-33.470183],[-71.623016,-33.474451],[-71.617938,-33.475828],[-71.617318,-33.480094],[-71.612241,-33.481471],[-71.611621,-33.485737],[-71.606543,-33.487113],[-71.605923,-33.491379],[-71.600846,-33.492754],[-71.596388,-33.489864],[-71.591311,-33.491239],[-71.590691,-33.495504],[-71.585614,-33.496879],[-71.584994,-33.501144],[-71.579917,-33.502518],[-71.579296,-33.506782],[-71.583753,-33.509672],[-71.583132,-33.513936],[-71.578055,-33.51531],[-71.577435,-33.519573],[-71.581892,-33.522463],[-71.581872,-33.522595],[-71.581483,-33.522541],[-71.58096,-33.52251],[-71.580871,-33.522507],[-71.580728,-33.522921],[-71.580529,-33.523335],[-71.580472,-33.523454],[-71.580242,-33.523932],[-71.580174,-33.524075],[-71.580116,-33.524194],[-71.580063,-33.524305],[-71.580053,-33.524325],[-71.579999,-33.524438],[-71.579798,-33.524942],[-71.579734,-33.525105],[-71.579464,-33.525784],[-71.57942,-33.525896],[-71.579346,-33.526083],[-71.579233,-33.526422],[-71.579119,-33.526763],[-71.578912,-33.527236],[-71.578869,-33.527333],[-71.578848,-33.527382],[-71.576194,-33.528099],[-71.575713,-33.531403],[-71.575532,-33.531335],[-71.575089,-33.531207],[-71.574641,-33.531086],[-71.573972,-33.530899],[-71.573727,-33.530838],[-71.572023,-33.530417],[-71.571815,-33.530366],[-71.570933,-33.530148],[-71.570892,-33.530138],[-71.57043,-33.530019],[-71.570156,-33.529947],[-71.570078,-33.529919],[-71.569852,-33.529835],[-71.569462,-33.529608],[-71.568997,-33.529312],[-71.568793,-33.529188],[-71.568645,-33.529098],[-71.568318,-33.528901],[-71.567935,-33.528673],[-71.567659,-33.52851],[-71.56707,-33.528132],[-71.566689,-33.527884],[-71.566564,-33.527803],[-71.566489,-33.527755],[-71.566488,-33.527754],[-71.566439,-33.527729],[-71.566412,-33.527715],[-71.566217,-33.527613],[-71.5662,-33.527605],[-71.566185,-33.527596],[-71.566166,-33.527586],[-71.565835,-33.527407],[-71.565404,-33.527174],[-71.565288,-33.52711],[-71.565073,-33.526991],[-71.564772,-33.526798],[-71.564724,-33.526768],[-71.564582,-33.526669],[-71.56447,-33.526591],[-71.564368,-33.526524],[-71.564271,-33.52646],[-71.564028,-33.526339],[-71.563247,-33.526028],[-71.562845,-33.525873],[-71.562606,-33.525769],[-71.562425,-33.525694],[-71.56214,-33.525624],[-71.561866,-33.525557],[-71.561751,-33.525545],[-71.561563,-33.525525],[-71.561086,-33.525475],[-71.560888,-33.525454],[-71.560551,-33.525419],[-71.560521,-33.525416],[-71.560103,-33.525376],[-71.559977,-33.525379],[-71.559013,-33.525499],[-71.558978,-33.525503],[-71.558799,-33.525513],[-71.55877,-33.525515],[-71.558721,-33.525514],[-71.558499,-33.525509],[-71.558195,-33.525497],[-71.558153,-33.525504],[-71.558097,-33.525512],[-71.557882,-33.525546],[-71.557734,-33.525581],[-71.557607,-33.525611],[-71.55745,-33.525697],[-71.557308,-33.525774],[-71.557099,-33.525936],[-71.557017,-33.526054],[-71.556974,-33.526109],[-71.556929,-33.526167],[-71.556854,-33.526283],[-71.55673,-33.526505],[-71.556644,-33.526625],[-71.556513,-33.526777],[-71.556389,-33.526863],[-71.556385,-33.526864],[-71.556275,-33.526905],[-71.556097,-33.52693],[-71.55593,-33.526934],[-71.555758,-33.526913],[-71.555545,-33.526884],[-71.55533,-33.526854],[-71.555134,-33.526788],[-71.555016,-33.526711],[-71.554822,-33.526531],[-71.554689,-33.526345],[-71.554539,-33.526142],[-71.554343,-33.525846],[-71.554197,-33.525608],[-71.554126,-33.525444],[-71.553992,-33.525133],[-71.553816,-33.524709],[-71.553757,-33.524565],[-71.553689,-33.524395],[-71.553681,-33.524377],[-71.55356,-33.524093],[-71.55346,-33.523902],[-71.553414,-33.523766],[-71.553384,-33.523648],[-71.553367,-33.523521],[-71.553364,-33.523495],[-71.553364,-33.523484],[-71.553364,-33.523313],[-71.553364,-33.523308],[-71.553374,-33.523188],[-71.553375,-33.523174],[-71.55338,-33.52299],[-71.553392,-33.522901],[-71.553401,-33.522832],[-71.553405,-33.522803],[-71.553414,-33.522656],[-71.553417,-33.522616],[-71.553415,-33.522543],[-71.553413,-33.52248],[-71.553398,-33.522335],[-71.55338,-33.522272],[-71.553365,-33.522224],[-71.553363,-33.522217],[-71.55336,-33.522204],[-71.553346,-33.522156],[-71.553311,-33.522064],[-71.553269,-33.521953],[-71.553234,-33.521857],[-71.553221,-33.521823],[-71.55322,-33.521821],[-71.553216,-33.521811],[-71.553198,-33.521762],[-71.553192,-33.521746],[-71.553175,-33.521712],[-71.55313,-33.521618],[-71.553123,-33.521606],[-71.553123,-33.521605],[-71.553112,-33.521582],[-71.553103,-33.521564],[-71.5531,-33.521557],[-71.553069,-33.521494],[-71.552908,-33.521193],[-71.552853,-33.521108],[-71.552831,-33.521073],[-71.553225,-33.518365],[-71.553264,-33.518231],[-71.553267,-33.518221],[-71.553274,-33.518201],[-71.553391,-33.517884],[-71.553392,-33.517881],[-71.553427,-33.517786],[-71.553491,-33.517611],[-71.553542,-33.517473],[-71.553742,-33.516931],[-71.553757,-33.51689],[-71.553949,-33.516367],[-71.553985,-33.516228],[-71.554109,-33.51575],[-71.554139,-33.515636],[-71.554163,-33.515541],[-71.55418,-33.515478],[-71.554222,-33.515313],[-71.554223,-33.515312],[-71.554264,-33.515154],[-71.55431,-33.514976],[-71.55436,-33.514784],[-71.553725,-33.514867],[-71.553635,-33.514879],[-71.552708,-33.515001],[-71.552066,-33.515086],[-71.551825,-33.515106],[-71.551732,-33.515114],[-71.551481,-33.515135],[-71.550632,-33.515207],[-71.550613,-33.515209],[-71.550439,-33.515223],[-71.550275,-33.515237],[-71.549347,-33.515313],[-71.549295,-33.515318],[-71.548836,-33.51502],[-71.549457,-33.510757],[-71.545001,-33.507866],[-71.539925,-33.509238],[-71.535471,-33.506346],[-71.536092,-33.502083],[-71.531637,-33.499191],[-71.532258,-33.494927],[-71.537334,-33.493555],[-71.537954,-33.48929],[-71.54303,-33.487918],[-71.543651,-33.483653],[-71.539196,-33.480761],[-71.539817,-33.476496],[-71.535363,-33.473603],[-71.530288,-33.474976],[-71.529667,-33.479241],[-71.524592,-33.480614],[-71.523971,-33.484878],[-71.528425,-33.487771],[-71.527804,-33.492035],[-71.522728,-33.493407],[-71.522107,-33.497671],[-71.526561,-33.500563],[-71.52594,-33.504826],[-71.530395,-33.507718],[-71.529774,-33.511981],[-71.524698,-33.513352],[-71.52447,-33.514915],[-71.524437,-33.514905],[-71.524421,-33.5149],[-71.524313,-33.514798],[-71.52429,-33.514776],[-71.524225,-33.514714],[-71.524109,-33.514604],[-71.523935,-33.514559],[-71.523791,-33.514562],[-71.523633,-33.514602],[-71.523533,-33.514645],[-71.523433,-33.514688],[-71.523417,-33.514697],[-71.523261,-33.514779],[-71.522597,-33.515228],[-71.522592,-33.51523],[-71.52255,-33.515248],[-71.522529,-33.515258],[-71.522441,-33.515297],[-71.522283,-33.515367],[-71.522207,-33.515429],[-71.52208,-33.515533],[-71.522003,-33.515651],[-71.521978,-33.515694],[-71.521851,-33.51592],[-71.521841,-33.515946],[-71.521839,-33.515953],[-71.521778,-33.516106],[-71.521767,-33.516132],[-71.521715,-33.516259],[-71.521684,-33.516333],[-71.521663,-33.516384],[-71.521544,-33.516532],[-71.521426,-33.516679],[-71.521394,-33.516704],[-71.52119,-33.516865],[-71.521016,-33.517002],[-71.521016,-33.517002],[-71.520503,-33.517218],[-71.52023,-33.517367],[-71.520211,-33.517378],[-71.520195,-33.517386],[-71.520179,-33.517395],[-71.51999,-33.517497],[-71.519948,-33.51752],[-71.519678,-33.517707],[-71.519612,-33.517751],[-71.519452,-33.517856],[-71.51934,-33.517955],[-71.519121,-33.518103],[-71.519099,-33.518118],[-71.518975,-33.518215],[-71.51897,-33.518219],[-71.518789,-33.518378],[-71.518789,-33.518378],[-71.518735,-33.518437],[-71.518607,-33.518575],[-71.5185,-33.51866],[-71.514547,-33.516094],[-71.51445,-33.51612],[-71.51406,-33.515087],[-71.513627,-33.513939],[-71.512969,-33.512197],[-71.512968,-33.512194],[-71.512647,-33.511518],[-71.512361,-33.510913],[-71.512184,-33.51054],[-71.512107,-33.510378],[-71.511899,-33.50994],[-71.511868,-33.509874]],[[-71.600109,-33.464265],[-71.595033,-33.465641],[-71.594412,-33.469908],[-71.598869,-33.472799],[-71.603946,-33.471423],[-71.604566,-33.467156],[-71.600109,-33.464265]]]},"properties":{"comuna":"El Tabo","mancha_id":"05605-88b2c09909fffff-2","clase":"Medio","nivel_medio":2.164,"nivel_medio_min":1.517,"nivel_medio_max":2.48,"pct_alto":21.6,"n_hexagonos":96,"area_ha":5329.55}},{"type":"Feature","geometry":{"type":"Polygon","coordinates":[[[-71.646603,-33.433609],[-71.646618,-33.433708],[-71.646005,-33.433311],[-71.646015,-33.433311],[-71.646233,-33.433345],[-71.646504,-33.433454],[-71.646603,-33.433609]]]},"properties":{"comuna":"El Tabo","mancha_id":"05605-88b2c46d4bfffff","clase":"Alto","nivel_medio":3.026,"nivel_medio_min":3.026,"nivel_medio_max":3.026,"pct_alto":100.0,"n_hexagonos":1,"area_ha":0.07}},{"type":"Feature","geometry":{"type":"Polygon","coordinates":[[[-71.661039,-33.447728],[-71.661659,-33.443459],[-71.665298,-33.44247],[-71.665583,-33.442514],[-71.666845,-33.44272],[-71.667814,-33.442866],[-71.668045,-33.442926],[-71.671196,-33.444968],[-71.670577,-33.449238],[-71.665499,-33.450618],[-71.661039,-33.447728]]]},"properties":{"comuna":"El Tabo","mancha_id":"05605-88b2c46d0dfffff","clase":"Alto","nivel_medio":3.006,"nivel_medio_min":3.006,"nivel_medio_max":3.006,"pct_alto":75.8,"n_hexagonos":1,"area_ha":63.57}},{"type":"Feature","geometry":{"type":"Polygon","coordinates":[[[-71.594412,-33.469908],[-71.595033,-33.465641],[-71.600109,-33.464265],[-71.604566,-33.467156],[-71.603946,-33.471423],[-71.598869,-33.472799],[-71.594412,-33.469908]]]},"properties":{"comuna":"El Tabo","mancha_id":"05605-88b2c46c37fffff","clase":"Alto","nivel_medio":2.511,"nivel_medio_min":2.511,"nivel_medio_max":2.511,"pct_alto":63.1,"n_hexagonos":1,"area_ha":64.37}},{"type":"Feature","geometry":{"type":"Polygon","coordinates":[[[-71.621037,-33.454489],[-71.621657,-33.45022],[-71.6172,-33.447329],[-71.61782,-33.44306],[-71.616007,-33.441885],[-71.616031,-33.44183],[-71.616048,-33.441793],[-71.616068,-33.441747],[-71.616191,-33.441633],[-71.616235,-33.441592],[-71.616318,-33.441515],[-71.616358,-33.441486],[-71.616476,-33.441398],[-71.616478,-33.441397],[-71.616641,-33.441276],[-71.617216,-33.440865],[-71.617804,-33.440432],[-71.618048,-33.440323],[-71.618311,-33.440296],[-71.618637,-33.440368],[-71.618885,-33.440526],[-71.619336,-33.440887],[-71.619788,-33.441158],[-71.620284,-33.441316],[-71.620667,-33.441384],[-71.621028,-33.441361],[-71.621412,-33.441316],[-71.62175,-33.441136],[-71.621998,-33.440887],[-71.62222,-33.440603],[-71.622337,-33.440332],[-71.622346,-33.440015],[-71.622238,-33.43969],[-71.622089,-33.439421],[-71.621773,-33.438834],[-71.621592,-33.438338],[-71.621547,-33.437909],[-71.621592,-33.437413],[-71.621795,-33.437052],[-71.62218,-33.436546],[-71.622224,-33.436488],[-71.622766,-33.435879],[-71.623149,-33.435405],[-71.623623,-33.434661],[-71.624029,-33.434232],[-71.624435,-33.433939],[-71.625044,-33.433623],[-71.625766,-33.433284],[-71.62624,-33.433014],[-71.626578,-33.432653],[-71.626939,-33.432292],[-71.627278,-33.431863],[-71.627436,-33.431525],[-71.627503,-33.431119],[-71.627548,-33.430684],[-71.629213,-33.431764],[-71.633224,-33.430675],[-71.633473,-33.431017],[-71.633689,-33.431252],[-71.633906,-33.43145],[-71.634285,-33.431703],[-71.635025,-33.432208],[-71.635693,-33.432587],[-71.636036,-33.43275],[-71.636559,-33.432948],[-71.637263,-33.433219],[-71.637718,-33.43341],[-71.637899,-33.433555],[-71.638008,-33.433718],[-71.637981,-33.433953],[-71.637822,-33.434302],[-71.637822,-33.434627],[-71.637931,-33.434825],[-71.638183,-33.434952],[-71.63849,-33.434952],[-71.638505,-33.434947],[-71.638128,-33.437546],[-71.642586,-33.440437],[-71.646623,-33.43934],[-71.646567,-33.439699],[-71.646522,-33.440077],[-71.64672,-33.440456],[-71.647009,-33.440691],[-71.647352,-33.440817],[-71.647893,-33.440817],[-71.648471,-33.440673],[-71.648994,-33.440493],[-71.649406,-33.440187],[-71.652122,-33.441948],[-71.651503,-33.446218],[-71.646425,-33.447597],[-71.641967,-33.444707],[-71.636889,-33.446086],[-71.636269,-33.450355],[-71.631192,-33.451733],[-71.630572,-33.456002],[-71.625495,-33.45738],[-71.624875,-33.461648],[-71.629333,-33.464538],[-71.634411,-33.46316],[-71.638869,-33.466051],[-71.638249,-33.470318],[-71.633171,-33.471696],[-71.632552,-33.475964],[-71.627474,-33.477341],[-71.626854,-33.481608],[-71.621776,-33.482984],[-71.621156,-33.487251],[-71.616078,-33.488627],[-71.615458,-33.492893],[-71.619916,-33.495783],[-71.619296,-33.500048],[-71.614218,-33.501424],[-71.609761,-33.498534],[-71.610381,-33.494269],[-71.605923,-33.491379],[-71.606543,-33.487113],[-71.611621,-33.485737],[-71.612241,-33.481471],[-71.617318,-33.480094],[-71.617938,-33.475828],[-71.623016,-33.474451],[-71.623636,-33.470183],[-71.619178,-33.467293],[-71.619798,-33.463025],[-71.61534,-33.460135],[-71.61596,-33.455867],[-71.621037,-33.454489]]]},"properties":{"comuna":"El Tabo","mancha_id":"05605-88b2c46c25fffff","clase":"Alto","nivel_medio":2.799,"nivel_medio_min":2.514,"nivel_medio_max":3.385,"pct_alto":76.9,"n_hexagonos":17,"area_ha":995.39}},{"type":"Feature","geometry":{"type":"Polygon","coordinates":[[[-71.571512,-33.459718],[-71.566436,-33.461093],[-71.563788,-33.459374],[-71.563933,-33.459312],[-71.564246,-33.459227],[-71.564829,-33.459109],[-71.565215,-33.459033],[-71.565458,-33.458985],[-71.565689,-33.45894],[-71.565792,-33.458917],[-71.565989,-33.458874],[-71.56631,-33.45884],[-71.56638,-33.458833],[-71.56653,-33.458827],[-71.566731,-33.458819],[-71.566873,-33.458814],[-71.566977,-33.458829],[-71.567019,-33.458835],[-71.567328,-33.45888],[-71.567461,-33.458921],[-71.56764,-33.458976],[-71.567645,-33.458978],[-71.567663,-33.458983],[-71.567967,-33.459044],[-71.568017,-33.459048],[-71.568073,-33.459053],[-71.56831,-33.459071],[-71.568463,-33.45911],[-71.568614,-33.459149],[-71.568941,-33.459223],[-71.568971,-33.45923],[-71.568972,-33.45923],[-71.568989,-33.459234],[-71.569026,-33.459231],[-71.569038,-33.45923],[-71.56923,-33.459212],[-71.569436,-33.459162],[-71.569459,-33.459157],[-71.569649,-33.459102],[-71.569956,-33.459045],[-71.570059,-33.459026],[-71.570216,-33.458991],[-71.570274,-33.458978],[-71.570289,-33.458975],[-71.570349,-33.458961],[-71.570438,-33.458924],[-71.570482,-33.458905],[-71.570538,-33.458881],[-71.570642,-33.458815],[-71.570716,-33.458768],[-71.570773,-33.458744],[-71.570905,-33.458688],[-71.571031,-33.458627],[-71.571123,-33.458582],[-71.571183,-33.458554],[-71.571312,-33.458494],[-71.571599,-33.458416],[-71.571678,-33.458394],[-71.571706,-33.458387],[-71.571722,-33.458382],[-71.571781,-33.458366],[-71.572021,-33.458291],[-71.572299,-33.458204],[-71.5728,-33.458117],[-71.572986,-33.458108],[-71.573091,-33.458103],[-71.573187,-33.458077],[-71.573361,-33.45803],[-71.57351,-33.458024],[-71.573719,-33.458016],[-71.573864,-33.458011],[-71.574005,-33.458063],[-71.574189,-33.458131],[-71.574466,-33.458302],[-71.574508,-33.458366],[-71.574541,-33.458415],[-71.574582,-33.458477],[-71.57466,-33.458728],[-71.574713,-33.458806],[-71.574901,-33.459078],[-71.574932,-33.459113],[-71.575038,-33.459238],[-71.575058,-33.459261],[-71.575099,-33.45931],[-71.575233,-33.459391],[-71.575372,-33.459486],[-71.575448,-33.459539],[-71.57557,-33.45957],[-71.575874,-33.459648],[-71.576412,-33.459797],[-71.577013,-33.460037],[-71.577298,-33.46015],[-71.577518,-33.460238],[-71.577695,-33.46031],[-71.578308,-33.460626],[-71.578518,-33.460737],[-71.578615,-33.460789],[-71.578867,-33.460942],[-71.578869,-33.460944],[-71.578923,-33.460976],[-71.579022,-33.461015],[-71.579147,-33.461064],[-71.579201,-33.461065],[-71.579489,-33.461066],[-71.57956,-33.461097],[-71.579652,-33.461138],[-71.579793,-33.461206],[-71.579887,-33.461251],[-71.579955,-33.461321],[-71.580032,-33.4614],[-71.580082,-33.46144],[-71.580126,-33.461475],[-71.580133,-33.461481],[-71.575968,-33.46261],[-71.571512,-33.459718]]]},"properties":{"comuna":"El Tabo","mancha_id":"05605-88b2c46c13fffff","clase":"Alto","nivel_medio":2.605,"nivel_medio_min":2.524,"nivel_medio_max":2.742,"pct_alto":60.5,"n_hexagonos":2,"area_ha":29.54}},{"type":"Feature","geometry":{"type":"Polygon","coordinates":[[[-71.553041,-33.519001],[-71.553075,-33.518885],[-71.553225,-33.518365],[-71.552831,-33.521073],[-71.552812,-33.521043],[-71.55277,-33.520978],[-71.552689,-33.520894],[-71.552553,-33.520806],[-71.552549,-33.520803],[-71.552523,-33.520794],[-71.553041,-33.519001]]]},"properties":{"comuna":"El Tabo","mancha_id":"05605-88b2c0d65bfffff","clase":"Alto","nivel_medio":2.954,"nivel_medio_min":2.954,"nivel_medio_max":2.954,"pct_alto":72.9,"n_hexagonos":1,"area_ha":0.48}},{"type":"Feature","geometry":{"type":"Polygon","coordinates":[[[-71.582106,-33.522628],[-71.581872,-33.522595],[-71.581892,-33.522463],[-71.577435,-33.519573],[-71.578055,-33.51531],[-71.583132,-33.513936],[-71.583753,-33.509672],[-71.579296,-33.506782],[-71.579917,-33.502518],[-71.584994,-33.501144],[-71.585614,-33.496879],[-71.590691,-33.495504],[-71.591311,-33.491239],[-71.596388,-33.489864],[-71.600846,-33.492754],[-71.600225,-33.49702],[-71.604683,-33.49991],[-71.604063,-33.504175],[-71.598985,-33.50555],[-71.598365,-33.509814],[-71.593287,-33.511188],[-71.592667,-33.515452],[-71.587589,-33.516826],[-71.586969,-33.52109],[-71.588732,-33.522233],[-71.588545,-33.522219],[-71.588348,-33.522214],[-71.588122,-33.522121],[-71.588072,-33.522082],[-71.588024,-33.52203],[-71.587979,-33.521981],[-71.587891,-33.521881],[-71.587808,-33.521775],[-71.587709,-33.521688],[-71.587573,-33.521584],[-71.587509,-33.521567],[-71.58746,-33.521537],[-71.587405,-33.521485],[-71.587318,-33.521424],[-71.587243,-33.521403],[-71.587204,-33.521388],[-71.587146,-33.521365],[-71.587009,-33.521327],[-71.586953,-33.521312],[-71.586877,-33.521286],[-71.58677,-33.521262],[-71.586651,-33.521211],[-71.586621,-33.521184],[-71.586597,-33.521163],[-71.586558,-33.521114],[-71.586506,-33.520986],[-71.586457,-33.520938],[-71.586333,-33.5209],[-71.586259,-33.520902],[-71.586253,-33.520902],[-71.586141,-33.520909],[-71.586024,-33.520918],[-71.586044,-33.52097],[-71.586026,-33.521042],[-71.586007,-33.521064],[-71.585935,-33.521107],[-71.585778,-33.521245],[-71.585671,-33.521414],[-71.585629,-33.521452],[-71.585465,-33.521605],[-71.585424,-33.521689],[-71.585337,-33.521868],[-71.585337,-33.521868],[-71.585204,-33.521985],[-71.584667,-33.522134],[-71.584636,-33.522143],[-71.58422,-33.522276],[-71.583862,-33.522377],[-71.583545,-33.52256],[-71.583545,-33.52256],[-71.583248,-33.522619],[-71.582518,-33.522686],[-71.582315,-33.522657],[-71.582106,-33.522628]]]},"properties":{"comuna":"El Tabo","mancha_id":"05605-88b2c0d60dfffff","clase":"Alto","nivel_medio":2.891,"nivel_medio_min":2.589,"nivel_medio_max":3.306,"pct_alto":77.8,"n_hexagonos":8,"area_ha":451.75}},{"type":"Feature","geometry":{"type":"Polygon","coordinates":[[[-71.575713,-33.531403],[-71.576194,-33.528099],[-71.578848,-33.527382],[-71.578138,-33.528996],[-71.577871,-33.529577],[-71.577431,-33.530517],[-71.576803,-33.531856],[-71.576159,-33.53158],[-71.575832,-33.531447],[-71.575713,-33.531403]]]},"properties":{"comuna":"El Tabo","mancha_id":"05605-88b2c0d601fffff","clase":"Alto","nivel_medio":2.517,"nivel_medio_min":2.517,"nivel_medio_max":2.517,"pct_alto":47.3,"n_hexagonos":1,"area_ha":7.4}},{"type":"Feature","geometry":{"type":"Polygon","coordinates":[[[-71.488548,-33.473962],[-71.488554,-33.473968],[-71.488836,-33.474234],[-71.489234,-33.474593],[-71.489647,-33.474905],[-71.489927,-33.475131],[-71.490184,-33.475286],[-71.490449,-33.475442],[-71.490706,-33.475551],[-71.490956,-33.475598],[-71.491143,-33.475606],[-71.491322,-33.475598],[-71.491556,-33.475575],[-71.491852,-33.47552],[-71.492109,-33.475458],[-71.49253,-33.475333],[-71.492935,-33.47524],[-71.493293,-33.475123],[-71.493551,-33.475029],[-71.493784,-33.474928],[-71.494026,-33.474834],[-71.494089,-33.474803],[-71.494291,-33.474702],[-71.494595,-33.474577],[-71.494766,-33.474476],[-71.495008,-33.474367],[-71.495195,-33.474266],[-71.49546,-33.474118],[-71.495748,-33.473985],[-71.496036,-33.473876],[-71.496317,-33.473798],[-71.496566,-33.473759],[-71.496714,-33.473759],[-71.496963,-33.473759],[-71.497158,-33.47379],[-71.497353,-33.473853],[-71.497556,-33.473954],[-71.497782,-33.474086],[-71.498047,-33.474273],[-71.498312,-33.474538],[-71.498553,-33.474764],[-71.498748,-33.474967],[-71.498919,-33.475201],[-71.498964,-33.475251],[-71.496009,-33.47605],[-71.495387,-33.480314],[-71.490313,-33.481685],[-71.485861,-33.478792],[-71.486483,-33.474527],[-71.48465,-33.473337],[-71.4848,-33.473105],[-71.484948,-33.472894],[-71.485143,-33.472699],[-71.485291,-33.472606],[-71.485494,-33.472536],[-71.485681,-33.472497],[-71.485899,-33.472473],[-71.486125,-33.472458],[-71.486374,-33.472458],[-71.4866,-33.472481],[-71.486803,-33.47252],[-71.486974,-33.472567],[-71.487169,-33.472645],[-71.487332,-33.472746],[-71.487496,-33.472902],[-71.487668,-33.473089],[-71.487901,-33.473323],[-71.488182,-33.473611],[-71.488548,-33.473962]]]},"properties":{"comuna":"El Tabo","mancha_id":"05605-88b2c09b01fffff","clase":"Alto","nivel_medio":2.633,"nivel_medio_min":2.585,"nivel_medio_max":2.888,"pct_alto":63.3,"n_hexagonos":3,"area_ha":68.11}},{"type":"Feature","geometry":{"type":"Polygon","coordinates":[[[-71.529774,-33.511981],[-71.530395,-33.507718],[-71.52594,-33.504826],[-71.526561,-33.500563],[-71.522107,-33.497671],[-71.522728,-33.493407],[-71.527804,-33.492035],[-71.528425,-33.487771],[-71.523971,-33.484878],[-71.524592,-33.480614],[-71.529667,-33.479241],[-71.530288,-33.474976],[-71.535363,-33.473603],[-71.539817,-33.476496],[-71.539196,-33.480761],[-71.543651,-33.483653],[-71.54303,-33.487918],[-71.537954,-33.48929],[-71.537334,-33.493555],[-71.532258,-33.494927],[-71.531637,-33.499191],[-71.536092,-33.502083],[-71.535471,-33.506346],[-71.539925,-33.509238],[-71.545001,-33.507866],[-71.549457,-33.510757],[-71.548836,-33.51502],[-71.549295,-33.515318],[-71.548885,-33.515351],[-71.54865,-33.515371],[-71.548595,-33.515375],[-71.548361,-33.515384],[-71.548225,-33.51539],[-71.547945,-33.5154],[-71.547759,-33.515409],[-71.54773,-33.51541],[-71.547528,-33.515419],[-71.547381,-33.515425],[-71.54735,-33.515421],[-71.547096,-33.515388],[-71.546997,-33.515375],[-71.546989,-33.515374],[-71.546968,-33.515371],[-71.546737,-33.515341],[-71.546709,-33.515337],[-71.546576,-33.515319],[-71.546438,-33.515301],[-71.546412,-33.515302],[-71.546393,-33.515303],[-71.546304,-33.515307],[-71.54607,-33.515316],[-71.546004,-33.515319],[-71.545758,-33.515329],[-71.544687,-33.515391],[-71.544518,-33.515383],[-71.54434,-33.515375],[-71.544074,-33.515362],[-71.543721,-33.515345],[-71.543679,-33.515343],[-71.543354,-33.515331],[-71.543205,-33.515325],[-71.542855,-33.515312],[-71.542813,-33.51531],[-71.54258,-33.515301],[-71.54229,-33.515291],[-71.542239,-33.515289],[-71.542177,-33.515283],[-71.542094,-33.515273],[-71.542024,-33.515266],[-71.542019,-33.515265],[-71.542013,-33.515265],[-71.541902,-33.515252],[-71.541748,-33.515235],[-71.541589,-33.515218],[-71.54152,-33.51521],[-71.540662,-33.515157],[-71.540348,-33.515138],[-71.54015,-33.515114],[-71.539695,-33.515058],[-71.53955,-33.51504],[-71.539375,-33.514993],[-71.53914,-33.51493],[-71.539107,-33.514922],[-71.539021,-33.514898],[-71.538954,-33.514881],[-71.538606,-33.514683],[-71.53855,-33.514651],[-71.538303,-33.514562],[-71.538274,-33.514552],[-71.538077,-33.5145],[-71.537702,-33.514512],[-71.537659,-33.514513],[-71.537579,-33.514515],[-71.537476,-33.514512],[-71.537211,-33.514504],[-71.537186,-33.514511],[-71.537122,-33.514527],[-71.537062,-33.514542],[-71.537049,-33.514545],[-71.536984,-33.514562],[-71.536755,-33.51462],[-71.536317,-33.514733],[-71.536112,-33.514785],[-71.535279,-33.514965],[-71.534866,-33.515054],[-71.534662,-33.515099],[-71.534629,-33.515106],[-71.534498,-33.515134],[-71.534359,-33.515164],[-71.534187,-33.515201],[-71.53418,-33.515203],[-71.534029,-33.515235],[-71.533885,-33.515267],[-71.533866,-33.515271],[-71.53387,-33.515297],[-71.533939,-33.515784],[-71.533945,-33.515827],[-71.533969,-33.515997],[-71.533977,-33.516055],[-71.534016,-33.51633],[-71.534047,-33.516549],[-71.534048,-33.516554],[-71.534051,-33.516579],[-71.534058,-33.516626],[-71.534064,-33.516668],[-71.534039,-33.516677],[-71.533961,-33.516705],[-71.533844,-33.516747],[-71.533347,-33.516927],[-71.533331,-33.51693],[-71.533298,-33.516938],[-71.533274,-33.516943],[-71.533244,-33.516951],[-71.53307,-33.516997],[-71.533006,-33.51704],[-71.532918,-33.517087],[-71.53282,-33.517105],[-71.532776,-33.517125],[-71.532765,-33.517128],[-71.532733,-33.517137],[-71.532697,-33.517148],[-71.532644,-33.517148],[-71.532598,-33.517148],[-71.53256,-33.517148],[-71.532519,-33.517142],[-71.532469,-33.517134],[-71.532406,-33.517125],[-71.532348,-33.517117],[-71.532302,-33.517124],[-71.532244,-33.517131],[-71.532233,-33.517137],[-71.532156,-33.517178],[-71.532078,-33.517212],[-71.532078,-33.517212],[-71.532033,-33.517305],[-71.531992,-33.517353],[-71.531954,-33.517396],[-71.531954,-33.517396],[-71.531949,-33.517406],[-71.531931,-33.517442],[-71.531915,-33.517476],[-71.531893,-33.51752],[-71.531879,-33.517544],[-71.531799,-33.517677],[-71.531774,-33.517702],[-71.531703,-33.517771],[-71.531646,-33.517826],[-71.531643,-33.51783],[-71.531588,-33.517887],[-71.531561,-33.517915],[-71.531549,-33.517941],[-71.531548,-33.517945],[-71.531533,-33.517977],[-71.531519,-33.518007],[-71.531496,-33.518071],[-71.531465,-33.518169],[-71.531407,-33.518225],[-71.531346,-33.51824],[-71.531293,-33.518243],[-71.531253,-33.518244],[-71.531217,-33.51824],[-71.531192,-33.518223],[-71.531167,-33.518205],[-71.531012,-33.51819],[-71.530806,-33.518143],[-71.53053,-33.51808],[-71.530479,-33.51806],[-71.530168,-33.517936],[-71.530058,-33.517892],[-71.530052,-33.517889],[-71.529998,-33.517867],[-71.52998,-33.517859],[-71.52998,-33.517859],[-71.529962,-33.517852],[-71.529923,-33.517835],[-71.529879,-33.517816],[-71.52983,-33.517777],[-71.529824,-33.517773],[-71.529796,-33.51775],[-71.52979,-33.517746],[-71.52979,-33.517745],[-71.529779,-33.517733],[-71.52975,-33.517702],[-71.529733,-33.517684],[-71.529732,-33.517683],[-71.529724,-33.517674],[-71.529722,-33.517672],[-71.529721,-33.51767],[-71.529713,-33.517662],[-71.5297,-33.517648],[-71.529694,-33.517619],[-71.529685,-33.517575],[-71.529724,-33.517505],[-71.529753,-33.517452],[-71.529831,-33.517343],[-71.530038,-33.517054],[-71.530049,-33.517018],[-71.530057,-33.516953],[-71.530066,-33.516866],[-71.530069,-33.516837],[-71.530078,-33.516788],[-71.530081,-33.516771],[-71.530091,-33.516716],[-71.530122,-33.516602],[-71.530194,-33.516509],[-71.530204,-33.516496],[-71.530345,-33.516363],[-71.530417,-33.51627],[-71.530443,-33.516135],[-71.530433,-33.516074],[-71.530419,-33.515989],[-71.530311,-33.515878],[-71.530285,-33.51584],[-71.530222,-33.515746],[-71.530211,-33.515697],[-71.530199,-33.515647],[-71.530192,-33.515614],[-71.530182,-33.515571],[-71.530148,-33.515446],[-71.530129,-33.51539],[-71.530094,-33.515292],[-71.530084,-33.515198],[-71.530062,-33.514979],[-71.530059,-33.51495],[-71.529974,-33.514767],[-71.529933,-33.514734],[-71.529871,-33.514685],[-71.529721,-33.514663],[-71.529573,-33.514667],[-71.529536,-33.514667],[-71.529517,-33.514674],[-71.529368,-33.514729],[-71.529341,-33.514751],[-71.529221,-33.51485],[-71.529106,-33.514971],[-71.529101,-33.514979],[-71.529096,-33.514984],[-71.529078,-33.515009],[-71.529032,-33.515068],[-71.529021,-33.51508],[-71.528946,-33.515165],[-71.52891,-33.515204],[-71.528907,-33.515208],[-71.528765,-33.515274],[-71.528546,-33.515374],[-71.528426,-33.515423],[-71.528339,-33.515458],[-71.528215,-33.515469],[-71.52809,-33.515463],[-71.527948,-33.515403],[-71.527896,-33.51532],[-71.527884,-33.515249],[-71.527883,-33.515249],[-71.527936,-33.515152],[-71.527946,-33.515139],[-71.527966,-33.515116],[-71.527994,-33.515081],[-71.528099,-33.514977],[-71.528125,-33.514951],[-71.528197,-33.514866],[-71.528204,-33.514834],[-71.528215,-33.514786],[-71.528215,-33.514786],[-71.528201,-33.514657],[-71.528123,-33.514537],[-71.52802,-33.514476],[-71.527983,-33.514459],[-71.527727,-33.514337],[-71.527706,-33.514328],[-71.527492,-33.51424],[-71.52739,-33.514199],[-71.526998,-33.514114],[-71.52693,-33.514099],[-71.526516,-33.514027],[-71.526446,-33.514014],[-71.526433,-33.514012],[-71.52618,-33.514],[-71.526154,-33.513999],[-71.526085,-33.513995],[-71.526031,-33.514002],[-71.525869,-33.514024],[-71.525698,-33.5141],[-71.525692,-33.514107],[-71.525686,-33.514116],[-71.525432,-33.514459],[-71.52543,-33.514462],[-71.525315,-33.514596],[-71.525226,-33.5147],[-71.525042,-33.514839],[-71.524942,-33.514914],[-71.524897,-33.514936],[-71.524842,-33.514964],[-71.524654,-33.514968],[-71.52447,-33.514915],[-71.524698,-33.513352],[-71.529774,-33.511981]]]},"properties":{"comuna":"El Tabo","mancha_id":"05605-88b2c09961fffff","clase":"Alto","nivel_medio":2.691,"nivel_medio_min":2.518,"nivel_medio_max":2.954,"pct_alto":67.4,"n_hexagonos":11,"area_ha":544.16}},{"type":"Feature","geometry":{"type":"Polygon","coordinates":[[[-71.516411,-33.503305],[-71.511336,-33.504676],[-71.510811,-33.508276],[-71.510652,-33.508444],[-71.510311,-33.508893],[-71.510175,-33.509071],[-71.510165,-33.509088],[-71.50697,-33.50995],[-71.506921,-33.509907],[-71.506751,-33.509756],[-71.506536,-33.509561],[-71.506431,-33.509465],[-71.506146,-33.509198],[-71.506037,-33.50909],[-71.506018,-33.509072],[-71.505993,-33.509046],[-71.505701,-33.508748],[-71.50568,-33.508723],[-71.505665,-33.508706],[-71.505439,-33.508442],[-71.505339,-33.508339],[-71.505241,-33.508237],[-71.505059,-33.508075],[-71.50496,-33.507999],[-71.504564,-33.507692],[-71.504533,-33.507668],[-71.504138,-33.507356],[-71.503997,-33.507237],[-71.503957,-33.507204],[-71.503786,-33.507061],[-71.503717,-33.506999],[-71.503677,-33.506962],[-71.503353,-33.50667],[-71.50329,-33.506612],[-71.503226,-33.506554],[-71.503061,-33.50641],[-71.503036,-33.506387],[-71.502899,-33.506267],[-71.502895,-33.506263],[-71.502831,-33.506205],[-71.502686,-33.506075],[-71.502504,-33.505886],[-71.502407,-33.505738],[-71.502302,-33.5055],[-71.502128,-33.50507],[-71.502099,-33.504999],[-71.502053,-33.504877],[-71.501953,-33.504609],[-71.501859,-33.504378],[-71.50174,-33.504084],[-71.501714,-33.504003],[-71.501693,-33.503941],[-71.501807,-33.503155],[-71.501553,-33.50299],[-71.501548,-33.502902],[-71.50154,-33.502778],[-71.501513,-33.502471],[-71.501493,-33.502236],[-71.501474,-33.502021],[-71.501452,-33.501823],[-71.501441,-33.501729],[-71.501439,-33.501708],[-71.501437,-33.501684],[-71.501432,-33.501646],[-71.501422,-33.501553],[-71.501418,-33.501525],[-71.501418,-33.501521],[-71.501415,-33.501504],[-71.501411,-33.501473],[-71.501406,-33.501439],[-71.501399,-33.50139],[-71.501392,-33.501338],[-71.501385,-33.501287],[-71.50137,-33.501219],[-71.501346,-33.50111],[-71.501343,-33.501099],[-71.501304,-33.500995],[-71.501225,-33.500836],[-71.501163,-33.500712],[-71.501141,-33.500669],[-71.501117,-33.50062],[-71.500946,-33.500372],[-71.500936,-33.500358],[-71.500902,-33.500311],[-71.500689,-33.50002],[-71.500583,-33.499865],[-71.500503,-33.499748],[-71.500418,-33.499617],[-71.500391,-33.499521],[-71.500389,-33.499479],[-71.50037,-33.499203],[-71.500352,-33.499063],[-71.500308,-33.499019],[-71.500188,-33.498925],[-71.500005,-33.498797],[-71.499842,-33.498667],[-71.499776,-33.498644],[-71.499635,-33.498597],[-71.499343,-33.498498],[-71.499335,-33.498495],[-71.49922,-33.498456],[-71.499117,-33.498421],[-71.499066,-33.498404],[-71.499001,-33.498382],[-71.498869,-33.498335],[-71.49878,-33.498303],[-71.498684,-33.498268],[-71.498516,-33.498208],[-71.498409,-33.49817],[-71.498277,-33.498123],[-71.498223,-33.498103],[-71.498209,-33.498097],[-71.497919,-33.497968],[-71.497832,-33.497929],[-71.497763,-33.497898],[-71.497704,-33.497862],[-71.497395,-33.497673],[-71.497145,-33.497449],[-71.496927,-33.497182],[-71.496804,-33.496982],[-71.496645,-33.496723],[-71.496277,-33.49602],[-71.496151,-33.49578],[-71.495917,-33.495331],[-71.495752,-33.49504],[-71.49563,-33.494768],[-71.495555,-33.494477],[-71.495546,-33.494421],[-71.495518,-33.494237],[-71.495498,-33.494101],[-71.495496,-33.494069],[-71.495485,-33.493911],[-71.495461,-33.493419],[-71.495387,-33.493043],[-71.495256,-33.492709],[-71.495227,-33.492656],[-71.495215,-33.492638],[-71.495134,-33.492514],[-71.495054,-33.492391],[-71.49504,-33.49237],[-71.494827,-33.492128],[-71.494659,-33.491979],[-71.494637,-33.49196],[-71.494531,-33.491869],[-71.494382,-33.491772],[-71.494267,-33.491699],[-71.494035,-33.491584],[-71.493834,-33.491499],[-71.49376,-33.49148],[-71.494144,-33.488842],[-71.499219,-33.487472],[-71.503672,-33.490365],[-71.508746,-33.488993],[-71.5132,-33.491886],[-71.512578,-33.49615],[-71.517032,-33.499042],[-71.516411,-33.503305]]]},"properties":{"comuna":"El Tabo","mancha_id":"05605-88b2c09941fffff","clase":"Alto","nivel_medio":2.814,"nivel_medio_min":2.596,"nivel_medio_max":3.15,"pct_alto":62.5,"n_hexagonos":6,"area_ha":298.97}},{"type":"Feature","geometry":{"type":"Polygon","coordinates":[[[-71.51445,-33.51612],[-71.514547,-33.516094],[-71.5185,-33.51866],[-71.518432,-33.518713],[-71.518373,-33.518759],[-71.518339,-33.518786],[-71.518314,-33.518817],[-71.518088,-33.519106],[-71.518088,-33.519106],[-71.517784,-33.519307],[-71.517747,-33.519331],[-71.517465,-33.51953],[-71.517356,-33.519774],[-71.517356,-33.519774],[-71.517356,-33.519774],[-71.517191,-33.519927],[-71.517117,-33.519997],[-71.516912,-33.520218],[-71.516829,-33.520307],[-71.516783,-33.520356],[-71.516777,-33.520363],[-71.516735,-33.52038],[-71.51662,-33.520425],[-71.516554,-33.520451],[-71.516411,-33.520508],[-71.516305,-33.52055],[-71.516213,-33.520587],[-71.516166,-33.520605],[-71.516146,-33.520613],[-71.515962,-33.520128],[-71.515928,-33.520036],[-71.515513,-33.518937],[-71.515369,-33.518556],[-71.515211,-33.518136],[-71.514538,-33.516354],[-71.51445,-33.51612]]]},"properties":{"comuna":"El Tabo","mancha_id":"05605-88b2c09901fffff","clase":"Alto","nivel_medio":2.656,"nivel_medio_min":2.656,"nivel_medio_max":2.656,"pct_alto":65.6,"n_hexagonos":1,"area_ha":7.61}},{"type":"Feature","geometry":{"type":"Polygon","coordinates":[[[-71.633224,-33.430675],[-71.629213,-33.431764],[-71.627548,-33.430684],[-71.627571,-33.430464],[-71.627661,-33.4299],[-71.627675,-33.429457],[-71.627819,-33.428998],[-71.628157,-33.428614],[-71.628453,-33.428488],[-71.628752,-33.428461],[-71.629042,-33.42857],[-71.629331,-33.428669],[-71.629711,-33.428669],[-71.630154,-33.428697],[-71.630571,-33.428705],[-71.631023,-33.428818],[-71.631523,-33.42905],[-71.631812,-33.429194],[-71.632227,-33.429537],[-71.63257,-33.429862],[-71.632859,-33.430151],[-71.633184,-33.43062],[-71.633224,-33.430675]]]},"properties":{"comuna":"El Tabo","mancha_id":"05605-88b2c46f33fffff","clase":"Muy Alto","nivel_medio":3.829,"nivel_medio_min":3.829,"nivel_medio_max":3.829,"pct_alto":96.3,"n_hexagonos":1,"area_ha":12.71}},{"type":"Feature","geometry":{"type":"Polygon","coordinates":[[[-71.600225,-33.49702],[-71.600846,-33.492754],[-71.605923,-33.491379],[-71.610381,-33.494269],[-71.609761,-33.498534],[-71.604683,-33.49991],[-71.600225,-33.49702]]]},"properties":{"comuna":"El Tabo","mancha_id":"05605-88b2c46d9dfffff","clase":"Muy Alto","nivel_medio":3.642,"nivel_medio_min":3.642,"nivel_medio_max":3.642,"pct_alto":95.2,"n_hexagonos":1,"area_ha":64.33}},{"type":"Feature","geometry":{"type":"Polygon","coordinates":[[[-71.676275,-33.443588],[-71.671196,-33.444968],[-71.668045,-33.442926],[-71.668607,-33.443072],[-71.669399,-33.443336],[-71.669957,-33.443483],[-71.670662,-33.4436],[-71.671278,-33.443688],[-71.671953,-33.443747],[-71.672746,-33.443688],[-71.673627,-33.443512],[-71.674596,-33.443248],[-71.675124,-33.443189],[-71.675564,-33.443189],[-71.676063,-33.443277],[-71.676309,-33.443354],[-71.676275,-33.443588]]]},"properties":{"comuna":"El Tabo","mancha_id":"05605-88b2c46d6bfffff","clase":"Muy Alto","nivel_medio":3.601,"nivel_medio_min":3.601,"nivel_medio_max":3.601,"pct_alto":90.1,"n_hexagonos":1,"area_ha":6.17}},{"type":"Feature","geometry":{"type":"Polygon","coordinates":[[[-71.645782,-33.433309],[-71.646005,-33.433311],[-71.646618,-33.433708],[-71.64664,-33.433854],[-71.64663,-33.434158],[-71.646684,-33.434609],[-71.64681,-33.434952],[-71.646901,-33.435204],[-71.647081,-33.435764],[-71.647092,-33.436061],[-71.646983,-33.43627],[-71.646848,-33.436387],[-71.646576,-33.436504],[-71.646305,-33.436684],[-71.645998,-33.436919],[-71.645872,-33.437208],[-71.645944,-33.437605],[-71.646125,-33.437948],[-71.646341,-33.438309],[-71.646558,-33.438652],[-71.646649,-33.439011],[-71.646631,-33.439292],[-71.646623,-33.43934],[-71.642586,-33.440437],[-71.638128,-33.437546],[-71.638505,-33.434947],[-71.638941,-33.434807],[-71.639284,-33.434807],[-71.639663,-33.434807],[-71.64006,-33.434825],[-71.640385,-33.434879],[-71.640656,-33.434825],[-71.640885,-33.434722],[-71.641053,-33.434537],[-71.641125,-33.434284],[-71.641157,-33.433989],[-71.641184,-33.433799],[-71.641301,-33.4337],[-71.641754,-33.433591],[-71.641926,-33.433646],[-71.642043,-33.43379],[-71.642172,-33.433977],[-71.642407,-33.43441],[-71.642659,-33.434627],[-71.643056,-33.434861],[-71.643399,-33.434934],[-71.643778,-33.434879],[-71.644175,-33.434771],[-71.644572,-33.434627],[-71.644933,-33.434428],[-71.645132,-33.434248],[-71.645312,-33.433905],[-71.645454,-33.433591],[-71.645554,-33.433419],[-71.645782,-33.433309]]]},"properties":{"comuna":"El Tabo","mancha_id":"05605-88b2c46d5dfffff","clase":"Muy Alto","nivel_medio":3.815,"nivel_medio_min":3.815,"nivel_medio_max":3.815,"pct_alto":98.1,"n_hexagonos":1,"area_ha":42.93}},{"type":"Feature","geometry":{"type":"Polygon","coordinates":[[[-71.665298,-33.44247],[-71.661659,-33.443459],[-71.658164,-33.441193],[-71.658361,-33.44116],[-71.658813,-33.441178],[-71.659174,-33.441269],[-71.659553,-33.441305],[-71.659877,-33.441395],[-71.660238,-33.441503],[-71.660599,-33.441612],[-71.661159,-33.441864],[-71.661502,-33.441936],[-71.661917,-33.442009],[-71.662404,-33.442081],[-71.662892,-33.442153],[-71.663577,-33.442207],[-71.664263,-33.442261],[-71.665003,-33.442424],[-71.665298,-33.44247]]]},"properties":{"comuna":"El Tabo","mancha_id":"05605-88b2c46d47fffff","clase":"Muy Alto","nivel_medio":4.0,"nivel_medio_min":4.0,"nivel_medio_max":4.0,"pct_alto":100.0,"n_hexagonos":1,"area_ha":5.93}},{"type":"Feature","geometry":{"type":"Polygon","coordinates":[[[-71.655633,-33.440994],[-71.652122,-33.441948],[-71.649406,-33.440187],[-71.649482,-33.440132],[-71.650214,-33.439771],[-71.650485,-33.439653],[-71.650693,-33.439653],[-71.651178,-33.439698],[-71.65172,-33.439807],[-71.652135,-33.439933],[-71.652586,-33.440132],[-71.653019,-33.440276],[-71.653651,-33.440456],[-71.65412,-33.440547],[-71.654499,-33.440655],[-71.655077,-33.440835],[-71.655633,-33.440994]]]},"properties":{"comuna":"El Tabo","mancha_id":"05605-88b2c46d43fffff","clase":"Muy Alto","nivel_medio":3.967,"nivel_medio_min":3.967,"nivel_medio_max":3.967,"pct_alto":99.2,"n_hexagonos":1,"area_ha":7.06}}],"bbox":[-71.68054,-33.53186,-71.47747,-33.42846]}