{"type":"FeatureCollection","features":[{"type":"Feature","geometry":{"type":"Polygon","coordinates":[[[-71.689398,-33.386667],[-71.690017,-33.382392],[-71.685558,-33.379501],[-71.685938,-33.376876],[-71.686016,-33.376802],[-71.686281,-33.37632],[-71.686475,-33.375396],[-71.686712,-33.375081],[-71.691255,-33.373843],[-71.695714,-33.376734],[-71.695095,-33.381009],[-71.695394,-33.381203],[-71.69532,-33.38126],[-71.69526,-33.3814],[-71.69515,-33.381645],[-71.69511,-33.38174],[-71.6949,-33.38218],[-71.69485,-33.38242],[-71.69486,-33.38263],[-71.69497,-33.38279],[-71.69509,-33.38295],[-71.6951,-33.38306],[-71.69498,-33.38328],[-71.69463,-33.3835],[-71.69451,-33.38372],[-71.69451,-33.38403],[-71.69442,-33.38459],[-71.69409,-33.38511],[-71.69382,-33.38531],[-71.69358,-33.38546],[-71.6935,-33.3856],[-71.6935,-33.38574],[-71.69361,-33.3861],[-71.69385,-33.38655],[-71.69391,-33.38696],[-71.69384,-33.38735],[-71.69367,-33.38776],[-71.69335,-33.38797],[-71.69296,-33.38808],[-71.69277,-33.38821],[-71.69261,-33.3884],[-71.69255,-33.38856],[-71.692645,-33.388771],[-71.689398,-33.386667]]]},"properties":{"comuna":"El Quisco","mancha_id":"05604-88b2c468c9fffff","clase":"Muy Bajo","nivel_medio":0.287,"nivel_medio_min":0.263,"nivel_medio_max":0.297,"pct_alto":7.8,"n_hexagonos":2,"area_ha":93.07}},{"type":"Feature","geometry":{"type":"Polygon","coordinates":[[[-71.691383,-33.406652],[-71.692001,-33.402379],[-71.687542,-33.399488],[-71.682464,-33.400871],[-71.678005,-33.39798],[-71.678624,-33.393707],[-71.683702,-33.392324],[-71.688161,-33.395215],[-71.693239,-33.393832],[-71.693743,-33.390349],[-71.69476,-33.39026],[-71.69495,-33.39031],[-71.695,-33.39039],[-71.695,-33.39048],[-71.694745,-33.390815],[-71.694665,-33.39092],[-71.69452,-33.3911],[-71.69449,-33.39137],[-71.69466,-33.39181],[-71.69482,-33.39243],[-71.69504,-33.39271],[-71.69542,-33.39304],[-71.6956,-33.3933],[-71.69568,-33.39341],[-71.69578,-33.39357],[-71.69627,-33.39389],[-71.69671,-33.39396],[-71.69715,-33.39399],[-71.69763,-33.39411],[-71.698,-33.3942],[-71.69809,-33.3942],[-71.69817,-33.3942],[-71.69833,-33.39417],[-71.69859,-33.394],[-71.69893,-33.39376],[-71.6993,-33.39357],[-71.6995,-33.39334],[-71.69972,-33.39297],[-71.69994,-33.3926],[-71.70011,-33.39238],[-71.70036,-33.39233],[-71.70074,-33.39221],[-71.70113,-33.39199],[-71.70145,-33.39169],[-71.70189,-33.39133],[-71.70209,-33.39128],[-71.70223,-33.39127],[-71.70233,-33.39129],[-71.70242,-33.39136],[-71.70254,-33.3915],[-71.70285,-33.39203],[-71.70317,-33.39225],[-71.70322,-33.392275],[-71.702777,-33.395339],[-71.704951,-33.396748],[-71.70474,-33.39698],[-71.70416,-33.39743],[-71.70377,-33.39774],[-71.70346,-33.39813],[-71.70279,-33.399],[-71.70231,-33.39947],[-71.70196,-33.39991],[-71.70146,-33.40075],[-71.70088,-33.40129],[-71.70048,-33.40173],[-71.70031,-33.40224],[-71.70019,-33.40269],[-71.70018,-33.403005],[-71.70018,-33.40302],[-71.70027,-33.4032],[-71.70066,-33.40359],[-71.70082,-33.40378],[-71.70083,-33.4039],[-71.70082,-33.40401],[-71.70062,-33.4042],[-71.70027,-33.40452],[-71.70027,-33.40464],[-71.70028,-33.40476],[-71.70029,-33.40483],[-71.70034,-33.40524],[-71.70052,-33.40558],[-71.70078,-33.40587],[-71.70076,-33.40599],[-71.70059,-33.40623],[-71.70044,-33.40644],[-71.70043,-33.40656],[-71.70052,-33.40669],[-71.70078,-33.40687],[-71.70089,-33.40704],[-71.70089,-33.40718],[-71.70089,-33.40733],[-71.70074,-33.40745],[-71.7005,-33.40747],[-71.70029,-33.40756],[-71.70015,-33.40771],[-71.70015,-33.40784],[-71.70015,-33.40797],[-71.70028,-33.40814],[-71.700528,-33.408266],[-71.695842,-33.409542],[-71.695224,-33.413815],[-71.690145,-33.415197],[-71.685686,-33.412307],[-71.686305,-33.408034],[-71.691383,-33.406652]]]},"properties":{"comuna":"El Quisco","mancha_id":"05604-88b2c46889fffff","clase":"Muy Bajo","nivel_medio":0.268,"nivel_medio_min":0.115,"nivel_medio_max":0.375,"pct_alto":7.2,"n_hexagonos":6,"area_ha":318.24}},{"type":"Feature","geometry":{"type":"Polygon","coordinates":[[[-71.699065,-33.420977],[-71.699684,-33.416705],[-71.703088,-33.415778],[-71.70318,-33.41577],[-71.70344,-33.41575],[-71.70364,-33.41568],[-71.70387,-33.41566],[-71.70403,-33.41568],[-71.70418,-33.41576],[-71.70441,-33.41588],[-71.70459,-33.41595],[-71.7049,-33.416],[-71.70516,-33.41611],[-71.70591,-33.41653],[-71.70608,-33.41668],[-71.70609,-33.41679],[-71.7061,-33.41696],[-71.70599,-33.41719],[-71.70581,-33.41738],[-71.70555,-33.41748],[-71.70539,-33.41748],[-71.70528,-33.41747],[-71.7051,-33.41736],[-71.70495,-33.41743],[-71.70486,-33.41757],[-71.70464,-33.41793],[-71.70446,-33.41807],[-71.70413,-33.4181],[-71.70401,-33.41807],[-71.70383,-33.41799],[-71.70355,-33.41772],[-71.70328,-33.4176],[-71.70297,-33.41757],[-71.70259,-33.41761],[-71.70239,-33.41757],[-71.70196,-33.41745],[-71.70181,-33.41747],[-71.70171,-33.4175],[-71.70127,-33.4179],[-71.70085,-33.41833],[-71.70072,-33.41876],[-71.70053,-33.41922],[-71.70058,-33.41985],[-71.7005,-33.4202],[-71.70041,-33.42054],[-71.70038,-33.42096],[-71.70041,-33.4212],[-71.70052,-33.42154],[-71.70078,-33.42186],[-71.70086,-33.42208],[-71.700878,-33.422152],[-71.699065,-33.420977]]]},"properties":{"comuna":"El Quisco","mancha_id":"05604-88b2c46887fffff","clase":"Muy Bajo","nivel_medio":0.365,"nivel_medio_min":0.365,"nivel_medio_max":0.365,"pct_alto":5.4,"n_hexagonos":1,"area_ha":15.56}},{"type":"Feature","geometry":{"type":"Polygon","coordinates":[[[-71.69873,-33.37369],[-71.69881,-33.3737],[-71.69906,-33.37371],[-71.69964,-33.37363],[-71.69975,-33.37363],[-71.69985,-33.37365],[-71.69997,-33.37373],[-71.70009,-33.37384],[-71.70021,-33.374],[-71.70038,-33.37418],[-71.70043,-33.37427],[-71.700419,-33.374325],[-71.70033,-33.37451],[-71.70022,-33.3746],[-71.70005,-33.37469],[-71.69969,-33.37476],[-71.69932,-33.37484],[-71.69904,-33.37492],[-71.69886,-33.37496],[-71.69866,-33.37496],[-71.6985,-33.37497],[-71.69841,-33.37494],[-71.69818,-33.37482],[-71.69809,-33.37467],[-71.69805,-33.37451],[-71.69805,-33.37436],[-71.69806,-33.37409],[-71.69814,-33.37388],[-71.69824,-33.37376],[-71.69826,-33.3737],[-71.69842,-33.37367],[-71.69853,-33.37367],[-71.69873,-33.37369]]]},"properties":{"comuna":"El Quisco","mancha_id":"05604-88b2c46aa1fffff","clase":"Bajo","nivel_medio":0.558,"nivel_medio_min":0.558,"nivel_medio_max":0.558,"pct_alto":14.1,"n_hexagonos":1,"area_ha":2.57}},{"type":"Feature","geometry":{"type":"Polygon","coordinates":[[[-71.696285,-33.376578],[-71.695714,-33.376734],[-71.691255,-33.373843],[-71.686712,-33.375081],[-71.686912,-33.374813],[-71.687544,-33.373939],[-71.688801,-33.372789],[-71.689235,-33.372452],[-71.689813,-33.371949],[-71.68993,-33.371963],[-71.690688,-33.371887],[-71.691527,-33.371959],[-71.691659,-33.37197],[-71.692458,-33.372032],[-71.693126,-33.372052],[-71.694687,-33.372335],[-71.695723,-33.372434],[-71.69668,-33.3723],[-71.69674,-33.37232],[-71.69696,-33.37244],[-71.69715,-33.37269],[-71.69734,-33.37308],[-71.69743,-33.37338],[-71.69746,-33.37374],[-71.69723,-33.37404],[-71.69697,-33.37432],[-71.69692,-33.3746],[-71.69685,-33.37487],[-71.69664,-33.37503],[-71.69635,-33.37515],[-71.69602,-33.37523],[-71.69574,-33.37529],[-71.69548,-33.37535],[-71.69518,-33.37542],[-71.69493,-33.37548],[-71.69483,-33.37562],[-71.69484,-33.37574],[-71.69501,-33.3759],[-71.69514,-33.37599],[-71.69533,-33.37598],[-71.69567,-33.37606],[-71.69595,-33.3762],[-71.6961,-33.37642],[-71.696285,-33.376578]]]},"properties":{"comuna":"El Quisco","mancha_id":"05604-88b2c46aa1fffff-2","clase":"Bajo","nivel_medio":0.907,"nivel_medio_min":0.558,"nivel_medio_max":1.449,"pct_alto":23.7,"n_hexagonos":2,"area_ha":25.56}},{"type":"Feature","geometry":{"type":"Polygon","coordinates":[[[-71.668469,-33.396471],[-71.669088,-33.392198],[-71.674166,-33.390815],[-71.678624,-33.393707],[-71.678005,-33.39798],[-71.672928,-33.399362],[-71.668469,-33.396471]]]},"properties":{"comuna":"El Quisco","mancha_id":"05604-88b2c468d9fffff","clase":"Bajo","nivel_medio":1.306,"nivel_medio_min":1.306,"nivel_medio_max":1.306,"pct_alto":33.8,"n_hexagonos":1,"area_ha":64.52}},{"type":"Feature","geometry":{"type":"Polygon","coordinates":[[[-71.681845,-33.405144],[-71.682464,-33.400871],[-71.687542,-33.399488],[-71.692001,-33.402379],[-71.691383,-33.406652],[-71.686305,-33.408034],[-71.685686,-33.412307],[-71.680608,-33.413689],[-71.676149,-33.410799],[-71.676767,-33.406526],[-71.681845,-33.405144]]]},"properties":{"comuna":"El Quisco","mancha_id":"05604-88b2c468d5fffff","clase":"Bajo","nivel_medio":0.842,"nivel_medio_min":0.806,"nivel_medio_max":0.879,"pct_alto":23.6,"n_hexagonos":2,"area_ha":129.02}},{"type":"Feature","geometry":{"type":"Polygon","coordinates":[[[-71.683702,-33.392324],[-71.684321,-33.38805],[-71.679862,-33.385159],[-71.678769,-33.385456],[-71.67887,-33.384872],[-71.679079,-33.384345],[-71.679193,-33.38418],[-71.67956,-33.383833],[-71.679563,-33.383831],[-71.679652,-33.383747],[-71.679957,-33.38348],[-71.680127,-33.383332],[-71.681735,-33.381926],[-71.683343,-33.380436],[-71.683469,-33.380319],[-71.6838,-33.37998],[-71.684511,-33.379251],[-71.684684,-33.37859],[-71.684917,-33.378218],[-71.685188,-33.377737],[-71.685389,-33.377394],[-71.685938,-33.376876],[-71.685558,-33.379501],[-71.690017,-33.382392],[-71.689398,-33.386667],[-71.692645,-33.388771],[-71.69273,-33.38896],[-71.69276,-33.38905],[-71.69287,-33.38964],[-71.69318,-33.39017],[-71.69351,-33.39036],[-71.69362,-33.39036],[-71.693743,-33.390349],[-71.693239,-33.393832],[-71.688161,-33.395215],[-71.683702,-33.392324]]]},"properties":{"comuna":"El Quisco","mancha_id":"05604-88b2c468cbfffff","clase":"Bajo","nivel_medio":0.881,"nivel_medio_min":0.713,"nivel_medio_max":1.299,"pct_alto":26.0,"n_hexagonos":4,"area_ha":127.8}},{"type":"Feature","geometry":{"type":"Polygon","coordinates":[[[-71.695224,-33.413815],[-71.695842,-33.409542],[-71.700528,-33.408266],[-71.70087,-33.40844],[-71.70102,-33.40858],[-71.70103,-33.40871],[-71.70094,-33.40883],[-71.70056,-33.40893],[-71.7003,-33.409],[-71.70018,-33.4091],[-71.70017,-33.40922],[-71.70022,-33.40938],[-71.70035,-33.40968],[-71.70035,-33.40985],[-71.70027,-33.41009],[-71.70028,-33.41057],[-71.70033,-33.41149],[-71.70039,-33.41168],[-71.70049,-33.4118],[-71.70081,-33.41188],[-71.70118,-33.41195],[-71.70135,-33.41208],[-71.70161,-33.41233],[-71.70185,-33.41245],[-71.70214,-33.41256],[-71.7024,-33.41259],[-71.7025,-33.41268],[-71.70258,-33.41282],[-71.70265,-33.41307],[-71.70282,-33.41321],[-71.70297,-33.41327],[-71.70309,-33.41325],[-71.70339,-33.41323],[-71.70357,-33.41328],[-71.70374,-33.41342],[-71.70376,-33.41352],[-71.70375,-33.41367],[-71.70366,-33.41396],[-71.70321,-33.41447],[-71.70315,-33.41477],[-71.7031,-33.41497],[-71.70272,-33.41531],[-71.70256,-33.41549],[-71.70254,-33.41561],[-71.70257,-33.41575],[-71.70277,-33.41579],[-71.70294,-33.41579],[-71.703088,-33.415778],[-71.699684,-33.416705],[-71.699065,-33.420977],[-71.700878,-33.422152],[-71.70091,-33.42228],[-71.70088,-33.42247],[-71.70073,-33.42283],[-71.70055,-33.42327],[-71.70055,-33.42362],[-71.70068,-33.42398],[-71.70091,-33.42423],[-71.70155,-33.42471],[-71.70185,-33.42493],[-71.70193,-33.42523],[-71.70206,-33.42552],[-71.70227,-33.42573],[-71.70268,-33.42593],[-71.70315,-33.42604],[-71.70321,-33.426042],[-71.70369,-33.42606],[-71.70424,-33.42608],[-71.70452,-33.42604],[-71.70479,-33.42594],[-71.70497,-33.42583],[-71.7053,-33.42553],[-71.70549,-33.42522],[-71.70559,-33.42507],[-71.70574,-33.425],[-71.70604,-33.42494],[-71.70621,-33.42478],[-71.70629,-33.42454],[-71.70642,-33.42423],[-71.7067,-33.4238],[-71.70698,-33.42364],[-71.70732,-33.42362],[-71.70772,-33.42362],[-71.70848,-33.42373],[-71.7091,-33.4239],[-71.70945,-33.42403],[-71.70956,-33.4242],[-71.70975,-33.42457],[-71.71004,-33.42515],[-71.71005,-33.42534],[-71.70998,-33.42551],[-71.7098,-33.42561],[-71.70961,-33.42564],[-71.70946,-33.42561],[-71.7093,-33.42567],[-71.70919,-33.42578],[-71.70892,-33.4261],[-71.70868,-33.42629],[-71.70838,-33.42636],[-71.70824,-33.42645],[-71.70822,-33.42675],[-71.70807,-33.42691],[-71.7079,-33.42699],[-71.70768,-33.427],[-71.70753,-33.42703],[-71.70745,-33.42715],[-71.70736,-33.42741],[-71.70726,-33.42758],[-71.7071,-33.42763],[-71.70677,-33.42747],[-71.70665,-33.42754],[-71.70648,-33.42779],[-71.70629,-33.42791],[-71.7061,-33.42801],[-71.70589,-33.42809],[-71.70576,-33.42823],[-71.70566,-33.42847],[-71.70567,-33.42873],[-71.70586,-33.42908],[-71.70617,-33.42938],[-71.70618,-33.4295],[-71.7061,-33.42972],[-71.706,-33.42986],[-71.70579,-33.4299],[-71.70562,-33.42986],[-71.70545,-33.42978],[-71.705429,-33.429772],[-71.7052,-33.42969],[-71.70505,-33.42973],[-71.70494,-33.42985],[-71.70491,-33.43006],[-71.70486,-33.43019],[-71.70476,-33.43026],[-71.70452,-33.4303],[-71.70439,-33.43036],[-71.70426,-33.43056],[-71.70415,-33.43067],[-71.70403,-33.43066],[-71.70394,-33.43059],[-71.70393,-33.43048],[-71.70386,-33.43036],[-71.70377,-33.4303],[-71.70361,-33.43026],[-71.70341,-33.43028],[-71.70329,-33.43038],[-71.70326,-33.43048],[-71.70331,-33.43057],[-71.70341,-33.4306],[-71.70355,-33.43058],[-71.70367,-33.43067],[-71.70368,-33.43083],[-71.70369,-33.43103],[-71.70364,-33.43135],[-71.70347,-33.43166],[-71.70327,-33.43178],[-71.70305,-33.43178],[-71.70266,-33.43174],[-71.70214,-33.43164],[-71.70195,-33.43164],[-71.70175,-33.43169],[-71.70098,-33.43209],[-71.70019,-33.43268],[-71.69973,-33.43288],[-71.6994,-33.43293],[-71.69909,-33.43286],[-71.69887,-33.43283],[-71.69865,-33.43292],[-71.69845,-33.43317],[-71.69832,-33.43341],[-71.69831,-33.43366],[-71.69845,-33.43395],[-71.69868,-33.43415],[-71.6988,-33.43432],[-71.69882,-33.43448],[-71.69875,-33.43462],[-71.698665,-33.434735],[-71.69858,-33.43485],[-71.69848,-33.43517],[-71.69849,-33.43563],[-71.69837,-33.43583],[-71.69819,-33.43601],[-71.69789,-33.43607],[-71.69767,-33.43608],[-71.69756,-33.43612],[-71.69738,-33.43635],[-71.69714,-33.43664],[-71.69694,-33.43687],[-71.69691,-33.43707],[-71.69693,-33.43737],[-71.69684,-33.43753],[-71.69641,-33.43786],[-71.69595,-33.43803],[-71.69576,-33.43802],[-71.69559,-33.43796],[-71.69539,-33.4379],[-71.69508,-33.4379],[-71.6949,-33.43797],[-71.69466,-33.43814],[-71.69449,-33.43821],[-71.69438,-33.4382],[-71.69397,-33.43814],[-71.6935,-33.438],[-71.69338,-33.438],[-71.69326,-33.43805],[-71.6929,-33.4383],[-71.69264,-33.43838],[-71.69247,-33.43847],[-71.69219,-33.43876],[-71.6919,-33.439],[-71.69167,-33.43905],[-71.691569,-33.439047],[-71.69134,-33.43904],[-71.69115,-33.43909],[-71.69098,-33.43923],[-71.69075,-33.43932],[-71.69059,-33.43937],[-71.69049,-33.4395],[-71.69048,-33.43969],[-71.690441,-33.439736],[-71.690026,-33.439849],[-71.69001,-33.43985],[-71.69,-33.439856],[-71.686432,-33.440826],[-71.681972,-33.437937],[-71.682591,-33.433666],[-71.68767,-33.432284],[-71.688289,-33.428013],[-71.693367,-33.426631],[-71.693986,-33.422359],[-71.689526,-33.419469],[-71.690145,-33.415197],[-71.695224,-33.413815]]]},"properties":{"comuna":"El Quisco","mancha_id":"05604-88b2c46881fffff","clase":"Bajo","nivel_medio":1.167,"nivel_medio_min":0.871,"nivel_medio_max":1.478,"pct_alto":28.2,"n_hexagonos":8,"area_ha":364.14}},{"type":"Feature","geometry":{"type":"Polygon","coordinates":[[[-71.645683,-33.419084],[-71.646303,-33.414813],[-71.65138,-33.413433],[-71.655838,-33.416324],[-71.655219,-33.420595],[-71.650141,-33.421975],[-71.645683,-33.419084]]]},"properties":{"comuna":"El Quisco","mancha_id":"05604-88b2c46f23fffff","clase":"Medio","nivel_medio":2.298,"nivel_medio_min":2.298,"nivel_medio_max":2.298,"pct_alto":29.6,"n_hexagonos":1,"area_ha":64.47}},{"type":"Feature","geometry":{"type":"Polygon","coordinates":[[[-71.607549,-33.413035],[-71.608169,-33.408764],[-71.613245,-33.407385],[-71.617701,-33.410277],[-71.617081,-33.414548],[-71.621538,-33.41744],[-71.620918,-33.421711],[-71.615842,-33.42309],[-71.611385,-33.420198],[-71.612005,-33.415927],[-71.607549,-33.413035]]]},"properties":{"comuna":"El Quisco","mancha_id":"05604-88b2c46f11fffff","clase":"Medio","nivel_medio":2.43,"nivel_medio_min":2.423,"nivel_medio_max":2.436,"pct_alto":39.6,"n_hexagonos":2,"area_ha":128.9}},{"type":"Feature","geometry":{"type":"Polygon","coordinates":[[[-71.681972,-33.437937],[-71.686432,-33.440826],[-71.685974,-33.443983],[-71.6857,-33.44399],[-71.68552,-33.44401],[-71.68528,-33.4441],[-71.68505,-33.44426],[-71.68492,-33.44435],[-71.68474,-33.44437],[-71.6846,-33.44431],[-71.68438,-33.44431],[-71.68423,-33.44435],[-71.68408,-33.44452],[-71.68402,-33.4447],[-71.68401,-33.44495],[-71.6839,-33.44522],[-71.68361,-33.44542],[-71.68309,-33.44566],[-71.68291,-33.44577],[-71.68287,-33.44588],[-71.682876,-33.445895],[-71.680734,-33.446478],[-71.680143,-33.446095],[-71.679969,-33.445596],[-71.679742,-33.445341],[-71.679489,-33.445167],[-71.679057,-33.445098],[-71.678777,-33.445062],[-71.678461,-33.444956],[-71.678188,-33.444828],[-71.677372,-33.444299],[-71.677243,-33.444091],[-71.676944,-33.443777],[-71.676533,-33.443424],[-71.676309,-33.443354],[-71.676894,-33.439318],[-71.672434,-33.436428],[-71.673053,-33.432157],[-71.678132,-33.430776],[-71.682591,-33.433666],[-71.681972,-33.437937]]]},"properties":{"comuna":"El Quisco","mancha_id":"05604-88b2c46d61fffff","clase":"Medio","nivel_medio":1.906,"nivel_medio_min":1.666,"nivel_medio_max":2.181,"pct_alto":52.3,"n_hexagonos":2,"area_ha":125.66}},{"type":"Feature","geometry":{"type":"Polygon","coordinates":[[[-71.613983,-33.4359],[-71.619059,-33.434522],[-71.62218,-33.436546],[-71.621795,-33.437052],[-71.621592,-33.437413],[-71.621547,-33.437909],[-71.621592,-33.438338],[-71.621773,-33.438834],[-71.622089,-33.439421],[-71.622238,-33.43969],[-71.622346,-33.440015],[-71.622337,-33.440332],[-71.62222,-33.440603],[-71.621998,-33.440887],[-71.62175,-33.441136],[-71.621412,-33.441316],[-71.621028,-33.441361],[-71.620667,-33.441384],[-71.620284,-33.441316],[-71.619788,-33.441158],[-71.619336,-33.440887],[-71.618885,-33.440526],[-71.618637,-33.440368],[-71.618311,-33.440296],[-71.618048,-33.440323],[-71.617804,-33.440432],[-71.617216,-33.440865],[-71.616641,-33.441276],[-71.616478,-33.441397],[-71.615016,-33.440615],[-71.614496,-33.440279],[-71.614348,-33.440183],[-71.613851,-33.439862],[-71.613446,-33.439595],[-71.613983,-33.4359]]]},"properties":{"comuna":"El Quisco","mancha_id":"05604-88b2c46c67fffff","clase":"Medio","nivel_medio":2.484,"nivel_medio_min":2.484,"nivel_medio_max":2.484,"pct_alto":33.9,"n_hexagonos":1,"area_ha":46.73}},{"type":"Feature","geometry":{"type":"Polygon","coordinates":[[[-71.592322,-33.41717],[-71.596777,-33.420062],[-71.601853,-33.418684],[-71.606309,-33.421576],[-71.605689,-33.425847],[-71.600613,-33.427224],[-71.596157,-33.424332],[-71.592567,-33.425307],[-71.59247,-33.424891],[-71.592369,-33.424658],[-71.592297,-33.424491],[-71.592287,-33.424318],[-71.592263,-33.423886],[-71.59228,-33.423525],[-71.592293,-33.423266],[-71.592284,-33.423212],[-71.592254,-33.423037],[-71.592247,-33.423026],[-71.592001,-33.422625],[-71.591816,-33.422057],[-71.591771,-33.421916],[-71.591626,-33.420815],[-71.591501,-33.420332],[-71.591269,-33.419433],[-71.591266,-33.419421],[-71.591263,-33.419409],[-71.591259,-33.419401],[-71.591249,-33.419382],[-71.59102,-33.418926],[-71.590887,-33.418662],[-71.590747,-33.418475],[-71.59057,-33.418238],[-71.590372,-33.417903],[-71.59035,-33.417866],[-71.590208,-33.417743],[-71.592322,-33.41717]]]},"properties":{"comuna":"El Quisco","mancha_id":"05604-88b2c46c41fffff","clase":"Medio","nivel_medio":2.008,"nivel_medio_min":1.934,"nivel_medio_max":2.154,"pct_alto":18.7,"n_hexagonos":2,"area_ha":96.99}},{"type":"Feature","geometry":{"type":"Polygon","coordinates":[[[-71.674166,-33.390815],[-71.669088,-33.392198],[-71.665687,-33.389992],[-71.665697,-33.389974],[-71.665751,-33.389866],[-71.665757,-33.389854],[-71.66578,-33.389802],[-71.665819,-33.389711],[-71.665856,-33.389537],[-71.665868,-33.389482],[-71.665868,-33.389378],[-71.665867,-33.389142],[-71.665867,-33.389113],[-71.665867,-33.388846],[-71.665867,-33.388827],[-71.665867,-33.388811],[-71.665866,-33.3885],[-71.665873,-33.388327],[-71.665873,-33.388324],[-71.665874,-33.388301],[-71.665876,-33.388233],[-71.666007,-33.387923],[-71.666105,-33.387756],[-71.666108,-33.387755],[-71.666272,-33.387682],[-71.666626,-33.387583],[-71.66667,-33.38757],[-71.666727,-33.387554],[-71.667329,-33.387353],[-71.66802,-33.386953],[-71.668224,-33.386781],[-71.668225,-33.38678],[-71.668403,-33.38663],[-71.668463,-33.386556],[-71.668463,-33.386556],[-71.668483,-33.386531],[-71.668538,-33.386463],[-71.668692,-33.386348],[-71.668712,-33.386333],[-71.668933,-33.386203],[-71.668938,-33.386202],[-71.668982,-33.386193],[-71.669352,-33.386123],[-71.669638,-33.386059],[-71.669672,-33.386052],[-71.669743,-33.386036],[-71.669746,-33.386036],[-71.669764,-33.386035],[-71.669934,-33.386025],[-71.670182,-33.386011],[-71.670474,-33.386026],[-71.670479,-33.386026],[-71.670605,-33.386033],[-71.670965,-33.386013],[-71.671081,-33.386007],[-71.671126,-33.385989],[-71.671285,-33.385924],[-71.67146,-33.385898],[-71.671462,-33.385898],[-71.671537,-33.385887],[-71.671858,-33.385975],[-71.672076,-33.386072],[-71.672311,-33.38622],[-71.672794,-33.386426],[-71.673792,-33.386815],[-71.674376,-33.386771],[-71.67474,-33.386848],[-71.674813,-33.386864],[-71.675199,-33.387305],[-71.675785,-33.387739],[-71.67594,-33.38772],[-71.676502,-33.387539],[-71.677078,-33.387319],[-71.677437,-33.38735],[-71.67784,-33.38763],[-71.678157,-33.387306],[-71.678215,-33.38726],[-71.67823,-33.387248],[-71.678255,-33.387227],[-71.678326,-33.387165],[-71.678502,-33.38701],[-71.678505,-33.386993],[-71.678517,-33.386919],[-71.678626,-33.386288],[-71.678734,-33.385661],[-71.678743,-33.385612],[-71.678769,-33.385456],[-71.679862,-33.385159],[-71.684321,-33.38805],[-71.683702,-33.392324],[-71.678624,-33.393707],[-71.674166,-33.390815]]]},"properties":{"comuna":"El Quisco","mancha_id":"05604-88b2c46ab3fffff","clase":"Medio","nivel_medio":1.933,"nivel_medio_min":1.753,"nivel_medio_max":2.185,"pct_alto":50.3,"n_hexagonos":2,"area_ha":101.22}},{"type":"Feature","geometry":{"type":"Polygon","coordinates":[[[-71.683829,-33.425123],[-71.684448,-33.420851],[-71.679989,-33.417961],[-71.680608,-33.413689],[-71.685686,-33.412307],[-71.690145,-33.415197],[-71.689526,-33.419469],[-71.693986,-33.422359],[-71.693367,-33.426631],[-71.688289,-33.428013],[-71.683829,-33.425123]]]},"properties":{"comuna":"El Quisco","mancha_id":"05604-88b2c46895fffff","clase":"Medio","nivel_medio":1.921,"nivel_medio_min":1.908,"nivel_medio_max":1.933,"pct_alto":51.2,"n_hexagonos":2,"area_ha":128.99}},{"type":"Feature","geometry":{"type":"Polygon","coordinates":[[[-71.615104,-33.394569],[-71.610028,-33.395949],[-71.609556,-33.395643],[-71.609731,-33.395605],[-71.611577,-33.395213],[-71.612947,-33.394886],[-71.613754,-33.39462],[-71.614776,-33.39418],[-71.615199,-33.393916],[-71.615477,-33.393741],[-71.6159,-33.393416],[-71.616372,-33.394293],[-71.617125,-33.395881],[-71.615104,-33.394569]]]},"properties":{"comuna":"El Quisco","mancha_id":"05604-88b2c46f51fffff","clase":"Alto","nivel_medio":2.97,"nivel_medio_min":2.541,"nivel_medio_max":3.394,"pct_alto":74.7,"n_hexagonos":2,"area_ha":3.96}},{"type":"Feature","geometry":{"type":"Polygon","coordinates":[[[-71.605689,-33.425847],[-71.606309,-33.421576],[-71.601853,-33.418684],[-71.602473,-33.414414],[-71.598017,-33.411521],[-71.598637,-33.40725],[-71.603713,-33.405871],[-71.604333,-33.4016],[-71.609409,-33.400221],[-71.613865,-33.403113],[-71.613245,-33.407385],[-71.608169,-33.408764],[-71.607549,-33.413035],[-71.612005,-33.415927],[-71.611385,-33.420198],[-71.615842,-33.42309],[-71.615222,-33.42736],[-71.610146,-33.428738],[-71.605689,-33.425847]]]},"properties":{"comuna":"El Quisco","mancha_id":"05604-88b2c46c69fffff","clase":"Alto","nivel_medio":2.98,"nivel_medio_min":2.69,"nivel_medio_max":3.303,"pct_alto":76.3,"n_hexagonos":4,"area_ha":257.8}},{"type":"Feature","geometry":{"type":"Polygon","coordinates":[[[-71.592942,-33.412899],[-71.592322,-33.41717],[-71.590208,-33.417743],[-71.59009,-33.417641],[-71.589907,-33.417536],[-71.58962,-33.417372],[-71.58962,-33.417371],[-71.589644,-33.417191],[-71.58968,-33.416921],[-71.589773,-33.416306],[-71.589812,-33.416133],[-71.589863,-33.415909],[-71.589863,-33.415908],[-71.589838,-33.415798],[-71.589821,-33.415723],[-71.589682,-33.415416],[-71.589612,-33.415118],[-71.589608,-33.415099],[-71.589562,-33.414967],[-71.589436,-33.414599],[-71.589205,-33.414293],[-71.58917,-33.414193],[-71.589124,-33.414062],[-71.58891,-33.413725],[-71.588792,-33.413631],[-71.588607,-33.413483],[-71.588689,-33.413059],[-71.588954,-33.411675],[-71.589231,-33.41049],[-71.592942,-33.412899]]]},"properties":{"comuna":"El Quisco","mancha_id":"05604-88b2c46c49fffff","clase":"Alto","nivel_medio":2.675,"nivel_medio_min":2.675,"nivel_medio_max":2.675,"pct_alto":50.0,"n_hexagonos":1,"area_ha":20.4}},{"type":"Feature","geometry":{"type":"Polygon","coordinates":[[[-71.600613,-33.427224],[-71.599993,-33.431494],[-71.596764,-33.43237],[-71.596667,-33.43232],[-71.596313,-33.432134],[-71.595896,-33.43201],[-71.595894,-33.432009],[-71.595891,-33.432008],[-71.595441,-33.432031],[-71.595251,-33.432074],[-71.595208,-33.432083],[-71.595042,-33.43212],[-71.594819,-33.43206],[-71.594677,-33.432021],[-71.594418,-33.431951],[-71.594367,-33.431937],[-71.594272,-33.431912],[-71.594118,-33.43187],[-71.594089,-33.431745],[-71.594083,-33.431721],[-71.594056,-33.431606],[-71.594052,-33.431591],[-71.594049,-33.431578],[-71.594017,-33.431444],[-71.593947,-33.431149],[-71.593551,-33.429474],[-71.593238,-33.428154],[-71.593162,-33.427832],[-71.59315,-33.427783],[-71.59304,-33.427316],[-71.593006,-33.427169],[-71.59297,-33.427015],[-71.592567,-33.425307],[-71.596157,-33.424332],[-71.600613,-33.427224]]]},"properties":{"comuna":"El Quisco","mancha_id":"05604-88b2c46c47fffff","clase":"Alto","nivel_medio":3.358,"nivel_medio_min":3.358,"nivel_medio_max":3.358,"pct_alto":78.1,"n_hexagonos":1,"area_ha":48.01}},{"type":"Feature","geometry":{"type":"Polygon","coordinates":[[[-71.684448,-33.420851],[-71.683829,-33.425123],[-71.688289,-33.428013],[-71.68767,-33.432284],[-71.682591,-33.433666],[-71.678132,-33.430776],[-71.673053,-33.432157],[-71.672434,-33.436428],[-71.676894,-33.439318],[-71.676309,-33.443354],[-71.676063,-33.443277],[-71.675564,-33.443189],[-71.675124,-33.443189],[-71.674596,-33.443248],[-71.673627,-33.443512],[-71.672746,-33.443688],[-71.671953,-33.443747],[-71.671278,-33.443688],[-71.670662,-33.4436],[-71.669957,-33.443483],[-71.669399,-33.443336],[-71.668607,-33.443072],[-71.668045,-33.442926],[-71.666737,-33.442079],[-71.667356,-33.437808],[-71.662897,-33.434918],[-71.657819,-33.436298],[-71.653361,-33.433408],[-71.648283,-33.434788],[-71.646618,-33.433708],[-71.646603,-33.433609],[-71.646504,-33.433454],[-71.646233,-33.433345],[-71.646015,-33.433311],[-71.646005,-33.433311],[-71.643825,-33.431897],[-71.638748,-33.433276],[-71.63429,-33.430385],[-71.63491,-33.426115],[-71.639987,-33.424735],[-71.640606,-33.420464],[-71.636149,-33.417573],[-71.636768,-33.413302],[-71.632311,-33.41041],[-71.627234,-33.41179],[-71.626615,-33.416061],[-71.631072,-33.418953],[-71.630452,-33.423224],[-71.625375,-33.424603],[-71.620918,-33.421711],[-71.621538,-33.41744],[-71.617081,-33.414548],[-71.617701,-33.410277],[-71.622777,-33.408898],[-71.623397,-33.404626],[-71.628473,-33.403246],[-71.629093,-33.398974],[-71.629465,-33.398873],[-71.62947,-33.398874],[-71.632786,-33.399662],[-71.632775,-33.399721],[-71.632586,-33.400739],[-71.632479,-33.401316],[-71.632726,-33.401313],[-71.633562,-33.401302],[-71.634397,-33.401291],[-71.634491,-33.40129],[-71.634724,-33.401287],[-71.634733,-33.401287],[-71.634783,-33.401286],[-71.634882,-33.401285],[-71.634891,-33.401285],[-71.634998,-33.401283],[-71.635108,-33.401282],[-71.635116,-33.401282],[-71.635159,-33.401281],[-71.63516,-33.401281],[-71.635541,-33.401276],[-71.636216,-33.401267],[-71.637145,-33.401271],[-71.637703,-33.401273],[-71.63834,-33.401276],[-71.638383,-33.401276],[-71.638512,-33.401277],[-71.63855,-33.401277],[-71.641599,-33.401302],[-71.642262,-33.401331],[-71.642672,-33.401349],[-71.643509,-33.401523],[-71.643606,-33.401543],[-71.643973,-33.401619],[-71.645958,-33.402031],[-71.645985,-33.402036],[-71.646603,-33.402164],[-71.647089,-33.402276],[-71.64723,-33.402308],[-71.647255,-33.402314],[-71.647318,-33.402329],[-71.647454,-33.40236],[-71.647478,-33.402365],[-71.648092,-33.402474],[-71.648184,-33.40249],[-71.648348,-33.402534],[-71.648351,-33.402535],[-71.648528,-33.402584],[-71.648593,-33.402601],[-71.648661,-33.40264],[-71.648762,-33.402697],[-71.649016,-33.402832],[-71.649056,-33.402835],[-71.649231,-33.402847],[-71.649403,-33.40279],[-71.649405,-33.402789],[-71.649446,-33.402775],[-71.649455,-33.402773],[-71.649474,-33.402769],[-71.64987,-33.402694],[-71.650181,-33.402747],[-71.650447,-33.40275],[-71.650457,-33.40275],[-71.650812,-33.402753],[-71.651183,-33.402696],[-71.651262,-33.402684],[-71.651266,-33.402683],[-71.651366,-33.402648],[-71.651663,-33.402546],[-71.651742,-33.402487],[-71.651884,-33.402381],[-71.651988,-33.40229],[-71.652023,-33.402258],[-71.652284,-33.402203],[-71.652331,-33.402184],[-71.652684,-33.402044],[-71.652847,-33.40193],[-71.652943,-33.401864],[-71.653127,-33.401735],[-71.653372,-33.401593],[-71.653501,-33.401517],[-71.65352,-33.401509],[-71.653807,-33.401381],[-71.654065,-33.401318],[-71.654251,-33.401273],[-71.654303,-33.401261],[-71.654599,-33.401188],[-71.654601,-33.401187],[-71.654602,-33.401187],[-71.654882,-33.401118],[-71.655023,-33.401068],[-71.655302,-33.400967],[-71.655455,-33.400916],[-71.655483,-33.400907],[-71.655613,-33.400863],[-71.655731,-33.400791],[-71.655987,-33.400633],[-71.656415,-33.400358],[-71.656568,-33.40026],[-71.656815,-33.400102],[-71.657589,-33.399433],[-71.657659,-33.399396],[-71.658338,-33.399042],[-71.658699,-33.398908],[-71.658701,-33.398907],[-71.658901,-33.398832],[-71.659091,-33.398762],[-71.659223,-33.398726],[-71.659225,-33.398726],[-71.659344,-33.398694],[-71.659649,-33.398611],[-71.659698,-33.398585],[-71.659942,-33.398452],[-71.660158,-33.398226],[-71.660199,-33.398183],[-71.660221,-33.398128],[-71.660307,-33.397917],[-71.66031,-33.397846],[-71.66031,-33.397845],[-71.660315,-33.397749],[-71.660316,-33.397728],[-71.660316,-33.397727],[-71.660317,-33.397708],[-71.660303,-33.397237],[-71.660419,-33.396955],[-71.660441,-33.3969],[-71.660484,-33.396816],[-71.660484,-33.396815],[-71.660597,-33.396592],[-71.660686,-33.396513],[-71.660742,-33.396464],[-71.660821,-33.396408],[-71.660858,-33.396382],[-71.660985,-33.396292],[-71.661148,-33.396177],[-71.661441,-33.396046],[-71.66154,-33.396002],[-71.661544,-33.396],[-71.66167,-33.395944],[-71.661797,-33.395774],[-71.661803,-33.39569],[-71.661803,-33.39569],[-71.661809,-33.395608],[-71.661799,-33.395288],[-71.661803,-33.395067],[-71.661805,-33.394955],[-71.661866,-33.394773],[-71.661881,-33.394746],[-71.662038,-33.39445],[-71.662052,-33.394195],[-71.662063,-33.394011],[-71.66221,-33.393888],[-71.662236,-33.393866],[-71.662307,-33.393838],[-71.66294,-33.393591],[-71.663204,-33.39335],[-71.663258,-33.393287],[-71.663403,-33.393118],[-71.663583,-33.393061],[-71.663589,-33.39306],[-71.663672,-33.393033],[-71.663714,-33.39303],[-71.66379,-33.393024],[-71.663876,-33.393017],[-71.663882,-33.393017],[-71.664074,-33.393001],[-71.664106,-33.392984],[-71.664358,-33.392845],[-71.664362,-33.392844],[-71.664369,-33.39284],[-71.664387,-33.39283],[-71.664402,-33.392806],[-71.664539,-33.392591],[-71.664552,-33.392545],[-71.664657,-33.392172],[-71.66482,-33.391673],[-71.664842,-33.39158],[-71.664852,-33.391535],[-71.664903,-33.391318],[-71.664945,-33.390869],[-71.665036,-33.390628],[-71.665049,-33.390592],[-71.665094,-33.390537],[-71.665239,-33.39036],[-71.665583,-33.390095],[-71.665669,-33.390028],[-71.665687,-33.389992],[-71.669088,-33.392198],[-71.668469,-33.396471],[-71.672928,-33.399362],[-71.678005,-33.39798],[-71.682464,-33.400871],[-71.681845,-33.405144],[-71.676767,-33.406526],[-71.676149,-33.410799],[-71.680608,-33.413689],[-71.679989,-33.417961],[-71.684448,-33.420851]],[[-71.650141,-33.421975],[-71.655219,-33.420595],[-71.655838,-33.416324],[-71.65138,-33.413433],[-71.646303,-33.414813],[-71.645683,-33.419084],[-71.650141,-33.421975]]]},"properties":{"comuna":"El Quisco","mancha_id":"05604-88b2c46891fffff","clase":"Alto","nivel_medio":2.994,"nivel_medio_min":2.608,"nivel_medio_max":3.474,"pct_alto":78.9,"n_hexagonos":31,"area_ha":1895.75}},{"type":"Feature","geometry":{"type":"Polygon","coordinates":[[[-71.655708,-33.441016],[-71.655633,-33.440994],[-71.655077,-33.440835],[-71.654499,-33.440655],[-71.65412,-33.440547],[-71.653651,-33.440456],[-71.653019,-33.440276],[-71.652586,-33.440132],[-71.652135,-33.439933],[-71.65172,-33.439807],[-71.651178,-33.439698],[-71.650693,-33.439653],[-71.650485,-33.439653],[-71.650214,-33.439771],[-71.649482,-33.440132],[-71.649406,-33.440187],[-71.648994,-33.440493],[-71.648471,-33.440673],[-71.647893,-33.440817],[-71.647352,-33.440817],[-71.647009,-33.440691],[-71.64672,-33.440456],[-71.646522,-33.440077],[-71.646567,-33.439699],[-71.646623,-33.43934],[-71.646631,-33.439292],[-71.646649,-33.439011],[-71.646558,-33.438652],[-71.646341,-33.438309],[-71.646125,-33.437948],[-71.645944,-33.437605],[-71.645872,-33.437208],[-71.645998,-33.436919],[-71.646305,-33.436684],[-71.646576,-33.436504],[-71.646848,-33.436387],[-71.646983,-33.43627],[-71.647092,-33.436061],[-71.647081,-33.435764],[-71.646901,-33.435204],[-71.64681,-33.434952],[-71.646684,-33.434609],[-71.64663,-33.434158],[-71.64664,-33.433854],[-71.646618,-33.433708],[-71.648283,-33.434788],[-71.653361,-33.433408],[-71.657819,-33.436298],[-71.662897,-33.434918],[-71.667356,-33.437808],[-71.666737,-33.442079],[-71.668045,-33.442926],[-71.667814,-33.442866],[-71.666845,-33.44272],[-71.665583,-33.442514],[-71.665298,-33.44247],[-71.665003,-33.442424],[-71.664263,-33.442261],[-71.663577,-33.442207],[-71.662892,-33.442153],[-71.662404,-33.442081],[-71.661917,-33.442009],[-71.661502,-33.441936],[-71.661159,-33.441864],[-71.660599,-33.441612],[-71.660238,-33.441503],[-71.659877,-33.441395],[-71.659553,-33.441305],[-71.659174,-33.441269],[-71.658813,-33.441178],[-71.658361,-33.44116],[-71.658164,-33.441193],[-71.658037,-33.441214],[-71.657784,-33.441251],[-71.657513,-33.441269],[-71.657062,-33.441287],[-71.656538,-33.441214],[-71.655708,-33.441016]]]},"properties":{"comuna":"El Quisco","mancha_id":"05604-88b2c46d09fffff","clase":"Muy Alto","nivel_medio":3.832,"nivel_medio_min":3.746,"nivel_medio_max":4.0,"pct_alto":99.8,"n_hexagonos":6,"area_ha":128.66}},{"type":"Feature","geometry":{"type":"Polygon","coordinates":[[[-71.592322,-33.41717],[-71.592942,-33.412899],[-71.589231,-33.41049],[-71.589251,-33.410406],[-71.589253,-33.410395],[-71.589303,-33.410182],[-71.589426,-33.409659],[-71.589437,-33.409609],[-71.589486,-33.409216],[-71.589486,-33.409215],[-71.589492,-33.409171],[-71.589493,-33.409116],[-71.589493,-33.409115],[-71.589501,-33.408915],[-71.589515,-33.407879],[-71.589523,-33.407266],[-71.589524,-33.407235],[-71.589525,-33.407154],[-71.589525,-33.407151],[-71.589516,-33.406768],[-71.589509,-33.406496],[-71.589475,-33.405978],[-71.589433,-33.405647],[-71.58936,-33.405064],[-71.589358,-33.405049],[-71.589345,-33.404867],[-71.589331,-33.404665],[-71.589283,-33.404006],[-71.589254,-33.403602],[-71.589217,-33.403109],[-71.589205,-33.402941],[-71.589104,-33.401541],[-71.589073,-33.401228],[-71.589037,-33.400889],[-71.588978,-33.400337],[-71.588975,-33.400308],[-71.588975,-33.400307],[-71.588972,-33.400285],[-71.588958,-33.400182],[-71.588905,-33.39992],[-71.588858,-33.399719],[-71.588853,-33.399697],[-71.58884,-33.399641],[-71.588832,-33.399616],[-71.592947,-33.398881],[-71.593755,-33.398737],[-71.598833,-33.397853],[-71.600034,-33.397625],[-71.603391,-33.396985],[-71.605957,-33.396408],[-71.609556,-33.395643],[-71.610028,-33.395949],[-71.615104,-33.394569],[-71.617125,-33.395881],[-71.618469,-33.398717],[-71.618919,-33.398675],[-71.618944,-33.398673],[-71.619391,-33.398632],[-71.619856,-33.398589],[-71.620411,-33.398538],[-71.620915,-33.398491],[-71.621441,-33.398443],[-71.621881,-33.398402],[-71.622411,-33.398353],[-71.622808,-33.398316],[-71.623054,-33.398294],[-71.624214,-33.398187],[-71.624277,-33.398181],[-71.624353,-33.398174],[-71.624443,-33.398166],[-71.625914,-33.39803],[-71.625915,-33.39803],[-71.625916,-33.39803],[-71.627858,-33.398492],[-71.628404,-33.398621],[-71.628633,-33.398676],[-71.629465,-33.398873],[-71.629093,-33.398974],[-71.628473,-33.403246],[-71.623397,-33.404626],[-71.622777,-33.408898],[-71.617701,-33.410277],[-71.613245,-33.407385],[-71.613865,-33.403113],[-71.609409,-33.400221],[-71.604333,-33.4016],[-71.603713,-33.405871],[-71.598637,-33.40725],[-71.598017,-33.411521],[-71.602473,-33.414414],[-71.601853,-33.418684],[-71.596777,-33.420062],[-71.592322,-33.41717]]]},"properties":{"comuna":"El Quisco","mancha_id":"05604-88b2c46c4dfffff","clase":"Muy Alto","nivel_medio":3.66,"nivel_medio_min":3.507,"nivel_medio_max":4.0,"pct_alto":92.0,"n_hexagonos":10,"area_ha":447.56}},{"type":"Feature","geometry":{"type":"Polygon","coordinates":[[[-71.596764,-33.43237],[-71.599993,-33.431494],[-71.600613,-33.427224],[-71.605689,-33.425847],[-71.610146,-33.428738],[-71.615222,-33.42736],[-71.615842,-33.42309],[-71.620918,-33.421711],[-71.625375,-33.424603],[-71.630452,-33.423224],[-71.631072,-33.418953],[-71.626615,-33.416061],[-71.627234,-33.41179],[-71.632311,-33.41041],[-71.636768,-33.413302],[-71.636149,-33.417573],[-71.640606,-33.420464],[-71.639987,-33.424735],[-71.63491,-33.426115],[-71.63429,-33.430385],[-71.638748,-33.433276],[-71.643825,-33.431897],[-71.646005,-33.433311],[-71.645782,-33.433309],[-71.645554,-33.433419],[-71.645454,-33.433591],[-71.645312,-33.433905],[-71.645132,-33.434248],[-71.644933,-33.434428],[-71.644572,-33.434627],[-71.644175,-33.434771],[-71.643778,-33.434879],[-71.643399,-33.434934],[-71.643056,-33.434861],[-71.642659,-33.434627],[-71.642407,-33.43441],[-71.642172,-33.433977],[-71.642043,-33.43379],[-71.641926,-33.433646],[-71.641754,-33.433591],[-71.641301,-33.4337],[-71.641184,-33.433799],[-71.641157,-33.433989],[-71.641125,-33.434284],[-71.641053,-33.434537],[-71.640885,-33.434722],[-71.640656,-33.434825],[-71.640385,-33.434879],[-71.64006,-33.434825],[-71.639663,-33.434807],[-71.639284,-33.434807],[-71.638941,-33.434807],[-71.638505,-33.434947],[-71.63849,-33.434952],[-71.638183,-33.434952],[-71.637931,-33.434825],[-71.637822,-33.434627],[-71.637822,-33.434302],[-71.637981,-33.433953],[-71.638008,-33.433718],[-71.637899,-33.433555],[-71.637718,-33.43341],[-71.637263,-33.433219],[-71.636559,-33.432948],[-71.636036,-33.43275],[-71.635693,-33.432587],[-71.635025,-33.432208],[-71.634285,-33.431703],[-71.633906,-33.43145],[-71.633689,-33.431252],[-71.633473,-33.431017],[-71.633224,-33.430675],[-71.633184,-33.43062],[-71.632859,-33.430151],[-71.63257,-33.429862],[-71.632227,-33.429537],[-71.631812,-33.429194],[-71.631523,-33.42905],[-71.631023,-33.428818],[-71.630571,-33.428705],[-71.630154,-33.428697],[-71.629711,-33.428669],[-71.629331,-33.428669],[-71.629042,-33.42857],[-71.628752,-33.428461],[-71.628453,-33.428488],[-71.628157,-33.428614],[-71.627819,-33.428998],[-71.627675,-33.429457],[-71.627661,-33.4299],[-71.627571,-33.430464],[-71.627548,-33.430684],[-71.627503,-33.431119],[-71.627436,-33.431525],[-71.627278,-33.431863],[-71.626939,-33.432292],[-71.626578,-33.432653],[-71.62624,-33.433014],[-71.625766,-33.433284],[-71.625044,-33.433623],[-71.624435,-33.433939],[-71.624029,-33.434232],[-71.623623,-33.434661],[-71.623149,-33.435405],[-71.622766,-33.435879],[-71.622224,-33.436488],[-71.62218,-33.436546],[-71.619059,-33.434522],[-71.613983,-33.4359],[-71.613446,-33.439595],[-71.613293,-33.439495],[-71.613014,-33.439311],[-71.612221,-33.439058],[-71.61177,-33.438756],[-71.611311,-33.438449],[-71.610544,-33.438028],[-71.610367,-33.43793],[-71.610307,-33.437912],[-71.610238,-33.43789],[-71.610224,-33.437886],[-71.609742,-33.437736],[-71.609647,-33.437706],[-71.608282,-33.437406],[-71.608231,-33.437389],[-71.606985,-33.436984],[-71.606191,-33.436702],[-71.606117,-33.436694],[-71.605532,-33.436632],[-71.605077,-33.436467],[-71.604601,-33.436153],[-71.604407,-33.435999],[-71.604235,-33.435861],[-71.603991,-33.435667],[-71.603539,-33.434839],[-71.603472,-33.434717],[-71.60343,-33.434641],[-71.603386,-33.43457],[-71.603059,-33.434055],[-71.602825,-33.433907],[-71.602584,-33.433755],[-71.602126,-33.433567],[-71.601835,-33.433447],[-71.601587,-33.433394],[-71.601155,-33.4333],[-71.600723,-33.433235],[-71.600525,-33.433205],[-71.599996,-33.433186],[-71.599817,-33.43318],[-71.599768,-33.43319],[-71.59971,-33.433203],[-71.599446,-33.433261],[-71.599122,-33.433332],[-71.599002,-33.433359],[-71.5986,-33.43329],[-71.598582,-33.433287],[-71.598437,-33.433263],[-71.59811,-33.433108],[-71.597854,-33.432966],[-71.59771,-33.432886],[-71.597162,-33.432583],[-71.597131,-33.432565],[-71.597031,-33.43251],[-71.596853,-33.432417],[-71.596797,-33.432388],[-71.596764,-33.43237]]]},"properties":{"comuna":"El Quisco","mancha_id":"05604-88b2c46c0dfffff","clase":"Muy Alto","nivel_medio":3.716,"nivel_medio_min":3.512,"nivel_medio_max":3.959,"pct_alto":93.7,"n_hexagonos":11,"area_ha":479.53}}],"bbox":[-71.71005,-33.44648,-71.5886,-33.37188]}