{"type":"FeatureCollection","features":[{"type":"Feature","geometry":{"type":"Polygon","coordinates":[[[-71.040626,-32.835236],[-71.040125,-32.834904],[-71.040153,-32.834709],[-71.040348,-32.834798],[-71.040626,-32.835123],[-71.040626,-32.835236]]]},"properties":{"comuna":"Llaillay","mancha_id":"05703-88b2c4b8ebfffff","clase":"Muy Bajo","nivel_medio":0.091,"nivel_medio_min":0.091,"nivel_medio_max":0.091,"pct_alto":3.0,"n_hexagonos":1,"area_ha":0.1}},{"type":"Feature","geometry":{"type":"Polygon","coordinates":[[[-70.741328,-32.924299],[-70.740635,-32.924286],[-70.741286,-32.92411],[-70.741641,-32.924346],[-70.741328,-32.924299]]]},"properties":{"comuna":"Llaillay","mancha_id":"05703-88b2c4a6e7fffff","clase":"Muy Bajo","nivel_medio":0.442,"nivel_medio_min":0.442,"nivel_medio_max":0.442,"pct_alto":5.3,"n_hexagonos":1,"area_ha":0.1}},{"type":"Feature","geometry":{"type":"Polygon","coordinates":[[[-70.742636,-32.925063],[-70.74254,-32.924942],[-70.745697,-32.927038],[-70.745568,-32.927917],[-70.745489,-32.927881],[-70.744715,-32.927365],[-70.743637,-32.926447],[-70.74299,-32.925883],[-70.742636,-32.925063]]]},"properties":{"comuna":"Llaillay","mancha_id":"05703-88b2c4a6e7fffff-2","clase":"Muy Bajo","nivel_medio":0.442,"nivel_medio_min":0.442,"nivel_medio_max":0.442,"pct_alto":5.3,"n_hexagonos":1,"area_ha":2.52}},{"type":"Feature","geometry":{"type":"Polygon","coordinates":[[[-70.94738,-32.839504],[-70.948007,-32.835208],[-70.953051,-32.833837],[-70.95747,-32.836762],[-70.956843,-32.841058],[-70.951798,-32.842429],[-70.94738,-32.839504]]]},"properties":{"comuna":"Llaillay","mancha_id":"05703-88b2c4a31dfffff","clase":"Muy Bajo","nivel_medio":0.285,"nivel_medio_min":0.285,"nivel_medio_max":0.285,"pct_alto":4.5,"n_hexagonos":1,"area_ha":64.83}},{"type":"Feature","geometry":{"type":"Polygon","coordinates":[[[-70.911468,-32.886359],[-70.912095,-32.882067],[-70.91714,-32.8807],[-70.921557,-32.883624],[-70.92093,-32.887916],[-70.925348,-32.89084],[-70.924721,-32.895131],[-70.919675,-32.896499],[-70.915258,-32.893575],[-70.915885,-32.889283],[-70.911468,-32.886359]]]},"properties":{"comuna":"Llaillay","mancha_id":"05703-88b2c4a015fffff","clase":"Muy Bajo","nivel_medio":0.447,"nivel_medio_min":0.416,"nivel_medio_max":0.478,"pct_alto":0.1,"n_hexagonos":2,"area_ha":129.46}},{"type":"Feature","geometry":{"type":"Polygon","coordinates":[[[-71.010468,-32.838852],[-71.006048,-32.835929],[-71.001001,-32.837302],[-70.996581,-32.834378],[-70.997207,-32.830081],[-71.002254,-32.828708],[-71.002736,-32.825394],[-71.003398,-32.825149],[-71.003492,-32.825125],[-71.003616,-32.825408],[-71.003687,-32.82578],[-71.003758,-32.826116],[-71.003829,-32.826612],[-71.004077,-32.827126],[-71.004289,-32.827781],[-71.004395,-32.828507],[-71.004378,-32.829003],[-71.00413,-32.829711],[-71.004018,-32.829875],[-71.003994,-32.82991],[-71.003935,-32.830171],[-71.004094,-32.830437],[-71.004342,-32.830791],[-71.004697,-32.831234],[-71.004891,-32.8315],[-71.004998,-32.831907],[-71.005281,-32.832296],[-71.005724,-32.833076],[-71.00606,-32.833465],[-71.006359,-32.83379],[-71.006467,-32.833908],[-71.006627,-32.834333],[-71.00691,-32.834776],[-71.007211,-32.835165],[-71.007512,-32.835448],[-71.007849,-32.835626],[-71.008185,-32.835714],[-71.008663,-32.835856],[-71.009141,-32.836068],[-71.009779,-32.836599],[-71.010257,-32.837007],[-71.010823,-32.837379],[-71.011461,-32.837857],[-71.011975,-32.838282],[-71.012033,-32.838426],[-71.010468,-32.838852]]]},"properties":{"comuna":"Llaillay","mancha_id":"05703-88b2c4b8d1fffff","clase":"Bajo","nivel_medio":1.124,"nivel_medio_min":1.017,"nivel_medio_max":1.332,"pct_alto":16.7,"n_hexagonos":3,"area_ha":76.98}},{"type":"Feature","geometry":{"type":"Polygon","coordinates":[[[-71.0332,-32.84917],[-71.028778,-32.846247],[-71.023731,-32.847621],[-71.01931,-32.844698],[-71.019724,-32.841853],[-71.020138,-32.841823],[-71.020518,-32.841748],[-71.020819,-32.841655],[-71.021144,-32.841424],[-71.021491,-32.841146],[-71.021931,-32.840775],[-71.022186,-32.840567],[-71.022534,-32.840358],[-71.022835,-32.840196],[-71.023182,-32.84008],[-71.023669,-32.839895],[-71.024086,-32.839756],[-71.024456,-32.839617],[-71.024804,-32.839547],[-71.025105,-32.839501],[-71.025406,-32.839362],[-71.025441,-32.839331],[-71.025638,-32.839154],[-71.025846,-32.838876],[-71.02624,-32.838435],[-71.026424,-32.838016],[-71.026542,-32.837591],[-71.026944,-32.837072],[-71.027392,-32.837024],[-71.027885,-32.836837],[-71.02858,-32.836513],[-71.028974,-32.836293],[-71.029281,-32.835962],[-71.029659,-32.835513],[-71.030296,-32.835088],[-71.030839,-32.834876],[-71.031453,-32.834711],[-71.031878,-32.834687],[-71.032303,-32.834923],[-71.033082,-32.835466],[-71.034003,-32.835773],[-71.034409,-32.835837],[-71.035077,-32.836279],[-71.034452,-32.840576],[-71.038873,-32.843499],[-71.038248,-32.847796],[-71.0332,-32.84917]]]},"properties":{"comuna":"Llaillay","mancha_id":"05703-88b2c4b881fffff","clase":"Bajo","nivel_medio":1.356,"nivel_medio_min":1.098,"nivel_medio_max":1.466,"pct_alto":22.6,"n_hexagonos":3,"area_ha":171.94}},{"type":"Feature","geometry":{"type":"Polygon","coordinates":[[[-70.77086,-32.825501],[-70.77025,-32.825666],[-70.769978,-32.825486],[-70.770641,-32.825486],[-70.77086,-32.825501]]]},"properties":{"comuna":"Llaillay","mancha_id":"05703-88b2c4b431fffff","clase":"Bajo","nivel_medio":0.835,"nivel_medio_min":0.835,"nivel_medio_max":0.835,"pct_alto":0.0,"n_hexagonos":1,"area_ha":0.09}},{"type":"Feature","geometry":{"type":"Polygon","coordinates":[[[-71.009995,-32.975015],[-71.010622,-32.970727],[-71.01329,-32.970004],[-71.013324,-32.970115],[-71.01337,-32.970331],[-71.013447,-32.970841],[-71.01354,-32.97132],[-71.013614,-32.971663],[-71.013648,-32.97183],[-71.013741,-32.972278],[-71.01371,-32.972741],[-71.013787,-32.97305],[-71.013729,-32.973637],[-71.013766,-32.97398],[-71.013818,-32.974456],[-71.013864,-32.974872],[-71.013772,-32.97512],[-71.013532,-32.975768],[-71.013277,-32.97614],[-71.013071,-32.976411],[-71.012025,-32.976355],[-71.011931,-32.976349],[-71.01104,-32.976298],[-71.009497,-32.976209],[-71.007599,-32.976099],[-71.006303,-32.976015],[-71.009995,-32.975015]]]},"properties":{"comuna":"Llaillay","mancha_id":"05703-88b2c4a8dbfffff","clase":"Bajo","nivel_medio":1.083,"nivel_medio_min":0.56,"nivel_medio_max":1.165,"pct_alto":31.1,"n_hexagonos":2,"area_ha":23.31}},{"type":"Feature","geometry":{"type":"Polygon","coordinates":[[[-70.794209,-32.893363],[-70.794838,-32.889074],[-70.799879,-32.887712],[-70.804291,-32.890639],[-70.803663,-32.894928],[-70.798621,-32.89629],[-70.794209,-32.893363]]]},"properties":{"comuna":"Llaillay","mancha_id":"05703-88b2c4a751fffff","clase":"Bajo","nivel_medio":1.394,"nivel_medio_min":1.394,"nivel_medio_max":1.394,"pct_alto":15.8,"n_hexagonos":1,"area_ha":64.64}},{"type":"Feature","geometry":{"type":"Polygon","coordinates":[[[-70.796106,-32.913443],[-70.796735,-32.909155],[-70.801776,-32.907794],[-70.806189,-32.91072],[-70.811231,-32.909358],[-70.815644,-32.912285],[-70.815016,-32.916573],[-70.809974,-32.917934],[-70.80556,-32.915008],[-70.800519,-32.916369],[-70.79989,-32.920656],[-70.794848,-32.922017],[-70.790435,-32.919091],[-70.791064,-32.914803],[-70.796106,-32.913443]]]},"properties":{"comuna":"Llaillay","mancha_id":"05703-88b2c4a711fffff","clase":"Bajo","nivel_medio":1.409,"nivel_medio_min":1.37,"nivel_medio_max":1.462,"pct_alto":17.8,"n_hexagonos":3,"area_ha":193.84}},{"type":"Feature","geometry":{"type":"Polygon","coordinates":[[[-70.820687,-32.910923],[-70.821315,-32.906634],[-70.826357,-32.905272],[-70.830771,-32.908198],[-70.830143,-32.912486],[-70.8251,-32.913849],[-70.820687,-32.910923]]]},"properties":{"comuna":"Llaillay","mancha_id":"05703-88b2c4a707fffff","clase":"Bajo","nivel_medio":1.346,"nivel_medio_min":1.346,"nivel_medio_max":1.346,"pct_alto":10.8,"n_hexagonos":1,"area_ha":64.64}},{"type":"Feature","geometry":{"type":"Polygon","coordinates":[[[-70.763965,-32.901528],[-70.764594,-32.89724],[-70.769634,-32.89588],[-70.774046,-32.898807],[-70.773417,-32.903095],[-70.768376,-32.904455],[-70.763965,-32.901528]]]},"properties":{"comuna":"Llaillay","mancha_id":"05703-88b2c4a62bfffff","clase":"Bajo","nivel_medio":1.258,"nivel_medio_min":1.258,"nivel_medio_max":1.258,"pct_alto":4.7,"n_hexagonos":1,"area_ha":64.61}},{"type":"Feature","geometry":{"type":"Polygon","coordinates":[[[-70.760189,-32.927248],[-70.7646,-32.930175],[-70.764259,-32.932497],[-70.764204,-32.932458],[-70.763704,-32.932082],[-70.763356,-32.93134],[-70.762774,-32.930242],[-70.761944,-32.929652],[-70.761334,-32.929302],[-70.760664,-32.929212],[-70.760254,-32.929462],[-70.759348,-32.929637],[-70.758454,-32.929692],[-70.757723,-32.929902],[-70.756784,-32.930172],[-70.756298,-32.930001],[-70.755874,-32.929852],[-70.755033,-32.929389],[-70.754894,-32.929312],[-70.754019,-32.92889],[-70.753374,-32.92846],[-70.752729,-32.928503],[-70.752058,-32.928505],[-70.751744,-32.928545],[-70.751325,-32.928496],[-70.750814,-32.928435],[-70.75022,-32.928395],[-70.75001,-32.928427],[-70.75,-32.928433],[-70.749749,-32.928568],[-70.749265,-32.928793],[-70.748824,-32.928982],[-70.748064,-32.929112],[-70.747031,-32.928583],[-70.746374,-32.928286],[-70.745568,-32.927917],[-70.745697,-32.927038],[-70.750737,-32.92568],[-70.755148,-32.928607],[-70.760189,-32.927248]]]},"properties":{"comuna":"Llaillay","mancha_id":"05703-88b2c4a451fffff","clase":"Bajo","nivel_medio":1.01,"nivel_medio_min":0.78,"nivel_medio_max":1.264,"pct_alto":21.2,"n_hexagonos":2,"area_ha":36.38}},{"type":"Feature","geometry":{"type":"Polygon","coordinates":[[[-70.964395,-32.822502],[-70.965021,-32.818205],[-70.970066,-32.816832],[-70.974485,-32.819757],[-70.973858,-32.824054],[-70.968813,-32.825426],[-70.964395,-32.822502]]]},"properties":{"comuna":"Llaillay","mancha_id":"05703-88b2c4a347fffff","clase":"Bajo","nivel_medio":1.198,"nivel_medio_min":1.198,"nivel_medio_max":1.198,"pct_alto":10.3,"n_hexagonos":1,"area_ha":64.86}},{"type":"Feature","geometry":{"type":"Polygon","coordinates":[[[-70.941708,-32.845169],[-70.942335,-32.840874],[-70.94738,-32.839504],[-70.951798,-32.842429],[-70.951171,-32.846724],[-70.946126,-32.848094],[-70.941708,-32.845169]]]},"properties":{"comuna":"Llaillay","mancha_id":"05703-88b2c4a311fffff","clase":"Bajo","nivel_medio":1.5,"nivel_medio_min":1.5,"nivel_medio_max":1.5,"pct_alto":39.6,"n_hexagonos":1,"area_ha":64.81}},{"type":"Feature","geometry":{"type":"Polygon","coordinates":[[[-70.956843,-32.841058],[-70.95747,-32.836762],[-70.962515,-32.835391],[-70.966933,-32.838315],[-70.966307,-32.842611],[-70.961261,-32.843982],[-70.956843,-32.841058]]]},"properties":{"comuna":"Llaillay","mancha_id":"05703-88b2c4a303fffff","clase":"Bajo","nivel_medio":1.027,"nivel_medio_min":1.027,"nivel_medio_max":1.027,"pct_alto":26.6,"n_hexagonos":1,"area_ha":64.83}},{"type":"Feature","geometry":{"type":"Polygon","coordinates":[[[-70.886852,-32.855931],[-70.88748,-32.851637],[-70.892523,-32.85027],[-70.896939,-32.853196],[-70.896311,-32.857489],[-70.891268,-32.858856],[-70.886852,-32.855931]]]},"properties":{"comuna":"Llaillay","mancha_id":"05703-88b2c4a2e5fffff","clase":"Bajo","nivel_medio":1.274,"nivel_medio_min":1.274,"nivel_medio_max":1.274,"pct_alto":5.8,"n_hexagonos":1,"area_ha":64.76}},{"type":"Feature","geometry":{"type":"Polygon","coordinates":[[[-70.856595,-32.864129],[-70.857223,-32.859837],[-70.862266,-32.858471],[-70.866681,-32.861397],[-70.866053,-32.865689],[-70.86101,-32.867055],[-70.856595,-32.864129]]]},"properties":{"comuna":"Llaillay","mancha_id":"05703-88b2c4a281fffff","clase":"Bajo","nivel_medio":1.491,"nivel_medio_min":1.491,"nivel_medio_max":1.491,"pct_alto":7.8,"n_hexagonos":1,"area_ha":64.73}},{"type":"Feature","geometry":{"type":"Polygon","coordinates":[[[-70.989065,-32.885918],[-70.989692,-32.881625],[-70.985272,-32.878702],[-70.985898,-32.874408],[-70.990945,-32.873037],[-70.995365,-32.87596],[-71.000412,-32.874588],[-71.001038,-32.870294],[-70.996618,-32.867371],[-70.997244,-32.863077],[-71.002291,-32.861705],[-71.002917,-32.857409],[-70.998497,-32.854486],[-70.999123,-32.850191],[-71.004169,-32.848818],[-71.004796,-32.844522],[-71.009842,-32.843149],[-71.014263,-32.846072],[-71.013637,-32.850368],[-71.00859,-32.851741],[-71.007964,-32.856037],[-71.012385,-32.85896],[-71.011759,-32.863255],[-71.01618,-32.866177],[-71.015554,-32.870472],[-71.019975,-32.873395],[-71.019349,-32.877689],[-71.023771,-32.880611],[-71.023145,-32.884905],[-71.018097,-32.886277],[-71.017471,-32.890571],[-71.021893,-32.893493],[-71.021267,-32.897786],[-71.016219,-32.899157],[-71.015593,-32.90345],[-71.010545,-32.904821],[-71.009919,-32.909114],[-71.004871,-32.910484],[-71.000449,-32.907563],[-71.001076,-32.90327],[-70.996654,-32.900349],[-70.997281,-32.896056],[-70.99286,-32.893134],[-70.993486,-32.888841],[-70.989065,-32.885918]]]},"properties":{"comuna":"Llaillay","mancha_id":"05703-88b2c4a101fffff","clase":"Bajo","nivel_medio":1.081,"nivel_medio_min":0.981,"nivel_medio_max":1.444,"pct_alto":2.6,"n_hexagonos":20,"area_ha":1296.08}},{"type":"Feature","geometry":{"type":"Polygon","coordinates":[[[-70.926575,-32.849278],[-70.927202,-32.844984],[-70.932246,-32.843614],[-70.936664,-32.846539],[-70.936037,-32.850834],[-70.930992,-32.852203],[-70.926575,-32.849278]]]},"properties":{"comuna":"Llaillay","mancha_id":"05703-88b2c4a04dfffff","clase":"Bajo","nivel_medio":1.445,"nivel_medio_min":1.445,"nivel_medio_max":1.445,"pct_alto":8.0,"n_hexagonos":1,"area_ha":64.8}},{"type":"Feature","geometry":{"type":"Polygon","coordinates":[[[-70.939857,-32.891028],[-70.940484,-32.886736],[-70.945529,-32.885367],[-70.949948,-32.888291],[-70.954994,-32.886922],[-70.955621,-32.882629],[-70.960667,-32.88126],[-70.965086,-32.884183],[-70.970132,-32.882813],[-70.970759,-32.87852],[-70.975805,-32.87715],[-70.980225,-32.880073],[-70.979598,-32.884366],[-70.974552,-32.885736],[-70.973925,-32.890029],[-70.968879,-32.891399],[-70.968252,-32.895691],[-70.963206,-32.89706],[-70.962579,-32.901352],[-70.957532,-32.902721],[-70.956906,-32.907012],[-70.961325,-32.909935],[-70.960698,-32.914226],[-70.955652,-32.915594],[-70.951232,-32.912671],[-70.946186,-32.914039],[-70.941767,-32.911116],[-70.942394,-32.906826],[-70.94744,-32.905458],[-70.948067,-32.901166],[-70.943648,-32.898243],[-70.944275,-32.893951],[-70.939857,-32.891028]]]},"properties":{"comuna":"Llaillay","mancha_id":"05703-88b2c4a023fffff","clase":"Bajo","nivel_medio":1.169,"nivel_medio_min":0.785,"nivel_medio_max":1.456,"pct_alto":3.8,"n_hexagonos":11,"area_ha":712.24}},{"type":"Feature","geometry":{"type":"Polygon","coordinates":[[[-70.902007,-32.884801],[-70.902634,-32.88051],[-70.907678,-32.879142],[-70.908306,-32.87485],[-70.903889,-32.871925],[-70.898845,-32.873293],[-70.894429,-32.870367],[-70.895056,-32.866075],[-70.9001,-32.864707],[-70.900728,-32.860415],[-70.905771,-32.859047],[-70.906399,-32.854753],[-70.911443,-32.853385],[-70.915859,-32.85631],[-70.915232,-32.860604],[-70.910188,-32.861972],[-70.909561,-32.866265],[-70.913977,-32.86919],[-70.91335,-32.873483],[-70.917767,-32.876407],[-70.91714,-32.8807],[-70.912095,-32.882067],[-70.911468,-32.886359],[-70.915885,-32.889283],[-70.915258,-32.893575],[-70.919675,-32.896499],[-70.924721,-32.895131],[-70.925348,-32.89084],[-70.92093,-32.887916],[-70.921557,-32.883624],[-70.926602,-32.882256],[-70.93102,-32.88518],[-70.930393,-32.889472],[-70.934811,-32.892396],[-70.934184,-32.896688],[-70.929139,-32.898055],[-70.928511,-32.902346],[-70.93293,-32.90527],[-70.932302,-32.909561],[-70.927257,-32.910928],[-70.92663,-32.915218],[-70.921584,-32.916584],[-70.917166,-32.913661],[-70.912121,-32.915027],[-70.907703,-32.912103],[-70.902658,-32.913469],[-70.898241,-32.910545],[-70.898869,-32.906255],[-70.894452,-32.903331],[-70.889408,-32.904697],[-70.884991,-32.901772],[-70.885619,-32.897482],[-70.890663,-32.896116],[-70.891291,-32.891825],[-70.896335,-32.890459],[-70.900752,-32.893384],[-70.905796,-32.892017],[-70.906423,-32.887726],[-70.902007,-32.884801]]]},"properties":{"comuna":"Llaillay","mancha_id":"05703-88b2c4a011fffff","clase":"Bajo","nivel_medio":1.109,"nivel_medio_min":0.573,"nivel_medio_max":1.446,"pct_alto":5.2,"n_hexagonos":21,"area_ha":1359.15}},{"type":"Feature","geometry":{"type":"Polygon","coordinates":[[[-71.034712,-32.873715],[-71.034493,-32.873571],[-71.034559,-32.873117],[-71.034603,-32.873231],[-71.034696,-32.873601],[-71.034712,-32.873715]]]},"properties":{"comuna":"Llaillay","mancha_id":"05703-88b2c4b8b7fffff","clase":"Medio","nivel_medio":2.0,"nivel_medio_min":2.0,"nivel_medio_max":2.0,"pct_alto":0.0,"n_hexagonos":1,"area_ha":0.06}},{"type":"Feature","geometry":{"type":"Polygon","coordinates":[[[-71.038248,-32.847796],[-71.038873,-32.843499],[-71.034452,-32.840576],[-71.035077,-32.836279],[-71.034409,-32.835837],[-71.0349,-32.835915],[-71.03575,-32.835726],[-71.036648,-32.835679],[-71.037356,-32.835631],[-71.037946,-32.83549],[-71.038395,-32.835372],[-71.038914,-32.8349],[-71.039292,-32.834522],[-71.039792,-32.834543],[-71.040153,-32.834709],[-71.040125,-32.834904],[-71.040626,-32.835236],[-71.040626,-32.83554],[-71.04058,-32.835841],[-71.040371,-32.836072],[-71.04007,-32.836466],[-71.039653,-32.836791],[-71.039283,-32.837231],[-71.038866,-32.837833],[-71.038472,-32.83876],[-71.03831,-32.839455],[-71.038194,-32.840034],[-71.038078,-32.840497],[-71.037962,-32.840984],[-71.038124,-32.841516],[-71.038634,-32.842072],[-71.038912,-32.842466],[-71.039259,-32.843022],[-71.039423,-32.843349],[-71.03963,-32.843764],[-71.039792,-32.844389],[-71.040001,-32.845038],[-71.040047,-32.845571],[-71.039978,-32.845964],[-71.039839,-32.846381],[-71.0397,-32.846914],[-71.039537,-32.847308],[-71.039375,-32.847818],[-71.039236,-32.848374],[-71.039228,-32.848443],[-71.038248,-32.847796]]]},"properties":{"comuna":"Llaillay","mancha_id":"05703-88b2c4b885fffff","clase":"Medio","nivel_medio":2.024,"nivel_medio_min":1.625,"nivel_medio_max":2.372,"pct_alto":50.3,"n_hexagonos":3,"area_ha":35.26}},{"type":"Feature","geometry":{"type":"Polygon","coordinates":[[[-70.973706,-32.799332],[-70.972572,-32.799641],[-70.971498,-32.798929],[-70.972367,-32.799103],[-70.973134,-32.799217],[-70.973589,-32.799274],[-70.973706,-32.799332]]]},"properties":{"comuna":"Llaillay","mancha_id":"05703-88b2c4b1a5fffff","clase":"Medio","nivel_medio":2.372,"nivel_medio_min":2.372,"nivel_medio_max":2.372,"pct_alto":37.2,"n_hexagonos":1,"area_ha":0.6}},{"type":"Feature","geometry":{"type":"Polygon","coordinates":[[[-71.006199,-32.967807],[-71.006825,-32.963519],[-71.011503,-32.962251],[-71.011501,-32.962267],[-71.011285,-32.963008],[-71.011192,-32.963302],[-71.010991,-32.963796],[-71.01079,-32.964152],[-71.010682,-32.964352],[-71.01062,-32.964491],[-71.01062,-32.964692],[-71.010759,-32.964986],[-71.010898,-32.965418],[-71.011099,-32.965897],[-71.011393,-32.9665],[-71.011593,-32.966948],[-71.011763,-32.96738],[-71.011964,-32.967689],[-71.012165,-32.96806],[-71.012381,-32.968369],[-71.012659,-32.968709],[-71.012876,-32.969111],[-71.013061,-32.969481],[-71.013216,-32.96976],[-71.01329,-32.970004],[-71.010622,-32.970727],[-71.006199,-32.967807]]]},"properties":{"comuna":"Llaillay","mancha_id":"05703-88b2c4af65fffff","clase":"Medio","nivel_medio":2.484,"nivel_medio_min":2.484,"nivel_medio_max":2.484,"pct_alto":70.0,"n_hexagonos":1,"area_ha":35.95}},{"type":"Feature","geometry":{"type":"Polygon","coordinates":[[[-70.962643,-32.96725],[-70.957595,-32.968616],[-70.957446,-32.969634],[-70.957272,-32.969516],[-70.9565,-32.968652],[-70.955642,-32.967775],[-70.954981,-32.96701],[-70.954539,-32.966596],[-70.954447,-32.966511],[-70.953807,-32.965927],[-70.953451,-32.965641],[-70.953198,-32.965711],[-70.953132,-32.965729],[-70.952676,-32.965943],[-70.952027,-32.96646],[-70.951493,-32.966923],[-70.950831,-32.96748],[-70.949629,-32.96834],[-70.949139,-32.969001],[-70.948619,-32.96964],[-70.947963,-32.970375],[-70.947576,-32.970847],[-70.947573,-32.970853],[-70.948127,-32.967061],[-70.943707,-32.964139],[-70.944335,-32.959852],[-70.949382,-32.958486],[-70.953802,-32.961407],[-70.958849,-32.960041],[-70.96327,-32.962962],[-70.962643,-32.96725]]]},"properties":{"comuna":"Llaillay","mancha_id":"05703-88b2c4af51fffff","clase":"Medio","nivel_medio":2.045,"nivel_medio_min":1.968,"nivel_medio_max":2.117,"pct_alto":67.4,"n_hexagonos":3,"area_ha":138.61}},{"type":"Feature","geometry":{"type":"Polygon","coordinates":[[[-70.930449,-32.955374],[-70.925402,-32.956739],[-70.921519,-32.954171],[-70.921482,-32.953938],[-70.921379,-32.953507],[-70.921241,-32.953215],[-70.921097,-32.953042],[-70.921611,-32.949529],[-70.926657,-32.948164],[-70.931076,-32.951086],[-70.930449,-32.955374]]]},"properties":{"comuna":"Llaillay","mancha_id":"05703-88b2c4ae6bfffff","clase":"Medio","nivel_medio":2.436,"nivel_medio_min":2.436,"nivel_medio_max":2.436,"pct_alto":75.2,"n_hexagonos":1,"area_ha":64.33}},{"type":"Feature","geometry":{"type":"Polygon","coordinates":[[[-70.91782,-32.942319],[-70.917192,-32.946606],[-70.916323,-32.946842],[-70.916136,-32.946616],[-70.915959,-32.946052],[-70.915903,-32.945403],[-70.915944,-32.944966],[-70.915934,-32.944746],[-70.915866,-32.944572],[-70.915664,-32.944552],[-70.915401,-32.944591],[-70.915079,-32.94473],[-70.91453,-32.944949],[-70.913771,-32.945062],[-70.912586,-32.945075],[-70.911447,-32.945085],[-70.910506,-32.944988],[-70.909839,-32.94492],[-70.908719,-32.94428],[-70.908289,-32.94366],[-70.908014,-32.943093],[-70.908356,-32.940761],[-70.913401,-32.939396],[-70.91782,-32.942319]]]},"properties":{"comuna":"Llaillay","mancha_id":"05703-88b2c4ae41fffff","clase":"Medio","nivel_medio":2.329,"nivel_medio_min":2.329,"nivel_medio_max":2.329,"pct_alto":38.9,"n_hexagonos":1,"area_ha":46.01}},{"type":"Feature","geometry":{"type":"Polygon","coordinates":[[[-70.925285,-32.961364],[-70.929194,-32.963948],[-70.928672,-32.967517],[-70.928664,-32.96751],[-70.927975,-32.966476],[-70.92681,-32.964966],[-70.926405,-32.964298],[-70.925754,-32.96348],[-70.925493,-32.962699],[-70.925333,-32.961457],[-70.925285,-32.961364]]]},"properties":{"comuna":"Llaillay","mancha_id":"05703-88b2c4ae05fffff","clase":"Medio","nivel_medio":2.388,"nivel_medio_min":2.388,"nivel_medio_max":2.388,"pct_alto":41.2,"n_hexagonos":1,"area_ha":10.13}},{"type":"Feature","geometry":{"type":"Polygon","coordinates":[[[-71.012501,-32.957861],[-71.008078,-32.954941],[-71.008185,-32.954207],[-71.008581,-32.954341],[-71.008983,-32.954511],[-71.009446,-32.954774],[-71.009987,-32.955052],[-71.010404,-32.955268],[-71.010806,-32.955438],[-71.011145,-32.955531],[-71.011516,-32.955809],[-71.011779,-32.956118],[-71.012165,-32.956396],[-71.012443,-32.956721],[-71.012659,-32.956891],[-71.012706,-32.957076],[-71.012721,-32.95723],[-71.012721,-32.957539],[-71.012582,-32.957833],[-71.012581,-32.957839],[-71.012501,-32.957861]]]},"properties":{"comuna":"Llaillay","mancha_id":"05703-88b2c4aabbfffff","clase":"Medio","nivel_medio":2.198,"nivel_medio_min":2.198,"nivel_medio_max":2.198,"pct_alto":63.1,"n_hexagonos":1,"area_ha":5.46}},{"type":"Feature","geometry":{"type":"Polygon","coordinates":[[[-71.015593,-32.90345],[-71.016219,-32.899157],[-71.021267,-32.897786],[-71.025689,-32.900707],[-71.025063,-32.905],[-71.029486,-32.907921],[-71.030307,-32.907698],[-71.030364,-32.908026],[-71.030526,-32.908605],[-71.030526,-32.909092],[-71.030572,-32.909509],[-71.030688,-32.910134],[-71.030781,-32.910853],[-71.030758,-32.9112],[-71.030734,-32.911802],[-71.030688,-32.912683],[-71.030589,-32.913356],[-71.030572,-32.91347],[-71.030456,-32.913864],[-71.030456,-32.914188],[-71.030456,-32.914605],[-71.03048,-32.915138],[-71.030526,-32.915741],[-71.030456,-32.916366],[-71.030317,-32.917223],[-71.030248,-32.917965],[-71.030155,-32.918729],[-71.029993,-32.919401],[-71.029877,-32.920003],[-71.029896,-32.920176],[-71.027608,-32.920798],[-71.023185,-32.917877],[-71.018137,-32.919248],[-71.013714,-32.916327],[-71.008666,-32.917697],[-71.00804,-32.921989],[-71.002992,-32.923359],[-70.99857,-32.920438],[-70.993522,-32.921807],[-70.989101,-32.918886],[-70.989728,-32.914594],[-70.985307,-32.911672],[-70.985933,-32.907381],[-70.981512,-32.904459],[-70.982139,-32.900167],[-70.987186,-32.898797],[-70.991607,-32.901719],[-70.996654,-32.900349],[-71.001076,-32.90327],[-71.000449,-32.907563],[-71.004871,-32.910484],[-71.009919,-32.909114],[-71.010545,-32.904821],[-71.015593,-32.90345]]]},"properties":{"comuna":"Llaillay","mancha_id":"05703-88b2c4a127fffff","clase":"Medio","nivel_medio":2.094,"nivel_medio_min":1.704,"nivel_medio_max":2.473,"pct_alto":32.4,"n_hexagonos":13,"area_ha":769.3}},{"type":"Feature","geometry":{"type":"Polygon","coordinates":[[[-70.968252,-32.895691],[-70.968879,-32.891399],[-70.973925,-32.890029],[-70.978345,-32.892952],[-70.977719,-32.897244],[-70.972672,-32.898614],[-70.972045,-32.902906],[-70.966999,-32.904275],[-70.966372,-32.908566],[-70.961325,-32.909935],[-70.956906,-32.907012],[-70.957532,-32.902721],[-70.962579,-32.901352],[-70.963206,-32.89706],[-70.968252,-32.895691]]]},"properties":{"comuna":"Llaillay","mancha_id":"05703-88b2c4a111fffff","clase":"Medio","nivel_medio":2.142,"nivel_medio_min":1.941,"nivel_medio_max":2.462,"pct_alto":34.4,"n_hexagonos":3,"area_ha":194.25}},{"type":"Feature","geometry":{"type":"Polygon","coordinates":[[[-70.983392,-32.891582],[-70.984019,-32.887289],[-70.989065,-32.885918],[-70.993486,-32.888841],[-70.99286,-32.893134],[-70.987813,-32.894504],[-70.983392,-32.891582]]]},"properties":{"comuna":"Llaillay","mancha_id":"05703-88b2c4a103fffff","clase":"Medio","nivel_medio":2.442,"nivel_medio_min":2.442,"nivel_medio_max":2.442,"pct_alto":68.4,"n_hexagonos":1,"area_ha":64.78}},{"type":"Feature","geometry":{"type":"Polygon","coordinates":[[[-70.900148,-32.930626],[-70.904565,-32.933549],[-70.90428,-32.935497],[-70.902528,-32.93545],[-70.901362,-32.935341],[-70.900644,-32.935299],[-70.899694,-32.93512],[-70.899104,-32.934879],[-70.898099,-32.934661],[-70.897014,-32.934009],[-70.896536,-32.933371],[-70.896391,-32.932864],[-70.896029,-32.932588],[-70.895407,-32.932566],[-70.895199,-32.932942],[-70.895108,-32.933463],[-70.895016,-32.934292],[-70.894732,-32.934521],[-70.895103,-32.931991],[-70.900148,-32.930626]]]},"properties":{"comuna":"Llaillay","mancha_id":"05703-88b2c4a0b5fffff","clase":"Medio","nivel_medio":2.291,"nivel_medio_min":2.291,"nivel_medio_max":2.291,"pct_alto":67.8,"n_hexagonos":1,"area_ha":29.7}},{"type":"Feature","geometry":{"type":"Polygon","coordinates":[[[-70.87618,-32.928871],[-70.875552,-32.933159],[-70.875453,-32.933186],[-70.874822,-32.932817],[-70.873484,-32.93199],[-70.872553,-32.931491],[-70.871474,-32.930955],[-70.870464,-32.930939],[-70.870124,-32.931209],[-70.868953,-32.931754],[-70.868212,-32.932065],[-70.867026,-32.932218],[-70.866932,-32.93223],[-70.865826,-32.932082],[-70.86525,-32.931826],[-70.866091,-32.931599],[-70.866719,-32.927311],[-70.871764,-32.925947],[-70.87618,-32.928871]]]},"properties":{"comuna":"Llaillay","mancha_id":"05703-88b2c4a097fffff","clase":"Medio","nivel_medio":2.431,"nivel_medio_min":2.115,"nivel_medio_max":2.434,"pct_alto":59.8,"n_hexagonos":2,"area_ha":48.83}},{"type":"Feature","geometry":{"type":"Polygon","coordinates":[[[-70.91714,-32.8807],[-70.917767,-32.876407],[-70.91335,-32.873483],[-70.913977,-32.86919],[-70.909561,-32.866265],[-70.910188,-32.861972],[-70.915232,-32.860604],[-70.915859,-32.85631],[-70.911443,-32.853385],[-70.906399,-32.854753],[-70.905771,-32.859047],[-70.900728,-32.860415],[-70.9001,-32.864707],[-70.895056,-32.866075],[-70.894429,-32.870367],[-70.898845,-32.873293],[-70.903889,-32.871925],[-70.908306,-32.87485],[-70.907678,-32.879142],[-70.902634,-32.88051],[-70.902007,-32.884801],[-70.906423,-32.887726],[-70.905796,-32.892017],[-70.900752,-32.893384],[-70.896335,-32.890459],[-70.891291,-32.891825],[-70.890663,-32.896116],[-70.885619,-32.897482],[-70.884991,-32.901772],[-70.889408,-32.904697],[-70.894452,-32.903331],[-70.898869,-32.906255],[-70.898241,-32.910545],[-70.902658,-32.913469],[-70.907703,-32.912103],[-70.912121,-32.915027],[-70.917166,-32.913661],[-70.921584,-32.916584],[-70.920957,-32.920874],[-70.915911,-32.92224],[-70.911493,-32.919317],[-70.906448,-32.920683],[-70.902031,-32.917759],[-70.896986,-32.919124],[-70.892569,-32.9162],[-70.887524,-32.917565],[-70.883108,-32.914641],[-70.878064,-32.916006],[-70.877436,-32.920295],[-70.872392,-32.921659],[-70.867976,-32.918734],[-70.862932,-32.920098],[-70.862304,-32.924386],[-70.85726,-32.92575],[-70.852845,-32.922825],[-70.853473,-32.918537],[-70.849058,-32.915612],[-70.844015,-32.916975],[-70.843386,-32.921263],[-70.847801,-32.924188],[-70.847459,-32.92652],[-70.847454,-32.926517],[-70.845844,-32.925208],[-70.844762,-32.924484],[-70.843331,-32.923612],[-70.842463,-32.922831],[-70.841734,-32.922409],[-70.840929,-32.92251],[-70.840508,-32.922776],[-70.840006,-32.923638],[-70.839507,-32.924213],[-70.838739,-32.925135],[-70.837972,-32.926056],[-70.837831,-32.92612],[-70.836781,-32.926594],[-70.835169,-32.927285],[-70.834002,-32.927727],[-70.832901,-32.927943],[-70.832094,-32.927779],[-70.831942,-32.927791],[-70.831097,-32.927861],[-70.830293,-32.927746],[-70.829564,-32.927746],[-70.828681,-32.927746],[-70.827798,-32.927784],[-70.826838,-32.927784],[-70.825648,-32.927822],[-70.824688,-32.928014],[-70.823805,-32.928129],[-70.822987,-32.92826],[-70.822845,-32.928283],[-70.821579,-32.92868],[-70.821152,-32.928855],[-70.819389,-32.92955],[-70.818329,-32.929808],[-70.817481,-32.930173],[-70.816991,-32.930553],[-70.816137,-32.930731],[-70.814827,-32.93056],[-70.81313,-32.929434],[-70.811325,-32.929921],[-70.810979,-32.92951],[-70.810619,-32.92871],[-70.809699,-32.928],[-70.808512,-32.927498],[-70.808237,-32.927172],[-70.807628,-32.926507],[-70.807236,-32.926048],[-70.807014,-32.925822],[-70.806109,-32.925721],[-70.805384,-32.925515],[-70.804918,-32.925239],[-70.804239,-32.92505],[-70.804094,-32.925006],[-70.803266,-32.924756],[-70.802817,-32.924736],[-70.802419,-32.92474],[-70.802129,-32.924696],[-70.80177,-32.924851],[-70.801491,-32.925003],[-70.800962,-32.925319],[-70.800529,-32.925495],[-70.799664,-32.925613],[-70.798133,-32.925628],[-70.795745,-32.925553],[-70.794652,-32.925495],[-70.794318,-32.925626],[-70.7942,-32.925672],[-70.793826,-32.92581],[-70.793512,-32.926124],[-70.793484,-32.926432],[-70.793495,-32.926499],[-70.793629,-32.927291],[-70.793578,-32.92797],[-70.793369,-32.928566],[-70.792704,-32.929149],[-70.791665,-32.929556],[-70.790187,-32.929897],[-70.789574,-32.930102],[-70.788859,-32.92983],[-70.788619,-32.929739],[-70.787441,-32.929283],[-70.786026,-32.928908],[-70.784817,-32.928774],[-70.78324,-32.928985],[-70.78228,-32.929228],[-70.781042,-32.929724],[-70.780424,-32.929972],[-70.779734,-32.930602],[-70.779665,-32.930762],[-70.779354,-32.931492],[-70.778831,-32.932295],[-70.778324,-32.933072],[-70.777434,-32.933672],[-70.775824,-32.933982],[-70.775317,-32.934167],[-70.774864,-32.934332],[-70.774156,-32.934732],[-70.773544,-32.935214],[-70.77353,-32.935224],[-70.772484,-32.935575],[-70.771568,-32.935727],[-70.769644,-32.935475],[-70.768254,-32.935142],[-70.767274,-32.934405],[-70.766609,-32.933942],[-70.766117,-32.933653],[-70.765248,-32.933222],[-70.764658,-32.93278],[-70.764259,-32.932497],[-70.7646,-32.930175],[-70.760189,-32.927248],[-70.755148,-32.928607],[-70.750737,-32.92568],[-70.745697,-32.927038],[-70.74254,-32.924942],[-70.742257,-32.924589],[-70.741762,-32.924364],[-70.741641,-32.924346],[-70.741286,-32.92411],[-70.740635,-32.924286],[-70.73955,-32.924266],[-70.739021,-32.92417],[-70.738634,-32.923742],[-70.738047,-32.923138],[-70.737564,-32.922642],[-70.736964,-32.922262],[-70.736394,-32.922074],[-70.736004,-32.921925],[-70.73578,-32.922087],[-70.735455,-32.922432],[-70.735252,-32.922859],[-70.734988,-32.923225],[-70.734419,-32.923651],[-70.733836,-32.923868],[-70.733677,-32.923927],[-70.73276,-32.924396],[-70.732042,-32.924769],[-70.731534,-32.925073],[-70.73106,-32.92547],[-70.730845,-32.925301],[-70.730491,-32.92506],[-70.730179,-32.924946],[-70.729824,-32.924932],[-70.729413,-32.924819],[-70.729116,-32.924762],[-70.728733,-32.924507],[-70.728421,-32.92428],[-70.728166,-32.924096],[-70.727953,-32.923587],[-70.727911,-32.923486],[-70.727769,-32.923061],[-70.727769,-32.922423],[-70.727741,-32.921714],[-70.727811,-32.921332],[-70.727953,-32.920949],[-70.728095,-32.920495],[-70.728279,-32.92007],[-70.728648,-32.919503],[-70.728889,-32.919191],[-70.729045,-32.918908],[-70.729116,-32.918426],[-70.729243,-32.917745],[-70.729442,-32.917193],[-70.729725,-32.916555],[-70.729773,-32.916467],[-70.729847,-32.916333],[-70.729994,-32.916107],[-70.730207,-32.915961],[-70.730526,-32.915854],[-70.730966,-32.915841],[-70.731605,-32.915641],[-70.732097,-32.915361],[-70.732337,-32.914989],[-70.732603,-32.914669],[-70.733439,-32.914329],[-70.733893,-32.914088],[-70.734162,-32.913776],[-70.73436,-32.913351],[-70.734502,-32.912827],[-70.734715,-32.91209],[-70.734913,-32.911565],[-70.73514,-32.91097],[-70.735238,-32.910687],[-70.735381,-32.910275],[-70.735381,-32.909637],[-70.735338,-32.908914],[-70.735126,-32.908262],[-70.734842,-32.907965],[-70.734403,-32.907483],[-70.73419,-32.907128],[-70.734124,-32.906967],[-70.734063,-32.906816],[-70.733949,-32.906448],[-70.733978,-32.906179],[-70.734289,-32.905626],[-70.734332,-32.905555],[-70.734441,-32.905373],[-70.73446,-32.905342],[-70.73453,-32.905073],[-70.734559,-32.904463],[-70.734587,-32.90401],[-70.734601,-32.9034],[-70.734601,-32.902422],[-70.734701,-32.901529],[-70.734871,-32.900707],[-70.734998,-32.899956],[-70.735268,-32.899133],[-70.735438,-32.89851],[-70.73575,-32.8979],[-70.735991,-32.897532],[-70.736077,-32.897129],[-70.736118,-32.896936],[-70.736387,-32.896228],[-70.736643,-32.895377],[-70.736784,-32.894697],[-70.736898,-32.893931],[-70.737082,-32.893024],[-70.737193,-32.892278],[-70.737238,-32.891975],[-70.737337,-32.891465],[-70.737706,-32.890558],[-70.738173,-32.889608],[-70.738655,-32.888814],[-70.739166,-32.887808],[-70.73969,-32.8869],[-70.740286,-32.885993],[-70.740383,-32.885871],[-70.741037,-32.885058],[-70.741505,-32.884604],[-70.742001,-32.884065],[-70.74261,-32.883342],[-70.743021,-32.882747],[-70.743631,-32.882237],[-70.74424,-32.881854],[-70.744623,-32.881712],[-70.745063,-32.881542],[-70.745431,-32.881344],[-70.745927,-32.881145],[-70.746381,-32.88106],[-70.746895,-32.880783],[-70.746905,-32.880777],[-70.747316,-32.88055],[-70.748179,-32.880217],[-70.748622,-32.879968],[-70.749231,-32.879858],[-70.749702,-32.879802],[-70.75,-32.879802],[-70.750643,-32.879802],[-70.751418,-32.879747],[-70.752387,-32.879691],[-70.75266,-32.879611],[-70.752858,-32.879553],[-70.753495,-32.879082],[-70.753716,-32.878362],[-70.753689,-32.877643],[-70.753689,-32.876812],[-70.753632,-32.876379],[-70.753384,-32.87612],[-70.753198,-32.875945],[-70.752913,-32.875677],[-70.752415,-32.875262],[-70.752218,-32.875181],[-70.752073,-32.875065],[-70.752093,-32.874821],[-70.752102,-32.874704],[-70.752174,-32.874416],[-70.75216,-32.874199],[-70.752102,-32.873954],[-70.75216,-32.873737],[-70.752434,-32.873477],[-70.752737,-32.873189],[-70.752824,-32.872886],[-70.752881,-32.872658],[-70.753084,-32.872366],[-70.753246,-32.872161],[-70.75344,-32.871746],[-70.753606,-32.87133],[-70.753772,-32.870638],[-70.753633,-32.869586],[-70.753744,-32.868783],[-70.753855,-32.868008],[-70.753905,-32.867174],[-70.75391,-32.867094],[-70.753799,-32.866375],[-70.753661,-32.865489],[-70.753744,-32.864741],[-70.753882,-32.864243],[-70.754076,-32.863578],[-70.754242,-32.862831],[-70.754393,-32.862226],[-70.754409,-32.862166],[-70.754381,-32.861446],[-70.754547,-32.861004],[-70.754935,-32.860561],[-70.755599,-32.859951],[-70.756097,-32.859425],[-70.756402,-32.858816],[-70.75643,-32.858124],[-70.756457,-32.857404],[-70.756513,-32.85674],[-70.756679,-32.856159],[-70.756983,-32.85519],[-70.757249,-32.854707],[-70.757592,-32.854082],[-70.757952,-32.853611],[-70.758285,-32.852975],[-70.758728,-32.852282],[-70.759226,-32.851452],[-70.759586,-32.850954],[-70.759752,-32.850261],[-70.759752,-32.849708],[-70.759918,-32.849292],[-70.760373,-32.848946],[-70.760499,-32.848849],[-70.761164,-32.84849],[-70.761939,-32.847797],[-70.76225,-32.847227],[-70.762271,-32.847188],[-70.762268,-32.847108],[-70.762244,-32.846552],[-70.76205,-32.845666],[-70.761801,-32.844669],[-70.761707,-32.843541],[-70.76169,-32.84334],[-70.761718,-32.842592],[-70.761884,-32.841956],[-70.762216,-32.841153],[-70.762714,-32.839935],[-70.763157,-32.839215],[-70.763185,-32.8388],[-70.762631,-32.837969],[-70.762188,-32.837304],[-70.761856,-32.836557],[-70.761682,-32.836228],[-70.761607,-32.836086],[-70.761468,-32.835533],[-70.761358,-32.83509],[-70.761524,-32.834287],[-70.761828,-32.833871],[-70.763157,-32.832681],[-70.764403,-32.83185],[-70.764519,-32.831752],[-70.765151,-32.831214],[-70.76519,-32.831157],[-70.765483,-32.830743],[-70.765594,-32.830245],[-70.765649,-32.829691],[-70.765843,-32.829026],[-70.766009,-32.828307],[-70.76623,-32.827891],[-70.766507,-32.827365],[-70.766895,-32.82659],[-70.766978,-32.825926],[-70.766978,-32.825372],[-70.767508,-32.825465],[-70.768355,-32.825486],[-70.768927,-32.825486],[-70.769731,-32.825486],[-70.769978,-32.825486],[-70.77025,-32.825666],[-70.77086,-32.825501],[-70.771234,-32.825528],[-70.771531,-32.825761],[-70.771933,-32.826142],[-70.772335,-32.826523],[-70.77278,-32.826989],[-70.773499,-32.827624],[-70.774219,-32.827942],[-70.77496,-32.828238],[-70.776082,-32.828725],[-70.776993,-32.829],[-70.77822,-32.829402],[-70.779345,-32.82965],[-70.779469,-32.829678],[-70.78074,-32.829889],[-70.781396,-32.829974],[-70.781968,-32.830101],[-70.782941,-32.830397],[-70.783619,-32.830694],[-70.784487,-32.830927],[-70.785355,-32.831181],[-70.786138,-32.831435],[-70.787048,-32.831646],[-70.787768,-32.831646],[-70.788735,-32.831625],[-70.788742,-32.831625],[-70.789525,-32.831583],[-70.790161,-32.831541],[-70.790626,-32.831562],[-70.791219,-32.83171],[-70.792045,-32.831795],[-70.792553,-32.831922],[-70.79287,-32.831922],[-70.793442,-32.831731],[-70.794183,-32.831498],[-70.794691,-32.831265],[-70.79503,-32.83099],[-70.795665,-32.830673],[-70.796215,-32.830546],[-70.796766,-32.83044],[-70.797507,-32.830355],[-70.798205,-32.830355],[-70.7986,-32.830366],[-70.798946,-32.830376],[-70.799984,-32.83027],[-70.800682,-32.830249],[-70.801106,-32.830376],[-70.80136,-32.830503],[-70.801847,-32.830757],[-70.803074,-32.83135],[-70.804048,-32.8319],[-70.80462,-32.832091],[-70.805382,-32.832324],[-70.805805,-32.832578],[-70.806292,-32.832874],[-70.806737,-32.832938],[-70.807287,-32.832832],[-70.807933,-32.832742],[-70.808346,-32.832684],[-70.808917,-32.832599],[-70.809637,-32.832557],[-70.810378,-32.832578],[-70.811183,-32.832684],[-70.811881,-32.832684],[-70.812834,-32.83262],[-70.813871,-32.832472],[-70.814464,-32.832472],[-70.815311,-32.832409],[-70.815692,-32.832288],[-70.816115,-32.832155],[-70.816793,-32.831816],[-70.817216,-32.83171],[-70.817491,-32.83171],[-70.817978,-32.831752],[-70.818486,-32.831731],[-70.81946,-32.831625],[-70.820032,-32.831498],[-70.820328,-32.831287],[-70.820625,-32.830948],[-70.821154,-32.83063],[-70.821683,-32.830376],[-70.822212,-32.830207],[-70.822784,-32.830143],[-70.822833,-32.830154],[-70.823504,-32.830292],[-70.824541,-32.830482],[-70.825346,-32.830546],[-70.826108,-32.830546],[-70.826828,-32.830397],[-70.827569,-32.830228],[-70.828225,-32.829974],[-70.82886,-32.829783],[-70.829389,-32.829635],[-70.82977,-32.829529],[-70.830427,-32.829424],[-70.831189,-32.829212],[-70.83194,-32.828939],[-70.83212,-32.828873],[-70.832692,-32.828767],[-70.833136,-32.828894],[-70.833602,-32.829106],[-70.833941,-32.828958],[-70.834449,-32.828873],[-70.834524,-32.82888],[-70.835317,-32.828958],[-70.836481,-32.828979],[-70.8379,-32.829021],[-70.838746,-32.829106],[-70.839403,-32.829297],[-70.839741,-32.829404],[-70.839869,-32.829445],[-70.840218,-32.82972],[-70.840271,-32.829762],[-70.840316,-32.829786],[-70.840885,-32.83008],[-70.84152,-32.830334],[-70.841922,-32.830609],[-70.842345,-32.830757],[-70.842515,-32.830757],[-70.843044,-32.830546],[-70.843679,-32.830122],[-70.844187,-32.829762],[-70.845013,-32.829339],[-70.845627,-32.829064],[-70.846071,-32.828894],[-70.846918,-32.82864],[-70.847273,-32.828555],[-70.847448,-32.828513],[-70.84821,-32.828386],[-70.848866,-32.828365],[-70.849268,-32.828259],[-70.849565,-32.82809],[-70.8502,-32.827815],[-70.85075,-32.827688],[-70.851258,-32.827645],[-70.851703,-32.827624],[-70.852211,-32.827561],[-70.852867,-32.827518],[-70.853333,-32.827476],[-70.853735,-32.827328],[-70.854116,-32.827179],[-70.854709,-32.827158],[-70.855238,-32.827222],[-70.855873,-32.827455],[-70.856339,-32.827709],[-70.856889,-32.828111],[-70.857011,-32.828185],[-70.857546,-32.828513],[-70.858202,-32.829233],[-70.858689,-32.829762],[-70.859261,-32.830143],[-70.860023,-32.830334],[-70.860467,-32.830355],[-70.861081,-32.830313],[-70.861865,-32.830397],[-70.862648,-32.830482],[-70.863283,-32.830694],[-70.863897,-32.830948],[-70.864447,-32.831223],[-70.865082,-32.831583],[-70.865548,-32.831795],[-70.866035,-32.831985],[-70.866134,-32.832022],[-70.866882,-32.832303],[-70.867411,-32.832409],[-70.867813,-32.83226],[-70.868427,-32.832176],[-70.869401,-32.832345],[-70.869888,-32.832366],[-70.8701,-32.83207],[-70.870142,-32.831879],[-70.870248,-32.831519],[-70.870841,-32.831223],[-70.871307,-32.830863],[-70.871899,-32.830524],[-70.872513,-32.830143],[-70.873424,-32.829551],[-70.874313,-32.829106],[-70.874638,-32.828995],[-70.875244,-32.828788],[-70.875964,-32.828577],[-70.876853,-32.828492],[-70.877531,-32.828471],[-70.878462,-32.828534],[-70.879309,-32.828513],[-70.879838,-32.82845],[-70.880473,-32.828174],[-70.881066,-32.827984],[-70.881266,-32.827884],[-70.881659,-32.827688],[-70.882082,-32.827434],[-70.882717,-32.827116],[-70.88331,-32.827052],[-70.884072,-32.827095],[-70.884559,-32.826989],[-70.884961,-32.82665],[-70.885152,-32.826312],[-70.885491,-32.8261],[-70.885935,-32.826015],[-70.886613,-32.825867],[-70.8871,-32.825803],[-70.887311,-32.825973],[-70.887502,-32.826184],[-70.887904,-32.826523],[-70.888306,-32.826904],[-70.888539,-32.82737],[-70.888751,-32.827878],[-70.888899,-32.828259],[-70.889217,-32.828831],[-70.889577,-32.829233],[-70.890085,-32.829614],[-70.890652,-32.829933],[-70.890762,-32.829995],[-70.89163,-32.830419],[-70.892413,-32.830736],[-70.893197,-32.830884],[-70.893874,-32.830884],[-70.894721,-32.831096],[-70.895398,-32.831308],[-70.896161,-32.831477],[-70.89665,-32.83153],[-70.896822,-32.831579],[-70.897007,-32.83171],[-70.89724,-32.831964],[-70.897641,-32.832385],[-70.897664,-32.832409],[-70.898002,-32.83279],[-70.898532,-32.833298],[-70.898997,-32.833806],[-70.899294,-32.834229],[-70.899759,-32.834547],[-70.900246,-32.834568],[-70.900733,-32.834462],[-70.901347,-32.834166],[-70.902342,-32.833827],[-70.902923,-32.833611],[-70.904492,-32.834651],[-70.909525,-32.833285],[-70.909548,-32.83329],[-70.909667,-32.833319],[-70.910048,-32.833319],[-70.910535,-32.833277],[-70.910937,-32.833298],[-70.911276,-32.83334],[-70.911636,-32.833319],[-70.911827,-32.833319],[-70.912377,-32.833404],[-70.912779,-32.833594],[-70.913563,-32.833742],[-70.913965,-32.8337],[-70.914388,-32.833615],[-70.914748,-32.83334],[-70.915193,-32.833065],[-70.915997,-32.832684],[-70.916505,-32.832493],[-70.917267,-32.832197],[-70.917881,-32.831879],[-70.918368,-32.831562],[-70.918982,-32.831223],[-70.919533,-32.830884],[-70.919576,-32.830861],[-70.920295,-32.830482],[-70.92061,-32.830275],[-70.923263,-32.829554],[-70.923788,-32.829572],[-70.924317,-32.829551],[-70.92511,-32.829467],[-70.925122,-32.829466],[-70.926011,-32.829508],[-70.926815,-32.829529],[-70.927683,-32.829508],[-70.928255,-32.829487],[-70.928721,-32.829424],[-70.92944,-32.829318],[-70.930372,-32.829297],[-70.93124,-32.829191],[-70.932023,-32.829148],[-70.932637,-32.829275],[-70.933336,-32.829466],[-70.933844,-32.829699],[-70.934243,-32.829935],[-70.934127,-32.830728],[-70.938545,-32.833654],[-70.943589,-32.832283],[-70.944216,-32.827987],[-70.94926,-32.826616],[-70.953678,-32.829541],[-70.953051,-32.833837],[-70.948007,-32.835208],[-70.94738,-32.839504],[-70.942335,-32.840874],[-70.941708,-32.845169],[-70.946126,-32.848094],[-70.951171,-32.846724],[-70.951798,-32.842429],[-70.956843,-32.841058],[-70.961261,-32.843982],[-70.966307,-32.842611],[-70.966933,-32.838315],[-70.971979,-32.836944],[-70.976398,-32.839868],[-70.981443,-32.838496],[-70.985863,-32.84142],[-70.990909,-32.840047],[-70.991535,-32.835751],[-70.987116,-32.832827],[-70.987742,-32.82853],[-70.983323,-32.825606],[-70.978277,-32.826979],[-70.977651,-32.831275],[-70.972605,-32.832647],[-70.968186,-32.829723],[-70.963141,-32.831095],[-70.958723,-32.82817],[-70.95935,-32.823873],[-70.956851,-32.822219],[-70.956948,-32.821929],[-70.957475,-32.821114],[-70.957906,-32.820348],[-70.958289,-32.819677],[-70.95872,-32.818863],[-70.959247,-32.81824],[-70.960013,-32.817474],[-70.960636,-32.816899],[-70.96169,-32.816228],[-70.961909,-32.816145],[-70.962696,-32.815845],[-70.96375,-32.815605],[-70.965187,-32.81527],[-70.966193,-32.814887],[-70.967678,-32.814839],[-70.969259,-32.814743],[-70.970073,-32.814504],[-70.970426,-32.814362],[-70.971031,-32.81412],[-70.971721,-32.8139],[-70.971557,-32.813804],[-70.971557,-32.813804],[-70.970587,-32.813261],[-70.970335,-32.81312],[-70.96987,-32.81286],[-70.969828,-32.812837],[-70.969819,-32.812832],[-70.969761,-32.8128],[-70.969731,-32.812783],[-70.969655,-32.812741],[-70.969213,-32.812497],[-70.968284,-32.811984],[-70.96828,-32.811982],[-70.965359,-32.810368],[-70.965328,-32.810351],[-70.964741,-32.810027],[-70.964471,-32.809878],[-70.963078,-32.809108],[-70.963022,-32.809077],[-70.962878,-32.808998],[-70.962595,-32.808842],[-70.962808,-32.808323],[-70.96281,-32.808319],[-70.963003,-32.807848],[-70.962984,-32.807841],[-70.962984,-32.807839],[-70.963584,-32.805897],[-70.963614,-32.8058],[-70.963635,-32.805731],[-70.963951,-32.804709],[-70.964297,-32.803588],[-70.966901,-32.805312],[-70.971945,-32.803939],[-70.976364,-32.806864],[-70.980387,-32.805769],[-70.981008,-32.805982],[-70.981838,-32.805775],[-70.981918,-32.805755],[-70.982941,-32.805613],[-70.983595,-32.805073],[-70.984164,-32.804589],[-70.985159,-32.804334],[-70.985784,-32.804305],[-70.986296,-32.804731],[-70.986949,-32.805129],[-70.987546,-32.805726],[-70.988428,-32.806124],[-70.989167,-32.80638],[-70.989963,-32.806778],[-70.990852,-32.807048],[-70.985828,-32.808416],[-70.985202,-32.812714],[-70.989621,-32.815638],[-70.994666,-32.814265],[-70.995292,-32.809966],[-70.995444,-32.809925],[-70.995932,-32.810331],[-70.996444,-32.811042],[-70.996955,-32.811724],[-70.997496,-32.812435],[-70.997865,-32.813117],[-70.997751,-32.81397],[-70.997069,-32.81451],[-70.996643,-32.815164],[-70.996547,-32.815509],[-70.996501,-32.815676],[-70.996813,-32.816528],[-70.997211,-32.817552],[-70.99795,-32.818404],[-70.998718,-32.818916],[-70.998818,-32.819029],[-70.999372,-32.819655],[-70.999457,-32.820622],[-70.999684,-32.821588],[-71.0,-32.822338],[-71.000098,-32.82257],[-71.000139,-32.822668],[-71.000566,-32.823777],[-71.000736,-32.825028],[-71.000765,-32.825994],[-71.002386,-32.825523],[-71.002736,-32.825394],[-71.002254,-32.828708],[-70.997207,-32.830081],[-70.996581,-32.834378],[-71.001001,-32.837302],[-71.006048,-32.835929],[-71.010468,-32.838852],[-71.012033,-32.838426],[-71.01224,-32.838937],[-71.012523,-32.839397],[-71.012948,-32.839911],[-71.013303,-32.840106],[-71.013905,-32.84023],[-71.014524,-32.840194],[-71.015091,-32.840442],[-71.015463,-32.840548],[-71.015853,-32.840424],[-71.016455,-32.840424],[-71.016862,-32.840442],[-71.017269,-32.840531],[-71.017854,-32.841044],[-71.018597,-32.841381],[-71.019235,-32.841682],[-71.019642,-32.841859],[-71.019724,-32.841853],[-71.01931,-32.844698],[-71.023731,-32.847621],[-71.028778,-32.846247],[-71.0332,-32.84917],[-71.032574,-32.853466],[-71.027527,-32.85484],[-71.023105,-32.851917],[-71.018058,-32.853291],[-71.017432,-32.857587],[-71.021853,-32.860509],[-71.021227,-32.864805],[-71.025649,-32.867727],[-71.025023,-32.872022],[-71.029445,-32.874944],[-71.028819,-32.879238],[-71.033241,-32.88216],[-71.032616,-32.886454],[-71.027567,-32.887827],[-71.026941,-32.892121],[-71.021893,-32.893493],[-71.017471,-32.890571],[-71.018097,-32.886277],[-71.023145,-32.884905],[-71.023771,-32.880611],[-71.019349,-32.877689],[-71.019975,-32.873395],[-71.015554,-32.870472],[-71.01618,-32.866177],[-71.011759,-32.863255],[-71.012385,-32.85896],[-71.007964,-32.856037],[-71.00859,-32.851741],[-71.013637,-32.850368],[-71.014263,-32.846072],[-71.009842,-32.843149],[-71.004796,-32.844522],[-71.004169,-32.848818],[-70.999123,-32.850191],[-70.998497,-32.854486],[-71.002917,-32.857409],[-71.002291,-32.861705],[-70.997244,-32.863077],[-70.996618,-32.867371],[-71.001038,-32.870294],[-71.000412,-32.874588],[-70.995365,-32.87596],[-70.990945,-32.873037],[-70.991571,-32.868743],[-70.987151,-32.86582],[-70.982104,-32.867191],[-70.981478,-32.871485],[-70.985898,-32.874408],[-70.985272,-32.878702],[-70.980225,-32.880073],[-70.975805,-32.87715],[-70.970759,-32.87852],[-70.970132,-32.882813],[-70.965086,-32.884183],[-70.960667,-32.88126],[-70.955621,-32.882629],[-70.954994,-32.886922],[-70.949948,-32.888291],[-70.945529,-32.885367],[-70.940484,-32.886736],[-70.939857,-32.891028],[-70.944275,-32.893951],[-70.943648,-32.898243],[-70.948067,-32.901166],[-70.94744,-32.905458],[-70.942394,-32.906826],[-70.941767,-32.911116],[-70.946186,-32.914039],[-70.951232,-32.912671],[-70.955652,-32.915594],[-70.960698,-32.914226],[-70.965118,-32.917148],[-70.964491,-32.921439],[-70.959445,-32.922807],[-70.958818,-32.927097],[-70.963238,-32.930019],[-70.968285,-32.928651],[-70.972705,-32.931573],[-70.977753,-32.930205],[-70.978379,-32.925914],[-70.983427,-32.924546],[-70.987848,-32.927467],[-70.987221,-32.931758],[-70.991643,-32.934679],[-70.991016,-32.938969],[-70.985968,-32.940337],[-70.985342,-32.944627],[-70.989763,-32.947548],[-70.989137,-32.951837],[-70.993558,-32.954758],[-70.992932,-32.959046],[-70.987883,-32.960414],[-70.987257,-32.964703],[-70.982208,-32.96607],[-70.981582,-32.970358],[-70.976533,-32.971725],[-70.972112,-32.968804],[-70.972739,-32.964517],[-70.968318,-32.961596],[-70.968945,-32.957308],[-70.973992,-32.95594],[-70.974619,-32.951652],[-70.970198,-32.948731],[-70.970825,-32.944442],[-70.966404,-32.94152],[-70.961357,-32.942888],[-70.956937,-32.939966],[-70.957564,-32.935676],[-70.953144,-32.932754],[-70.948097,-32.934122],[-70.943678,-32.931199],[-70.944305,-32.92691],[-70.939886,-32.923987],[-70.940513,-32.919697],[-70.936094,-32.916774],[-70.936721,-32.912484],[-70.932302,-32.909561],[-70.93293,-32.90527],[-70.928511,-32.902346],[-70.929139,-32.898055],[-70.934184,-32.896688],[-70.934811,-32.892396],[-70.930393,-32.889472],[-70.93102,-32.88518],[-70.926602,-32.882256],[-70.921557,-32.883624],[-70.91714,-32.8807]],[[-70.94741,-32.872489],[-70.951829,-32.875413],[-70.956874,-32.874043],[-70.957501,-32.869749],[-70.953082,-32.866826],[-70.948037,-32.868195],[-70.94741,-32.872489]],[[-70.926575,-32.849278],[-70.930992,-32.852203],[-70.936037,-32.850834],[-70.936664,-32.846539],[-70.932246,-32.843614],[-70.927202,-32.844984],[-70.926575,-32.849278]],[[-70.940454,-32.853759],[-70.939827,-32.858053],[-70.944246,-32.860977],[-70.949291,-32.859608],[-70.949918,-32.855313],[-70.945499,-32.852389],[-70.940454,-32.853759]],[[-70.896311,-32.857489],[-70.896939,-32.853196],[-70.892523,-32.85027],[-70.88748,-32.851637],[-70.886852,-32.855931],[-70.891268,-32.858856],[-70.896311,-32.857489]],[[-70.954963,-32.853943],[-70.959381,-32.856867],[-70.964427,-32.855497],[-70.965053,-32.851202],[-70.960635,-32.848278],[-70.955589,-32.849648],[-70.954963,-32.853943]],[[-70.983357,-32.858602],[-70.983984,-32.854307],[-70.979564,-32.851383],[-70.980191,-32.847088],[-70.975771,-32.844164],[-70.970726,-32.845535],[-70.970099,-32.849831],[-70.974518,-32.852755],[-70.973892,-32.85705],[-70.978311,-32.859973],[-70.983357,-32.858602]],[[-70.856595,-32.864129],[-70.86101,-32.867055],[-70.866053,-32.865689],[-70.866681,-32.861397],[-70.862266,-32.858471],[-70.857223,-32.859837],[-70.856595,-32.864129]],[[-70.834526,-32.849495],[-70.839568,-32.848129],[-70.840196,-32.843836],[-70.835783,-32.840909],[-70.830742,-32.842274],[-70.830113,-32.846567],[-70.834526,-32.849495]],[[-70.964395,-32.822502],[-70.968813,-32.825426],[-70.973858,-32.824054],[-70.974485,-32.819757],[-70.970066,-32.816832],[-70.965021,-32.818205],[-70.964395,-32.822502]],[[-70.790435,-32.919091],[-70.794848,-32.922017],[-70.79989,-32.920656],[-70.800519,-32.916369],[-70.80556,-32.915008],[-70.809974,-32.917934],[-70.815016,-32.916573],[-70.815644,-32.912285],[-70.811231,-32.909358],[-70.806189,-32.91072],[-70.801776,-32.907794],[-70.796735,-32.909155],[-70.796106,-32.913443],[-70.791064,-32.914803],[-70.790435,-32.919091]],[[-70.769634,-32.89588],[-70.764594,-32.89724],[-70.763965,-32.901528],[-70.768376,-32.904455],[-70.773417,-32.903095],[-70.774046,-32.898807],[-70.769634,-32.89588]],[[-70.781603,-32.880292],[-70.780974,-32.884581],[-70.785385,-32.887508],[-70.790426,-32.886147],[-70.794838,-32.889074],[-70.794209,-32.893363],[-70.798621,-32.89629],[-70.803663,-32.894928],[-70.804291,-32.890639],[-70.799879,-32.887712],[-70.800508,-32.883423],[-70.796096,-32.880495],[-70.796724,-32.876206],[-70.792313,-32.873278],[-70.787272,-32.87464],[-70.782861,-32.871712],[-70.77782,-32.873074],[-70.777191,-32.877364],[-70.781603,-32.880292]],[[-70.816902,-32.903708],[-70.81753,-32.899419],[-70.813117,-32.896493],[-70.808075,-32.897855],[-70.807447,-32.902144],[-70.81186,-32.90507],[-70.816902,-32.903708]],[[-70.826357,-32.905272],[-70.821315,-32.906634],[-70.820687,-32.910923],[-70.8251,-32.913849],[-70.830143,-32.912486],[-70.830771,-32.908198],[-70.826357,-32.905272]]]},"properties":{"comuna":"Llaillay","mancha_id":"05703-88b2c4a001fffff","clase":"Medio","nivel_medio":2.029,"nivel_medio_min":1.514,"nivel_medio_max":2.498,"pct_alto":23.3,"n_hexagonos":360,"area_ha":21306.47}},{"type":"Feature","geometry":{"type":"Polygon","coordinates":[[[-70.995444,-32.809925],[-70.995292,-32.809966],[-70.994666,-32.814265],[-70.989621,-32.815638],[-70.985202,-32.812714],[-70.985828,-32.808416],[-70.990852,-32.807048],[-70.990901,-32.807062],[-70.991697,-32.807631],[-70.992237,-32.808455],[-70.992805,-32.809194],[-70.993544,-32.809678],[-70.994596,-32.809678],[-70.995042,-32.809801],[-70.99542,-32.809905],[-70.995444,-32.809925]]]},"properties":{"comuna":"Llaillay","mancha_id":"05703-88b2c4ba95fffff","clase":"Alto","nivel_medio":2.578,"nivel_medio_min":2.578,"nivel_medio_max":3.0,"pct_alto":64.6,"n_hexagonos":2,"area_ha":63.05}},{"type":"Feature","geometry":{"type":"Polygon","coordinates":[[[-70.971945,-32.803939],[-70.966901,-32.805312],[-70.964297,-32.803588],[-70.964344,-32.803435],[-70.964528,-32.802838],[-70.964628,-32.802516],[-70.964804,-32.801944],[-70.96489,-32.801504],[-70.965633,-32.798754],[-70.966966,-32.798819],[-70.968074,-32.798648],[-70.968615,-32.798449],[-70.969187,-32.798447],[-70.969638,-32.798478],[-70.970491,-32.798506],[-70.971372,-32.798904],[-70.971498,-32.798929],[-70.972572,-32.799641],[-70.973706,-32.799332],[-70.973987,-32.799473],[-70.974215,-32.799785],[-70.974641,-32.80024],[-70.97538,-32.800496],[-70.976012,-32.800931],[-70.976702,-32.801703],[-70.977341,-32.802514],[-70.978084,-32.803369],[-70.978962,-32.803538],[-70.979388,-32.803936],[-70.979473,-32.804561],[-70.979417,-32.804959],[-70.979718,-32.805371],[-70.980099,-32.80567],[-70.980387,-32.805769],[-70.976364,-32.806864],[-70.971945,-32.803939]]]},"properties":{"comuna":"Llaillay","mancha_id":"05703-88b2c4b1a7fffff","clase":"Alto","nivel_medio":2.668,"nivel_medio_min":2.63,"nivel_medio_max":2.698,"pct_alto":68.3,"n_hexagonos":2,"area_ha":79.89}},{"type":"Feature","geometry":{"type":"Polygon","coordinates":[[[-70.807447,-32.902144],[-70.808075,-32.897855],[-70.813117,-32.896493],[-70.81753,-32.899419],[-70.816902,-32.903708],[-70.81186,-32.90507],[-70.807447,-32.902144]]]},"properties":{"comuna":"Llaillay","mancha_id":"05703-88b2c4a70bfffff","clase":"Alto","nivel_medio":2.551,"nivel_medio_min":2.551,"nivel_medio_max":2.551,"pct_alto":66.9,"n_hexagonos":1,"area_ha":64.64}},{"type":"Feature","geometry":{"type":"Polygon","coordinates":[[[-70.780974,-32.884581],[-70.781603,-32.880292],[-70.777191,-32.877364],[-70.77782,-32.873074],[-70.782861,-32.871712],[-70.787272,-32.87464],[-70.792313,-32.873278],[-70.796724,-32.876206],[-70.796096,-32.880495],[-70.800508,-32.883423],[-70.799879,-32.887712],[-70.794838,-32.889074],[-70.790426,-32.886147],[-70.785385,-32.887508],[-70.780974,-32.884581]]]},"properties":{"comuna":"Llaillay","mancha_id":"05703-88b2c4a665fffff","clase":"Alto","nivel_medio":2.815,"nivel_medio_min":2.68,"nivel_medio_max":2.91,"pct_alto":60.4,"n_hexagonos":4,"area_ha":258.61}},{"type":"Feature","geometry":{"type":"Polygon","coordinates":[[[-70.954963,-32.853943],[-70.955589,-32.849648],[-70.960635,-32.848278],[-70.965053,-32.851202],[-70.964427,-32.855497],[-70.959381,-32.856867],[-70.954963,-32.853943]]]},"properties":{"comuna":"Llaillay","mancha_id":"05703-88b2c4a33bfffff","clase":"Alto","nivel_medio":2.61,"nivel_medio_min":2.61,"nivel_medio_max":2.61,"pct_alto":76.1,"n_hexagonos":1,"area_ha":64.81}},{"type":"Feature","geometry":{"type":"Polygon","coordinates":[[[-70.973892,-32.85705],[-70.974518,-32.852755],[-70.970099,-32.849831],[-70.970726,-32.845535],[-70.975771,-32.844164],[-70.980191,-32.847088],[-70.979564,-32.851383],[-70.983984,-32.854307],[-70.983357,-32.858602],[-70.978311,-32.859973],[-70.973892,-32.85705]]]},"properties":{"comuna":"Llaillay","mancha_id":"05703-88b2c4a335fffff","clase":"Alto","nivel_medio":2.53,"nivel_medio_min":2.522,"nivel_medio_max":2.539,"pct_alto":40.5,"n_hexagonos":2,"area_ha":129.65}},{"type":"Feature","geometry":{"type":"Polygon","coordinates":[[[-70.966933,-32.838315],[-70.962515,-32.835391],[-70.95747,-32.836762],[-70.953051,-32.833837],[-70.953678,-32.829541],[-70.94926,-32.826616],[-70.944216,-32.827987],[-70.943589,-32.832283],[-70.938545,-32.833654],[-70.934127,-32.830728],[-70.934243,-32.829935],[-70.934309,-32.829974],[-70.9345,-32.830334],[-70.93486,-32.830546],[-70.935199,-32.830567],[-70.935537,-32.830292],[-70.93613,-32.829974],[-70.936617,-32.829656],[-70.937019,-32.829402],[-70.937379,-32.829],[-70.937993,-32.828471],[-70.93848,-32.82809],[-70.938988,-32.827878],[-70.939539,-32.827666],[-70.940216,-32.827476],[-70.940893,-32.827179],[-70.941486,-32.826947],[-70.942037,-32.826735],[-70.942237,-32.826677],[-70.942693,-32.826544],[-70.943243,-32.826354],[-70.94373,-32.826227],[-70.944133,-32.825973],[-70.944514,-32.825719],[-70.945022,-32.825507],[-70.945741,-32.825359],[-70.946186,-32.825105],[-70.946779,-32.824766],[-70.947202,-32.824237],[-70.94771,-32.823919],[-70.94793,-32.82366],[-70.948491,-32.82379],[-70.949106,-32.823897],[-70.949657,-32.823894],[-70.950002,-32.823893],[-70.95096,-32.824084],[-70.95163,-32.824228],[-70.952061,-32.82442],[-70.953259,-32.824324],[-70.95393,-32.824324],[-70.9546,-32.824228],[-70.955127,-32.823941],[-70.955511,-32.823557],[-70.956133,-32.823078],[-70.956708,-32.822647],[-70.956851,-32.822219],[-70.95935,-32.823873],[-70.958723,-32.82817],[-70.963141,-32.831095],[-70.968186,-32.829723],[-70.972605,-32.832647],[-70.977651,-32.831275],[-70.978277,-32.826979],[-70.983323,-32.825606],[-70.987742,-32.82853],[-70.987116,-32.832827],[-70.991535,-32.835751],[-70.990909,-32.840047],[-70.985863,-32.84142],[-70.981443,-32.838496],[-70.976398,-32.839868],[-70.971979,-32.836944],[-70.966933,-32.838315]]]},"properties":{"comuna":"Llaillay","mancha_id":"05703-88b2c4a301fffff","clase":"Alto","nivel_medio":2.615,"nivel_medio_min":2.512,"nivel_medio_max":2.824,"pct_alto":64.4,"n_hexagonos":8,"area_ha":431.28}},{"type":"Feature","geometry":{"type":"Polygon","coordinates":[[[-70.830113,-32.846567],[-70.830742,-32.842274],[-70.835783,-32.840909],[-70.840196,-32.843836],[-70.839568,-32.848129],[-70.834526,-32.849495],[-70.830113,-32.846567]]]},"properties":{"comuna":"Llaillay","mancha_id":"05703-88b2c4a2d9fffff","clase":"Alto","nivel_medio":2.629,"nivel_medio_min":2.629,"nivel_medio_max":2.629,"pct_alto":65.7,"n_hexagonos":1,"area_ha":64.73}},{"type":"Feature","geometry":{"type":"Polygon","coordinates":[[[-70.923153,-32.829551],[-70.923263,-32.829554],[-70.92061,-32.830275],[-70.921099,-32.829953],[-70.921861,-32.829466],[-70.922327,-32.829381],[-70.922729,-32.829424],[-70.923153,-32.829551]]]},"properties":{"comuna":"Llaillay","mancha_id":"05703-88b2c4a229fffff","clase":"Alto","nivel_medio":2.618,"nivel_medio_min":2.618,"nivel_medio_max":2.618,"pct_alto":61.8,"n_hexagonos":1,"area_ha":0.74}},{"type":"Feature","geometry":{"type":"Polygon","coordinates":[[[-70.909525,-32.833285],[-70.904492,-32.834651],[-70.902923,-32.833611],[-70.903083,-32.833552],[-70.903824,-32.833361],[-70.904311,-32.833107],[-70.904777,-32.83279],[-70.9052,-32.832514],[-70.905687,-32.832345],[-70.906111,-32.832409],[-70.906661,-32.832578],[-70.907106,-32.83279],[-70.907677,-32.832959],[-70.908164,-32.833086],[-70.909053,-32.833171],[-70.909525,-32.833285]]]},"properties":{"comuna":"Llaillay","mancha_id":"05703-88b2c4a207fffff","clase":"Alto","nivel_medio":2.549,"nivel_medio_min":2.549,"nivel_medio_max":2.549,"pct_alto":54.9,"n_hexagonos":1,"area_ha":7.34}},{"type":"Feature","geometry":{"type":"Polygon","coordinates":[[[-70.981478,-32.871485],[-70.982104,-32.867191],[-70.987151,-32.86582],[-70.991571,-32.868743],[-70.990945,-32.873037],[-70.985898,-32.874408],[-70.981478,-32.871485]]]},"properties":{"comuna":"Llaillay","mancha_id":"05703-88b2c4a143fffff","clase":"Alto","nivel_medio":2.81,"nivel_medio_min":2.81,"nivel_medio_max":2.81,"pct_alto":87.4,"n_hexagonos":1,"area_ha":64.8}},{"type":"Feature","geometry":{"type":"Polygon","coordinates":[[[-71.021893,-32.893493],[-71.026941,-32.892121],[-71.027567,-32.887827],[-71.032616,-32.886454],[-71.033241,-32.88216],[-71.028819,-32.879238],[-71.029445,-32.874944],[-71.025023,-32.872022],[-71.025649,-32.867727],[-71.021227,-32.864805],[-71.021853,-32.860509],[-71.017432,-32.857587],[-71.018058,-32.853291],[-71.023105,-32.851917],[-71.027527,-32.85484],[-71.032574,-32.853466],[-71.0332,-32.84917],[-71.038248,-32.847796],[-71.039228,-32.848443],[-71.03919,-32.848767],[-71.039028,-32.849184],[-71.038657,-32.849462],[-71.03831,-32.84974],[-71.038008,-32.850134],[-71.037684,-32.850505],[-71.037314,-32.850922],[-71.03692,-32.851269],[-71.036549,-32.851571],[-71.036039,-32.852219],[-71.035715,-32.852544],[-71.035437,-32.852984],[-71.035159,-32.85354],[-71.034788,-32.854281],[-71.034607,-32.85481],[-71.03451,-32.855092],[-71.034325,-32.855694],[-71.03414,-32.856505],[-71.034047,-32.857107],[-71.033978,-32.857547],[-71.034024,-32.858103],[-71.034047,-32.858474],[-71.034117,-32.858822],[-71.03414,-32.859169],[-71.034163,-32.859957],[-71.034163,-32.86035],[-71.034093,-32.86086],[-71.034012,-32.861326],[-71.034001,-32.861393],[-71.033862,-32.861995],[-71.0337,-32.862528],[-71.033468,-32.863015],[-71.03319,-32.863408],[-71.032912,-32.863825],[-71.032727,-32.864127],[-71.032657,-32.864474],[-71.032819,-32.864914],[-71.033005,-32.865354],[-71.033375,-32.865771],[-71.033676,-32.866281],[-71.033769,-32.866675],[-71.033839,-32.867092],[-71.033931,-32.867393],[-71.033978,-32.867949],[-71.034046,-32.868567],[-71.034047,-32.868574],[-71.034093,-32.869154],[-71.034093,-32.869501],[-71.033978,-32.869918],[-71.033978,-32.870266],[-71.033978,-32.870752],[-71.034001,-32.871215],[-71.034001,-32.871702],[-71.034093,-32.872026],[-71.034371,-32.872629],[-71.034559,-32.873117],[-71.034493,-32.873571],[-71.034712,-32.873715],[-71.034765,-32.874088],[-71.034788,-32.874737],[-71.034835,-32.875269],[-71.03502,-32.875779],[-71.035344,-32.876405],[-71.035622,-32.876798],[-71.036132,-32.877563],[-71.036503,-32.878188],[-71.036897,-32.878791],[-71.03736,-32.879578],[-71.037661,-32.880088],[-71.038008,-32.88069],[-71.038082,-32.880844],[-71.03824,-32.881177],[-71.038286,-32.881501],[-71.038263,-32.881918],[-71.03824,-32.882057],[-71.037985,-32.882474],[-71.037777,-32.882798],[-71.037522,-32.883146],[-71.037221,-32.883563],[-71.036966,-32.884073],[-71.036758,-32.884397],[-71.03641,-32.88486],[-71.036086,-32.88537],[-71.035715,-32.886111],[-71.035414,-32.886528],[-71.035113,-32.886922],[-71.034812,-32.887316],[-71.03458,-32.88771],[-71.034557,-32.887737],[-71.034302,-32.888034],[-71.034024,-32.888428],[-71.033723,-32.888868],[-71.033375,-32.889331],[-71.03312,-32.889934],[-71.032819,-32.890629],[-71.032727,-32.891185],[-71.032541,-32.891717],[-71.032263,-32.892297],[-71.032032,-32.892922],[-71.031754,-32.893362],[-71.031522,-32.893872],[-71.031174,-32.894474],[-71.030975,-32.894785],[-71.030804,-32.895053],[-71.030572,-32.895447],[-71.03041,-32.896049],[-71.030294,-32.896536],[-71.030132,-32.89693],[-71.030086,-32.897161],[-71.02997,-32.897463],[-71.029831,-32.897787],[-71.029692,-32.898134],[-71.029507,-32.898598],[-71.029321,-32.898945],[-71.029159,-32.899339],[-71.028997,-32.899756],[-71.028974,-32.899815],[-71.028835,-32.900173],[-71.028742,-32.900405],[-71.028742,-32.901007],[-71.028835,-32.901679],[-71.028904,-32.902142],[-71.028904,-32.902559],[-71.028904,-32.903115],[-71.028835,-32.903509],[-71.028788,-32.903833],[-71.028788,-32.904204],[-71.028927,-32.904667],[-71.029136,-32.905015],[-71.029391,-32.905385],[-71.029692,-32.905895],[-71.029877,-32.906381],[-71.030109,-32.906961],[-71.030271,-32.907493],[-71.030307,-32.907698],[-71.029486,-32.907921],[-71.025063,-32.905],[-71.025689,-32.900707],[-71.021267,-32.897786],[-71.021893,-32.893493]]]},"properties":{"comuna":"Llaillay","mancha_id":"05703-88b2c4a125fffff","clase":"Alto","nivel_medio":2.711,"nivel_medio_min":2.535,"nivel_medio_max":2.924,"pct_alto":78.7,"n_hexagonos":11,"area_ha":477.51}},{"type":"Feature","geometry":{"type":"Polygon","coordinates":[[[-70.979598,-32.884366],[-70.980225,-32.880073],[-70.985272,-32.878702],[-70.989692,-32.881625],[-70.989065,-32.885918],[-70.984019,-32.887289],[-70.983392,-32.891582],[-70.987813,-32.894504],[-70.99286,-32.893134],[-70.997281,-32.896056],[-70.996654,-32.900349],[-70.991607,-32.901719],[-70.987186,-32.898797],[-70.982139,-32.900167],[-70.981512,-32.904459],[-70.985933,-32.907381],[-70.985307,-32.911672],[-70.989728,-32.914594],[-70.989101,-32.918886],[-70.993522,-32.921807],[-70.99857,-32.920438],[-71.002992,-32.923359],[-71.00804,-32.921989],[-71.008666,-32.917697],[-71.013714,-32.916327],[-71.018137,-32.919248],[-71.023185,-32.917877],[-71.027608,-32.920798],[-71.029896,-32.920176],[-71.029947,-32.920629],[-71.030039,-32.921138],[-71.030178,-32.921787],[-71.030341,-32.922389],[-71.030433,-32.923154],[-71.030572,-32.923826],[-71.03048,-32.924266],[-71.030225,-32.924775],[-71.029808,-32.925262],[-71.029298,-32.925725],[-71.028812,-32.926096],[-71.028632,-32.926179],[-71.028209,-32.926374],[-71.027653,-32.92649],[-71.027306,-32.926675],[-71.026819,-32.927022],[-71.026356,-32.927439],[-71.026078,-32.927764],[-71.02573,-32.928204],[-71.025221,-32.928621],[-71.024618,-32.929084],[-71.024155,-32.929432],[-71.023646,-32.929663],[-71.023275,-32.929826],[-71.022812,-32.929895],[-71.022186,-32.930196],[-71.021746,-32.930405],[-71.021422,-32.930521],[-71.021326,-32.930623],[-71.021172,-32.930788],[-71.021097,-32.930868],[-71.020727,-32.93147],[-71.020564,-32.932026],[-71.020588,-32.932443],[-71.020634,-32.933092],[-71.020518,-32.933509],[-71.020286,-32.933856],[-71.020055,-32.934134],[-71.019869,-32.934459],[-71.019754,-32.934714],[-71.019568,-32.934945],[-71.019313,-32.9352],[-71.018966,-32.935687],[-71.018618,-32.936173],[-71.018364,-32.936521],[-71.018039,-32.936891],[-71.017669,-32.937192],[-71.017298,-32.937494],[-71.017296,-32.937511],[-71.017275,-32.937679],[-71.017275,-32.937887],[-71.017275,-32.93805],[-71.017205,-32.938235],[-71.017136,-32.938605],[-71.016974,-32.938953],[-71.016696,-32.939231],[-71.016395,-32.93937],[-71.016163,-32.939439],[-71.015931,-32.939439],[-71.015561,-32.939625],[-71.015097,-32.939926],[-71.014402,-32.940482],[-71.013916,-32.940806],[-71.013684,-32.940992],[-71.013082,-32.941501],[-71.012364,-32.941849],[-71.011622,-32.942358],[-71.011009,-32.942767],[-71.010719,-32.942961],[-71.009746,-32.943586],[-71.008981,-32.944003],[-71.007916,-32.944629],[-71.006943,-32.945161],[-71.006294,-32.945694],[-71.005761,-32.946181],[-71.005182,-32.946806],[-71.004557,-32.947478],[-71.004295,-32.94774],[-71.004093,-32.947941],[-71.003769,-32.948289],[-71.003514,-32.948729],[-71.003561,-32.949007],[-71.003607,-32.949355],[-71.003746,-32.949864],[-71.003908,-32.950235],[-71.00414,-32.950768],[-71.00414,-32.951069],[-71.003862,-32.951579],[-71.003746,-32.951972],[-71.0037,-32.952204],[-71.0037,-32.952528],[-71.003862,-32.952737],[-71.00414,-32.952876],[-71.004371,-32.953038],[-71.004742,-32.953177],[-71.00502,-32.953246],[-71.005437,-32.953293],[-71.005692,-32.953385],[-71.006039,-32.953524],[-71.006387,-32.953594],[-71.006711,-32.95371],[-71.007012,-32.953779],[-71.00733,-32.953909],[-71.007901,-32.95411],[-71.008185,-32.954207],[-71.008078,-32.954941],[-71.012501,-32.957861],[-71.012581,-32.957839],[-71.012505,-32.958157],[-71.012397,-32.958574],[-71.012396,-32.958578],[-71.01232,-32.958899],[-71.012227,-32.959223],[-71.012072,-32.959579],[-71.011918,-32.960119],[-71.011887,-32.960459],[-71.01181,-32.960907],[-71.011748,-32.961263],[-71.011563,-32.961726],[-71.011503,-32.962251],[-71.006825,-32.963519],[-71.006199,-32.967807],[-71.010622,-32.970727],[-71.009995,-32.975015],[-71.006303,-32.976015],[-71.005673,-32.975975],[-71.004118,-32.975791],[-71.004038,-32.975784],[-71.000523,-32.973463],[-71.00115,-32.969175],[-70.996727,-32.966255],[-70.991679,-32.967623],[-70.991052,-32.971911],[-70.986003,-32.973278],[-70.981582,-32.970358],[-70.982208,-32.96607],[-70.987257,-32.964703],[-70.987883,-32.960414],[-70.992932,-32.959046],[-70.993558,-32.954758],[-70.989137,-32.951837],[-70.989763,-32.947548],[-70.985342,-32.944627],[-70.985968,-32.940337],[-70.991016,-32.938969],[-70.991643,-32.934679],[-70.987221,-32.931758],[-70.987848,-32.927467],[-70.983427,-32.924546],[-70.978379,-32.925914],[-70.977753,-32.930205],[-70.972705,-32.931573],[-70.968285,-32.928651],[-70.963238,-32.930019],[-70.958818,-32.927097],[-70.959445,-32.922807],[-70.964491,-32.921439],[-70.965118,-32.917148],[-70.960698,-32.914226],[-70.961325,-32.909935],[-70.966372,-32.908566],[-70.966999,-32.904275],[-70.972045,-32.902906],[-70.972672,-32.898614],[-70.977719,-32.897244],[-70.978345,-32.892952],[-70.973925,-32.890029],[-70.974552,-32.885736],[-70.979598,-32.884366]]]},"properties":{"comuna":"Llaillay","mancha_id":"05703-88b2c4a10bfffff","clase":"Alto","nivel_medio":2.784,"nivel_medio_min":2.52,"nivel_medio_max":3.328,"pct_alto":78.5,"n_hexagonos":41,"area_ha":2340.62}},{"type":"Feature","geometry":{"type":"Polygon","coordinates":[[[-70.877436,-32.920295],[-70.878064,-32.916006],[-70.883108,-32.914641],[-70.887524,-32.917565],[-70.892569,-32.9162],[-70.896986,-32.919124],[-70.902031,-32.917759],[-70.906448,-32.920683],[-70.911493,-32.919317],[-70.915911,-32.92224],[-70.920957,-32.920874],[-70.921584,-32.916584],[-70.92663,-32.915218],[-70.927257,-32.910928],[-70.932302,-32.909561],[-70.936721,-32.912484],[-70.936094,-32.916774],[-70.940513,-32.919697],[-70.939886,-32.923987],[-70.944305,-32.92691],[-70.943678,-32.931199],[-70.948097,-32.934122],[-70.953144,-32.932754],[-70.957564,-32.935676],[-70.956937,-32.939966],[-70.961357,-32.942888],[-70.966404,-32.94152],[-70.970825,-32.944442],[-70.970198,-32.948731],[-70.974619,-32.951652],[-70.973992,-32.95594],[-70.968945,-32.957308],[-70.968318,-32.961596],[-70.972739,-32.964517],[-70.972112,-32.968804],[-70.976533,-32.971725],[-70.975906,-32.976012],[-70.97471,-32.976336],[-70.973631,-32.976348],[-70.972852,-32.976177],[-70.97155,-32.975983],[-70.970078,-32.975576],[-70.969278,-32.975295],[-70.968179,-32.974931],[-70.966998,-32.97432],[-70.966488,-32.974111],[-70.964651,-32.973358],[-70.963386,-32.972901],[-70.962663,-32.972608],[-70.961801,-32.972179],[-70.960458,-32.97123],[-70.958618,-32.970077],[-70.957713,-32.969814],[-70.957446,-32.969634],[-70.957595,-32.968616],[-70.962643,-32.96725],[-70.96327,-32.962962],[-70.958849,-32.960041],[-70.953802,-32.961407],[-70.949382,-32.958486],[-70.944335,-32.959852],[-70.943707,-32.964139],[-70.948127,-32.967061],[-70.947573,-32.970853],[-70.947285,-32.971406],[-70.947065,-32.971828],[-70.946262,-32.972334],[-70.945549,-32.972413],[-70.944763,-32.972489],[-70.943969,-32.97242],[-70.943098,-32.972554],[-70.942937,-32.972582],[-70.942396,-32.972676],[-70.94187,-32.972767],[-70.940939,-32.97295],[-70.940096,-32.972976],[-70.939471,-32.972952],[-70.93888,-32.972804],[-70.937826,-32.972252],[-70.937205,-32.971608],[-70.936881,-32.971438],[-70.936171,-32.970972],[-70.93515,-32.970572],[-70.93503,-32.970525],[-70.933622,-32.969895],[-70.932375,-32.969159],[-70.931194,-32.968861],[-70.929839,-32.968409],[-70.929195,-32.968021],[-70.928672,-32.967517],[-70.929194,-32.963948],[-70.925285,-32.961364],[-70.924849,-32.960516],[-70.925402,-32.956739],[-70.930449,-32.955374],[-70.931076,-32.951086],[-70.926657,-32.948164],[-70.921611,-32.949529],[-70.921097,-32.953042],[-70.920933,-32.952845],[-70.92037,-32.952199],[-70.920136,-32.951639],[-70.919643,-32.950519],[-70.918979,-32.949631],[-70.918001,-32.948754],[-70.917271,-32.948048],[-70.916641,-32.947225],[-70.916323,-32.946842],[-70.917192,-32.946606],[-70.91782,-32.942319],[-70.913401,-32.939396],[-70.908356,-32.940761],[-70.907732,-32.940348],[-70.907684,-32.939819],[-70.907456,-32.938907],[-70.907298,-32.937712],[-70.907198,-32.93648],[-70.906929,-32.936077],[-70.906515,-32.935808],[-70.905955,-32.935662],[-70.905249,-32.935584],[-70.9046,-32.935506],[-70.90428,-32.935497],[-70.904565,-32.933549],[-70.900148,-32.930626],[-70.895103,-32.931991],[-70.894732,-32.934521],[-70.894423,-32.934771],[-70.893804,-32.934959],[-70.892898,-32.935319],[-70.892084,-32.935785],[-70.89119,-32.936362],[-70.889878,-32.937073],[-70.889503,-32.9373],[-70.889193,-32.937486],[-70.889003,-32.937601],[-70.888235,-32.938233],[-70.88695,-32.938518],[-70.886088,-32.938486],[-70.885404,-32.938439],[-70.884014,-32.937499],[-70.883164,-32.936869],[-70.882526,-32.936663],[-70.881644,-32.936398],[-70.880167,-32.93603],[-70.880124,-32.936019],[-70.879355,-32.93555],[-70.878804,-32.935312],[-70.87851,-32.935185],[-70.878004,-32.934979],[-70.877773,-32.93463],[-70.877597,-32.934364],[-70.876663,-32.933841],[-70.876294,-32.933651],[-70.875914,-32.933455],[-70.875453,-32.933186],[-70.875552,-32.933159],[-70.87618,-32.928871],[-70.871764,-32.925947],[-70.866719,-32.927311],[-70.866091,-32.931599],[-70.86525,-32.931826],[-70.865163,-32.931787],[-70.864499,-32.931972],[-70.86389,-32.932004],[-70.863464,-32.931909],[-70.862873,-32.930978],[-70.862505,-32.930501],[-70.862042,-32.930048],[-70.861744,-32.930005],[-70.860293,-32.929946],[-70.858814,-32.930014],[-70.858047,-32.929991],[-70.85697,-32.929924],[-70.85666,-32.929845],[-70.855407,-32.929526],[-70.853618,-32.928993],[-70.85324,-32.928858],[-70.851941,-32.928393],[-70.84976,-32.927624],[-70.848606,-32.927285],[-70.847459,-32.92652],[-70.847801,-32.924188],[-70.843386,-32.921263],[-70.844015,-32.916975],[-70.849058,-32.915612],[-70.853473,-32.918537],[-70.852845,-32.922825],[-70.85726,-32.92575],[-70.862304,-32.924386],[-70.862932,-32.920098],[-70.867976,-32.918734],[-70.872392,-32.921659],[-70.877436,-32.920295]]]},"properties":{"comuna":"Llaillay","mancha_id":"05703-88b2c4a083fffff","clase":"Alto","nivel_medio":2.78,"nivel_medio_min":2.506,"nivel_medio_max":2.999,"pct_alto":81.9,"n_hexagonos":54,"area_ha":3118.17}},{"type":"Feature","geometry":{"type":"Polygon","coordinates":[[[-70.939827,-32.858053],[-70.940454,-32.853759],[-70.945499,-32.852389],[-70.949918,-32.855313],[-70.949291,-32.859608],[-70.944246,-32.860977],[-70.939827,-32.858053]]]},"properties":{"comuna":"Llaillay","mancha_id":"05703-88b2c4a069fffff","clase":"Alto","nivel_medio":2.544,"nivel_medio_min":2.544,"nivel_medio_max":2.544,"pct_alto":42.6,"n_hexagonos":1,"area_ha":64.79}},{"type":"Feature","geometry":{"type":"Polygon","coordinates":[[[-70.94741,-32.872489],[-70.948037,-32.868195],[-70.953082,-32.866826],[-70.957501,-32.869749],[-70.956874,-32.874043],[-70.951829,-32.875413],[-70.94741,-32.872489]]]},"properties":{"comuna":"Llaillay","mancha_id":"05703-88b2c4a067fffff","clase":"Alto","nivel_medio":3.002,"nivel_medio_min":3.002,"nivel_medio_max":3.002,"pct_alto":79.3,"n_hexagonos":1,"area_ha":64.78}},{"type":"Feature","geometry":{"type":"Polygon","coordinates":[[[-70.981582,-32.970358],[-70.986003,-32.973278],[-70.991052,-32.971911],[-70.991679,-32.967623],[-70.996727,-32.966255],[-71.00115,-32.969175],[-71.000523,-32.973463],[-71.004038,-32.975784],[-71.002496,-32.975649],[-71.00114,-32.975362],[-71.000228,-32.975309],[-71.0,-32.975325],[-70.99879,-32.975411],[-70.998359,-32.97563],[-70.997819,-32.97606],[-70.997179,-32.976524],[-70.996277,-32.976743],[-70.995373,-32.976849],[-70.995177,-32.976865],[-70.993869,-32.976973],[-70.992769,-32.97702],[-70.991799,-32.97743],[-70.990554,-32.977853],[-70.989091,-32.978167],[-70.987968,-32.978505],[-70.987306,-32.978833],[-70.987301,-32.978836],[-70.986881,-32.97906],[-70.986678,-32.979499],[-70.986696,-32.979836],[-70.986512,-32.980121],[-70.986236,-32.980071],[-70.986027,-32.979836],[-70.985827,-32.979484],[-70.985587,-32.97897],[-70.985399,-32.97859],[-70.984581,-32.977802],[-70.98456,-32.977787],[-70.983601,-32.977063],[-70.982437,-32.976448],[-70.981354,-32.975965],[-70.980749,-32.97576],[-70.979573,-32.975786],[-70.979069,-32.975904],[-70.978269,-32.97618],[-70.977026,-32.976141],[-70.976197,-32.976204],[-70.975906,-32.976012],[-70.976533,-32.971725],[-70.981582,-32.970358]]]},"properties":{"comuna":"Llaillay","mancha_id":"05703-88b2c4af01fffff","clase":"Muy Alto","nivel_medio":3.542,"nivel_medio_min":3.506,"nivel_medio_max":3.598,"pct_alto":97.9,"n_hexagonos":5,"area_ha":179.03}}],"bbox":[-71.04063,-32.98013,-70.72774,-32.79844]}