{"type":"FeatureCollection","features":[{"type":"Feature","geometry":{"type":"Polygon","coordinates":[[[-70.763935,-32.736624],[-70.758898,-32.73799],[-70.758612,-32.7378],[-70.758612,-32.737799],[-70.759213,-32.737217],[-70.759706,-32.736803],[-70.760238,-32.736462],[-70.760853,-32.736185],[-70.761568,-32.73589],[-70.76175,-32.735738],[-70.762033,-32.735434],[-70.762453,-32.735187],[-70.763052,-32.734905],[-70.763542,-32.734695],[-70.764251,-32.734463],[-70.763935,-32.736624]]]},"properties":{"comuna":"Panquehue","mancha_id":"05704-88b2c4b669fffff","clase":"Muy Bajo","nivel_medio":0.282,"nivel_medio_min":0.282,"nivel_medio_max":0.282,"pct_alto":4.6,"n_hexagonos":1,"area_ha":7.92}},{"type":"Feature","geometry":{"type":"Polygon","coordinates":[[[-70.790388,-32.754213],[-70.791016,-32.749915],[-70.796055,-32.748548],[-70.800465,-32.751479],[-70.799836,-32.755777],[-70.794798,-32.757144],[-70.790388,-32.754213]]]},"properties":{"comuna":"Panquehue","mancha_id":"05704-88b2c4b755fffff","clase":"Bajo","nivel_medio":1.023,"nivel_medio_min":1.023,"nivel_medio_max":1.023,"pct_alto":0.0,"n_hexagonos":1,"area_ha":64.84}},{"type":"Feature","geometry":{"type":"Polygon","coordinates":[[[-70.826301,-32.773358],[-70.826929,-32.769061],[-70.831968,-32.767693],[-70.83638,-32.770622],[-70.835752,-32.77492],[-70.830712,-32.776287],[-70.830084,-32.780584],[-70.825044,-32.781952],[-70.820633,-32.779022],[-70.821261,-32.774725],[-70.826301,-32.773358]]]},"properties":{"comuna":"Panquehue","mancha_id":"05704-88b2c4b721fffff","clase":"Bajo","nivel_medio":1.356,"nivel_medio_min":1.327,"nivel_medio_max":1.384,"pct_alto":7.7,"n_hexagonos":2,"area_ha":129.66}},{"type":"Feature","geometry":{"type":"Polygon","coordinates":[[[-70.803618,-32.763005],[-70.804246,-32.758708],[-70.809285,-32.75734],[-70.809913,-32.753042],[-70.814952,-32.751674],[-70.815103,-32.750645],[-70.815188,-32.750673],[-70.815591,-32.750731],[-70.81608,-32.750788],[-70.816827,-32.750817],[-70.817356,-32.750843],[-70.817641,-32.750941],[-70.81773,-32.751066],[-70.817784,-32.751199],[-70.817918,-32.751592],[-70.818049,-32.752074],[-70.818302,-32.752769],[-70.818712,-32.753432],[-70.819059,-32.753842],[-70.819628,-32.754158],[-70.820448,-32.754284],[-70.820506,-32.754295],[-70.819363,-32.754605],[-70.818735,-32.758903],[-70.823146,-32.761833],[-70.822517,-32.766131],[-70.817478,-32.767498],[-70.81685,-32.771796],[-70.811811,-32.773163],[-70.8074,-32.770233],[-70.802361,-32.7716],[-70.797951,-32.768669],[-70.798579,-32.764372],[-70.803618,-32.763005]]]},"properties":{"comuna":"Panquehue","mancha_id":"05704-88b2c4b701fffff","clase":"Bajo","nivel_medio":1.07,"nivel_medio_min":0.965,"nivel_medio_max":1.262,"pct_alto":2.8,"n_hexagonos":6,"area_ha":331.48}},{"type":"Feature","geometry":{"type":"Polygon","coordinates":[[[-70.768343,-32.739556],[-70.763935,-32.736624],[-70.764251,-32.734463],[-70.764342,-32.734433],[-70.764835,-32.734317],[-70.765328,-32.734181],[-70.765741,-32.734016],[-70.766018,-32.733758],[-70.766167,-32.733514],[-70.766587,-32.733247],[-70.767138,-32.732991],[-70.767393,-32.732647],[-70.767637,-32.732243],[-70.767914,-32.731996],[-70.768266,-32.731859],[-70.768701,-32.731829],[-70.769279,-32.73189],[-70.769973,-32.731847],[-70.770375,-32.731796],[-70.770747,-32.731721],[-70.770925,-32.731686],[-70.771494,-32.731759],[-70.771917,-32.731914],[-70.773343,-32.732312],[-70.774073,-32.732379],[-70.774869,-32.732246],[-70.775807,-32.732161],[-70.776814,-32.732233],[-70.777389,-32.732593],[-70.777752,-32.732875],[-70.778035,-32.733096],[-70.778754,-32.733671],[-70.779473,-32.73403],[-70.780336,-32.734282],[-70.781521,-32.734425],[-70.781961,-32.734462],[-70.782382,-32.734497],[-70.782659,-32.73456],[-70.782873,-32.734659],[-70.783114,-32.734845],[-70.783345,-32.734961],[-70.783791,-32.73513],[-70.784176,-32.73526],[-70.784451,-32.735353],[-70.784674,-32.735487],[-70.784817,-32.735674],[-70.784968,-32.735897],[-70.785288,-32.736125],[-70.785748,-32.736298],[-70.786323,-32.736384],[-70.787042,-32.736585],[-70.787502,-32.73693],[-70.788105,-32.73762],[-70.788565,-32.73808],[-70.789198,-32.73831],[-70.79006,-32.738368],[-70.790779,-32.73854],[-70.791153,-32.738799],[-70.791814,-32.739259],[-70.792519,-32.73964],[-70.792557,-32.73966],[-70.792878,-32.739758],[-70.793137,-32.739777],[-70.793597,-32.739863],[-70.793877,-32.739999],[-70.794117,-32.740151],[-70.794358,-32.740267],[-70.794689,-32.740352],[-70.795264,-32.740495],[-70.796098,-32.740697],[-70.797047,-32.741185],[-70.797478,-32.741559],[-70.797836,-32.74197],[-70.798168,-32.74215],[-70.798657,-32.742307],[-70.799318,-32.74245],[-70.799824,-32.742567],[-70.800101,-32.74271],[-70.800404,-32.742826],[-70.800733,-32.742805],[-70.800986,-32.742767],[-70.80126,-32.742737],[-70.801492,-32.742808],[-70.801629,-32.742907],[-70.796683,-32.74425],[-70.792274,-32.741319],[-70.787236,-32.742686],[-70.782827,-32.739754],[-70.777789,-32.741121],[-70.77338,-32.73819],[-70.768343,-32.739556]]]},"properties":{"comuna":"Panquehue","mancha_id":"05704-88b2c4b66dfffff","clase":"Bajo","nivel_medio":1.114,"nivel_medio_min":0.784,"nivel_medio_max":1.317,"pct_alto":21.7,"n_hexagonos":6,"area_ha":187.06}},{"type":"Feature","geometry":{"type":"Polygon","coordinates":[[[-70.764105,-32.823206],[-70.76584,-32.822737],[-70.769978,-32.825486],[-70.769731,-32.825486],[-70.768927,-32.825486],[-70.768355,-32.825486],[-70.767508,-32.825465],[-70.766978,-32.825372],[-70.766396,-32.82515],[-70.765511,-32.824375],[-70.764597,-32.8236],[-70.764105,-32.823206]]]},"properties":{"comuna":"Panquehue","mancha_id":"05704-88b2c4b433fffff","clase":"Bajo","nivel_medio":0.639,"nivel_medio_min":0.639,"nivel_medio_max":0.639,"pct_alto":14.9,"n_hexagonos":1,"area_ha":7.1}},{"type":"Feature","geometry":{"type":"Polygon","coordinates":[[[-70.883043,-32.815723],[-70.878001,-32.817091],[-70.877373,-32.821386],[-70.872331,-32.822754],[-70.867917,-32.819827],[-70.868544,-32.815532],[-70.86413,-32.812604],[-70.864758,-32.808309],[-70.860345,-32.805381],[-70.855303,-32.806749],[-70.854675,-32.811044],[-70.859089,-32.813972],[-70.858461,-32.818267],[-70.85342,-32.819634],[-70.852792,-32.823929],[-70.84775,-32.825296],[-70.843337,-32.822368],[-70.838296,-32.823735],[-70.833883,-32.820806],[-70.828842,-32.822173],[-70.828214,-32.826466],[-70.823173,-32.827832],[-70.818761,-32.824904],[-70.813721,-32.826269],[-70.809309,-32.82334],[-70.809937,-32.819047],[-70.805526,-32.816118],[-70.800486,-32.817483],[-70.799857,-32.821776],[-70.794818,-32.823141],[-70.790407,-32.820212],[-70.785367,-32.821576],[-70.780957,-32.818646],[-70.781586,-32.814353],[-70.786625,-32.812989],[-70.787254,-32.808695],[-70.782844,-32.805765],[-70.783472,-32.801471],[-70.788511,-32.800106],[-70.792922,-32.803036],[-70.797961,-32.80167],[-70.79859,-32.797375],[-70.803629,-32.79601],[-70.804257,-32.791714],[-70.799847,-32.788785],[-70.794808,-32.79015],[-70.790397,-32.78722],[-70.785359,-32.788586],[-70.78473,-32.792881],[-70.779691,-32.794246],[-70.775281,-32.791316],[-70.770243,-32.79268],[-70.765834,-32.78975],[-70.766463,-32.785455],[-70.771501,-32.78409],[-70.77591,-32.78702],[-70.780949,-32.785655],[-70.781578,-32.78136],[-70.786616,-32.779994],[-70.791026,-32.782925],[-70.796065,-32.781559],[-70.796693,-32.777263],[-70.801732,-32.775896],[-70.806143,-32.778826],[-70.805514,-32.783123],[-70.809925,-32.786052],[-70.814965,-32.784686],[-70.819376,-32.787615],[-70.818748,-32.791911],[-70.813708,-32.793278],[-70.81308,-32.797573],[-70.817491,-32.800502],[-70.822531,-32.799136],[-70.823159,-32.79484],[-70.828199,-32.793474],[-70.832612,-32.796403],[-70.831983,-32.800698],[-70.836396,-32.803627],[-70.835768,-32.807922],[-70.84018,-32.810851],[-70.845221,-32.809484],[-70.845849,-32.805188],[-70.85089,-32.803821],[-70.851518,-32.799525],[-70.856559,-32.798157],[-70.860972,-32.801085],[-70.866014,-32.799717],[-70.866642,-32.79542],[-70.871683,-32.794051],[-70.876097,-32.796979],[-70.875469,-32.801276],[-70.879884,-32.804203],[-70.879256,-32.8085],[-70.88367,-32.811427],[-70.883043,-32.815723]]]},"properties":{"comuna":"Panquehue","mancha_id":"05704-88b2c4a251fffff","clase":"Bajo","nivel_medio":1.127,"nivel_medio_min":0.589,"nivel_medio_max":1.485,"pct_alto":4.4,"n_hexagonos":40,"area_ha":2591.21}},{"type":"Feature","geometry":{"type":"Polygon","coordinates":[[[-70.905747,-32.82606],[-70.906374,-32.821765],[-70.901958,-32.818838],[-70.902586,-32.814542],[-70.907629,-32.813173],[-70.912044,-32.816099],[-70.917088,-32.814729],[-70.917715,-32.810433],[-70.913299,-32.807506],[-70.913926,-32.803209],[-70.918969,-32.801839],[-70.923385,-32.804765],[-70.922758,-32.809062],[-70.927175,-32.811988],[-70.926548,-32.816285],[-70.930964,-32.819211],[-70.936008,-32.81784],[-70.936635,-32.813543],[-70.941679,-32.812172],[-70.942306,-32.807875],[-70.945374,-32.807041],[-70.944876,-32.807462],[-70.944493,-32.808564],[-70.944541,-32.809809],[-70.944732,-32.810815],[-70.944924,-32.811821],[-70.94502,-32.812779],[-70.945068,-32.813737],[-70.945154,-32.814474],[-70.945163,-32.814551],[-70.945403,-32.815605],[-70.945499,-32.816707],[-70.945499,-32.817521],[-70.945603,-32.818309],[-70.94562,-32.818365],[-70.94547,-32.819395],[-70.940425,-32.820766],[-70.939798,-32.825062],[-70.942237,-32.826677],[-70.942037,-32.826735],[-70.941486,-32.826947],[-70.940893,-32.827179],[-70.940216,-32.827476],[-70.939539,-32.827666],[-70.938988,-32.827878],[-70.93848,-32.82809],[-70.937993,-32.828471],[-70.937379,-32.829],[-70.937019,-32.829402],[-70.936617,-32.829656],[-70.93613,-32.829974],[-70.935537,-32.830292],[-70.935199,-32.830567],[-70.93486,-32.830546],[-70.9345,-32.830334],[-70.934309,-32.829974],[-70.934243,-32.829935],[-70.933844,-32.829699],[-70.933336,-32.829466],[-70.932637,-32.829275],[-70.932023,-32.829148],[-70.93124,-32.829191],[-70.930372,-32.829297],[-70.92944,-32.829318],[-70.928721,-32.829424],[-70.928255,-32.829487],[-70.927683,-32.829508],[-70.926815,-32.829529],[-70.926011,-32.829508],[-70.925122,-32.829466],[-70.92511,-32.829467],[-70.924666,-32.829173],[-70.925293,-32.824877],[-70.920877,-32.821951],[-70.915833,-32.823321],[-70.915206,-32.827617],[-70.910163,-32.828986],[-70.905747,-32.82606]]]},"properties":{"comuna":"Panquehue","mancha_id":"05704-88b2c4a205fffff","clase":"Bajo","nivel_medio":1.191,"nivel_medio_min":1.017,"nivel_medio_max":1.38,"pct_alto":3.9,"n_hexagonos":11,"area_ha":604.27}},{"type":"Feature","geometry":{"type":"Polygon","coordinates":[[[-70.745787,-32.748373],[-70.745914,-32.748217],[-70.746158,-32.747917],[-70.746344,-32.747462],[-70.746529,-32.746871],[-70.746732,-32.746399],[-70.747238,-32.745994],[-70.747693,-32.74574],[-70.7482,-32.745403],[-70.748453,-32.745133],[-70.748503,-32.744711],[-70.74854,-32.744299],[-70.748663,-32.744021],[-70.748824,-32.7438],[-70.749256,-32.743456],[-70.749549,-32.743091],[-70.749668,-32.742754],[-70.749853,-32.742298],[-70.75,-32.742098],[-70.750174,-32.74186],[-70.75029,-32.741697],[-70.750481,-32.741428],[-70.750773,-32.741042],[-70.75094,-32.740878],[-70.751156,-32.740747],[-70.751719,-32.740306],[-70.752017,-32.739916],[-70.752522,-32.739609],[-70.752854,-32.739484],[-70.753091,-32.739414],[-70.753286,-32.739475],[-70.753718,-32.739615],[-70.754235,-32.739621],[-70.75477,-32.739685],[-70.755068,-32.739846],[-70.755473,-32.740181],[-70.755795,-32.740294],[-70.756285,-32.740275],[-70.75676,-32.740169],[-70.757356,-32.739807],[-70.75794,-32.739034],[-70.758612,-32.7378],[-70.758898,-32.73799],[-70.763935,-32.736624],[-70.768343,-32.739556],[-70.77338,-32.73819],[-70.777789,-32.741121],[-70.782827,-32.739754],[-70.787236,-32.742686],[-70.792274,-32.741319],[-70.796683,-32.74425],[-70.801629,-32.742907],[-70.801992,-32.743169],[-70.80233,-32.743397],[-70.80274,-32.743736],[-70.803084,-32.743945],[-70.803468,-32.744163],[-70.803873,-32.744315],[-70.803879,-32.744316],[-70.804493,-32.744405],[-70.804953,-32.744492],[-70.805384,-32.74475],[-70.805931,-32.745067],[-70.806362,-32.745268],[-70.807023,-32.745556],[-70.807045,-32.745565],[-70.807541,-32.745786],[-70.808346,-32.746102],[-70.808806,-32.746504],[-70.809496,-32.747022],[-70.809927,-32.747626],[-70.810416,-32.748402],[-70.810789,-32.749063],[-70.81098,-32.749282],[-70.811194,-32.749478],[-70.811854,-32.749871],[-70.812202,-32.75],[-70.812543,-32.750127],[-70.813061,-32.750242],[-70.813377,-32.750271],[-70.813952,-32.750271],[-70.814326,-32.750328],[-70.814757,-32.750529],[-70.815103,-32.750645],[-70.814952,-32.751674],[-70.809913,-32.753042],[-70.809285,-32.75734],[-70.804246,-32.758708],[-70.803618,-32.763005],[-70.798579,-32.764372],[-70.797951,-32.768669],[-70.792912,-32.770036],[-70.788502,-32.767105],[-70.783464,-32.768471],[-70.779054,-32.76554],[-70.779683,-32.761243],[-70.775274,-32.758312],[-70.775903,-32.754015],[-70.771494,-32.751084],[-70.772123,-32.746786],[-70.767714,-32.743854],[-70.762677,-32.74522],[-70.762048,-32.749518],[-70.766456,-32.752449],[-70.765828,-32.756747],[-70.76079,-32.758112],[-70.760161,-32.762409],[-70.755124,-32.763774],[-70.754741,-32.766389],[-70.754702,-32.766376],[-70.753582,-32.76631],[-70.752692,-32.766343],[-70.751802,-32.766508],[-70.751143,-32.766541],[-70.750831,-32.766555],[-70.750481,-32.76646],[-70.750089,-32.766277],[-70.75,-32.766229],[-70.749781,-32.76611],[-70.749463,-32.765967],[-70.748902,-32.765783],[-70.748493,-32.76568],[-70.747952,-32.765649],[-70.747584,-32.765519],[-70.747172,-32.765362],[-70.746661,-32.765222],[-70.746167,-32.765058],[-70.745486,-32.764758],[-70.745314,-32.764699],[-70.745679,-32.762207],[-70.741271,-32.759275],[-70.7419,-32.754978],[-70.740557,-32.754084],[-70.740696,-32.753665],[-70.740696,-32.75327],[-70.740828,-32.752821],[-70.741224,-32.752505],[-70.741777,-32.7524],[-70.742489,-32.752083],[-70.743043,-32.751767],[-70.743359,-32.751319],[-70.743623,-32.750844],[-70.743992,-32.750396],[-70.744282,-32.750106],[-70.744426,-32.75],[-70.744677,-32.749816],[-70.744967,-32.749499],[-70.745264,-32.749081],[-70.745787,-32.748373]],[[-70.799836,-32.755777],[-70.800465,-32.751479],[-70.796055,-32.748548],[-70.791016,-32.749915],[-70.790388,-32.754213],[-70.794798,-32.757144],[-70.799836,-32.755777]]]},"properties":{"comuna":"Panquehue","mancha_id":"05704-88b2c4b601fffff","clase":"Medio","nivel_medio":1.989,"nivel_medio_min":1.501,"nivel_medio_max":2.496,"pct_alto":37.1,"n_hexagonos":24,"area_ha":1329.91}},{"type":"Feature","geometry":{"type":"Polygon","coordinates":[[[-70.80364,-32.828999],[-70.804269,-32.824705],[-70.799857,-32.821776],[-70.800486,-32.817483],[-70.805526,-32.816118],[-70.809937,-32.819047],[-70.809309,-32.82334],[-70.813721,-32.826269],[-70.818761,-32.824904],[-70.823173,-32.827832],[-70.828214,-32.826466],[-70.828842,-32.822173],[-70.833883,-32.820806],[-70.838296,-32.823735],[-70.843337,-32.822368],[-70.84775,-32.825296],[-70.847273,-32.828555],[-70.846918,-32.82864],[-70.846071,-32.828894],[-70.845627,-32.829064],[-70.845013,-32.829339],[-70.844187,-32.829762],[-70.843679,-32.830122],[-70.843044,-32.830546],[-70.842515,-32.830757],[-70.842345,-32.830757],[-70.841922,-32.830609],[-70.84152,-32.830334],[-70.840885,-32.83008],[-70.840316,-32.829786],[-70.840271,-32.829762],[-70.840218,-32.82972],[-70.839869,-32.829445],[-70.839741,-32.829404],[-70.839403,-32.829297],[-70.838746,-32.829106],[-70.8379,-32.829021],[-70.836481,-32.828979],[-70.835317,-32.828958],[-70.834524,-32.82888],[-70.834449,-32.828873],[-70.833941,-32.828958],[-70.833602,-32.829106],[-70.833136,-32.828894],[-70.832692,-32.828767],[-70.83212,-32.828873],[-70.83194,-32.828939],[-70.831189,-32.829212],[-70.830427,-32.829424],[-70.82977,-32.829529],[-70.829389,-32.829635],[-70.82886,-32.829783],[-70.828225,-32.829974],[-70.827569,-32.830228],[-70.826828,-32.830397],[-70.826108,-32.830546],[-70.825346,-32.830546],[-70.824541,-32.830482],[-70.823504,-32.830292],[-70.822833,-32.830154],[-70.822784,-32.830143],[-70.822212,-32.830207],[-70.821683,-32.830376],[-70.821154,-32.83063],[-70.820625,-32.830948],[-70.820328,-32.831287],[-70.820032,-32.831498],[-70.81946,-32.831625],[-70.818486,-32.831731],[-70.817978,-32.831752],[-70.817491,-32.83171],[-70.817216,-32.83171],[-70.816793,-32.831816],[-70.816115,-32.832155],[-70.815692,-32.832288],[-70.815311,-32.832409],[-70.814464,-32.832472],[-70.813871,-32.832472],[-70.812834,-32.83262],[-70.811881,-32.832684],[-70.811183,-32.832684],[-70.810378,-32.832578],[-70.809637,-32.832557],[-70.808917,-32.832599],[-70.808346,-32.832684],[-70.807933,-32.832742],[-70.807287,-32.832832],[-70.806737,-32.832938],[-70.806292,-32.832874],[-70.805805,-32.832578],[-70.805382,-32.832324],[-70.80462,-32.832091],[-70.804048,-32.8319],[-70.803074,-32.83135],[-70.801847,-32.830757],[-70.80136,-32.830503],[-70.801106,-32.830376],[-70.800682,-32.830249],[-70.799984,-32.83027],[-70.798946,-32.830376],[-70.7986,-32.830366],[-70.7986,-32.830363],[-70.80364,-32.828999]]]},"properties":{"comuna":"Panquehue","mancha_id":"05704-88b2c4b513fffff","clase":"Medio","nivel_medio":2.078,"nivel_medio_min":1.596,"nivel_medio_max":2.447,"pct_alto":54.5,"n_hexagonos":9,"area_ha":360.03}},{"type":"Feature","geometry":{"type":"Polygon","coordinates":[[[-70.758279,-32.80829],[-70.758909,-32.803997],[-70.758203,-32.803528],[-70.758269,-32.803493],[-70.758987,-32.803016],[-70.759751,-32.802646],[-70.760417,-32.802356],[-70.760964,-32.802093],[-70.761623,-32.801671],[-70.762177,-32.801302],[-70.762783,-32.800906],[-70.763126,-32.800695],[-70.763073,-32.800458],[-70.762915,-32.800274],[-70.762704,-32.799878],[-70.762388,-32.799351],[-70.76215,-32.79885],[-70.761913,-32.798296],[-70.761623,-32.797874],[-70.761359,-32.797163],[-70.761201,-32.796688],[-70.761047,-32.796267],[-70.760941,-32.795949],[-70.760933,-32.795917],[-70.760875,-32.795689],[-70.760867,-32.795469],[-70.760924,-32.7952],[-70.760924,-32.794768],[-70.760892,-32.79432],[-70.760779,-32.793762],[-70.760497,-32.793171],[-70.760495,-32.793167],[-70.760796,-32.791114],[-70.759672,-32.790367],[-70.759672,-32.790361],[-70.759751,-32.789833],[-70.75983,-32.789517],[-70.760049,-32.78921],[-70.760384,-32.788858],[-70.760806,-32.788304],[-70.761201,-32.787777],[-70.761438,-32.787408],[-70.761649,-32.786907],[-70.761676,-32.786643],[-70.761649,-32.786195],[-70.761649,-32.785721],[-70.761566,-32.785056],[-70.761617,-32.784456],[-70.761566,-32.783916],[-70.761412,-32.783453],[-70.761307,-32.782821],[-70.76128,-32.782733],[-70.761201,-32.782478],[-70.761122,-32.781951],[-70.761175,-32.781529],[-70.76128,-32.781133],[-70.761491,-32.78079],[-70.761992,-32.780474],[-70.762376,-32.780325],[-70.762467,-32.78029],[-70.762888,-32.780026],[-70.763099,-32.779868],[-70.763468,-32.77963],[-70.763706,-32.779472],[-70.763864,-32.779261],[-70.763943,-32.779103],[-70.764022,-32.77884],[-70.764048,-32.778418],[-70.764254,-32.778041],[-70.764414,-32.777759],[-70.767721,-32.776864],[-70.77213,-32.779794],[-70.777168,-32.778429],[-70.777797,-32.774133],[-70.782835,-32.772768],[-70.787245,-32.775698],[-70.792283,-32.774332],[-70.796693,-32.777263],[-70.796065,-32.781559],[-70.791026,-32.782925],[-70.786616,-32.779994],[-70.781578,-32.78136],[-70.780949,-32.785655],[-70.77591,-32.78702],[-70.771501,-32.78409],[-70.766463,-32.785455],[-70.765834,-32.78975],[-70.770243,-32.79268],[-70.775281,-32.791316],[-70.779691,-32.794246],[-70.78473,-32.792881],[-70.785359,-32.788586],[-70.790397,-32.78722],[-70.794808,-32.79015],[-70.799847,-32.788785],[-70.804257,-32.791714],[-70.803629,-32.79601],[-70.79859,-32.797375],[-70.797961,-32.80167],[-70.792922,-32.803036],[-70.788511,-32.800106],[-70.783472,-32.801471],[-70.782844,-32.805765],[-70.787254,-32.808695],[-70.786625,-32.812989],[-70.781586,-32.814353],[-70.780957,-32.818646],[-70.785367,-32.821576],[-70.790407,-32.820212],[-70.794818,-32.823141],[-70.794189,-32.827434],[-70.789149,-32.828798],[-70.784739,-32.825869],[-70.779699,-32.827233],[-70.779345,-32.82965],[-70.77822,-32.829402],[-70.776993,-32.829],[-70.776082,-32.828725],[-70.77496,-32.828238],[-70.774219,-32.827942],[-70.773499,-32.827624],[-70.77278,-32.826989],[-70.772335,-32.826523],[-70.771933,-32.826142],[-70.771531,-32.825761],[-70.771234,-32.825528],[-70.77086,-32.825501],[-70.770641,-32.825486],[-70.769978,-32.825486],[-70.76584,-32.822737],[-70.764105,-32.823206],[-70.763905,-32.823046],[-70.763185,-32.822659],[-70.762493,-32.822216],[-70.761911,-32.822022],[-70.76169,-32.821745],[-70.761385,-32.821136],[-70.761275,-32.820499],[-70.760887,-32.819807],[-70.760416,-32.819364],[-70.759863,-32.818893],[-70.75917,-32.818312],[-70.758506,-32.817731],[-70.757565,-32.817122],[-70.75738,-32.81678],[-70.76206,-32.815514],[-70.766469,-32.818444],[-70.771508,-32.81708],[-70.772137,-32.812787],[-70.767727,-32.809857],[-70.762689,-32.811221],[-70.758279,-32.80829]]]},"properties":{"comuna":"Panquehue","mancha_id":"05704-88b2c4b401fffff","clase":"Medio","nivel_medio":2.093,"nivel_medio_min":1.523,"nivel_medio_max":2.497,"pct_alto":36.7,"n_hexagonos":24,"area_ha":1344.85}},{"type":"Feature","geometry":{"type":"Polygon","coordinates":[[[-70.848989,-32.783707],[-70.853402,-32.786635],[-70.858443,-32.785267],[-70.862856,-32.788195],[-70.867897,-32.786826],[-70.872311,-32.789754],[-70.871683,-32.794051],[-70.866642,-32.79542],[-70.866014,-32.799717],[-70.860972,-32.801085],[-70.856559,-32.798157],[-70.851518,-32.799525],[-70.85089,-32.803821],[-70.845849,-32.805188],[-70.845221,-32.809484],[-70.84018,-32.810851],[-70.835768,-32.807922],[-70.836396,-32.803627],[-70.831983,-32.800698],[-70.832612,-32.796403],[-70.828199,-32.793474],[-70.823159,-32.79484],[-70.822531,-32.799136],[-70.817491,-32.800502],[-70.81308,-32.797573],[-70.813708,-32.793278],[-70.818748,-32.791911],[-70.819376,-32.787615],[-70.814965,-32.784686],[-70.809925,-32.786052],[-70.805514,-32.783123],[-70.806143,-32.778826],[-70.801732,-32.775896],[-70.802361,-32.7716],[-70.8074,-32.770233],[-70.811811,-32.773163],[-70.81685,-32.771796],[-70.817478,-32.767498],[-70.822517,-32.766131],[-70.823146,-32.761833],[-70.818735,-32.758903],[-70.819363,-32.754605],[-70.820506,-32.754295],[-70.821143,-32.75441],[-70.822184,-32.754379],[-70.823037,-32.754316],[-70.8237,-32.75441],[-70.824394,-32.754694],[-70.824804,-32.754694],[-70.825152,-32.754568],[-70.825909,-32.754537],[-70.826359,-32.754537],[-70.828813,-32.756167],[-70.828185,-32.760465],[-70.832597,-32.763395],[-70.837636,-32.762026],[-70.837646,-32.761958],[-70.837909,-32.762124],[-70.838871,-32.762561],[-70.840183,-32.763217],[-70.841101,-32.763698],[-70.84137,-32.76388],[-70.841626,-32.764135],[-70.842165,-32.764924],[-70.842048,-32.764956],[-70.84142,-32.769254],[-70.83638,-32.770622],[-70.831968,-32.767693],[-70.826929,-32.769061],[-70.826301,-32.773358],[-70.821261,-32.774725],[-70.820633,-32.779022],[-70.825044,-32.781952],[-70.830084,-32.780584],[-70.830712,-32.776287],[-70.835752,-32.77492],[-70.840164,-32.777849],[-70.845204,-32.776481],[-70.849617,-32.77941],[-70.848989,-32.783707]]]},"properties":{"comuna":"Panquehue","mancha_id":"05704-88b2c4b093fffff","clase":"Medio","nivel_medio":1.898,"nivel_medio_min":1.533,"nivel_medio_max":2.4,"pct_alto":15.5,"n_hexagonos":25,"area_ha":1553.41}},{"type":"Feature","geometry":{"type":"Polygon","coordinates":[[[-70.940425,-32.820766],[-70.94547,-32.819395],[-70.94562,-32.818365],[-70.945882,-32.819246],[-70.946012,-32.819754],[-70.946245,-32.820662],[-70.946486,-32.821411],[-70.946887,-32.822293],[-70.947181,-32.822828],[-70.947582,-32.823309],[-70.94793,-32.82366],[-70.94771,-32.823919],[-70.947202,-32.824237],[-70.946779,-32.824766],[-70.946186,-32.825105],[-70.945741,-32.825359],[-70.945022,-32.825507],[-70.944514,-32.825719],[-70.944133,-32.825973],[-70.94373,-32.826227],[-70.943243,-32.826354],[-70.942693,-32.826544],[-70.942237,-32.826677],[-70.939798,-32.825062],[-70.940425,-32.820766]]]},"properties":{"comuna":"Panquehue","mancha_id":"05704-88b2c4a351fffff","clase":"Medio","nivel_medio":1.53,"nivel_medio_min":1.526,"nivel_medio_max":2.0,"pct_alto":8.4,"n_hexagonos":2,"area_ha":41.04}},{"type":"Feature","geometry":{"type":"Polygon","coordinates":[[[-70.920295,-32.830482],[-70.919576,-32.830861],[-70.919623,-32.830543],[-70.915206,-32.827617],[-70.915833,-32.823321],[-70.920877,-32.821951],[-70.925293,-32.824877],[-70.924666,-32.829173],[-70.92511,-32.829467],[-70.924317,-32.829551],[-70.923788,-32.829572],[-70.923263,-32.829554],[-70.923153,-32.829551],[-70.922729,-32.829424],[-70.922327,-32.829381],[-70.921861,-32.829466],[-70.921099,-32.829953],[-70.92061,-32.830275],[-70.920295,-32.830482]]]},"properties":{"comuna":"Panquehue","mancha_id":"05704-88b2c4a221fffff","clase":"Medio","nivel_medio":2.029,"nivel_medio_min":2.029,"nivel_medio_max":2.099,"pct_alto":45.0,"n_hexagonos":2,"area_ha":64.61}},{"type":"Feature","geometry":{"type":"Polygon","coordinates":[[[-70.906374,-32.821765],[-70.905747,-32.82606],[-70.910163,-32.828986],[-70.909535,-32.833282],[-70.909525,-32.833285],[-70.909053,-32.833171],[-70.908164,-32.833086],[-70.907677,-32.832959],[-70.907106,-32.83279],[-70.906661,-32.832578],[-70.906111,-32.832409],[-70.905687,-32.832345],[-70.9052,-32.832514],[-70.904777,-32.83279],[-70.904311,-32.833107],[-70.903824,-32.833361],[-70.903083,-32.833552],[-70.902923,-32.833611],[-70.902342,-32.833827],[-70.901347,-32.834166],[-70.900733,-32.834462],[-70.900246,-32.834568],[-70.899759,-32.834547],[-70.899294,-32.834229],[-70.898997,-32.833806],[-70.898532,-32.833298],[-70.898002,-32.83279],[-70.897664,-32.832409],[-70.897641,-32.832385],[-70.89724,-32.831964],[-70.897007,-32.83171],[-70.896822,-32.831579],[-70.89665,-32.83153],[-70.896161,-32.831477],[-70.895398,-32.831308],[-70.894721,-32.831096],[-70.893874,-32.830884],[-70.893197,-32.830884],[-70.892413,-32.830736],[-70.89163,-32.830419],[-70.890762,-32.829995],[-70.890652,-32.829933],[-70.890085,-32.829614],[-70.889577,-32.829233],[-70.889217,-32.828831],[-70.888899,-32.828259],[-70.888751,-32.827878],[-70.888539,-32.82737],[-70.888306,-32.826904],[-70.887904,-32.826523],[-70.887502,-32.826184],[-70.887311,-32.825973],[-70.8871,-32.825803],[-70.886613,-32.825867],[-70.885935,-32.826015],[-70.885491,-32.8261],[-70.885152,-32.826312],[-70.884961,-32.82665],[-70.884559,-32.826989],[-70.884072,-32.827095],[-70.88331,-32.827052],[-70.882717,-32.827116],[-70.882082,-32.827434],[-70.881659,-32.827688],[-70.881266,-32.827884],[-70.881066,-32.827984],[-70.880473,-32.828174],[-70.879838,-32.82845],[-70.879309,-32.828513],[-70.878462,-32.828534],[-70.877531,-32.828471],[-70.876853,-32.828492],[-70.875964,-32.828577],[-70.875244,-32.828788],[-70.874638,-32.828995],[-70.874313,-32.829106],[-70.873424,-32.829551],[-70.872513,-32.830143],[-70.871899,-32.830524],[-70.871307,-32.830863],[-70.870841,-32.831223],[-70.870248,-32.831519],[-70.870142,-32.831879],[-70.8701,-32.83207],[-70.869888,-32.832366],[-70.869401,-32.832345],[-70.868427,-32.832176],[-70.867813,-32.83226],[-70.867411,-32.832409],[-70.866882,-32.832303],[-70.866134,-32.832022],[-70.866035,-32.831985],[-70.865548,-32.831795],[-70.865082,-32.831583],[-70.864447,-32.831223],[-70.863897,-32.830948],[-70.863283,-32.830694],[-70.862648,-32.830482],[-70.861865,-32.830397],[-70.861081,-32.830313],[-70.860467,-32.830355],[-70.860023,-32.830334],[-70.859261,-32.830143],[-70.858689,-32.829762],[-70.858202,-32.829233],[-70.857546,-32.828513],[-70.857011,-32.828185],[-70.857205,-32.826857],[-70.852792,-32.823929],[-70.85342,-32.819634],[-70.858461,-32.818267],[-70.859089,-32.813972],[-70.854675,-32.811044],[-70.855303,-32.806749],[-70.860345,-32.805381],[-70.864758,-32.808309],[-70.86413,-32.812604],[-70.868544,-32.815532],[-70.867917,-32.819827],[-70.872331,-32.822754],[-70.877373,-32.821386],[-70.878001,-32.817091],[-70.883043,-32.815723],[-70.88367,-32.811427],[-70.879256,-32.8085],[-70.879884,-32.804203],[-70.875469,-32.801276],[-70.876097,-32.796979],[-70.881139,-32.79561],[-70.885553,-32.798538],[-70.890595,-32.797168],[-70.89501,-32.800095],[-70.894383,-32.804392],[-70.898798,-32.807319],[-70.90384,-32.805949],[-70.904468,-32.801653],[-70.900052,-32.798726],[-70.90068,-32.794428],[-70.905722,-32.793058],[-70.910138,-32.795985],[-70.91132,-32.795664],[-70.912054,-32.795755],[-70.913133,-32.796128],[-70.914463,-32.796542],[-70.91574,-32.796962],[-70.916866,-32.797345],[-70.917876,-32.797485],[-70.918831,-32.797552],[-70.919583,-32.797629],[-70.919604,-32.797631],[-70.920498,-32.79779],[-70.921289,-32.797936],[-70.921721,-32.798155],[-70.921964,-32.798349],[-70.922275,-32.798574],[-70.922573,-32.79869],[-70.922816,-32.798836],[-70.923148,-32.799073],[-70.923507,-32.799298],[-70.923732,-32.799615],[-70.923926,-32.80001],[-70.924109,-32.800223],[-70.924425,-32.800515],[-70.92476,-32.800692],[-70.925289,-32.801002],[-70.925727,-32.801264],[-70.926147,-32.801489],[-70.926573,-32.801659],[-70.927108,-32.801799],[-70.927638,-32.801933],[-70.928149,-32.802097],[-70.928508,-32.802134],[-70.928612,-32.80214],[-70.928429,-32.803394],[-70.932845,-32.80632],[-70.937889,-32.804949],[-70.938129,-32.803302],[-70.938163,-32.803323],[-70.938547,-32.803566],[-70.938884,-32.803685],[-70.939106,-32.80377],[-70.939414,-32.803849],[-70.939739,-32.803959],[-70.939967,-32.804004],[-70.940244,-32.803977],[-70.94056,-32.803895],[-70.940868,-32.803752],[-70.941157,-32.803649],[-70.941573,-32.803579],[-70.942139,-32.80342],[-70.942559,-32.803341],[-70.943094,-32.803287],[-70.943682,-32.803229],[-70.944278,-32.803235],[-70.945079,-32.8033],[-70.945932,-32.803137],[-70.946744,-32.803007],[-70.94786,-32.803007],[-70.947894,-32.803007],[-70.948181,-32.80339],[-70.948181,-32.803965],[-70.948181,-32.804636],[-70.948133,-32.805019],[-70.947798,-32.805354],[-70.947494,-32.805518],[-70.947175,-32.805689],[-70.946361,-32.80636],[-70.945499,-32.806935],[-70.945374,-32.807041],[-70.942306,-32.807875],[-70.941679,-32.812172],[-70.936635,-32.813543],[-70.936008,-32.81784],[-70.930964,-32.819211],[-70.926548,-32.816285],[-70.927175,-32.811988],[-70.922758,-32.809062],[-70.923385,-32.804765],[-70.918969,-32.801839],[-70.913926,-32.803209],[-70.913299,-32.807506],[-70.917715,-32.810433],[-70.917088,-32.814729],[-70.912044,-32.816099],[-70.907629,-32.813173],[-70.902586,-32.814542],[-70.901958,-32.818838],[-70.906374,-32.821765]]]},"properties":{"comuna":"Panquehue","mancha_id":"05704-88b2c4a201fffff","clase":"Medio","nivel_medio":2.034,"nivel_medio_min":1.546,"nivel_medio_max":2.496,"pct_alto":37.7,"n_hexagonos":31,"area_ha":1705.21}},{"type":"Feature","geometry":{"type":"Polygon","coordinates":[[[-70.829126,-32.755749],[-70.829361,-32.756018],[-70.829445,-32.756115],[-70.829581,-32.756345],[-70.829792,-32.756588],[-70.830116,-32.75679],[-70.830581,-32.756936],[-70.83137,-32.756873],[-70.832128,-32.756746],[-70.832479,-32.756719],[-70.832818,-32.756755],[-70.833095,-32.756862],[-70.833391,-32.757062],[-70.833639,-32.757254],[-70.833916,-32.757515],[-70.834196,-32.757734],[-70.834542,-32.75797],[-70.835417,-32.7588],[-70.836247,-32.759631],[-70.836991,-32.760156],[-70.837215,-32.760438],[-70.837341,-32.760768],[-70.837268,-32.761228],[-70.837259,-32.761561],[-70.837455,-32.761838],[-70.837646,-32.761958],[-70.837636,-32.762026],[-70.832597,-32.763395],[-70.828185,-32.760465],[-70.828813,-32.756167],[-70.826359,-32.754537],[-70.826762,-32.754537],[-70.827424,-32.754694],[-70.828403,-32.754947],[-70.828654,-32.755132],[-70.828813,-32.755389],[-70.829126,-32.755749]]]},"properties":{"comuna":"Panquehue","mancha_id":"05704-88b2c4b761fffff","clase":"Alto","nivel_medio":2.594,"nivel_medio_min":2.585,"nivel_medio_max":2.832,"pct_alto":72.0,"n_hexagonos":2,"area_ha":46.01}},{"type":"Feature","geometry":{"type":"Polygon","coordinates":[[[-70.7419,-32.754978],[-70.741271,-32.759275],[-70.745679,-32.762207],[-70.745314,-32.764699],[-70.744816,-32.76453],[-70.744124,-32.764168],[-70.743366,-32.763575],[-70.742806,-32.763212],[-70.742543,-32.762928],[-70.742225,-32.762626],[-70.741883,-32.76252],[-70.741413,-32.762387],[-70.740904,-32.762244],[-70.740663,-32.762026],[-70.740427,-32.761783],[-70.74022,-32.761449],[-70.73995,-32.761083],[-70.739807,-32.760621],[-70.739632,-32.760144],[-70.739411,-32.759818],[-70.739389,-32.759784],[-70.739147,-32.759422],[-70.738884,-32.758961],[-70.738587,-32.758533],[-70.738126,-32.758071],[-70.737599,-32.757643],[-70.737203,-32.757115],[-70.737071,-32.756456],[-70.73707,-32.756215],[-70.737261,-32.755944],[-70.737563,-32.755833],[-70.738034,-32.755695],[-70.738825,-32.755405],[-70.739536,-32.75501],[-70.740143,-32.754588],[-70.740538,-32.75414],[-70.740557,-32.754084],[-70.7419,-32.754978]]]},"properties":{"comuna":"Panquehue","mancha_id":"05704-88b2c4b603fffff","clase":"Alto","nivel_medio":2.774,"nivel_medio_min":2.765,"nivel_medio_max":2.782,"pct_alto":79.1,"n_hexagonos":2,"area_ha":34.03}},{"type":"Feature","geometry":{"type":"Polygon","coordinates":[[[-70.789149,-32.828798],[-70.794189,-32.827434],[-70.794818,-32.823141],[-70.799857,-32.821776],[-70.804269,-32.824705],[-70.80364,-32.828999],[-70.7986,-32.830363],[-70.7986,-32.830366],[-70.798205,-32.830355],[-70.797507,-32.830355],[-70.796766,-32.83044],[-70.796215,-32.830546],[-70.795665,-32.830673],[-70.79503,-32.83099],[-70.794691,-32.831265],[-70.794183,-32.831498],[-70.793442,-32.831731],[-70.79287,-32.831922],[-70.792553,-32.831922],[-70.792045,-32.831795],[-70.791219,-32.83171],[-70.790626,-32.831562],[-70.790161,-32.831541],[-70.789525,-32.831583],[-70.788742,-32.831625],[-70.788735,-32.831625],[-70.787768,-32.831646],[-70.787048,-32.831646],[-70.786138,-32.831435],[-70.785355,-32.831181],[-70.784487,-32.830927],[-70.783619,-32.830694],[-70.782941,-32.830397],[-70.781968,-32.830101],[-70.781396,-32.829974],[-70.78074,-32.829889],[-70.779469,-32.829678],[-70.779345,-32.82965],[-70.779699,-32.827233],[-70.784739,-32.825869],[-70.789149,-32.828798]]]},"properties":{"comuna":"Panquehue","mancha_id":"05704-88b2c4b5c1fffff","clase":"Alto","nivel_medio":2.687,"nivel_medio_min":2.629,"nivel_medio_max":2.828,"pct_alto":78.1,"n_hexagonos":3,"area_ha":130.39}},{"type":"Feature","geometry":{"type":"Polygon","coordinates":[[[-70.852792,-32.823929],[-70.857205,-32.826857],[-70.857011,-32.828185],[-70.856889,-32.828111],[-70.856339,-32.827709],[-70.855873,-32.827455],[-70.855238,-32.827222],[-70.854709,-32.827158],[-70.854116,-32.827179],[-70.853735,-32.827328],[-70.853333,-32.827476],[-70.852867,-32.827518],[-70.852211,-32.827561],[-70.851703,-32.827624],[-70.851258,-32.827645],[-70.85075,-32.827688],[-70.8502,-32.827815],[-70.849565,-32.82809],[-70.849268,-32.828259],[-70.848866,-32.828365],[-70.84821,-32.828386],[-70.847448,-32.828513],[-70.847273,-32.828555],[-70.84775,-32.825296],[-70.852792,-32.823929]]]},"properties":{"comuna":"Panquehue","mancha_id":"05704-88b2c4b523fffff","clase":"Alto","nivel_medio":2.613,"nivel_medio_min":2.613,"nivel_medio_max":2.613,"pct_alto":66.0,"n_hexagonos":1,"area_ha":27.55}},{"type":"Feature","geometry":{"type":"Polygon","coordinates":[[[-70.759672,-32.790367],[-70.760796,-32.791114],[-70.760495,-32.793167],[-70.760226,-32.792575],[-70.759883,-32.791811],[-70.759672,-32.790888],[-70.759672,-32.790367]]]},"properties":{"comuna":"Panquehue","mancha_id":"05704-88b2c4b455fffff","clase":"Alto","nivel_medio":2.83,"nivel_medio_min":2.83,"nivel_medio_max":2.83,"pct_alto":92.4,"n_hexagonos":1,"area_ha":1.68}},{"type":"Feature","geometry":{"type":"Polygon","coordinates":[[[-70.759876,-32.770759],[-70.759854,-32.770744],[-70.759382,-32.770429],[-70.759,-32.770211],[-70.758664,-32.769875],[-70.75813,-32.769144],[-70.757537,-32.768386],[-70.757042,-32.767694],[-70.756548,-32.767233],[-70.755988,-32.766837],[-70.755296,-32.766574],[-70.754741,-32.766389],[-70.755124,-32.763774],[-70.760161,-32.762409],[-70.76079,-32.758112],[-70.765828,-32.756747],[-70.766456,-32.752449],[-70.762048,-32.749518],[-70.762677,-32.74522],[-70.767714,-32.743854],[-70.772123,-32.746786],[-70.771494,-32.751084],[-70.775903,-32.754015],[-70.775274,-32.758312],[-70.779683,-32.761243],[-70.779054,-32.76554],[-70.783464,-32.768471],[-70.788502,-32.767105],[-70.792912,-32.770036],[-70.797951,-32.768669],[-70.802361,-32.7716],[-70.801732,-32.775896],[-70.796693,-32.777263],[-70.792283,-32.774332],[-70.787245,-32.775698],[-70.782835,-32.772768],[-70.777797,-32.774133],[-70.777168,-32.778429],[-70.77213,-32.779794],[-70.767721,-32.776864],[-70.764414,-32.777759],[-70.764444,-32.777706],[-70.764576,-32.777179],[-70.764721,-32.776823],[-70.765017,-32.7759],[-70.765347,-32.775043],[-70.765446,-32.77445],[-70.765587,-32.773968],[-70.765669,-32.773673],[-70.765679,-32.773449],[-70.765496,-32.773347],[-70.765281,-32.773329],[-70.764984,-32.773264],[-70.764655,-32.773099],[-70.764203,-32.77295],[-70.763666,-32.772637],[-70.763007,-32.77211],[-70.762579,-32.771879],[-70.762156,-32.77183],[-70.761557,-32.771682],[-70.761097,-32.771423],[-70.76047,-32.771121],[-70.759876,-32.770759]]]},"properties":{"comuna":"Panquehue","mancha_id":"05704-88b2c4b449fffff","clase":"Alto","nivel_medio":2.653,"nivel_medio_min":2.519,"nivel_medio_max":2.808,"pct_alto":76.0,"n_hexagonos":11,"area_ha":667.35}},{"type":"Feature","geometry":{"type":"Polygon","coordinates":[[[-70.758279,-32.80829],[-70.762689,-32.811221],[-70.767727,-32.809857],[-70.772137,-32.812787],[-70.771508,-32.81708],[-70.766469,-32.818444],[-70.76206,-32.815514],[-70.75738,-32.81678],[-70.757205,-32.816457],[-70.757205,-32.815737],[-70.756928,-32.815267],[-70.756568,-32.814907],[-70.756125,-32.814685],[-70.755461,-32.814298],[-70.755211,-32.813605],[-70.754824,-32.81283],[-70.754409,-32.811889],[-70.754076,-32.810975],[-70.753799,-32.809979],[-70.75366,-32.80954],[-70.753606,-32.80937],[-70.753246,-32.808788],[-70.753052,-32.808484],[-70.752637,-32.808124],[-70.753318,-32.807603],[-70.753687,-32.80726],[-70.754294,-32.806838],[-70.755085,-32.806232],[-70.755651,-32.805786],[-70.755958,-32.805371],[-70.756228,-32.805028],[-70.756614,-32.804624],[-70.757036,-32.804202],[-70.757721,-32.80378],[-70.758203,-32.803528],[-70.758909,-32.803997],[-70.758279,-32.80829]]]},"properties":{"comuna":"Panquehue","mancha_id":"05704-88b2c4b415fffff","clase":"Alto","nivel_medio":2.552,"nivel_medio_min":2.508,"nivel_medio_max":2.754,"pct_alto":66.1,"n_hexagonos":3,"area_ha":136.8}},{"type":"Feature","geometry":{"type":"Polygon","coordinates":[[[-70.932845,-32.80632],[-70.928429,-32.803394],[-70.928612,-32.80214],[-70.928853,-32.802156],[-70.92938,-32.802119],[-70.929852,-32.802083],[-70.930107,-32.802156],[-70.930525,-32.802112],[-70.930878,-32.802106],[-70.931395,-32.802131],[-70.931793,-32.802179],[-70.932344,-32.802344],[-70.932974,-32.802523],[-70.933561,-32.802502],[-70.934108,-32.802389],[-70.934811,-32.802216],[-70.93538,-32.802094],[-70.936031,-32.802042],[-70.936381,-32.802058],[-70.936727,-32.80224],[-70.937105,-32.802483],[-70.937512,-32.802821],[-70.937917,-32.803174],[-70.938129,-32.803302],[-70.937889,-32.804949],[-70.932845,-32.80632]]]},"properties":{"comuna":"Panquehue","mancha_id":"05704-88b2c4b1bbfffff","clase":"Alto","nivel_medio":2.615,"nivel_medio_min":2.615,"nivel_medio_max":2.615,"pct_alto":66.1,"n_hexagonos":1,"area_ha":29.57}},{"type":"Feature","geometry":{"type":"Polygon","coordinates":[[[-70.894383,-32.804392],[-70.89501,-32.800095],[-70.890595,-32.797168],[-70.885553,-32.798538],[-70.881139,-32.79561],[-70.876097,-32.796979],[-70.871683,-32.794051],[-70.872311,-32.789754],[-70.867897,-32.786826],[-70.862856,-32.788195],[-70.858443,-32.785267],[-70.853402,-32.786635],[-70.848989,-32.783707],[-70.849617,-32.77941],[-70.845204,-32.776481],[-70.840164,-32.777849],[-70.835752,-32.77492],[-70.83638,-32.770622],[-70.84142,-32.769254],[-70.842048,-32.764956],[-70.842165,-32.764924],[-70.842194,-32.764966],[-70.842981,-32.766015],[-70.843724,-32.766889],[-70.84438,-32.767633],[-70.845036,-32.768114],[-70.845998,-32.76842],[-70.846829,-32.768638],[-70.847616,-32.768988],[-70.848097,-32.7696],[-70.848415,-32.769783],[-70.848796,-32.769863],[-70.849496,-32.769819],[-70.849977,-32.769644],[-70.850336,-32.769496],[-70.850648,-32.769407],[-70.851061,-32.769396],[-70.851079,-32.769399],[-70.851652,-32.769485],[-70.852142,-32.769586],[-70.85261,-32.769764],[-70.852762,-32.769891],[-70.852933,-32.770132],[-70.853063,-32.770353],[-70.853204,-32.770604],[-70.853284,-32.770805],[-70.853385,-32.771036],[-70.853455,-32.771287],[-70.853515,-32.771548],[-70.853606,-32.771779],[-70.853666,-32.77198],[-70.853767,-32.772171],[-70.853917,-32.772342],[-70.854088,-32.772543],[-70.854339,-32.772754],[-70.85453,-32.772915],[-70.854701,-32.773096],[-70.854872,-32.773306],[-70.854982,-32.773497],[-70.855018,-32.773566],[-70.855083,-32.773688],[-70.855193,-32.773909],[-70.855249,-32.773992],[-70.855384,-32.774191],[-70.855605,-32.774401],[-70.855766,-32.774532],[-70.855936,-32.774693],[-70.856168,-32.774823],[-70.856459,-32.774984],[-70.856705,-32.775063],[-70.857057,-32.775114],[-70.857458,-32.775176],[-70.857823,-32.775252],[-70.858086,-32.775365],[-70.85825,-32.775453],[-70.85835,-32.775603],[-70.858413,-32.775892],[-70.8584,-32.776294],[-70.858451,-32.776633],[-70.858601,-32.776834],[-70.858953,-32.776897],[-70.859317,-32.776997],[-70.859556,-32.777072],[-70.859979,-32.777272],[-70.860293,-32.777449],[-70.86049,-32.777645],[-70.860666,-32.777861],[-70.860843,-32.778096],[-70.861037,-32.77832],[-70.861264,-32.778538],[-70.8615,-32.778643],[-70.861938,-32.778652],[-70.862375,-32.778565],[-70.862648,-32.778646],[-70.862824,-32.778862],[-70.863021,-32.779077],[-70.863217,-32.779431],[-70.863326,-32.779814],[-70.863335,-32.779843],[-70.86357,-32.780353],[-70.863806,-32.780647],[-70.864108,-32.780944],[-70.864433,-32.781098],[-70.864772,-32.781189],[-70.865131,-32.781224],[-70.865454,-32.781177],[-70.865768,-32.781118],[-70.866284,-32.781323],[-70.866801,-32.781727],[-70.86712,-32.782108],[-70.867321,-32.782351],[-70.867662,-32.782789],[-70.868139,-32.7833],[-70.868385,-32.783485],[-70.868398,-32.783495],[-70.869064,-32.783717],[-70.869843,-32.783954],[-70.870315,-32.784134],[-70.870899,-32.78438],[-70.871394,-32.784669],[-70.871933,-32.785165],[-70.872541,-32.78564],[-70.873235,-32.786081],[-70.87409,-32.786452],[-70.874707,-32.786759],[-70.874993,-32.786905],[-70.875206,-32.787112],[-70.875392,-32.787383],[-70.875544,-32.787763],[-70.875672,-32.788031],[-70.875903,-32.788353],[-70.876116,-32.788572],[-70.876294,-32.788673],[-70.876493,-32.788785],[-70.876797,-32.78887],[-70.877308,-32.788852],[-70.877594,-32.788785],[-70.877809,-32.788688],[-70.877971,-32.788615],[-70.878324,-32.788444],[-70.878501,-32.788396],[-70.878756,-32.788444],[-70.878994,-32.788536],[-70.879255,-32.788718],[-70.879359,-32.788919],[-70.879499,-32.789089],[-70.87973,-32.789296],[-70.879918,-32.789412],[-70.880156,-32.789533],[-70.880302,-32.789704],[-70.88049,-32.789984],[-70.880752,-32.790233],[-70.881117,-32.790476],[-70.881458,-32.790653],[-70.881701,-32.790762],[-70.882042,-32.790787],[-70.882778,-32.79072],[-70.883307,-32.790726],[-70.883828,-32.790753],[-70.884007,-32.790762],[-70.884792,-32.790574],[-70.885245,-32.790589],[-70.886124,-32.790835],[-70.886894,-32.790918],[-70.887447,-32.791213],[-70.887873,-32.791465],[-70.888537,-32.791562],[-70.888883,-32.791614],[-70.889218,-32.791715],[-70.889748,-32.791893],[-70.890012,-32.791982],[-70.8916,-32.792633],[-70.891728,-32.792734],[-70.891868,-32.792843],[-70.892129,-32.793312],[-70.89244,-32.793661],[-70.892856,-32.793862],[-70.893221,-32.794063],[-70.893565,-32.794282],[-70.893915,-32.794468],[-70.894385,-32.794547],[-70.894713,-32.794492],[-70.895039,-32.794431],[-70.895733,-32.794425],[-70.896411,-32.794443],[-70.897147,-32.794465],[-70.897631,-32.794565],[-70.898184,-32.794705],[-70.898562,-32.794808],[-70.899161,-32.794747],[-70.899593,-32.794595],[-70.899788,-32.794422],[-70.899861,-32.793957],[-70.899746,-32.793809],[-70.899562,-32.793573],[-70.89928,-32.793351],[-70.899118,-32.793184],[-70.899033,-32.792965],[-70.899097,-32.792755],[-70.89935,-32.792676],[-70.899821,-32.792767],[-70.900338,-32.792907],[-70.900798,-32.793014],[-70.901214,-32.793108],[-70.90171,-32.793001],[-70.902179,-32.792971],[-70.902641,-32.792934],[-70.902994,-32.792855],[-70.903396,-32.79288],[-70.90387,-32.792934],[-70.904278,-32.792947],[-70.904764,-32.792874],[-70.905391,-32.792776],[-70.905759,-32.792808],[-70.905957,-32.792825],[-70.906523,-32.793044],[-70.907411,-32.79375],[-70.908074,-32.794303],[-70.908403,-32.794699],[-70.908816,-32.795064],[-70.909206,-32.795271],[-70.90972,-32.795459],[-70.910347,-32.795559],[-70.911269,-32.795657],[-70.91132,-32.795664],[-70.910138,-32.795985],[-70.905722,-32.793058],[-70.90068,-32.794428],[-70.900052,-32.798726],[-70.904468,-32.801653],[-70.90384,-32.805949],[-70.898798,-32.807319],[-70.894383,-32.804392]]]},"properties":{"comuna":"Panquehue","mancha_id":"05704-88b2c4a241fffff","clase":"Alto","nivel_medio":2.754,"nivel_medio_min":2.526,"nivel_medio_max":3.114,"pct_alto":75.5,"n_hexagonos":16,"area_ha":597.5}},{"type":"Feature","geometry":{"type":"Polygon","coordinates":[[[-70.915206,-32.827617],[-70.919623,-32.830543],[-70.919576,-32.830861],[-70.919533,-32.830884],[-70.918982,-32.831223],[-70.918368,-32.831562],[-70.917881,-32.831879],[-70.917267,-32.832197],[-70.916505,-32.832493],[-70.915997,-32.832684],[-70.915193,-32.833065],[-70.914748,-32.83334],[-70.914388,-32.833615],[-70.913965,-32.8337],[-70.913563,-32.833742],[-70.912779,-32.833594],[-70.912377,-32.833404],[-70.911827,-32.833319],[-70.911636,-32.833319],[-70.911276,-32.83334],[-70.910937,-32.833298],[-70.910535,-32.833277],[-70.910048,-32.833319],[-70.909667,-32.833319],[-70.909548,-32.83329],[-70.909535,-32.833282],[-70.910163,-32.828986],[-70.915206,-32.827617]]]},"properties":{"comuna":"Panquehue","mancha_id":"05704-88b2c4a22bfffff","clase":"Alto","nivel_medio":2.716,"nivel_medio_min":2.716,"nivel_medio_max":2.716,"pct_alto":80.9,"n_hexagonos":1,"area_ha":41.91}}],"bbox":[-70.94819,-32.83457,-70.73707,-32.73168]}