{"type":"FeatureCollection","features":[{"type":"Feature","geometry":{"type":"Polygon","coordinates":[[[-70.990837,-32.77402],[-70.991464,-32.76972],[-70.996508,-32.768344],[-71.000927,-32.77127],[-71.000301,-32.775571],[-70.995256,-32.776946],[-70.990837,-32.77402]]]},"properties":{"comuna":"Catemu","mancha_id":"05702-88b2c4bacbfffff","clase":"Muy Bajo","nivel_medio":0.384,"nivel_medio_min":0.384,"nivel_medio_max":0.384,"pct_alto":2.1,"n_hexagonos":1,"area_ha":64.95}},{"type":"Feature","geometry":{"type":"Polygon","coordinates":[[[-70.996547,-32.815509],[-70.999086,-32.817189],[-70.998818,-32.819029],[-70.998718,-32.818916],[-70.99795,-32.818404],[-70.997211,-32.817552],[-70.996813,-32.816528],[-70.996501,-32.815676],[-70.996547,-32.815509]]]},"properties":{"comuna":"Catemu","mancha_id":"05702-88b2c4a36dfffff","clase":"Muy Bajo","nivel_medio":0.428,"nivel_medio_min":0.428,"nivel_medio_max":0.428,"pct_alto":10.4,"n_hexagonos":1,"area_ha":4.1}},{"type":"Feature","geometry":{"type":"Polygon","coordinates":[[[-71.031077,-32.630617],[-71.031474,-32.630607],[-71.031035,-32.630727],[-71.03079,-32.630564],[-71.031077,-32.630617]]]},"properties":{"comuna":"Catemu","mancha_id":"05702-88b2c48639fffff","clase":"Muy Bajo","nivel_medio":0.211,"nivel_medio_min":0.211,"nivel_medio_max":0.211,"pct_alto":1.5,"n_hexagonos":1,"area_ha":0.04}},{"type":"Feature","geometry":{"type":"Polygon","coordinates":[[[-71.027243,-32.623488],[-71.022826,-32.620559],[-71.023448,-32.616266],[-71.023824,-32.61648],[-71.024256,-32.617007],[-71.0245,-32.61771],[-71.0245,-32.618939],[-71.024707,-32.619891],[-71.024869,-32.620353],[-71.025387,-32.620731],[-71.025975,-32.620906],[-71.026774,-32.621398],[-71.027696,-32.621828],[-71.028373,-32.622442],[-71.028452,-32.623156],[-71.028495,-32.623549],[-71.028434,-32.625208],[-71.028926,-32.627421],[-71.02954,-32.629388],[-71.029755,-32.629878],[-71.026618,-32.627798],[-71.027243,-32.623488]]]},"properties":{"comuna":"Catemu","mancha_id":"05702-88b2c48603fffff","clase":"Muy Bajo","nivel_medio":0.31,"nivel_medio_min":0.211,"nivel_medio_max":0.389,"pct_alto":2.7,"n_hexagonos":2,"area_ha":23.51}},{"type":"Feature","geometry":{"type":"Polygon","coordinates":[[[-70.823091,-32.629645],[-70.822463,-32.633951],[-70.826872,-32.636885],[-70.826244,-32.64119],[-70.821812,-32.642398],[-70.821888,-32.642208],[-70.822052,-32.641554],[-70.822052,-32.640942],[-70.821868,-32.640309],[-70.821745,-32.639839],[-70.821745,-32.639532],[-70.821766,-32.639124],[-70.821766,-32.638695],[-70.821725,-32.638225],[-70.821623,-32.637796],[-70.821459,-32.637347],[-70.821296,-32.636877],[-70.821173,-32.636571],[-70.820969,-32.636101],[-70.820765,-32.635733],[-70.82056,-32.635427],[-70.820336,-32.635182],[-70.820295,-32.634957],[-70.820254,-32.634712],[-70.8203,-32.634541],[-70.820336,-32.634405],[-70.820479,-32.634099],[-70.82056,-32.633833],[-70.82056,-32.633547],[-70.820438,-32.633302],[-70.820377,-32.632955],[-70.820295,-32.632751],[-70.820213,-32.632526],[-70.82007,-32.632261],[-70.819866,-32.631934],[-70.819723,-32.631648],[-70.819682,-32.631301],[-70.819682,-32.631035],[-70.819682,-32.630729],[-70.819805,-32.630198],[-70.819897,-32.629668],[-70.82093,-32.629757],[-70.822589,-32.629511],[-70.822797,-32.629449],[-70.824249,-32.629019],[-70.825909,-32.628589],[-70.827445,-32.627974],[-70.828233,-32.627544],[-70.828127,-32.628272],[-70.823091,-32.629645]]]},"properties":{"comuna":"Catemu","mancha_id":"05702-88b2e34f21fffff","clase":"Bajo","nivel_medio":1.15,"nivel_medio_min":0.534,"nivel_medio_max":1.383,"pct_alto":31.8,"n_hexagonos":3,"area_ha":50.75}},{"type":"Feature","geometry":{"type":"Polygon","coordinates":[[[-70.87915,-32.643303],[-70.879778,-32.638997],[-70.884816,-32.637621],[-70.889228,-32.640553],[-70.888601,-32.64486],[-70.883562,-32.646235],[-70.87915,-32.643303]]]},"properties":{"comuna":"Catemu","mancha_id":"05702-88b2e348a1fffff","clase":"Bajo","nivel_medio":1.272,"nivel_medio_min":1.272,"nivel_medio_max":1.272,"pct_alto":10.2,"n_hexagonos":1,"area_ha":65.05}},{"type":"Feature","geometry":{"type":"Polygon","coordinates":[[[-70.90111,-32.615376],[-70.898029,-32.613328],[-70.898351,-32.611115],[-70.898744,-32.61144],[-70.899789,-32.612792],[-70.900526,-32.614206],[-70.900895,-32.615128],[-70.90111,-32.615376]]]},"properties":{"comuna":"Catemu","mancha_id":"05702-88b2e34831fffff","clase":"Bajo","nivel_medio":1.485,"nivel_medio_min":1.485,"nivel_medio_max":1.485,"pct_alto":4.7,"n_hexagonos":1,"area_ha":4.74}},{"type":"Feature","geometry":{"type":"Polygon","coordinates":[[[-71.047588,-32.750272],[-71.048214,-32.745969],[-71.049904,-32.745507],[-71.049916,-32.745725],[-71.0498,-32.746188],[-71.049777,-32.746721],[-71.049707,-32.747138],[-71.049568,-32.747485],[-71.049383,-32.747972],[-71.049128,-32.74825],[-71.04885,-32.748736],[-71.048711,-32.749292],[-71.048711,-32.749756],[-71.048723,-32.75],[-71.048734,-32.750219],[-71.048711,-32.750752],[-71.048655,-32.750978],[-71.047588,-32.750272]]]},"properties":{"comuna":"Catemu","mancha_id":"05702-88b2c4ba0dfffff","clase":"Bajo","nivel_medio":1.353,"nivel_medio_min":1.353,"nivel_medio_max":1.353,"pct_alto":30.3,"n_hexagonos":1,"area_ha":6.82}},{"type":"Feature","geometry":{"type":"Polygon","coordinates":[[[-70.969934,-32.68468],[-70.97056,-32.680374],[-70.975602,-32.678996],[-70.980019,-32.681924],[-70.979393,-32.686231],[-70.97435,-32.687608],[-70.969934,-32.68468]]]},"properties":{"comuna":"Catemu","mancha_id":"05702-88b2c4b361fffff","clase":"Bajo","nivel_medio":1.24,"nivel_medio_min":1.24,"nivel_medio_max":1.24,"pct_alto":13.3,"n_hexagonos":1,"area_ha":65.06}},{"type":"Feature","geometry":{"type":"Polygon","coordinates":[[[-70.954839,-32.721869],[-70.955465,-32.717566],[-70.960508,-32.71619],[-70.964924,-32.719118],[-70.964298,-32.723421],[-70.959255,-32.724797],[-70.954839,-32.721869]]]},"properties":{"comuna":"Catemu","mancha_id":"05702-88b2c4b337fffff","clase":"Bajo","nivel_medio":0.85,"nivel_medio_min":0.85,"nivel_medio_max":0.85,"pct_alto":13.6,"n_hexagonos":1,"area_ha":65.0}},{"type":"Feature","geometry":{"type":"Polygon","coordinates":[[[-70.91889,-32.702745],[-70.919517,-32.698441],[-70.924558,-32.697066],[-70.928973,-32.699995],[-70.928346,-32.704299],[-70.923305,-32.705674],[-70.91889,-32.702745]]]},"properties":{"comuna":"Catemu","mancha_id":"05702-88b2c4b31bfffff","clase":"Bajo","nivel_medio":1.463,"nivel_medio_min":1.463,"nivel_medio_max":1.463,"pct_alto":1.9,"n_hexagonos":1,"area_ha":65.0}},{"type":"Feature","geometry":{"type":"Polygon","coordinates":[[[-70.937802,-32.705853],[-70.938429,-32.701549],[-70.934014,-32.69862],[-70.934641,-32.694315],[-70.939682,-32.69294],[-70.944097,-32.695869],[-70.943471,-32.700173],[-70.947886,-32.703102],[-70.94726,-32.707406],[-70.942218,-32.708781],[-70.937802,-32.705853]]]},"properties":{"comuna":"Catemu","mancha_id":"05702-88b2c4b315fffff","clase":"Bajo","nivel_medio":1.234,"nivel_medio_min":1.055,"nivel_medio_max":1.414,"pct_alto":12.7,"n_hexagonos":2,"area_ha":130.02}},{"type":"Feature","geometry":{"type":"Polygon","coordinates":[[[-70.949766,-32.690188],[-70.94535,-32.687259],[-70.940309,-32.688635],[-70.935894,-32.685706],[-70.936521,-32.6814],[-70.932106,-32.678471],[-70.932733,-32.674165],[-70.937774,-32.672789],[-70.942188,-32.675718],[-70.941562,-32.680024],[-70.945977,-32.682953],[-70.951018,-32.681577],[-70.951645,-32.677271],[-70.956687,-32.675894],[-70.961102,-32.678823],[-70.960476,-32.683129],[-70.964892,-32.686057],[-70.964265,-32.690363],[-70.959223,-32.69174],[-70.954808,-32.688811],[-70.949766,-32.690188]]]},"properties":{"comuna":"Catemu","mancha_id":"05702-88b2c4b309fffff","clase":"Bajo","nivel_medio":1.088,"nivel_medio_min":0.949,"nivel_medio_max":1.142,"pct_alto":1.9,"n_hexagonos":5,"area_ha":325.2}},{"type":"Feature","geometry":{"type":"Polygon","coordinates":[[[-70.928401,-32.770378],[-70.929028,-32.766079],[-70.934071,-32.764706],[-70.938487,-32.767633],[-70.93786,-32.771933],[-70.932817,-32.773305],[-70.928401,-32.770378]]]},"properties":{"comuna":"Catemu","mancha_id":"05702-88b2c4b1c3fffff","clase":"Bajo","nivel_medio":1.165,"nivel_medio_min":1.165,"nivel_medio_max":1.165,"pct_alto":2.1,"n_hexagonos":1,"area_ha":64.91}},{"type":"Feature","geometry":{"type":"Polygon","coordinates":[[[-70.94729,-32.740454],[-70.947916,-32.736152],[-70.952959,-32.734777],[-70.957376,-32.737705],[-70.956749,-32.742007],[-70.951706,-32.743382],[-70.94729,-32.740454]]]},"properties":{"comuna":"Catemu","mancha_id":"05702-88b2c4b153fffff","clase":"Bajo","nivel_medio":1.338,"nivel_medio_min":1.338,"nivel_medio_max":1.338,"pct_alto":6.5,"n_hexagonos":1,"area_ha":64.96}},{"type":"Feature","geometry":{"type":"Polygon","coordinates":[[[-70.987045,-32.766794],[-70.987671,-32.762493],[-70.992716,-32.761117],[-70.997134,-32.764043],[-71.002179,-32.762667],[-71.006598,-32.765593],[-71.011643,-32.764217],[-71.016063,-32.767142],[-71.015437,-32.771443],[-71.010392,-32.772819],[-71.009766,-32.77712],[-71.00472,-32.778496],[-71.004094,-32.782796],[-70.999049,-32.784171],[-70.99463,-32.781246],[-70.989585,-32.782621],[-70.985167,-32.779696],[-70.980122,-32.78107],[-70.975704,-32.778144],[-70.970659,-32.779518],[-70.970033,-32.783818],[-70.964989,-32.785192],[-70.960571,-32.782266],[-70.961198,-32.777966],[-70.966242,-32.776592],[-70.966868,-32.772292],[-70.971912,-32.770918],[-70.97633,-32.773844],[-70.981374,-32.77247],[-70.982001,-32.768169],[-70.987045,-32.766794]],[[-70.996508,-32.768344],[-70.991464,-32.76972],[-70.990837,-32.77402],[-70.995256,-32.776946],[-71.000301,-32.775571],[-71.000927,-32.77127],[-70.996508,-32.768344]]]},"properties":{"comuna":"Catemu","mancha_id":"05702-88b2c4b135fffff","clase":"Bajo","nivel_medio":1.264,"nivel_medio_min":0.963,"nivel_medio_max":1.452,"pct_alto":18.7,"n_hexagonos":10,"area_ha":649.43}},{"type":"Feature","geometry":{"type":"Polygon","coordinates":[[[-70.95866,-32.762139],[-70.959286,-32.757838],[-70.96433,-32.756464],[-70.968747,-32.75939],[-70.968121,-32.763691],[-70.963077,-32.765066],[-70.95866,-32.762139]]]},"properties":{"comuna":"Catemu","mancha_id":"05702-88b2c4b117fffff","clase":"Bajo","nivel_medio":1.498,"nivel_medio_min":1.498,"nivel_medio_max":1.498,"pct_alto":10.6,"n_hexagonos":1,"area_ha":64.94}},{"type":"Feature","geometry":{"type":"Polygon","coordinates":[[[-70.97,-32.750788],[-70.970626,-32.746486],[-70.97567,-32.745111],[-70.980088,-32.748037],[-70.979461,-32.752339],[-70.974417,-32.753714],[-70.97,-32.750788]]]},"properties":{"comuna":"Catemu","mancha_id":"05702-88b2c4b103fffff","clase":"Bajo","nivel_medio":1.419,"nivel_medio_min":1.419,"nivel_medio_max":1.419,"pct_alto":40.3,"n_hexagonos":1,"area_ha":64.97}},{"type":"Feature","geometry":{"type":"Polygon","coordinates":[[[-70.898147,-32.778607],[-70.898774,-32.774309],[-70.903816,-32.772938],[-70.908231,-32.775865],[-70.907604,-32.780164],[-70.902562,-32.781535],[-70.898147,-32.778607]]]},"properties":{"comuna":"Catemu","mancha_id":"05702-88b2c4b0adfffff","clase":"Bajo","nivel_medio":1.499,"nivel_medio_min":1.499,"nivel_medio_max":1.499,"pct_alto":13.8,"n_hexagonos":1,"area_ha":64.88}},{"type":"Feature","geometry":{"type":"Polygon","coordinates":[[[-70.930254,-32.72444],[-70.930881,-32.720138],[-70.935923,-32.718763],[-70.936549,-32.71446],[-70.941591,-32.713085],[-70.946007,-32.716013],[-70.94538,-32.720316],[-70.940338,-32.721691],[-70.939711,-32.725994],[-70.934669,-32.727369],[-70.930254,-32.72444]]]},"properties":{"comuna":"Catemu","mancha_id":"05702-88b2c4b061fffff","clase":"Bajo","nivel_medio":1.343,"nivel_medio_min":1.3,"nivel_medio_max":1.386,"pct_alto":8.9,"n_hexagonos":2,"area_ha":129.96}},{"type":"Feature","geometry":{"type":"Polygon","coordinates":[[[-70.955558,-32.816651],[-70.960603,-32.815279],[-70.961909,-32.816145],[-70.96169,-32.816228],[-70.960636,-32.816899],[-70.960013,-32.817474],[-70.959247,-32.81824],[-70.95872,-32.818863],[-70.958289,-32.819677],[-70.957906,-32.820348],[-70.957475,-32.821114],[-70.956948,-32.821929],[-70.956851,-32.822219],[-70.954932,-32.820948],[-70.949887,-32.82232],[-70.946012,-32.819754],[-70.945882,-32.819246],[-70.94562,-32.818365],[-70.946096,-32.815098],[-70.945154,-32.814474],[-70.945068,-32.813737],[-70.94502,-32.812779],[-70.944924,-32.811821],[-70.944732,-32.810815],[-70.944541,-32.809809],[-70.944493,-32.808564],[-70.944876,-32.807462],[-70.945374,-32.807041],[-70.94735,-32.806503],[-70.947494,-32.805518],[-70.947798,-32.805354],[-70.948133,-32.805019],[-70.948181,-32.804636],[-70.948181,-32.803965],[-70.948181,-32.80339],[-70.947894,-32.803007],[-70.94786,-32.803007],[-70.947977,-32.802205],[-70.953021,-32.800833],[-70.957438,-32.803759],[-70.956812,-32.808057],[-70.951767,-32.809429],[-70.951141,-32.813726],[-70.955558,-32.816651]]]},"properties":{"comuna":"Catemu","mancha_id":"05702-88b2c4a343fffff","clase":"Bajo","nivel_medio":1.187,"nivel_medio_min":1.058,"nivel_medio_max":1.38,"pct_alto":15.6,"n_hexagonos":4,"area_ha":199.34}},{"type":"Feature","geometry":{"type":"Polygon","coordinates":[[[-71.019838,-32.613401],[-71.019838,-32.613852],[-71.019045,-32.613326],[-71.019166,-32.613132],[-71.019435,-32.61293],[-71.019771,-32.613087],[-71.019838,-32.613401]]]},"properties":{"comuna":"Catemu","mancha_id":"05702-88b2c4860bfffff","clase":"Bajo","nivel_medio":1.247,"nivel_medio_min":1.247,"nivel_medio_max":1.247,"pct_alto":0.1,"n_hexagonos":1,"area_ha":0.43}},{"type":"Feature","geometry":{"type":"Polygon","coordinates":[[[-71.038705,-32.711365],[-71.04375,-32.709986],[-71.044376,-32.70568],[-71.045253,-32.70544],[-71.045268,-32.7055],[-71.045315,-32.705783],[-71.04533,-32.705987],[-71.045323,-32.706097],[-71.045291,-32.706231],[-71.045244,-32.706388],[-71.045173,-32.706639],[-71.045095,-32.706867],[-71.04504,-32.707141],[-71.044961,-32.707424],[-71.044833,-32.707975],[-71.044701,-32.708439],[-71.044667,-32.709007],[-71.044751,-32.709625],[-71.044784,-32.710361],[-71.04486,-32.71072],[-71.044985,-32.711313],[-71.045269,-32.712266],[-71.045453,-32.712934],[-71.045603,-32.713419],[-71.045888,-32.714021],[-71.046055,-32.714572],[-71.046389,-32.715124],[-71.046723,-32.715659],[-71.04694,-32.716043],[-71.047158,-32.716611],[-71.047308,-32.717079],[-71.047316,-32.71728],[-71.047325,-32.717497],[-71.047358,-32.717965],[-71.047342,-32.71845],[-71.047308,-32.719001],[-71.047241,-32.719402],[-71.047124,-32.71967],[-71.046773,-32.720271],[-71.046472,-32.720957],[-71.046138,-32.721658],[-71.045904,-32.722327],[-71.045553,-32.722962],[-71.045119,-32.72353],[-71.044885,-32.723781],[-71.044601,-32.724199],[-71.044366,-32.724551],[-71.044333,-32.7246],[-71.044099,-32.725252],[-71.043949,-32.725753],[-71.043882,-32.726121],[-71.043865,-32.726338],[-71.043698,-32.726739],[-71.043631,-32.727274],[-71.043564,-32.727692],[-71.043665,-32.728126],[-71.043849,-32.728678],[-71.043899,-32.729162],[-71.044016,-32.729597],[-71.044176,-32.730023],[-71.044251,-32.730259],[-71.044304,-32.730505],[-71.044316,-32.730558],[-71.044422,-32.730911],[-71.044497,-32.73121],[-71.044579,-32.731444],[-71.04462,-32.731636],[-71.044716,-32.731807],[-71.044771,-32.732026],[-71.044842,-32.732265],[-71.044889,-32.732821],[-71.045028,-32.733377],[-71.045028,-32.733864],[-71.04519,-32.734489],[-71.045653,-32.734953],[-71.046093,-32.735254],[-71.04651,-32.735462],[-71.046858,-32.735601],[-71.047321,-32.735786],[-71.047877,-32.736018],[-71.048456,-32.736203],[-71.048966,-32.736458],[-71.049453,-32.736551],[-71.049582,-32.736551],[-71.049985,-32.736551],[-71.050657,-32.736528],[-71.051097,-32.736505],[-71.051445,-32.736528],[-71.051862,-32.736644],[-71.052232,-32.736806],[-71.05258,-32.737061],[-71.052904,-32.737478],[-71.053182,-32.737779],[-71.053414,-32.738149],[-71.053437,-32.738613],[-71.05353,-32.738914],[-71.053622,-32.739447],[-71.053715,-32.740049],[-71.053681,-32.740151],[-71.049464,-32.737361],[-71.044418,-32.73874],[-71.039998,-32.735815],[-71.040624,-32.731511],[-71.036204,-32.728585],[-71.036829,-32.724281],[-71.041874,-32.722902],[-71.0425,-32.718597],[-71.03808,-32.715671],[-71.038705,-32.711365]]]},"properties":{"comuna":"Catemu","mancha_id":"05702-88b2c484a1fffff","clase":"Bajo","nivel_medio":1.022,"nivel_medio_min":0.714,"nivel_medio_max":1.245,"pct_alto":8.9,"n_hexagonos":6,"area_ha":189.07}},{"type":"Feature","geometry":{"type":"Polygon","coordinates":[[[-71.053527,-32.643172],[-71.053411,-32.643413],[-71.0534,-32.643437],[-71.053272,-32.643673],[-71.053144,-32.643898],[-71.053027,-32.644124],[-71.052948,-32.644379],[-71.05286,-32.644644],[-71.052693,-32.645223],[-71.052631,-32.645503],[-71.052575,-32.645753],[-71.052546,-32.646028],[-71.052595,-32.646352],[-71.052605,-32.64648],[-71.052565,-32.646696],[-71.052536,-32.646892],[-71.052467,-32.647118],[-71.052428,-32.647353],[-71.052349,-32.647677],[-71.052202,-32.648109],[-71.052055,-32.648708],[-71.051967,-32.649061],[-71.051859,-32.649297],[-71.051603,-32.649699],[-71.051348,-32.650043],[-71.051132,-32.650298],[-71.050877,-32.650475],[-71.050749,-32.650602],[-71.050642,-32.65072],[-71.050534,-32.650887],[-71.050337,-32.651142],[-71.0502,-32.651358],[-71.050072,-32.651594],[-71.049935,-32.65176],[-71.049581,-32.652074],[-71.049405,-32.6523],[-71.049375,-32.652328],[-71.047459,-32.651059],[-71.048084,-32.646749],[-71.043665,-32.643821],[-71.04429,-32.639511],[-71.039872,-32.636583],[-71.034828,-32.637966],[-71.03041,-32.635037],[-71.031035,-32.630727],[-71.031474,-32.630607],[-71.032181,-32.630588],[-71.032907,-32.6306],[-71.033389,-32.630638],[-71.034004,-32.630648],[-71.034722,-32.630723],[-71.035081,-32.630818],[-71.035412,-32.630922],[-71.035733,-32.630903],[-71.035998,-32.630865],[-71.036363,-32.630556],[-71.036564,-32.629948],[-71.036644,-32.629719],[-71.036852,-32.629116],[-71.037469,-32.628282],[-71.038164,-32.627612],[-71.038637,-32.626991],[-71.039129,-32.626253],[-71.039866,-32.625516],[-71.040727,-32.624901],[-71.041204,-32.624764],[-71.041636,-32.624764],[-71.041972,-32.624972],[-71.042212,-32.625292],[-71.042509,-32.625884],[-71.042509,-32.627052],[-71.042755,-32.628466],[-71.043188,-32.629772],[-71.043746,-32.631382],[-71.0438,-32.631539],[-71.044007,-32.632487],[-71.044403,-32.633292],[-71.0447,-32.633626],[-71.044985,-32.633948],[-71.045146,-32.634184],[-71.045505,-32.634431],[-71.04579,-32.634556],[-71.04596,-32.63463],[-71.046097,-32.634701],[-71.046254,-32.63475],[-71.046549,-32.63478],[-71.046892,-32.63479],[-71.047245,-32.634799],[-71.047775,-32.634721],[-71.048188,-32.634721],[-71.048659,-32.634672],[-71.049189,-32.634662],[-71.04968,-32.634652],[-71.049839,-32.634645],[-71.050121,-32.634633],[-71.050602,-32.634613],[-71.050907,-32.634633],[-71.051181,-32.634672],[-71.051476,-32.634741],[-71.051878,-32.634858],[-71.052163,-32.635015],[-71.052467,-32.63528],[-71.052634,-32.635477],[-71.052801,-32.635653],[-71.052958,-32.63583],[-71.053115,-32.636036],[-71.053272,-32.636193],[-71.053478,-32.636448],[-71.053625,-32.636664],[-71.05393,-32.637057],[-71.054283,-32.637459],[-71.054597,-32.637832],[-71.054813,-32.638137],[-71.055049,-32.638519],[-71.055215,-32.638794],[-71.055363,-32.639049],[-71.055382,-32.639128],[-71.055382,-32.639364],[-71.055314,-32.63957],[-71.055225,-32.639835],[-71.055147,-32.6401],[-71.055049,-32.640345],[-71.054931,-32.640649],[-71.054884,-32.640746],[-71.054784,-32.640954],[-71.054597,-32.641209],[-71.054371,-32.641523],[-71.054155,-32.641886],[-71.053979,-32.642181],[-71.053802,-32.642475],[-71.053665,-32.642838],[-71.053527,-32.643172]]]},"properties":{"comuna":"Catemu","mancha_id":"05702-88b2c48441fffff","clase":"Bajo","nivel_medio":1.08,"nivel_medio_min":0.581,"nivel_medio_max":1.325,"pct_alto":7.3,"n_hexagonos":7,"area_ha":257.52}},{"type":"Feature","geometry":{"type":"Polygon","coordinates":[[[-71.035261,-32.675818],[-71.035291,-32.676059],[-71.03531,-32.67621],[-71.035359,-32.676583],[-71.035359,-32.676799],[-71.035369,-32.677094],[-71.03533,-32.677388],[-71.03529,-32.677702],[-71.035192,-32.677958],[-71.035055,-32.678115],[-71.034829,-32.67833],[-71.034643,-32.678478],[-71.034603,-32.678596],[-71.034692,-32.678703],[-71.03478,-32.678821],[-71.034957,-32.678998],[-71.035163,-32.679145],[-71.035496,-32.6794],[-71.035683,-32.679577],[-71.035909,-32.679783],[-71.036115,-32.680019],[-71.036233,-32.680244],[-71.03635,-32.680519],[-71.036488,-32.680873],[-71.036606,-32.681187],[-71.036664,-32.681383],[-71.036684,-32.681619],[-71.036743,-32.681835],[-71.036782,-32.68209],[-71.036782,-32.682345],[-71.036802,-32.68259],[-71.036878,-32.682917],[-71.0369,-32.683012],[-71.036988,-32.683209],[-71.037087,-32.683307],[-71.037244,-32.683454],[-71.037479,-32.68365],[-71.037783,-32.683837],[-71.038215,-32.68423],[-71.038578,-32.684544],[-71.038765,-32.68472],[-71.039079,-32.684868],[-71.039472,-32.685103],[-71.039776,-32.68526],[-71.040002,-32.685456],[-71.04008,-32.685604],[-71.040169,-32.685878],[-71.040237,-32.686153],[-71.040326,-32.686477],[-71.040316,-32.686664],[-71.040277,-32.686919],[-71.040257,-32.687135],[-71.040443,-32.687449],[-71.040581,-32.687685],[-71.040757,-32.68793],[-71.040924,-32.688087],[-71.041219,-32.688303],[-71.041513,-32.68847],[-71.041798,-32.688666],[-71.041988,-32.688761],[-71.042151,-32.688843],[-71.042613,-32.68897],[-71.042956,-32.689176],[-71.043211,-32.689235],[-71.043388,-32.689353],[-71.043653,-32.689441],[-71.043898,-32.68954],[-71.044184,-32.689592],[-71.044365,-32.689757],[-71.044639,-32.689976],[-71.044796,-32.690094],[-71.044946,-32.69022],[-71.045063,-32.690338],[-71.045111,-32.690479],[-71.045111,-32.69062],[-71.045063,-32.690848],[-71.045008,-32.691139],[-71.044961,-32.691319],[-71.04493,-32.691429],[-71.044836,-32.691625],[-71.044762,-32.691774],[-71.044734,-32.69183],[-71.044624,-32.692049],[-71.044506,-32.692254],[-71.044317,-32.69256],[-71.044137,-32.692811],[-71.043925,-32.693039],[-71.043532,-32.693392],[-71.043163,-32.693714],[-71.042943,-32.693973],[-71.042826,-32.694209],[-71.042755,-32.694366],[-71.042614,-32.694586],[-71.042496,-32.694774],[-71.042362,-32.694931],[-71.042205,-32.695167],[-71.042048,-32.695442],[-71.041797,-32.695858],[-71.041679,-32.696085],[-71.041616,-32.696219],[-71.04153,-32.696447],[-71.041499,-32.696627],[-71.041389,-32.696918],[-71.041279,-32.697193],[-71.041184,-32.697467],[-71.041082,-32.697766],[-71.041004,-32.69808],[-71.040911,-32.698357],[-71.040581,-32.698447],[-71.036162,-32.695521],[-71.036787,-32.691214],[-71.032368,-32.688287],[-71.032994,-32.68398],[-71.028575,-32.681053],[-71.0292,-32.676746],[-71.024782,-32.673819],[-71.025407,-32.669511],[-71.030451,-32.66813],[-71.034551,-32.670846],[-71.034535,-32.670861],[-71.034328,-32.670959],[-71.034093,-32.671097],[-71.033985,-32.671214],[-71.033877,-32.671332],[-71.033779,-32.671558],[-71.03373,-32.671813],[-71.0337,-32.672],[-71.03371,-32.672235],[-71.03371,-32.672461],[-71.033769,-32.672765],[-71.033847,-32.67303],[-71.033965,-32.673305],[-71.034083,-32.673442],[-71.03425,-32.673619],[-71.034482,-32.673726],[-71.034505,-32.673737],[-71.034692,-32.673865],[-71.034829,-32.674061],[-71.034927,-32.674326],[-71.034986,-32.674522],[-71.035084,-32.674689],[-71.035114,-32.674915],[-71.035163,-32.675199],[-71.035212,-32.675553],[-71.035261,-32.675818]]]},"properties":{"comuna":"Catemu","mancha_id":"05702-88b2c48411fffff","clase":"Bajo","nivel_medio":0.984,"nivel_medio_min":0.53,"nivel_medio_max":1.221,"pct_alto":18.4,"n_hexagonos":6,"area_ha":218.58}},{"type":"Feature","geometry":{"type":"Polygon","coordinates":[[[-70.834435,-32.651362],[-70.830025,-32.648429],[-70.827001,-32.649253],[-70.826936,-32.648819],[-70.826819,-32.648515],[-70.826541,-32.648177],[-70.826146,-32.647684],[-70.825456,-32.646944],[-70.824567,-32.646302],[-70.823581,-32.64576],[-70.82101,-32.64506],[-70.821112,-32.644639],[-70.821337,-32.643985],[-70.821541,-32.643189],[-70.821684,-32.642719],[-70.821812,-32.642398],[-70.826244,-32.64119],[-70.830653,-32.644123],[-70.83569,-32.642751],[-70.8401,-32.645683],[-70.839472,-32.649989],[-70.834435,-32.651362]]]},"properties":{"comuna":"Catemu","mancha_id":"05702-88b2e34893fffff","clase":"Medio","nivel_medio":2.192,"nivel_medio_min":1.803,"nivel_medio_max":2.478,"pct_alto":66.8,"n_hexagonos":2,"area_ha":112.78}},{"type":"Feature","geometry":{"type":"Polygon","coordinates":[[[-71.029182,-32.776883],[-71.029323,-32.775916],[-71.031224,-32.775397],[-71.031221,-32.7754],[-71.030804,-32.775563],[-71.030503,-32.775678],[-71.030155,-32.775817],[-71.029947,-32.775956],[-71.029761,-32.776165],[-71.029599,-32.776466],[-71.029252,-32.776814],[-71.029182,-32.776883]]]},"properties":{"comuna":"Catemu","mancha_id":"05702-88b2c4baedfffff","clase":"Medio","nivel_medio":2.091,"nivel_medio_min":2.091,"nivel_medio_max":2.091,"pct_alto":9.1,"n_hexagonos":1,"area_ha":0.52}},{"type":"Feature","geometry":{"type":"Polygon","coordinates":[[[-71.004094,-32.782796],[-71.00472,-32.778496],[-71.009766,-32.77712],[-71.014185,-32.780045],[-71.013559,-32.784346],[-71.008514,-32.785721],[-71.004094,-32.782796]]]},"properties":{"comuna":"Catemu","mancha_id":"05702-88b2c4bac7fffff","clase":"Medio","nivel_medio":2.446,"nivel_medio_min":2.446,"nivel_medio_max":2.446,"pct_alto":66.8,"n_hexagonos":1,"area_ha":64.95}},{"type":"Feature","geometry":{"type":"Polygon","coordinates":[[[-71.015476,-32.804469],[-71.016102,-32.80017],[-71.016395,-32.80009],[-71.016395,-32.800188],[-71.01651,-32.800582],[-71.016441,-32.801092],[-71.016534,-32.801439],[-71.016603,-32.801833],[-71.016696,-32.802343],[-71.016696,-32.802852],[-71.016649,-32.803269],[-71.016649,-32.803756],[-71.016464,-32.804057],[-71.01614,-32.804404],[-71.015862,-32.804724],[-71.015839,-32.804752],[-71.015537,-32.80503],[-71.015352,-32.805308],[-71.01519,-32.805516],[-71.01512,-32.805841],[-71.015167,-32.806188],[-71.01519,-32.806582],[-71.015167,-32.807138],[-71.015097,-32.80781],[-71.015097,-32.808296],[-71.015144,-32.808713],[-71.015144,-32.808968],[-71.01512,-32.809246],[-71.01512,-32.80964],[-71.01512,-32.809964],[-71.015097,-32.81008],[-71.014773,-32.810335],[-71.01431,-32.810474],[-71.013985,-32.81052],[-71.013615,-32.810752],[-71.013082,-32.811007],[-71.012665,-32.811262],[-71.012294,-32.811563],[-71.012152,-32.811696],[-71.009804,-32.810142],[-71.004758,-32.811517],[-71.004132,-32.815815],[-70.999086,-32.817189],[-70.996547,-32.815509],[-70.996643,-32.815164],[-70.997069,-32.81451],[-70.997751,-32.81397],[-70.997865,-32.813117],[-70.997496,-32.812435],[-70.996955,-32.811724],[-70.996444,-32.811042],[-70.995932,-32.810331],[-70.995444,-32.809925],[-71.000338,-32.808592],[-71.000964,-32.804294],[-71.00601,-32.802919],[-71.01043,-32.805844],[-71.015476,-32.804469]]]},"properties":{"comuna":"Catemu","mancha_id":"05702-88b2c4baabfffff","clase":"Medio","nivel_medio":2.24,"nivel_medio_min":1.937,"nivel_medio_max":2.499,"pct_alto":36.7,"n_hexagonos":4,"area_ha":152.3}},{"type":"Feature","geometry":{"type":"Polygon","coordinates":[[[-71.034948,-32.770559],[-71.034994,-32.770238],[-71.03591,-32.769988],[-71.035738,-32.770211],[-71.035437,-32.770466],[-71.03509,-32.770559],[-71.034948,-32.770559]]]},"properties":{"comuna":"Catemu","mancha_id":"05702-88b2c4ba3bfffff","clase":"Medio","nivel_medio":2.273,"nivel_medio_min":2.273,"nivel_medio_max":2.273,"pct_alto":37.0,"n_hexagonos":1,"area_ha":0.26}},{"type":"Feature","geometry":{"type":"Polygon","coordinates":[[[-71.015437,-32.771443],[-71.016063,-32.767142],[-71.011643,-32.764217],[-71.012269,-32.759915],[-71.017314,-32.758538],[-71.021734,-32.761463],[-71.021108,-32.765765],[-71.025528,-32.76869],[-71.024902,-32.772992],[-71.019857,-32.774368],[-71.015437,-32.771443]]]},"properties":{"comuna":"Catemu","mancha_id":"05702-88b2c4ba13fffff","clase":"Medio","nivel_medio":2.052,"nivel_medio_min":2.012,"nivel_medio_max":2.092,"pct_alto":40.6,"n_hexagonos":2,"area_ha":129.95}},{"type":"Feature","geometry":{"type":"Polygon","coordinates":[[[-70.860289,-32.706313],[-70.855249,-32.707685],[-70.855242,-32.707732],[-70.855208,-32.707657],[-70.855059,-32.707336],[-70.854122,-32.706497],[-70.853234,-32.705806],[-70.852198,-32.704968],[-70.850953,-32.703962],[-70.851466,-32.700452],[-70.847054,-32.697521],[-70.84636,-32.697709],[-70.84603,-32.697122],[-70.845734,-32.69653],[-70.845734,-32.696037],[-70.845784,-32.695544],[-70.845685,-32.69505],[-70.845438,-32.694063],[-70.845093,-32.693077],[-70.844501,-32.691892],[-70.84381,-32.690708],[-70.843658,-32.690544],[-70.843292,-32.690147],[-70.843218,-32.690067],[-70.842774,-32.689425],[-70.84228,-32.688439],[-70.841639,-32.687748],[-70.840603,-32.687008],[-70.839715,-32.686416],[-70.839172,-32.685774],[-70.838925,-32.684985],[-70.838925,-32.684195],[-70.838679,-32.683307],[-70.838666,-32.683276],[-70.838432,-32.682666],[-70.838037,-32.681827],[-70.837445,-32.680988],[-70.836705,-32.679952],[-70.836212,-32.679113],[-70.83557,-32.678521],[-70.834633,-32.678077],[-70.833498,-32.677288],[-70.833005,-32.676597],[-70.832991,-32.676556],[-70.832709,-32.67566],[-70.832709,-32.674772],[-70.832561,-32.673538],[-70.832413,-32.672551],[-70.832363,-32.671071],[-70.832413,-32.669788],[-70.832583,-32.669019],[-70.83261,-32.6689],[-70.832857,-32.667815],[-70.832857,-32.666779],[-70.832906,-32.665594],[-70.832955,-32.665002],[-70.833005,-32.664558],[-70.833005,-32.664153],[-70.833005,-32.664015],[-70.832906,-32.663078],[-70.832511,-32.662387],[-70.831919,-32.661302],[-70.831574,-32.660562],[-70.831475,-32.659624],[-70.831179,-32.658637],[-70.830538,-32.657453],[-70.830208,-32.656647],[-70.833807,-32.655667],[-70.838217,-32.658599],[-70.837589,-32.662904],[-70.841999,-32.665836],[-70.841372,-32.670141],[-70.845782,-32.673072],[-70.845154,-32.677376],[-70.849565,-32.680308],[-70.854604,-32.678936],[-70.859015,-32.681867],[-70.858387,-32.686171],[-70.853349,-32.687543],[-70.852721,-32.691846],[-70.857132,-32.694777],[-70.856505,-32.69908],[-70.860916,-32.702011],[-70.860289,-32.706313]]]},"properties":{"comuna":"Catemu","mancha_id":"05702-88b2c4b2c5fffff","clase":"Medio","nivel_medio":2.059,"nivel_medio_min":1.532,"nivel_medio_max":2.497,"pct_alto":58.7,"n_hexagonos":13,"area_ha":566.6}},{"type":"Feature","geometry":{"type":"Polygon","coordinates":[[[-70.857275,-32.713749],[-70.859033,-32.714917],[-70.858937,-32.715576],[-70.858365,-32.715132],[-70.857378,-32.714046],[-70.857275,-32.713749]]]},"properties":{"comuna":"Catemu","mancha_id":"05702-88b2c4b28dfffff","clase":"Medio","nivel_medio":2.04,"nivel_medio_min":2.04,"nivel_medio_max":2.04,"pct_alto":4.0,"n_hexagonos":1,"area_ha":0.91}},{"type":"Feature","geometry":{"type":"Polygon","coordinates":[[[-70.947175,-32.805689],[-70.947494,-32.805518],[-70.94735,-32.806503],[-70.945374,-32.807041],[-70.945499,-32.806935],[-70.946361,-32.80636],[-70.947175,-32.805689]]]},"properties":{"comuna":"Catemu","mancha_id":"05702-88b2c4b1b1fffff","clase":"Medio","nivel_medio":2.46,"nivel_medio_min":2.46,"nivel_medio_max":2.46,"pct_alto":48.7,"n_hexagonos":1,"area_ha":0.99}},{"type":"Feature","geometry":{"type":"Polygon","coordinates":[[[-71.000098,-32.82257],[-71.00288,-32.824411],[-71.00641,-32.82345],[-71.006155,-32.823563],[-71.006039,-32.823679],[-71.005414,-32.824142],[-71.004858,-32.82442],[-71.00451,-32.824675],[-71.003839,-32.824953],[-71.003492,-32.825125],[-71.003398,-32.825149],[-71.002736,-32.825394],[-71.002386,-32.825523],[-71.000765,-32.825994],[-71.000736,-32.825028],[-71.000566,-32.823777],[-71.000139,-32.822668],[-71.000098,-32.82257]]]},"properties":{"comuna":"Catemu","mancha_id":"05702-88b2c4a365fffff","clase":"Medio","nivel_medio":2.253,"nivel_medio_min":2.078,"nivel_medio_max":2.332,"pct_alto":71.9,"n_hexagonos":2,"area_ha":6.98}},{"type":"Feature","geometry":{"type":"Polygon","coordinates":[[[-70.945154,-32.814474],[-70.946096,-32.815098],[-70.94562,-32.818365],[-70.945603,-32.818309],[-70.945499,-32.817521],[-70.945499,-32.816707],[-70.945403,-32.815605],[-70.945163,-32.814551],[-70.945154,-32.814474]]]},"properties":{"comuna":"Catemu","mancha_id":"05702-88b2c4a359fffff","clase":"Medio","nivel_medio":2.027,"nivel_medio_min":2.027,"nivel_medio_max":2.027,"pct_alto":12.7,"n_hexagonos":1,"area_ha":1.57}},{"type":"Feature","geometry":{"type":"Polygon","coordinates":[[[-70.949887,-32.82232],[-70.954932,-32.820948],[-70.956851,-32.822219],[-70.956708,-32.822647],[-70.956133,-32.823078],[-70.955511,-32.823557],[-70.955127,-32.823941],[-70.9546,-32.824228],[-70.95393,-32.824324],[-70.953259,-32.824324],[-70.952061,-32.82442],[-70.95163,-32.824228],[-70.95096,-32.824084],[-70.950002,-32.823893],[-70.949657,-32.823894],[-70.949887,-32.82232]]]},"properties":{"comuna":"Catemu","mancha_id":"05702-88b2c4a355fffff","clase":"Medio","nivel_medio":2.242,"nivel_medio_min":2.242,"nivel_medio_max":2.242,"pct_alto":52.7,"n_hexagonos":1,"area_ha":17.1}},{"type":"Feature","geometry":{"type":"Polygon","coordinates":[[[-70.970335,-32.81312],[-70.970587,-32.813261],[-70.971557,-32.813804],[-70.971557,-32.813804],[-70.971721,-32.8139],[-70.971031,-32.81412],[-70.970426,-32.814362],[-70.970073,-32.814504],[-70.969259,-32.814743],[-70.967678,-32.814839],[-70.966193,-32.814887],[-70.965187,-32.81527],[-70.96375,-32.815605],[-70.962696,-32.815845],[-70.961909,-32.816145],[-70.960603,-32.815279],[-70.955558,-32.816651],[-70.951141,-32.813726],[-70.951767,-32.809429],[-70.956812,-32.808057],[-70.957438,-32.803759],[-70.962483,-32.802386],[-70.964297,-32.803588],[-70.963951,-32.804709],[-70.963635,-32.805731],[-70.963614,-32.8058],[-70.963584,-32.805897],[-70.962984,-32.807839],[-70.962984,-32.807841],[-70.963003,-32.807848],[-70.96281,-32.808319],[-70.962808,-32.808323],[-70.962595,-32.808842],[-70.962878,-32.808998],[-70.963022,-32.809077],[-70.963078,-32.809108],[-70.964471,-32.809878],[-70.964741,-32.810027],[-70.965328,-32.810351],[-70.965359,-32.810368],[-70.96828,-32.811982],[-70.968284,-32.811984],[-70.969213,-32.812497],[-70.969655,-32.812741],[-70.969731,-32.812783],[-70.969761,-32.8128],[-70.969819,-32.812832],[-70.969828,-32.812837],[-70.96987,-32.81286],[-70.970335,-32.81312]]]},"properties":{"comuna":"Catemu","mancha_id":"05702-88b2c4a341fffff","clase":"Medio","nivel_medio":1.833,"nivel_medio_min":1.657,"nivel_medio_max":2.095,"pct_alto":28.2,"n_hexagonos":4,"area_ha":152.14}},{"type":"Feature","geometry":{"type":"Polygon","coordinates":[[[-70.989514,-32.716539],[-70.985097,-32.713612],[-70.980053,-32.714989],[-70.979427,-32.719293],[-70.974384,-32.720669],[-70.973758,-32.724973],[-70.978175,-32.7279],[-70.977549,-32.732203],[-70.981966,-32.73513],[-70.98134,-32.739433],[-70.976296,-32.740808],[-70.97567,-32.745111],[-70.970626,-32.746486],[-70.97,-32.750788],[-70.974417,-32.753714],[-70.979461,-32.752339],[-70.983879,-32.755265],[-70.988923,-32.75389],[-70.98955,-32.749588],[-70.985132,-32.746662],[-70.985758,-32.742359],[-70.990802,-32.740983],[-70.991428,-32.73668],[-70.996472,-32.735304],[-71.00089,-32.73823],[-71.000264,-32.742533],[-70.99522,-32.743909],[-70.994594,-32.748212],[-70.999012,-32.751138],[-70.998386,-32.75544],[-71.002805,-32.758366],[-71.002179,-32.762667],[-70.997134,-32.764043],[-70.992716,-32.761117],[-70.987671,-32.762493],[-70.987045,-32.766794],[-70.982001,-32.768169],[-70.981374,-32.77247],[-70.97633,-32.773844],[-70.971912,-32.770918],[-70.972538,-32.766618],[-70.968121,-32.763691],[-70.968747,-32.75939],[-70.96433,-32.756464],[-70.959286,-32.757838],[-70.95866,-32.762139],[-70.963077,-32.765066],[-70.962451,-32.769366],[-70.966868,-32.772292],[-70.966242,-32.776592],[-70.961198,-32.777966],[-70.960571,-32.782266],[-70.964989,-32.785192],[-70.970033,-32.783818],[-70.970659,-32.779518],[-70.975704,-32.778144],[-70.980122,-32.78107],[-70.985167,-32.779696],[-70.989585,-32.782621],[-70.99463,-32.781246],[-70.999049,-32.784171],[-70.998423,-32.788471],[-71.002842,-32.791396],[-71.002216,-32.795696],[-70.997171,-32.79707],[-70.996545,-32.801369],[-70.991499,-32.802743],[-70.990873,-32.807042],[-70.990852,-32.807048],[-70.989963,-32.806778],[-70.989167,-32.80638],[-70.988428,-32.806124],[-70.987546,-32.805726],[-70.986949,-32.805129],[-70.986296,-32.804731],[-70.985784,-32.804305],[-70.985159,-32.804334],[-70.984164,-32.804589],[-70.983595,-32.805073],[-70.982941,-32.805613],[-70.981918,-32.805755],[-70.981838,-32.805775],[-70.981008,-32.805982],[-70.980387,-32.805769],[-70.981409,-32.805491],[-70.982035,-32.801192],[-70.977617,-32.798267],[-70.973706,-32.799332],[-70.973589,-32.799274],[-70.973134,-32.799217],[-70.972367,-32.799103],[-70.971498,-32.798929],[-70.968154,-32.796715],[-70.963109,-32.798088],[-70.958691,-32.795162],[-70.959318,-32.790864],[-70.954901,-32.787938],[-70.955527,-32.783639],[-70.95111,-32.780713],[-70.946066,-32.782085],[-70.94544,-32.786384],[-70.949857,-32.789311],[-70.94923,-32.793609],[-70.944186,-32.794981],[-70.943559,-32.79928],[-70.947977,-32.802205],[-70.94786,-32.803007],[-70.946744,-32.803007],[-70.945932,-32.803137],[-70.945079,-32.8033],[-70.944278,-32.803235],[-70.943682,-32.803229],[-70.943094,-32.803287],[-70.942559,-32.803341],[-70.942139,-32.80342],[-70.941573,-32.803579],[-70.941157,-32.803649],[-70.940868,-32.803752],[-70.94056,-32.803895],[-70.940244,-32.803977],[-70.939967,-32.804004],[-70.939739,-32.803959],[-70.939414,-32.803849],[-70.939106,-32.80377],[-70.938884,-32.803685],[-70.938547,-32.803566],[-70.938163,-32.803323],[-70.938129,-32.803302],[-70.938516,-32.800651],[-70.934099,-32.797725],[-70.929056,-32.799097],[-70.928612,-32.80214],[-70.928508,-32.802134],[-70.928149,-32.802097],[-70.927638,-32.801933],[-70.927108,-32.801799],[-70.926573,-32.801659],[-70.926147,-32.801489],[-70.925727,-32.801264],[-70.925289,-32.801002],[-70.92476,-32.800692],[-70.924425,-32.800515],[-70.924109,-32.800223],[-70.923926,-32.80001],[-70.923732,-32.799615],[-70.923507,-32.799298],[-70.923148,-32.799073],[-70.922816,-32.798836],[-70.922573,-32.79869],[-70.922275,-32.798574],[-70.921964,-32.798349],[-70.921721,-32.798155],[-70.921289,-32.797936],[-70.920498,-32.79779],[-70.919604,-32.797631],[-70.919583,-32.797629],[-70.919596,-32.797541],[-70.91518,-32.794614],[-70.91132,-32.795664],[-70.911269,-32.795657],[-70.910347,-32.795559],[-70.90972,-32.795459],[-70.909206,-32.795271],[-70.908816,-32.795064],[-70.908403,-32.794699],[-70.908074,-32.794303],[-70.907411,-32.79375],[-70.906523,-32.793044],[-70.905957,-32.792825],[-70.905759,-32.792808],[-70.905391,-32.792776],[-70.904764,-32.792874],[-70.904278,-32.792947],[-70.90387,-32.792934],[-70.903396,-32.79288],[-70.902994,-32.792855],[-70.902641,-32.792934],[-70.902179,-32.792971],[-70.90171,-32.793001],[-70.901214,-32.793108],[-70.900798,-32.793014],[-70.900338,-32.792907],[-70.899821,-32.792767],[-70.89935,-32.792676],[-70.899097,-32.792755],[-70.899033,-32.792965],[-70.899118,-32.793184],[-70.89928,-32.793351],[-70.899562,-32.793573],[-70.899746,-32.793809],[-70.896265,-32.791501],[-70.891728,-32.792734],[-70.8916,-32.792633],[-70.890012,-32.791982],[-70.889748,-32.791893],[-70.886808,-32.789943],[-70.887436,-32.785646],[-70.883021,-32.782718],[-70.87798,-32.784088],[-70.873566,-32.78116],[-70.868525,-32.782529],[-70.864111,-32.779601],[-70.863326,-32.779814],[-70.863217,-32.779431],[-70.863021,-32.779077],[-70.862824,-32.778862],[-70.862648,-32.778646],[-70.862375,-32.778565],[-70.861938,-32.778652],[-70.8615,-32.778643],[-70.861264,-32.778538],[-70.861037,-32.77832],[-70.860843,-32.778096],[-70.860666,-32.777861],[-70.86049,-32.777645],[-70.860293,-32.777449],[-70.859979,-32.777272],[-70.859556,-32.777072],[-70.859317,-32.776997],[-70.858953,-32.776897],[-70.858601,-32.776834],[-70.858451,-32.776633],[-70.8584,-32.776294],[-70.858413,-32.775892],[-70.85835,-32.775603],[-70.85825,-32.775453],[-70.858086,-32.775365],[-70.857823,-32.775252],[-70.857458,-32.775176],[-70.857057,-32.775114],[-70.856705,-32.775063],[-70.856459,-32.774984],[-70.856168,-32.774823],[-70.855936,-32.774693],[-70.855766,-32.774532],[-70.855605,-32.774401],[-70.855384,-32.774191],[-70.855249,-32.773992],[-70.855285,-32.773743],[-70.855018,-32.773566],[-70.854982,-32.773497],[-70.854872,-32.773306],[-70.854701,-32.773096],[-70.85453,-32.772915],[-70.854339,-32.772754],[-70.854088,-32.772543],[-70.853917,-32.772342],[-70.853767,-32.772171],[-70.853666,-32.77198],[-70.853606,-32.771779],[-70.853515,-32.771548],[-70.853455,-32.771287],[-70.853385,-32.771036],[-70.853284,-32.770805],[-70.853204,-32.770604],[-70.853063,-32.770353],[-70.852933,-32.770132],[-70.852762,-32.769891],[-70.85261,-32.769764],[-70.854862,-32.766198],[-70.855279,-32.76549],[-70.856541,-32.765147],[-70.857169,-32.760849],[-70.85623,-32.760225],[-70.856342,-32.759685],[-70.856885,-32.758699],[-70.857526,-32.757564],[-70.857773,-32.756528],[-70.857921,-32.755245],[-70.85802,-32.754159],[-70.858365,-32.753271],[-70.85876,-32.752482],[-70.858762,-32.752475],[-70.859007,-32.751791],[-70.859105,-32.751002],[-70.859344,-32.75],[-70.859352,-32.749965],[-70.859549,-32.749028],[-70.859688,-32.747778],[-70.864092,-32.746581],[-70.868505,-32.74951],[-70.873546,-32.74814],[-70.874173,-32.74384],[-70.879214,-32.742469],[-70.883627,-32.745398],[-70.888668,-32.744026],[-70.893082,-32.746955],[-70.892455,-32.751255],[-70.896869,-32.754184],[-70.896241,-32.758483],[-70.900656,-32.761412],[-70.905698,-32.76004],[-70.910112,-32.762968],[-70.915155,-32.761596],[-70.91957,-32.764524],[-70.924612,-32.763151],[-70.929028,-32.766079],[-70.928401,-32.770378],[-70.932817,-32.773305],[-70.93786,-32.771933],[-70.938487,-32.767633],[-70.94353,-32.76626],[-70.947946,-32.769187],[-70.94732,-32.773487],[-70.951737,-32.776413],[-70.95678,-32.77504],[-70.957407,-32.77074],[-70.95299,-32.767813],[-70.953616,-32.763513],[-70.9492,-32.760586],[-70.949826,-32.756285],[-70.94541,-32.753358],[-70.940367,-32.754732],[-70.935951,-32.751805],[-70.936578,-32.747504],[-70.932162,-32.744576],[-70.92712,-32.745949],[-70.922705,-32.743021],[-70.917663,-32.744394],[-70.917036,-32.748695],[-70.921451,-32.751623],[-70.920824,-32.755924],[-70.915782,-32.757296],[-70.911367,-32.754368],[-70.911994,-32.750068],[-70.907579,-32.747139],[-70.908206,-32.742839],[-70.903792,-32.73991],[-70.904419,-32.735609],[-70.900005,-32.73268],[-70.900632,-32.728379],[-70.896218,-32.72545],[-70.896845,-32.721148],[-70.892432,-32.718219],[-70.887391,-32.719591],[-70.882978,-32.716661],[-70.883605,-32.712359],[-70.879193,-32.709429],[-70.87982,-32.705127],[-70.88486,-32.703754],[-70.885487,-32.699451],[-70.881075,-32.696521],[-70.881702,-32.692217],[-70.886742,-32.690844],[-70.887369,-32.68654],[-70.882956,-32.683609],[-70.883584,-32.679305],[-70.879171,-32.676374],[-70.879799,-32.67207],[-70.875387,-32.669138],[-70.876014,-32.664833],[-70.871603,-32.661902],[-70.866564,-32.663276],[-70.865936,-32.667581],[-70.860898,-32.668954],[-70.86027,-32.673259],[-70.855231,-32.674632],[-70.850821,-32.6717],[-70.851448,-32.667396],[-70.856487,-32.666023],[-70.857114,-32.661718],[-70.852703,-32.658786],[-70.847665,-32.660159],[-70.843255,-32.657227],[-70.843883,-32.652921],[-70.84892,-32.651548],[-70.849548,-32.647243],[-70.845138,-32.64431],[-70.845765,-32.640004],[-70.841356,-32.637071],[-70.841983,-32.632765],[-70.837574,-32.629832],[-70.832537,-32.631205],[-70.831909,-32.635512],[-70.826872,-32.636885],[-70.822463,-32.633951],[-70.823091,-32.629645],[-70.828127,-32.628272],[-70.828233,-32.627544],[-70.829474,-32.626868],[-70.831932,-32.625946],[-70.833284,-32.625639],[-70.834514,-32.625516],[-70.835989,-32.625454],[-70.836633,-32.625199],[-70.837537,-32.625083],[-70.837559,-32.62508],[-70.839001,-32.625208],[-70.839102,-32.625279],[-70.84023,-32.626069],[-70.841398,-32.626499],[-70.842219,-32.626902],[-70.842727,-32.627141],[-70.843303,-32.627175],[-70.844471,-32.626192],[-70.845233,-32.625477],[-70.847648,-32.627084],[-70.847021,-32.631391],[-70.851431,-32.634324],[-70.856468,-32.632949],[-70.857096,-32.628642],[-70.852686,-32.62571],[-70.853313,-32.621402],[-70.852578,-32.620913],[-70.854674,-32.619677],[-70.85701,-32.619123],[-70.85829,-32.618777],[-70.858556,-32.618619],[-70.859468,-32.618078],[-70.860759,-32.616726],[-70.862357,-32.615558],[-70.864262,-32.615251],[-70.866045,-32.615804],[-70.866484,-32.615985],[-70.866952,-32.616179],[-70.868196,-32.616173],[-70.869302,-32.615866],[-70.870778,-32.61519],[-70.871577,-32.614391],[-70.87299,-32.61396],[-70.873782,-32.613719],[-70.874404,-32.61353],[-70.876002,-32.6131],[-70.876732,-32.61285],[-70.877609,-32.61281],[-70.878707,-32.613407],[-70.880182,-32.614145],[-70.881841,-32.614575],[-70.883291,-32.614865],[-70.883378,-32.614882],[-70.88473,-32.614083],[-70.885345,-32.613714],[-70.886513,-32.613038],[-70.887496,-32.612362],[-70.8879,-32.611958],[-70.888111,-32.611748],[-70.888764,-32.610501],[-70.888787,-32.610457],[-70.889401,-32.609166],[-70.890323,-32.607937],[-70.890999,-32.607445],[-70.892966,-32.607507],[-70.894257,-32.60806],[-70.895917,-32.608797],[-70.89733,-32.610272],[-70.898351,-32.611115],[-70.898029,-32.613328],[-70.90111,-32.615376],[-70.901634,-32.615979],[-70.902225,-32.61634],[-70.902419,-32.616409],[-70.902782,-32.616537],[-70.903538,-32.616542],[-70.904706,-32.616419],[-70.905444,-32.616726],[-70.906427,-32.617156],[-70.907103,-32.617525],[-70.908148,-32.617648],[-70.909254,-32.617833],[-70.909992,-32.61814],[-70.911098,-32.619431],[-70.911525,-32.620338],[-70.91159,-32.620476],[-70.912389,-32.621459],[-70.913864,-32.621889],[-70.915032,-32.621643],[-70.916446,-32.621029],[-70.917614,-32.620598],[-70.919212,-32.620168],[-70.920024,-32.619909],[-70.92099,-32.619762],[-70.92129,-32.619743],[-70.922346,-32.619677],[-70.923729,-32.61963],[-70.925111,-32.620091],[-70.925846,-32.619845],[-70.927228,-32.619342],[-70.927981,-32.619051],[-70.928431,-32.618877],[-70.929853,-32.61846],[-70.931554,-32.618565],[-70.932331,-32.618649],[-70.933348,-32.618877],[-70.935008,-32.619308],[-70.935578,-32.619614],[-70.936606,-32.620168],[-70.937413,-32.62117],[-70.938252,-32.622009],[-70.938933,-32.622533],[-70.939473,-32.623309],[-70.939917,-32.623592],[-70.940069,-32.623725],[-70.939624,-32.626784],[-70.944038,-32.629714],[-70.943412,-32.634023],[-70.947826,-32.636953],[-70.952867,-32.635575],[-70.953493,-32.631266],[-70.951341,-32.629838],[-70.951911,-32.629695],[-70.953079,-32.629572],[-70.954308,-32.629511],[-70.955722,-32.629326],[-70.957012,-32.629388],[-70.958242,-32.629511],[-70.958593,-32.629479],[-70.959594,-32.629388],[-70.960762,-32.629019],[-70.962421,-32.628527],[-70.964142,-32.628159],[-70.966232,-32.627851],[-70.967461,-32.62779],[-70.96846,-32.628201],[-70.96799,-32.631438],[-70.962949,-32.632817],[-70.962323,-32.637126],[-70.957282,-32.638505],[-70.956655,-32.642813],[-70.96107,-32.645743],[-70.966112,-32.644365],[-70.966738,-32.640056],[-70.971779,-32.638677],[-70.976195,-32.641606],[-70.975569,-32.645915],[-70.979985,-32.648844],[-70.985027,-32.647465],[-70.989443,-32.650394],[-70.988817,-32.654702],[-70.983775,-32.656081],[-70.979359,-32.653152],[-70.974317,-32.654531],[-70.973691,-32.658839],[-70.968649,-32.660218],[-70.968023,-32.664525],[-70.972438,-32.667454],[-70.971812,-32.671761],[-70.976229,-32.67469],[-70.981271,-32.673311],[-70.985688,-32.67624],[-70.985062,-32.680546],[-70.980019,-32.681924],[-70.975602,-32.678996],[-70.97056,-32.680374],[-70.969934,-32.68468],[-70.97435,-32.687608],[-70.973724,-32.691914],[-70.978141,-32.694842],[-70.977515,-32.699147],[-70.972472,-32.700524],[-70.971846,-32.704829],[-70.966803,-32.706206],[-70.962387,-32.703278],[-70.957344,-32.704654],[-70.952928,-32.701726],[-70.953555,-32.697421],[-70.949139,-32.694493],[-70.944097,-32.695869],[-70.939682,-32.69294],[-70.934641,-32.694315],[-70.934014,-32.69862],[-70.938429,-32.701549],[-70.937802,-32.705853],[-70.942218,-32.708781],[-70.94726,-32.707406],[-70.951675,-32.710334],[-70.951049,-32.714638],[-70.955465,-32.717566],[-70.954839,-32.721869],[-70.959255,-32.724797],[-70.964298,-32.723421],[-70.964924,-32.719118],[-70.960508,-32.71619],[-70.961134,-32.711886],[-70.966177,-32.71051],[-70.970593,-32.713438],[-70.975636,-32.712061],[-70.976262,-32.707757],[-70.981305,-32.70638],[-70.985723,-32.709307],[-70.990766,-32.70793],[-70.995184,-32.710857],[-70.994558,-32.715162],[-70.989514,-32.716539]],[[-70.962355,-32.67021],[-70.962981,-32.665903],[-70.958565,-32.662974],[-70.953524,-32.664352],[-70.952898,-32.668658],[-70.957313,-32.671587],[-70.962355,-32.67021]],[[-70.919543,-32.73149],[-70.918916,-32.735792],[-70.923331,-32.73872],[-70.928373,-32.737347],[-70.929,-32.733045],[-70.924585,-32.730116],[-70.925212,-32.725814],[-70.920797,-32.722886],[-70.915756,-32.724259],[-70.915129,-32.728562],[-70.919543,-32.73149]],[[-70.94729,-32.740454],[-70.951706,-32.743382],[-70.956749,-32.742007],[-70.957376,-32.737705],[-70.952959,-32.734777],[-70.947916,-32.736152],[-70.94729,-32.740454]],[[-70.907554,-32.714099],[-70.911968,-32.717028],[-70.917009,-32.715654],[-70.917636,-32.711351],[-70.913222,-32.708422],[-70.908181,-32.709796],[-70.903767,-32.706867],[-70.898727,-32.70824],[-70.8981,-32.712543],[-70.902513,-32.715473],[-70.907554,-32.714099]],[[-70.91889,-32.702745],[-70.923305,-32.705674],[-70.928346,-32.704299],[-70.928973,-32.699995],[-70.924558,-32.697066],[-70.919517,-32.698441],[-70.91889,-32.702745]],[[-70.930254,-32.72444],[-70.934669,-32.727369],[-70.939711,-32.725994],[-70.940338,-32.721691],[-70.94538,-32.720316],[-70.946007,-32.716013],[-70.941591,-32.713085],[-70.936549,-32.71446],[-70.935923,-32.718763],[-70.930881,-32.720138],[-70.930254,-32.72444]],[[-70.898147,-32.778607],[-70.902562,-32.781535],[-70.907604,-32.780164],[-70.908231,-32.775865],[-70.903816,-32.772938],[-70.898774,-32.774309],[-70.898147,-32.778607]],[[-70.93598,-32.78483],[-70.936606,-32.780531],[-70.93219,-32.777605],[-70.927147,-32.778977],[-70.922731,-32.77605],[-70.923358,-32.77175],[-70.918943,-32.768823],[-70.9139,-32.770195],[-70.913273,-32.774494],[-70.917689,-32.777421],[-70.917062,-32.78172],[-70.921477,-32.784647],[-70.92652,-32.783275],[-70.930936,-32.786202],[-70.93598,-32.78483]],[[-70.893036,-32.680862],[-70.892409,-32.685166],[-70.896822,-32.688096],[-70.901862,-32.686722],[-70.902489,-32.682418],[-70.898076,-32.679487],[-70.893036,-32.680862]],[[-70.903743,-32.673808],[-70.908156,-32.676738],[-70.913197,-32.675363],[-70.913823,-32.671057],[-70.918864,-32.669682],[-70.919491,-32.665376],[-70.915077,-32.662445],[-70.915704,-32.658139],[-70.920744,-32.656763],[-70.921371,-32.652456],[-70.926411,-32.651079],[-70.927038,-32.646772],[-70.922624,-32.643841],[-70.923251,-32.639534],[-70.928291,-32.638156],[-70.928917,-32.633848],[-70.933958,-32.632471],[-70.934584,-32.628162],[-70.93017,-32.625231],[-70.925131,-32.626609],[-70.924504,-32.630917],[-70.919464,-32.632295],[-70.918838,-32.636603],[-70.913798,-32.63798],[-70.909385,-32.635049],[-70.904346,-32.636425],[-70.903719,-32.640733],[-70.898679,-32.642109],[-70.898052,-32.646416],[-70.902465,-32.649347],[-70.907504,-32.647971],[-70.911917,-32.650902],[-70.911291,-32.655208],[-70.906251,-32.656584],[-70.905624,-32.660891],[-70.910037,-32.663821],[-70.90941,-32.668127],[-70.90437,-32.669502],[-70.903743,-32.673808]],[[-70.954808,-32.688811],[-70.959223,-32.69174],[-70.964265,-32.690363],[-70.964892,-32.686057],[-70.960476,-32.683129],[-70.961102,-32.678823],[-70.956687,-32.675894],[-70.951645,-32.677271],[-70.951018,-32.681577],[-70.945977,-32.682953],[-70.941562,-32.680024],[-70.942188,-32.675718],[-70.937774,-32.672789],[-70.932733,-32.674165],[-70.932106,-32.678471],[-70.936521,-32.6814],[-70.935894,-32.685706],[-70.940309,-32.688635],[-70.94535,-32.687259],[-70.949766,-32.690188],[-70.954808,-32.688811]],[[-70.87915,-32.643303],[-70.883562,-32.646235],[-70.888601,-32.64486],[-70.889228,-32.640553],[-70.884816,-32.637621],[-70.879778,-32.638997],[-70.87915,-32.643303]],[[-70.881032,-32.630382],[-70.885443,-32.633314],[-70.890482,-32.631938],[-70.891109,-32.62763],[-70.886698,-32.624698],[-70.881659,-32.626074],[-70.881032,-32.630382]]]},"properties":{"comuna":"Catemu","mancha_id":"05702-88b2c4849bfffff","clase":"Medio","nivel_medio":2.103,"nivel_medio_min":1.505,"nivel_medio_max":2.497,"pct_alto":29.3,"n_hexagonos":262,"area_ha":16255.76}},{"type":"Feature","geometry":{"type":"Polygon","coordinates":[[[-71.024822,-32.706892],[-71.025448,-32.702586],[-71.030492,-32.701207],[-71.031117,-32.696901],[-71.026699,-32.693974],[-71.021654,-32.695354],[-71.017236,-32.692427],[-71.017862,-32.68812],[-71.013443,-32.685193],[-71.014069,-32.680886],[-71.009651,-32.677958],[-71.004608,-32.679338],[-71.00019,-32.67641],[-71.000816,-32.672103],[-70.996399,-32.669175],[-70.997025,-32.664867],[-71.002067,-32.663488],[-71.006485,-32.666416],[-71.005859,-32.670723],[-71.010277,-32.673651],[-71.01532,-32.672271],[-71.015946,-32.667964],[-71.020989,-32.666583],[-71.025407,-32.669511],[-71.024782,-32.673819],[-71.0292,-32.676746],[-71.028575,-32.681053],[-71.032994,-32.68398],[-71.032368,-32.688287],[-71.036787,-32.691214],[-71.036162,-32.695521],[-71.040581,-32.698447],[-71.040911,-32.698357],[-71.040878,-32.698457],[-71.040823,-32.698755],[-71.040776,-32.698983],[-71.040745,-32.699219],[-71.040705,-32.699533],[-71.040682,-32.69976],[-71.040627,-32.700019],[-71.040603,-32.700177],[-71.040674,-32.700302],[-71.040831,-32.700491],[-71.041075,-32.70071],[-71.041365,-32.700985],[-71.041506,-32.701142],[-71.041734,-32.701299],[-71.041962,-32.701456],[-71.042307,-32.70159],[-71.042535,-32.701731],[-71.042833,-32.701865],[-71.043116,-32.702014],[-71.043375,-32.702171],[-71.043611,-32.70232],[-71.043846,-32.702556],[-71.044027,-32.702728],[-71.044184,-32.70287],[-71.04438,-32.703105],[-71.044443,-32.703207],[-71.04453,-32.703396],[-71.044624,-32.703584],[-71.044734,-32.703836],[-71.044859,-32.703993],[-71.044922,-32.704095],[-71.044977,-32.704205],[-71.045032,-32.704377],[-71.045087,-32.704629],[-71.045158,-32.704856],[-71.045181,-32.705123],[-71.045228,-32.705335],[-71.045253,-32.70544],[-71.044376,-32.70568],[-71.04375,-32.709986],[-71.038705,-32.711365],[-71.03808,-32.715671],[-71.0425,-32.718597],[-71.041874,-32.722902],[-71.036829,-32.724281],[-71.036204,-32.728585],[-71.040624,-32.731511],[-71.039998,-32.735815],[-71.044418,-32.73874],[-71.049464,-32.737361],[-71.053681,-32.740151],[-71.053576,-32.740466],[-71.053391,-32.740628],[-71.053252,-32.74079],[-71.052812,-32.740929],[-71.052464,-32.740976],[-71.052024,-32.740953],[-71.051607,-32.740953],[-71.051236,-32.741161],[-71.050912,-32.741416],[-71.050588,-32.741763],[-71.050564,-32.742157],[-71.050263,-32.742759],[-71.05024,-32.743385],[-71.050101,-32.743918],[-71.050009,-32.744613],[-71.049939,-32.745007],[-71.049893,-32.745285],[-71.049904,-32.745507],[-71.048214,-32.745969],[-71.043793,-32.743044],[-71.038747,-32.744423],[-71.034327,-32.741497],[-71.029282,-32.742875],[-71.028656,-32.747179],[-71.023611,-32.748556],[-71.022985,-32.752859],[-71.01794,-32.754236],[-71.013521,-32.751311],[-71.014147,-32.747008],[-71.019192,-32.745631],[-71.019817,-32.741328],[-71.015398,-32.738402],[-71.010353,-32.739779],[-71.005935,-32.736853],[-71.00656,-32.73255],[-71.011605,-32.731172],[-71.016024,-32.734098],[-71.021069,-32.73272],[-71.021694,-32.728416],[-71.026739,-32.727038],[-71.027365,-32.722734],[-71.032409,-32.721355],[-71.033035,-32.71705],[-71.028616,-32.714124],[-71.023571,-32.715503],[-71.022945,-32.719808],[-71.017901,-32.721186],[-71.013482,-32.71826],[-71.014108,-32.713955],[-71.019152,-32.712576],[-71.019778,-32.708271],[-71.024822,-32.706892]]]},"properties":{"comuna":"Catemu","mancha_id":"05702-88b2c48485fffff","clase":"Medio","nivel_medio":2.214,"nivel_medio_min":1.53,"nivel_medio_max":2.499,"pct_alto":42.4,"n_hexagonos":27,"area_ha":1691.98}},{"type":"Feature","geometry":{"type":"Polygon","coordinates":[[[-71.031076,-32.663822],[-71.03612,-32.662441],[-71.036746,-32.658132],[-71.032327,-32.655204],[-71.027284,-32.656585],[-71.022866,-32.653658],[-71.023491,-32.649348],[-71.019073,-32.64642],[-71.01403,-32.647801],[-71.009613,-32.644873],[-71.010238,-32.640563],[-71.005821,-32.637635],[-71.006447,-32.633325],[-71.00203,-32.630396],[-71.002656,-32.626086],[-70.998239,-32.623156],[-70.998124,-32.623188],[-70.99826,-32.623016],[-70.998553,-32.622646],[-70.999115,-32.622381],[-71.0,-32.622195],[-71.000283,-32.622135],[-71.000959,-32.621828],[-71.00182,-32.621643],[-71.002435,-32.621275],[-71.003215,-32.620525],[-71.004217,-32.620045],[-71.0055,-32.619203],[-71.006009,-32.618859],[-71.006799,-32.618324],[-71.007966,-32.617464],[-71.009011,-32.617034],[-71.009995,-32.616788],[-71.011728,-32.616291],[-71.012638,-32.61605],[-71.013819,-32.615889],[-71.01399,-32.615866],[-71.015035,-32.615681],[-71.016209,-32.615506],[-71.016817,-32.615435],[-71.017698,-32.615149],[-71.018047,-32.614882],[-71.018538,-32.614391],[-71.018807,-32.613983],[-71.018942,-32.61349],[-71.019045,-32.613326],[-71.019838,-32.613852],[-71.019838,-32.613938],[-71.020084,-32.614633],[-71.020308,-32.615148],[-71.020689,-32.615497],[-71.021796,-32.615927],[-71.023394,-32.616234],[-71.023448,-32.616266],[-71.022826,-32.620559],[-71.027243,-32.623488],[-71.026618,-32.627798],[-71.029755,-32.629878],[-71.029897,-32.630203],[-71.030485,-32.630508],[-71.03079,-32.630564],[-71.031035,-32.630727],[-71.03041,-32.635037],[-71.034828,-32.637966],[-71.039872,-32.636583],[-71.04429,-32.639511],[-71.043665,-32.643821],[-71.048084,-32.646749],[-71.047459,-32.651059],[-71.049375,-32.652328],[-71.049218,-32.652477],[-71.048953,-32.652575],[-71.048737,-32.652703],[-71.048404,-32.652811],[-71.048119,-32.652909],[-71.047834,-32.652958],[-71.04751,-32.653007],[-71.046912,-32.653135],[-71.046519,-32.653233],[-71.046205,-32.653321],[-71.045901,-32.65338],[-71.045646,-32.653468],[-71.045371,-32.653576],[-71.045106,-32.653694],[-71.044772,-32.653792],[-71.044487,-32.65393],[-71.044036,-32.654038],[-71.043624,-32.654155],[-71.043417,-32.654352],[-71.043231,-32.654568],[-71.043113,-32.654754],[-71.043025,-32.655009],[-71.042917,-32.655274],[-71.042809,-32.655529],[-71.042779,-32.655687],[-71.042701,-32.655922],[-71.042622,-32.656118],[-71.042534,-32.656315],[-71.042387,-32.656697],[-71.042298,-32.656786],[-71.042141,-32.656953],[-71.04212,-32.656969],[-71.041994,-32.657061],[-71.041847,-32.657198],[-71.041651,-32.657424],[-71.041641,-32.65761],[-71.041729,-32.657807],[-71.041867,-32.658032],[-71.042014,-32.658278],[-71.04222,-32.658435],[-71.042367,-32.658602],[-71.042475,-32.658719],[-71.042652,-32.658867],[-71.042809,-32.659034],[-71.042966,-32.659191],[-71.043064,-32.659377],[-71.043152,-32.659573],[-71.043241,-32.659809],[-71.043329,-32.660035],[-71.043349,-32.66027],[-71.043368,-32.660535],[-71.043417,-32.660849],[-71.043408,-32.661006],[-71.043378,-32.661242],[-71.043378,-32.661448],[-71.043319,-32.661723],[-71.04329,-32.661909],[-71.043182,-32.662165],[-71.043084,-32.662302],[-71.043005,-32.662351],[-71.042868,-32.662361],[-71.042671,-32.662371],[-71.042406,-32.66241],[-71.042112,-32.662518],[-71.041798,-32.662646],[-71.041562,-32.662871],[-71.041356,-32.663136],[-71.04114,-32.663441],[-71.040934,-32.663725],[-71.040708,-32.663892],[-71.040404,-32.664108],[-71.040041,-32.664393],[-71.039648,-32.664609],[-71.03952,-32.664693],[-71.039334,-32.664815],[-71.038951,-32.66505],[-71.038657,-32.665247],[-71.038363,-32.665453],[-71.038058,-32.665698],[-71.037872,-32.665904],[-71.037695,-32.666091],[-71.037528,-32.666277],[-71.03743,-32.666474],[-71.037322,-32.66667],[-71.037244,-32.666837],[-71.037195,-32.667033],[-71.037195,-32.667131],[-71.037204,-32.667288],[-71.037204,-32.667534],[-71.037155,-32.667691],[-71.037047,-32.667926],[-71.03692,-32.668123],[-71.036772,-32.66825],[-71.036625,-32.668388],[-71.036429,-32.668584],[-71.036223,-32.668751],[-71.036026,-32.668927],[-71.035889,-32.669084],[-71.035791,-32.669232],[-71.035712,-32.669428],[-71.035634,-32.669595],[-71.035595,-32.669732],[-71.035496,-32.66987],[-71.03533,-32.670076],[-71.035104,-32.670311],[-71.034917,-32.670547],[-71.034652,-32.670753],[-71.034551,-32.670846],[-71.030451,-32.66813],[-71.031076,-32.663822]]]},"properties":{"comuna":"Catemu","mancha_id":"05702-88b2c48419fffff","clase":"Medio","nivel_medio":2.097,"nivel_medio_min":1.534,"nivel_medio_max":2.493,"pct_alto":33.3,"n_hexagonos":22,"area_ha":1199.67}},{"type":"Feature","geometry":{"type":"Polygon","coordinates":[[[-70.943412,-32.634023],[-70.944038,-32.629714],[-70.939624,-32.626784],[-70.940069,-32.623725],[-70.940476,-32.624082],[-70.940847,-32.624348],[-70.941852,-32.624734],[-70.942448,-32.625166],[-70.943104,-32.625603],[-70.943859,-32.626192],[-70.945518,-32.626991],[-70.947424,-32.627913],[-70.948083,-32.628608],[-70.94853,-32.629081],[-70.949206,-32.629757],[-70.950128,-32.630187],[-70.951173,-32.62988],[-70.951341,-32.629838],[-70.953493,-32.631266],[-70.952867,-32.635575],[-70.947826,-32.636953],[-70.943412,-32.634023]]]},"properties":{"comuna":"Catemu","mancha_id":"05702-88b2e349e1fffff","clase":"Alto","nivel_medio":2.547,"nivel_medio_min":2.519,"nivel_medio_max":2.621,"pct_alto":55.1,"n_hexagonos":2,"area_ha":85.13}},{"type":"Feature","geometry":{"type":"Polygon","coordinates":[[[-70.881032,-32.630382],[-70.881659,-32.626074],[-70.886698,-32.624698],[-70.891109,-32.62763],[-70.890482,-32.631938],[-70.885443,-32.633314],[-70.881032,-32.630382]]]},"properties":{"comuna":"Catemu","mancha_id":"05702-88b2e348e7fffff","clase":"Alto","nivel_medio":2.58,"nivel_medio_min":2.58,"nivel_medio_max":2.58,"pct_alto":50.1,"n_hexagonos":1,"area_ha":65.07}},{"type":"Feature","geometry":{"type":"Polygon","coordinates":[[[-70.847021,-32.631391],[-70.847648,-32.627084],[-70.845233,-32.625477],[-70.845454,-32.62527],[-70.846499,-32.623979],[-70.848958,-32.622996],[-70.850802,-32.622135],[-70.852277,-32.62109],[-70.852578,-32.620913],[-70.853313,-32.621402],[-70.852686,-32.62571],[-70.857096,-32.628642],[-70.856468,-32.632949],[-70.851431,-32.634324],[-70.847021,-32.631391]]]},"properties":{"comuna":"Catemu","mancha_id":"05702-88b2e3488bfffff","clase":"Alto","nivel_medio":2.763,"nivel_medio_min":2.684,"nivel_medio_max":2.796,"pct_alto":76.8,"n_hexagonos":2,"area_ha":92.9}},{"type":"Feature","geometry":{"type":"Polygon","coordinates":[[[-71.004758,-32.811517],[-71.009804,-32.810142],[-71.012152,-32.811696],[-71.011923,-32.81191],[-71.011599,-32.812281],[-71.011391,-32.812513],[-71.011182,-32.812953],[-71.010881,-32.8133],[-71.010626,-32.813601],[-71.010302,-32.814018],[-71.01014,-32.814505],[-71.009885,-32.815014],[-71.009676,-32.815269],[-71.009445,-32.815802],[-71.009329,-32.816173],[-71.009398,-32.816636],[-71.009375,-32.817377],[-71.009422,-32.817818],[-71.009537,-32.818258],[-71.00965,-32.81844],[-71.009723,-32.818559],[-71.009839,-32.818999],[-71.009839,-32.819347],[-71.009584,-32.819926],[-71.009561,-32.820204],[-71.009491,-32.820482],[-71.009259,-32.82069],[-71.009005,-32.82076],[-71.00868,-32.820968],[-71.008425,-32.821292],[-71.008131,-32.821629],[-71.008101,-32.821663],[-71.007846,-32.82208],[-71.007545,-32.822497],[-71.00729,-32.822775],[-71.006966,-32.823053],[-71.006572,-32.823377],[-71.00641,-32.82345],[-71.00288,-32.824411],[-71.000098,-32.82257],[-71.0,-32.822338],[-70.999684,-32.821588],[-70.999457,-32.820622],[-70.999372,-32.819655],[-70.998818,-32.819029],[-70.999086,-32.817189],[-71.004132,-32.815815],[-71.004758,-32.811517]]]},"properties":{"comuna":"Catemu","mancha_id":"05702-88b2c4bab1fffff","clase":"Alto","nivel_medio":2.532,"nivel_medio_min":2.518,"nivel_medio_max":2.737,"pct_alto":67.4,"n_hexagonos":3,"area_ha":106.82}},{"type":"Feature","geometry":{"type":"Polygon","coordinates":[[[-70.982035,-32.801192],[-70.981409,-32.805491],[-70.980387,-32.805769],[-70.980099,-32.80567],[-70.979718,-32.805371],[-70.979417,-32.804959],[-70.979473,-32.804561],[-70.979388,-32.803936],[-70.978962,-32.803538],[-70.978084,-32.803369],[-70.977341,-32.802514],[-70.976702,-32.801703],[-70.976012,-32.800931],[-70.97538,-32.800496],[-70.974641,-32.80024],[-70.974215,-32.799785],[-70.973987,-32.799473],[-70.973706,-32.799332],[-70.977617,-32.798267],[-70.982035,-32.801192]]]},"properties":{"comuna":"Catemu","mancha_id":"05702-88b2c4ba9bfffff","clase":"Alto","nivel_medio":2.527,"nivel_medio_min":2.527,"nivel_medio_max":2.527,"pct_alto":53.1,"n_hexagonos":1,"area_ha":29.79}},{"type":"Feature","geometry":{"type":"Polygon","coordinates":[[[-70.952898,-32.668658],[-70.953524,-32.664352],[-70.958565,-32.662974],[-70.962981,-32.665903],[-70.962355,-32.67021],[-70.957313,-32.671587],[-70.952898,-32.668658]]]},"properties":{"comuna":"Catemu","mancha_id":"05702-88b2c4b34dfffff","clase":"Alto","nivel_medio":2.647,"nivel_medio_min":2.647,"nivel_medio_max":2.647,"pct_alto":67.9,"n_hexagonos":1,"area_ha":65.07}},{"type":"Feature","geometry":{"type":"Polygon","coordinates":[[[-70.847054,-32.697521],[-70.851466,-32.700452],[-70.850953,-32.703962],[-70.850915,-32.703931],[-70.849977,-32.702747],[-70.849188,-32.701908],[-70.848645,-32.700872],[-70.847609,-32.699639],[-70.847116,-32.699096],[-70.846474,-32.697912],[-70.84636,-32.697709],[-70.847054,-32.697521]]]},"properties":{"comuna":"Catemu","mancha_id":"05702-88b2c4b2c1fffff","clase":"Alto","nivel_medio":2.57,"nivel_medio_min":2.57,"nivel_medio_max":2.57,"pct_alto":62.3,"n_hexagonos":1,"area_ha":12.35}},{"type":"Feature","geometry":{"type":"Polygon","coordinates":[[[-70.903743,-32.673808],[-70.90437,-32.669502],[-70.90941,-32.668127],[-70.910037,-32.663821],[-70.905624,-32.660891],[-70.906251,-32.656584],[-70.911291,-32.655208],[-70.911917,-32.650902],[-70.907504,-32.647971],[-70.902465,-32.649347],[-70.898052,-32.646416],[-70.898679,-32.642109],[-70.903719,-32.640733],[-70.904346,-32.636425],[-70.909385,-32.635049],[-70.913798,-32.63798],[-70.918838,-32.636603],[-70.919464,-32.632295],[-70.924504,-32.630917],[-70.925131,-32.626609],[-70.93017,-32.625231],[-70.934584,-32.628162],[-70.933958,-32.632471],[-70.928917,-32.633848],[-70.928291,-32.638156],[-70.923251,-32.639534],[-70.922624,-32.643841],[-70.927038,-32.646772],[-70.926411,-32.651079],[-70.921371,-32.652456],[-70.920744,-32.656763],[-70.915704,-32.658139],[-70.915077,-32.662445],[-70.919491,-32.665376],[-70.918864,-32.669682],[-70.913823,-32.671057],[-70.913197,-32.675363],[-70.908156,-32.676738],[-70.903743,-32.673808]]]},"properties":{"comuna":"Catemu","mancha_id":"05702-88b2c4b261fffff","clase":"Alto","nivel_medio":2.673,"nivel_medio_min":2.509,"nivel_medio_max":2.887,"pct_alto":72.4,"n_hexagonos":11,"area_ha":715.72}},{"type":"Feature","geometry":{"type":"Polygon","coordinates":[[[-70.892409,-32.685166],[-70.893036,-32.680862],[-70.898076,-32.679487],[-70.902489,-32.682418],[-70.901862,-32.686722],[-70.896822,-32.688096],[-70.892409,-32.685166]]]},"properties":{"comuna":"Catemu","mancha_id":"05702-88b2c4b205fffff","clase":"Alto","nivel_medio":2.506,"nivel_medio_min":2.506,"nivel_medio_max":2.506,"pct_alto":54.7,"n_hexagonos":1,"area_ha":65.0}},{"type":"Feature","geometry":{"type":"Polygon","coordinates":[[[-70.962451,-32.769366],[-70.963077,-32.765066],[-70.968121,-32.763691],[-70.972538,-32.766618],[-70.971912,-32.770918],[-70.966868,-32.772292],[-70.962451,-32.769366]]]},"properties":{"comuna":"Catemu","mancha_id":"05702-88b2c4b1edfffff","clase":"Alto","nivel_medio":2.801,"nivel_medio_min":2.801,"nivel_medio_max":2.801,"pct_alto":78.6,"n_hexagonos":1,"area_ha":64.93}},{"type":"Feature","geometry":{"type":"Polygon","coordinates":[[[-70.934099,-32.797725],[-70.938516,-32.800651],[-70.938129,-32.803302],[-70.937917,-32.803174],[-70.937512,-32.802821],[-70.937105,-32.802483],[-70.936727,-32.80224],[-70.936381,-32.802058],[-70.936031,-32.802042],[-70.93538,-32.802094],[-70.934811,-32.802216],[-70.934108,-32.802389],[-70.933561,-32.802502],[-70.932974,-32.802523],[-70.932344,-32.802344],[-70.931793,-32.802179],[-70.931395,-32.802131],[-70.930878,-32.802106],[-70.930525,-32.802112],[-70.930107,-32.802156],[-70.929852,-32.802083],[-70.92938,-32.802119],[-70.928853,-32.802156],[-70.928612,-32.80214],[-70.929056,-32.799097],[-70.934099,-32.797725]]]},"properties":{"comuna":"Catemu","mancha_id":"05702-88b2c4b1bbfffff","clase":"Alto","nivel_medio":2.525,"nivel_medio_min":2.525,"nivel_medio_max":2.525,"pct_alto":56.2,"n_hexagonos":1,"area_ha":35.29}},{"type":"Feature","geometry":{"type":"Polygon","coordinates":[[[-70.91518,-32.794614],[-70.919596,-32.797541],[-70.919583,-32.797629],[-70.918831,-32.797552],[-70.917876,-32.797485],[-70.916866,-32.797345],[-70.91574,-32.796962],[-70.914463,-32.796542],[-70.913133,-32.796128],[-70.912054,-32.795755],[-70.91132,-32.795664],[-70.91518,-32.794614]]]},"properties":{"comuna":"Catemu","mancha_id":"05702-88b2c4b193fffff","clase":"Alto","nivel_medio":2.542,"nivel_medio_min":2.542,"nivel_medio_max":2.542,"pct_alto":71.6,"n_hexagonos":1,"area_ha":9.88}},{"type":"Feature","geometry":{"type":"Polygon","coordinates":[[[-70.930936,-32.786202],[-70.92652,-32.783275],[-70.921477,-32.784647],[-70.917062,-32.78172],[-70.917689,-32.777421],[-70.913273,-32.774494],[-70.9139,-32.770195],[-70.918943,-32.768823],[-70.923358,-32.77175],[-70.922731,-32.77605],[-70.927147,-32.778977],[-70.93219,-32.777605],[-70.936606,-32.780531],[-70.93598,-32.78483],[-70.930936,-32.786202]]]},"properties":{"comuna":"Catemu","mancha_id":"05702-88b2c4b18bfffff","clase":"Alto","nivel_medio":2.637,"nivel_medio_min":2.519,"nivel_medio_max":2.774,"pct_alto":62.8,"n_hexagonos":3,"area_ha":194.67}},{"type":"Feature","geometry":{"type":"Polygon","coordinates":[[[-70.94544,-32.786384],[-70.946066,-32.782085],[-70.95111,-32.780713],[-70.955527,-32.783639],[-70.954901,-32.787938],[-70.959318,-32.790864],[-70.958691,-32.795162],[-70.963109,-32.798088],[-70.968154,-32.796715],[-70.971498,-32.798929],[-70.971372,-32.798904],[-70.970491,-32.798506],[-70.969638,-32.798478],[-70.969187,-32.798447],[-70.968615,-32.798449],[-70.968074,-32.798648],[-70.966966,-32.798819],[-70.965633,-32.798754],[-70.96489,-32.801504],[-70.964804,-32.801944],[-70.964628,-32.802516],[-70.964528,-32.802838],[-70.964344,-32.803435],[-70.964297,-32.803588],[-70.962483,-32.802386],[-70.957438,-32.803759],[-70.953021,-32.800833],[-70.947977,-32.802205],[-70.943559,-32.79928],[-70.944186,-32.794981],[-70.94923,-32.793609],[-70.949857,-32.789311],[-70.94544,-32.786384]]]},"properties":{"comuna":"Catemu","mancha_id":"05702-88b2c4b185fffff","clase":"Alto","nivel_medio":2.75,"nivel_medio_min":2.596,"nivel_medio_max":3.077,"pct_alto":73.7,"n_hexagonos":5,"area_ha":279.66}},{"type":"Feature","geometry":{"type":"Polygon","coordinates":[[[-70.857169,-32.760849],[-70.856541,-32.765147],[-70.855279,-32.76549],[-70.855356,-32.765359],[-70.855602,-32.764077],[-70.855701,-32.763485],[-70.855701,-32.762596],[-70.855849,-32.762004],[-70.856096,-32.76087],[-70.85623,-32.760225],[-70.857169,-32.760849]]]},"properties":{"comuna":"Catemu","mancha_id":"05702-88b2c4b0d1fffff","clase":"Alto","nivel_medio":2.961,"nivel_medio_min":2.961,"nivel_medio_max":2.961,"pct_alto":96.1,"n_hexagonos":1,"area_ha":5.58}},{"type":"Feature","geometry":{"type":"Polygon","coordinates":[[[-70.864111,-32.779601],[-70.868525,-32.782529],[-70.873566,-32.78116],[-70.87798,-32.784088],[-70.883021,-32.782718],[-70.887436,-32.785646],[-70.886808,-32.789943],[-70.889748,-32.791893],[-70.889218,-32.791715],[-70.888883,-32.791614],[-70.888537,-32.791562],[-70.887873,-32.791465],[-70.887447,-32.791213],[-70.886894,-32.790918],[-70.886124,-32.790835],[-70.885245,-32.790589],[-70.884792,-32.790574],[-70.884007,-32.790762],[-70.883828,-32.790753],[-70.883307,-32.790726],[-70.882778,-32.79072],[-70.882042,-32.790787],[-70.881701,-32.790762],[-70.881458,-32.790653],[-70.881117,-32.790476],[-70.880752,-32.790233],[-70.88049,-32.789984],[-70.880302,-32.789704],[-70.880156,-32.789533],[-70.879918,-32.789412],[-70.87973,-32.789296],[-70.879499,-32.789089],[-70.879359,-32.788919],[-70.879255,-32.788718],[-70.878994,-32.788536],[-70.878756,-32.788444],[-70.878501,-32.788396],[-70.878324,-32.788444],[-70.877971,-32.788615],[-70.877809,-32.788688],[-70.877352,-32.788385],[-70.876294,-32.788673],[-70.876116,-32.788572],[-70.875903,-32.788353],[-70.875672,-32.788031],[-70.875544,-32.787763],[-70.875392,-32.787383],[-70.875206,-32.787112],[-70.874993,-32.786905],[-70.874707,-32.786759],[-70.87409,-32.786452],[-70.873235,-32.786081],[-70.872541,-32.78564],[-70.871933,-32.785165],[-70.871394,-32.784669],[-70.870899,-32.78438],[-70.870315,-32.784134],[-70.869843,-32.783954],[-70.869064,-32.783717],[-70.868398,-32.783495],[-70.868385,-32.783485],[-70.868139,-32.7833],[-70.867662,-32.782789],[-70.867321,-32.782351],[-70.86712,-32.782108],[-70.866801,-32.781727],[-70.866284,-32.781323],[-70.865768,-32.781118],[-70.865454,-32.781177],[-70.865131,-32.781224],[-70.864772,-32.781189],[-70.864433,-32.781098],[-70.864108,-32.780944],[-70.863806,-32.780647],[-70.86357,-32.780353],[-70.863335,-32.779843],[-70.863326,-32.779814],[-70.864111,-32.779601]]]},"properties":{"comuna":"Catemu","mancha_id":"05702-88b2c4b095fffff","clase":"Alto","nivel_medio":2.737,"nivel_medio_min":2.618,"nivel_medio_max":3.0,"pct_alto":77.2,"n_hexagonos":4,"area_ha":105.34}},{"type":"Feature","geometry":{"type":"Polygon","coordinates":[[[-70.911968,-32.717028],[-70.907554,-32.714099],[-70.902513,-32.715473],[-70.8981,-32.712543],[-70.898727,-32.70824],[-70.903767,-32.706867],[-70.908181,-32.709796],[-70.913222,-32.708422],[-70.917636,-32.711351],[-70.917009,-32.715654],[-70.911968,-32.717028]]]},"properties":{"comuna":"Catemu","mancha_id":"05702-88b2c4b041fffff","clase":"Alto","nivel_medio":2.693,"nivel_medio_min":2.644,"nivel_medio_max":2.742,"pct_alto":76.6,"n_hexagonos":2,"area_ha":129.94}},{"type":"Feature","geometry":{"type":"Polygon","coordinates":[[[-70.893082,-32.746955],[-70.888668,-32.744026],[-70.883627,-32.745398],[-70.879214,-32.742469],[-70.874173,-32.74384],[-70.873546,-32.74814],[-70.868505,-32.74951],[-70.864092,-32.746581],[-70.859688,-32.747778],[-70.859697,-32.747696],[-70.859697,-32.746561],[-70.859451,-32.745476],[-70.859204,-32.744242],[-70.859253,-32.743403],[-70.859648,-32.742564],[-70.859944,-32.742022],[-70.860882,-32.741282],[-70.861276,-32.740739],[-70.861773,-32.740325],[-70.862164,-32.739999],[-70.862756,-32.739407],[-70.863349,-32.738963],[-70.863891,-32.738371],[-70.864237,-32.73768],[-70.86473,-32.736841],[-70.865223,-32.736446],[-70.865618,-32.736249],[-70.865618,-32.735756],[-70.865668,-32.735163],[-70.866013,-32.734867],[-70.866654,-32.734621],[-70.867087,-32.734419],[-70.867394,-32.734275],[-70.868233,-32.73393],[-70.869171,-32.733338],[-70.86996,-32.732746],[-70.870602,-32.732252],[-70.871046,-32.731808],[-70.871046,-32.731562],[-70.8707,-32.730822],[-70.869911,-32.730131],[-70.869368,-32.72944],[-70.868803,-32.728781],[-70.86848,-32.728404],[-70.867875,-32.727836],[-70.867404,-32.727575],[-70.866725,-32.727261],[-70.865766,-32.726628],[-70.864779,-32.725592],[-70.863937,-32.724561],[-70.86338,-32.723898],[-70.862718,-32.722888],[-70.862712,-32.722876],[-70.862164,-32.721743],[-70.862145,-32.721702],[-70.86172,-32.720806],[-70.861326,-32.71972],[-70.86098,-32.718881],[-70.860586,-32.717697],[-70.860339,-32.717006],[-70.859895,-32.716316],[-70.859253,-32.715822],[-70.858937,-32.715576],[-70.859033,-32.714917],[-70.857275,-32.713749],[-70.856984,-32.712911],[-70.856589,-32.711776],[-70.85649,-32.710839],[-70.856194,-32.710247],[-70.85575,-32.709507],[-70.855504,-32.708619],[-70.855356,-32.707977],[-70.855242,-32.707732],[-70.855249,-32.707685],[-70.860289,-32.706313],[-70.860916,-32.702011],[-70.856505,-32.69908],[-70.857132,-32.694777],[-70.852721,-32.691846],[-70.853349,-32.687543],[-70.858387,-32.686171],[-70.859015,-32.681867],[-70.854604,-32.678936],[-70.849565,-32.680308],[-70.845154,-32.677376],[-70.845782,-32.673072],[-70.841372,-32.670141],[-70.841999,-32.665836],[-70.837589,-32.662904],[-70.838217,-32.658599],[-70.833807,-32.655667],[-70.830208,-32.656647],[-70.830094,-32.656368],[-70.829748,-32.65543],[-70.829353,-32.654345],[-70.828909,-32.65321],[-70.828515,-32.652421],[-70.828054,-32.651717],[-70.827642,-32.651107],[-70.827355,-32.650739],[-70.827185,-32.650314],[-70.827084,-32.649806],[-70.827001,-32.649253],[-70.830025,-32.648429],[-70.834435,-32.651362],[-70.839472,-32.649989],[-70.8401,-32.645683],[-70.83569,-32.642751],[-70.830653,-32.644123],[-70.826244,-32.64119],[-70.826872,-32.636885],[-70.831909,-32.635512],[-70.832537,-32.631205],[-70.837574,-32.629832],[-70.841983,-32.632765],[-70.841356,-32.637071],[-70.845765,-32.640004],[-70.845138,-32.64431],[-70.849548,-32.647243],[-70.84892,-32.651548],[-70.843883,-32.652921],[-70.843255,-32.657227],[-70.847665,-32.660159],[-70.852703,-32.658786],[-70.857114,-32.661718],[-70.856487,-32.666023],[-70.851448,-32.667396],[-70.850821,-32.6717],[-70.855231,-32.674632],[-70.86027,-32.673259],[-70.860898,-32.668954],[-70.865936,-32.667581],[-70.866564,-32.663276],[-70.871603,-32.661902],[-70.876014,-32.664833],[-70.875387,-32.669138],[-70.879799,-32.67207],[-70.879171,-32.676374],[-70.883584,-32.679305],[-70.882956,-32.683609],[-70.887369,-32.68654],[-70.886742,-32.690844],[-70.881702,-32.692217],[-70.881075,-32.696521],[-70.885487,-32.699451],[-70.88486,-32.703754],[-70.87982,-32.705127],[-70.879193,-32.709429],[-70.883605,-32.712359],[-70.882978,-32.716661],[-70.887391,-32.719591],[-70.892432,-32.718219],[-70.896845,-32.721148],[-70.896218,-32.72545],[-70.900632,-32.728379],[-70.900005,-32.73268],[-70.904419,-32.735609],[-70.903792,-32.73991],[-70.908206,-32.742839],[-70.907579,-32.747139],[-70.911994,-32.750068],[-70.911367,-32.754368],[-70.915782,-32.757296],[-70.920824,-32.755924],[-70.921451,-32.751623],[-70.917036,-32.748695],[-70.917663,-32.744394],[-70.922705,-32.743021],[-70.92712,-32.745949],[-70.932162,-32.744576],[-70.936578,-32.747504],[-70.935951,-32.751805],[-70.940367,-32.754732],[-70.94541,-32.753358],[-70.949826,-32.756285],[-70.9492,-32.760586],[-70.953616,-32.763513],[-70.95299,-32.767813],[-70.957407,-32.77074],[-70.95678,-32.77504],[-70.951737,-32.776413],[-70.94732,-32.773487],[-70.947946,-32.769187],[-70.94353,-32.76626],[-70.938487,-32.767633],[-70.934071,-32.764706],[-70.929028,-32.766079],[-70.924612,-32.763151],[-70.91957,-32.764524],[-70.915155,-32.761596],[-70.910112,-32.762968],[-70.905698,-32.76004],[-70.900656,-32.761412],[-70.896241,-32.758483],[-70.896869,-32.754184],[-70.892455,-32.751255],[-70.893082,-32.746955]]]},"properties":{"comuna":"Catemu","mancha_id":"05702-88b2c4b011fffff","clase":"Alto","nivel_medio":2.703,"nivel_medio_min":2.501,"nivel_medio_max":3.063,"pct_alto":76.8,"n_hexagonos":64,"area_ha":3957.7}},{"type":"Feature","geometry":{"type":"Polygon","coordinates":[[[-70.918916,-32.735792],[-70.919543,-32.73149],[-70.915129,-32.728562],[-70.915756,-32.724259],[-70.920797,-32.722886],[-70.925212,-32.725814],[-70.924585,-32.730116],[-70.929,-32.733045],[-70.928373,-32.737347],[-70.923331,-32.73872],[-70.918916,-32.735792]]]},"properties":{"comuna":"Catemu","mancha_id":"05702-88b2c4b005fffff","clase":"Alto","nivel_medio":2.687,"nivel_medio_min":2.645,"nivel_medio_max":2.729,"pct_alto":80.8,"n_hexagonos":2,"area_ha":129.91}},{"type":"Feature","geometry":{"type":"Polygon","coordinates":[[[-70.946012,-32.819754],[-70.949887,-32.82232],[-70.949657,-32.823894],[-70.949106,-32.823897],[-70.948491,-32.82379],[-70.94793,-32.82366],[-70.947582,-32.823309],[-70.947181,-32.822828],[-70.946887,-32.822293],[-70.946486,-32.821411],[-70.946245,-32.820662],[-70.946012,-32.819754]]]},"properties":{"comuna":"Catemu","mancha_id":"05702-88b2c4a351fffff","clase":"Alto","nivel_medio":2.702,"nivel_medio_min":2.702,"nivel_medio_max":2.702,"pct_alto":83.3,"n_hexagonos":1,"area_ha":7.83}},{"type":"Feature","geometry":{"type":"Polygon","coordinates":[[[-70.891728,-32.792734],[-70.896265,-32.791501],[-70.899746,-32.793809],[-70.899861,-32.793957],[-70.899788,-32.794422],[-70.899593,-32.794595],[-70.899161,-32.794747],[-70.898562,-32.794808],[-70.898184,-32.794705],[-70.897631,-32.794565],[-70.897147,-32.794465],[-70.896411,-32.794443],[-70.895733,-32.794425],[-70.895039,-32.794431],[-70.894713,-32.794492],[-70.894385,-32.794547],[-70.893915,-32.794468],[-70.893565,-32.794282],[-70.893221,-32.794063],[-70.892856,-32.793862],[-70.89244,-32.793661],[-70.892129,-32.793312],[-70.891868,-32.792843],[-70.891728,-32.792734]]]},"properties":{"comuna":"Catemu","mancha_id":"05702-88b2c4a249fffff","clase":"Alto","nivel_medio":2.663,"nivel_medio_min":2.663,"nivel_medio_max":2.663,"pct_alto":69.5,"n_hexagonos":1,"area_ha":16.6}},{"type":"Feature","geometry":{"type":"Polygon","coordinates":[[[-71.03612,-32.662441],[-71.031076,-32.663822],[-71.030451,-32.66813],[-71.025407,-32.669511],[-71.020989,-32.666583],[-71.015946,-32.667964],[-71.01532,-32.672271],[-71.010277,-32.673651],[-71.005859,-32.670723],[-71.006485,-32.666416],[-71.002067,-32.663488],[-70.997025,-32.664867],[-70.996399,-32.669175],[-71.000816,-32.672103],[-71.00019,-32.67641],[-71.004608,-32.679338],[-71.009651,-32.677958],[-71.014069,-32.680886],[-71.013443,-32.685193],[-71.017862,-32.68812],[-71.017236,-32.692427],[-71.021654,-32.695354],[-71.026699,-32.693974],[-71.031117,-32.696901],[-71.030492,-32.701207],[-71.025448,-32.702586],[-71.024822,-32.706892],[-71.019778,-32.708271],[-71.019152,-32.712576],[-71.014108,-32.713955],[-71.013482,-32.71826],[-71.017901,-32.721186],[-71.022945,-32.719808],[-71.023571,-32.715503],[-71.028616,-32.714124],[-71.033035,-32.71705],[-71.032409,-32.721355],[-71.027365,-32.722734],[-71.026739,-32.727038],[-71.021694,-32.728416],[-71.021069,-32.73272],[-71.016024,-32.734098],[-71.011605,-32.731172],[-71.00656,-32.73255],[-71.005935,-32.736853],[-71.010353,-32.739779],[-71.015398,-32.738402],[-71.019817,-32.741328],[-71.019192,-32.745631],[-71.014147,-32.747008],[-71.013521,-32.751311],[-71.01794,-32.754236],[-71.022985,-32.752859],[-71.023611,-32.748556],[-71.028656,-32.747179],[-71.029282,-32.742875],[-71.034327,-32.741497],[-71.038747,-32.744423],[-71.043793,-32.743044],[-71.048214,-32.745969],[-71.047588,-32.750272],[-71.048655,-32.750978],[-71.048619,-32.751122],[-71.048456,-32.7514],[-71.048225,-32.751817],[-71.048063,-32.752095],[-71.047831,-32.752397],[-71.047576,-32.752698],[-71.047321,-32.752953],[-71.047136,-32.753161],[-71.046951,-32.753346],[-71.046603,-32.753555],[-71.046371,-32.753856],[-71.046117,-32.754273],[-71.045931,-32.75469],[-71.045607,-32.755014],[-71.045306,-32.755362],[-71.04519,-32.755617],[-71.044935,-32.756103],[-71.04468,-32.756427],[-71.044449,-32.756868],[-71.044333,-32.757354],[-71.04431,-32.757537],[-71.04431,-32.757539],[-71.044356,-32.757933],[-71.044564,-32.758188],[-71.044796,-32.758443],[-71.045051,-32.758628],[-71.045259,-32.758906],[-71.045167,-32.759022],[-71.044912,-32.759045],[-71.044541,-32.758953],[-71.04431,-32.758953],[-71.043916,-32.759045],[-71.043661,-32.759277],[-71.043522,-32.759439],[-71.04336,-32.759694],[-71.043221,-32.760018],[-71.043221,-32.760319],[-71.043175,-32.760597],[-71.043012,-32.76076],[-71.04285,-32.760991],[-71.042619,-32.761223],[-71.042433,-32.761385],[-71.042178,-32.761663],[-71.042063,-32.761779],[-71.041738,-32.762103],[-71.041599,-32.762242],[-71.04146,-32.762381],[-71.041229,-32.762636],[-71.040997,-32.762914],[-71.040881,-32.762914],[-71.040626,-32.762844],[-71.040163,-32.762983],[-71.039746,-32.763354],[-71.039561,-32.763632],[-71.039539,-32.763813],[-71.039514,-32.764026],[-71.039491,-32.76435],[-71.039283,-32.76486],[-71.039028,-32.765393],[-71.038819,-32.76574],[-71.038611,-32.766018],[-71.038449,-32.766505],[-71.038425,-32.76676],[-71.038194,-32.767107],[-71.037962,-32.767339],[-71.03773,-32.767501],[-71.037522,-32.767733],[-71.037314,-32.767941],[-71.037036,-32.768242],[-71.036734,-32.76852],[-71.036595,-32.768868],[-71.036433,-32.769169],[-71.036317,-32.769539],[-71.03597,-32.76991],[-71.03591,-32.769988],[-71.034994,-32.770238],[-71.034948,-32.770559],[-71.034858,-32.770559],[-71.034603,-32.770651],[-71.034371,-32.77079],[-71.034093,-32.770999],[-71.033839,-32.771393],[-71.033584,-32.771717],[-71.033445,-32.771833],[-71.03319,-32.772041],[-71.032981,-32.77225],[-71.032727,-32.772528],[-71.032541,-32.773014],[-71.032356,-32.773385],[-71.032217,-32.774011],[-71.031962,-32.774613],[-71.031707,-32.774983],[-71.031499,-32.775146],[-71.031224,-32.775397],[-71.029323,-32.775916],[-71.029182,-32.776883],[-71.028927,-32.777138],[-71.028649,-32.777207],[-71.028441,-32.777184],[-71.027978,-32.777254],[-71.027561,-32.777416],[-71.027283,-32.77774],[-71.027005,-32.778088],[-71.026773,-32.778343],[-71.026402,-32.778806],[-71.026194,-32.779038],[-71.025916,-32.779038],[-71.025707,-32.779038],[-71.025545,-32.779061],[-71.02529,-32.779292],[-71.02492,-32.77964],[-71.024549,-32.78008],[-71.024294,-32.780265],[-71.023646,-32.780497],[-71.023298,-32.780775],[-71.023113,-32.780914],[-71.022762,-32.781005],[-71.02258,-32.781053],[-71.022001,-32.781169],[-71.021676,-32.781192],[-71.021213,-32.781331],[-71.020935,-32.781516],[-71.020495,-32.781887],[-71.020078,-32.782234],[-71.019777,-32.782883],[-71.019452,-32.783532],[-71.019198,-32.784134],[-71.019128,-32.784482],[-71.019082,-32.784922],[-71.019082,-32.785385],[-71.01892,-32.785709],[-71.018665,-32.785964],[-71.01834,-32.78615],[-71.018178,-32.786265],[-71.018016,-32.786381],[-71.017854,-32.786567],[-71.017576,-32.786682],[-71.017349,-32.786853],[-71.017298,-32.786891],[-71.017136,-32.787053],[-71.017136,-32.787308],[-71.017205,-32.787655],[-71.017344,-32.788003],[-71.017483,-32.788327],[-71.017344,-32.788582],[-71.017159,-32.788651],[-71.016951,-32.788767],[-71.016719,-32.789115],[-71.016626,-32.789393],[-71.016487,-32.789949],[-71.016371,-32.790435],[-71.016186,-32.791177],[-71.016024,-32.791709],[-71.015952,-32.791952],[-71.015792,-32.792497],[-71.0157,-32.79303],[-71.015468,-32.793424],[-71.015445,-32.793794],[-71.015514,-32.79442],[-71.015607,-32.794976],[-71.015676,-32.7953],[-71.015839,-32.795601],[-71.015978,-32.795926],[-71.01614,-32.796273],[-71.016395,-32.796667],[-71.016603,-32.796991],[-71.016788,-32.797408],[-71.016881,-32.797918],[-71.01702,-32.798265],[-71.017066,-32.79852],[-71.016951,-32.798821],[-71.016742,-32.799215],[-71.016487,-32.799563],[-71.016395,-32.799864],[-71.016395,-32.80009],[-71.016102,-32.80017],[-71.015476,-32.804469],[-71.01043,-32.805844],[-71.00601,-32.802919],[-71.000964,-32.804294],[-71.000338,-32.808592],[-70.995444,-32.809925],[-70.99542,-32.809905],[-70.995042,-32.809801],[-70.994596,-32.809678],[-70.993544,-32.809678],[-70.992805,-32.809194],[-70.992237,-32.808455],[-70.991697,-32.807631],[-70.990901,-32.807062],[-70.990852,-32.807048],[-70.990873,-32.807042],[-70.991499,-32.802743],[-70.996545,-32.801369],[-70.997171,-32.79707],[-71.002216,-32.795696],[-71.002842,-32.791396],[-70.998423,-32.788471],[-70.999049,-32.784171],[-71.004094,-32.782796],[-71.008514,-32.785721],[-71.013559,-32.784346],[-71.014185,-32.780045],[-71.009766,-32.77712],[-71.010392,-32.772819],[-71.015437,-32.771443],[-71.019857,-32.774368],[-71.024902,-32.772992],[-71.025528,-32.76869],[-71.021108,-32.765765],[-71.021734,-32.761463],[-71.017314,-32.758538],[-71.012269,-32.759915],[-71.011643,-32.764217],[-71.006598,-32.765593],[-71.002179,-32.762667],[-71.002805,-32.758366],[-70.998386,-32.75544],[-70.999012,-32.751138],[-70.994594,-32.748212],[-70.99522,-32.743909],[-71.000264,-32.742533],[-71.00089,-32.73823],[-70.996472,-32.735304],[-70.991428,-32.73668],[-70.990802,-32.740983],[-70.985758,-32.742359],[-70.985132,-32.746662],[-70.98955,-32.749588],[-70.988923,-32.75389],[-70.983879,-32.755265],[-70.979461,-32.752339],[-70.980088,-32.748037],[-70.97567,-32.745111],[-70.976296,-32.740808],[-70.98134,-32.739433],[-70.981966,-32.73513],[-70.977549,-32.732203],[-70.978175,-32.7279],[-70.973758,-32.724973],[-70.974384,-32.720669],[-70.979427,-32.719293],[-70.980053,-32.714989],[-70.985097,-32.713612],[-70.989514,-32.716539],[-70.994558,-32.715162],[-70.995184,-32.710857],[-70.990766,-32.70793],[-70.985723,-32.709307],[-70.981305,-32.70638],[-70.976262,-32.707757],[-70.975636,-32.712061],[-70.970593,-32.713438],[-70.966177,-32.71051],[-70.961134,-32.711886],[-70.960508,-32.71619],[-70.955465,-32.717566],[-70.951049,-32.714638],[-70.951675,-32.710334],[-70.94726,-32.707406],[-70.947886,-32.703102],[-70.943471,-32.700173],[-70.944097,-32.695869],[-70.949139,-32.694493],[-70.953555,-32.697421],[-70.952928,-32.701726],[-70.957344,-32.704654],[-70.962387,-32.703278],[-70.966803,-32.706206],[-70.971846,-32.704829],[-70.972472,-32.700524],[-70.977515,-32.699147],[-70.978141,-32.694842],[-70.973724,-32.691914],[-70.97435,-32.687608],[-70.979393,-32.686231],[-70.980019,-32.681924],[-70.985062,-32.680546],[-70.985688,-32.67624],[-70.981271,-32.673311],[-70.976229,-32.67469],[-70.971812,-32.671761],[-70.972438,-32.667454],[-70.968023,-32.664525],[-70.968649,-32.660218],[-70.973691,-32.658839],[-70.974317,-32.654531],[-70.979359,-32.653152],[-70.983775,-32.656081],[-70.988817,-32.654702],[-70.989443,-32.650394],[-70.985027,-32.647465],[-70.979985,-32.648844],[-70.975569,-32.645915],[-70.976195,-32.641606],[-70.971779,-32.638677],[-70.966738,-32.640056],[-70.966112,-32.644365],[-70.96107,-32.645743],[-70.956655,-32.642813],[-70.957282,-32.638505],[-70.962323,-32.637126],[-70.962949,-32.632817],[-70.96799,-32.631438],[-70.96846,-32.628201],[-70.968506,-32.62822],[-70.969028,-32.628769],[-70.969551,-32.629019],[-70.970903,-32.629634],[-70.972194,-32.629757],[-70.973307,-32.629755],[-70.974203,-32.629912],[-70.975502,-32.63027],[-70.976555,-32.630561],[-70.977664,-32.630863],[-70.977751,-32.630892],[-70.978771,-32.631232],[-70.980492,-32.631416],[-70.982151,-32.631355],[-70.983442,-32.631109],[-70.984856,-32.631047],[-70.985698,-32.631093],[-70.986392,-32.631232],[-70.987374,-32.6313],[-70.988175,-32.631355],[-70.989421,-32.631451],[-70.990013,-32.631285],[-70.990941,-32.630802],[-70.991863,-32.630433],[-70.992231,-32.630187],[-70.993461,-32.629757],[-70.993857,-32.6297],[-70.994751,-32.629572],[-70.995366,-32.62865],[-70.995919,-32.627728],[-70.996472,-32.627114],[-70.997087,-32.626376],[-70.997272,-32.6257],[-70.997763,-32.624163],[-70.99807,-32.623257],[-70.998124,-32.623188],[-70.998239,-32.623156],[-71.002656,-32.626086],[-71.00203,-32.630396],[-71.006447,-32.633325],[-71.005821,-32.637635],[-71.010238,-32.640563],[-71.009613,-32.644873],[-71.01403,-32.647801],[-71.019073,-32.64642],[-71.023491,-32.649348],[-71.022866,-32.653658],[-71.027284,-32.656585],[-71.032327,-32.655204],[-71.036746,-32.658132],[-71.03612,-32.662441]]]},"properties":{"comuna":"Catemu","mancha_id":"05702-88b2c48453fffff","clase":"Alto","nivel_medio":2.707,"nivel_medio_min":2.503,"nivel_medio_max":2.978,"pct_alto":74.4,"n_hexagonos":110,"area_ha":6847.26}},{"type":"Feature","geometry":{"type":"Polygon","coordinates":[[[-70.876294,-32.788673],[-70.877352,-32.788385],[-70.877809,-32.788688],[-70.877594,-32.788785],[-70.877308,-32.788852],[-70.876797,-32.78887],[-70.876493,-32.788785],[-70.876294,-32.788673]]]},"properties":{"comuna":"Catemu","mancha_id":"05702-88b2c4b0b1fffff","clase":"Muy Alto","nivel_medio":3.82,"nivel_medio_min":3.82,"nivel_medio_max":3.82,"pct_alto":100.0,"n_hexagonos":1,"area_ha":0.44}},{"type":"Feature","geometry":{"type":"Polygon","coordinates":[[[-70.855018,-32.773566],[-70.855285,-32.773743],[-70.855249,-32.773992],[-70.855193,-32.773909],[-70.855083,-32.773688],[-70.855018,-32.773566]]]},"properties":{"comuna":"Catemu","mancha_id":"05702-88b2c4b099fffff","clase":"Muy Alto","nivel_medio":4.0,"nivel_medio_min":4.0,"nivel_medio_max":4.0,"pct_alto":100.0,"n_hexagonos":1,"area_ha":0.04}}],"bbox":[-71.05539,-32.826,-70.81968,-32.60744]}