{"type":"FeatureCollection","features":[{"type":"Feature","geometry":{"type":"Polygon","coordinates":[[[-71.399704,-33.066729],[-71.395263,-33.063821],[-71.3902,-33.065203],[-71.385759,-33.062296],[-71.380697,-33.063677],[-71.376257,-33.060769],[-71.371195,-33.062151],[-71.370573,-33.06644],[-71.365511,-33.067821],[-71.361071,-33.064913],[-71.361693,-33.060623],[-71.357254,-33.057715],[-71.357876,-33.053425],[-71.362937,-33.052044],[-71.36356,-33.047754],[-71.35912,-33.044845],[-71.354059,-33.046226],[-71.353437,-33.050516],[-71.348376,-33.051897],[-71.343937,-33.048988],[-71.344559,-33.044698],[-71.34962,-33.043317],[-71.350243,-33.039027],[-71.355303,-33.037646],[-71.359742,-33.040555],[-71.364804,-33.039173],[-71.365426,-33.034882],[-71.370487,-33.0335],[-71.374927,-33.036409],[-71.379988,-33.035026],[-71.384428,-33.037935],[-71.38949,-33.036552],[-71.393931,-33.03946],[-71.398993,-33.038077],[-71.399614,-33.033786],[-71.399646,-33.033777],[-71.399647,-33.033811],[-71.399658,-33.034445],[-71.399688,-33.035762],[-71.399716,-33.037588],[-71.399595,-33.037588],[-71.39962,-33.038488],[-71.399645,-33.039417],[-71.399686,-33.04121],[-71.399664,-33.041351],[-71.399726,-33.043598],[-71.399746,-33.044273],[-71.399743,-33.04476],[-71.399744,-33.045847],[-71.3996,-33.045873],[-71.399631,-33.046146],[-71.39976,-33.047243],[-71.399801,-33.047643],[-71.399858,-33.048144],[-71.400012,-33.049966],[-71.400212,-33.052195],[-71.400277,-33.053012],[-71.400367,-33.054149],[-71.40045,-33.055111],[-71.400496,-33.055892],[-71.400319,-33.055895],[-71.400419,-33.057426],[-71.400475,-33.058272],[-71.400475,-33.058278],[-71.400498,-33.05874],[-71.40055,-33.05986],[-71.400063,-33.059884],[-71.400199,-33.061237],[-71.40023,-33.061547],[-71.400529,-33.063704],[-71.400878,-33.066038],[-71.400925,-33.066395],[-71.399704,-33.066729]]]},"properties":{"comuna":"Villa Alemana","mancha_id":"05804-88b2c40c49fffff","clase":"Muy Bajo","nivel_medio":0.215,"nivel_medio_min":0.004,"nivel_medio_max":0.488,"pct_alto":6.2,"n_hexagonos":22,"area_ha":1255.95}},{"type":"Feature","geometry":{"type":"Polygon","coordinates":[[[-71.38949,-33.036552],[-71.390112,-33.032261],[-71.395174,-33.030877],[-71.399614,-33.033786],[-71.398993,-33.038077],[-71.393931,-33.03946],[-71.38949,-33.036552]]]},"properties":{"comuna":"Villa Alemana","mancha_id":"05804-88b2c40e63fffff","clase":"Bajo","nivel_medio":0.572,"nivel_medio_min":0.572,"nivel_medio_max":0.572,"pct_alto":14.8,"n_hexagonos":1,"area_ha":64.85}},{"type":"Feature","geometry":{"type":"Polygon","coordinates":[[[-71.370573,-33.06644],[-71.371195,-33.062151],[-71.376257,-33.060769],[-71.380697,-33.063677],[-71.380075,-33.067967],[-71.375013,-33.069348],[-71.370573,-33.06644]]]},"properties":{"comuna":"Villa Alemana","mancha_id":"05804-88b2c40e33fffff","clase":"Bajo","nivel_medio":0.729,"nivel_medio_min":0.729,"nivel_medio_max":0.729,"pct_alto":21.7,"n_hexagonos":1,"area_ha":64.79}},{"type":"Feature","geometry":{"type":"Polygon","coordinates":[[[-71.353437,-33.050516],[-71.354059,-33.046226],[-71.35912,-33.044845],[-71.36356,-33.047754],[-71.362937,-33.052044],[-71.357876,-33.053425],[-71.357254,-33.057715],[-71.361693,-33.060623],[-71.361071,-33.064913],[-71.356009,-33.066293],[-71.35157,-33.063385],[-71.352192,-33.059095],[-71.347753,-33.056187],[-71.342692,-33.057567],[-71.338254,-33.054658],[-71.338876,-33.050368],[-71.343937,-33.048988],[-71.348376,-33.051897],[-71.353437,-33.050516]]]},"properties":{"comuna":"Villa Alemana","mancha_id":"05804-88b2c40e11fffff","clase":"Bajo","nivel_medio":0.846,"nivel_medio_min":0.612,"nivel_medio_max":1.025,"pct_alto":24.3,"n_hexagonos":4,"area_ha":259.18}},{"type":"Feature","geometry":{"type":"Polygon","coordinates":[[[-71.395263,-33.063821],[-71.399704,-33.066729],[-71.399564,-33.067694],[-71.398911,-33.067815],[-71.398207,-33.06826],[-71.397957,-33.06872],[-71.397146,-33.069506],[-71.396707,-33.069977],[-71.396008,-33.070204],[-71.394724,-33.070383],[-71.393909,-33.070386],[-71.392822,-33.07047],[-71.392297,-33.070589],[-71.391785,-33.070938],[-71.389578,-33.069493],[-71.3902,-33.065203],[-71.395263,-33.063821]]]},"properties":{"comuna":"Villa Alemana","mancha_id":"05804-88b2c40c4bfffff","clase":"Bajo","nivel_medio":1.489,"nivel_medio_min":1.489,"nivel_medio_max":1.489,"pct_alto":40.2,"n_hexagonos":1,"area_ha":50.05}},{"type":"Feature","geometry":{"type":"Polygon","coordinates":[[[-71.34962,-33.043317],[-71.344559,-33.044698],[-71.342046,-33.043051],[-71.342624,-33.042692],[-71.343049,-33.04225],[-71.343691,-33.041685],[-71.344002,-33.041343],[-71.344499,-33.040728],[-71.344733,-33.040389],[-71.344979,-33.040022],[-71.345843,-33.038655],[-71.346772,-33.0371],[-71.346937,-33.03686],[-71.347272,-33.036373],[-71.347678,-33.035795],[-71.347947,-33.035471],[-71.348245,-33.035296],[-71.34864,-33.035142],[-71.349257,-33.034792],[-71.349554,-33.034597],[-71.349973,-33.03444],[-71.350225,-33.034412],[-71.350682,-33.03439],[-71.350878,-33.034309],[-71.351076,-33.034291],[-71.351297,-33.034189],[-71.351606,-33.033988],[-71.351808,-33.033796],[-71.352102,-33.033556],[-71.352509,-33.03335],[-71.352868,-33.033133],[-71.353586,-33.032729],[-71.353945,-33.032506],[-71.354093,-33.032468],[-71.354267,-33.032458],[-71.354373,-33.032407],[-71.354411,-33.032362],[-71.355926,-33.033355],[-71.360987,-33.031973],[-71.365426,-33.034882],[-71.364804,-33.039173],[-71.359742,-33.040555],[-71.355303,-33.037646],[-71.350243,-33.039027],[-71.34962,-33.043317]]]},"properties":{"comuna":"Villa Alemana","mancha_id":"05804-88b2c40525fffff","clase":"Bajo","nivel_medio":1.028,"nivel_medio_min":0.501,"nivel_medio_max":1.372,"pct_alto":27.5,"n_hexagonos":3,"area_ha":138.5}},{"type":"Feature","geometry":{"type":"Polygon","coordinates":[[[-71.35796,-33.086354],[-71.363022,-33.084974],[-71.366026,-33.086941],[-71.365659,-33.087575],[-71.364549,-33.088594],[-71.364775,-33.088801],[-71.364829,-33.089222],[-71.364753,-33.08964],[-71.364891,-33.090499],[-71.3651,-33.091084],[-71.365309,-33.091837],[-71.365486,-33.092538],[-71.361778,-33.093549],[-71.357338,-33.090641],[-71.352276,-33.092021],[-71.347836,-33.089113],[-71.348459,-33.084826],[-71.35352,-33.083446],[-71.35796,-33.086354]]]},"properties":{"comuna":"Villa Alemana","mancha_id":"05804-88b2c40ea1fffff","clase":"Medio","nivel_medio":2.056,"nivel_medio_min":2.026,"nivel_medio_max":2.092,"pct_alto":40.5,"n_hexagonos":2,"area_ha":118.51}},{"type":"Feature","geometry":{"type":"Polygon","coordinates":[[[-71.370487,-33.0335],[-71.371109,-33.029209],[-71.37617,-33.027826],[-71.38061,-33.030735],[-71.385672,-33.029352],[-71.386293,-33.02506],[-71.391355,-33.023676],[-71.395795,-33.026585],[-71.395174,-33.030877],[-71.390112,-33.032261],[-71.38949,-33.036552],[-71.384428,-33.037935],[-71.379988,-33.035026],[-71.374927,-33.036409],[-71.370487,-33.0335]]]},"properties":{"comuna":"Villa Alemana","mancha_id":"05804-88b2c40e09fffff","clase":"Medio","nivel_medio":2.063,"nivel_medio_min":1.777,"nivel_medio_max":2.394,"pct_alto":55.8,"n_hexagonos":3,"area_ha":194.55}},{"type":"Feature","geometry":{"type":"Polygon","coordinates":[[[-71.375013,-33.069348],[-71.380075,-33.067967],[-71.380697,-33.063677],[-71.385759,-33.062296],[-71.3902,-33.065203],[-71.389578,-33.069493],[-71.384516,-33.070874],[-71.383971,-33.074628],[-71.383849,-33.074598],[-71.383317,-33.074592],[-71.382504,-33.074559],[-71.381805,-33.074559],[-71.380847,-33.074852],[-71.380538,-33.074852],[-71.380229,-33.074657],[-71.379904,-33.074381],[-71.379498,-33.074299],[-71.379303,-33.074332],[-71.379134,-33.074708],[-71.37901,-33.075177],[-71.37875,-33.075778],[-71.37853,-33.076347],[-71.374391,-33.073637],[-71.369329,-33.075018],[-71.364889,-33.07211],[-71.359827,-33.07349],[-71.355387,-33.070582],[-71.356009,-33.066293],[-71.361071,-33.064913],[-71.365511,-33.067821],[-71.370573,-33.06644],[-71.375013,-33.069348]]]},"properties":{"comuna":"Villa Alemana","mancha_id":"05804-88b2c40c59fffff","clase":"Medio","nivel_medio":1.972,"nivel_medio_min":1.56,"nivel_medio_max":2.46,"pct_alto":54.5,"n_hexagonos":4,"area_ha":252.56}},{"type":"Feature","geometry":{"type":"Polygon","coordinates":[[[-71.334438,-33.047459],[-71.33506,-33.043169],[-71.337568,-33.042485],[-71.337597,-33.042536],[-71.33778,-33.042838],[-71.33842,-33.043331],[-71.338772,-33.043691],[-71.339295,-33.044156],[-71.339619,-33.044029],[-71.340181,-33.043874],[-71.340555,-33.043769],[-71.341192,-33.043558],[-71.341797,-33.043205],[-71.342046,-33.043051],[-71.344559,-33.044698],[-71.343937,-33.048988],[-71.338876,-33.050368],[-71.338254,-33.054658],[-71.342692,-33.057567],[-71.347753,-33.056187],[-71.352192,-33.059095],[-71.35157,-33.063385],[-71.346509,-33.064765],[-71.34207,-33.061856],[-71.337009,-33.063236],[-71.33257,-33.060327],[-71.333193,-33.056038],[-71.328755,-33.053128],[-71.329377,-33.048839],[-71.334438,-33.047459]]]},"properties":{"comuna":"Villa Alemana","mancha_id":"05804-88b2c40527fffff","clase":"Medio","nivel_medio":1.599,"nivel_medio_min":1.501,"nivel_medio_max":1.778,"pct_alto":45.3,"n_hexagonos":4,"area_ha":253.09}},{"type":"Feature","geometry":{"type":"Polygon","coordinates":[[[-71.304,-33.022797],[-71.304622,-33.018506],[-71.308087,-33.017561],[-71.308639,-33.017832],[-71.313582,-33.020258],[-71.314052,-33.020497],[-71.313496,-33.024328],[-71.308436,-33.025708],[-71.307813,-33.029998],[-71.302754,-33.031378],[-71.298318,-33.028467],[-71.298941,-33.024177],[-71.304,-33.022797]]]},"properties":{"comuna":"Villa Alemana","mancha_id":"05804-88b2c40509fffff","clase":"Medio","nivel_medio":2.285,"nivel_medio_min":2.15,"nivel_medio_max":2.41,"pct_alto":53.4,"n_hexagonos":2,"area_ha":124.71}},{"type":"Feature","geometry":{"type":"Polygon","coordinates":[[[-71.399564,-33.067694],[-71.399704,-33.066729],[-71.400925,-33.066395],[-71.401081,-33.067576],[-71.400046,-33.067604],[-71.399564,-33.067694]]]},"properties":{"comuna":"Villa Alemana","mancha_id":"05804-88b2c40c41fffff","clase":"Alto","nivel_medio":2.866,"nivel_medio_min":2.866,"nivel_medio_max":2.866,"pct_alto":73.2,"n_hexagonos":1,"area_ha":1.48}},{"type":"Feature","geometry":{"type":"Polygon","coordinates":[[[-71.307813,-33.029998],[-71.308436,-33.025708],[-71.313496,-33.024328],[-71.314052,-33.020497],[-71.314914,-33.020936],[-71.315319,-33.021143],[-71.317317,-33.022167],[-71.318774,-33.022883],[-71.318976,-33.022972],[-71.319459,-33.023178],[-71.319719,-33.023289],[-71.319843,-33.023342],[-71.319759,-33.024168],[-71.319686,-33.025136],[-71.319655,-33.026112],[-71.319654,-33.026137],[-71.319654,-33.026202],[-71.319654,-33.026409],[-71.319632,-33.026708],[-71.319644,-33.026772],[-71.319675,-33.026934],[-71.31971,-33.02736],[-71.31978,-33.027727],[-71.319855,-33.028032],[-71.319954,-33.02834],[-71.32008,-33.028569],[-71.320317,-33.028796],[-71.320631,-33.028999],[-71.321055,-33.029316],[-71.321486,-33.029599],[-71.321875,-33.029879],[-71.322234,-33.030121],[-71.322376,-33.030292],[-71.322431,-33.030426],[-71.322518,-33.030731],[-71.322565,-33.031063],[-71.322618,-33.031356],[-71.32262,-33.031365],[-71.32262,-33.031366],[-71.32262,-33.031367],[-71.322703,-33.031593],[-71.322838,-33.031765],[-71.323036,-33.032034],[-71.323154,-33.032194],[-71.32333,-33.032593],[-71.323372,-33.032689],[-71.32346,-33.032941],[-71.323595,-33.033156],[-71.323631,-33.033237],[-71.323784,-33.033626],[-71.323922,-33.033846],[-71.323934,-33.033866],[-71.324265,-33.034381],[-71.324293,-33.03442],[-71.324387,-33.034508],[-71.324692,-33.034754],[-71.324913,-33.034939],[-71.325261,-33.035283],[-71.325672,-33.035678],[-71.326008,-33.036079],[-71.326275,-33.036363],[-71.326385,-33.036545],[-71.326411,-33.03659],[-71.326672,-33.036996],[-71.32687,-33.037213],[-71.327107,-33.037514],[-71.327209,-33.037689],[-71.327441,-33.038078],[-71.327721,-33.038504],[-71.32774,-33.038526],[-71.327784,-33.038856],[-71.327874,-33.039054],[-71.327907,-33.039228],[-71.327941,-33.039377],[-71.327972,-33.039827],[-71.328051,-33.040961],[-71.325562,-33.04164],[-71.32494,-33.045929],[-71.329377,-33.048839],[-71.328755,-33.053128],[-71.333193,-33.056038],[-71.33257,-33.060327],[-71.337009,-33.063236],[-71.34207,-33.061856],[-71.346509,-33.064765],[-71.35157,-33.063385],[-71.356009,-33.066293],[-71.355387,-33.070582],[-71.359827,-33.07349],[-71.364889,-33.07211],[-71.369329,-33.075018],[-71.374391,-33.073637],[-71.37853,-33.076347],[-71.378133,-33.077371],[-71.377597,-33.078459],[-71.37732,-33.079044],[-71.37706,-33.079418],[-71.376348,-33.080422],[-71.376058,-33.080951],[-71.375939,-33.081417],[-71.375926,-33.081456],[-71.375859,-33.081657],[-71.375842,-33.081709],[-71.375695,-33.081888],[-71.375468,-33.081969],[-71.37524,-33.082002],[-71.374915,-33.081904],[-71.374719,-33.081785],[-71.374542,-33.081677],[-71.3742,-33.081287],[-71.373762,-33.080946],[-71.373112,-33.080711],[-71.37251,-33.080061],[-71.372218,-33.079742],[-71.371793,-33.079583],[-71.371236,-33.079715],[-71.370779,-33.079881],[-71.370441,-33.080044],[-71.370205,-33.080265],[-71.370203,-33.080286],[-71.370175,-33.080559],[-71.370268,-33.080864],[-71.370479,-33.081482],[-71.370788,-33.082164],[-71.370788,-33.082441],[-71.369628,-33.083004],[-71.368165,-33.084235],[-71.367441,-33.085088],[-71.366256,-33.086544],[-71.366026,-33.086941],[-71.363022,-33.084974],[-71.35796,-33.086354],[-71.35352,-33.083446],[-71.348459,-33.084826],[-71.347836,-33.089113],[-71.352276,-33.092021],[-71.357338,-33.090641],[-71.361778,-33.093549],[-71.365486,-33.092538],[-71.36569,-33.093347],[-71.365232,-33.093504],[-71.36464,-33.093718],[-71.363678,-33.093927],[-71.3628,-33.094262],[-71.361964,-33.094554],[-71.361585,-33.094877],[-71.361128,-33.095265],[-71.360626,-33.095851],[-71.360082,-33.096269],[-71.359706,-33.096896],[-71.359372,-33.097523],[-71.358953,-33.098109],[-71.358577,-33.098318],[-71.357824,-33.098401],[-71.357114,-33.098443],[-71.356403,-33.098778],[-71.355817,-33.098987],[-71.355777,-33.099009],[-71.355358,-33.099238],[-71.354521,-33.099488],[-71.353769,-33.099656],[-71.353303,-33.099494],[-71.352783,-33.099321],[-71.35235,-33.09945],[-71.352047,-33.099753],[-71.351845,-33.100074],[-71.351176,-33.100617],[-71.350576,-33.100879],[-71.34984,-33.101355],[-71.348671,-33.101442],[-71.347935,-33.101442],[-71.347288,-33.101746],[-71.346506,-33.101745],[-71.345987,-33.101918],[-71.345976,-33.101926],[-71.345866,-33.102001],[-71.345448,-33.10229],[-71.344688,-33.102611],[-71.343733,-33.102834],[-71.342939,-33.102834],[-71.342838,-33.102826],[-71.342395,-33.102792],[-71.341726,-33.103043],[-71.341608,-33.103161],[-71.340974,-33.103795],[-71.340808,-33.104029],[-71.340472,-33.104506],[-71.339845,-33.105217],[-71.339259,-33.105677],[-71.338674,-33.10597],[-71.337963,-33.106137],[-71.337294,-33.106095],[-71.336751,-33.106095],[-71.33604,-33.106513],[-71.335538,-33.106889],[-71.334869,-33.107558],[-71.334325,-33.108269],[-71.334243,-33.108374],[-71.333865,-33.108855],[-71.333196,-33.109022],[-71.332611,-33.109022],[-71.331942,-33.109147],[-71.331022,-33.109315],[-71.33006,-33.10944],[-71.329266,-33.109356],[-71.328513,-33.109147],[-71.327593,-33.109106],[-71.326966,-33.108771],[-71.326757,-33.108395],[-71.326005,-33.107977],[-71.325656,-33.107935],[-71.324959,-33.107851],[-71.323998,-33.107893],[-71.323203,-33.107935],[-71.322576,-33.10806],[-71.321865,-33.108311],[-71.321196,-33.108604],[-71.320611,-33.109106],[-71.319691,-33.109733],[-71.319356,-33.110611],[-71.318896,-33.111322],[-71.318436,-33.112032],[-71.318387,-33.112066],[-71.317893,-33.112409],[-71.317182,-33.112743],[-71.316388,-33.113203],[-71.315635,-33.113747],[-71.31459,-33.114374],[-71.313795,-33.114708],[-71.313126,-33.115336],[-71.312541,-33.116088],[-71.312164,-33.116757],[-71.311809,-33.117142],[-71.311663,-33.117301],[-71.311328,-33.11797],[-71.31088,-33.118324],[-71.31045,-33.118681],[-71.309865,-33.118932],[-71.309321,-33.119266],[-71.30861,-33.11935],[-71.307979,-33.119363],[-71.307287,-33.11945],[-71.306561,-33.11981],[-71.305558,-33.120144],[-71.304596,-33.120437],[-71.304392,-33.120455],[-71.303634,-33.120521],[-71.302871,-33.120489],[-71.301919,-33.120402],[-71.301126,-33.120311],[-71.300415,-33.120144],[-71.300039,-33.119768],[-71.299746,-33.119475],[-71.299328,-33.11889],[-71.29962,-33.117928],[-71.299453,-33.117719],[-71.29891,-33.118012],[-71.298324,-33.118513],[-71.297613,-33.118806],[-71.296861,-33.11889],[-71.295606,-33.118723],[-71.294944,-33.118572],[-71.294686,-33.118513],[-71.293767,-33.118346],[-71.292888,-33.118304],[-71.291927,-33.11843],[-71.290965,-33.118764],[-71.289711,-33.119642],[-71.288414,-33.12027],[-71.288145,-33.120404],[-71.287495,-33.12073],[-71.286115,-33.121022],[-71.28519,-33.121159],[-71.284596,-33.121246],[-71.284009,-33.121263],[-71.283355,-33.121231],[-71.282477,-33.121106],[-71.281432,-33.120855],[-71.280781,-33.120569],[-71.280219,-33.120228],[-71.280131,-33.120156],[-71.279704,-33.119805],[-71.279356,-33.119751],[-71.279253,-33.119736],[-71.278901,-33.119775],[-71.277967,-33.119982],[-71.2775,-33.120112],[-71.276903,-33.120242],[-71.276462,-33.120268],[-71.276099,-33.120138],[-71.275712,-33.119909],[-71.275434,-33.119493],[-71.275364,-33.119076],[-71.275156,-33.118659],[-71.274809,-33.118208],[-71.27467,-33.117583],[-71.274445,-33.117313],[-71.274323,-33.117166],[-71.273802,-33.117097],[-71.273142,-33.117062],[-71.272552,-33.117236],[-71.271615,-33.11734],[-71.270539,-33.117514],[-71.269781,-33.11775],[-71.269428,-33.117861],[-71.268872,-33.117722],[-71.268317,-33.117097],[-71.267705,-33.116812],[-71.26738,-33.11666],[-71.267322,-33.116467],[-71.267164,-33.116044],[-71.26716,-33.116031],[-71.267027,-33.115675],[-71.266751,-33.115233],[-71.266419,-33.114919],[-71.266331,-33.114794],[-71.266161,-33.114551],[-71.266106,-33.113962],[-71.266088,-33.113464],[-71.265903,-33.112746],[-71.265719,-33.112562],[-71.265388,-33.112451],[-71.264982,-33.112414],[-71.264298,-33.112307],[-71.26408,-33.111936],[-71.263933,-33.111641],[-71.263859,-33.11118],[-71.263638,-33.110665],[-71.263306,-33.110315],[-71.262791,-33.110002],[-71.261513,-33.10929],[-71.260859,-33.10866],[-71.260857,-33.108657],[-71.260551,-33.10806],[-71.260415,-33.107791],[-71.259991,-33.107331],[-71.259567,-33.106741],[-71.259449,-33.106108],[-71.259482,-33.105475],[-71.259217,-33.104807],[-71.258923,-33.104292],[-71.258444,-33.103739],[-71.257982,-33.102774],[-71.257682,-33.101907],[-71.257348,-33.101474],[-71.257258,-33.101408],[-71.256915,-33.10116],[-71.256848,-33.10064],[-71.256939,-33.100034],[-71.25711,-33.099794],[-71.25731,-33.099515],[-71.257735,-33.09912],[-71.25813,-33.098573],[-71.258392,-33.098154],[-71.258595,-33.097581],[-71.258854,-33.09723],[-71.25902,-33.096861],[-71.25904,-33.096626],[-71.259057,-33.096436],[-71.259346,-33.095686],[-71.260045,-33.095109],[-71.260531,-33.094623],[-71.261169,-33.094258],[-71.261963,-33.09372],[-71.262628,-33.093154],[-71.263219,-33.092661],[-71.26381,-33.092242],[-71.264303,-33.091922],[-71.264835,-33.091682],[-71.265119,-33.091554],[-71.265784,-33.091204],[-71.266608,-33.090916],[-71.267246,-33.090521],[-71.267387,-33.090424],[-71.267732,-33.090187],[-71.268151,-33.090035],[-71.268571,-33.089553],[-71.268648,-33.089464],[-71.269016,-33.089041],[-71.269237,-33.088562],[-71.269606,-33.087917],[-71.269985,-33.087303],[-71.270352,-33.086603],[-71.270398,-33.086001],[-71.270591,-33.085519],[-71.270628,-33.085427],[-71.270729,-33.085173],[-71.271061,-33.084823],[-71.271227,-33.084602],[-71.27154,-33.084436],[-71.271834,-33.084323],[-71.272229,-33.084231],[-71.272784,-33.084178],[-71.273242,-33.083866],[-71.273657,-33.083596],[-71.274188,-33.083167],[-71.274736,-33.082573],[-71.275054,-33.082275],[-71.275307,-33.082015],[-71.275427,-33.08163],[-71.275698,-33.081262],[-71.275985,-33.080905],[-71.276151,-33.080697],[-71.276455,-33.080316],[-71.276601,-33.080076],[-71.277263,-33.079699],[-71.27744,-33.079457],[-71.277493,-33.079384],[-71.27758,-33.07919],[-71.277603,-33.079138],[-71.277617,-33.079107],[-71.277674,-33.078971],[-71.277944,-33.078373],[-71.278084,-33.077914],[-71.278079,-33.077705],[-71.278346,-33.077143],[-71.278466,-33.076739],[-71.278503,-33.07652],[-71.278648,-33.076243],[-71.278711,-33.076151],[-71.278812,-33.075894],[-71.27891,-33.075472],[-71.279051,-33.075087],[-71.279328,-33.074899],[-71.279517,-33.074658],[-71.279511,-33.074421],[-71.279438,-33.074092],[-71.279249,-33.073514],[-71.279066,-33.073116],[-71.278946,-33.07268],[-71.278669,-33.072088],[-71.278625,-33.071992],[-71.278634,-33.07192],[-71.278751,-33.070987],[-71.279131,-33.069853],[-71.279376,-33.069205],[-71.279775,-33.068705],[-71.280177,-33.068315],[-71.281115,-33.067714],[-71.281115,-33.067714],[-71.281622,-33.067212],[-71.281953,-33.066587],[-71.282223,-33.066161],[-71.282841,-33.065711],[-71.283153,-33.065551],[-71.283217,-33.065517],[-71.283673,-33.065283],[-71.28376,-33.065239],[-71.284656,-33.064693],[-71.285358,-33.063613],[-71.285364,-33.063604],[-71.285441,-33.063237],[-71.285608,-33.062979],[-71.285821,-33.062829],[-71.286013,-33.062716],[-71.286509,-33.062616],[-71.287154,-33.062439],[-71.287563,-33.062341],[-71.287564,-33.062341],[-71.28771,-33.062156],[-71.287792,-33.061953],[-71.287571,-33.061811],[-71.287262,-33.06158],[-71.287159,-33.061362],[-71.287158,-33.061358],[-71.287075,-33.060912],[-71.287265,-33.060465],[-71.287485,-33.060253],[-71.287708,-33.060039],[-71.287708,-33.060039],[-71.288134,-33.059753],[-71.288626,-33.059605],[-71.288944,-33.059548],[-71.289058,-33.059527],[-71.289283,-33.059436],[-71.289382,-33.05926],[-71.2894,-33.059236],[-71.289462,-33.059154],[-71.289582,-33.059031],[-71.28964,-33.058873],[-71.289695,-33.058614],[-71.289696,-33.058611],[-71.289605,-33.058317],[-71.289625,-33.05812],[-71.289736,-33.057695],[-71.289756,-33.057509],[-71.289908,-33.057217],[-71.290227,-33.056872],[-71.2904,-33.056674],[-71.290486,-33.056336],[-71.290519,-33.055999],[-71.290502,-33.055725],[-71.290454,-33.055487],[-71.290382,-33.055346],[-71.2903,-33.055182],[-71.290111,-33.054865],[-71.290065,-33.054688],[-71.29006,-33.054494],[-71.29021,-33.054198],[-71.29033,-33.053984],[-71.290354,-33.053618],[-71.290379,-33.053032],[-71.290356,-33.052132],[-71.290451,-33.051701],[-71.29046,-33.051662],[-71.290484,-33.051395],[-71.29056,-33.051066],[-71.290586,-33.050854],[-71.290582,-33.050721],[-71.290536,-33.050553],[-71.290477,-33.050315],[-71.290386,-33.050025],[-71.290257,-33.049778],[-71.290065,-33.04942],[-71.290065,-33.04942],[-71.289848,-33.049167],[-71.289526,-33.048889],[-71.289353,-33.048724],[-71.28905,-33.048402],[-71.288835,-33.048229],[-71.288567,-33.048022],[-71.288459,-33.047908],[-71.288341,-33.047778],[-71.288291,-33.047678],[-71.288207,-33.047506],[-71.288167,-33.047161],[-71.288248,-33.046628],[-71.288489,-33.046064],[-71.288624,-33.045718],[-71.288657,-33.045387],[-71.288664,-33.045257],[-71.288629,-33.045134],[-71.288497,-33.044888],[-71.288257,-33.044565],[-71.288124,-33.044302],[-71.288121,-33.044169],[-71.288146,-33.043938],[-71.28812,-33.043735],[-71.288104,-33.043641],[-71.288071,-33.043453],[-71.288047,-33.043365],[-71.287938,-33.043207],[-71.287841,-33.043103],[-71.287661,-33.043053],[-71.28751,-33.042923],[-71.287401,-33.0428],[-71.28725,-33.042618],[-71.287203,-33.042415],[-71.287099,-33.042054],[-71.287057,-33.041599],[-71.286967,-33.041419],[-71.286967,-33.041419],[-71.286765,-33.041197],[-71.28631,-33.040691],[-71.286307,-33.040687],[-71.286307,-33.040687],[-71.286205,-33.040432],[-71.286118,-33.040292],[-71.286084,-33.040195],[-71.286084,-33.040195],[-71.28607,-33.040063],[-71.286082,-33.040041],[-71.28612,-33.039973],[-71.286145,-33.039716],[-71.286045,-33.039497],[-71.285965,-33.039277],[-71.285896,-33.039048],[-71.285787,-33.038873],[-71.285684,-33.038582],[-71.285453,-33.038153],[-71.285348,-33.037783],[-71.285364,-33.03757],[-71.28545,-33.037232],[-71.285445,-33.037046],[-71.285526,-33.036514],[-71.285513,-33.036],[-71.285553,-33.035946],[-71.285572,-33.035866],[-71.285609,-33.035681],[-71.285725,-33.03527],[-71.285743,-33.035163],[-71.285801,-33.034949],[-71.285822,-33.034836],[-71.285828,-33.034808],[-71.28585,-33.034713],[-71.285906,-33.034523],[-71.285942,-33.034441],[-71.285985,-33.034344],[-71.286219,-33.034039],[-71.286288,-33.033878],[-71.286481,-33.033726],[-71.28668,-33.033579],[-71.286839,-33.033231],[-71.286839,-33.03323],[-71.286866,-33.033026],[-71.286887,-33.032654],[-71.286924,-33.03245],[-71.286919,-33.032272],[-71.286992,-33.032164],[-71.287145,-33.032047],[-71.287344,-33.032026],[-71.287616,-33.031977],[-71.287899,-33.031918],[-71.288032,-33.031801],[-71.288081,-33.031676],[-71.28814,-33.031515],[-71.288196,-33.031213],[-71.288484,-33.03057],[-71.288916,-33.029921],[-71.289454,-33.029074],[-71.289523,-33.028878],[-71.289561,-33.028718],[-71.289557,-33.028567],[-71.289523,-33.028488],[-71.289458,-33.028419],[-71.28933,-33.028324],[-71.289199,-33.028158],[-71.28909,-33.027983],[-71.289016,-33.027568],[-71.288994,-33.027137],[-71.288988,-33.027043],[-71.288985,-33.026999],[-71.288977,-33.026882],[-71.288971,-33.026648],[-71.288892,-33.026455],[-71.288881,-33.026428],[-71.288728,-33.026183],[-71.288681,-33.026085],[-71.288655,-33.026031],[-71.288395,-33.025477],[-71.288282,-33.025311],[-71.288027,-33.024919],[-71.28781,-33.024417],[-71.287722,-33.024217],[-71.287623,-33.024082],[-71.287511,-33.023876],[-71.287447,-33.023741],[-71.287383,-33.02359],[-71.287337,-33.023387],[-71.287145,-33.023162],[-71.287041,-33.023028],[-71.286973,-33.022927],[-71.286819,-33.022832],[-71.286594,-33.022675],[-71.286455,-33.022551],[-71.286276,-33.022444],[-71.285986,-33.022296],[-71.285885,-33.022244],[-71.285541,-33.022088],[-71.285373,-33.02182],[-71.285235,-33.021559],[-71.285154,-33.02131],[-71.285068,-33.020934],[-71.285035,-33.020747],[-71.285022,-33.020511],[-71.285073,-33.020293],[-71.285203,-33.02005],[-71.285241,-33.019914],[-71.285249,-33.01989],[-71.285296,-33.019752],[-71.285409,-33.019488],[-71.285442,-33.019411],[-71.285445,-33.019405],[-71.285445,-33.019405],[-71.285463,-33.019265],[-71.285443,-33.019073],[-71.285426,-33.019017],[-71.285659,-33.018753],[-71.286418,-33.018267],[-71.287257,-33.017885],[-71.28793,-33.017623],[-71.288786,-33.01722],[-71.289619,-33.016904],[-71.290498,-33.016497],[-71.290985,-33.016157],[-71.29146,-33.015797],[-71.291883,-33.015417],[-71.29224,-33.01508],[-71.292447,-33.014884],[-71.292557,-33.01471],[-71.292707,-33.014106],[-71.292993,-33.013657],[-71.293355,-33.013214],[-71.293577,-33.012924],[-71.293891,-33.012589],[-71.294181,-33.012276],[-71.294623,-33.01196],[-71.29489,-33.011783],[-71.295251,-33.01164],[-71.29553,-33.011523],[-71.295566,-33.011529],[-71.295636,-33.01156],[-71.295673,-33.011598],[-71.295678,-33.01163],[-71.295688,-33.011631],[-71.296125,-33.011705],[-71.299183,-33.013201],[-71.300444,-33.013818],[-71.308087,-33.017561],[-71.304622,-33.018506],[-71.304,-33.022797],[-71.298941,-33.024177],[-71.298318,-33.028467],[-71.302754,-33.031378],[-71.307813,-33.029998]]]},"properties":{"comuna":"Villa Alemana","mancha_id":"05804-88b2c40501fffff","clase":"Alto","nivel_medio":2.919,"nivel_medio_min":2.552,"nivel_medio_max":3.494,"pct_alto":85.9,"n_hexagonos":123,"area_ha":6367.31}},{"type":"Feature","geometry":{"type":"Polygon","coordinates":[[[-71.398487,-33.013173],[-71.39922,-33.01328],[-71.399225,-33.013281],[-71.399228,-33.013468],[-71.399238,-33.014198],[-71.39925,-33.014944],[-71.399276,-33.017362],[-71.399285,-33.017821],[-71.399312,-33.018732],[-71.399335,-33.019504],[-71.397039,-33.018],[-71.391977,-33.019384],[-71.391355,-33.023676],[-71.386293,-33.02506],[-71.385672,-33.029352],[-71.38061,-33.030735],[-71.37617,-33.027826],[-71.371109,-33.029209],[-71.370487,-33.0335],[-71.365426,-33.034882],[-71.360987,-33.031973],[-71.361405,-33.02909],[-71.361689,-33.028989],[-71.362139,-33.028785],[-71.362639,-33.028587],[-71.362861,-33.028541],[-71.363046,-33.028526],[-71.363085,-33.028523],[-71.363297,-33.028485],[-71.363504,-33.028389],[-71.363796,-33.028181],[-71.364204,-33.027957],[-71.364514,-33.027742],[-71.364522,-33.027737],[-71.364532,-33.027731],[-71.364701,-33.027634],[-71.364815,-33.027541],[-71.364938,-33.02749],[-71.365045,-33.027467],[-71.365092,-33.027464],[-71.365229,-33.027457],[-71.3655,-33.027444],[-71.365821,-33.027389],[-71.366109,-33.027286],[-71.366352,-33.027181],[-71.366379,-33.027169],[-71.366754,-33.02696],[-71.366937,-33.026846],[-71.367056,-33.026773],[-71.367235,-33.02667],[-71.367546,-33.026491],[-71.367813,-33.02635],[-71.368083,-33.026167],[-71.368084,-33.026167],[-71.368264,-33.026115],[-71.368446,-33.026097],[-71.369083,-33.02605],[-71.36973,-33.026087],[-71.370069,-33.026073],[-71.370283,-33.025999],[-71.370601,-33.025812],[-71.370831,-33.025731],[-71.371037,-33.025692],[-71.371979,-33.025604],[-71.372433,-33.025547],[-71.372737,-33.025478],[-71.372974,-33.025355],[-71.373384,-33.02518],[-71.373713,-33.025083],[-71.374018,-33.025028],[-71.374156,-33.024935],[-71.374398,-33.024686],[-71.374639,-33.024379],[-71.374927,-33.023737],[-71.375096,-33.023422],[-71.375198,-33.02326],[-71.375235,-33.023202],[-71.37544,-33.023076],[-71.375818,-33.022896],[-71.375853,-33.022879],[-71.376286,-33.022649],[-71.376629,-33.022466],[-71.376649,-33.022456],[-71.376683,-33.022438],[-71.376806,-33.022372],[-71.376828,-33.02236],[-71.377025,-33.022254],[-71.3776,-33.021941],[-71.378074,-33.021684],[-71.378536,-33.021455],[-71.379141,-33.021155],[-71.37982,-33.020797],[-71.379875,-33.020714],[-71.379929,-33.020632],[-71.37997,-33.020374],[-71.37994,-33.019857],[-71.379895,-33.019399],[-71.379969,-33.019155],[-71.38025,-33.01881],[-71.380582,-33.0186],[-71.380916,-33.018444],[-71.3812,-33.018249],[-71.381464,-33.017948],[-71.381685,-33.017625],[-71.381784,-33.017405],[-71.381849,-33.017261],[-71.381892,-33.017043],[-71.381898,-33.016677],[-71.381928,-33.016479],[-71.381938,-33.016407],[-71.382008,-33.016031],[-71.382009,-33.016024],[-71.382154,-33.015653],[-71.382276,-33.015347],[-71.382356,-33.01515],[-71.382422,-33.015026],[-71.382554,-33.014781],[-71.382678,-33.014605],[-71.382787,-33.01445],[-71.383009,-33.014338],[-71.383064,-33.01431],[-71.38339,-33.014141],[-71.38444,-33.013808],[-71.384987,-33.013676],[-71.385209,-33.013604],[-71.385451,-33.013613],[-71.385872,-33.013673],[-71.386003,-33.013779],[-71.386345,-33.013962],[-71.386995,-33.014166],[-71.387417,-33.014198],[-71.387849,-33.014168],[-71.387871,-33.014166],[-71.387925,-33.014162],[-71.38844,-33.01414],[-71.389102,-33.014086],[-71.389724,-33.013979],[-71.389964,-33.01393],[-71.390238,-33.013874],[-71.390687,-33.013825],[-71.391072,-33.013831],[-71.391446,-33.013865],[-71.391987,-33.013827],[-71.392669,-33.013626],[-71.393241,-33.013491],[-71.393971,-33.013369],[-71.394245,-33.013281],[-71.394587,-33.013196],[-71.395072,-33.013022],[-71.395374,-33.012962],[-71.395701,-33.012942],[-71.396004,-33.012962],[-71.396325,-33.013037],[-71.396817,-33.013232],[-71.396977,-33.01326],[-71.397102,-33.013281],[-71.397432,-33.013261],[-71.397937,-33.013168],[-71.398265,-33.01315],[-71.398487,-33.013173]]]},"properties":{"comuna":"Villa Alemana","mancha_id":"05804-88b2c40191fffff","clase":"Alto","nivel_medio":3.22,"nivel_medio_min":2.606,"nivel_medio_max":3.437,"pct_alto":91.1,"n_hexagonos":9,"area_ha":310.19}},{"type":"Feature","geometry":{"type":"Polygon","coordinates":[[[-71.395174,-33.030877],[-71.395795,-33.026585],[-71.391355,-33.023676],[-71.391977,-33.019384],[-71.397039,-33.018],[-71.399335,-33.019504],[-71.399507,-33.02528],[-71.399515,-33.025568],[-71.399523,-33.025879],[-71.399518,-33.026343],[-71.399544,-33.02794],[-71.399586,-33.03031],[-71.39962,-33.032208],[-71.399632,-33.033048],[-71.399646,-33.033777],[-71.399614,-33.033786],[-71.395174,-33.030877]]]},"properties":{"comuna":"Villa Alemana","mancha_id":"05804-88b2c40e61fffff","clase":"Muy Alto","nivel_medio":3.59,"nivel_medio_min":3.507,"nivel_medio_max":3.763,"pct_alto":98.5,"n_hexagonos":2,"area_ha":82.19}},{"type":"Feature","geometry":{"type":"Polygon","coordinates":[[[-71.360987,-33.031973],[-71.355926,-33.033355],[-71.354411,-33.032362],[-71.354518,-33.032237],[-71.354612,-33.032061],[-71.354651,-33.031941],[-71.354714,-33.031815],[-71.354997,-33.031551],[-71.355191,-33.031387],[-71.35537,-33.031279],[-71.355595,-33.031158],[-71.355599,-33.031156],[-71.35582,-33.031054],[-71.356074,-33.030958],[-71.35627,-33.030794],[-71.356536,-33.03058],[-71.357,-33.030271],[-71.357553,-33.029849],[-71.357553,-33.029849],[-71.358124,-33.029531],[-71.358439,-33.029317],[-71.358612,-33.02918],[-71.358766,-33.029072],[-71.358773,-33.02907],[-71.358882,-33.029042],[-71.359089,-33.029066],[-71.359299,-33.029152],[-71.359316,-33.02916],[-71.359625,-33.029307],[-71.359834,-33.029352],[-71.360075,-33.029361],[-71.360289,-33.029322],[-71.360619,-33.029281],[-71.360933,-33.029226],[-71.361333,-33.029115],[-71.361405,-33.02909],[-71.360987,-33.031973]]]},"properties":{"comuna":"Villa Alemana","mancha_id":"05804-88b2c40e51fffff","clase":"Muy Alto","nivel_medio":3.828,"nivel_medio_min":3.828,"nivel_medio_max":3.828,"pct_alto":96.0,"n_hexagonos":1,"area_ha":18.33}},{"type":"Feature","geometry":{"type":"Polygon","coordinates":[[[-71.384516,-33.070874],[-71.389578,-33.069493],[-71.391785,-33.070938],[-71.391735,-33.070972],[-71.391149,-33.071358],[-71.390899,-33.071766],[-71.390191,-33.072528],[-71.389644,-33.072686],[-71.389086,-33.072918],[-71.388614,-33.073113],[-71.388094,-33.073568],[-71.387707,-33.073753],[-71.387379,-33.073909],[-71.386827,-33.074413],[-71.385982,-33.075144],[-71.385738,-33.075209],[-71.385478,-33.075177],[-71.385128,-33.075],[-71.384552,-33.074771],[-71.383971,-33.074628],[-71.384516,-33.070874]]]},"properties":{"comuna":"Villa Alemana","mancha_id":"05804-88b2c40c5dfffff","clase":"Muy Alto","nivel_medio":3.55,"nivel_medio_min":3.55,"nivel_medio_max":3.55,"pct_alto":90.6,"n_hexagonos":1,"area_ha":25.72}},{"type":"Feature","geometry":{"type":"Polygon","coordinates":[[[-71.337568,-33.042485],[-71.33506,-33.043169],[-71.334438,-33.047459],[-71.329377,-33.048839],[-71.32494,-33.045929],[-71.325562,-33.04164],[-71.328051,-33.040961],[-71.328057,-33.041055],[-71.328055,-33.041172],[-71.328047,-33.041579],[-71.328031,-33.041698],[-71.328009,-33.041858],[-71.327899,-33.042638],[-71.327865,-33.04282],[-71.327756,-33.043168],[-71.327753,-33.043172],[-71.327766,-33.043282],[-71.32776,-33.043445],[-71.327802,-33.04372],[-71.327896,-33.04397],[-71.328026,-33.044108],[-71.328276,-33.044228],[-71.328308,-33.04424],[-71.328583,-33.044255],[-71.32893,-33.044226],[-71.329176,-33.044211],[-71.329684,-33.044197],[-71.329933,-33.044176],[-71.330172,-33.044123],[-71.330453,-33.044081],[-71.330847,-33.044135],[-71.331059,-33.044206],[-71.331172,-33.044121],[-71.331317,-33.043988],[-71.331741,-33.043705],[-71.332173,-33.043407],[-71.332673,-33.043122],[-71.333212,-33.042823],[-71.333895,-33.042405],[-71.333919,-33.04239],[-71.334354,-33.042197],[-71.334838,-33.042026],[-71.335305,-33.041937],[-71.335756,-33.041864],[-71.335811,-33.041855],[-71.335856,-33.041848],[-71.336163,-33.0418],[-71.336334,-33.04174],[-71.336551,-33.041615],[-71.336675,-33.041588],[-71.33678,-33.041586],[-71.336915,-33.041616],[-71.33707,-33.041759],[-71.337382,-33.04215],[-71.337568,-33.042485]]]},"properties":{"comuna":"Villa Alemana","mancha_id":"05804-88b2c40521fffff","clase":"Muy Alto","nivel_medio":3.529,"nivel_medio_min":3.512,"nivel_medio_max":3.77,"pct_alto":95.7,"n_hexagonos":2,"area_ha":51.2}}],"bbox":[-71.40109,-33.12127,-71.25684,-33.01152]}