{"type":"FeatureCollection","features":[{"type":"Feature","geometry":{"type":"Polygon","coordinates":[[[-70.751538,-34.193488],[-70.756605,-34.192178],[-70.758216,-34.193229],[-70.758095,-34.193256],[-70.757717,-34.193316],[-70.75727,-34.193325],[-70.75678,-34.193342],[-70.756178,-34.193308],[-70.755903,-34.193308],[-70.755594,-34.193342],[-70.755259,-34.19348],[-70.754786,-34.193583],[-70.754443,-34.193634],[-70.754142,-34.193686],[-70.753832,-34.193763],[-70.753506,-34.193866],[-70.753343,-34.193927],[-70.753153,-34.193995],[-70.75293,-34.194107],[-70.752757,-34.19418],[-70.752392,-34.194363],[-70.75211,-34.194512],[-70.751966,-34.194583],[-70.75182,-34.194694],[-70.751652,-34.194778],[-70.75153,-34.194855],[-70.751411,-34.194921],[-70.751338,-34.195023],[-70.751297,-34.195209],[-70.751268,-34.195285],[-70.751538,-34.193488]]]},"properties":{"comuna":"Rancagua","mancha_id":"06101-88b2c1ce6dfffff","clase":"Muy Bajo","nivel_medio":0.472,"nivel_medio_min":0.472,"nivel_medio_max":0.472,"pct_alto":13.8,"n_hexagonos":1,"area_ha":6.32}},{"type":"Feature","geometry":{"type":"Polygon","coordinates":[[[-70.722759,-34.213034],[-70.72431,-34.212634],[-70.727901,-34.214976],[-70.727738,-34.215024],[-70.727543,-34.215114],[-70.727161,-34.215281],[-70.726849,-34.215489],[-70.726527,-34.215689],[-70.726281,-34.215832],[-70.725983,-34.215941],[-70.725632,-34.216018],[-70.725342,-34.216048],[-70.72503,-34.216061],[-70.724252,-34.216082],[-70.722759,-34.213034]]]},"properties":{"comuna":"Rancagua","mancha_id":"06101-88b2c1ce03fffff","clase":"Muy Bajo","nivel_medio":0.185,"nivel_medio_min":0.185,"nivel_medio_max":0.185,"pct_alto":0.0,"n_hexagonos":1,"area_ha":9.86}},{"type":"Feature","geometry":{"type":"Polygon","coordinates":[[[-70.770882,-34.188521],[-70.770792,-34.188509],[-70.771804,-34.188247],[-70.772549,-34.188733],[-70.772326,-34.188727],[-70.772025,-34.188702],[-70.771681,-34.188693],[-70.771278,-34.188684],[-70.771071,-34.188624],[-70.770882,-34.188521]]]},"properties":{"comuna":"Rancagua","mancha_id":"06101-88b2c1c1b1fffff","clase":"Muy Bajo","nivel_medio":0.276,"nivel_medio_min":0.276,"nivel_medio_max":0.276,"pct_alto":9.2,"n_hexagonos":1,"area_ha":0.45}},{"type":"Feature","geometry":{"type":"Polygon","coordinates":[[[-70.766792,-34.190824],[-70.766524,-34.190975],[-70.766737,-34.189558],[-70.767841,-34.189272],[-70.76778,-34.189295],[-70.767556,-34.189406],[-70.767419,-34.18957],[-70.767316,-34.189776],[-70.767256,-34.189999],[-70.767161,-34.190257],[-70.767058,-34.190463],[-70.766921,-34.190652],[-70.766792,-34.190824]]]},"properties":{"comuna":"Rancagua","mancha_id":"06101-88b2c1c1b1fffff-2","clase":"Muy Bajo","nivel_medio":0.276,"nivel_medio_min":0.276,"nivel_medio_max":0.276,"pct_alto":9.2,"n_hexagonos":1,"area_ha":0.77}},{"type":"Feature","geometry":{"type":"Polygon","coordinates":[[[-70.787005,-34.184314],[-70.79144,-34.187205],[-70.796507,-34.185893],[-70.800943,-34.188784],[-70.80601,-34.187472],[-70.806642,-34.183268],[-70.81171,-34.181956],[-70.816146,-34.184846],[-70.821214,-34.183533],[-70.825651,-34.186424],[-70.830719,-34.18511],[-70.835156,-34.188],[-70.834742,-34.190757],[-70.834562,-34.19065],[-70.834357,-34.190486],[-70.834234,-34.190415],[-70.834071,-34.190404],[-70.833835,-34.190404],[-70.8336,-34.190394],[-70.833467,-34.190374],[-70.833334,-34.190322],[-70.83316,-34.19021],[-70.832894,-34.190108],[-70.832505,-34.189934],[-70.832198,-34.189749],[-70.83184,-34.189575],[-70.831492,-34.18936],[-70.831123,-34.189156],[-70.830755,-34.189043],[-70.830427,-34.188941],[-70.830151,-34.18891],[-70.829885,-34.18891],[-70.82967,-34.188869],[-70.829424,-34.188746],[-70.82922,-34.188593],[-70.828943,-34.188409],[-70.828728,-34.188214],[-70.828401,-34.187999],[-70.827951,-34.187744],[-70.827572,-34.187508],[-70.827316,-34.187303],[-70.827091,-34.187089],[-70.826825,-34.186915],[-70.826477,-34.186822],[-70.82619,-34.186792],[-70.825802,-34.186771],[-70.825597,-34.186777],[-70.825454,-34.186782],[-70.824962,-34.186812],[-70.824584,-34.186874],[-70.824266,-34.186945],[-70.823908,-34.187017],[-70.823571,-34.187027],[-70.823141,-34.187058],[-70.822711,-34.18715],[-70.822353,-34.187222],[-70.822005,-34.187263],[-70.821749,-34.187365],[-70.821524,-34.187344],[-70.821288,-34.187232],[-70.820951,-34.187129],[-70.820726,-34.187129],[-70.820552,-34.187181],[-70.820367,-34.187273],[-70.820132,-34.187396],[-70.819804,-34.187477],[-70.819385,-34.18758],[-70.818976,-34.1876],[-70.818638,-34.18761],[-70.818218,-34.18761],[-70.818014,-34.187549],[-70.817799,-34.187457],[-70.817594,-34.187457],[-70.817399,-34.187539],[-70.817236,-34.187631],[-70.817,-34.187754],[-70.816683,-34.187928],[-70.816417,-34.188061],[-70.8161,-34.188163],[-70.81569,-34.188255],[-70.81563,-34.188276],[-70.815424,-34.188347],[-70.81525,-34.188439],[-70.814954,-34.188542],[-70.814616,-34.188634],[-70.81437,-34.188685],[-70.814196,-34.188746],[-70.814043,-34.188808],[-70.813797,-34.188859],[-70.813459,-34.18891],[-70.813091,-34.18892],[-70.812692,-34.188972],[-70.812313,-34.189064],[-70.812109,-34.189094],[-70.811812,-34.189105],[-70.811679,-34.189135],[-70.811546,-34.189197],[-70.811443,-34.189299],[-70.811351,-34.189432],[-70.81128,-34.189575],[-70.811157,-34.189801],[-70.811003,-34.189975],[-70.81084,-34.190138],[-70.810727,-34.19023],[-70.810594,-34.190282],[-70.810451,-34.190292],[-70.810277,-34.190251],[-70.810275,-34.190251],[-70.810018,-34.190223],[-70.809597,-34.190077],[-70.809064,-34.190042],[-70.808669,-34.190102],[-70.808205,-34.190257],[-70.807878,-34.190515],[-70.807371,-34.19073],[-70.806976,-34.190919],[-70.806563,-34.190927],[-70.806177,-34.190841],[-70.805807,-34.19073],[-70.805394,-34.19067],[-70.805059,-34.190644],[-70.804449,-34.190566],[-70.80402,-34.190566],[-70.803753,-34.190498],[-70.803487,-34.190326],[-70.803289,-34.190137],[-70.802988,-34.189991],[-70.80255,-34.189836],[-70.802077,-34.189802],[-70.801656,-34.189793],[-70.801209,-34.189827],[-70.800779,-34.18987],[-70.800694,-34.189879],[-70.800247,-34.190016],[-70.799963,-34.190162],[-70.799688,-34.190309],[-70.79937,-34.190446],[-70.79907,-34.190532],[-70.798734,-34.190609],[-70.79827,-34.190678],[-70.797755,-34.19067],[-70.797351,-34.190755],[-70.796981,-34.190867],[-70.796586,-34.190979],[-70.796208,-34.191073],[-70.795873,-34.191134],[-70.795546,-34.191194],[-70.795254,-34.191262],[-70.794962,-34.191314],[-70.794584,-34.191383],[-70.794051,-34.191452],[-70.793587,-34.191452],[-70.793295,-34.1914],[-70.79302,-34.191323],[-70.792719,-34.191177],[-70.792384,-34.191039],[-70.792126,-34.190936],[-70.791851,-34.190876],[-70.791559,-34.190824],[-70.791275,-34.190764],[-70.791052,-34.190695],[-70.790919,-34.190665],[-70.790828,-34.190644],[-70.790545,-34.190558],[-70.790321,-34.190395],[-70.790106,-34.190231],[-70.789883,-34.190059],[-70.789685,-34.189905],[-70.78929,-34.189673],[-70.788877,-34.189432],[-70.788542,-34.189234],[-70.788267,-34.18902],[-70.787984,-34.188762],[-70.787674,-34.188504],[-70.787442,-34.188306],[-70.78721,-34.188143],[-70.786712,-34.188048],[-70.786325,-34.187945],[-70.786007,-34.187894],[-70.785672,-34.187834],[-70.785302,-34.187808],[-70.784873,-34.187799],[-70.784546,-34.187782],[-70.784202,-34.187808],[-70.783876,-34.187816],[-70.783575,-34.187791],[-70.783094,-34.18773],[-70.782664,-34.187619],[-70.78232,-34.187507],[-70.781985,-34.187395],[-70.781719,-34.18737],[-70.781675,-34.187371],[-70.781938,-34.185625],[-70.787005,-34.184314]]]},"properties":{"comuna":"Rancagua","mancha_id":"06101-88b2c1c1a3fffff","clase":"Muy Bajo","nivel_medio":0.274,"nivel_medio_min":0.017,"nivel_medio_max":0.459,"pct_alto":2.9,"n_hexagonos":6,"area_ha":201.66}},{"type":"Feature","geometry":{"type":"Polygon","coordinates":[[[-70.731904,-34.12989],[-70.732537,-34.125685],[-70.737601,-34.124373],[-70.742033,-34.127267],[-70.7414,-34.131473],[-70.745832,-34.134367],[-70.745199,-34.138572],[-70.740135,-34.139884],[-70.739502,-34.144088],[-70.743934,-34.146982],[-70.743301,-34.151187],[-70.747734,-34.15408],[-70.752799,-34.152769],[-70.757232,-34.155662],[-70.7566,-34.159866],[-70.751534,-34.161177],[-70.750901,-34.16538],[-70.755334,-34.168273],[-70.7604,-34.166962],[-70.764834,-34.169855],[-70.764201,-34.174058],[-70.768635,-34.17695],[-70.768002,-34.181153],[-70.762936,-34.182464],[-70.762304,-34.186666],[-70.757237,-34.187976],[-70.752804,-34.185084],[-70.747738,-34.186394],[-70.747105,-34.190596],[-70.742039,-34.191906],[-70.737606,-34.189013],[-70.732541,-34.190322],[-70.728108,-34.18743],[-70.723043,-34.188738],[-70.718611,-34.185845],[-70.719244,-34.181644],[-70.714812,-34.178751],[-70.709748,-34.180059],[-70.705316,-34.177166],[-70.70595,-34.172964],[-70.701519,-34.17007],[-70.702152,-34.165867],[-70.707216,-34.164559],[-70.707849,-34.160356],[-70.703419,-34.157462],[-70.704052,-34.153259],[-70.709116,-34.151949],[-70.713547,-34.154844],[-70.718611,-34.153534],[-70.723042,-34.156428],[-70.728107,-34.155118],[-70.72874,-34.150914],[-70.724308,-34.14802],[-70.724941,-34.143816],[-70.730006,-34.142505],[-70.730638,-34.138301],[-70.735703,-34.13699],[-70.736336,-34.132784],[-70.731904,-34.12989]],[[-70.72051,-34.17324],[-70.724942,-34.176133],[-70.730007,-34.174824],[-70.73064,-34.170621],[-70.726208,-34.167728],[-70.721143,-34.169037],[-70.72051,-34.17324]]]},"properties":{"comuna":"Rancagua","mancha_id":"06101-88b2c1c003fffff","clase":"Muy Bajo","nivel_medio":0.191,"nivel_medio_min":0.02,"nivel_medio_max":0.495,"pct_alto":4.0,"n_hexagonos":34,"area_ha":2134.49}},{"type":"Feature","geometry":{"type":"Polygon","coordinates":[[[-70.81737,-34.079407],[-70.818002,-34.075196],[-70.823068,-34.073879],[-70.827502,-34.076772],[-70.826871,-34.080983],[-70.821805,-34.082301],[-70.81737,-34.079407]]]},"properties":{"comuna":"Rancagua","mancha_id":"06101-88b2c1d8d9fffff","clase":"Bajo","nivel_medio":1.371,"nivel_medio_min":1.371,"nivel_medio_max":1.371,"pct_alto":19.5,"n_hexagonos":1,"area_ha":62.97}},{"type":"Feature","geometry":{"type":"Polygon","coordinates":[[[-70.832584,-34.107818],[-70.833215,-34.103609],[-70.838282,-34.102292],[-70.842718,-34.105184],[-70.847785,-34.103867],[-70.852221,-34.106759],[-70.85159,-34.110968],[-70.856027,-34.11386],[-70.855395,-34.118069],[-70.850328,-34.119386],[-70.845891,-34.116495],[-70.846523,-34.112286],[-70.842087,-34.109394],[-70.837019,-34.110711],[-70.836388,-34.114919],[-70.831321,-34.116236],[-70.826885,-34.113344],[-70.827517,-34.109135],[-70.832584,-34.107818]]]},"properties":{"comuna":"Rancagua","mancha_id":"06101-88b2c1d895fffff","clase":"Bajo","nivel_medio":1.267,"nivel_medio_min":1.101,"nivel_medio_max":1.465,"pct_alto":5.3,"n_hexagonos":4,"area_ha":251.73}},{"type":"Feature","geometry":{"type":"Polygon","coordinates":[[[-70.840176,-34.089662],[-70.840808,-34.085452],[-70.845874,-34.084134],[-70.846506,-34.079922],[-70.851573,-34.078604],[-70.852204,-34.074392],[-70.857271,-34.073073],[-70.861707,-34.075966],[-70.861076,-34.080178],[-70.856008,-34.081497],[-70.855377,-34.085708],[-70.859813,-34.0886],[-70.859182,-34.092811],[-70.854115,-34.094129],[-70.849679,-34.091237],[-70.844612,-34.092555],[-70.840176,-34.089662]]]},"properties":{"comuna":"Rancagua","mancha_id":"06101-88b2c1d889fffff","clase":"Bajo","nivel_medio":1.109,"nivel_medio_min":0.707,"nivel_medio_max":1.336,"pct_alto":9.5,"n_hexagonos":4,"area_ha":251.91}},{"type":"Feature","geometry":{"type":"Polygon","coordinates":[[[-70.727901,-34.214976],[-70.72431,-34.212634],[-70.722759,-34.213034],[-70.720618,-34.20866],[-70.7224,-34.207647],[-70.722776,-34.207442],[-70.723112,-34.207239],[-70.723905,-34.206758],[-70.72426,-34.20667],[-70.72417,-34.20622],[-70.72357,-34.2055],[-70.72327,-34.20481],[-70.72236,-34.20423],[-70.7219,-34.20361],[-70.72132,-34.20322],[-70.720907,-34.202912],[-70.721144,-34.201341],[-70.726209,-34.200033],[-70.730642,-34.202925],[-70.735707,-34.201617],[-70.73634,-34.197416],[-70.741406,-34.196107],[-70.742039,-34.191906],[-70.747105,-34.190596],[-70.751538,-34.193488],[-70.751268,-34.195285],[-70.751164,-34.195557],[-70.751048,-34.195723],[-70.750866,-34.195939],[-70.750683,-34.196221],[-70.750534,-34.196403],[-70.750401,-34.196752],[-70.750235,-34.197166],[-70.750102,-34.197515],[-70.750069,-34.197846],[-70.750032,-34.197915],[-70.75,-34.197976],[-70.749966,-34.19804],[-70.749749,-34.198257],[-70.749361,-34.198489],[-70.748958,-34.198614],[-70.748632,-34.19866],[-70.748337,-34.198691],[-70.747918,-34.198738],[-70.747608,-34.198846],[-70.747204,-34.19897],[-70.746708,-34.199172],[-70.74632,-34.199389],[-70.746146,-34.199497],[-70.745961,-34.199613],[-70.745727,-34.199746],[-70.7457,-34.199762],[-70.745451,-34.199917],[-70.745231,-34.200023],[-70.745027,-34.200139],[-70.744808,-34.200227],[-70.744658,-34.20033],[-70.744454,-34.200473],[-70.744256,-34.200575],[-70.744078,-34.200664],[-70.743881,-34.200739],[-70.743683,-34.20077],[-70.743497,-34.20077],[-70.743171,-34.200739],[-70.742519,-34.200754],[-70.742163,-34.200847],[-70.741914,-34.200956],[-70.741697,-34.201189],[-70.741511,-34.201421],[-70.741431,-34.201578],[-70.741329,-34.201735],[-70.741199,-34.201885],[-70.740906,-34.202058],[-70.740722,-34.202151],[-70.740496,-34.202206],[-70.740285,-34.202275],[-70.740006,-34.202414],[-70.739649,-34.202585],[-70.739184,-34.202833],[-70.738796,-34.203066],[-70.738325,-34.203324],[-70.738315,-34.20333],[-70.737943,-34.203531],[-70.737632,-34.203718],[-70.737229,-34.204059],[-70.736795,-34.204338],[-70.736469,-34.204586],[-70.736097,-34.204819],[-70.735833,-34.205052],[-70.735585,-34.205315],[-70.735367,-34.20561],[-70.735141,-34.205942],[-70.734919,-34.206132],[-70.734641,-34.206442],[-70.734482,-34.206728],[-70.734259,-34.206951],[-70.734131,-34.207036],[-70.734029,-34.207145],[-70.733947,-34.207248],[-70.733872,-34.207377],[-70.733762,-34.207582],[-70.733648,-34.207697],[-70.733416,-34.207945],[-70.733168,-34.208144],[-70.732854,-34.208292],[-70.732573,-34.208359],[-70.732242,-34.208474],[-70.732161,-34.20853],[-70.732091,-34.208578],[-70.731975,-34.208687],[-70.731829,-34.208871],[-70.73177,-34.209015],[-70.731743,-34.209226],[-70.731647,-34.209431],[-70.731564,-34.20983],[-70.731465,-34.210112],[-70.731299,-34.210327],[-70.731068,-34.210591],[-70.730969,-34.210724],[-70.730824,-34.210924],[-70.730706,-34.211119],[-70.730663,-34.211245],[-70.730613,-34.211387],[-70.73058,-34.21151],[-70.730539,-34.211617],[-70.730495,-34.211694],[-70.730443,-34.211757],[-70.73039,-34.211848],[-70.730345,-34.211935],[-70.730324,-34.212014],[-70.730324,-34.212229],[-70.73035,-34.212318],[-70.73034,-34.21241],[-70.730298,-34.212493],[-70.730208,-34.212625],[-70.730092,-34.21284],[-70.73002,-34.213124],[-70.729968,-34.213644],[-70.729866,-34.213997],[-70.72972,-34.21429],[-70.729556,-34.214523],[-70.729318,-34.214735],[-70.729099,-34.214832],[-70.728824,-34.214891],[-70.728513,-34.214891],[-70.728286,-34.214903],[-70.728001,-34.214947],[-70.727901,-34.214976]]]},"properties":{"comuna":"Rancagua","mancha_id":"06101-88b2c1ce01fffff","clase":"Bajo","nivel_medio":0.904,"nivel_medio_min":0.586,"nivel_medio_max":1.384,"pct_alto":13.8,"n_hexagonos":7,"area_ha":253.02}},{"type":"Feature","geometry":{"type":"Polygon","coordinates":[[[-70.914859,-34.14385],[-70.914984,-34.143018],[-70.915561,-34.142868],[-70.915303,-34.143224],[-70.91512,-34.143465],[-70.914877,-34.143822],[-70.914859,-34.14385]]]},"properties":{"comuna":"Rancagua","mancha_id":"06101-88b2c1cb51fffff","clase":"Bajo","nivel_medio":1.489,"nivel_medio_min":1.489,"nivel_medio_max":1.489,"pct_alto":21.5,"n_hexagonos":1,"area_ha":0.23}},{"type":"Feature","geometry":{"type":"Polygon","coordinates":[[[-70.836419,-34.179592],[-70.837051,-34.175388],[-70.842119,-34.174073],[-70.846556,-34.176963],[-70.845925,-34.181168],[-70.840856,-34.182482],[-70.836419,-34.179592]]]},"properties":{"comuna":"Rancagua","mancha_id":"06101-88b2c1ca8dfffff","clase":"Bajo","nivel_medio":1.432,"nivel_medio_min":1.432,"nivel_medio_max":1.432,"pct_alto":10.6,"n_hexagonos":1,"area_ha":62.83}},{"type":"Feature","geometry":{"type":"Polygon","coordinates":[[[-70.840225,-34.186686],[-70.844662,-34.189576],[-70.844466,-34.190877],[-70.844113,-34.190806],[-70.843737,-34.190806],[-70.843373,-34.190839],[-70.843024,-34.190983],[-70.842552,-34.191455],[-70.842539,-34.191544],[-70.84253,-34.191669],[-70.842521,-34.191719],[-70.8425,-34.191792],[-70.842438,-34.191885],[-70.842308,-34.191996],[-70.842238,-34.192044],[-70.842188,-34.192098],[-70.84194,-34.191929],[-70.841715,-34.191745],[-70.84147,-34.191602],[-70.841193,-34.191561],[-70.840968,-34.19154],[-70.840559,-34.191591],[-70.840078,-34.191643],[-70.839474,-34.191725],[-70.838973,-34.191806],[-70.838614,-34.191837],[-70.838297,-34.191898],[-70.83797,-34.191929],[-70.837652,-34.191878],[-70.837243,-34.191786],[-70.836967,-34.191776],[-70.836772,-34.191725],[-70.836588,-34.191653],[-70.836353,-34.191591],[-70.836076,-34.191438],[-70.835769,-34.191264],[-70.83538,-34.1911],[-70.835043,-34.190936],[-70.834742,-34.190757],[-70.835156,-34.188],[-70.840225,-34.186686]]]},"properties":{"comuna":"Rancagua","mancha_id":"06101-88b2c1ca87fffff","clase":"Bajo","nivel_medio":1.171,"nivel_medio_min":1.171,"nivel_medio_max":1.171,"pct_alto":32.6,"n_hexagonos":1,"area_ha":37.45}},{"type":"Feature","geometry":{"type":"Polygon","coordinates":[[[-70.872513,-34.133842],[-70.867444,-34.135159],[-70.866813,-34.139367],[-70.861745,-34.140684],[-70.857307,-34.137793],[-70.857939,-34.133585],[-70.853502,-34.130694],[-70.854133,-34.126486],[-70.859201,-34.125169],[-70.859832,-34.12096],[-70.8649,-34.119643],[-70.869337,-34.122534],[-70.868706,-34.126743],[-70.873144,-34.129633],[-70.872513,-34.133842]]]},"properties":{"comuna":"Rancagua","mancha_id":"06101-88b2c1ca43fffff","clase":"Bajo","nivel_medio":1.201,"nivel_medio_min":0.983,"nivel_medio_max":1.379,"pct_alto":9.1,"n_hexagonos":4,"area_ha":251.67}},{"type":"Feature","geometry":{"type":"Polygon","coordinates":[[[-70.782255,-34.108164],[-70.783545,-34.108171],[-70.783817,-34.108348],[-70.783266,-34.112021],[-70.783255,-34.112004],[-70.783078,-34.111898],[-70.783061,-34.111888],[-70.783041,-34.111876],[-70.782953,-34.111812],[-70.782731,-34.111653],[-70.782666,-34.111549],[-70.782669,-34.111489],[-70.782672,-34.111404],[-70.782681,-34.111159],[-70.782757,-34.110807],[-70.782763,-34.110779],[-70.782776,-34.110716],[-70.78274,-34.110537],[-70.782646,-34.110242],[-70.782633,-34.110201],[-70.78262,-34.110147],[-70.782562,-34.109917],[-70.782561,-34.109913],[-70.782461,-34.109411],[-70.782448,-34.109349],[-70.782438,-34.109318],[-70.782322,-34.108969],[-70.782318,-34.108958],[-70.782251,-34.108756],[-70.782245,-34.10874],[-70.782234,-34.108617],[-70.782223,-34.108494],[-70.782222,-34.108485],[-70.782185,-34.108362],[-70.782124,-34.108163],[-70.782255,-34.108164]]]},"properties":{"comuna":"Rancagua","mancha_id":"06101-88b2c1c333fffff","clase":"Bajo","nivel_medio":1.248,"nivel_medio_min":1.248,"nivel_medio_max":1.248,"pct_alto":2.5,"n_hexagonos":1,"area_ha":3.88}},{"type":"Feature","geometry":{"type":"Polygon","coordinates":[[[-70.686505,-34.140522],[-70.686331,-34.14168],[-70.68426,-34.142215],[-70.684287,-34.142171],[-70.684369,-34.142048],[-70.684444,-34.141972],[-70.684515,-34.141914],[-70.68466,-34.141786],[-70.68483,-34.141657],[-70.684993,-34.141529],[-70.685098,-34.14147],[-70.68525,-34.141412],[-70.685431,-34.14133],[-70.6856,-34.14126],[-70.685723,-34.141184],[-70.685822,-34.141114],[-70.68591,-34.141033],[-70.686009,-34.140945],[-70.68612,-34.140846],[-70.686231,-34.140747],[-70.686342,-34.14063],[-70.686441,-34.140566],[-70.686505,-34.140522]]]},"properties":{"comuna":"Rancagua","mancha_id":"06101-88b2c1c2b7fffff","clase":"Bajo","nivel_medio":1.065,"nivel_medio_min":1.065,"nivel_medio_max":1.065,"pct_alto":0.0,"n_hexagonos":1,"area_ha":1.25}},{"type":"Feature","geometry":{"type":"Polygon","coordinates":[[[-70.796507,-34.185893],[-70.797139,-34.18169],[-70.792704,-34.178799],[-70.793336,-34.174595],[-70.798403,-34.173283],[-70.802839,-34.176174],[-70.802207,-34.180377],[-70.806642,-34.183268],[-70.80601,-34.187472],[-70.800943,-34.188784],[-70.796507,-34.185893]]]},"properties":{"comuna":"Rancagua","mancha_id":"06101-88b2c1c1a5fffff","clase":"Bajo","nivel_medio":1.339,"nivel_medio_min":1.317,"nivel_medio_max":1.362,"pct_alto":15.3,"n_hexagonos":2,"area_ha":125.6}},{"type":"Feature","geometry":{"type":"Polygon","coordinates":[[[-70.764201,-34.174058],[-70.764834,-34.169855],[-70.7604,-34.166962],[-70.755334,-34.168273],[-70.750901,-34.16538],[-70.751534,-34.161177],[-70.7566,-34.159866],[-70.761033,-34.162758],[-70.766099,-34.161447],[-70.770532,-34.164339],[-70.775598,-34.163028],[-70.780033,-34.16592],[-70.785099,-34.164608],[-70.789534,-34.167499],[-70.788901,-34.171703],[-70.783835,-34.173016],[-70.783202,-34.177219],[-70.778136,-34.178531],[-70.777503,-34.182734],[-70.772437,-34.184045],[-70.771804,-34.188247],[-70.770792,-34.188509],[-70.770487,-34.18847],[-70.7701,-34.18847],[-70.769696,-34.18853],[-70.769464,-34.188607],[-70.769181,-34.188676],[-70.76882,-34.188839],[-70.768553,-34.188968],[-70.768218,-34.189114],[-70.767995,-34.189217],[-70.767841,-34.189272],[-70.766737,-34.189558],[-70.766524,-34.190975],[-70.766517,-34.190979],[-70.766233,-34.191073],[-70.765881,-34.191125],[-70.76558,-34.191108],[-70.765331,-34.191039],[-70.765116,-34.190962],[-70.764944,-34.190833],[-70.764772,-34.19073],[-70.764626,-34.190704],[-70.764385,-34.19067],[-70.764024,-34.190712],[-70.763767,-34.190773],[-70.763578,-34.190781],[-70.763328,-34.190841],[-70.763002,-34.190962],[-70.762778,-34.191013],[-70.762624,-34.191091],[-70.762435,-34.191194],[-70.76222,-34.191314],[-70.761988,-34.191452],[-70.761799,-34.191606],[-70.76161,-34.191778],[-70.761446,-34.191924],[-70.761283,-34.192044],[-70.761103,-34.19213],[-70.760879,-34.192199],[-70.760596,-34.192302],[-70.760226,-34.192431],[-70.759908,-34.192517],[-70.759745,-34.192594],[-70.759599,-34.192698],[-70.759444,-34.192801],[-70.759203,-34.192921],[-70.75886,-34.19305],[-70.758585,-34.193119],[-70.758327,-34.193205],[-70.758216,-34.193229],[-70.756605,-34.192178],[-70.757237,-34.187976],[-70.762304,-34.186666],[-70.762936,-34.182464],[-70.768002,-34.181153],[-70.768635,-34.17695],[-70.764201,-34.174058]]]},"properties":{"comuna":"Rancagua","mancha_id":"06101-88b2c1c181fffff","clase":"Bajo","nivel_medio":0.83,"nivel_medio_min":0.527,"nivel_medio_max":1.401,"pct_alto":16.5,"n_hexagonos":9,"area_ha":542.78}},{"type":"Feature","geometry":{"type":"Polygon","coordinates":[[[-70.805987,-34.122814],[-70.800921,-34.124129],[-70.800289,-34.128336],[-70.795222,-34.12965],[-70.790788,-34.126757],[-70.79142,-34.12255],[-70.786987,-34.119657],[-70.781921,-34.120971],[-70.777488,-34.118078],[-70.77812,-34.11387],[-70.775453,-34.11213],[-70.775595,-34.112163],[-70.775746,-34.112205],[-70.775879,-34.112272],[-70.775974,-34.112335],[-70.7761,-34.112402],[-70.77623,-34.112461],[-70.776353,-34.112496],[-70.77644,-34.112546],[-70.77657,-34.112602],[-70.776689,-34.112661],[-70.776812,-34.112721],[-70.776914,-34.112745],[-70.77704,-34.112756],[-70.777198,-34.112773],[-70.777408,-34.11277],[-70.77764,-34.112773],[-70.777896,-34.11278],[-70.778015,-34.112787],[-70.778099,-34.112809],[-70.778194,-34.112826],[-70.778338,-34.112847],[-70.778562,-34.112879],[-70.778716,-34.112893],[-70.778801,-34.112889],[-70.778927,-34.112879],[-70.779011,-34.112851],[-70.779071,-34.112805],[-70.779134,-34.112756],[-70.779218,-34.112724],[-70.779327,-34.112689],[-70.779414,-34.112672],[-70.77953,-34.112647],[-70.779667,-34.112609],[-70.779793,-34.112595],[-70.779895,-34.112584],[-70.78001,-34.11257],[-70.780147,-34.112549],[-70.780249,-34.112521],[-70.780305,-34.112489],[-70.780351,-34.112461],[-70.7804,-34.112426],[-70.780473,-34.112409],[-70.780561,-34.112402],[-70.780691,-34.112398],[-70.780786,-34.112395],[-70.78088,-34.112398],[-70.780968,-34.112433],[-70.781052,-34.112465],[-70.781119,-34.112475],[-70.781196,-34.112486],[-70.781266,-34.112486],[-70.781329,-34.112489],[-70.781427,-34.1125],[-70.781526,-34.112531],[-70.781603,-34.112563],[-70.781715,-34.112616],[-70.781831,-34.112675],[-70.781918,-34.112717],[-70.781999,-34.112721],[-70.78208,-34.112717],[-70.782171,-34.112742],[-70.782271,-34.112794],[-70.782273,-34.112795],[-70.782339,-34.112851],[-70.78243,-34.11291],[-70.782543,-34.112963],[-70.782637,-34.112991],[-70.782732,-34.113008],[-70.782893,-34.11304],[-70.782999,-34.11304],[-70.783142,-34.113061],[-70.783265,-34.113089],[-70.783363,-34.113114],[-70.783444,-34.113145],[-70.783521,-34.113201],[-70.783577,-34.113264],[-70.783633,-34.113331],[-70.783689,-34.113391],[-70.783774,-34.113464],[-70.783847,-34.113524],[-70.783914,-34.11357],[-70.784007,-34.113636],[-70.784012,-34.11364],[-70.784059,-34.11367],[-70.784059,-34.113661],[-70.78406,-34.113659],[-70.784061,-34.113644],[-70.784063,-34.113622],[-70.784064,-34.113606],[-70.78407,-34.113537],[-70.784071,-34.113531],[-70.784074,-34.11347],[-70.784078,-34.113392],[-70.784078,-34.113392],[-70.784079,-34.113374],[-70.784083,-34.113316],[-70.784085,-34.113274],[-70.784088,-34.113211],[-70.784105,-34.113168],[-70.784109,-34.113159],[-70.787619,-34.11545],[-70.792684,-34.114135],[-70.793316,-34.109927],[-70.798382,-34.108612],[-70.802816,-34.111505],[-70.802185,-34.115713],[-70.806619,-34.118606],[-70.811685,-34.117291],[-70.812317,-34.113083],[-70.807883,-34.11019],[-70.808514,-34.105982],[-70.813581,-34.104666],[-70.818015,-34.107559],[-70.817384,-34.111767],[-70.821819,-34.11466],[-70.821187,-34.118868],[-70.81612,-34.120184],[-70.815488,-34.124391],[-70.810422,-34.125706],[-70.805987,-34.122814]]]},"properties":{"comuna":"Rancagua","mancha_id":"06101-88b2c1c143fffff","clase":"Bajo","nivel_medio":1.389,"nivel_medio_min":1.079,"nivel_medio_max":1.485,"pct_alto":4.9,"n_hexagonos":9,"area_ha":506.51}},{"type":"Feature","geometry":{"type":"Polygon","coordinates":[[[-70.792694,-34.146475],[-70.793326,-34.142269],[-70.798393,-34.140956],[-70.802828,-34.143848],[-70.807894,-34.142534],[-70.81233,-34.145426],[-70.811698,-34.149631],[-70.816133,-34.152523],[-70.815501,-34.156729],[-70.819937,-34.15962],[-70.825005,-34.158306],[-70.825636,-34.1541],[-70.830704,-34.152785],[-70.83514,-34.155676],[-70.840208,-34.154361],[-70.84084,-34.150155],[-70.845908,-34.148839],[-70.850345,-34.15173],[-70.849714,-34.155936],[-70.854151,-34.158827],[-70.853519,-34.163033],[-70.848451,-34.164348],[-70.847819,-34.168554],[-70.842751,-34.169868],[-70.838314,-34.166978],[-70.833246,-34.168293],[-70.828809,-34.165402],[-70.823741,-34.166716],[-70.819305,-34.163825],[-70.814238,-34.165139],[-70.809802,-34.162248],[-70.810434,-34.158042],[-70.805999,-34.155151],[-70.800932,-34.156464],[-70.8003,-34.160669],[-70.795233,-34.161982],[-70.790798,-34.159091],[-70.79143,-34.154886],[-70.786996,-34.151994],[-70.787628,-34.147788],[-70.792694,-34.146475]]]},"properties":{"comuna":"Rancagua","mancha_id":"06101-88b2c1c115fffff","clase":"Bajo","nivel_medio":1.213,"nivel_medio_min":0.973,"nivel_medio_max":1.456,"pct_alto":5.1,"n_hexagonos":14,"area_ha":879.92}},{"type":"Feature","geometry":{"type":"Polygon","coordinates":[[[-70.804091,-34.135435],[-70.804723,-34.131228],[-70.80979,-34.129914],[-70.814225,-34.132806],[-70.813593,-34.137013],[-70.808526,-34.138327],[-70.804091,-34.135435]]]},"properties":{"comuna":"Rancagua","mancha_id":"06101-88b2c1c101fffff","clase":"Bajo","nivel_medio":1.424,"nivel_medio_min":1.424,"nivel_medio_max":1.424,"pct_alto":0.0,"n_hexagonos":1,"area_ha":62.88}},{"type":"Feature","geometry":{"type":"Polygon","coordinates":[[[-70.723042,-34.156428],[-70.718611,-34.153534],[-70.713547,-34.154844],[-70.709116,-34.151949],[-70.709749,-34.147746],[-70.714813,-34.146436],[-70.719244,-34.14933],[-70.724308,-34.14802],[-70.72874,-34.150914],[-70.728107,-34.155118],[-70.723042,-34.156428]]]},"properties":{"comuna":"Rancagua","mancha_id":"06101-88b2c1c0e1fffff","clase":"Bajo","nivel_medio":0.94,"nivel_medio_min":0.595,"nivel_medio_max":1.285,"pct_alto":22.2,"n_hexagonos":2,"area_ha":125.58}},{"type":"Feature","geometry":{"type":"Polygon","coordinates":[[[-70.72051,-34.17324],[-70.721143,-34.169037],[-70.726208,-34.167728],[-70.73064,-34.170621],[-70.730007,-34.174824],[-70.724942,-34.176133],[-70.72051,-34.17324]]]},"properties":{"comuna":"Rancagua","mancha_id":"06101-88b2c1c0a1fffff","clase":"Bajo","nivel_medio":0.512,"nivel_medio_min":0.512,"nivel_medio_max":0.512,"pct_alto":13.5,"n_hexagonos":1,"area_ha":62.76}},{"type":"Feature","geometry":{"type":"Polygon","coordinates":[[[-70.707216,-34.164559],[-70.702152,-34.165867],[-70.701519,-34.17007],[-70.70595,-34.172964],[-70.705316,-34.177166],[-70.709748,-34.180059],[-70.714812,-34.178751],[-70.719244,-34.181644],[-70.718611,-34.185845],[-70.723043,-34.188738],[-70.728108,-34.18743],[-70.732541,-34.190322],[-70.731908,-34.194524],[-70.726842,-34.195832],[-70.72241,-34.19294],[-70.717345,-34.194248],[-70.712913,-34.191355],[-70.713546,-34.187154],[-70.709114,-34.184261],[-70.706705,-34.184883],[-70.70537,-34.18283],[-70.70375,-34.18029],[-70.70263,-34.17856],[-70.70247,-34.17814],[-70.702332,-34.177936],[-70.7012,-34.17626],[-70.70083,-34.17572],[-70.69832,-34.17252],[-70.697226,-34.171179],[-70.69593,-34.16959],[-70.69476,-34.16893],[-70.69419,-34.1686],[-70.693007,-34.167897],[-70.692186,-34.167409],[-70.692658,-34.164282],[-70.688227,-34.161387],[-70.683164,-34.162695],[-70.678734,-34.1598],[-70.678283,-34.159917],[-70.678309,-34.159878],[-70.678349,-34.159798],[-70.678357,-34.159711],[-70.678357,-34.159623],[-70.678345,-34.159508],[-70.678301,-34.159437],[-70.678254,-34.159329],[-70.678202,-34.15925],[-70.678166,-34.15915],[-70.678162,-34.159091],[-70.678186,-34.159011],[-70.678258,-34.158896],[-70.678321,-34.158793],[-70.678425,-34.158606],[-70.678488,-34.158475],[-70.678516,-34.158399],[-70.678536,-34.15826],[-70.67856,-34.158073],[-70.678591,-34.157862],[-70.678631,-34.157616],[-70.678667,-34.157425],[-70.678695,-34.157246],[-70.678727,-34.157095],[-70.678766,-34.15692],[-70.678822,-34.156713],[-70.67887,-34.156483],[-70.678937,-34.15624],[-70.679021,-34.155882],[-70.6791,-34.155556],[-70.679126,-34.15544],[-70.67918,-34.155199],[-70.679255,-34.154881],[-70.679295,-34.154749],[-70.679315,-34.154678],[-70.679355,-34.154598],[-70.67943,-34.154495],[-70.679569,-34.154336],[-70.679693,-34.154165],[-70.679796,-34.154038],[-70.679836,-34.153946],[-70.67986,-34.153803],[-70.679891,-34.153597],[-70.679919,-34.153445],[-70.679943,-34.153302],[-70.679939,-34.153203],[-70.679927,-34.153068],[-70.679915,-34.152885],[-70.679903,-34.152658],[-70.679884,-34.152352],[-70.679876,-34.152173],[-70.679876,-34.152062],[-70.679907,-34.151982],[-70.679991,-34.151827],[-70.680058,-34.151652],[-70.680138,-34.151454],[-70.68021,-34.151287],[-70.680277,-34.151096],[-70.680337,-34.150917],[-70.6804,-34.150722],[-70.680456,-34.150535],[-70.680524,-34.150321],[-70.680607,-34.150074],[-70.680659,-34.149947],[-70.68073,-34.149796],[-70.680818,-34.149589],[-70.680893,-34.149442],[-70.680953,-34.149363],[-70.681044,-34.149267],[-70.681164,-34.149148],[-70.681303,-34.149025],[-70.681418,-34.148913],[-70.68147,-34.148834],[-70.681521,-34.148726],[-70.681597,-34.148571],[-70.681684,-34.148396],[-70.681816,-34.148174],[-70.681921,-34.148032],[-70.685064,-34.150087],[-70.684431,-34.15429],[-70.688861,-34.157185],[-70.693924,-34.155876],[-70.694558,-34.151673],[-70.699621,-34.150364],[-70.704052,-34.153259],[-70.703419,-34.157462],[-70.707849,-34.160356],[-70.707216,-34.164559]]]},"properties":{"comuna":"Rancagua","mancha_id":"06101-88b2c1c081fffff","clase":"Bajo","nivel_medio":1.104,"nivel_medio_min":0.539,"nivel_medio_max":1.497,"pct_alto":21.8,"n_hexagonos":12,"area_ha":599.0}},{"type":"Feature","geometry":{"type":"Polygon","coordinates":[[[-70.759819,-34.11053],[-70.759124,-34.11071],[-70.758125,-34.110058],[-70.758181,-34.110064],[-70.758393,-34.110071],[-70.758543,-34.11008],[-70.758642,-34.110094],[-70.758764,-34.110136],[-70.758912,-34.110147],[-70.759091,-34.110164],[-70.759227,-34.110192],[-70.759322,-34.110227],[-70.759378,-34.11028],[-70.759462,-34.110364],[-70.75956,-34.110431],[-70.75969,-34.110487],[-70.759819,-34.11053]]]},"properties":{"comuna":"Rancagua","mancha_id":"06101-88b2c1c069fffff","clase":"Bajo","nivel_medio":1.408,"nivel_medio_min":1.408,"nivel_medio_max":1.408,"pct_alto":0.0,"n_hexagonos":1,"area_ha":0.47}},{"type":"Feature","geometry":{"type":"Polygon","coordinates":[[[-70.739502,-34.144088],[-70.740135,-34.139884],[-70.745199,-34.138572],[-70.749632,-34.141466],[-70.754697,-34.140154],[-70.75913,-34.143047],[-70.758497,-34.147252],[-70.76293,-34.150145],[-70.767996,-34.148833],[-70.772429,-34.151726],[-70.771797,-34.155931],[-70.766731,-34.157243],[-70.762298,-34.15435],[-70.757232,-34.155662],[-70.752799,-34.152769],[-70.747734,-34.15408],[-70.743301,-34.151187],[-70.743934,-34.146982],[-70.739502,-34.144088]]]},"properties":{"comuna":"Rancagua","mancha_id":"06101-88b2c1c031fffff","clase":"Bajo","nivel_medio":1.212,"nivel_medio_min":1.007,"nivel_medio_max":1.44,"pct_alto":9.3,"n_hexagonos":5,"area_ha":314.09}},{"type":"Feature","geometry":{"type":"Polygon","coordinates":[[[-70.717345,-34.129618],[-70.712914,-34.126723],[-70.707851,-34.128033],[-70.707218,-34.132238],[-70.711648,-34.135133],[-70.711015,-34.139337],[-70.705951,-34.140647],[-70.701521,-34.137752],[-70.696458,-34.139062],[-70.692028,-34.136167],[-70.692339,-34.134098],[-70.692437,-34.133975],[-70.692505,-34.133823],[-70.692505,-34.133629],[-70.692488,-34.133393],[-70.692467,-34.133251],[-70.69266,-34.13197],[-70.692666,-34.131961],[-70.692725,-34.131873],[-70.69286,-34.131746],[-70.693105,-34.131586],[-70.693181,-34.131493],[-70.693189,-34.131375],[-70.693181,-34.131147],[-70.693198,-34.130952],[-70.69324,-34.1308],[-70.69329,-34.130522],[-70.69335,-34.130251],[-70.693442,-34.129888],[-70.693535,-34.129508],[-70.693578,-34.129356],[-70.693687,-34.129213],[-70.693822,-34.129052],[-70.693958,-34.128909],[-70.69411,-34.128833],[-70.694388,-34.128723],[-70.694633,-34.128622],[-70.694844,-34.128529],[-70.695005,-34.128394],[-70.695151,-34.128281],[-70.69528,-34.128109],[-70.695374,-34.127966],[-70.695395,-34.127858],[-70.695388,-34.127743],[-70.695395,-34.127643],[-70.69541,-34.127536],[-70.695438,-34.127399],[-70.695503,-34.127242],[-70.695589,-34.127113],[-70.695696,-34.126991],[-70.695825,-34.126912],[-70.696019,-34.126804],[-70.696177,-34.126747],[-70.696377,-34.126697],[-70.696643,-34.126682],[-70.696858,-34.12669],[-70.697109,-34.126697],[-70.697345,-34.12669],[-70.697632,-34.126675],[-70.697811,-34.126639],[-70.697912,-34.126589],[-70.698005,-34.12651],[-70.698041,-34.126424],[-70.698048,-34.126266],[-70.69805,-34.126247],[-70.69807,-34.12608],[-70.698134,-34.125958],[-70.698256,-34.125714],[-70.698378,-34.125514],[-70.698528,-34.125413],[-70.698722,-34.125363],[-70.698916,-34.125356],[-70.699023,-34.125356],[-70.699174,-34.125428],[-70.699317,-34.125506],[-70.69946,-34.125607],[-70.699611,-34.125671],[-70.699747,-34.125671],[-70.699841,-34.125657],[-70.699905,-34.125578],[-70.70002,-34.125449],[-70.70012,-34.12537],[-70.700213,-34.125363],[-70.700285,-34.125377],[-70.7004,-34.125392],[-70.700507,-34.125456],[-70.700608,-34.125542],[-70.700751,-34.125686],[-70.700866,-34.125793],[-70.700871,-34.125798],[-70.700973,-34.125886],[-70.701117,-34.125937],[-70.701267,-34.12593],[-70.701371,-34.125902],[-70.701601,-34.125794],[-70.701885,-34.125672],[-70.70207,-34.125487],[-70.702115,-34.125442],[-70.702494,-34.125104],[-70.702859,-34.124766],[-70.703211,-34.124509],[-70.703522,-34.124333],[-70.703543,-34.124324],[-70.703887,-34.124171],[-70.704144,-34.124008],[-70.704225,-34.123819],[-70.704185,-34.123616],[-70.704131,-34.123386],[-70.704144,-34.123197],[-70.704192,-34.122937],[-70.704352,-34.122736],[-70.704594,-34.122481],[-70.704701,-34.122333],[-70.704969,-34.122132],[-70.705384,-34.121945],[-70.705813,-34.121744],[-70.706323,-34.121556],[-70.706725,-34.121368],[-70.707274,-34.121301],[-70.708132,-34.121167],[-70.708588,-34.121114],[-70.708937,-34.120913],[-70.709312,-34.120645],[-70.709392,-34.120403],[-70.709486,-34.120041],[-70.709493,-34.119868],[-70.709499,-34.11972],[-70.70954,-34.119197],[-70.709513,-34.118795],[-70.709432,-34.11846],[-70.709327,-34.118225],[-70.709258,-34.118071],[-70.709178,-34.117857],[-70.709178,-34.117669],[-70.709272,-34.117468],[-70.709467,-34.117297],[-70.709486,-34.11728],[-70.709768,-34.117146],[-70.710089,-34.117133],[-70.710424,-34.117025],[-70.710652,-34.116905],[-70.710961,-34.116744],[-70.711389,-34.116476],[-70.711698,-34.116302],[-70.711939,-34.116114],[-70.711939,-34.115913],[-70.711912,-34.115685],[-70.711778,-34.115484],[-70.711577,-34.115323],[-70.711269,-34.115109],[-70.711175,-34.115047],[-70.71092,-34.114881],[-70.710773,-34.11468],[-70.710692,-34.114506],[-70.710639,-34.114304],[-70.710679,-34.114077],[-70.710733,-34.113916],[-70.710894,-34.113674],[-70.710934,-34.11346],[-70.710907,-34.113179],[-70.710826,-34.112723],[-70.710813,-34.112495],[-70.710894,-34.112374],[-70.711034,-34.112229],[-70.71116,-34.11204],[-70.711202,-34.111831],[-70.711202,-34.1116],[-70.711202,-34.111349],[-70.711307,-34.111077],[-70.711474,-34.110804],[-70.711579,-34.110511],[-70.711804,-34.110359],[-70.712168,-34.110127],[-70.712433,-34.109962],[-70.712577,-34.109807],[-70.712742,-34.109586],[-70.712919,-34.109476],[-70.713107,-34.109432],[-70.713372,-34.109376],[-70.713681,-34.109343],[-70.71399,-34.109266],[-70.714266,-34.109156],[-70.714292,-34.109145],[-70.714542,-34.109045],[-70.714719,-34.108857],[-70.714807,-34.108648],[-70.714918,-34.108361],[-70.715017,-34.108151],[-70.715072,-34.107886],[-70.715072,-34.107621],[-70.715072,-34.107422],[-70.715039,-34.107179],[-70.714906,-34.106804],[-70.714873,-34.106594],[-70.714973,-34.106428],[-70.715149,-34.10624],[-70.715403,-34.106108],[-70.715779,-34.106031],[-70.716055,-34.106031],[-70.716463,-34.106031],[-70.716949,-34.106064],[-70.717325,-34.106119],[-70.717568,-34.10613],[-70.717844,-34.10613],[-70.718164,-34.106119],[-70.718771,-34.106064],[-70.719235,-34.106053],[-70.719655,-34.106042],[-70.719942,-34.106086],[-70.720218,-34.10613],[-70.720505,-34.106222],[-70.720823,-34.106275],[-70.720857,-34.106276],[-70.721176,-34.106292],[-70.721432,-34.106292],[-70.721821,-34.106204],[-70.722219,-34.106116],[-70.722713,-34.105965],[-70.723332,-34.105753],[-70.723959,-34.105586],[-70.724436,-34.105444],[-70.724842,-34.105356],[-70.725169,-34.105303],[-70.725496,-34.105276],[-70.725673,-34.105285],[-70.725867,-34.105321],[-70.726105,-34.105382],[-70.726529,-34.105435],[-70.726945,-34.10548],[-70.727298,-34.105453],[-70.727607,-34.105391],[-70.728084,-34.105294],[-70.728367,-34.105268],[-70.728552,-34.105268],[-70.728782,-34.105303],[-70.729153,-34.105356],[-70.729612,-34.105409],[-70.72983,-34.105437],[-70.729886,-34.105444],[-70.73031,-34.105444],[-70.730726,-34.105462],[-70.730938,-34.105506],[-70.731097,-34.105586],[-70.731335,-34.10578],[-70.731338,-34.105782],[-70.731556,-34.105939],[-70.731847,-34.106098],[-70.732192,-34.106301],[-70.732554,-34.106469],[-70.73289,-34.106593],[-70.733058,-34.106655],[-70.733314,-34.106716],[-70.733579,-34.106761],[-70.733923,-34.106814],[-70.734277,-34.106902],[-70.734648,-34.10699],[-70.734904,-34.107061],[-70.735293,-34.107167],[-70.735602,-34.107246],[-70.735902,-34.107317],[-70.736238,-34.107326],[-70.736847,-34.10737],[-70.737254,-34.10745],[-70.737607,-34.107547],[-70.737899,-34.10767],[-70.738199,-34.107812],[-70.738437,-34.107971],[-70.738738,-34.108174],[-70.739029,-34.108359],[-70.739232,-34.108465],[-70.739497,-34.108554],[-70.739675,-34.108586],[-70.739912,-34.108605],[-70.739973,-34.108602],[-70.739499,-34.111754],[-70.734435,-34.113066],[-70.733802,-34.117272],[-70.728738,-34.118584],[-70.728106,-34.12279],[-70.723042,-34.124101],[-70.722409,-34.128307],[-70.717345,-34.129618]]]},"properties":{"comuna":"Rancagua","mancha_id":"06101-88b2c1c019fffff","clase":"Bajo","nivel_medio":1.24,"nivel_medio_min":0.898,"nivel_medio_max":1.446,"pct_alto":5.8,"n_hexagonos":17,"area_ha":708.96}},{"type":"Feature","geometry":{"type":"Polygon","coordinates":[[[-70.726207,-34.135406],[-70.72684,-34.131201],[-70.731904,-34.12989],[-70.736336,-34.132784],[-70.735703,-34.13699],[-70.730638,-34.138301],[-70.726207,-34.135406]]]},"properties":{"comuna":"Rancagua","mancha_id":"06101-88b2c1c015fffff","clase":"Bajo","nivel_medio":0.852,"nivel_medio_min":0.852,"nivel_medio_max":0.852,"pct_alto":23.2,"n_hexagonos":1,"area_ha":62.82}},{"type":"Feature","geometry":{"type":"Polygon","coordinates":[[[-70.747097,-34.125955],[-70.74773,-34.121749],[-70.752795,-34.120437],[-70.757227,-34.123331],[-70.756594,-34.127537],[-70.75153,-34.128849],[-70.747097,-34.125955]]]},"properties":{"comuna":"Rancagua","mancha_id":"06101-88b2c1c005fffff","clase":"Bajo","nivel_medio":1.37,"nivel_medio_min":1.37,"nivel_medio_max":1.37,"pct_alto":17.8,"n_hexagonos":1,"area_ha":62.85}},{"type":"Feature","geometry":{"type":"Polygon","coordinates":[[[-70.843947,-34.032007],[-70.838882,-34.033327],[-70.838251,-34.037541],[-70.833185,-34.038861],[-70.828751,-34.035966],[-70.829242,-34.032686],[-70.829813,-34.03251],[-70.830325,-34.032157],[-70.830902,-34.031997],[-70.831671,-34.031869],[-70.832536,-34.031965],[-70.833337,-34.032253],[-70.834074,-34.03283],[-70.835131,-34.032958],[-70.835836,-34.032785],[-70.836958,-34.032253],[-70.837166,-34.032207],[-70.837823,-34.032061],[-70.838944,-34.031965],[-70.839777,-34.032189],[-70.840899,-34.032349],[-70.841747,-34.032139],[-70.842368,-34.031717],[-70.843088,-34.030724],[-70.84356,-34.029581],[-70.844057,-34.028886],[-70.844431,-34.028777],[-70.843947,-34.032007]]]},"properties":{"comuna":"Rancagua","mancha_id":"06101-88b2c1dae9fffff","clase":"Medio","nivel_medio":2.386,"nivel_medio_min":2.333,"nivel_medio_max":2.393,"pct_alto":43.0,"n_hexagonos":2,"area_ha":60.74}},{"type":"Feature","geometry":{"type":"Polygon","coordinates":[[[-70.823054,-34.041499],[-70.817989,-34.042818],[-70.813891,-34.040142],[-70.814296,-34.040029],[-70.814777,-34.040057],[-70.815342,-34.040142],[-70.815795,-34.040057],[-70.816106,-34.039944],[-70.816559,-34.039633],[-70.817294,-34.039124],[-70.817577,-34.038615],[-70.81803,-34.038134],[-70.818426,-34.037964],[-70.818709,-34.037681],[-70.818737,-34.037342],[-70.818539,-34.036946],[-70.818454,-34.036634],[-70.818115,-34.036097],[-70.817804,-34.035446],[-70.818313,-34.035729],[-70.818832,-34.035804],[-70.819804,-34.03576],[-70.820758,-34.035654],[-70.821187,-34.035654],[-70.823686,-34.037286],[-70.823054,-34.041499]]]},"properties":{"comuna":"Rancagua","mancha_id":"06101-88b2c1da89fffff","clase":"Medio","nivel_medio":2.488,"nivel_medio_min":2.488,"nivel_medio_max":2.488,"pct_alto":54.7,"n_hexagonos":1,"area_ha":40.42}},{"type":"Feature","geometry":{"type":"Polygon","coordinates":[[[-70.931428,-34.098277],[-70.932058,-34.094065],[-70.937116,-34.092746],[-70.937165,-34.093111],[-70.937339,-34.093483],[-70.937711,-34.093732],[-70.938233,-34.09403],[-70.938506,-34.094601],[-70.93863,-34.095271],[-70.93873,-34.095992],[-70.938705,-34.096836],[-70.938531,-34.098078],[-70.938531,-34.099419],[-70.938481,-34.100189],[-70.938514,-34.100477],[-70.938581,-34.101058],[-70.93873,-34.101257],[-70.939127,-34.101555],[-70.939561,-34.101818],[-70.94015,-34.102289],[-70.940621,-34.102849],[-70.940768,-34.103349],[-70.941033,-34.103908],[-70.941151,-34.104585],[-70.94118,-34.105145],[-70.941328,-34.105763],[-70.941504,-34.106146],[-70.941337,-34.106596],[-70.941114,-34.106969],[-70.940468,-34.107366],[-70.939599,-34.107863],[-70.939373,-34.10807],[-70.935237,-34.105379],[-70.930167,-34.1067],[-70.925728,-34.10381],[-70.926358,-34.099599],[-70.931428,-34.098277]]]},"properties":{"comuna":"Rancagua","mancha_id":"06101-88b2c1d9e1fffff","clase":"Medio","nivel_medio":2.418,"nivel_medio_min":2.362,"nivel_medio_max":2.476,"pct_alto":44.5,"n_hexagonos":3,"area_ha":142.03}},{"type":"Feature","geometry":{"type":"Polygon","coordinates":[[[-70.93539,-34.119341],[-70.933347,-34.118011],[-70.928277,-34.119332],[-70.923837,-34.116442],[-70.924467,-34.112232],[-70.929537,-34.110911],[-70.933977,-34.113801],[-70.939023,-34.112486],[-70.938953,-34.11288],[-70.938879,-34.113153],[-70.93863,-34.113401],[-70.938307,-34.113824],[-70.938009,-34.114469],[-70.937711,-34.114991],[-70.937438,-34.115339],[-70.936619,-34.115984],[-70.936196,-34.116282],[-70.935625,-34.116903],[-70.935228,-34.117276],[-70.935203,-34.117524],[-70.935289,-34.118095],[-70.935343,-34.11897],[-70.93539,-34.119341]]]},"properties":{"comuna":"Rancagua","mancha_id":"06101-88b2c1d9a1fffff","clase":"Medio","nivel_medio":2.343,"nivel_medio_min":1.787,"nivel_medio_max":2.49,"pct_alto":48.0,"n_hexagonos":2,"area_ha":80.41}},{"type":"Feature","geometry":{"type":"Polygon","coordinates":[[[-70.84207,-34.07703],[-70.842702,-34.072818],[-70.847768,-34.071499],[-70.852204,-34.074392],[-70.851573,-34.078604],[-70.846506,-34.079922],[-70.845874,-34.084134],[-70.840808,-34.085452],[-70.836372,-34.082559],[-70.837004,-34.078348],[-70.84207,-34.07703]]]},"properties":{"comuna":"Rancagua","mancha_id":"06101-88b2c1d8c1fffff","clase":"Medio","nivel_medio":1.854,"nivel_medio_min":1.799,"nivel_medio_max":1.91,"pct_alto":33.6,"n_hexagonos":2,"area_ha":125.96}},{"type":"Feature","geometry":{"type":"Polygon","coordinates":[[[-70.889567,-34.052513],[-70.890197,-34.048299],[-70.891081,-34.048068],[-70.891145,-34.048407],[-70.891219,-34.049326],[-70.891461,-34.050307],[-70.891581,-34.050553],[-70.891629,-34.050811],[-70.891611,-34.051015],[-70.891511,-34.051169],[-70.891384,-34.051287],[-70.890987,-34.051429],[-70.890489,-34.051669],[-70.890147,-34.051975],[-70.889804,-34.052505],[-70.889745,-34.052629],[-70.889567,-34.052513]]]},"properties":{"comuna":"Rancagua","mancha_id":"06101-88b2c1d80dfffff","clase":"Medio","nivel_medio":2.288,"nivel_medio_min":2.288,"nivel_medio_max":2.288,"pct_alto":40.3,"n_hexagonos":1,"area_ha":5.22}},{"type":"Feature","geometry":{"type":"Polygon","coordinates":[[[-70.874365,-34.056476],[-70.874996,-34.052262],[-70.870559,-34.049369],[-70.87119,-34.045155],[-70.866754,-34.042262],[-70.861688,-34.043583],[-70.861057,-34.047797],[-70.85599,-34.049117],[-70.855359,-34.05333],[-70.859795,-34.056223],[-70.864862,-34.054903],[-70.869298,-34.057796],[-70.868667,-34.062009],[-70.8636,-34.063329],[-70.862969,-34.067542],[-70.867405,-34.070434],[-70.866774,-34.074647],[-70.861707,-34.075966],[-70.857271,-34.073073],[-70.857902,-34.068861],[-70.853466,-34.065968],[-70.854097,-34.061756],[-70.849662,-34.058863],[-70.850293,-34.05465],[-70.845858,-34.051756],[-70.846489,-34.047543],[-70.851555,-34.046223],[-70.852186,-34.042009],[-70.857252,-34.040689],[-70.857883,-34.036475],[-70.86295,-34.035154],[-70.867385,-34.038048],[-70.870121,-34.037335],[-70.870755,-34.037454],[-70.872543,-34.037628],[-70.873804,-34.037608],[-70.876888,-34.03962],[-70.879667,-34.038895],[-70.880267,-34.039168],[-70.881509,-34.03964],[-70.882502,-34.039764],[-70.883446,-34.039913],[-70.883843,-34.039814],[-70.884172,-34.039744],[-70.884315,-34.039714],[-70.884737,-34.039789],[-70.88506,-34.039739],[-70.885482,-34.03959],[-70.886128,-34.039168],[-70.886724,-34.039069],[-70.887395,-34.039019],[-70.887991,-34.03892],[-70.888239,-34.039044],[-70.888388,-34.039168],[-70.888289,-34.039838],[-70.888338,-34.04041],[-70.888424,-34.040661],[-70.886391,-34.041192],[-70.885761,-34.045406],[-70.880693,-34.046727],[-70.880063,-34.050941],[-70.884499,-34.053834],[-70.883869,-34.058048],[-70.878801,-34.059369],[-70.874365,-34.056476]]]},"properties":{"comuna":"Rancagua","mancha_id":"06101-88b2c1d80bfffff","clase":"Medio","nivel_medio":2.346,"nivel_medio_min":2.209,"nivel_medio_max":2.453,"pct_alto":37.0,"n_hexagonos":12,"area_ha":693.94}},{"type":"Feature","geometry":{"type":"Polygon","coordinates":[[[-70.909083,-34.149884],[-70.909283,-34.148545],[-70.91279,-34.147633],[-70.912744,-34.147758],[-70.912554,-34.148028],[-70.912251,-34.148332],[-70.911737,-34.148659],[-70.911037,-34.149079],[-70.91029,-34.149313],[-70.909589,-34.149546],[-70.909083,-34.149884]]]},"properties":{"comuna":"Rancagua","mancha_id":"06101-88b2c1cb53fffff","clase":"Medio","nivel_medio":2.478,"nivel_medio_min":2.478,"nivel_medio_max":2.478,"pct_alto":47.8,"n_hexagonos":1,"area_ha":3.16}},{"type":"Feature","geometry":{"type":"Polygon","coordinates":[[[-70.807871,-34.07783],[-70.808502,-34.07362],[-70.813568,-34.072303],[-70.8142,-34.068091],[-70.809766,-34.065197],[-70.810397,-34.060986],[-70.805964,-34.058091],[-70.806596,-34.053879],[-70.811661,-34.052561],[-70.816094,-34.055456],[-70.815463,-34.059668],[-70.819897,-34.062562],[-70.824962,-34.061244],[-70.825594,-34.057032],[-70.83066,-34.055713],[-70.835094,-34.058607],[-70.834463,-34.062819],[-70.838898,-34.065713],[-70.838266,-34.069925],[-70.8332,-34.071243],[-70.828765,-34.06835],[-70.823699,-34.069668],[-70.823068,-34.073879],[-70.818002,-34.075196],[-70.81737,-34.079407],[-70.821805,-34.082301],[-70.826871,-34.080983],[-70.831306,-34.083876],[-70.830674,-34.088087],[-70.825608,-34.089404],[-70.821173,-34.086511],[-70.816107,-34.087828],[-70.811673,-34.084934],[-70.812305,-34.080724],[-70.807871,-34.07783]]]},"properties":{"comuna":"Rancagua","mancha_id":"06101-88b2c1c365fffff","clase":"Medio","nivel_medio":2.298,"nivel_medio_min":1.976,"nivel_medio_max":2.463,"pct_alto":43.5,"n_hexagonos":9,"area_ha":566.79}},{"type":"Feature","geometry":{"type":"Polygon","coordinates":[[[-70.747105,-34.190596],[-70.747738,-34.186394],[-70.752804,-34.185084],[-70.757237,-34.187976],[-70.756605,-34.192178],[-70.751538,-34.193488],[-70.747105,-34.190596]]]},"properties":{"comuna":"Rancagua","mancha_id":"06101-88b2c1c197fffff","clase":"Medio","nivel_medio":1.588,"nivel_medio_min":1.588,"nivel_medio_max":1.588,"pct_alto":46.3,"n_hexagonos":1,"area_ha":62.76}},{"type":"Feature","geometry":{"type":"Polygon","coordinates":[[[-70.802185,-34.115713],[-70.802816,-34.111505],[-70.798382,-34.108612],[-70.793316,-34.109927],[-70.792684,-34.114135],[-70.787619,-34.11545],[-70.784109,-34.113159],[-70.784124,-34.113121],[-70.784128,-34.11311],[-70.784137,-34.113087],[-70.784137,-34.113063],[-70.784137,-34.113051],[-70.784137,-34.113005],[-70.784101,-34.112954],[-70.784082,-34.112928],[-70.78407,-34.112911],[-70.784003,-34.112868],[-70.783969,-34.112845],[-70.783767,-34.112762],[-70.783666,-34.112691],[-70.783666,-34.11269],[-70.7836,-34.112643],[-70.783466,-34.112492],[-70.783407,-34.112352],[-70.783356,-34.112188],[-70.783344,-34.11215],[-70.783344,-34.112149],[-70.783266,-34.112021],[-70.783817,-34.108348],[-70.784018,-34.108296],[-70.784129,-34.108334],[-70.784438,-34.108512],[-70.784803,-34.108594],[-70.784827,-34.108086],[-70.788883,-34.107034],[-70.789515,-34.102825],[-70.79458,-34.10151],[-70.799014,-34.104404],[-70.80408,-34.103088],[-70.808514,-34.105982],[-70.807883,-34.11019],[-70.812317,-34.113083],[-70.811685,-34.117291],[-70.806619,-34.118606],[-70.802185,-34.115713]]]},"properties":{"comuna":"Rancagua","mancha_id":"06101-88b2c1c141fffff","clase":"Medio","nivel_medio":1.833,"nivel_medio_min":1.549,"nivel_medio_max":2.315,"pct_alto":16.2,"n_hexagonos":4,"area_ha":251.14}},{"type":"Feature","geometry":{"type":"Polygon","coordinates":[[[-70.705951,-34.140647],[-70.705318,-34.144851],[-70.709749,-34.147746],[-70.709116,-34.151949],[-70.704052,-34.153259],[-70.699621,-34.150364],[-70.694558,-34.151673],[-70.693924,-34.155876],[-70.688861,-34.157185],[-70.684431,-34.15429],[-70.685064,-34.150087],[-70.681921,-34.148032],[-70.681955,-34.147987],[-70.682102,-34.147792],[-70.682249,-34.147613],[-70.682444,-34.147395],[-70.682635,-34.147148],[-70.682806,-34.146949],[-70.682941,-34.146782],[-70.683064,-34.146651],[-70.683179,-34.146532],[-70.683267,-34.146425],[-70.683287,-34.146357],[-70.683287,-34.146278],[-70.683287,-34.146154],[-70.683287,-34.146023],[-70.683314,-34.1459],[-70.683342,-34.145777],[-70.68337,-34.145661],[-70.683361,-34.145497],[-70.683429,-34.145247],[-70.683439,-34.145114],[-70.683439,-34.145114],[-70.683442,-34.14508],[-70.683446,-34.145019],[-70.68347,-34.144932],[-70.68354,-34.14478],[-70.683627,-34.144605],[-70.683721,-34.144424],[-70.683884,-34.144097],[-70.683966,-34.14391],[-70.684013,-34.143788],[-70.684007,-34.143665],[-70.684013,-34.143403],[-70.684001,-34.143105],[-70.684007,-34.142737],[-70.684036,-34.142638],[-70.684083,-34.142544],[-70.684135,-34.142434],[-70.684199,-34.142317],[-70.68426,-34.142215],[-70.686331,-34.14168],[-70.686505,-34.140522],[-70.686598,-34.140461],[-70.686797,-34.140332],[-70.686919,-34.14025],[-70.687041,-34.140199],[-70.687303,-34.140056],[-70.687658,-34.139844],[-70.687903,-34.139692],[-70.688097,-34.139498],[-70.6883,-34.139296],[-70.688511,-34.139076],[-70.688756,-34.138814],[-70.68906,-34.138476],[-70.689195,-34.138308],[-70.689256,-34.138275],[-70.689431,-34.138181],[-70.689464,-34.138164],[-70.689575,-34.138105],[-70.689668,-34.137953],[-70.689811,-34.137733],[-70.68985,-34.13769],[-70.689955,-34.137573],[-70.690073,-34.137421],[-70.690242,-34.137277],[-70.690453,-34.137117],[-70.690597,-34.136931],[-70.690774,-34.136703],[-70.690909,-34.136526],[-70.690965,-34.136442],[-70.692028,-34.136167],[-70.696458,-34.139062],[-70.701521,-34.137752],[-70.705951,-34.140647]]]},"properties":{"comuna":"Rancagua","mancha_id":"06101-88b2c1c0c1fffff","clase":"Medio","nivel_medio":1.832,"nivel_medio_min":1.606,"nivel_medio_max":2.269,"pct_alto":35.4,"n_hexagonos":6,"area_ha":356.62}},{"type":"Feature","geometry":{"type":"Polygon","coordinates":[[[-70.713546,-34.187154],[-70.712913,-34.191355],[-70.717345,-34.194248],[-70.72241,-34.19294],[-70.726842,-34.195832],[-70.731908,-34.194524],[-70.732541,-34.190322],[-70.737606,-34.189013],[-70.742039,-34.191906],[-70.741406,-34.196107],[-70.73634,-34.197416],[-70.735707,-34.201617],[-70.730642,-34.202925],[-70.726209,-34.200033],[-70.721144,-34.201341],[-70.720907,-34.202912],[-70.72073,-34.20278],[-70.71976,-34.20245],[-70.71881,-34.20217],[-70.7181,-34.20176],[-70.7176,-34.20137],[-70.71705,-34.20063],[-70.71648,-34.20007],[-70.71574,-34.19935],[-70.715318,-34.198808],[-70.71514,-34.19858],[-70.71437,-34.19779],[-70.71377,-34.19712],[-70.71348,-34.1964],[-70.71291,-34.19595],[-70.71153,-34.1954],[-70.71119,-34.19493],[-70.71089,-34.19461],[-70.71064,-34.19444],[-70.70974,-34.19392],[-70.70956,-34.19337],[-70.70928,-34.19276],[-70.70918,-34.19238],[-70.709407,-34.19226],[-70.7099,-34.192],[-70.71001,-34.19171],[-70.70998,-34.19105],[-70.70916,-34.18964],[-70.70905,-34.18912],[-70.70849,-34.18821],[-70.70815,-34.18736],[-70.70767,-34.18639],[-70.7071,-34.18549],[-70.706705,-34.184883],[-70.709114,-34.184261],[-70.713546,-34.187154]]]},"properties":{"comuna":"Rancagua","mancha_id":"06101-88b2c1c0b7fffff","clase":"Medio","nivel_medio":1.981,"nivel_medio_min":1.802,"nivel_medio_max":2.407,"pct_alto":43.4,"n_hexagonos":6,"area_ha":262.27}},{"type":"Feature","geometry":{"type":"Polygon","coordinates":[[[-70.678734,-34.1598],[-70.683164,-34.162695],[-70.682948,-34.16413],[-70.682663,-34.164008],[-70.68114,-34.16335],[-70.68104,-34.16331],[-70.680399,-34.16275],[-70.67984,-34.16226],[-70.679029,-34.161922],[-70.6784,-34.16166],[-70.67806,-34.16157],[-70.67754,-34.16165],[-70.67733,-34.16161],[-70.67702,-34.1615],[-70.67675,-34.16138],[-70.67659,-34.161263],[-70.676675,-34.16117],[-70.676842,-34.161007],[-70.676989,-34.160824],[-70.677176,-34.160689],[-70.677367,-34.160566],[-70.677546,-34.160458],[-70.677792,-34.160291],[-70.677979,-34.160188],[-70.678106,-34.160089],[-70.678254,-34.159961],[-70.678283,-34.159917],[-70.678734,-34.1598]]]},"properties":{"comuna":"Rancagua","mancha_id":"06101-88b2c1c099fffff","clase":"Medio","nivel_medio":1.993,"nivel_medio_min":1.993,"nivel_medio_max":1.993,"pct_alto":7.1,"n_hexagonos":1,"area_ha":10.65}},{"type":"Feature","geometry":{"type":"Polygon","coordinates":[[[-70.742033,-34.127267],[-70.737601,-34.124373],[-70.732537,-34.125685],[-70.731904,-34.12989],[-70.72684,-34.131201],[-70.726207,-34.135406],[-70.730638,-34.138301],[-70.730006,-34.142505],[-70.724941,-34.143816],[-70.724308,-34.14802],[-70.719244,-34.14933],[-70.714813,-34.146436],[-70.715446,-34.142232],[-70.72051,-34.140922],[-70.721143,-34.136717],[-70.716712,-34.133823],[-70.711648,-34.135133],[-70.707218,-34.132238],[-70.707851,-34.128033],[-70.712914,-34.126723],[-70.717345,-34.129618],[-70.722409,-34.128307],[-70.723042,-34.124101],[-70.728106,-34.12279],[-70.728738,-34.118584],[-70.733802,-34.117272],[-70.734435,-34.113066],[-70.739499,-34.111754],[-70.739973,-34.108602],[-70.740276,-34.108586],[-70.740583,-34.108561],[-70.74096,-34.108503],[-70.74119,-34.108439],[-70.741491,-34.108369],[-70.741702,-34.108311],[-70.742041,-34.108222],[-70.742367,-34.108132],[-70.74259,-34.108049],[-70.74275,-34.108043],[-70.742878,-34.108068],[-70.743031,-34.108126],[-70.743198,-34.108203],[-70.743377,-34.108337],[-70.743549,-34.108465],[-70.743741,-34.108605],[-70.743984,-34.108797],[-70.744214,-34.108931],[-70.744387,-34.108995],[-70.744617,-34.109085],[-70.744828,-34.109129],[-70.745077,-34.109155],[-70.745384,-34.109161],[-70.745563,-34.109161],[-70.74571,-34.1092],[-70.745857,-34.109238],[-70.745991,-34.109328],[-70.746119,-34.10943],[-70.746285,-34.109564],[-70.746407,-34.109686],[-70.746617,-34.109871],[-70.74672,-34.109935],[-70.746931,-34.110056],[-70.747154,-34.110191],[-70.747308,-34.110267],[-70.747442,-34.110312],[-70.747679,-34.110357],[-70.74796,-34.110402],[-70.748286,-34.110446],[-70.74851,-34.110465],[-70.748784,-34.110478],[-70.749072,-34.110465],[-70.749226,-34.110453],[-70.749353,-34.110414],[-70.749436,-34.1104],[-70.749539,-34.110382],[-70.74975,-34.110331],[-70.749935,-34.11028],[-70.75,-34.110244],[-70.75005,-34.110216],[-70.750146,-34.110133],[-70.750248,-34.11005],[-70.750338,-34.109967],[-70.750453,-34.109916],[-70.750574,-34.109835],[-70.750705,-34.10977],[-70.750806,-34.109734],[-70.750972,-34.109704],[-70.751143,-34.109649],[-70.751264,-34.109608],[-70.75141,-34.109608],[-70.751698,-34.109608],[-70.75196,-34.109613],[-70.752298,-34.109618],[-70.7526,-34.109608],[-70.752772,-34.109588],[-70.752898,-34.109553],[-70.753124,-34.109548],[-70.753427,-34.109553],[-70.753669,-34.109543],[-70.754052,-34.109553],[-70.75442,-34.109563],[-70.754652,-34.109593],[-70.754869,-34.109644],[-70.755141,-34.109684],[-70.755373,-34.109714],[-70.755569,-34.109714],[-70.755776,-34.109734],[-70.756058,-34.109785],[-70.756245,-34.109815],[-70.756386,-34.109824],[-70.756578,-34.109838],[-70.756832,-34.109831],[-70.756962,-34.109859],[-70.757064,-34.109907],[-70.757195,-34.109907],[-70.757291,-34.109907],[-70.757393,-34.10992],[-70.757551,-34.109982],[-70.757701,-34.110009],[-70.757948,-34.110037],[-70.758125,-34.110058],[-70.759124,-34.11071],[-70.759819,-34.11053],[-70.759827,-34.110532],[-70.759946,-34.11056],[-70.760118,-34.11056],[-70.76023,-34.110567],[-70.760385,-34.110557],[-70.760486,-34.110536],[-70.760592,-34.110508],[-70.760732,-34.110476],[-70.760918,-34.110438],[-70.761044,-34.110424],[-70.761202,-34.110406],[-70.761339,-34.110392],[-70.761426,-34.11034],[-70.761539,-34.110262],[-70.761668,-34.110206],[-70.761802,-34.110178],[-70.761928,-34.110175],[-70.762089,-34.110178],[-70.762212,-34.110189],[-70.762324,-34.110227],[-70.762454,-34.110248],[-70.762689,-34.110248],[-70.762924,-34.110248],[-70.763152,-34.110238],[-70.763289,-34.110199],[-70.763443,-34.110157],[-70.76359,-34.110143],[-70.763741,-34.110157],[-70.763941,-34.110164],[-70.764169,-34.110154],[-70.764355,-34.11014],[-70.764537,-34.110122],[-70.76473,-34.110115],[-70.764926,-34.110094],[-70.765196,-34.110066],[-70.765212,-34.110064],[-70.765421,-34.110038],[-70.765663,-34.109996],[-70.765835,-34.10995],[-70.765975,-34.109926],[-70.766133,-34.109919],[-70.766284,-34.109898],[-70.766455,-34.109877],[-70.766697,-34.109856],[-70.766943,-34.109824],[-70.767178,-34.109789],[-70.767325,-34.109757],[-70.76743,-34.109736],[-70.767564,-34.109733],[-70.767753,-34.109708],[-70.767946,-34.109691],[-70.768195,-34.10967],[-70.768381,-34.109652],[-70.768525,-34.109649],[-70.768718,-34.109638],[-70.768977,-34.109645],[-70.769135,-34.109663],[-70.769268,-34.10968],[-70.769398,-34.109736],[-70.769493,-34.109782],[-70.769605,-34.109817],[-70.769717,-34.109859],[-70.769871,-34.109905],[-70.769984,-34.109933],[-70.770103,-34.109978],[-70.770219,-34.110041],[-70.770359,-34.110101],[-70.770503,-34.110154],[-70.770646,-34.110182],[-70.770794,-34.110213],[-70.770927,-34.110234],[-70.771043,-34.110273],[-70.771197,-34.110333],[-70.771369,-34.110417],[-70.771558,-34.110497],[-70.771723,-34.11056],[-70.77187,-34.11062],[-70.771983,-34.110659],[-70.772133,-34.110697],[-70.77226,-34.110736],[-70.772432,-34.110785],[-70.772565,-34.11082],[-70.772684,-34.110876],[-70.772824,-34.110943],[-70.772944,-34.111006],[-70.773031,-34.111055],[-70.773119,-34.111066],[-70.77328,-34.111069],[-70.773335,-34.111068],[-70.773473,-34.111066],[-70.773568,-34.111062],[-70.773642,-34.111066],[-70.773712,-34.111097],[-70.773796,-34.111178],[-70.773873,-34.111279],[-70.77395,-34.111402],[-70.77402,-34.111514],[-70.774097,-34.111623],[-70.774189,-34.111707],[-70.774287,-34.111791],[-70.774413,-34.111869],[-70.77455,-34.111925],[-70.774659,-34.111991],[-70.774785,-34.11203],[-70.77488,-34.11204],[-70.774988,-34.112044],[-70.775086,-34.112051],[-70.775234,-34.112086],[-70.775416,-34.112121],[-70.775453,-34.11213],[-70.77812,-34.11387],[-70.777488,-34.118078],[-70.781921,-34.120971],[-70.786987,-34.119657],[-70.79142,-34.12255],[-70.790788,-34.126757],[-70.795222,-34.12965],[-70.800289,-34.128336],[-70.800921,-34.124129],[-70.805987,-34.122814],[-70.810422,-34.125706],[-70.815488,-34.124391],[-70.81612,-34.120184],[-70.821187,-34.118868],[-70.821819,-34.11466],[-70.817384,-34.111767],[-70.818015,-34.107559],[-70.813581,-34.104666],[-70.814212,-34.100457],[-70.819279,-34.09914],[-70.823713,-34.102033],[-70.82878,-34.100717],[-70.829411,-34.096507],[-70.834478,-34.09519],[-70.83511,-34.09098],[-70.840176,-34.089662],[-70.844612,-34.092555],[-70.849679,-34.091237],[-70.854115,-34.094129],[-70.859182,-34.092811],[-70.859813,-34.0886],[-70.855377,-34.085708],[-70.856008,-34.081497],[-70.861076,-34.080178],[-70.865512,-34.08307],[-70.870579,-34.081751],[-70.875016,-34.084643],[-70.874385,-34.088854],[-70.878822,-34.091746],[-70.878192,-34.095957],[-70.882629,-34.098848],[-70.887697,-34.097529],[-70.888328,-34.093318],[-70.883891,-34.090426],[-70.884521,-34.086215],[-70.889589,-34.084895],[-70.89022,-34.080683],[-70.895288,-34.079362],[-70.895664,-34.076856],[-70.896509,-34.077092],[-70.897453,-34.077837],[-70.898422,-34.078334],[-70.899341,-34.078756],[-70.900235,-34.079004],[-70.900905,-34.07893],[-70.901253,-34.078632],[-70.902544,-34.078011],[-70.903935,-34.07734],[-70.904879,-34.076868],[-70.905415,-34.076789],[-70.904795,-34.080933],[-70.899726,-34.082254],[-70.899096,-34.086466],[-70.903534,-34.089357],[-70.902903,-34.093569],[-70.907342,-34.09646],[-70.912411,-34.095139],[-70.913041,-34.090927],[-70.91811,-34.089606],[-70.918741,-34.085394],[-70.914302,-34.082503],[-70.914665,-34.080074],[-70.914888,-34.079973],[-70.915633,-34.0796],[-70.916527,-34.079004],[-70.917205,-34.078496],[-70.91817,-34.078037],[-70.918966,-34.077953],[-70.919731,-34.078185],[-70.92051,-34.078279],[-70.921419,-34.078433],[-70.922487,-34.079054],[-70.92358,-34.079501],[-70.924431,-34.079917],[-70.92381,-34.084072],[-70.928249,-34.086963],[-70.927619,-34.091175],[-70.922549,-34.092497],[-70.921919,-34.096708],[-70.916849,-34.098029],[-70.916219,-34.102241],[-70.91115,-34.103561],[-70.910519,-34.107772],[-70.90545,-34.109092],[-70.901011,-34.106202],[-70.895942,-34.107521],[-70.895312,-34.111732],[-70.89975,-34.114622],[-70.904819,-34.113302],[-70.909258,-34.116193],[-70.908628,-34.120403],[-70.913067,-34.123293],[-70.918137,-34.121973],[-70.922576,-34.124862],[-70.921946,-34.129072],[-70.916876,-34.130392],[-70.912436,-34.127502],[-70.907366,-34.128821],[-70.902928,-34.125932],[-70.897858,-34.127251],[-70.89342,-34.12436],[-70.88835,-34.125679],[-70.88772,-34.129888],[-70.892158,-34.132778],[-70.891527,-34.136987],[-70.886458,-34.138305],[-70.88202,-34.135414],[-70.876951,-34.136732],[-70.87632,-34.14094],[-70.871251,-34.142257],[-70.87062,-34.146465],[-70.875058,-34.149355],[-70.874427,-34.153562],[-70.869357,-34.154879],[-70.868726,-34.159085],[-70.863657,-34.160401],[-70.863026,-34.164607],[-70.867464,-34.167497],[-70.866833,-34.171703],[-70.861763,-34.173018],[-70.861132,-34.177223],[-70.856063,-34.178539],[-70.855432,-34.182743],[-70.850362,-34.184058],[-70.849731,-34.188262],[-70.844662,-34.189576],[-70.840225,-34.186686],[-70.835156,-34.188],[-70.830719,-34.18511],[-70.825651,-34.186424],[-70.821214,-34.183533],[-70.816146,-34.184846],[-70.81171,-34.181956],[-70.806642,-34.183268],[-70.802207,-34.180377],[-70.802839,-34.176174],[-70.798403,-34.173283],[-70.793336,-34.174595],[-70.792704,-34.178799],[-70.797139,-34.18169],[-70.796507,-34.185893],[-70.79144,-34.187205],[-70.787005,-34.184314],[-70.781938,-34.185625],[-70.781675,-34.187371],[-70.781495,-34.187378],[-70.781281,-34.187421],[-70.7811,-34.187516],[-70.780963,-34.187636],[-70.780739,-34.18773],[-70.780473,-34.187765],[-70.780284,-34.187713],[-70.779837,-34.187636],[-70.779433,-34.187524],[-70.779158,-34.187318],[-70.778909,-34.187189],[-70.778617,-34.187163],[-70.778238,-34.187137],[-70.777895,-34.187137],[-70.777491,-34.18712],[-70.777181,-34.187086],[-70.776846,-34.18706],[-70.776537,-34.187034],[-70.776262,-34.186966],[-70.776116,-34.186925],[-70.775927,-34.186931],[-70.775678,-34.187034],[-70.775351,-34.18712],[-70.775185,-34.187181],[-70.775024,-34.187301],[-70.774741,-34.187516],[-70.774535,-34.187713],[-70.774346,-34.187868],[-70.774096,-34.188066],[-70.77389,-34.188323],[-70.773675,-34.188521],[-70.773495,-34.188633],[-70.773263,-34.188719],[-70.773005,-34.188727],[-70.772678,-34.188736],[-70.772549,-34.188733],[-70.771804,-34.188247],[-70.772437,-34.184045],[-70.777503,-34.182734],[-70.778136,-34.178531],[-70.783202,-34.177219],[-70.783835,-34.173016],[-70.788901,-34.171703],[-70.789534,-34.167499],[-70.785099,-34.164608],[-70.780033,-34.16592],[-70.775598,-34.163028],[-70.770532,-34.164339],[-70.766099,-34.161447],[-70.761033,-34.162758],[-70.7566,-34.159866],[-70.757232,-34.155662],[-70.762298,-34.15435],[-70.766731,-34.157243],[-70.771797,-34.155931],[-70.776231,-34.158823],[-70.781297,-34.157511],[-70.781929,-34.153306],[-70.786996,-34.151994],[-70.79143,-34.154886],[-70.790798,-34.159091],[-70.795233,-34.161982],[-70.8003,-34.160669],[-70.800932,-34.156464],[-70.805999,-34.155151],[-70.810434,-34.158042],[-70.809802,-34.162248],[-70.814238,-34.165139],[-70.819305,-34.163825],[-70.823741,-34.166716],[-70.828809,-34.165402],[-70.833246,-34.168293],[-70.838314,-34.166978],[-70.842751,-34.169868],[-70.847819,-34.168554],[-70.848451,-34.164348],[-70.853519,-34.163033],[-70.854151,-34.158827],[-70.849714,-34.155936],[-70.850345,-34.15173],[-70.845908,-34.148839],[-70.84084,-34.150155],[-70.840208,-34.154361],[-70.83514,-34.155676],[-70.830704,-34.152785],[-70.825636,-34.1541],[-70.825005,-34.158306],[-70.819937,-34.15962],[-70.815501,-34.156729],[-70.816133,-34.152523],[-70.811698,-34.149631],[-70.81233,-34.145426],[-70.807894,-34.142534],[-70.802828,-34.143848],[-70.798393,-34.140956],[-70.793326,-34.142269],[-70.792694,-34.146475],[-70.787628,-34.147788],[-70.783194,-34.144896],[-70.778128,-34.146209],[-70.773694,-34.143316],[-70.768628,-34.144628],[-70.767996,-34.148833],[-70.76293,-34.150145],[-70.758497,-34.147252],[-70.75913,-34.143047],[-70.754697,-34.140154],[-70.749632,-34.141466],[-70.745199,-34.138572],[-70.745832,-34.134367],[-70.7414,-34.131473],[-70.742033,-34.127267]],[[-70.74773,-34.121749],[-70.747097,-34.125955],[-70.75153,-34.128849],[-70.756594,-34.127537],[-70.757227,-34.123331],[-70.752795,-34.120437],[-70.74773,-34.121749]],[[-70.804091,-34.135435],[-70.808526,-34.138327],[-70.813593,-34.137013],[-70.814225,-34.132806],[-70.80979,-34.129914],[-70.804723,-34.131228],[-70.804091,-34.135435]],[[-70.823727,-34.134383],[-70.823096,-34.13859],[-70.827531,-34.141481],[-70.832599,-34.140166],[-70.837035,-34.143057],[-70.842103,-34.141742],[-70.84654,-34.144633],[-70.851608,-34.143317],[-70.852239,-34.13911],[-70.847802,-34.136218],[-70.848434,-34.132011],[-70.843997,-34.129119],[-70.83893,-34.130436],[-70.838298,-34.134643],[-70.83323,-34.135959],[-70.828795,-34.133067],[-70.823727,-34.134383]],[[-70.826885,-34.113344],[-70.831321,-34.116236],[-70.836388,-34.114919],[-70.837019,-34.110711],[-70.842087,-34.109394],[-70.846523,-34.112286],[-70.845891,-34.116495],[-70.850328,-34.119386],[-70.855395,-34.118069],[-70.856027,-34.11386],[-70.85159,-34.110968],[-70.852221,-34.106759],[-70.847785,-34.103867],[-70.842718,-34.105184],[-70.838282,-34.102292],[-70.833215,-34.103609],[-70.832584,-34.107818],[-70.827517,-34.109135],[-70.826885,-34.113344]],[[-70.86492,-34.151988],[-70.865551,-34.147781],[-70.861113,-34.144891],[-70.856045,-34.146207],[-70.855413,-34.150414],[-70.859851,-34.153305],[-70.86492,-34.151988]],[[-70.866813,-34.139367],[-70.867444,-34.135159],[-70.872513,-34.133842],[-70.873144,-34.129633],[-70.868706,-34.126743],[-70.869337,-34.122534],[-70.8649,-34.119643],[-70.859832,-34.12096],[-70.859201,-34.125169],[-70.854133,-34.126486],[-70.853502,-34.130694],[-70.857939,-34.133585],[-70.857307,-34.137793],[-70.861745,-34.140684],[-70.866813,-34.139367]],[[-70.836419,-34.179592],[-70.840856,-34.182482],[-70.845925,-34.181168],[-70.846556,-34.176963],[-70.842119,-34.174073],[-70.837051,-34.175388],[-70.836419,-34.179592]]]},"properties":{"comuna":"Rancagua","mancha_id":"06101-88b2c1c001fffff","clase":"Medio","nivel_medio":1.966,"nivel_medio_min":1.5,"nivel_medio_max":2.498,"pct_alto":25.4,"n_hexagonos":146,"area_ha":9036.64}},{"type":"Feature","geometry":{"type":"Polygon","coordinates":[[[-70.91811,-34.089606],[-70.913041,-34.090927],[-70.912411,-34.095139],[-70.907342,-34.09646],[-70.902903,-34.093569],[-70.903534,-34.089357],[-70.899096,-34.086466],[-70.899726,-34.082254],[-70.904795,-34.080933],[-70.905415,-34.076789],[-70.905549,-34.076769],[-70.905875,-34.076603],[-70.906906,-34.076335],[-70.908058,-34.076645],[-70.908977,-34.07739],[-70.91002,-34.077738],[-70.911411,-34.078805],[-70.912826,-34.079948],[-70.913407,-34.080207],[-70.913919,-34.080246],[-70.914411,-34.080189],[-70.914665,-34.080074],[-70.914302,-34.082503],[-70.918741,-34.085394],[-70.91811,-34.089606]]]},"properties":{"comuna":"Rancagua","mancha_id":"06101-88b2c1d9c1fffff","clase":"Alto","nivel_medio":2.61,"nivel_medio_min":2.556,"nivel_medio_max":2.7,"pct_alto":61.0,"n_hexagonos":4,"area_ha":235.34}},{"type":"Feature","geometry":{"type":"Polygon","coordinates":[[[-70.879667,-34.038895],[-70.876888,-34.03962],[-70.873804,-34.037608],[-70.874132,-34.037603],[-70.875697,-34.03733],[-70.876417,-34.037256],[-70.877361,-34.037603],[-70.878081,-34.038001],[-70.878752,-34.038373],[-70.879447,-34.038795],[-70.879667,-34.038895]]]},"properties":{"comuna":"Rancagua","mancha_id":"06101-88b2c1d84bfffff","clase":"Alto","nivel_medio":2.743,"nivel_medio_min":2.743,"nivel_medio_max":2.743,"pct_alto":74.6,"n_hexagonos":1,"area_ha":6.99}},{"type":"Feature","geometry":{"type":"Polygon","coordinates":[[[-70.883869,-34.058048],[-70.884499,-34.053834],[-70.880063,-34.050941],[-70.880693,-34.046727],[-70.885761,-34.045406],[-70.886391,-34.041192],[-70.888424,-34.040661],[-70.888686,-34.041428],[-70.888959,-34.042099],[-70.889456,-34.042794],[-70.889804,-34.043315],[-70.890176,-34.044309],[-70.890276,-34.04483],[-70.890375,-34.045302],[-70.890747,-34.046718],[-70.890996,-34.047612],[-70.891081,-34.048068],[-70.890197,-34.048299],[-70.889567,-34.052513],[-70.889745,-34.052629],[-70.889406,-34.053349],[-70.888959,-34.054268],[-70.888785,-34.055261],[-70.888512,-34.056652],[-70.888388,-34.05772],[-70.888363,-34.05849],[-70.888885,-34.058912],[-70.889406,-34.059285],[-70.889804,-34.059757],[-70.8903,-34.060353],[-70.890395,-34.060395],[-70.890656,-34.060512],[-70.891041,-34.060833],[-70.891145,-34.06147],[-70.891319,-34.061917],[-70.891269,-34.062787],[-70.89112,-34.063556],[-70.891294,-34.064152],[-70.891741,-34.065196],[-70.891791,-34.066065],[-70.891741,-34.067009],[-70.891593,-34.067707],[-70.891468,-34.0683],[-70.891517,-34.06902],[-70.891751,-34.069896],[-70.891808,-34.070077],[-70.891481,-34.072258],[-70.892732,-34.073073],[-70.892753,-34.073246],[-70.892765,-34.073773],[-70.892652,-34.074361],[-70.892408,-34.07491],[-70.892347,-34.075244],[-70.892466,-34.075602],[-70.892725,-34.0759],[-70.893162,-34.07596],[-70.893728,-34.076098],[-70.894745,-34.076536],[-70.895314,-34.076758],[-70.895664,-34.076856],[-70.895288,-34.079362],[-70.89022,-34.080683],[-70.889589,-34.084895],[-70.884521,-34.086215],[-70.883891,-34.090426],[-70.888328,-34.093318],[-70.887697,-34.097529],[-70.882629,-34.098848],[-70.878192,-34.095957],[-70.878822,-34.091746],[-70.874385,-34.088854],[-70.875016,-34.084643],[-70.870579,-34.081751],[-70.865512,-34.08307],[-70.861076,-34.080178],[-70.861707,-34.075966],[-70.866774,-34.074647],[-70.867405,-34.070434],[-70.862969,-34.067542],[-70.8636,-34.063329],[-70.868667,-34.062009],[-70.869298,-34.057796],[-70.864862,-34.054903],[-70.859795,-34.056223],[-70.855359,-34.05333],[-70.85599,-34.049117],[-70.861057,-34.047797],[-70.861688,-34.043583],[-70.866754,-34.042262],[-70.87119,-34.045155],[-70.870559,-34.049369],[-70.874996,-34.052262],[-70.874365,-34.056476],[-70.878801,-34.059369],[-70.883869,-34.058048]]]},"properties":{"comuna":"Rancagua","mancha_id":"06101-88b2c1d801fffff","clase":"Alto","nivel_medio":2.611,"nivel_medio_min":2.526,"nivel_medio_max":2.806,"pct_alto":61.4,"n_hexagonos":20,"area_ha":1139.62}},{"type":"Feature","geometry":{"type":"Polygon","coordinates":[[[-70.855413,-34.150414],[-70.856045,-34.146207],[-70.861113,-34.144891],[-70.865551,-34.147781],[-70.86492,-34.151988],[-70.859851,-34.153305],[-70.855413,-34.150414]]]},"properties":{"comuna":"Rancagua","mancha_id":"06101-88b2c1ca1dfffff","clase":"Alto","nivel_medio":2.721,"nivel_medio_min":2.721,"nivel_medio_max":2.721,"pct_alto":73.6,"n_hexagonos":1,"area_ha":62.89}},{"type":"Feature","geometry":{"type":"Polygon","coordinates":[[[-70.871204,-34.175697],[-70.871016,-34.176292],[-70.870924,-34.176584],[-70.87083,-34.177331],[-70.870597,-34.177938],[-70.87013,-34.178312],[-70.869369,-34.178811],[-70.868947,-34.179178],[-70.868796,-34.179276],[-70.868397,-34.179535],[-70.867975,-34.179709],[-70.867515,-34.179853],[-70.867278,-34.179948],[-70.866954,-34.18018],[-70.866508,-34.18047],[-70.865693,-34.18088],[-70.865435,-34.181012],[-70.865078,-34.181194],[-70.864464,-34.181488],[-70.863978,-34.181818],[-70.863499,-34.182235],[-70.862938,-34.182842],[-70.862378,-34.183309],[-70.861304,-34.183916],[-70.86065,-34.184336],[-70.859927,-34.184714],[-70.859771,-34.185081],[-70.859686,-34.185513],[-70.859669,-34.185597],[-70.859249,-34.18611],[-70.859028,-34.186309],[-70.858405,-34.186676],[-70.857534,-34.187318],[-70.856354,-34.187698],[-70.855792,-34.187895],[-70.855206,-34.188198],[-70.854533,-34.188492],[-70.853152,-34.189005],[-70.852162,-34.189472],[-70.851873,-34.189657],[-70.851357,-34.189986],[-70.850657,-34.190547],[-70.850181,-34.190901],[-70.849694,-34.191177],[-70.849069,-34.191387],[-70.847948,-34.191761],[-70.847341,-34.191901],[-70.847019,-34.191905],[-70.846761,-34.191857],[-70.84641,-34.19166],[-70.845979,-34.191373],[-70.845447,-34.191142],[-70.844931,-34.19096],[-70.844481,-34.19088],[-70.844466,-34.190877],[-70.844662,-34.189576],[-70.849731,-34.188262],[-70.850362,-34.184058],[-70.855432,-34.182743],[-70.856063,-34.178539],[-70.861132,-34.177223],[-70.861763,-34.173018],[-70.866833,-34.171703],[-70.867464,-34.167497],[-70.863026,-34.164607],[-70.863657,-34.160401],[-70.868726,-34.159085],[-70.869357,-34.154879],[-70.874427,-34.153562],[-70.875058,-34.149355],[-70.87062,-34.146465],[-70.871251,-34.142257],[-70.87632,-34.14094],[-70.876951,-34.136732],[-70.88202,-34.135414],[-70.886458,-34.138305],[-70.891527,-34.136987],[-70.892158,-34.132778],[-70.88772,-34.129888],[-70.88835,-34.125679],[-70.89342,-34.12436],[-70.897858,-34.127251],[-70.902928,-34.125932],[-70.907366,-34.128821],[-70.912436,-34.127502],[-70.916876,-34.130392],[-70.921946,-34.129072],[-70.922576,-34.124862],[-70.918137,-34.121973],[-70.913067,-34.123293],[-70.908628,-34.120403],[-70.909258,-34.116193],[-70.904819,-34.113302],[-70.89975,-34.114622],[-70.895312,-34.111732],[-70.895942,-34.107521],[-70.901011,-34.106202],[-70.90545,-34.109092],[-70.910519,-34.107772],[-70.91115,-34.103561],[-70.916219,-34.102241],[-70.916849,-34.098029],[-70.921919,-34.096708],[-70.922549,-34.092497],[-70.927619,-34.091175],[-70.928249,-34.086963],[-70.92381,-34.084072],[-70.924431,-34.079917],[-70.924747,-34.080072],[-70.925567,-34.080618],[-70.926759,-34.081537],[-70.927802,-34.082034],[-70.928696,-34.082431],[-70.929665,-34.082878],[-70.930186,-34.083326],[-70.93113,-34.08412],[-70.931577,-34.084468],[-70.932024,-34.084816],[-70.932695,-34.085288],[-70.933328,-34.08558],[-70.933986,-34.085884],[-70.934756,-34.086306],[-70.935352,-34.086877],[-70.935499,-34.08706],[-70.936047,-34.087746],[-70.937438,-34.089063],[-70.937645,-34.089284],[-70.937137,-34.092683],[-70.937115,-34.092738],[-70.937116,-34.092746],[-70.932058,-34.094065],[-70.931428,-34.098277],[-70.926358,-34.099599],[-70.925728,-34.10381],[-70.930167,-34.1067],[-70.935237,-34.105379],[-70.939373,-34.10807],[-70.939301,-34.108136],[-70.939251,-34.10831],[-70.939202,-34.108658],[-70.939127,-34.10913],[-70.939102,-34.109403],[-70.938978,-34.1098],[-70.938904,-34.110198],[-70.938879,-34.111216],[-70.938879,-34.111787],[-70.939053,-34.11216],[-70.939028,-34.112458],[-70.939023,-34.112486],[-70.933977,-34.113801],[-70.929537,-34.110911],[-70.924467,-34.112232],[-70.923837,-34.116442],[-70.928277,-34.119332],[-70.933347,-34.118011],[-70.93539,-34.119341],[-70.935425,-34.119625],[-70.935352,-34.120256],[-70.935178,-34.120951],[-70.935004,-34.12192],[-70.934806,-34.122516],[-70.934383,-34.123211],[-70.934135,-34.123783],[-70.933887,-34.124081],[-70.93344,-34.124503],[-70.933117,-34.125],[-70.932844,-34.125347],[-70.932769,-34.125794],[-70.932683,-34.126276],[-70.932086,-34.126431],[-70.931723,-34.128856],[-70.931627,-34.129097],[-70.931304,-34.129942],[-70.930974,-34.130767],[-70.930907,-34.130935],[-70.930633,-34.13173],[-70.930435,-34.132326],[-70.930304,-34.133054],[-70.930286,-34.133456],[-70.930304,-34.133694],[-70.930213,-34.133931],[-70.930037,-34.134114],[-70.929789,-34.134313],[-70.92959,-34.134661],[-70.929441,-34.134909],[-70.929357,-34.135424],[-70.929174,-34.136231],[-70.929025,-34.137076],[-70.928802,-34.137374],[-70.928305,-34.137523],[-70.927862,-34.137541],[-70.927709,-34.137548],[-70.927063,-34.137597],[-70.926467,-34.137573],[-70.92597,-34.137647],[-70.925598,-34.137871],[-70.925076,-34.138094],[-70.924716,-34.138467],[-70.924095,-34.13887],[-70.923723,-34.139057],[-70.922388,-34.139367],[-70.921705,-34.139615],[-70.920587,-34.139895],[-70.920309,-34.139997],[-70.919997,-34.140112],[-70.919315,-34.140391],[-70.918414,-34.140702],[-70.9177,-34.140981],[-70.916893,-34.141385],[-70.916147,-34.142133],[-70.915617,-34.142791],[-70.915561,-34.142868],[-70.914984,-34.143018],[-70.914859,-34.14385],[-70.91469,-34.144121],[-70.914558,-34.144366],[-70.91453,-34.14454],[-70.914351,-34.144829],[-70.914076,-34.14504],[-70.913839,-34.145203],[-70.913465,-34.145437],[-70.913138,-34.14581],[-70.912998,-34.146324],[-70.912951,-34.146791],[-70.912858,-34.147445],[-70.91279,-34.147633],[-70.909283,-34.148545],[-70.909083,-34.149884],[-70.909029,-34.14992],[-70.908468,-34.150247],[-70.908172,-34.150357],[-70.907934,-34.15054],[-70.907751,-34.150888],[-70.907402,-34.151283],[-70.906741,-34.151788],[-70.906348,-34.152181],[-70.905963,-34.152438],[-70.90562,-34.152441],[-70.905211,-34.152373],[-70.904725,-34.152337],[-70.904359,-34.152395],[-70.90412,-34.152465],[-70.903752,-34.152675],[-70.903414,-34.15282],[-70.902837,-34.152942],[-70.902444,-34.152908],[-70.901796,-34.152908],[-70.901604,-34.152908],[-70.900717,-34.152908],[-70.899783,-34.152862],[-70.898709,-34.153002],[-70.898008,-34.153235],[-70.896234,-34.153936],[-70.895113,-34.154216],[-70.894741,-34.154616],[-70.894426,-34.154859],[-70.893659,-34.155266],[-70.893525,-34.155337],[-70.892731,-34.155757],[-70.892124,-34.156177],[-70.891683,-34.156352],[-70.891216,-34.156446],[-70.890817,-34.156457],[-70.889965,-34.15667],[-70.889322,-34.156784],[-70.888734,-34.156968],[-70.888015,-34.157298],[-70.887651,-34.157555],[-70.887221,-34.157858],[-70.886474,-34.158746],[-70.886147,-34.159306],[-70.885777,-34.159872],[-70.885548,-34.160184],[-70.88526,-34.16052],[-70.884699,-34.160894],[-70.883812,-34.16108],[-70.883205,-34.161407],[-70.882925,-34.161734],[-70.882318,-34.162108],[-70.881571,-34.162668],[-70.881472,-34.162767],[-70.881057,-34.163182],[-70.880403,-34.163696],[-70.879984,-34.164135],[-70.879749,-34.164583],[-70.879656,-34.165283],[-70.879563,-34.165937],[-70.879329,-34.166451],[-70.878976,-34.166958],[-70.878719,-34.167196],[-70.878389,-34.167361],[-70.878022,-34.167898],[-70.877695,-34.168319],[-70.877274,-34.168879],[-70.87715,-34.169024],[-70.876942,-34.169267],[-70.876714,-34.169533],[-70.8765,-34.1698],[-70.876294,-34.170233],[-70.87585,-34.171019],[-70.875446,-34.171514],[-70.875135,-34.171826],[-70.874856,-34.172003],[-70.874401,-34.172284],[-70.874006,-34.172615],[-70.873585,-34.173222],[-70.873072,-34.173829],[-70.872672,-34.174228],[-70.872651,-34.174249],[-70.872473,-34.174606],[-70.872146,-34.174906],[-70.871734,-34.175254],[-70.871422,-34.175483],[-70.871204,-34.175697]]]},"properties":{"comuna":"Rancagua","mancha_id":"06101-88b2c1c859fffff","clase":"Alto","nivel_medio":2.754,"nivel_medio_min":2.554,"nivel_medio_max":3.387,"pct_alto":75.5,"n_hexagonos":47,"area_ha":2375.11}},{"type":"Feature","geometry":{"type":"Polygon","coordinates":[[[-70.78365,-34.108171],[-70.784018,-34.108296],[-70.783817,-34.108348],[-70.783545,-34.108171],[-70.78356,-34.108171],[-70.78365,-34.108171]]]},"properties":{"comuna":"Rancagua","mancha_id":"06101-88b2c1c331fffff","clase":"Alto","nivel_medio":2.791,"nivel_medio_min":2.791,"nivel_medio_max":2.791,"pct_alto":79.4,"n_hexagonos":1,"area_ha":0.03}},{"type":"Feature","geometry":{"type":"Polygon","coordinates":[[[-70.799014,-34.104404],[-70.79458,-34.10151],[-70.789515,-34.102825],[-70.788883,-34.107034],[-70.784827,-34.108086],[-70.784846,-34.107669],[-70.784873,-34.107624],[-70.785242,-34.10699],[-70.785893,-34.106396],[-70.786289,-34.105944],[-70.786402,-34.10518],[-70.7866,-34.104416],[-70.786968,-34.103737],[-70.787364,-34.103369],[-70.78776,-34.102945],[-70.787958,-34.102436],[-70.788109,-34.101908],[-70.788128,-34.101842],[-70.788383,-34.101078],[-70.788552,-34.10054],[-70.788892,-34.099918],[-70.789175,-34.099437],[-70.789288,-34.099381],[-70.789627,-34.099239],[-70.790052,-34.099069],[-70.790419,-34.098928],[-70.790957,-34.098843],[-70.791749,-34.098928],[-70.792428,-34.098928],[-70.793135,-34.098815],[-70.793616,-34.098532],[-70.794154,-34.098277],[-70.794691,-34.098079],[-70.795002,-34.097966],[-70.795128,-34.097864],[-70.795455,-34.097598],[-70.795766,-34.097231],[-70.795971,-34.097105],[-70.796134,-34.097004],[-70.796728,-34.09675],[-70.796869,-34.096495],[-70.797039,-34.096184],[-70.796898,-34.095788],[-70.796785,-34.095363],[-70.796756,-34.094911],[-70.796926,-34.094345],[-70.797209,-34.093892],[-70.797548,-34.093638],[-70.797831,-34.093327],[-70.798029,-34.093015],[-70.798199,-34.092591],[-70.798312,-34.092365],[-70.798482,-34.091912],[-70.799048,-34.091403],[-70.799557,-34.091035],[-70.799673,-34.09097],[-70.80001,-34.090781],[-70.800406,-34.090583],[-70.801028,-34.0903],[-70.801537,-34.089988],[-70.80182,-34.089734],[-70.802131,-34.089423],[-70.802612,-34.089055],[-70.80315,-34.088687],[-70.803546,-34.088517],[-70.803885,-34.088348],[-70.804196,-34.088093],[-70.804225,-34.08781],[-70.804225,-34.087414],[-70.803829,-34.086905],[-70.803602,-34.086424],[-70.803659,-34.086028],[-70.803744,-34.085632],[-70.8038,-34.085264],[-70.803772,-34.084925],[-70.803659,-34.084331],[-70.803659,-34.084327],[-70.803659,-34.08368],[-70.803574,-34.083142],[-70.803433,-34.082633],[-70.803348,-34.082067],[-70.803319,-34.081643],[-70.803404,-34.081106],[-70.803433,-34.080625],[-70.803348,-34.080172],[-70.803235,-34.079719],[-70.802952,-34.079323],[-70.802852,-34.079135],[-70.802669,-34.078786],[-70.802471,-34.07839],[-70.802386,-34.077881],[-70.802442,-34.077428],[-70.802697,-34.077004],[-70.802782,-34.076692],[-70.802838,-34.076268],[-70.80298,-34.0759],[-70.803121,-34.075617],[-70.803206,-34.07508],[-70.803121,-34.074599],[-70.803037,-34.074175],[-70.80298,-34.073892],[-70.803008,-34.073552],[-70.803433,-34.0731],[-70.803659,-34.072675],[-70.803631,-34.072336],[-70.803546,-34.071798],[-70.803546,-34.071317],[-70.803546,-34.070861],[-70.803546,-34.070808],[-70.803433,-34.070384],[-70.803235,-34.069988],[-70.80298,-34.069479],[-70.802782,-34.068998],[-70.802669,-34.068517],[-70.802556,-34.068092],[-70.802442,-34.06747],[-70.802301,-34.066989],[-70.802131,-34.066367],[-70.801933,-34.065801],[-70.801707,-34.06549],[-70.801509,-34.065207],[-70.801594,-34.064839],[-70.80165,-34.064528],[-70.80165,-34.064523],[-70.80165,-34.064075],[-70.801396,-34.063509],[-70.801283,-34.063],[-70.801283,-34.062632],[-70.801537,-34.062208],[-70.801763,-34.06184],[-70.801848,-34.061501],[-70.801877,-34.061133],[-70.801763,-34.060652],[-70.801537,-34.060228],[-70.80165,-34.05986],[-70.801962,-34.059521],[-70.802131,-34.059209],[-70.802142,-34.059085],[-70.80216,-34.05887],[-70.802244,-34.058417],[-70.802358,-34.057682],[-70.802273,-34.057116],[-70.802414,-34.05638],[-70.802612,-34.055956],[-70.803121,-34.055701],[-70.803489,-34.055419],[-70.803942,-34.055192],[-70.804196,-34.055023],[-70.80431,-34.054457],[-70.804225,-34.053863],[-70.804196,-34.053382],[-70.804112,-34.052901],[-70.804083,-34.052335],[-70.804002,-34.052185],[-70.803913,-34.052024],[-70.803857,-34.051543],[-70.803913,-34.051147],[-70.804168,-34.050836],[-70.804338,-34.050581],[-70.804592,-34.050298],[-70.804621,-34.049902],[-70.804621,-34.049336],[-70.804592,-34.048799],[-70.804564,-34.048516],[-70.804366,-34.04812],[-70.80414,-34.047554],[-70.804027,-34.046705],[-70.803986,-34.046462],[-70.803942,-34.046196],[-70.803885,-34.045602],[-70.804027,-34.044951],[-70.804253,-34.044442],[-70.804677,-34.04399],[-70.805158,-34.043565],[-70.805724,-34.043169],[-70.806262,-34.042745],[-70.807025,-34.042123],[-70.807591,-34.041726],[-70.808242,-34.041359],[-70.808481,-34.041304],[-70.808864,-34.041217],[-70.809061,-34.041093],[-70.809402,-34.040878],[-70.810052,-34.040651],[-70.810364,-34.040623],[-70.810901,-34.040482],[-70.81105,-34.040575],[-70.811127,-34.040623],[-70.81175,-34.04068],[-70.812287,-34.04068],[-70.812994,-34.040397],[-70.813589,-34.040227],[-70.813891,-34.040142],[-70.817989,-34.042818],[-70.823054,-34.041499],[-70.823686,-34.037286],[-70.821187,-34.035654],[-70.82143,-34.035654],[-70.822197,-34.035875],[-70.822773,-34.035831],[-70.823468,-34.035691],[-70.824039,-34.035542],[-70.824412,-34.035368],[-70.824859,-34.035045],[-70.825157,-34.034797],[-70.82538,-34.034698],[-70.825753,-34.034598],[-70.826175,-34.034399],[-70.826572,-34.034027],[-70.827243,-34.033406],[-70.827814,-34.033108],[-70.828371,-34.032926],[-70.829081,-34.032736],[-70.829242,-34.032686],[-70.828751,-34.035966],[-70.833185,-34.038861],[-70.838251,-34.037541],[-70.838882,-34.033327],[-70.843947,-34.032007],[-70.844431,-34.028777],[-70.844653,-34.028712],[-70.845596,-34.028712],[-70.846639,-34.028836],[-70.8476,-34.02901],[-70.848066,-34.029267],[-70.848648,-34.029383],[-70.849967,-34.029805],[-70.851184,-34.02978],[-70.852887,-34.029802],[-70.853767,-34.029879],[-70.854005,-34.029859],[-70.854656,-34.029802],[-70.855611,-34.029989],[-70.857102,-34.030291],[-70.85808,-34.030478],[-70.858825,-34.030571],[-70.859524,-34.030827],[-70.860274,-34.031022],[-70.861094,-34.031245],[-70.862272,-34.031572],[-70.863329,-34.031966],[-70.863419,-34.032016],[-70.864447,-34.032586],[-70.865142,-34.033605],[-70.865639,-34.034996],[-70.866135,-34.035492],[-70.867228,-34.036014],[-70.868371,-34.036759],[-70.869439,-34.037206],[-70.870121,-34.037335],[-70.867385,-34.038048],[-70.86295,-34.035154],[-70.857883,-34.036475],[-70.857252,-34.040689],[-70.852186,-34.042009],[-70.851555,-34.046223],[-70.846489,-34.047543],[-70.845858,-34.051756],[-70.850293,-34.05465],[-70.849662,-34.058863],[-70.854097,-34.061756],[-70.853466,-34.065968],[-70.857902,-34.068861],[-70.857271,-34.073073],[-70.852204,-34.074392],[-70.847768,-34.071499],[-70.842702,-34.072818],[-70.84207,-34.07703],[-70.837004,-34.078348],[-70.836372,-34.082559],[-70.840808,-34.085452],[-70.840176,-34.089662],[-70.83511,-34.09098],[-70.834478,-34.09519],[-70.829411,-34.096507],[-70.82878,-34.100717],[-70.823713,-34.102033],[-70.819279,-34.09914],[-70.814212,-34.100457],[-70.813581,-34.104666],[-70.808514,-34.105982],[-70.80408,-34.103088],[-70.799014,-34.104404]],[[-70.811673,-34.084934],[-70.816107,-34.087828],[-70.821173,-34.086511],[-70.825608,-34.089404],[-70.830674,-34.088087],[-70.831306,-34.083876],[-70.826871,-34.080983],[-70.827502,-34.076772],[-70.823068,-34.073879],[-70.823699,-34.069668],[-70.828765,-34.06835],[-70.8332,-34.071243],[-70.838266,-34.069925],[-70.838898,-34.065713],[-70.834463,-34.062819],[-70.835094,-34.058607],[-70.83066,-34.055713],[-70.825594,-34.057032],[-70.824962,-34.061244],[-70.819897,-34.062562],[-70.815463,-34.059668],[-70.816094,-34.055456],[-70.811661,-34.052561],[-70.806596,-34.053879],[-70.805964,-34.058091],[-70.810397,-34.060986],[-70.809766,-34.065197],[-70.8142,-34.068091],[-70.813568,-34.072303],[-70.808502,-34.07362],[-70.807871,-34.07783],[-70.812305,-34.080724],[-70.811673,-34.084934]]]},"properties":{"comuna":"Rancagua","mancha_id":"06101-88b2c1c321fffff","clase":"Alto","nivel_medio":2.708,"nivel_medio_min":2.511,"nivel_medio_max":3.0,"pct_alto":67.9,"n_hexagonos":47,"area_ha":2389.68}},{"type":"Feature","geometry":{"type":"Polygon","coordinates":[[[-70.692505,-34.132253],[-70.69264,-34.131999],[-70.69266,-34.13197],[-70.692467,-34.133251],[-70.692446,-34.133114],[-70.692429,-34.132793],[-70.692429,-34.132557],[-70.692505,-34.132253]]]},"properties":{"comuna":"Rancagua","mancha_id":"06101-88b2c1c2b5fffff","clase":"Alto","nivel_medio":2.742,"nivel_medio_min":2.742,"nivel_medio_max":2.742,"pct_alto":88.1,"n_hexagonos":1,"area_ha":0.11}},{"type":"Feature","geometry":{"type":"Polygon","coordinates":[[[-70.692302,-34.134144],[-70.692339,-34.134098],[-70.692028,-34.136167],[-70.690965,-34.136442],[-70.691044,-34.136323],[-70.691188,-34.136053],[-70.691331,-34.135715],[-70.691483,-34.135377],[-70.691635,-34.135073],[-70.691728,-34.134879],[-70.691905,-34.134659],[-70.6921,-34.134431],[-70.692302,-34.134144]]]},"properties":{"comuna":"Rancagua","mancha_id":"06101-88b2c1c2b5fffff-2","clase":"Alto","nivel_medio":2.742,"nivel_medio_min":2.742,"nivel_medio_max":2.742,"pct_alto":88.1,"n_hexagonos":1,"area_ha":1.24}},{"type":"Feature","geometry":{"type":"Polygon","coordinates":[[[-70.823096,-34.13859],[-70.823727,-34.134383],[-70.828795,-34.133067],[-70.83323,-34.135959],[-70.838298,-34.134643],[-70.83893,-34.130436],[-70.843997,-34.129119],[-70.848434,-34.132011],[-70.847802,-34.136218],[-70.852239,-34.13911],[-70.851608,-34.143317],[-70.84654,-34.144633],[-70.842103,-34.141742],[-70.837035,-34.143057],[-70.832599,-34.140166],[-70.827531,-34.141481],[-70.823096,-34.13859]]]},"properties":{"comuna":"Rancagua","mancha_id":"06101-88b2c1c129fffff","clase":"Alto","nivel_medio":2.696,"nivel_medio_min":2.598,"nivel_medio_max":2.81,"pct_alto":48.1,"n_hexagonos":4,"area_ha":251.57}},{"type":"Feature","geometry":{"type":"Polygon","coordinates":[[[-70.786996,-34.151994],[-70.781929,-34.153306],[-70.781297,-34.157511],[-70.776231,-34.158823],[-70.771797,-34.155931],[-70.772429,-34.151726],[-70.767996,-34.148833],[-70.768628,-34.144628],[-70.773694,-34.143316],[-70.778128,-34.146209],[-70.783194,-34.144896],[-70.787628,-34.147788],[-70.786996,-34.151994]]]},"properties":{"comuna":"Rancagua","mancha_id":"06101-88b2c1c113fffff","clase":"Alto","nivel_medio":2.779,"nivel_medio_min":2.683,"nivel_medio_max":2.939,"pct_alto":83.2,"n_hexagonos":3,"area_ha":188.49}},{"type":"Feature","geometry":{"type":"Polygon","coordinates":[[[-70.688227,-34.161387],[-70.692658,-34.164282],[-70.692186,-34.167409],[-70.69128,-34.16687],[-70.689493,-34.166365],[-70.68838,-34.16605],[-70.687295,-34.165747],[-70.686482,-34.165521],[-70.68526,-34.16518],[-70.684374,-34.164764],[-70.68392,-34.16455],[-70.682948,-34.16413],[-70.683164,-34.162695],[-70.688227,-34.161387]]]},"properties":{"comuna":"Rancagua","mancha_id":"06101-88b2c1c09dfffff","clase":"Alto","nivel_medio":2.501,"nivel_medio_min":2.501,"nivel_medio_max":2.501,"pct_alto":57.4,"n_hexagonos":1,"area_ha":33.33}},{"type":"Feature","geometry":{"type":"Polygon","coordinates":[[[-70.711015,-34.139337],[-70.711648,-34.135133],[-70.716712,-34.133823],[-70.721143,-34.136717],[-70.72051,-34.140922],[-70.715446,-34.142232],[-70.714813,-34.146436],[-70.709749,-34.147746],[-70.705318,-34.144851],[-70.705951,-34.140647],[-70.711015,-34.139337]]]},"properties":{"comuna":"Rancagua","mancha_id":"06101-88b2c1c013fffff","clase":"Alto","nivel_medio":2.557,"nivel_medio_min":2.55,"nivel_medio_max":2.564,"pct_alto":69.0,"n_hexagonos":2,"area_ha":125.6}}],"bbox":[-70.94151,-34.21609,-70.67659,-34.02871]}