{"type":"FeatureCollection","features":[{"type":"Feature","geometry":{"type":"Polygon","coordinates":[[[-70.908703,-34.217404],[-70.903631,-34.21872],[-70.901639,-34.217424],[-70.901661,-34.217352],[-70.901732,-34.217254],[-70.901819,-34.217188],[-70.901923,-34.217118],[-70.902099,-34.217062],[-70.902322,-34.217062],[-70.90249,-34.217062],[-70.902721,-34.217086],[-70.903024,-34.217126],[-70.903288,-34.217166],[-70.903471,-34.217198],[-70.903623,-34.217246],[-70.903758,-34.217318],[-70.903854,-34.217398],[-70.90399,-34.217446],[-70.904151,-34.217445],[-70.904255,-34.217396],[-70.904315,-34.217319],[-70.904349,-34.21723],[-70.904453,-34.21711],[-70.90462,-34.217039],[-70.904772,-34.216983],[-70.904948,-34.216887],[-70.905131,-34.216791],[-70.905339,-34.216719],[-70.905546,-34.216719],[-70.905714,-34.216767],[-70.905849,-34.216823],[-70.905961,-34.216847],[-70.906081,-34.216855],[-70.906232,-34.216879],[-70.90644,-34.216887],[-70.906575,-34.216893],[-70.906701,-34.216899],[-70.906805,-34.216942],[-70.90693,-34.21703],[-70.907083,-34.217074],[-70.90738,-34.217087],[-70.907676,-34.217087],[-70.907882,-34.217087],[-70.908088,-34.21709],[-70.908235,-34.217084],[-70.908362,-34.217058],[-70.908458,-34.216988],[-70.908597,-34.216893],[-70.908792,-34.21681],[-70.908823,-34.216797],[-70.909169,-34.216768],[-70.909415,-34.216762],[-70.909613,-34.216789],[-70.909917,-34.216884],[-70.91016,-34.21698],[-70.910507,-34.217127],[-70.910785,-34.217249],[-70.911115,-34.217423],[-70.911341,-34.217614],[-70.911584,-34.217709],[-70.911862,-34.217787],[-70.912166,-34.217857],[-70.912488,-34.217866],[-70.912705,-34.217892],[-70.913009,-34.2179],[-70.913339,-34.217918],[-70.913617,-34.217952],[-70.913842,-34.218074],[-70.913955,-34.218178],[-70.914068,-34.218308],[-70.914164,-34.218421],[-70.914311,-34.2185],[-70.91452,-34.218612],[-70.914719,-34.218699],[-70.91491,-34.218795],[-70.915102,-34.218812],[-70.915345,-34.218812],[-70.915579,-34.218821],[-70.91577,-34.218795],[-70.915927,-34.218743],[-70.916039,-34.218673],[-70.916222,-34.218595],[-70.916439,-34.218552],[-70.916708,-34.218526],[-70.916943,-34.2185],[-70.917247,-34.2185],[-70.917577,-34.218552],[-70.917967,-34.218569],[-70.918263,-34.218604],[-70.918271,-34.218604],[-70.918216,-34.218975],[-70.913144,-34.220291],[-70.908703,-34.217404]]]},"properties":{"comuna":"Coinco","mancha_id":"06103-88b2c1c831fffff","clase":"Muy Bajo","nivel_medio":0.133,"nivel_medio_min":0.0,"nivel_medio_max":0.211,"pct_alto":3.4,"n_hexagonos":2,"area_ha":20.02}},{"type":"Feature","geometry":{"type":"Polygon","coordinates":[[[-70.922657,-34.221862],[-70.918216,-34.218975],[-70.918271,-34.218604],[-70.91868,-34.218612],[-70.918957,-34.218569],[-70.91914,-34.2185],[-70.919279,-34.21843],[-70.919435,-34.218361],[-70.919574,-34.218352],[-70.919704,-34.218387],[-70.919861,-34.218474],[-70.920095,-34.21856],[-70.920416,-34.218717],[-70.920625,-34.218838],[-70.920842,-34.218969],[-70.92105,-34.219073],[-70.921346,-34.219212],[-70.921658,-34.219325],[-70.921988,-34.219472],[-70.922258,-34.21955],[-70.922527,-34.219681],[-70.922761,-34.219794],[-70.923068,-34.21989],[-70.923367,-34.219917],[-70.923625,-34.219917],[-70.923869,-34.219863],[-70.92414,-34.219795],[-70.924547,-34.219795],[-70.924941,-34.219876],[-70.925158,-34.219944],[-70.925497,-34.22008],[-70.925742,-34.220202],[-70.926067,-34.220297],[-70.92623,-34.220392],[-70.926393,-34.220528],[-70.926624,-34.220623],[-70.926854,-34.220718],[-70.926947,-34.220748],[-70.922657,-34.221862]]]},"properties":{"comuna":"Coinco","mancha_id":"06103-88b2c1c9c9fffff","clase":"Bajo","nivel_medio":1.132,"nivel_medio_min":1.132,"nivel_medio_max":1.132,"pct_alto":31.9,"n_hexagonos":1,"area_ha":12.36}},{"type":"Feature","geometry":{"type":"Polygon","coordinates":[[[-70.916324,-34.231584],[-70.916954,-34.227381],[-70.922026,-34.226065],[-70.926468,-34.228952],[-70.93154,-34.227635],[-70.935982,-34.230521],[-70.935352,-34.234724],[-70.930279,-34.23604],[-70.925837,-34.233154],[-70.920765,-34.23447],[-70.920134,-34.238672],[-70.915062,-34.239988],[-70.910621,-34.237101],[-70.911252,-34.232899],[-70.916324,-34.231584]]]},"properties":{"comuna":"Coinco","mancha_id":"06103-88b2c1c9c3fffff","clase":"Bajo","nivel_medio":1.297,"nivel_medio_min":1.246,"nivel_medio_max":1.367,"pct_alto":7.6,"n_hexagonos":3,"area_ha":188.43}},{"type":"Feature","geometry":{"type":"Polygon","coordinates":[[[-70.931569,-34.259934],[-70.932199,-34.255733],[-70.937272,-34.254417],[-70.941715,-34.257303],[-70.941085,-34.261504],[-70.936011,-34.262819],[-70.931569,-34.259934]]]},"properties":{"comuna":"Coinco","mancha_id":"06103-88b2c1c9bdfffff","clase":"Bajo","nivel_medio":1.438,"nivel_medio_min":1.438,"nivel_medio_max":1.438,"pct_alto":15.5,"n_hexagonos":1,"area_ha":62.78}},{"type":"Feature","geometry":{"type":"Polygon","coordinates":[[[-70.93346,-34.24733],[-70.934091,-34.243129],[-70.939164,-34.241812],[-70.939794,-34.23761],[-70.944867,-34.236293],[-70.944928,-34.23589],[-70.94501,-34.235987],[-70.945223,-34.236189],[-70.945457,-34.236338],[-70.945734,-34.236529],[-70.946107,-34.236753],[-70.946511,-34.236976],[-70.946947,-34.2372],[-70.947362,-34.23737],[-70.947767,-34.237508],[-70.948182,-34.237668],[-70.948522,-34.23787],[-70.948927,-34.23803],[-70.949299,-34.238157],[-70.949682,-34.238349],[-70.950193,-34.238541],[-70.950533,-34.238753],[-70.95069,-34.238821],[-70.950831,-34.238881],[-70.951236,-34.239062],[-70.951693,-34.239307],[-70.952172,-34.239626],[-70.952715,-34.239903],[-70.953002,-34.240147],[-70.953268,-34.240403],[-70.953556,-34.240637],[-70.953726,-34.240839],[-70.953832,-34.240999],[-70.953981,-34.241158],[-70.954205,-34.241329],[-70.954418,-34.241658],[-70.954609,-34.241839],[-70.954822,-34.242127],[-70.954939,-34.242297],[-70.95512,-34.24251],[-70.955258,-34.242669],[-70.955386,-34.24285],[-70.955567,-34.243031],[-70.95578,-34.243244],[-70.955961,-34.243404],[-70.956152,-34.243531],[-70.956397,-34.243638],[-70.95662,-34.243723],[-70.956855,-34.243829],[-70.957238,-34.244021],[-70.957568,-34.24417],[-70.957865,-34.24434],[-70.958078,-34.244468],[-70.958254,-34.244565],[-70.958196,-34.24495],[-70.953123,-34.246267],[-70.952492,-34.250469],[-70.947419,-34.251785],[-70.942976,-34.2489],[-70.937903,-34.250216],[-70.93346,-34.24733]]]},"properties":{"comuna":"Coinco","mancha_id":"06103-88b2c1c985fffff","clase":"Bajo","nivel_medio":1.314,"nivel_medio_min":1.132,"nivel_medio_max":1.47,"pct_alto":13.0,"n_hexagonos":5,"area_ha":230.3}},{"type":"Feature","geometry":{"type":"Polygon","coordinates":[[[-70.992492,-34.276427],[-70.993122,-34.272226],[-70.988676,-34.269342],[-70.989306,-34.265141],[-70.989372,-34.265124],[-70.990272,-34.265844],[-70.99132,-34.266573],[-70.992369,-34.266938],[-70.99328,-34.267576],[-70.993714,-34.268061],[-70.994097,-34.268679],[-70.994822,-34.269297],[-70.995312,-34.269638],[-70.996186,-34.269829],[-70.997272,-34.270192],[-70.998253,-34.270537],[-70.998197,-34.270908],[-71.001797,-34.273243],[-71.002003,-34.27375],[-71.002259,-34.274283],[-71.002518,-34.274621],[-71.002685,-34.274837],[-71.003196,-34.275135],[-71.00375,-34.275924],[-71.003918,-34.276313],[-71.004144,-34.276737],[-71.004441,-34.277161],[-71.004625,-34.277713],[-71.004865,-34.27808],[-71.005049,-34.278533],[-71.005303,-34.278646],[-71.005699,-34.278716],[-71.006066,-34.278858],[-71.006519,-34.27907],[-71.006915,-34.279211],[-71.007324,-34.279253],[-71.007862,-34.279352],[-71.008271,-34.279522],[-71.008809,-34.279734],[-71.009374,-34.280087],[-71.009404,-34.28011],[-71.006459,-34.280875],[-71.002013,-34.277992],[-70.996937,-34.27931],[-70.992492,-34.276427]]]},"properties":{"comuna":"Coinco","mancha_id":"06103-88b2c026b1fffff","clase":"Bajo","nivel_medio":1.406,"nivel_medio_min":1.175,"nivel_medio_max":1.495,"pct_alto":2.0,"n_hexagonos":3,"area_ha":106.83}},{"type":"Feature","geometry":{"type":"Polygon","coordinates":[[[-70.965823,-34.259123],[-70.966454,-34.254921],[-70.971528,-34.253604],[-70.971807,-34.251741],[-70.971875,-34.251821],[-70.97199,-34.252124],[-70.972207,-34.252359],[-70.972407,-34.252552],[-70.972561,-34.252721],[-70.972821,-34.252865],[-70.973125,-34.252981],[-70.97337,-34.253198],[-70.973587,-34.253357],[-70.973881,-34.253428],[-70.974173,-34.253495],[-70.974411,-34.253602],[-70.974611,-34.25372],[-70.974729,-34.253863],[-70.974946,-34.254022],[-70.975279,-34.254152],[-70.975582,-34.254253],[-70.975979,-34.254291],[-70.976392,-34.254354],[-70.976753,-34.254441],[-70.977086,-34.254528],[-70.977404,-34.254701],[-70.977635,-34.25486],[-70.97791,-34.255077],[-70.978228,-34.255381],[-70.978531,-34.255568],[-70.978826,-34.255748],[-70.975972,-34.256489],[-70.975342,-34.26069],[-70.970267,-34.262008],[-70.965823,-34.259123]]]},"properties":{"comuna":"Coinco","mancha_id":"06103-88b2c02699fffff","clase":"Bajo","nivel_medio":1.369,"nivel_medio_min":0.878,"nivel_medio_max":1.459,"pct_alto":3.0,"n_hexagonos":2,"area_ha":74.37}},{"type":"Feature","geometry":{"type":"Polygon","coordinates":[[[-71.022986,-34.300805],[-71.023616,-34.296605],[-71.028693,-34.295287],[-71.03314,-34.298169],[-71.032511,-34.302369],[-71.027434,-34.303687],[-71.022986,-34.300805]]]},"properties":{"comuna":"Coinco","mancha_id":"06103-88b2c0248dfffff","clase":"Bajo","nivel_medio":1.358,"nivel_medio_min":1.358,"nivel_medio_max":1.358,"pct_alto":6.0,"n_hexagonos":1,"area_ha":62.78}},{"type":"Feature","geometry":{"type":"Polygon","coordinates":[[[-70.880553,-34.242575],[-70.880191,-34.244988],[-70.877453,-34.245697],[-70.877312,-34.245192],[-70.877283,-34.244692],[-70.877404,-34.244059],[-70.877516,-34.243599],[-70.877775,-34.243021],[-70.878108,-34.242752],[-70.878476,-34.242482],[-70.878984,-34.242402],[-70.879493,-34.242268],[-70.879738,-34.2422],[-70.879895,-34.242187],[-70.880152,-34.24225],[-70.88034,-34.242396],[-70.880553,-34.242575]]]},"properties":{"comuna":"Coinco","mancha_id":"06103-88b2c1c8abfffff","clase":"Medio","nivel_medio":2.194,"nivel_medio_min":2.194,"nivel_medio_max":2.194,"pct_alto":19.4,"n_hexagonos":1,"area_ha":8.49}},{"type":"Feature","geometry":{"type":"Polygon","coordinates":[[[-70.88184,-34.27298],[-70.8817,-34.272851],[-70.881982,-34.272779],[-70.88184,-34.27298]]]},"properties":{"comuna":"Coinco","mancha_id":"06103-88b2c15209fffff","clase":"Medio","nivel_medio":2.0,"nivel_medio_min":2.0,"nivel_medio_max":2.0,"pct_alto":0.0,"n_hexagonos":1,"area_ha":0.02}},{"type":"Feature","geometry":{"type":"Polygon","coordinates":[[[-71.001797,-34.273243],[-70.998197,-34.270908],[-70.998253,-34.270537],[-70.998423,-34.270596],[-70.999361,-34.270959],[-71.0,-34.271463],[-71.00017,-34.271598],[-71.001321,-34.272386],[-71.001683,-34.272962],[-71.001797,-34.273243]]]},"properties":{"comuna":"Coinco","mancha_id":"06103-88b2c026bdfffff","clase":"Medio","nivel_medio":1.746,"nivel_medio_min":1.746,"nivel_medio_max":1.746,"pct_alto":5.4,"n_hexagonos":1,"area_ha":2.0}},{"type":"Feature","geometry":{"type":"Polygon","coordinates":[[[-71.01728,-34.306323],[-71.01791,-34.302123],[-71.013463,-34.299241],[-71.008386,-34.300559],[-71.007757,-34.304758],[-71.012203,-34.30764],[-71.011574,-34.311839],[-71.016021,-34.314721],[-71.015391,-34.318919],[-71.010314,-34.320236],[-71.009684,-34.324434],[-71.004607,-34.32575],[-71.000161,-34.322869],[-71.000791,-34.318671],[-70.996344,-34.315789],[-70.996974,-34.31159],[-70.992528,-34.308708],[-70.987452,-34.310024],[-70.986822,-34.314222],[-70.991268,-34.317105],[-70.990638,-34.321303],[-70.985562,-34.322618],[-70.984932,-34.326816],[-70.985865,-34.327421],[-70.985731,-34.327484],[-70.985077,-34.327698],[-70.984622,-34.327686],[-70.98417,-34.327471],[-70.983833,-34.3271],[-70.983717,-34.326973],[-70.983218,-34.326292],[-70.982583,-34.325476],[-70.982193,-34.324995],[-70.981799,-34.324641],[-70.981041,-34.324116],[-70.980361,-34.323617],[-70.979862,-34.323254],[-70.979091,-34.322846],[-70.978139,-34.322484],[-70.97696,-34.32203],[-70.975893,-34.32203],[-70.97604,-34.321051],[-70.971595,-34.318168],[-70.972225,-34.313971],[-70.96778,-34.311088],[-70.96841,-34.30689],[-70.973485,-34.305574],[-70.974115,-34.301376],[-70.969671,-34.298493],[-70.964595,-34.299808],[-70.963965,-34.304007],[-70.95889,-34.305322],[-70.95826,-34.30952],[-70.953185,-34.310834],[-70.948741,-34.307951],[-70.949371,-34.303753],[-70.954446,-34.302438],[-70.955076,-34.29824],[-70.950632,-34.295356],[-70.951263,-34.291157],[-70.946819,-34.288273],[-70.947449,-34.284074],[-70.943006,-34.281189],[-70.943636,-34.276989],[-70.94871,-34.275674],[-70.949341,-34.271474],[-70.944897,-34.268589],[-70.945528,-34.264389],[-70.941085,-34.261504],[-70.941715,-34.257303],[-70.937272,-34.254417],[-70.932199,-34.255733],[-70.931569,-34.259934],[-70.936011,-34.262819],[-70.935381,-34.26702],[-70.939824,-34.269905],[-70.939193,-34.274105],[-70.934119,-34.27542],[-70.933489,-34.279619],[-70.928415,-34.280934],[-70.928247,-34.282051],[-70.927976,-34.282203],[-70.926479,-34.283379],[-70.924702,-34.283984],[-70.924283,-34.283785],[-70.924115,-34.283411],[-70.92378,-34.283003],[-70.923151,-34.282447],[-70.922539,-34.28207],[-70.920135,-34.281482],[-70.918561,-34.281613],[-70.918899,-34.279363],[-70.923973,-34.278049],[-70.924603,-34.273849],[-70.920161,-34.270964],[-70.920792,-34.266764],[-70.925865,-34.26545],[-70.926495,-34.261249],[-70.922053,-34.258364],[-70.91698,-34.259678],[-70.912539,-34.256792],[-70.907466,-34.258107],[-70.907215,-34.259782],[-70.906867,-34.259529],[-70.90554,-34.258986],[-70.904784,-34.258899],[-70.904153,-34.258926],[-70.903488,-34.259063],[-70.902743,-34.258944],[-70.901908,-34.258869],[-70.901312,-34.258646],[-70.900678,-34.258676],[-70.900018,-34.258886],[-70.899344,-34.259273],[-70.898288,-34.259574],[-70.897486,-34.259644],[-70.896554,-34.259725],[-70.894519,-34.260102],[-70.892257,-34.260554],[-70.891226,-34.260898],[-70.890733,-34.261063],[-70.887809,-34.259162],[-70.88844,-34.254962],[-70.884,-34.252075],[-70.884631,-34.247875],[-70.889703,-34.246561],[-70.894143,-34.249448],[-70.893512,-34.253648],[-70.897953,-34.256535],[-70.903025,-34.255221],[-70.903656,-34.25102],[-70.899215,-34.248134],[-70.899846,-34.243933],[-70.895405,-34.241046],[-70.895621,-34.239608],[-70.895726,-34.239519],[-70.89612,-34.239365],[-70.896874,-34.239057],[-70.89744,-34.238714],[-70.897851,-34.238406],[-70.898051,-34.238283],[-70.89806,-34.238278],[-70.898159,-34.238217],[-70.899291,-34.237768],[-70.899845,-34.237803],[-70.899851,-34.237803],[-70.899879,-34.237805],[-70.900178,-34.237823],[-70.90025,-34.237826],[-70.900372,-34.237831],[-70.900519,-34.237837],[-70.900925,-34.237854],[-70.901243,-34.237849],[-70.901301,-34.237848],[-70.901172,-34.237729],[-70.90104,-34.237542],[-70.90095,-34.237333],[-70.900866,-34.237117],[-70.900776,-34.236919],[-70.900672,-34.236784],[-70.900573,-34.236691],[-70.900557,-34.236676],[-70.900393,-34.236554],[-70.900271,-34.236478],[-70.900121,-34.236386],[-70.899996,-34.236287],[-70.89988,-34.23617],[-70.899857,-34.236136],[-70.899815,-34.236074],[-70.899767,-34.235968],[-70.899744,-34.235883],[-70.901108,-34.23553],[-70.901739,-34.231328],[-70.898929,-34.229501],[-70.89871,-34.22763],[-70.898359,-34.224127],[-70.897765,-34.218212],[-70.898044,-34.218315],[-70.8983,-34.218411],[-70.898547,-34.218491],[-70.898811,-34.218579],[-70.899018,-34.218643],[-70.899226,-34.218706],[-70.899377,-34.218762],[-70.899688,-34.218802],[-70.900087,-34.218802],[-70.90035,-34.218799],[-70.900558,-34.21881],[-70.900774,-34.218778],[-70.900997,-34.218698],[-70.901181,-34.218603],[-70.901364,-34.218483],[-70.901532,-34.218275],[-70.901579,-34.218127],[-70.901604,-34.217972],[-70.901601,-34.217723],[-70.901611,-34.217516],[-70.901639,-34.217424],[-70.903631,-34.21872],[-70.908703,-34.217404],[-70.913144,-34.220291],[-70.918216,-34.218975],[-70.922657,-34.221862],[-70.926947,-34.220748],[-70.927058,-34.220785],[-70.927356,-34.220826],[-70.927709,-34.220826],[-70.927977,-34.22088],[-70.928239,-34.220972],[-70.928392,-34.221109],[-70.928473,-34.221202],[-70.928512,-34.221344],[-70.92851,-34.221586],[-70.928483,-34.221871],[-70.928469,-34.222115],[-70.928401,-34.222319],[-70.928347,-34.222454],[-70.92837,-34.22254],[-70.928479,-34.222665],[-70.928645,-34.222821],[-70.928849,-34.223106],[-70.929009,-34.223332],[-70.929096,-34.223457],[-70.92926,-34.223555],[-70.929467,-34.223676],[-70.929648,-34.223768],[-70.929763,-34.223813],[-70.929948,-34.223839],[-70.930114,-34.22386],[-70.930262,-34.223866],[-70.930398,-34.223866],[-70.930545,-34.223871],[-70.930687,-34.22392],[-70.930828,-34.224024],[-70.931013,-34.224138],[-70.931171,-34.224214],[-70.931308,-34.224334],[-70.931422,-34.224476],[-70.931498,-34.224656],[-70.931575,-34.224822],[-70.931674,-34.224992],[-70.931772,-34.225166],[-70.931854,-34.225352],[-70.931874,-34.225409],[-70.931911,-34.225509],[-70.931963,-34.225669],[-70.931996,-34.225727],[-70.932059,-34.225765],[-70.932143,-34.225805],[-70.932251,-34.225856],[-70.932332,-34.225892],[-70.932418,-34.225922],[-70.932528,-34.225952],[-70.932638,-34.225983],[-70.932751,-34.226026],[-70.932894,-34.226096],[-70.93301,-34.226184],[-70.933153,-34.226302],[-70.933315,-34.226505],[-70.933454,-34.22669],[-70.933541,-34.226859],[-70.933667,-34.227058],[-70.933773,-34.227186],[-70.933954,-34.227303],[-70.934124,-34.227367],[-70.934305,-34.227409],[-70.934614,-34.227484],[-70.935018,-34.227548],[-70.93538,-34.227654],[-70.935635,-34.227739],[-70.93605,-34.227761],[-70.936476,-34.227771],[-70.936848,-34.227803],[-70.937242,-34.227856],[-70.937373,-34.227896],[-70.937455,-34.227952],[-70.937615,-34.228122],[-70.937753,-34.228335],[-70.937902,-34.228548],[-70.938125,-34.22875],[-70.938328,-34.228889],[-70.938519,-34.229016],[-70.938647,-34.229165],[-70.938775,-34.229378],[-70.938934,-34.229527],[-70.939083,-34.229634],[-70.939189,-34.229689],[-70.939349,-34.229772],[-70.939551,-34.229931],[-70.939711,-34.230049],[-70.939828,-34.230187],[-70.939934,-34.230357],[-70.940041,-34.230655],[-70.940094,-34.231017],[-70.940094,-34.231315],[-70.940105,-34.231634],[-70.940137,-34.231964],[-70.940169,-34.232072],[-70.940222,-34.232188],[-70.940274,-34.232268],[-70.940305,-34.232362],[-70.940333,-34.232523],[-70.940365,-34.232614],[-70.940417,-34.232677],[-70.940473,-34.232729],[-70.940574,-34.232824],[-70.940658,-34.232879],[-70.940818,-34.232975],[-70.94102,-34.233049],[-70.941243,-34.233177],[-70.941531,-34.233401],[-70.941765,-34.233624],[-70.941999,-34.233773],[-70.942276,-34.233954],[-70.942542,-34.234114],[-70.942882,-34.234263],[-70.943191,-34.23439],[-70.943489,-34.234529],[-70.943808,-34.234741],[-70.944042,-34.234901],[-70.944287,-34.235125],[-70.944553,-34.235412],[-70.944766,-34.235699],[-70.944928,-34.23589],[-70.944867,-34.236293],[-70.939794,-34.23761],[-70.939164,-34.241812],[-70.934091,-34.243129],[-70.93346,-34.24733],[-70.937903,-34.250216],[-70.942976,-34.2489],[-70.947419,-34.251785],[-70.952492,-34.250469],[-70.953123,-34.246267],[-70.958196,-34.24495],[-70.96264,-34.247835],[-70.962942,-34.247756],[-70.96295,-34.247762],[-70.963142,-34.247801],[-70.963398,-34.247831],[-70.963625,-34.247845],[-70.963802,-34.247894],[-70.963945,-34.248032],[-70.964033,-34.248195],[-70.964159,-34.248373],[-70.964305,-34.24848],[-70.964444,-34.24855],[-70.964628,-34.248588],[-70.964905,-34.248673],[-70.965144,-34.248788],[-70.965259,-34.248888],[-70.96529,-34.249034],[-70.965313,-34.249211],[-70.965321,-34.249373],[-70.965359,-34.249557],[-70.965459,-34.24968],[-70.965613,-34.249765],[-70.965882,-34.249865],[-70.966059,-34.249957],[-70.96622,-34.249988],[-70.966451,-34.249995],[-70.966469,-34.25],[-70.966659,-34.250049],[-70.966836,-34.250111],[-70.967074,-34.250172],[-70.967328,-34.250188],[-70.967566,-34.250157],[-70.967779,-34.250191],[-70.967996,-34.250371],[-70.968267,-34.250516],[-70.968484,-34.250606],[-70.968665,-34.250606],[-70.968845,-34.25048],[-70.969153,-34.250371],[-70.969388,-34.250299],[-70.969695,-34.250317],[-70.969984,-34.250498],[-70.970291,-34.250715],[-70.970652,-34.250932],[-70.970996,-34.251166],[-70.971321,-34.251293],[-70.97161,-34.25151],[-70.971807,-34.251741],[-70.971528,-34.253604],[-70.966454,-34.254921],[-70.965823,-34.259123],[-70.970267,-34.262008],[-70.975342,-34.26069],[-70.975972,-34.256489],[-70.978826,-34.255748],[-70.978936,-34.255814],[-70.979384,-34.256074],[-70.979861,-34.256335],[-70.980613,-34.256682],[-70.981047,-34.256971],[-70.981495,-34.25726],[-70.981957,-34.257506],[-70.982463,-34.257694],[-70.982854,-34.257983],[-70.983172,-34.25833],[-70.983605,-34.258734],[-70.983938,-34.259038],[-70.984285,-34.259284],[-70.984733,-34.259573],[-70.985109,-34.259934],[-70.985196,-34.260026],[-70.985369,-34.260209],[-70.985731,-34.260816],[-70.985962,-34.26112],[-70.986252,-34.26126],[-70.98626,-34.261604],[-70.986339,-34.261928],[-70.9865,-34.26236],[-70.986807,-34.262835],[-70.987536,-34.26361],[-70.98936,-34.265114],[-70.989372,-34.265124],[-70.989306,-34.265141],[-70.988676,-34.269342],[-70.993122,-34.272226],[-70.992492,-34.276427],[-70.996937,-34.27931],[-71.002013,-34.277992],[-71.006459,-34.280875],[-71.009404,-34.28011],[-71.009897,-34.280483],[-71.010194,-34.280766],[-71.010462,-34.280709],[-71.01107,-34.280709],[-71.011734,-34.280836],[-71.012385,-34.281105],[-71.013134,-34.281218],[-71.013812,-34.281261],[-71.014324,-34.281366],[-71.014364,-34.281374],[-71.015028,-34.281699],[-71.015452,-34.281923],[-71.015947,-34.28217],[-71.0164,-34.282331],[-71.016494,-34.282365],[-71.017643,-34.282859],[-71.017961,-34.282806],[-71.018491,-34.282983],[-71.018862,-34.283231],[-71.019127,-34.283655],[-71.019463,-34.284079],[-71.020134,-34.284485],[-71.020894,-34.28475],[-71.022007,-34.284927],[-71.022908,-34.285068],[-71.023526,-34.285209],[-71.024074,-34.285457],[-71.024304,-34.285669],[-71.024586,-34.286093],[-71.024692,-34.286658],[-71.024692,-34.287206],[-71.024763,-34.287612],[-71.024941,-34.287766],[-71.025028,-34.287842],[-71.025434,-34.287966],[-71.026106,-34.288072],[-71.026724,-34.288301],[-71.027237,-34.288602],[-71.027784,-34.288955],[-71.028332,-34.289255],[-71.029039,-34.28998],[-71.029415,-34.290467],[-71.029664,-34.290964],[-71.029674,-34.290995],[-71.029885,-34.291627],[-71.030133,-34.292124],[-71.030354,-34.292372],[-71.030823,-34.292538],[-71.031403,-34.292538],[-71.031872,-34.292538],[-71.032424,-34.292814],[-71.032949,-34.293338],[-71.033336,-34.293725],[-71.033639,-34.294249],[-71.033943,-34.294691],[-71.034495,-34.295271],[-71.03502,-34.295768],[-71.035572,-34.296348],[-71.036013,-34.297121],[-71.036203,-34.297373],[-71.036262,-34.297452],[-71.036621,-34.297728],[-71.037173,-34.297811],[-71.037808,-34.29759],[-71.038194,-34.29759],[-71.038691,-34.297645],[-71.038857,-34.2977],[-71.039105,-34.297976],[-71.039437,-34.298308],[-71.03974,-34.298694],[-71.040154,-34.299108],[-71.040403,-34.299329],[-71.040679,-34.299412],[-71.04101,-34.299412],[-71.041314,-34.299357],[-71.041806,-34.299175],[-71.042665,-34.299732],[-71.04401,-34.299382],[-71.044019,-34.299384],[-71.044516,-34.299467],[-71.044958,-34.299495],[-71.045593,-34.299384],[-71.04609,-34.299219],[-71.046587,-34.299219],[-71.047028,-34.299329],[-71.047498,-34.299633],[-71.047912,-34.300074],[-71.048574,-34.300516],[-71.049044,-34.300792],[-71.049403,-34.300903],[-71.049982,-34.30093],[-71.050562,-34.301041],[-71.051142,-34.301041],[-71.051473,-34.301041],[-71.051832,-34.301068],[-71.051849,-34.301072],[-71.052191,-34.301294],[-71.052455,-34.301225],[-71.05266,-34.301289],[-71.052991,-34.301427],[-71.05335,-34.30151],[-71.053875,-34.301565],[-71.054648,-34.30162],[-71.0552,-34.301648],[-71.055725,-34.301731],[-71.056056,-34.301897],[-71.056442,-34.3022],[-71.056994,-34.302449],[-71.057409,-34.30278],[-71.057685,-34.303111],[-71.057878,-34.303415],[-71.058126,-34.303663],[-71.05832,-34.303884],[-71.058623,-34.303912],[-71.058955,-34.303939],[-71.059286,-34.303967],[-71.059534,-34.303967],[-71.059866,-34.303967],[-71.060224,-34.303967],[-71.060666,-34.303995],[-71.061053,-34.304105],[-71.061478,-34.304455],[-71.061522,-34.304492],[-71.06177,-34.304768],[-71.061936,-34.305044],[-71.062102,-34.305513],[-71.062323,-34.305844],[-71.062516,-34.306093],[-71.062859,-34.306009],[-71.063203,-34.306005],[-71.063501,-34.306059],[-71.063744,-34.306127],[-71.064055,-34.306249],[-71.064353,-34.306411],[-71.064637,-34.30656],[-71.064881,-34.306817],[-71.065043,-34.307047],[-71.065111,-34.307317],[-71.065192,-34.307629],[-71.065422,-34.307899],[-71.065774,-34.308278],[-71.06618,-34.308711],[-71.066518,-34.309158],[-71.066856,-34.30955],[-71.066879,-34.309587],[-71.065538,-34.309936],[-71.064909,-34.314136],[-71.05983,-34.315455],[-71.055381,-34.312575],[-71.056011,-34.308375],[-71.051562,-34.305494],[-71.046484,-34.306813],[-71.045855,-34.311013],[-71.040777,-34.312331],[-71.040148,-34.31653],[-71.044596,-34.319411],[-71.043967,-34.32361],[-71.045646,-34.324697],[-71.045367,-34.324751],[-71.044714,-34.324751],[-71.044097,-34.324751],[-71.04348,-34.324642],[-71.042696,-34.32452],[-71.042091,-34.324459],[-71.041668,-34.324439],[-71.041077,-34.324569],[-71.040478,-34.324681],[-71.039626,-34.324977],[-71.038946,-34.325476],[-71.038772,-34.325708],[-71.038266,-34.326383],[-71.037314,-34.326927],[-71.036135,-34.327607],[-71.03559,-34.328061],[-71.035318,-34.328605],[-71.035228,-34.328968],[-71.034502,-34.329376],[-71.033731,-34.329603],[-71.032955,-34.330297],[-71.028734,-34.327563],[-71.029363,-34.323365],[-71.024916,-34.320483],[-71.025545,-34.316285],[-71.021098,-34.313403],[-71.021727,-34.309204],[-71.01728,-34.306323]],[[-71.022986,-34.300805],[-71.027434,-34.303687],[-71.032511,-34.302369],[-71.03314,-34.298169],[-71.028693,-34.295287],[-71.023616,-34.296605],[-71.022986,-34.300805]],[[-70.984896,-34.294544],[-70.985526,-34.290345],[-70.981081,-34.287462],[-70.981711,-34.283262],[-70.986786,-34.281945],[-70.987416,-34.277744],[-70.982971,-34.274861],[-70.983601,-34.27066],[-70.979156,-34.267776],[-70.974082,-34.269093],[-70.969637,-34.266209],[-70.964563,-34.267526],[-70.963933,-34.271726],[-70.968377,-34.27461],[-70.967747,-34.278811],[-70.962672,-34.280127],[-70.962042,-34.284327],[-70.966486,-34.287211],[-70.971561,-34.285894],[-70.976006,-34.288778],[-70.975376,-34.292978],[-70.979821,-34.295861],[-70.984896,-34.294544]],[[-70.960119,-34.264641],[-70.960749,-34.26044],[-70.956306,-34.257555],[-70.951232,-34.258872],[-70.950601,-34.263073],[-70.955045,-34.265957],[-70.960119,-34.264641]],[[-70.920134,-34.238672],[-70.920765,-34.23447],[-70.925837,-34.233154],[-70.930279,-34.23604],[-70.935352,-34.234724],[-70.935982,-34.230521],[-70.93154,-34.227635],[-70.926468,-34.228952],[-70.922026,-34.226065],[-70.916954,-34.227381],[-70.916324,-34.231584],[-70.911252,-34.232899],[-70.910621,-34.237101],[-70.915062,-34.239988],[-70.920134,-34.238672]]]},"properties":{"comuna":"Coinco","mancha_id":"06103-88b2c02481fffff","clase":"Medio","nivel_medio":2.044,"nivel_medio_min":1.515,"nivel_medio_max":2.496,"pct_alto":29.3,"n_hexagonos":102,"area_ha":5696.46}},{"type":"Feature","geometry":{"type":"Polygon","coordinates":[[[-70.901739,-34.231328],[-70.901108,-34.23553],[-70.899744,-34.235883],[-70.899735,-34.235851],[-70.899677,-34.235439],[-70.899642,-34.235186],[-70.899588,-34.234699],[-70.899512,-34.234011],[-70.899479,-34.233781],[-70.899465,-34.23368],[-70.899437,-34.233483],[-70.899389,-34.233233],[-70.899376,-34.233165],[-70.899346,-34.232933],[-70.899335,-34.232852],[-70.899324,-34.232768],[-70.899221,-34.231984],[-70.898929,-34.229501],[-70.901739,-34.231328]]]},"properties":{"comuna":"Coinco","mancha_id":"06103-88b2c1c9dbfffff","clase":"Alto","nivel_medio":2.813,"nivel_medio_min":2.813,"nivel_medio_max":2.813,"pct_alto":77.5,"n_hexagonos":1,"area_ha":11.29}},{"type":"Feature","geometry":{"type":"Polygon","coordinates":[[[-70.950601,-34.263073],[-70.951232,-34.258872],[-70.956306,-34.257555],[-70.960749,-34.26044],[-70.960119,-34.264641],[-70.955045,-34.265957],[-70.950601,-34.263073]]]},"properties":{"comuna":"Coinco","mancha_id":"06103-88b2c1c9a7fffff","clase":"Alto","nivel_medio":2.53,"nivel_medio_min":2.53,"nivel_medio_max":2.53,"pct_alto":62.3,"n_hexagonos":1,"area_ha":62.79}},{"type":"Feature","geometry":{"type":"Polygon","coordinates":[[[-70.908375,-34.263811],[-70.908161,-34.263168],[-70.908073,-34.262907],[-70.908073,-34.262243],[-70.908134,-34.26164],[-70.908092,-34.260925],[-70.907914,-34.260419],[-70.907531,-34.260012],[-70.907215,-34.259782],[-70.907466,-34.258107],[-70.912539,-34.256792],[-70.91698,-34.259678],[-70.922053,-34.258364],[-70.926495,-34.261249],[-70.925865,-34.26545],[-70.920792,-34.266764],[-70.920161,-34.270964],[-70.915088,-34.272278],[-70.912093,-34.270333],[-70.912114,-34.269902],[-70.912174,-34.268998],[-70.911803,-34.268272],[-70.911743,-34.267527],[-70.911571,-34.267068],[-70.911117,-34.266827],[-70.911033,-34.26682],[-70.910593,-34.266788],[-70.910089,-34.266648],[-70.909581,-34.265982],[-70.908797,-34.264716],[-70.908375,-34.263811]]]},"properties":{"comuna":"Coinco","mancha_id":"06103-88b2c15269fffff","clase":"Alto","nivel_medio":2.943,"nivel_medio_min":2.627,"nivel_medio_max":3.121,"pct_alto":77.4,"n_hexagonos":4,"area_ha":186.9}},{"type":"Feature","geometry":{"type":"Polygon","coordinates":[[[-70.914457,-34.276478],[-70.918899,-34.279363],[-70.918561,-34.281613],[-70.917964,-34.281662],[-70.915974,-34.281843],[-70.914225,-34.281843],[-70.912958,-34.281361],[-70.912114,-34.280758],[-70.911873,-34.280396],[-70.911813,-34.279733],[-70.911752,-34.278949],[-70.911451,-34.277622],[-70.911451,-34.277256],[-70.914457,-34.276478]]]},"properties":{"comuna":"Coinco","mancha_id":"06103-88b2c15267fffff","clase":"Alto","nivel_medio":3.46,"nivel_medio_min":3.46,"nivel_medio_max":3.46,"pct_alto":86.1,"n_hexagonos":1,"area_ha":29.64}},{"type":"Feature","geometry":{"type":"Polygon","coordinates":[[[-70.886453,-34.26749],[-70.886445,-34.267495],[-70.885473,-34.268168],[-70.884951,-34.268449],[-70.884256,-34.268936],[-70.883766,-34.269557],[-70.883136,-34.27043],[-70.882492,-34.271141],[-70.882312,-34.271549],[-70.882156,-34.272239],[-70.882099,-34.272611],[-70.881982,-34.272779],[-70.8817,-34.272851],[-70.881528,-34.272693],[-70.88125,-34.272366],[-70.88095,-34.271712],[-70.880592,-34.271085],[-70.880188,-34.270553],[-70.879593,-34.270053],[-70.878613,-34.269224],[-70.877918,-34.268756],[-70.877493,-34.268462],[-70.876774,-34.268037],[-70.876728,-34.268025],[-70.876268,-34.267907],[-70.875647,-34.267923],[-70.874617,-34.268018],[-70.872883,-34.268244],[-70.871828,-34.268244],[-70.871172,-34.268184],[-70.870848,-34.268093],[-70.870714,-34.267939],[-70.870682,-34.267678],[-70.871526,-34.267038],[-70.872356,-34.266359],[-70.873863,-34.265756],[-70.874994,-34.265078],[-70.875286,-34.264851],[-70.875673,-34.26455],[-70.876276,-34.263947],[-70.876577,-34.263118],[-70.876879,-34.262439],[-70.877379,-34.261683],[-70.877689,-34.261226],[-70.877934,-34.26063],[-70.878593,-34.259357],[-70.879036,-34.258526],[-70.879208,-34.258181],[-70.879479,-34.25764],[-70.879978,-34.256892],[-70.880774,-34.256197],[-70.881169,-34.255839],[-70.881529,-34.255451],[-70.881667,-34.254814],[-70.881695,-34.253956],[-70.881418,-34.253291],[-70.88114,-34.252816],[-70.880947,-34.252487],[-70.880498,-34.251736],[-70.880321,-34.251537],[-70.880176,-34.251382],[-70.880005,-34.251168],[-70.8799,-34.250847],[-70.879885,-34.250567],[-70.87986,-34.250292],[-70.879799,-34.250088],[-70.87975,-34.25],[-70.879692,-34.249895],[-70.879534,-34.249671],[-70.879417,-34.249396],[-70.879272,-34.248876],[-70.87917,-34.248569],[-70.878562,-34.247987],[-70.87834,-34.247599],[-70.878123,-34.246948],[-70.877797,-34.246301],[-70.877455,-34.245703],[-70.877453,-34.245697],[-70.880191,-34.244988],[-70.880553,-34.242575],[-70.880698,-34.242696],[-70.880914,-34.242816],[-70.881204,-34.24294],[-70.881494,-34.243056],[-70.881813,-34.243172],[-70.882147,-34.243259],[-70.882358,-34.243266],[-70.882546,-34.243245],[-70.882844,-34.243165],[-70.883108,-34.243071],[-70.88351,-34.242991],[-70.883858,-34.242777],[-70.884179,-34.242937],[-70.884607,-34.242964],[-70.885143,-34.242616],[-70.885759,-34.242428],[-70.886508,-34.242375],[-70.887312,-34.242482],[-70.888061,-34.242643],[-70.888677,-34.24275],[-70.889265,-34.242775],[-70.889694,-34.242638],[-70.890054,-34.242433],[-70.890303,-34.24234],[-70.890516,-34.242261],[-70.89103,-34.242176],[-70.891051,-34.242174],[-70.891476,-34.242141],[-70.891973,-34.242021],[-70.892212,-34.241873],[-70.89247,-34.241713],[-70.892847,-34.241439],[-70.89355,-34.24113],[-70.894338,-34.240873],[-70.894715,-34.240668],[-70.894852,-34.240428],[-70.895006,-34.240188],[-70.89528,-34.239896],[-70.895621,-34.239608],[-70.895405,-34.241046],[-70.899846,-34.243933],[-70.899215,-34.248134],[-70.903656,-34.25102],[-70.903025,-34.255221],[-70.897953,-34.256535],[-70.893512,-34.253648],[-70.894143,-34.249448],[-70.889703,-34.246561],[-70.884631,-34.247875],[-70.884,-34.252075],[-70.88844,-34.254962],[-70.887809,-34.259162],[-70.890733,-34.261063],[-70.890448,-34.261158],[-70.890074,-34.26127],[-70.889759,-34.261534],[-70.889544,-34.262062],[-70.889167,-34.26259],[-70.888488,-34.264399],[-70.88781,-34.265605],[-70.886453,-34.26749]]]},"properties":{"comuna":"Coinco","mancha_id":"06103-88b2c15241fffff","clase":"Alto","nivel_medio":2.739,"nivel_medio_min":2.534,"nivel_medio_max":2.998,"pct_alto":67.6,"n_hexagonos":10,"area_ha":383.75}},{"type":"Feature","geometry":{"type":"Polygon","coordinates":[[[-70.971595,-34.318168],[-70.97604,-34.321051],[-70.975893,-34.32203],[-70.975192,-34.32203],[-70.974058,-34.32203],[-70.972652,-34.322121],[-70.971882,-34.322121],[-70.971201,-34.32203],[-70.970567,-34.321849],[-70.969614,-34.321441],[-70.969116,-34.320987],[-70.968617,-34.320488],[-70.968209,-34.32008],[-70.967891,-34.319718],[-70.967663,-34.319535],[-70.967361,-34.319358],[-70.967156,-34.319318],[-70.966836,-34.319257],[-70.966252,-34.319297],[-70.966231,-34.319297],[-70.965707,-34.319286],[-70.965243,-34.319176],[-70.96484,-34.318914],[-70.964437,-34.318692],[-70.96372,-34.318539],[-70.96313,-34.318266],[-70.96245,-34.317904],[-70.961906,-34.317541],[-70.961452,-34.317088],[-70.961324,-34.316795],[-70.961135,-34.316362],[-70.960727,-34.315773],[-70.960364,-34.315228],[-70.960228,-34.314412],[-70.960183,-34.313777],[-70.960001,-34.313052],[-70.959729,-34.312372],[-70.958913,-34.311646],[-70.958233,-34.311193],[-70.957553,-34.310694],[-70.956691,-34.310286],[-70.956329,-34.310105],[-70.955988,-34.310162],[-70.955564,-34.310364],[-70.95504,-34.310868],[-70.954294,-34.311554],[-70.953744,-34.312009],[-70.952941,-34.312459],[-70.95261,-34.312644],[-70.951753,-34.313328],[-70.95135,-34.313711],[-70.951017,-34.313991],[-70.95059,-34.314705],[-70.950045,-34.313832],[-70.9493,-34.313007],[-70.948801,-34.312689],[-70.947849,-34.312281],[-70.946897,-34.312281],[-70.945718,-34.312236],[-70.945174,-34.311873],[-70.944358,-34.311419],[-70.943541,-34.311011],[-70.943418,-34.310915],[-70.942907,-34.310513],[-70.942362,-34.309787],[-70.942136,-34.308926],[-70.941592,-34.308109],[-70.941545,-34.307889],[-70.941452,-34.307443],[-70.941339,-34.306954],[-70.941189,-34.30639],[-70.941189,-34.305863],[-70.941302,-34.305374],[-70.94164,-34.30481],[-70.941753,-34.304396],[-70.941753,-34.303982],[-70.941753,-34.303493],[-70.941791,-34.302854],[-70.942092,-34.302252],[-70.942092,-34.30165],[-70.942092,-34.301603],[-70.942092,-34.301011],[-70.941941,-34.300484],[-70.941941,-34.300033],[-70.942392,-34.299318],[-70.942543,-34.298603],[-70.942844,-34.297701],[-70.943446,-34.296647],[-70.943747,-34.295782],[-70.943952,-34.295628],[-70.944198,-34.295444],[-70.944499,-34.295105],[-70.944837,-34.294616],[-70.945063,-34.294165],[-70.945007,-34.293685],[-70.944395,-34.293168],[-70.942891,-34.292792],[-70.942233,-34.292698],[-70.941668,-34.292369],[-70.941361,-34.292145],[-70.941745,-34.289588],[-70.937301,-34.286703],[-70.934131,-34.287525],[-70.933886,-34.286772],[-70.933422,-34.285025],[-70.933695,-34.283906],[-70.934322,-34.28205],[-70.934404,-34.28145],[-70.933913,-34.280849],[-70.933176,-34.280713],[-70.932438,-34.280643],[-70.930939,-34.280797],[-70.9299,-34.281122],[-70.928247,-34.282051],[-70.928415,-34.280934],[-70.933489,-34.279619],[-70.934119,-34.27542],[-70.939193,-34.274105],[-70.939824,-34.269905],[-70.935381,-34.26702],[-70.936011,-34.262819],[-70.941085,-34.261504],[-70.945528,-34.264389],[-70.944897,-34.268589],[-70.949341,-34.271474],[-70.94871,-34.275674],[-70.943636,-34.276989],[-70.943006,-34.281189],[-70.947449,-34.284074],[-70.946819,-34.288273],[-70.951263,-34.291157],[-70.950632,-34.295356],[-70.955076,-34.29824],[-70.954446,-34.302438],[-70.949371,-34.303753],[-70.948741,-34.307951],[-70.953185,-34.310834],[-70.95826,-34.30952],[-70.95889,-34.305322],[-70.963965,-34.304007],[-70.964595,-34.299808],[-70.969671,-34.298493],[-70.974115,-34.301376],[-70.973485,-34.305574],[-70.96841,-34.30689],[-70.96778,-34.311088],[-70.972225,-34.313971],[-70.971595,-34.318168]]]},"properties":{"comuna":"Coinco","mancha_id":"06103-88b2c1514bfffff","clase":"Alto","nivel_medio":2.856,"nivel_medio_min":2.507,"nivel_medio_max":3.401,"pct_alto":76.3,"n_hexagonos":17,"area_ha":731.11}},{"type":"Feature","geometry":{"type":"Polygon","coordinates":[[[-70.96264,-34.247835],[-70.958196,-34.24495],[-70.958254,-34.244565],[-70.95827,-34.244574],[-70.958557,-34.24467],[-70.958791,-34.24483],[-70.958962,-34.244925],[-70.959062,-34.24501],[-70.959249,-34.245212],[-70.959387,-34.24536],[-70.95951,-34.245492],[-70.959608,-34.245606],[-70.959716,-34.245729],[-70.959908,-34.245891],[-70.960135,-34.246068],[-70.960327,-34.246221],[-70.960524,-34.246388],[-70.960691,-34.246521],[-70.960883,-34.246664],[-70.9611,-34.246831],[-70.96139,-34.246994],[-70.961646,-34.247107],[-70.961917,-34.2472],[-70.962082,-34.247277],[-70.962249,-34.247346],[-70.962478,-34.247454],[-70.96264,-34.24753],[-70.962783,-34.247653],[-70.962942,-34.247756],[-70.96264,-34.247835]]]},"properties":{"comuna":"Coinco","mancha_id":"06103-88b2c026dbfffff","clase":"Alto","nivel_medio":2.676,"nivel_medio_min":2.676,"nivel_medio_max":2.676,"pct_alto":71.0,"n_hexagonos":1,"area_ha":1.07}},{"type":"Feature","geometry":{"type":"Polygon","coordinates":[[[-70.963933,-34.271726],[-70.964563,-34.267526],[-70.969637,-34.266209],[-70.974082,-34.269093],[-70.979156,-34.267776],[-70.983601,-34.27066],[-70.982971,-34.274861],[-70.987416,-34.277744],[-70.986786,-34.281945],[-70.981711,-34.283262],[-70.981081,-34.287462],[-70.985526,-34.290345],[-70.984896,-34.294544],[-70.979821,-34.295861],[-70.975376,-34.292978],[-70.976006,-34.288778],[-70.971561,-34.285894],[-70.966486,-34.287211],[-70.962042,-34.284327],[-70.962672,-34.280127],[-70.967747,-34.278811],[-70.968377,-34.27461],[-70.963933,-34.271726]]]},"properties":{"comuna":"Coinco","mancha_id":"06103-88b2c02693fffff","clase":"Alto","nivel_medio":2.755,"nivel_medio_min":2.539,"nivel_medio_max":3.026,"pct_alto":78.4,"n_hexagonos":7,"area_ha":439.43}},{"type":"Feature","geometry":{"type":"Polygon","coordinates":[[[-71.052455,-34.301225],[-71.052191,-34.301294],[-71.051849,-34.301072],[-71.052219,-34.301151],[-71.052455,-34.301225]]]},"properties":{"comuna":"Coinco","mancha_id":"06103-88b2c024e5fffff","clase":"Alto","nivel_medio":3.0,"nivel_medio_min":3.0,"nivel_medio_max":3.0,"pct_alto":100.0,"n_hexagonos":1,"area_ha":0.05}},{"type":"Feature","geometry":{"type":"Polygon","coordinates":[[[-71.04401,-34.299382],[-71.042665,-34.299732],[-71.041806,-34.299175],[-71.041838,-34.299163],[-71.042225,-34.299136],[-71.042584,-34.299136],[-71.04297,-34.299163],[-71.043357,-34.299246],[-71.04401,-34.299382]]]},"properties":{"comuna":"Coinco","mancha_id":"06103-88b2c024e1fffff","clase":"Alto","nivel_medio":2.901,"nivel_medio_min":2.901,"nivel_medio_max":2.901,"pct_alto":96.7,"n_hexagonos":1,"area_ha":0.7}},{"type":"Feature","geometry":{"type":"Polygon","coordinates":[[[-71.040148,-34.31653],[-71.040777,-34.312331],[-71.045855,-34.311013],[-71.046484,-34.306813],[-71.051562,-34.305494],[-71.056011,-34.308375],[-71.055381,-34.312575],[-71.05983,-34.315455],[-71.064909,-34.314136],[-71.065538,-34.309936],[-71.066879,-34.309587],[-71.067167,-34.310064],[-71.067411,-34.310416],[-71.067587,-34.310822],[-71.067709,-34.311336],[-71.067749,-34.311715],[-71.067857,-34.312121],[-71.068128,-34.312689],[-71.068317,-34.313068],[-71.068507,-34.313379],[-71.068764,-34.313649],[-71.069089,-34.31392],[-71.069305,-34.314069],[-71.069454,-34.314218],[-71.069603,-34.314488],[-71.069779,-34.314813],[-71.070063,-34.315043],[-71.070374,-34.315151],[-71.07078,-34.315192],[-71.071199,-34.315151],[-71.071592,-34.315165],[-71.072011,-34.315314],[-71.07239,-34.315571],[-71.072931,-34.315692],[-71.073472,-34.315665],[-71.073851,-34.315598],[-71.074122,-34.315408],[-71.074379,-34.315219],[-71.074523,-34.315123],[-71.074622,-34.315057],[-71.074906,-34.315043],[-71.075569,-34.315029],[-71.076503,-34.31507],[-71.077044,-34.315084],[-71.077531,-34.315138],[-71.077788,-34.3153],[-71.077951,-34.315503],[-71.078086,-34.31576],[-71.078221,-34.316085],[-71.078384,-34.31641],[-71.078519,-34.316599],[-71.078762,-34.316788],[-71.079006,-34.316856],[-71.079439,-34.316883],[-71.080048,-34.316924],[-71.080372,-34.31691],[-71.080738,-34.316829],[-71.081103,-34.316653],[-71.081536,-34.316355],[-71.081996,-34.316085],[-71.082307,-34.31599],[-71.082618,-34.315922],[-71.083051,-34.315814],[-71.083768,-34.315692],[-71.084212,-34.315608],[-71.084269,-34.315598],[-71.084783,-34.315503],[-71.08523,-34.315368],[-71.085581,-34.315219],[-71.085933,-34.315043],[-71.086474,-34.314772],[-71.086853,-34.314515],[-71.087137,-34.314367],[-71.087503,-34.314245],[-71.087483,-34.314848],[-71.087156,-34.315392],[-71.086648,-34.316045],[-71.08585,-34.316806],[-71.08527,-34.317496],[-71.084999,-34.317925],[-71.084834,-34.318185],[-71.084472,-34.318838],[-71.084181,-34.319382],[-71.083891,-34.320216],[-71.083529,-34.321123],[-71.082984,-34.321958],[-71.082513,-34.322502],[-71.081279,-34.323082],[-71.080626,-34.323517],[-71.079947,-34.32387],[-71.079647,-34.324025],[-71.078849,-34.324569],[-71.078087,-34.325331],[-71.077724,-34.32602],[-71.077688,-34.326782],[-71.077797,-34.327834],[-71.077797,-34.328777],[-71.077724,-34.329539],[-71.077507,-34.330337],[-71.077507,-34.330918],[-71.077498,-34.331045],[-71.077471,-34.331462],[-71.077507,-34.332115],[-71.077507,-34.332731],[-71.077393,-34.333037],[-71.077253,-34.333275],[-71.077041,-34.333237],[-71.0768,-34.333037],[-71.076734,-34.332948],[-71.076492,-34.33262],[-71.07614,-34.332092],[-71.075584,-34.331462],[-71.074859,-34.33099],[-71.074133,-34.330736],[-71.073117,-34.330772],[-71.072211,-34.331063],[-71.071267,-34.331679],[-71.0708,-34.331828],[-71.070382,-34.331784],[-71.069635,-34.331425],[-71.068656,-34.331135],[-71.067712,-34.331389],[-71.067226,-34.331246],[-71.067096,-34.331208],[-71.066407,-34.330555],[-71.065971,-34.329793],[-71.0655,-34.329394],[-71.064629,-34.329394],[-71.063795,-34.329068],[-71.062888,-34.32885],[-71.062162,-34.328705],[-71.061546,-34.328451],[-71.061328,-34.328016],[-71.061219,-34.32758],[-71.061027,-34.327252],[-71.060965,-34.327145],[-71.06053,-34.326927],[-71.059841,-34.326746],[-71.058752,-34.326492],[-71.058099,-34.326057],[-71.057338,-34.32573],[-71.056394,-34.325513],[-71.055306,-34.325585],[-71.054472,-34.325513],[-71.05405,-34.325533],[-71.05371,-34.325549],[-71.052985,-34.325658],[-71.052368,-34.325621],[-71.052152,-34.325521],[-71.051824,-34.325367],[-71.05157,-34.325186],[-71.051171,-34.324787],[-71.050336,-34.324642],[-71.049502,-34.324823],[-71.048704,-34.324968],[-71.047507,-34.324896],[-71.046745,-34.324606],[-71.046128,-34.324606],[-71.045646,-34.324697],[-71.043967,-34.32361],[-71.044596,-34.319411],[-71.040148,-34.31653]]]},"properties":{"comuna":"Coinco","mancha_id":"06103-88b2c024a1fffff","clase":"Alto","nivel_medio":2.731,"nivel_medio_min":2.545,"nivel_medio_max":3.04,"pct_alto":73.5,"n_hexagonos":17,"area_ha":629.49}},{"type":"Feature","geometry":{"type":"Polygon","coordinates":[[[-71.011574,-34.311839],[-71.012203,-34.30764],[-71.007757,-34.304758],[-71.008386,-34.300559],[-71.013463,-34.299241],[-71.01791,-34.302123],[-71.01728,-34.306323],[-71.021727,-34.309204],[-71.021098,-34.313403],[-71.025545,-34.316285],[-71.024916,-34.320483],[-71.029363,-34.323365],[-71.028734,-34.327563],[-71.032955,-34.330297],[-71.03287,-34.330373],[-71.031691,-34.331598],[-71.031364,-34.332162],[-71.031101,-34.332595],[-71.030557,-34.332913],[-71.030033,-34.33315],[-71.029514,-34.333275],[-71.029004,-34.333372],[-71.02842,-34.333251],[-71.027701,-34.332913],[-71.027149,-34.332767],[-71.026524,-34.332586],[-71.025751,-34.332505],[-71.024871,-34.332364],[-71.024447,-34.332505],[-71.023937,-34.332867],[-71.023479,-34.333251],[-71.023364,-34.333296],[-71.022747,-34.333538],[-71.022169,-34.333775],[-71.021443,-34.334318],[-71.019675,-34.335135],[-71.018904,-34.335407],[-71.018314,-34.335951],[-71.018075,-34.336195],[-71.017658,-34.336336],[-71.017589,-34.336359],[-71.016727,-34.33645],[-71.016183,-34.33645],[-71.015655,-34.336578],[-71.015322,-34.336767],[-71.014708,-34.336941],[-71.014304,-34.337042],[-71.013961,-34.336994],[-71.013553,-34.336676],[-71.013281,-34.335679],[-71.013034,-34.335187],[-71.01257,-34.334905],[-71.012288,-34.334421],[-71.012011,-34.33382],[-71.011603,-34.33323],[-71.01115,-34.332777],[-71.010658,-34.33225],[-71.010515,-34.332097],[-71.010198,-34.331552],[-71.00979,-34.330918],[-71.009472,-34.330283],[-71.009142,-34.329863],[-71.009064,-34.329561],[-71.009064,-34.329149],[-71.008981,-34.328835],[-71.008719,-34.328795],[-71.008475,-34.328741],[-71.00784,-34.32856],[-71.00716,-34.328469],[-71.006389,-34.328696],[-71.005709,-34.329104],[-71.005119,-34.329149],[-71.00453,-34.329104],[-71.004126,-34.328961],[-71.003759,-34.328832],[-71.003215,-34.328333],[-71.002761,-34.328061],[-71.002172,-34.327698],[-71.001582,-34.327335],[-71.000993,-34.327063],[-71.000358,-34.326837],[-71.0,-34.326667],[-70.999496,-34.326428],[-70.998544,-34.326202],[-70.997456,-34.326156],[-70.996549,-34.326292],[-70.995778,-34.326292],[-70.995053,-34.326292],[-70.99478,-34.326209],[-70.994463,-34.326111],[-70.99333,-34.326111],[-70.992287,-34.326247],[-70.991478,-34.326516],[-70.990873,-34.326617],[-70.990167,-34.326597],[-70.989461,-34.326698],[-70.988171,-34.32702],[-70.987027,-34.327109],[-70.986376,-34.327182],[-70.985865,-34.327421],[-70.984932,-34.326816],[-70.985562,-34.322618],[-70.990638,-34.321303],[-70.991268,-34.317105],[-70.986822,-34.314222],[-70.987452,-34.310024],[-70.992528,-34.308708],[-70.996974,-34.31159],[-70.996344,-34.315789],[-71.000791,-34.318671],[-71.000161,-34.322869],[-71.004607,-34.32575],[-71.009684,-34.324434],[-71.010314,-34.320236],[-71.015391,-34.318919],[-71.016021,-34.314721],[-71.011574,-34.311839]]]},"properties":{"comuna":"Coinco","mancha_id":"06103-88b2c02483fffff","clase":"Alto","nivel_medio":2.643,"nivel_medio_min":2.504,"nivel_medio_max":2.854,"pct_alto":66.4,"n_hexagonos":14,"area_ha":689.03}},{"type":"Feature","geometry":{"type":"Polygon","coordinates":[[[-70.937301,-34.286703],[-70.941745,-34.289588],[-70.941361,-34.292145],[-70.941151,-34.291992],[-70.940164,-34.291804],[-70.938847,-34.291428],[-70.938001,-34.291287],[-70.936966,-34.290629],[-70.936946,-34.290616],[-70.935932,-34.289971],[-70.935133,-34.289406],[-70.934322,-34.28811],[-70.934131,-34.287525],[-70.937301,-34.286703]]]},"properties":{"comuna":"Coinco","mancha_id":"06103-88b2c15357fffff","clase":"Muy Alto","nivel_medio":3.907,"nivel_medio_min":3.907,"nivel_medio_max":3.907,"pct_alto":98.4,"n_hexagonos":1,"area_ha":23.42}},{"type":"Feature","geometry":{"type":"Polygon","coordinates":[[[-70.912093,-34.270333],[-70.915088,-34.272278],[-70.920161,-34.270964],[-70.924603,-34.273849],[-70.923973,-34.278049],[-70.918899,-34.279363],[-70.914457,-34.276478],[-70.911451,-34.277256],[-70.911451,-34.276355],[-70.911451,-34.27527],[-70.911692,-34.273943],[-70.911873,-34.273038],[-70.911933,-34.272254],[-70.912054,-34.271108],[-70.912093,-34.270333]]]},"properties":{"comuna":"Coinco","mancha_id":"06103-88b2c15261fffff","clase":"Muy Alto","nivel_medio":3.615,"nivel_medio_min":3.542,"nivel_medio_max":3.874,"pct_alto":88.8,"n_hexagonos":2,"area_ha":80.48}}],"bbox":[-71.08751,-34.33705,-70.87068,-34.21671]}