{"type":"FeatureCollection","features":[{"type":"Feature","geometry":{"type":"Polygon","coordinates":[[[-70.706829,-34.54631],[-70.707833,-34.546963],[-70.707651,-34.548161],[-70.707568,-34.548029],[-70.707335,-34.547589],[-70.707089,-34.546975],[-70.706861,-34.546412],[-70.706829,-34.54631]]]},"properties":{"comuna":"Malloa","mancha_id":"06109-88b2c1736dfffff","clase":"Bajo","nivel_medio":1.359,"nivel_medio_min":1.359,"nivel_medio_max":1.359,"pct_alto":0.0,"n_hexagonos":1,"area_ha":0.74}},{"type":"Feature","geometry":{"type":"Polygon","coordinates":[[[-71.029445,-34.387872],[-71.028816,-34.392065],[-71.025335,-34.392966],[-71.02533,-34.392955],[-71.025224,-34.392815],[-71.025101,-34.392665],[-71.024961,-34.392534],[-71.024767,-34.392402],[-71.024618,-34.392261],[-71.024486,-34.392103],[-71.024372,-34.391857],[-71.024293,-34.391628],[-71.024267,-34.39147],[-71.024135,-34.391338],[-71.024003,-34.391189],[-71.023871,-34.391075],[-71.02373,-34.390961],[-71.023563,-34.390829],[-71.023432,-34.390671],[-71.023397,-34.390512],[-71.023414,-34.390275],[-71.023484,-34.390038],[-71.023713,-34.389844],[-71.023915,-34.389721],[-71.024073,-34.389634],[-71.024302,-34.389598],[-71.024627,-34.389519],[-71.024908,-34.389431],[-71.025137,-34.389361],[-71.025347,-34.389344],[-71.025637,-34.389335],[-71.026156,-34.389317],[-71.026754,-34.389308],[-71.027079,-34.389344],[-71.027334,-34.389458],[-71.027588,-34.389528],[-71.027852,-34.389607],[-71.028133,-34.389616],[-71.028327,-34.38959],[-71.028502,-34.389563],[-71.028792,-34.389352],[-71.028986,-34.389115],[-71.029118,-34.388904],[-71.029109,-34.38872],[-71.02903,-34.388605],[-71.028845,-34.388544],[-71.028634,-34.3885],[-71.028415,-34.388324],[-71.028353,-34.388157],[-71.028362,-34.387885],[-71.028388,-34.387568],[-71.028467,-34.387252],[-71.02847,-34.387241],[-71.029445,-34.387872]]]},"properties":{"comuna":"Malloa","mancha_id":"06109-88b2c15ae3fffff","clase":"Bajo","nivel_medio":1.438,"nivel_medio_min":1.438,"nivel_medio_max":1.438,"pct_alto":4.7,"n_hexagonos":1,"area_ha":17.06}},{"type":"Feature","geometry":{"type":"Polygon","coordinates":[[[-70.962733,-34.389005],[-70.960877,-34.389485],[-70.959641,-34.388683],[-70.959752,-34.388693],[-70.960124,-34.388859],[-70.96032,-34.388668],[-70.960617,-34.388497],[-70.960851,-34.388292],[-70.961688,-34.388533],[-70.962162,-34.388738],[-70.962539,-34.38891],[-70.962646,-34.388961],[-70.962733,-34.389005]]]},"properties":{"comuna":"Malloa","mancha_id":"06109-88b2c151a9fffff","clase":"Bajo","nivel_medio":1.321,"nivel_medio_min":1.321,"nivel_medio_max":1.321,"pct_alto":3.0,"n_hexagonos":1,"area_ha":1.76}},{"type":"Feature","geometry":{"type":"Polygon","coordinates":[[[-70.715488,-34.565697],[-70.719246,-34.568138],[-70.719005,-34.569723],[-70.718249,-34.568897],[-70.718059,-34.568243],[-70.717352,-34.567472],[-70.716666,-34.56705],[-70.715822,-34.566575],[-70.715347,-34.566364],[-70.715131,-34.566244],[-70.714978,-34.566047],[-70.715089,-34.565858],[-70.715346,-34.565744],[-70.715488,-34.565697]]]},"properties":{"comuna":"Malloa","mancha_id":"06109-88b2c144d3fffff","clase":"Bajo","nivel_medio":0.909,"nivel_medio_min":0.909,"nivel_medio_max":0.909,"pct_alto":22.2,"n_hexagonos":1,"area_ha":3.58}},{"type":"Feature","geometry":{"type":"Polygon","coordinates":[[[-70.779976,-34.553613],[-70.780131,-34.552593],[-70.781475,-34.55225],[-70.780729,-34.552961],[-70.779976,-34.553613]]]},"properties":{"comuna":"Malloa","mancha_id":"06109-88b2c14431fffff","clase":"Bajo","nivel_medio":0.845,"nivel_medio_min":0.845,"nivel_medio_max":0.845,"pct_alto":0.0,"n_hexagonos":1,"area_ha":0.69}},{"type":"Feature","geometry":{"type":"Polygon","coordinates":[[[-70.809947,-34.548985],[-70.81058,-34.544806],[-70.812801,-34.544238],[-70.812707,-34.544992],[-70.812496,-34.545942],[-70.811915,-34.546945],[-70.811493,-34.548264],[-70.811177,-34.54895],[-70.810724,-34.549489],[-70.810542,-34.549705],[-70.809752,-34.550533],[-70.808591,-34.551166],[-70.807536,-34.551694],[-70.80648,-34.552433],[-70.805689,-34.552802],[-70.804897,-34.553066],[-70.804442,-34.55312],[-70.804872,-34.550283],[-70.809947,-34.548985]]]},"properties":{"comuna":"Malloa","mancha_id":"06109-88b2c14425fffff","clase":"Bajo","nivel_medio":1.129,"nivel_medio_min":1.117,"nivel_medio_max":1.146,"pct_alto":6.2,"n_hexagonos":2,"area_ha":20.79}},{"type":"Feature","geometry":{"type":"Polygon","coordinates":[[[-70.939339,-34.435323],[-70.93997,-34.431134],[-70.945047,-34.429825],[-70.949493,-34.432705],[-70.948862,-34.436894],[-70.943785,-34.438203],[-70.939339,-34.435323]]]},"properties":{"comuna":"Malloa","mancha_id":"06109-88b2c14319fffff","clase":"Bajo","nivel_medio":1.307,"nivel_medio_min":1.307,"nivel_medio_max":1.307,"pct_alto":12.5,"n_hexagonos":1,"area_ha":62.53}},{"type":"Feature","geometry":{"type":"Polygon","coordinates":[[[-70.865094,-34.442365],[-70.865726,-34.438178],[-70.870801,-34.436873],[-70.875244,-34.439754],[-70.874612,-34.443941],[-70.869537,-34.445247],[-70.868905,-34.449434],[-70.86383,-34.450739],[-70.859387,-34.447857],[-70.860019,-34.44367],[-70.865094,-34.442365]]]},"properties":{"comuna":"Malloa","mancha_id":"06109-88b2c142c5fffff","clase":"Bajo","nivel_medio":1.353,"nivel_medio_min":1.287,"nivel_medio_max":1.419,"pct_alto":0.3,"n_hexagonos":2,"area_ha":124.93}},{"type":"Feature","geometry":{"type":"Polygon","coordinates":[[[-70.83656,-34.469814],[-70.837192,-34.46563],[-70.842267,-34.464326],[-70.846709,-34.467208],[-70.846077,-34.471393],[-70.841002,-34.472696],[-70.83656,-34.469814]]]},"properties":{"comuna":"Malloa","mancha_id":"06109-88b2c14291fffff","clase":"Bajo","nivel_medio":1.063,"nivel_medio_min":1.063,"nivel_medio_max":1.063,"pct_alto":0.6,"n_hexagonos":1,"area_ha":62.41}},{"type":"Feature","geometry":{"type":"Polygon","coordinates":[[[-70.913298,-34.413849],[-70.908854,-34.410968],[-70.908917,-34.410549],[-70.9092,-34.41042],[-70.90903,-34.41017],[-70.908976,-34.410157],[-70.909485,-34.406778],[-70.914561,-34.405469],[-70.919005,-34.40835],[-70.918374,-34.412541],[-70.913298,-34.413849]]]},"properties":{"comuna":"Malloa","mancha_id":"06109-88b2c1426bfffff","clase":"Bajo","nivel_medio":1.444,"nivel_medio_min":1.444,"nivel_medio_max":1.444,"pct_alto":17.0,"n_hexagonos":1,"area_ha":62.49}},{"type":"Feature","geometry":{"type":"Polygon","coordinates":[[[-70.911196,-34.395417],[-70.910748,-34.398396],[-70.906893,-34.399391],[-70.906582,-34.397466],[-70.906504,-34.397009],[-70.906407,-34.39643],[-70.906393,-34.396273],[-70.906399,-34.396141],[-70.906423,-34.396039],[-70.906456,-34.395967],[-70.906515,-34.395884],[-70.906593,-34.395801],[-70.906657,-34.395741],[-70.90675,-34.395681],[-70.906863,-34.395636],[-70.90704,-34.395584],[-70.907471,-34.395494],[-70.909207,-34.395152],[-70.910141,-34.394959],[-70.910705,-34.394839],[-70.910905,-34.395054],[-70.911172,-34.395387],[-70.911196,-34.395417]]]},"properties":{"comuna":"Malloa","mancha_id":"06109-88b2c1424dfffff","clase":"Bajo","nivel_medio":1.242,"nivel_medio_min":1.242,"nivel_medio_max":1.242,"pct_alto":8.6,"n_hexagonos":1,"area_ha":16.28}},{"type":"Feature","geometry":{"type":"Polygon","coordinates":[[[-70.889838,-34.440023],[-70.89047,-34.435836],[-70.895546,-34.434529],[-70.89999,-34.43741],[-70.899358,-34.441598],[-70.894282,-34.442904],[-70.889838,-34.440023]]]},"properties":{"comuna":"Malloa","mancha_id":"06109-88b2c1423bfffff","clase":"Bajo","nivel_medio":1.43,"nivel_medio_min":1.43,"nivel_medio_max":1.43,"pct_alto":10.9,"n_hexagonos":1,"area_ha":62.49}},{"type":"Feature","geometry":{"type":"Polygon","coordinates":[[[-70.876508,-34.431379],[-70.871433,-34.432685],[-70.868651,-34.430881],[-70.869031,-34.430749],[-70.870074,-34.430405],[-70.871551,-34.429905],[-70.872645,-34.429538],[-70.87311,-34.42959],[-70.87376,-34.42937],[-70.874423,-34.429441],[-70.874988,-34.429425],[-70.875117,-34.429619],[-70.8753,-34.43007],[-70.875586,-34.430394],[-70.8759,-34.43033],[-70.876216,-34.429861],[-70.876587,-34.429586],[-70.87676,-34.429708],[-70.876508,-34.431379]]]},"properties":{"comuna":"Malloa","mancha_id":"06109-88b2c1421bfffff","clase":"Bajo","nivel_medio":1.19,"nivel_medio_min":1.19,"nivel_medio_max":1.19,"pct_alto":1.3,"n_hexagonos":1,"area_ha":16.18}},{"type":"Feature","geometry":{"type":"Polygon","coordinates":[[[-70.960343,-34.490283],[-70.960973,-34.486097],[-70.964921,-34.48508],[-70.9649,-34.485224],[-70.96471,-34.485642],[-70.964548,-34.48588],[-70.964287,-34.486078],[-70.963951,-34.486325],[-70.963754,-34.486478],[-70.963535,-34.486716],[-70.963477,-34.487034],[-70.963524,-34.487341],[-70.9637,-34.487611],[-70.964065,-34.487996],[-70.964938,-34.488946],[-70.965546,-34.489591],[-70.966267,-34.490465],[-70.966913,-34.491186],[-70.967445,-34.491832],[-70.967902,-34.492359],[-70.964791,-34.49316],[-70.960343,-34.490283]]]},"properties":{"comuna":"Malloa","mancha_id":"06109-88b2c1411bfffff","clase":"Bajo","nivel_medio":1.406,"nivel_medio_min":1.406,"nivel_medio_max":1.406,"pct_alto":4.8,"n_hexagonos":1,"area_ha":30.6}},{"type":"Feature","geometry":{"type":"Polygon","coordinates":[[[-70.886702,-34.493134],[-70.882258,-34.490254],[-70.877181,-34.491558],[-70.872737,-34.488678],[-70.867661,-34.489981],[-70.867029,-34.494165],[-70.861953,-34.495468],[-70.861321,-34.499651],[-70.856245,-34.500954],[-70.851802,-34.498074],[-70.852434,-34.493891],[-70.847991,-34.49101],[-70.848623,-34.486826],[-70.853698,-34.485523],[-70.858142,-34.488404],[-70.863217,-34.487101],[-70.863849,-34.482917],[-70.868925,-34.481613],[-70.873369,-34.484493],[-70.878445,-34.483189],[-70.882889,-34.486069],[-70.887966,-34.484765],[-70.892411,-34.487645],[-70.891779,-34.491829],[-70.895249,-34.494077],[-70.895241,-34.494084],[-70.894966,-34.49448],[-70.894351,-34.495226],[-70.894083,-34.495311],[-70.893668,-34.495438],[-70.892507,-34.495747],[-70.891473,-34.496549],[-70.890825,-34.497281],[-70.889734,-34.497732],[-70.889319,-34.49776],[-70.888728,-34.497837],[-70.888292,-34.497865],[-70.887355,-34.498149],[-70.88607,-34.497317],[-70.886702,-34.493134]]]},"properties":{"comuna":"Malloa","mancha_id":"06109-88b2c140c1fffff","clase":"Bajo","nivel_medio":1.249,"nivel_medio_min":1.016,"nivel_medio_max":1.475,"pct_alto":2.7,"n_hexagonos":7,"area_ha":410.95}},{"type":"Feature","geometry":{"type":"Polygon","coordinates":[[[-70.954602,-34.463593],[-70.955233,-34.459406],[-70.950785,-34.456527],[-70.951416,-34.452339],[-70.956494,-34.45103],[-70.960941,-34.453909],[-70.960311,-34.458097],[-70.964758,-34.460976],[-70.967676,-34.460224],[-70.967673,-34.460234],[-70.967692,-34.460695],[-70.967762,-34.461189],[-70.967787,-34.461715],[-70.967845,-34.46219],[-70.967845,-34.46252],[-70.967586,-34.462767],[-70.967179,-34.463045],[-70.966495,-34.463462],[-70.965964,-34.463994],[-70.965622,-34.464716],[-70.965546,-34.465437],[-70.965603,-34.466118],[-70.965622,-34.466349],[-70.96566,-34.467374],[-70.965736,-34.4684],[-70.965698,-34.469045],[-70.965356,-34.469653],[-70.964976,-34.470109],[-70.964689,-34.470385],[-70.964454,-34.470644],[-70.96436,-34.470868],[-70.964289,-34.471115],[-70.964277,-34.471433],[-70.964482,-34.471894],[-70.964772,-34.472528],[-70.96495,-34.473001],[-70.962866,-34.473538],[-70.958418,-34.470659],[-70.959049,-34.466472],[-70.954602,-34.463593]]]},"properties":{"comuna":"Malloa","mancha_id":"06109-88b2c14065fffff","clase":"Bajo","nivel_medio":1.396,"nivel_medio_min":1.209,"nivel_medio_max":1.425,"pct_alto":10.3,"n_hexagonos":4,"area_ha":181.74}},{"type":"Feature","geometry":{"type":"Polygon","coordinates":[[[-70.916507,-34.457307],[-70.917138,-34.45312],[-70.922215,-34.451812],[-70.92666,-34.454692],[-70.926029,-34.45888],[-70.920952,-34.460187],[-70.916507,-34.457307]]]},"properties":{"comuna":"Malloa","mancha_id":"06109-88b2c14043fffff","clase":"Bajo","nivel_medio":1.25,"nivel_medio_min":1.25,"nivel_medio_max":1.25,"pct_alto":0.0,"n_hexagonos":1,"area_ha":62.48}},{"type":"Feature","geometry":{"type":"Polygon","coordinates":[[[-70.922873,-34.479811],[-70.918427,-34.476932],[-70.91335,-34.478238],[-70.908904,-34.475359],[-70.909536,-34.471173],[-70.914613,-34.469867],[-70.919058,-34.472746],[-70.924136,-34.471439],[-70.928582,-34.474319],[-70.933659,-34.473012],[-70.938106,-34.475891],[-70.937475,-34.480077],[-70.932397,-34.481384],[-70.92795,-34.478505],[-70.922873,-34.479811]]]},"properties":{"comuna":"Malloa","mancha_id":"06109-88b2c14003fffff","clase":"Bajo","nivel_medio":1.383,"nivel_medio_min":1.258,"nivel_medio_max":1.451,"pct_alto":6.0,"n_hexagonos":3,"area_ha":187.37}},{"type":"Feature","geometry":{"type":"Polygon","coordinates":[[[-70.823234,-34.461168],[-70.81816,-34.462471],[-70.813844,-34.459669],[-70.814194,-34.459172],[-70.814611,-34.458765],[-70.81505,-34.458249],[-70.815205,-34.457861],[-70.815128,-34.457292],[-70.815309,-34.456646],[-70.815647,-34.456266],[-70.816213,-34.455946],[-70.816927,-34.455823],[-70.817691,-34.4557],[-70.818208,-34.455823],[-70.818946,-34.456044],[-70.819537,-34.456291],[-70.82003,-34.456586],[-70.820178,-34.456808],[-70.820892,-34.457177],[-70.821507,-34.457374],[-70.821873,-34.457189],[-70.822674,-34.456724],[-70.823145,-34.456515],[-70.823867,-34.456983],[-70.823234,-34.461168]]]},"properties":{"comuna":"Malloa","mancha_id":"06109-88b2c155a1fffff","clase":"Medio","nivel_medio":2.331,"nivel_medio_min":2.331,"nivel_medio_max":2.331,"pct_alto":33.1,"n_hexagonos":1,"area_ha":46.57}},{"type":"Feature","geometry":{"type":"Polygon","coordinates":[[[-70.800408,-34.48311],[-70.801041,-34.478927],[-70.806115,-34.477626],[-70.810556,-34.480508],[-70.809923,-34.484692],[-70.804849,-34.485993],[-70.800408,-34.48311]]]},"properties":{"comuna":"Malloa","mancha_id":"06109-88b2c1475dfffff","clase":"Medio","nivel_medio":2.45,"nivel_medio_min":2.45,"nivel_medio_max":2.45,"pct_alto":45.0,"n_hexagonos":1,"area_ha":62.37}},{"type":"Feature","geometry":{"type":"Polygon","coordinates":[[[-70.81563,-34.479207],[-70.816263,-34.475023],[-70.811821,-34.472141],[-70.812454,-34.467957],[-70.817528,-34.466655],[-70.821969,-34.469537],[-70.821337,-34.473722],[-70.825778,-34.476603],[-70.825146,-34.480787],[-70.820071,-34.482089],[-70.81563,-34.479207]]]},"properties":{"comuna":"Malloa","mancha_id":"06109-88b2c14741fffff","clase":"Medio","nivel_medio":2.229,"nivel_medio_min":2.132,"nivel_medio_max":2.326,"pct_alto":26.8,"n_hexagonos":2,"area_ha":124.77}},{"type":"Feature","geometry":{"type":"Polygon","coordinates":[[[-70.813732,-34.491756],[-70.814365,-34.487573],[-70.819439,-34.486272],[-70.823881,-34.489154],[-70.823248,-34.493337],[-70.818174,-34.494638],[-70.817541,-34.49882],[-70.812466,-34.500121],[-70.808025,-34.497239],[-70.808658,-34.493057],[-70.813732,-34.491756]]]},"properties":{"comuna":"Malloa","mancha_id":"06109-88b2c14709fffff","clase":"Medio","nivel_medio":2.14,"nivel_medio_min":2.028,"nivel_medio_max":2.251,"pct_alto":38.2,"n_hexagonos":2,"area_ha":124.71}},{"type":"Feature","geometry":{"type":"Polygon","coordinates":[[[-70.762995,-34.504752],[-70.762362,-34.508932],[-70.761304,-34.509203],[-70.761402,-34.509157],[-70.761992,-34.508763],[-70.762288,-34.508345],[-70.76246,-34.507975],[-70.762411,-34.507507],[-70.762313,-34.50704],[-70.762116,-34.506695],[-70.762116,-34.506301],[-70.762116,-34.505808],[-70.762214,-34.505316],[-70.762362,-34.504774],[-70.762536,-34.504453],[-70.762995,-34.504752]]]},"properties":{"comuna":"Malloa","mancha_id":"06109-88b2c14631fffff","clase":"Medio","nivel_medio":2.357,"nivel_medio_min":2.357,"nivel_medio_max":2.357,"pct_alto":35.7,"n_hexagonos":1,"area_ha":2.08}},{"type":"Feature","geometry":{"type":"Polygon","coordinates":[[[-70.842858,-34.524956],[-70.842932,-34.524467],[-70.844549,-34.524052],[-70.843577,-34.524676],[-70.842858,-34.524956]]]},"properties":{"comuna":"Malloa","mancha_id":"06109-88b2c14541fffff","clase":"Medio","nivel_medio":2.0,"nivel_medio_min":2.0,"nivel_medio_max":2.0,"pct_alto":0.0,"n_hexagonos":1,"area_ha":0.48}},{"type":"Feature","geometry":{"type":"Polygon","coordinates":[[[-70.751347,-34.57199],[-70.752859,-34.571604],[-70.753951,-34.572313],[-70.75392,-34.572365],[-70.753658,-34.572802],[-70.753077,-34.573118],[-70.752655,-34.573118],[-70.752022,-34.572538],[-70.751347,-34.57199]]]},"properties":{"comuna":"Malloa","mancha_id":"06109-88b2c14485fffff","clase":"Medio","nivel_medio":2.235,"nivel_medio_min":2.235,"nivel_medio_max":2.235,"pct_alto":53.6,"n_hexagonos":1,"area_ha":2.29}},{"type":"Feature","geometry":{"type":"Polygon","coordinates":[[[-70.792504,-34.553446],[-70.794722,-34.552879],[-70.795325,-34.55327],[-70.795029,-34.553383],[-70.793763,-34.553488],[-70.792504,-34.553446]]]},"properties":{"comuna":"Malloa","mancha_id":"06109-88b2c14435fffff","clase":"Medio","nivel_medio":2.104,"nivel_medio_min":2.104,"nivel_medio_max":2.104,"pct_alto":10.4,"n_hexagonos":1,"area_ha":0.85}},{"type":"Feature","geometry":{"type":"Polygon","coordinates":[[[-70.80043,-34.547403],[-70.801063,-34.543224],[-70.806138,-34.541926],[-70.806771,-34.537747],[-70.811846,-34.536448],[-70.812479,-34.532268],[-70.817554,-34.530969],[-70.821997,-34.533849],[-70.821992,-34.533878],[-70.821256,-34.534016],[-70.820517,-34.534333],[-70.819514,-34.534966],[-70.818828,-34.53581],[-70.818142,-34.536866],[-70.817351,-34.537974],[-70.816454,-34.538871],[-70.816454,-34.539286],[-70.816454,-34.540085],[-70.816401,-34.540876],[-70.816449,-34.541334],[-70.815961,-34.541489],[-70.815398,-34.541668],[-70.814607,-34.541984],[-70.814079,-34.542459],[-70.813551,-34.543356],[-70.812812,-34.544148],[-70.812801,-34.544238],[-70.81058,-34.544806],[-70.809947,-34.548985],[-70.804872,-34.550283],[-70.80043,-34.547403]]]},"properties":{"comuna":"Malloa","mancha_id":"06109-88b2c14421fffff","clase":"Medio","nivel_medio":2.411,"nivel_medio_min":2.28,"nivel_medio_max":2.453,"pct_alto":50.7,"n_hexagonos":4,"area_ha":169.1}},{"type":"Feature","geometry":{"type":"Polygon","coordinates":[[[-70.787105,-34.538761],[-70.782031,-34.540059],[-70.781397,-34.544237],[-70.785839,-34.547118],[-70.785259,-34.550942],[-70.784422,-34.550903],[-70.783103,-34.551219],[-70.781837,-34.551905],[-70.781475,-34.55225],[-70.780131,-34.552593],[-70.779976,-34.553613],[-70.779937,-34.553647],[-70.779357,-34.554333],[-70.778037,-34.555071],[-70.776718,-34.556021],[-70.775399,-34.55734],[-70.775083,-34.557899],[-70.774713,-34.558554],[-70.774713,-34.559821],[-70.774343,-34.560876],[-70.77408,-34.562195],[-70.774035,-34.562404],[-70.773921,-34.562934],[-70.77371,-34.563884],[-70.773277,-34.56413],[-70.772708,-34.564253],[-70.771599,-34.563884],[-70.770544,-34.563726],[-70.769119,-34.564095],[-70.768561,-34.564561],[-70.768715,-34.563541],[-70.764274,-34.56066],[-70.7592,-34.561956],[-70.75476,-34.559075],[-70.755393,-34.554898],[-70.750953,-34.552017],[-70.74588,-34.553312],[-70.745246,-34.557489],[-70.740173,-34.558784],[-70.739539,-34.562961],[-70.743574,-34.56558],[-70.742946,-34.56552],[-70.74131,-34.56552],[-70.740413,-34.565625],[-70.739146,-34.565836],[-70.737616,-34.565942],[-70.73693,-34.566417],[-70.736508,-34.567314],[-70.736191,-34.568264],[-70.736191,-34.569425],[-70.736191,-34.569963],[-70.736191,-34.570269],[-70.735822,-34.571113],[-70.735188,-34.571746],[-70.734608,-34.572696],[-70.735083,-34.574068],[-70.735188,-34.575229],[-70.735188,-34.576021],[-70.735171,-34.576117],[-70.735083,-34.576601],[-70.734876,-34.576975],[-70.734133,-34.577076],[-70.732972,-34.577182],[-70.732516,-34.577097],[-70.732564,-34.576782],[-70.728124,-34.573901],[-70.724853,-34.574735],[-70.724476,-34.574385],[-70.723579,-34.573646],[-70.722471,-34.572749],[-70.721363,-34.571588],[-70.720044,-34.570638],[-70.719516,-34.570142],[-70.719101,-34.569828],[-70.719005,-34.569723],[-70.719246,-34.568138],[-70.715488,-34.565697],[-70.716191,-34.565467],[-70.716825,-34.564886],[-70.716983,-34.563989],[-70.717089,-34.563145],[-70.717194,-34.562512],[-70.717089,-34.561984],[-70.716877,-34.56172],[-70.716086,-34.561351],[-70.715698,-34.561015],[-70.715294,-34.560665],[-70.714503,-34.559609],[-70.713817,-34.558343],[-70.713236,-34.557288],[-70.712814,-34.556179],[-70.712656,-34.555282],[-70.712234,-34.554227],[-70.712086,-34.553907],[-70.711917,-34.553541],[-70.711633,-34.552892],[-70.710967,-34.552486],[-70.709965,-34.5518],[-70.709648,-34.551219],[-70.709419,-34.55035],[-70.70912,-34.54999],[-70.70856,-34.549416],[-70.707993,-34.548702],[-70.707651,-34.548161],[-70.707833,-34.546963],[-70.706829,-34.54631],[-70.706516,-34.545304],[-70.706491,-34.544664],[-70.706614,-34.544172],[-70.706861,-34.543802],[-70.707895,-34.543359],[-70.708264,-34.543113],[-70.708584,-34.542571],[-70.708806,-34.542103],[-70.708781,-34.54166],[-70.708412,-34.541192],[-70.708092,-34.5407],[-70.707747,-34.539936],[-70.707722,-34.539222],[-70.707731,-34.538958],[-70.707747,-34.538434],[-70.707747,-34.537622],[-70.707993,-34.537277],[-70.708584,-34.537031],[-70.709101,-34.536735],[-70.709407,-34.536597],[-70.709865,-34.536391],[-70.711022,-34.535898],[-70.712056,-34.535603],[-70.713238,-34.535332],[-70.713804,-34.535086],[-70.714568,-34.534864],[-70.715159,-34.53479],[-70.716094,-34.534963],[-70.716907,-34.535086],[-70.717818,-34.535209],[-70.717935,-34.535168],[-70.718384,-34.535012],[-70.718901,-34.534766],[-70.719443,-34.534495],[-70.719837,-34.534027],[-70.720477,-34.533411],[-70.720822,-34.532722],[-70.721216,-34.531786],[-70.721368,-34.53092],[-70.721216,-34.530456],[-70.720945,-34.530038],[-70.72033,-34.529619],[-70.719886,-34.529398],[-70.719591,-34.528979],[-70.719443,-34.528487],[-70.719443,-34.528019],[-70.719496,-34.527924],[-70.720514,-34.527664],[-70.721148,-34.523485],[-70.720818,-34.523271],[-70.720871,-34.523193],[-70.721512,-34.522725],[-70.722103,-34.522109],[-70.722275,-34.52174],[-70.722447,-34.521124],[-70.722669,-34.520361],[-70.723038,-34.519671],[-70.723408,-34.518908],[-70.724048,-34.518292],[-70.724737,-34.517775],[-70.725322,-34.517404],[-70.72566,-34.517235],[-70.725891,-34.51712],[-70.726362,-34.516889],[-70.726953,-34.516741],[-70.727323,-34.51679],[-70.727766,-34.517086],[-70.728283,-34.51748],[-70.728558,-34.517575],[-70.728923,-34.517701],[-70.729391,-34.517849],[-70.730031,-34.517948],[-70.730647,-34.518022],[-70.731139,-34.518071],[-70.731607,-34.518219],[-70.732124,-34.518366],[-70.732715,-34.51844],[-70.73338,-34.518465],[-70.73434,-34.518391],[-70.734499,-34.518385],[-70.735054,-34.518366],[-70.735966,-34.518292],[-70.736852,-34.518194],[-70.737468,-34.518292],[-70.738255,-34.518391],[-70.739191,-34.518391],[-70.740348,-34.518366],[-70.741454,-34.518193],[-70.741604,-34.518169],[-70.742614,-34.51812],[-70.743697,-34.517898],[-70.74451,-34.517628],[-70.745347,-34.517283],[-70.745889,-34.516938],[-70.746455,-34.516495],[-70.747145,-34.516199],[-70.747702,-34.515957],[-70.748271,-34.51575],[-70.748917,-34.515569],[-70.749486,-34.515466],[-70.749977,-34.515518],[-70.75,-34.515513],[-70.750715,-34.515362],[-70.750891,-34.515258],[-70.751134,-34.515116],[-70.751404,-34.51487],[-70.751675,-34.514427],[-70.752094,-34.514106],[-70.752685,-34.513712],[-70.753251,-34.513417],[-70.754261,-34.512851],[-70.755024,-34.512432],[-70.755615,-34.512186],[-70.756625,-34.511816],[-70.757088,-34.511555],[-70.756656,-34.51441],[-70.751583,-34.515707],[-70.750949,-34.519887],[-70.745876,-34.521184],[-70.745243,-34.525363],[-70.749682,-34.528245],[-70.754755,-34.526948],[-70.755389,-34.522769],[-70.760462,-34.521472],[-70.761095,-34.517292],[-70.766168,-34.515995],[-70.770609,-34.518877],[-70.775682,-34.517579],[-70.780123,-34.52046],[-70.785197,-34.519162],[-70.789637,-34.522043],[-70.789004,-34.526223],[-70.78393,-34.527522],[-70.783297,-34.531701],[-70.787738,-34.534582],[-70.787105,-34.538761]],[[-70.756661,-34.546543],[-70.761101,-34.549425],[-70.766175,-34.548128],[-70.766808,-34.54395],[-70.762368,-34.541069],[-70.757294,-34.542366],[-70.756661,-34.546543]],[[-70.732562,-34.544667],[-70.737635,-34.543371],[-70.738269,-34.539194],[-70.73383,-34.536312],[-70.728757,-34.537607],[-70.728123,-34.541785],[-70.732562,-34.544667]]]},"properties":{"comuna":"Malloa","mancha_id":"06109-88b2c14401fffff","clase":"Medio","nivel_medio":2.288,"nivel_medio_min":1.665,"nivel_medio_max":2.498,"pct_alto":32.9,"n_hexagonos":59,"area_ha":3020.66}},{"type":"Feature","geometry":{"type":"Polygon","coordinates":[[[-70.881431,-34.499104],[-70.880928,-34.499056],[-70.879059,-34.498879],[-70.878053,-34.498787],[-70.876737,-34.498766],[-70.875484,-34.499062],[-70.874436,-34.499301],[-70.873091,-34.499139],[-70.872592,-34.498858],[-70.872163,-34.498583],[-70.871284,-34.498297],[-70.871149,-34.498252],[-70.87022,-34.497978],[-70.869087,-34.497267],[-70.868616,-34.496979],[-70.867856,-34.49669],[-70.867433,-34.496388],[-70.86737,-34.496374],[-70.86715,-34.496693],[-70.865717,-34.497063],[-70.864835,-34.497328],[-70.863561,-34.49777],[-70.8623,-34.499046],[-70.861834,-34.499984],[-70.861826,-34.5],[-70.861734,-34.500184],[-70.861484,-34.500622],[-70.861513,-34.503821],[-70.861669,-34.504458],[-70.861734,-34.50586],[-70.861473,-34.506382],[-70.861177,-34.50728],[-70.860182,-34.507984],[-70.860057,-34.508017],[-70.855613,-34.505137],[-70.856245,-34.500954],[-70.861321,-34.499651],[-70.861953,-34.495468],[-70.867029,-34.494165],[-70.867661,-34.489981],[-70.872737,-34.488678],[-70.877181,-34.491558],[-70.882258,-34.490254],[-70.886702,-34.493134],[-70.88607,-34.497317],[-70.887355,-34.498149],[-70.886898,-34.498288],[-70.885385,-34.49878],[-70.882944,-34.498963],[-70.881431,-34.499104]]]},"properties":{"comuna":"Malloa","mancha_id":"06109-88b2c14089fffff","clase":"Medio","nivel_medio":1.811,"nivel_medio_min":1.575,"nivel_medio_max":2.273,"pct_alto":6.9,"n_hexagonos":6,"area_ha":213.61}},{"type":"Feature","geometry":{"type":"Polygon","coordinates":[[[-70.928582,-34.474319],[-70.924136,-34.471439],[-70.919058,-34.472746],[-70.914613,-34.469867],[-70.909536,-34.471173],[-70.908904,-34.475359],[-70.91335,-34.478238],[-70.912718,-34.482424],[-70.911732,-34.482677],[-70.911543,-34.482333],[-70.911234,-34.481957],[-70.911058,-34.481755],[-70.910836,-34.48167],[-70.910262,-34.481472],[-70.909423,-34.481074],[-70.908474,-34.480787],[-70.907635,-34.480523],[-70.907216,-34.480523],[-70.906487,-34.480523],[-70.905825,-34.480302],[-70.905361,-34.479949],[-70.904964,-34.479397],[-70.904876,-34.478977],[-70.904964,-34.478249],[-70.905119,-34.477631],[-70.905068,-34.477227],[-70.903498,-34.478848],[-70.901446,-34.480967],[-70.901279,-34.481343],[-70.898119,-34.482155],[-70.897487,-34.48634],[-70.898666,-34.487103],[-70.898607,-34.487147],[-70.898249,-34.487474],[-70.897907,-34.487757],[-70.897699,-34.48798],[-70.897535,-34.488189],[-70.897401,-34.488486],[-70.897371,-34.488784],[-70.897416,-34.489141],[-70.897505,-34.489692],[-70.897594,-34.490124],[-70.897594,-34.490585],[-70.897624,-34.490898],[-70.897609,-34.491255],[-70.897475,-34.491568],[-70.897297,-34.491791],[-70.897088,-34.492059],[-70.896553,-34.492699],[-70.896076,-34.49322],[-70.895496,-34.49386],[-70.895249,-34.494077],[-70.891779,-34.491829],[-70.892411,-34.487645],[-70.887966,-34.484765],[-70.882889,-34.486069],[-70.878445,-34.483189],[-70.873369,-34.484493],[-70.868925,-34.481613],[-70.863849,-34.482917],[-70.863217,-34.487101],[-70.858142,-34.488404],[-70.853698,-34.485523],[-70.848623,-34.486826],[-70.847991,-34.49101],[-70.852434,-34.493891],[-70.851802,-34.498074],[-70.846726,-34.499376],[-70.842283,-34.496495],[-70.837208,-34.497797],[-70.832765,-34.494916],[-70.833398,-34.490733],[-70.828955,-34.487852],[-70.829588,-34.483669],[-70.834663,-34.482367],[-70.835295,-34.478183],[-70.830853,-34.475301],[-70.831485,-34.471117],[-70.827043,-34.468235],[-70.827676,-34.464051],[-70.83275,-34.462748],[-70.833382,-34.458563],[-70.838457,-34.457259],[-70.839089,-34.453074],[-70.834647,-34.450192],[-70.834835,-34.448948],[-70.835312,-34.448816],[-70.835854,-34.448661],[-70.836528,-34.448657],[-70.837172,-34.448842],[-70.837741,-34.448971],[-70.838325,-34.449051],[-70.838941,-34.449174],[-70.839384,-34.449174],[-70.83995,-34.448805],[-70.840492,-34.448337],[-70.841255,-34.447549],[-70.842142,-34.446909],[-70.842782,-34.446663],[-70.843239,-34.446574],[-70.843668,-34.446491],[-70.844703,-34.446392],[-70.845121,-34.446392],[-70.845786,-34.446244],[-70.846328,-34.446047],[-70.84714,-34.4459],[-70.847731,-34.445727],[-70.848544,-34.445432],[-70.84911,-34.445112],[-70.849824,-34.444718],[-70.85013,-34.44456],[-70.850637,-34.444299],[-70.8514,-34.443905],[-70.852287,-34.443413],[-70.853198,-34.443019],[-70.854035,-34.442551],[-70.854774,-34.442231],[-70.855241,-34.442034],[-70.85566,-34.441911],[-70.856325,-34.441837],[-70.856993,-34.441707],[-70.857211,-34.441664],[-70.858024,-34.441566],[-70.858516,-34.441344],[-70.858836,-34.441172],[-70.858935,-34.441024],[-70.858935,-34.440729],[-70.859132,-34.440261],[-70.859354,-34.439965],[-70.859871,-34.439744],[-70.860683,-34.439571],[-70.861407,-34.439544],[-70.862013,-34.439399],[-70.862431,-34.439497],[-70.862776,-34.43935],[-70.86259,-34.438952],[-70.862354,-34.43836],[-70.862117,-34.43769],[-70.861959,-34.437019],[-70.861959,-34.436309],[-70.862013,-34.435804],[-70.862024,-34.435777],[-70.86213,-34.435525],[-70.862373,-34.435253],[-70.862915,-34.43499],[-70.863532,-34.434875],[-70.864957,-34.434613],[-70.866535,-34.434219],[-70.866861,-34.434068],[-70.867088,-34.433841],[-70.867037,-34.43258],[-70.867125,-34.432214],[-70.867252,-34.431924],[-70.86739,-34.431597],[-70.867867,-34.431153],[-70.868651,-34.430881],[-70.871433,-34.432685],[-70.876508,-34.431379],[-70.87676,-34.429708],[-70.87679,-34.42973],[-70.877185,-34.429926],[-70.877444,-34.429877],[-70.877767,-34.42957],[-70.878171,-34.429247],[-70.878914,-34.429021],[-70.879996,-34.429279],[-70.88199,-34.43003],[-70.88419,-34.43068],[-70.884548,-34.430845],[-70.885195,-34.431142],[-70.88556,-34.43131],[-70.88562,-34.43136],[-70.886246,-34.431494],[-70.886362,-34.431518],[-70.886677,-34.432131],[-70.88685,-34.43269],[-70.887099,-34.433493],[-70.887397,-34.433452],[-70.887688,-34.433238],[-70.888206,-34.433035],[-70.887891,-34.43269],[-70.88767,-34.431852],[-70.887641,-34.431001],[-70.8877,-34.430561],[-70.887664,-34.430394],[-70.887647,-34.430228],[-70.887486,-34.429978],[-70.887385,-34.429656],[-70.887347,-34.429216],[-70.887388,-34.428578],[-70.887741,-34.428487],[-70.88813,-34.428612],[-70.888231,-34.429144],[-70.888347,-34.429552],[-70.888834,-34.430004],[-70.889063,-34.429989],[-70.88923,-34.430064],[-70.889533,-34.43018],[-70.889712,-34.430111],[-70.889831,-34.430004],[-70.889938,-34.429698],[-70.889965,-34.429359],[-70.890027,-34.429017],[-70.890223,-34.428984],[-70.890889,-34.428928],[-70.891574,-34.428928],[-70.89167,-34.428956],[-70.891765,-34.428899],[-70.892136,-34.428433],[-70.892334,-34.427848],[-70.892364,-34.427757],[-70.892745,-34.427358],[-70.89325,-34.427091],[-70.893564,-34.426805],[-70.893916,-34.426596],[-70.894081,-34.426529],[-70.894486,-34.426441],[-70.895841,-34.426699],[-70.896685,-34.426969],[-70.897326,-34.42724],[-70.898654,-34.427314],[-70.899926,-34.42751],[-70.900636,-34.427543],[-70.901378,-34.42751],[-70.901483,-34.427506],[-70.901253,-34.429033],[-70.905697,-34.431914],[-70.910773,-34.430607],[-70.911404,-34.426418],[-70.90696,-34.423537],[-70.903669,-34.424384],[-70.903539,-34.424021],[-70.903409,-34.423618],[-70.903409,-34.422998],[-70.903487,-34.422559],[-70.903604,-34.422033],[-70.903518,-34.421147],[-70.903496,-34.420477],[-70.903345,-34.419872],[-70.903302,-34.41944],[-70.903237,-34.418986],[-70.903194,-34.418445],[-70.903064,-34.417862],[-70.902996,-34.417371],[-70.902999,-34.416868],[-70.903122,-34.416472],[-70.903169,-34.416322],[-70.903194,-34.416241],[-70.903302,-34.415766],[-70.903583,-34.415074],[-70.903842,-34.414599],[-70.904101,-34.414059],[-70.904447,-34.41354],[-70.904728,-34.413259],[-70.905247,-34.412827],[-70.905571,-34.412589],[-70.90596,-34.412265],[-70.906327,-34.411919],[-70.906688,-34.411603],[-70.906936,-34.411469],[-70.906961,-34.411456],[-70.907118,-34.411372],[-70.907386,-34.411271],[-70.907602,-34.411206],[-70.908193,-34.410967],[-70.90849,-34.410775],[-70.908815,-34.410596],[-70.908917,-34.410549],[-70.908854,-34.410968],[-70.913298,-34.413849],[-70.918374,-34.412541],[-70.919005,-34.40835],[-70.914561,-34.405469],[-70.909485,-34.406778],[-70.908976,-34.410157],[-70.90727,-34.40974],[-70.905722,-34.409411],[-70.905651,-34.409361],[-70.905472,-34.409294],[-70.905213,-34.409243],[-70.904881,-34.409124],[-70.904518,-34.408989],[-70.904122,-34.408798],[-70.903554,-34.408456],[-70.903178,-34.408226],[-70.903009,-34.408095],[-70.902782,-34.408006],[-70.902513,-34.407856],[-70.902331,-34.407702],[-70.90228,-34.407625],[-70.90225,-34.407582],[-70.90222,-34.407484],[-70.902213,-34.407424],[-70.902217,-34.407375],[-70.902234,-34.407315],[-70.902263,-34.407253],[-70.902268,-34.407199],[-70.902252,-34.407141],[-70.902235,-34.407105],[-70.902226,-34.407086],[-70.902191,-34.407054],[-70.90214,-34.407019],[-70.902124,-34.407008],[-70.902017,-34.406939],[-70.902002,-34.406862],[-70.90199,-34.406763],[-70.901983,-34.406695],[-70.901981,-34.406671],[-70.901976,-34.406644],[-70.901972,-34.406621],[-70.90197,-34.406608],[-70.901968,-34.406596],[-70.901967,-34.406585],[-70.901921,-34.406544],[-70.901803,-34.406513],[-70.901732,-34.406488],[-70.901552,-34.406423],[-70.901391,-34.406382],[-70.90123,-34.406368],[-70.901127,-34.406341],[-70.9011,-34.406334],[-70.901043,-34.406283],[-70.900958,-34.406182],[-70.900868,-34.406114],[-70.900801,-34.406067],[-70.900644,-34.405965],[-70.900337,-34.4056],[-70.899964,-34.405217],[-70.899929,-34.40518],[-70.89985,-34.405099],[-70.899691,-34.404914],[-70.899263,-34.40445],[-70.899217,-34.404047],[-70.900055,-34.404036],[-70.900666,-34.404036],[-70.90318,-34.404033],[-70.904356,-34.404027],[-70.904537,-34.404026],[-70.905238,-34.404024],[-70.907715,-34.404017],[-70.90717,-34.40101],[-70.9069,-34.399439],[-70.906893,-34.399391],[-70.910748,-34.398396],[-70.911196,-34.395417],[-70.911483,-34.395765],[-70.911706,-34.396054],[-70.911972,-34.396343],[-70.912217,-34.396677],[-70.91275,-34.39721],[-70.913165,-34.397586],[-70.91361,-34.397914],[-70.914016,-34.398215],[-70.914252,-34.398437],[-70.91454,-34.39866],[-70.914817,-34.398699],[-70.915262,-34.398655],[-70.915684,-34.398522],[-70.916173,-34.398433],[-70.916551,-34.398366],[-70.916996,-34.398366],[-70.917368,-34.398388],[-70.917722,-34.398372],[-70.918063,-34.398477],[-70.918574,-34.398744],[-70.918953,-34.398909],[-70.919175,-34.399171],[-70.919359,-34.399485],[-70.919628,-34.400134],[-70.919641,-34.400166],[-70.919997,-34.400878],[-70.920352,-34.401567],[-70.920752,-34.402189],[-70.921019,-34.402456],[-70.921397,-34.402656],[-70.921781,-34.402785],[-70.922174,-34.402811],[-70.922642,-34.402834],[-70.923108,-34.402745],[-70.923442,-34.402611],[-70.923886,-34.402322],[-70.923892,-34.402319],[-70.924264,-34.402078],[-70.924664,-34.401767],[-70.92502,-34.401433],[-70.925264,-34.401189],[-70.925531,-34.4011],[-70.925887,-34.401033],[-70.926335,-34.400982],[-70.926568,-34.400982],[-70.926818,-34.401015],[-70.927035,-34.401098],[-70.927418,-34.401298],[-70.927785,-34.401632],[-70.928214,-34.401947],[-70.928284,-34.401998],[-70.928651,-34.402298],[-70.928851,-34.402415],[-70.929151,-34.402498],[-70.929618,-34.402598],[-70.930001,-34.402648],[-70.930301,-34.402632],[-70.930618,-34.402582],[-70.930918,-34.402365],[-70.930991,-34.402321],[-70.931168,-34.402215],[-70.931451,-34.402015],[-70.931701,-34.401965],[-70.932001,-34.402032],[-70.932301,-34.402132],[-70.932584,-34.402282],[-70.933001,-34.402382],[-70.933501,-34.402465],[-70.933751,-34.402598],[-70.933868,-34.402715],[-70.934018,-34.402948],[-70.934184,-34.403265],[-70.934301,-34.403565],[-70.934501,-34.403782],[-70.934818,-34.403898],[-70.935101,-34.403898],[-70.935417,-34.403782],[-70.935951,-34.403465],[-70.936417,-34.403048],[-70.936851,-34.402582],[-70.937351,-34.402065],[-70.937801,-34.401632],[-70.938217,-34.401232],[-70.938501,-34.401082],[-70.938817,-34.401032],[-70.939084,-34.401048],[-70.939501,-34.401115],[-70.939606,-34.401141],[-70.939901,-34.401215],[-70.940367,-34.401382],[-70.940801,-34.401498],[-70.941134,-34.401482],[-70.941467,-34.401398],[-70.941767,-34.401232],[-70.942084,-34.401015],[-70.942417,-34.400882],[-70.9428,-34.400848],[-70.943167,-34.400898],[-70.94345,-34.400965],[-70.943634,-34.401148],[-70.943817,-34.401382],[-70.94405,-34.401682],[-70.944317,-34.401932],[-70.9446,-34.402115],[-70.945,-34.402298],[-70.945384,-34.402382],[-70.945867,-34.402432],[-70.946217,-34.402465],[-70.946834,-34.402432],[-70.947167,-34.402398],[-70.94775,-34.402265],[-70.948034,-34.402082],[-70.948217,-34.401898],[-70.948334,-34.401598],[-70.94835,-34.401348],[-70.9483,-34.400982],[-70.948234,-34.400698],[-70.948134,-34.400515],[-70.948119,-34.40029],[-70.948239,-34.400064],[-70.948375,-34.399928],[-70.948498,-34.399866],[-70.948567,-34.399832],[-70.948766,-34.399763],[-70.949052,-34.399763],[-70.949293,-34.399778],[-70.9496,-34.39973],[-70.95094,-34.399334],[-70.950983,-34.399321],[-70.951569,-34.399138],[-70.952491,-34.39885],[-70.952808,-34.398751],[-70.95315,-34.39865],[-70.953299,-34.398607],[-70.953428,-34.398569],[-70.953588,-34.398521],[-70.953683,-34.398493],[-70.953739,-34.398477],[-70.953814,-34.398455],[-70.953863,-34.39844],[-70.954598,-34.398793],[-70.954849,-34.398913],[-70.95507,-34.399029],[-70.955666,-34.399317],[-70.955868,-34.399406],[-70.955874,-34.39939],[-70.95588,-34.399377],[-70.955887,-34.39936],[-70.955896,-34.399338],[-70.955904,-34.399317],[-70.955917,-34.399278],[-70.95593,-34.39924],[-70.955961,-34.399144],[-70.95596,-34.399083],[-70.95596,-34.399049],[-70.95597,-34.398907],[-70.955956,-34.398766],[-70.955928,-34.398629],[-70.95589,-34.398523],[-70.955823,-34.398364],[-70.955766,-34.398117],[-70.955826,-34.398014],[-70.95623,-34.39762],[-70.95659,-34.397165],[-70.956982,-34.396531],[-70.957574,-34.395748],[-70.958116,-34.395044],[-70.958402,-34.394694],[-70.958463,-34.394138],[-70.958499,-34.393818],[-70.958583,-34.393099],[-70.958621,-34.392644],[-70.958745,-34.391301],[-70.958738,-34.391143],[-70.958742,-34.390977],[-70.958759,-34.390266],[-70.958879,-34.389187],[-70.958937,-34.388658],[-70.958935,-34.388593],[-70.959185,-34.388578],[-70.959393,-34.388584],[-70.959606,-34.38868],[-70.959641,-34.388683],[-70.960877,-34.389485],[-70.962733,-34.389005],[-70.96332,-34.389304],[-70.963509,-34.389406],[-70.963742,-34.389527],[-70.963967,-34.389629],[-70.96442,-34.389833],[-70.964923,-34.390048],[-70.965067,-34.39011],[-70.965441,-34.390337],[-70.966117,-34.390646],[-70.967101,-34.391175],[-70.968056,-34.391663],[-70.969104,-34.39217],[-70.969279,-34.392242],[-70.96955,-34.392355],[-70.970157,-34.392672],[-70.97032,-34.392757],[-70.970439,-34.392806],[-70.970476,-34.392821],[-70.970527,-34.392842],[-70.971071,-34.39359],[-70.972104,-34.394912],[-70.972999,-34.396009],[-70.973651,-34.39682],[-70.973843,-34.397012],[-70.974072,-34.397239],[-70.974406,-34.397568],[-70.974563,-34.397627],[-70.974727,-34.397689],[-70.974762,-34.397743],[-70.974787,-34.397782],[-70.974811,-34.397819],[-70.974826,-34.397842],[-70.974835,-34.397849],[-70.974877,-34.397884],[-70.974917,-34.397917],[-70.974943,-34.397939],[-70.974967,-34.397959],[-70.975012,-34.397996],[-70.975053,-34.398029],[-70.975084,-34.398056],[-70.975167,-34.398124],[-70.975237,-34.398182],[-70.975296,-34.398231],[-70.975317,-34.398249],[-70.975495,-34.398252],[-70.975585,-34.398244],[-70.975704,-34.398234],[-70.97582,-34.398225],[-70.975935,-34.398248],[-70.976048,-34.398353],[-70.976135,-34.39849],[-70.976256,-34.39868],[-70.976345,-34.398799],[-70.976414,-34.398893],[-70.976612,-34.398933],[-70.97683,-34.399004],[-70.97694,-34.39904],[-70.977056,-34.399078],[-70.977155,-34.399129],[-70.977365,-34.399237],[-70.977431,-34.399344],[-70.977433,-34.399461],[-70.977386,-34.399743],[-70.978192,-34.400169],[-70.978698,-34.40035],[-70.97912,-34.400524],[-70.98075,-34.40147],[-70.981434,-34.401391],[-70.982078,-34.401326],[-70.982578,-34.401339],[-70.982972,-34.40151],[-70.98344,-34.401701],[-70.983485,-34.40172],[-70.983893,-34.401694],[-70.984419,-34.401299],[-70.985028,-34.40068],[-70.985168,-34.400522],[-70.98545,-34.400452],[-70.985687,-34.400434],[-70.985951,-34.400487],[-70.986223,-34.400654],[-70.986698,-34.401067],[-70.987242,-34.401506],[-70.987699,-34.402025],[-70.988192,-34.40242],[-70.988499,-34.402745],[-70.988745,-34.402912],[-70.989044,-34.403035],[-70.989325,-34.403106],[-70.989606,-34.403123],[-70.989914,-34.403097],[-70.990266,-34.403009],[-70.990591,-34.402851],[-70.990872,-34.402701],[-70.991197,-34.402596],[-70.991522,-34.402517],[-70.991847,-34.402464],[-70.992173,-34.402411],[-70.99255,-34.402411],[-70.992946,-34.402482],[-70.99308,-34.402504],[-70.993315,-34.402543],[-70.993816,-34.402649],[-70.994484,-34.402728],[-70.995073,-34.402798],[-70.995661,-34.402833],[-70.996224,-34.402912],[-70.996883,-34.403044],[-70.997375,-34.403167],[-70.997938,-34.403255],[-70.998447,-34.403404],[-70.998834,-34.403554],[-70.999203,-34.403694],[-70.999537,-34.403782],[-70.999862,-34.403844],[-71.0,-34.403828],[-71.00017,-34.403809],[-71.000512,-34.403694],[-71.000864,-34.403413],[-71.001189,-34.403106],[-71.001567,-34.40271],[-71.001927,-34.40235],[-71.001975,-34.402299],[-71.002182,-34.402077],[-71.002419,-34.401963],[-71.00263,-34.401867],[-71.00292,-34.401867],[-71.003246,-34.401867],[-71.0035,-34.401884],[-71.003799,-34.401954],[-71.004168,-34.40206],[-71.004476,-34.402183],[-71.004696,-34.402315],[-71.00472,-34.40233],[-71.005056,-34.402534],[-71.005346,-34.40278],[-71.005574,-34.403027],[-71.005917,-34.403308],[-71.006198,-34.403563],[-71.006356,-34.403703],[-71.006594,-34.403756],[-71.006901,-34.403747],[-71.007235,-34.403738],[-71.007499,-34.403738],[-71.007675,-34.403747],[-71.007815,-34.403747],[-71.007921,-34.403782],[-71.008026,-34.40387],[-71.008035,-34.403967],[-71.008053,-34.404143],[-71.008088,-34.404354],[-71.008114,-34.404556],[-71.008158,-34.404705],[-71.008466,-34.404802],[-71.008694,-34.404811],[-71.008975,-34.404819],[-71.009239,-34.404811],[-71.009432,-34.404828],[-71.009661,-34.404898],[-71.009933,-34.40503],[-71.010153,-34.405232],[-71.010311,-34.405311],[-71.010496,-34.405373],[-71.010768,-34.405443],[-71.010961,-34.405584],[-71.01126,-34.405768],[-71.011585,-34.405927],[-71.012016,-34.405962],[-71.012085,-34.405956],[-71.012508,-34.405918],[-71.012763,-34.405812],[-71.012939,-34.405698],[-71.013079,-34.405505],[-71.013158,-34.405303],[-71.013158,-34.405118],[-71.013158,-34.404811],[-71.013097,-34.404547],[-71.013053,-34.40438],[-71.01301,-34.404215],[-71.013,-34.404178],[-71.012956,-34.40387],[-71.012956,-34.40373],[-71.013167,-34.403545],[-71.013308,-34.403457],[-71.013387,-34.403273],[-71.01329,-34.403123],[-71.013097,-34.402991],[-71.012956,-34.402851],[-71.012868,-34.402728],[-71.012842,-34.402605],[-71.012965,-34.402526],[-71.013176,-34.402464],[-71.013501,-34.402499],[-71.013897,-34.40257],[-71.01416,-34.402675],[-71.014424,-34.402772],[-71.014731,-34.402833],[-71.015215,-34.402886],[-71.015461,-34.402904],[-71.015777,-34.402868],[-71.016067,-34.402728],[-71.016322,-34.402578],[-71.016463,-34.402403],[-71.016533,-34.402165],[-71.016533,-34.402033],[-71.016515,-34.401902],[-71.016603,-34.401796],[-71.016682,-34.401708],[-71.016972,-34.401533],[-71.01721,-34.401383],[-71.017412,-34.401251],[-71.01757,-34.40112],[-71.017614,-34.401014],[-71.017605,-34.400803],[-71.017544,-34.400487],[-71.017535,-34.400329],[-71.017544,-34.400223],[-71.017596,-34.400144],[-71.017746,-34.400047],[-71.017865,-34.399972],[-71.017913,-34.399942],[-71.018115,-34.399872],[-71.018273,-34.399766],[-71.018431,-34.39967],[-71.018493,-34.399529],[-71.018493,-34.399336],[-71.018449,-34.399195],[-71.018326,-34.399133],[-71.018176,-34.399186],[-71.018009,-34.399213],[-71.017979,-34.399215],[-71.017878,-34.399221],[-71.017763,-34.399239],[-71.017649,-34.399169],[-71.017579,-34.39901],[-71.017544,-34.398852],[-71.017509,-34.398633],[-71.017473,-34.398545],[-71.017415,-34.398491],[-71.01735,-34.39843],[-71.017201,-34.398281],[-71.017122,-34.398132],[-71.017104,-34.397938],[-71.017095,-34.397639],[-71.017122,-34.397455],[-71.017236,-34.397314],[-71.017421,-34.397182],[-71.017596,-34.397086],[-71.017807,-34.396989],[-71.017974,-34.396884],[-71.018115,-34.396734],[-71.018185,-34.396541],[-71.018247,-34.39626],[-71.018308,-34.396093],[-71.01837,-34.395979],[-71.018502,-34.395882],[-71.018712,-34.395803],[-71.018915,-34.39575],[-71.019073,-34.395706],[-71.01924,-34.395697],[-71.019574,-34.395706],[-71.019846,-34.395706],[-71.02011,-34.395715],[-71.020417,-34.395768],[-71.02076,-34.395785],[-71.021059,-34.395829],[-71.021235,-34.395855],[-71.021402,-34.395882],[-71.021692,-34.395917],[-71.021999,-34.395899],[-71.022236,-34.395908],[-71.022474,-34.39582],[-71.022702,-34.39568],[-71.022825,-34.395557],[-71.02301,-34.395486],[-71.023247,-34.395451],[-71.023427,-34.395443],[-71.023449,-34.395442],[-71.023801,-34.395407],[-71.024135,-34.395302],[-71.02446,-34.395161],[-71.024636,-34.395029],[-71.024794,-34.394862],[-71.02489,-34.394695],[-71.02489,-34.394467],[-71.024864,-34.394274],[-71.024917,-34.394124],[-71.025128,-34.393957],[-71.025304,-34.393764],[-71.025374,-34.393632],[-71.025427,-34.393439],[-71.025435,-34.393166],[-71.025335,-34.392966],[-71.028816,-34.392065],[-71.029445,-34.387872],[-71.02847,-34.387241],[-71.028511,-34.387094],[-71.028581,-34.386883],[-71.028634,-34.386698],[-71.028634,-34.386452],[-71.028581,-34.386101],[-71.02852,-34.385899],[-71.02872,-34.38592],[-71.0289,-34.38614],[-71.029,-34.38619],[-71.02945,-34.38651],[-71.029705,-34.387113],[-71.029969,-34.387736],[-71.03,-34.38781],[-71.03035,-34.38794],[-71.03092,-34.38839],[-71.03112,-34.38887],[-71.03237,-34.38957],[-71.03294,-34.38995],[-71.03327,-34.38945],[-71.0336,-34.38908],[-71.03392,-34.38874],[-71.03422,-34.38848],[-71.03512,-34.38853],[-71.03625,-34.38932],[-71.03644,-34.38939],[-71.03669,-34.38917],[-71.03677,-34.38872],[-71.036641,-34.387926],[-71.037753,-34.388646],[-71.037879,-34.388886],[-71.038021,-34.389383],[-71.038057,-34.389845],[-71.038163,-34.39052],[-71.038199,-34.390804],[-71.038483,-34.391408],[-71.038625,-34.391761],[-71.038344,-34.393629],[-71.038519,-34.393742],[-71.038483,-34.393823],[-71.038234,-34.394604],[-71.038305,-34.395244],[-71.038554,-34.395848],[-71.039016,-34.396345],[-71.039478,-34.396771],[-71.04033,-34.397446],[-71.040472,-34.398014],[-71.040437,-34.398654],[-71.040543,-34.399116],[-71.04065,-34.399826],[-71.040756,-34.400039],[-71.040543,-34.400217],[-71.039939,-34.400501],[-71.039158,-34.400963],[-71.038519,-34.40146],[-71.038196,-34.401729],[-71.038092,-34.401815],[-71.037808,-34.40217],[-71.037844,-34.402668],[-71.037986,-34.403307],[-71.038297,-34.403511],[-71.038767,-34.403662],[-71.039817,-34.404161],[-71.040417,-34.404461],[-71.040788,-34.40469],[-71.041076,-34.404953],[-71.041575,-34.405104],[-71.042132,-34.405532],[-71.042518,-34.406028],[-71.043289,-34.406347],[-71.043718,-34.406475],[-71.044361,-34.407033],[-71.044747,-34.407504],[-71.044777,-34.408086],[-71.04479,-34.408318],[-71.044878,-34.408781],[-71.045218,-34.409133],[-71.045647,-34.409219],[-71.046136,-34.409357],[-71.046556,-34.409751],[-71.046847,-34.410119],[-71.047147,-34.410762],[-71.047576,-34.411662],[-71.047704,-34.412433],[-71.047619,-34.412948],[-71.046986,-34.413449],[-71.046918,-34.413757],[-71.046959,-34.414173],[-71.047276,-34.415048],[-71.047254,-34.415274],[-71.047104,-34.41552],[-71.047065,-34.415553],[-71.046547,-34.415991],[-71.045947,-34.416677],[-71.045561,-34.41762],[-71.045604,-34.418306],[-71.045604,-34.418906],[-71.045347,-34.419592],[-71.045039,-34.419745],[-71.044516,-34.419825],[-71.044196,-34.419687],[-71.043975,-34.419592],[-71.043428,-34.419248],[-71.043039,-34.418979],[-71.042732,-34.418563],[-71.042639,-34.418063],[-71.042582,-34.417623],[-71.042408,-34.417395],[-71.042207,-34.417382],[-71.042005,-34.417489],[-71.041737,-34.417677],[-71.041508,-34.417852],[-71.041347,-34.418147],[-71.041213,-34.418375],[-71.041052,-34.418483],[-71.040802,-34.418523],[-71.040437,-34.418716],[-71.039817,-34.419292],[-71.039277,-34.419522],[-71.038515,-34.419779],[-71.037803,-34.419849],[-71.037202,-34.419849],[-71.036474,-34.419849],[-71.036208,-34.419849],[-71.035788,-34.419849],[-71.035175,-34.419887],[-71.034702,-34.419983],[-71.034348,-34.420177],[-71.033902,-34.420621],[-71.03283,-34.421564],[-71.031973,-34.422292],[-71.031416,-34.422978],[-71.031008,-34.42342],[-71.030707,-34.423646],[-71.030344,-34.423835],[-71.02988,-34.424129],[-71.029477,-34.424303],[-71.029066,-34.424428],[-71.028758,-34.424521],[-71.027947,-34.424881],[-71.0277,-34.42502],[-71.027507,-34.425203],[-71.026915,-34.425507],[-71.026358,-34.425761],[-71.026111,-34.426008],[-71.026003,-34.426298],[-71.025843,-34.426665],[-71.025286,-34.427265],[-71.024672,-34.427845],[-71.024242,-34.428113],[-71.023834,-34.42821],[-71.023395,-34.428152],[-71.023777,-34.425606],[-71.019328,-34.422727],[-71.014249,-34.42404],[-71.013619,-34.428231],[-71.014263,-34.428648],[-71.013627,-34.429022],[-71.01277,-34.429279],[-71.012255,-34.429665],[-71.011527,-34.430051],[-71.010712,-34.430608],[-71.010541,-34.431208],[-71.010198,-34.432751],[-71.009555,-34.433866],[-71.00856,-34.434155],[-71.008524,-34.434166],[-71.007812,-34.434437],[-71.007304,-34.434708],[-71.006829,-34.435081],[-71.006456,-34.435386],[-71.005982,-34.435793],[-71.005711,-34.436132],[-71.005372,-34.436437],[-71.004626,-34.436674],[-71.003711,-34.437047],[-71.002728,-34.437386],[-71.002458,-34.437521],[-71.00283,-34.435046],[-70.998382,-34.432168],[-70.993303,-34.43348],[-70.988855,-34.430601],[-70.983776,-34.431912],[-70.983455,-34.434046],[-70.982946,-34.434231],[-70.982492,-34.434301],[-70.981827,-34.434467],[-70.981474,-34.434614],[-70.981032,-34.434776],[-70.980502,-34.434761],[-70.980149,-34.434614],[-70.979928,-34.434467],[-70.979575,-34.434423],[-70.979443,-34.434599],[-70.978967,-34.435657],[-70.978594,-34.436505],[-70.978187,-34.437115],[-70.978061,-34.437409],[-70.977882,-34.437827],[-70.977679,-34.438504],[-70.977238,-34.439386],[-70.977035,-34.440165],[-70.976764,-34.440979],[-70.976323,-34.441758],[-70.976253,-34.441908],[-70.975848,-34.442775],[-70.975509,-34.443284],[-70.975322,-34.443751],[-70.975286,-34.444257],[-70.975392,-34.44467],[-70.975509,-34.445351],[-70.975781,-34.446267],[-70.975815,-34.446775],[-70.975781,-34.447148],[-70.97564,-34.447731],[-70.975628,-34.448155],[-70.975675,-34.448496],[-70.975852,-34.448779],[-70.975882,-34.449249],[-70.975882,-34.449758],[-70.975882,-34.44979],[-70.975875,-34.450262],[-70.975816,-34.45051],[-70.975545,-34.450816],[-70.974933,-34.451114],[-70.974592,-34.451263],[-70.974289,-34.451487],[-70.974018,-34.451859],[-70.973882,-34.4523],[-70.973749,-34.452791],[-70.973369,-34.453322],[-70.972952,-34.453778],[-70.972458,-34.454158],[-70.972002,-34.454462],[-70.971546,-34.454879],[-70.970733,-34.45541],[-70.970673,-34.455449],[-70.970438,-34.455675],[-70.9702,-34.455902],[-70.970023,-34.45615],[-70.969837,-34.456436],[-70.969741,-34.456668],[-70.969705,-34.456915],[-70.969693,-34.457233],[-70.969682,-34.45748],[-70.969587,-34.45768],[-70.968432,-34.459019],[-70.967938,-34.459589],[-70.967774,-34.459894],[-70.967676,-34.460224],[-70.964758,-34.460976],[-70.960311,-34.458097],[-70.960941,-34.453909],[-70.956494,-34.45103],[-70.951416,-34.452339],[-70.950785,-34.456527],[-70.955233,-34.459406],[-70.954602,-34.463593],[-70.959049,-34.466472],[-70.958418,-34.470659],[-70.962866,-34.473538],[-70.962235,-34.477724],[-70.963882,-34.47879],[-70.963951,-34.478995],[-70.964369,-34.479679],[-70.964786,-34.480173],[-70.965014,-34.480515],[-70.965166,-34.480932],[-70.965242,-34.481426],[-70.965242,-34.481958],[-70.96509,-34.483059],[-70.965014,-34.483819],[-70.965014,-34.48435],[-70.964976,-34.484692],[-70.964921,-34.48508],[-70.960973,-34.486097],[-70.960343,-34.490283],[-70.964791,-34.49316],[-70.967902,-34.492359],[-70.967938,-34.492402],[-70.96847,-34.492971],[-70.968926,-34.493427],[-70.969458,-34.494035],[-70.969989,-34.494832],[-70.970521,-34.495554],[-70.970901,-34.496275],[-70.971189,-34.49676],[-70.971389,-34.497125],[-70.97147,-34.497491],[-70.971584,-34.498136],[-70.971774,-34.498972],[-70.971839,-34.499391],[-70.97185,-34.499466],[-70.971783,-34.5],[-70.971774,-34.500073],[-70.971698,-34.500529],[-70.971519,-34.500869],[-70.971177,-34.501152],[-70.9708,-34.501293],[-70.970407,-34.50144],[-70.969951,-34.501668],[-70.969564,-34.501847],[-70.96934,-34.502059],[-70.96923,-34.502314],[-70.96934,-34.50253],[-70.96954,-34.5028],[-70.969764,-34.503095],[-70.970053,-34.503405],[-70.97027,-34.503636],[-70.970435,-34.503954],[-70.970612,-34.504155],[-70.970706,-34.504319],[-70.970612,-34.504461],[-70.970376,-34.504661],[-70.969799,-34.505124],[-70.969436,-34.505352],[-70.969317,-34.505426],[-70.969058,-34.505638],[-70.968736,-34.50596],[-70.96828,-34.506492],[-70.968186,-34.506827],[-70.968163,-34.507192],[-70.968166,-34.507555],[-70.968189,-34.507781],[-70.968269,-34.508005],[-70.96847,-34.50839],[-70.969002,-34.50915],[-70.969382,-34.509606],[-70.969761,-34.510137],[-70.970141,-34.510669],[-70.970407,-34.511011],[-70.970673,-34.511429],[-70.970736,-34.511743],[-70.966716,-34.512777],[-70.962267,-34.5099],[-70.957188,-34.511207],[-70.95274,-34.50833],[-70.953371,-34.504145],[-70.948923,-34.501267],[-70.949554,-34.497083],[-70.945107,-34.494205],[-70.940028,-34.495511],[-70.935581,-34.492633],[-70.930606,-34.493913],[-70.930329,-34.493812],[-70.930231,-34.493763],[-70.926057,-34.491061],[-70.926688,-34.486876],[-70.922242,-34.483997],[-70.922873,-34.479811],[-70.92795,-34.478505],[-70.932397,-34.481384],[-70.937475,-34.480077],[-70.938106,-34.475891],[-70.933659,-34.473012],[-70.928582,-34.474319]],[[-70.920952,-34.460187],[-70.926029,-34.45888],[-70.92666,-34.454692],[-70.922215,-34.451812],[-70.917138,-34.45312],[-70.916507,-34.457307],[-70.920952,-34.460187]],[[-70.893674,-34.479275],[-70.894306,-34.47509],[-70.889861,-34.47221],[-70.890493,-34.468024],[-70.886048,-34.465144],[-70.880972,-34.466449],[-70.880341,-34.470635],[-70.884785,-34.473515],[-70.884153,-34.4777],[-70.888598,-34.48058],[-70.893674,-34.479275]],[[-70.875244,-34.439754],[-70.870801,-34.436873],[-70.865726,-34.438178],[-70.865094,-34.442365],[-70.860019,-34.44367],[-70.859387,-34.447857],[-70.86383,-34.450739],[-70.868905,-34.449434],[-70.869537,-34.445247],[-70.874612,-34.443941],[-70.875244,-34.439754]],[[-70.895546,-34.434529],[-70.89047,-34.435836],[-70.889838,-34.440023],[-70.894282,-34.442904],[-70.899358,-34.441598],[-70.89999,-34.43741],[-70.895546,-34.434529]],[[-70.93997,-34.431134],[-70.939339,-34.435323],[-70.943785,-34.438203],[-70.948862,-34.436894],[-70.949493,-34.432705],[-70.95457,-34.431395],[-70.955201,-34.427205],[-70.960279,-34.425895],[-70.964726,-34.428775],[-70.969803,-34.427464],[-70.974251,-34.430344],[-70.979329,-34.429033],[-70.979959,-34.424843],[-70.975512,-34.421963],[-70.970434,-34.423274],[-70.965987,-34.420394],[-70.966617,-34.416204],[-70.962171,-34.413324],[-70.957093,-34.414634],[-70.956463,-34.418825],[-70.951386,-34.420135],[-70.946939,-34.417255],[-70.941863,-34.418565],[-70.941232,-34.422755],[-70.945678,-34.425635],[-70.945047,-34.429825],[-70.93997,-34.431134]],[[-70.83656,-34.469814],[-70.841002,-34.472696],[-70.846077,-34.471393],[-70.846709,-34.467208],[-70.842267,-34.464326],[-70.837192,-34.46563],[-70.83656,-34.469814]],[[-70.962834,-34.441343],[-70.958386,-34.438464],[-70.953309,-34.439773],[-70.952678,-34.443962],[-70.957125,-34.446842],[-70.962203,-34.445532],[-70.962834,-34.441343]]]},"properties":{"comuna":"Malloa","mancha_id":"06109-88b2c14001fffff","clase":"Medio","nivel_medio":2.04,"nivel_medio_min":1.506,"nivel_medio_max":2.495,"pct_alto":24.6,"n_hexagonos":205,"area_ha":10996.96}},{"type":"Feature","geometry":{"type":"Polygon","coordinates":[[[-71.037524,-34.388211],[-71.037753,-34.388646],[-71.036641,-34.387926],[-71.03662,-34.3878],[-71.03689,-34.38734],[-71.03711,-34.38694],[-71.03724,-34.387465],[-71.037524,-34.388211]]]},"properties":{"comuna":"Malloa","mancha_id":"06109-88b2c15ae5fffff","clase":"Alto","nivel_medio":2.588,"nivel_medio_min":2.588,"nivel_medio_max":2.588,"pct_alto":58.8,"n_hexagonos":1,"area_ha":0.69}},{"type":"Feature","geometry":{"type":"Polygon","coordinates":[[[-71.019328,-34.422727],[-71.023777,-34.425606],[-71.023395,-34.428152],[-71.022843,-34.428079],[-71.021943,-34.427865],[-71.021428,-34.427479],[-71.0204,-34.427479],[-71.019499,-34.427522],[-71.018642,-34.42765],[-71.017999,-34.427693],[-71.017099,-34.427779],[-71.016413,-34.427779],[-71.015342,-34.428122],[-71.014356,-34.428593],[-71.014263,-34.428648],[-71.013619,-34.428231],[-71.014249,-34.42404],[-71.019328,-34.422727]]]},"properties":{"comuna":"Malloa","mancha_id":"06109-88b2c158ddfffff","clase":"Alto","nivel_medio":2.544,"nivel_medio_min":2.544,"nivel_medio_max":2.544,"pct_alto":54.4,"n_hexagonos":1,"area_ha":40.6}},{"type":"Feature","geometry":{"type":"Polygon","coordinates":[[[-71.038519,-34.393742],[-71.038344,-34.393629],[-71.038625,-34.391761],[-71.038767,-34.392118],[-71.038874,-34.392935],[-71.038519,-34.393742]]]},"properties":{"comuna":"Malloa","mancha_id":"06109-88b2c1585bfffff","clase":"Alto","nivel_medio":2.63,"nivel_medio_min":2.63,"nivel_medio_max":2.63,"pct_alto":63.0,"n_hexagonos":1,"area_ha":0.54}},{"type":"Feature","geometry":{"type":"Polygon","coordinates":[[[-70.728123,-34.541785],[-70.728757,-34.537607],[-70.73383,-34.536312],[-70.738269,-34.539194],[-70.737635,-34.543371],[-70.732562,-34.544667],[-70.728123,-34.541785]]]},"properties":{"comuna":"Malloa","mancha_id":"06109-88b2c146a3fffff","clase":"Alto","nivel_medio":2.557,"nivel_medio_min":2.557,"nivel_medio_max":2.557,"pct_alto":55.7,"n_hexagonos":1,"area_ha":62.23}},{"type":"Feature","geometry":{"type":"Polygon","coordinates":[[[-70.721148,-34.523485],[-70.720514,-34.527664],[-70.719496,-34.527924],[-70.719714,-34.527526],[-70.71996,-34.526985],[-70.720256,-34.526517],[-70.72028,-34.526024],[-70.720157,-34.525581],[-70.720059,-34.525039],[-70.720133,-34.524498],[-70.720404,-34.523882],[-70.720818,-34.523271],[-70.721148,-34.523485]]]},"properties":{"comuna":"Malloa","mancha_id":"06109-88b2c14681fffff","clase":"Alto","nivel_medio":2.516,"nivel_medio_min":2.516,"nivel_medio_max":2.516,"pct_alto":51.6,"n_hexagonos":1,"area_ha":3.06}},{"type":"Feature","geometry":{"type":"Polygon","coordinates":[[[-70.728124,-34.573901],[-70.732564,-34.576782],[-70.732516,-34.577097],[-70.732105,-34.57702],[-70.731431,-34.57705],[-70.730562,-34.57702],[-70.729806,-34.576918],[-70.729173,-34.577287],[-70.728434,-34.577973],[-70.727805,-34.578054],[-70.726956,-34.577657],[-70.726059,-34.57639],[-70.725215,-34.575071],[-70.724853,-34.574735],[-70.728124,-34.573901]]]},"properties":{"comuna":"Malloa","mancha_id":"06109-88b2c1449dfffff","clase":"Alto","nivel_medio":2.607,"nivel_medio_min":2.607,"nivel_medio_max":2.607,"pct_alto":74.4,"n_hexagonos":1,"area_ha":16.56}},{"type":"Feature","geometry":{"type":"Polygon","coordinates":[[[-70.745004,-34.565942],[-70.74439,-34.565737],[-70.744054,-34.565625],[-70.743574,-34.56558],[-70.739539,-34.562961],[-70.740173,-34.558784],[-70.745246,-34.557489],[-70.74588,-34.553312],[-70.750953,-34.552017],[-70.755393,-34.554898],[-70.75476,-34.559075],[-70.7592,-34.561956],[-70.764274,-34.56066],[-70.768715,-34.563541],[-70.768561,-34.564561],[-70.768169,-34.564886],[-70.767589,-34.565414],[-70.767197,-34.566358],[-70.766692,-34.567261],[-70.766323,-34.567947],[-70.765878,-34.56828],[-70.765689,-34.568422],[-70.765003,-34.569108],[-70.764317,-34.569583],[-70.76342,-34.570269],[-70.762733,-34.570818],[-70.762365,-34.571113],[-70.76152,-34.571799],[-70.761167,-34.572197],[-70.760878,-34.572309],[-70.760524,-34.572181],[-70.760155,-34.571715],[-70.759621,-34.571535],[-70.758618,-34.571008],[-70.757616,-34.57106],[-70.756349,-34.571377],[-70.755058,-34.571625],[-70.754472,-34.571866],[-70.754133,-34.57201],[-70.753951,-34.572313],[-70.752859,-34.571604],[-70.751347,-34.57199],[-70.751178,-34.571852],[-70.750228,-34.571324],[-70.75,-34.571156],[-70.749225,-34.570586],[-70.748963,-34.570301],[-70.748726,-34.569698],[-70.748467,-34.569074],[-70.748011,-34.568528],[-70.747114,-34.56763],[-70.746702,-34.56705],[-70.745953,-34.566417],[-70.745004,-34.565942]]]},"properties":{"comuna":"Malloa","mancha_id":"06109-88b2c1448dfffff","clase":"Alto","nivel_medio":2.687,"nivel_medio_min":2.533,"nivel_medio_max":2.879,"pct_alto":70.0,"n_hexagonos":7,"area_ha":325.51}},{"type":"Feature","geometry":{"type":"Polygon","coordinates":[[[-70.756661,-34.546543],[-70.757294,-34.542366],[-70.762368,-34.541069],[-70.766808,-34.54395],[-70.766175,-34.548128],[-70.761101,-34.549425],[-70.756661,-34.546543]]]},"properties":{"comuna":"Malloa","mancha_id":"06109-88b2c14411fffff","clase":"Alto","nivel_medio":2.596,"nivel_medio_min":2.596,"nivel_medio_max":2.596,"pct_alto":59.6,"n_hexagonos":1,"area_ha":62.24}},{"type":"Feature","geometry":{"type":"Polygon","coordinates":[[[-70.988855,-34.430601],[-70.993303,-34.43348],[-70.998382,-34.432168],[-71.00283,-34.435046],[-71.002458,-34.437521],[-71.002118,-34.437691],[-71.00144,-34.437928],[-71.00083,-34.438064],[-71.000287,-34.438301],[-71.0,-34.438397],[-70.999576,-34.438538],[-70.998626,-34.438538],[-70.997982,-34.438471],[-70.997135,-34.438301],[-70.996288,-34.43803],[-70.995677,-34.437837],[-70.995162,-34.43772],[-70.994823,-34.437646],[-70.994593,-34.437522],[-70.994293,-34.437617],[-70.993984,-34.437734],[-70.993705,-34.43772],[-70.993305,-34.437623],[-70.992898,-34.437555],[-70.992702,-34.437474],[-70.992491,-34.437386],[-70.991983,-34.437183],[-70.991305,-34.437081],[-70.990729,-34.436945],[-70.989746,-34.436674],[-70.989034,-34.436539],[-70.988686,-34.436395],[-70.988391,-34.436101],[-70.988127,-34.435703],[-70.987729,-34.435203],[-70.987376,-34.434864],[-70.987082,-34.434482],[-70.986802,-34.434187],[-70.98639,-34.434025],[-70.985983,-34.433962],[-70.985305,-34.433929],[-70.984221,-34.433861],[-70.983593,-34.433996],[-70.983455,-34.434046],[-70.983776,-34.431912],[-70.988855,-34.430601]]]},"properties":{"comuna":"Malloa","mancha_id":"06109-88b2c14329fffff","clase":"Alto","nivel_medio":2.556,"nivel_medio_min":2.526,"nivel_medio_max":2.581,"pct_alto":55.6,"n_hexagonos":2,"area_ha":86.59}},{"type":"Feature","geometry":{"type":"Polygon","coordinates":[[[-70.952678,-34.443962],[-70.953309,-34.439773],[-70.958386,-34.438464],[-70.962834,-34.441343],[-70.962203,-34.445532],[-70.957125,-34.446842],[-70.952678,-34.443962]]]},"properties":{"comuna":"Malloa","mancha_id":"06109-88b2c14315fffff","clase":"Alto","nivel_medio":2.54,"nivel_medio_min":2.54,"nivel_medio_max":2.54,"pct_alto":56.1,"n_hexagonos":1,"area_ha":62.53}},{"type":"Feature","geometry":{"type":"Polygon","coordinates":[[[-70.964726,-34.428775],[-70.960279,-34.425895],[-70.955201,-34.427205],[-70.95457,-34.431395],[-70.949493,-34.432705],[-70.945047,-34.429825],[-70.945678,-34.425635],[-70.941232,-34.422755],[-70.941863,-34.418565],[-70.946939,-34.417255],[-70.951386,-34.420135],[-70.956463,-34.418825],[-70.957093,-34.414634],[-70.962171,-34.413324],[-70.966617,-34.416204],[-70.965987,-34.420394],[-70.970434,-34.423274],[-70.975512,-34.421963],[-70.979959,-34.424843],[-70.979329,-34.429033],[-70.974251,-34.430344],[-70.969803,-34.427464],[-70.964726,-34.428775]]]},"properties":{"comuna":"Malloa","mancha_id":"06109-88b2c14309fffff","clase":"Alto","nivel_medio":2.681,"nivel_medio_min":2.521,"nivel_medio_max":2.759,"pct_alto":68.8,"n_hexagonos":6,"area_ha":375.33}},{"type":"Feature","geometry":{"type":"Polygon","coordinates":[[[-70.880341,-34.470635],[-70.880972,-34.466449],[-70.886048,-34.465144],[-70.890493,-34.468024],[-70.889861,-34.47221],[-70.894306,-34.47509],[-70.893674,-34.479275],[-70.888598,-34.48058],[-70.884153,-34.4777],[-70.884785,-34.473515],[-70.880341,-34.470635]]]},"properties":{"comuna":"Malloa","mancha_id":"06109-88b2c142a1fffff","clase":"Alto","nivel_medio":2.87,"nivel_medio_min":2.783,"nivel_medio_max":2.958,"pct_alto":71.8,"n_hexagonos":2,"area_ha":124.87}},{"type":"Feature","geometry":{"type":"Polygon","coordinates":[[[-70.887401,-34.428377],[-70.887741,-34.428487],[-70.887388,-34.428578],[-70.887401,-34.428377]]]},"properties":{"comuna":"Malloa","mancha_id":"06109-88b2c1421dfffff","clase":"Alto","nivel_medio":2.971,"nivel_medio_min":2.971,"nivel_medio_max":2.971,"pct_alto":97.1,"n_hexagonos":1,"area_ha":0.04}},{"type":"Feature","geometry":{"type":"Polygon","coordinates":[[[-70.905697,-34.431914],[-70.901253,-34.429033],[-70.901483,-34.427506],[-70.902324,-34.427476],[-70.903202,-34.427611],[-70.904113,-34.427982],[-70.904856,-34.428151],[-70.905498,-34.428354],[-70.905836,-34.428388],[-70.906111,-34.428192],[-70.905942,-34.428012],[-70.905528,-34.427624],[-70.905141,-34.427236],[-70.904836,-34.426722],[-70.904339,-34.425944],[-70.90395,-34.425188],[-70.903756,-34.424626],[-70.903669,-34.424384],[-70.90696,-34.423537],[-70.911404,-34.426418],[-70.910773,-34.430607],[-70.905697,-34.431914]]]},"properties":{"comuna":"Malloa","mancha_id":"06109-88b2c14207fffff","clase":"Alto","nivel_medio":2.523,"nivel_medio_min":2.523,"nivel_medio_max":2.523,"pct_alto":52.3,"n_hexagonos":1,"area_ha":52.88}},{"type":"Feature","geometry":{"type":"Polygon","coordinates":[[[-70.962235,-34.477724],[-70.962866,-34.473538],[-70.96495,-34.473001],[-70.964976,-34.473071],[-70.964976,-34.473451],[-70.964925,-34.473694],[-70.964786,-34.473906],[-70.964572,-34.474153],[-70.964242,-34.474471],[-70.963685,-34.475008],[-70.963381,-34.475425],[-70.963229,-34.475881],[-70.963229,-34.476489],[-70.963609,-34.477856],[-70.963799,-34.47854],[-70.963882,-34.47879],[-70.962235,-34.477724]]]},"properties":{"comuna":"Malloa","mancha_id":"06109-88b2c14153fffff","clase":"Alto","nivel_medio":2.523,"nivel_medio_min":2.523,"nivel_medio_max":2.523,"pct_alto":54.5,"n_hexagonos":1,"area_ha":6.35}},{"type":"Feature","geometry":{"type":"Polygon","coordinates":[[[-70.860182,-34.507984],[-70.860047,-34.50808],[-70.859936,-34.508159],[-70.858722,-34.509109],[-70.857614,-34.510059],[-70.856928,-34.51027],[-70.8564,-34.511114],[-70.855609,-34.511906],[-70.854923,-34.512908],[-70.854337,-34.513494],[-70.853973,-34.513858],[-70.853287,-34.514492],[-70.852706,-34.515178],[-70.852284,-34.515441],[-70.851809,-34.515758],[-70.851334,-34.516286],[-70.850912,-34.517077],[-70.85049,-34.517763],[-70.850173,-34.518502],[-70.850173,-34.518591],[-70.850173,-34.519241],[-70.850121,-34.51998],[-70.848285,-34.52133],[-70.844826,-34.523875],[-70.844549,-34.524052],[-70.842932,-34.524467],[-70.842858,-34.524956],[-70.842627,-34.525045],[-70.841572,-34.525679],[-70.840464,-34.526206],[-70.839461,-34.526417],[-70.8383,-34.526787],[-70.83735,-34.526787],[-70.836295,-34.526576],[-70.835662,-34.526734],[-70.835028,-34.527262],[-70.83397,-34.527839],[-70.833868,-34.527895],[-70.832601,-34.528528],[-70.831335,-34.529109],[-70.830385,-34.529267],[-70.829224,-34.529267],[-70.828538,-34.52932],[-70.827537,-34.529478],[-70.827535,-34.529478],[-70.826427,-34.530111],[-70.825055,-34.531008],[-70.824316,-34.531905],[-70.823841,-34.532486],[-70.82305,-34.533436],[-70.822289,-34.533774],[-70.8221,-34.533858],[-70.821992,-34.533878],[-70.821997,-34.533849],[-70.817554,-34.530969],[-70.812479,-34.532268],[-70.811846,-34.536448],[-70.806771,-34.537747],[-70.806138,-34.541926],[-70.801063,-34.543224],[-70.80043,-34.547403],[-70.804872,-34.550283],[-70.804442,-34.55312],[-70.804,-34.553172],[-70.802786,-34.553172],[-70.801573,-34.552749],[-70.800306,-34.552591],[-70.799515,-34.55238],[-70.798723,-34.552275],[-70.798037,-34.55238],[-70.797087,-34.552591],[-70.796137,-34.552961],[-70.795325,-34.55327],[-70.794722,-34.552879],[-70.792504,-34.553446],[-70.79218,-34.553435],[-70.790913,-34.553119],[-70.789921,-34.552916],[-70.788877,-34.552587],[-70.787694,-34.551589],[-70.78648,-34.551325],[-70.785531,-34.550955],[-70.785259,-34.550942],[-70.785839,-34.547118],[-70.781397,-34.544237],[-70.782031,-34.540059],[-70.787105,-34.538761],[-70.787738,-34.534582],[-70.783297,-34.531701],[-70.78393,-34.527522],[-70.789004,-34.526223],[-70.789637,-34.522043],[-70.785197,-34.519162],[-70.780123,-34.52046],[-70.775682,-34.517579],[-70.770609,-34.518877],[-70.766168,-34.515995],[-70.761095,-34.517292],[-70.760462,-34.521472],[-70.755389,-34.522769],[-70.754755,-34.526948],[-70.749682,-34.528245],[-70.745243,-34.525363],[-70.745876,-34.521184],[-70.750949,-34.519887],[-70.751583,-34.515707],[-70.756656,-34.51441],[-70.757088,-34.511555],[-70.757585,-34.511275],[-70.758471,-34.510807],[-70.759112,-34.510339],[-70.760293,-34.509674],[-70.761304,-34.509203],[-70.762362,-34.508932],[-70.762995,-34.504752],[-70.762536,-34.504453],[-70.762682,-34.504183],[-70.762953,-34.503863],[-70.763002,-34.503568],[-70.763298,-34.502854],[-70.763495,-34.502238],[-70.76379,-34.501844],[-70.764012,-34.501573],[-70.76443,-34.501278],[-70.764923,-34.501179],[-70.765563,-34.50113],[-70.766203,-34.501007],[-70.766843,-34.500736],[-70.767336,-34.500416],[-70.767951,-34.500096],[-70.76831,-34.5],[-70.768603,-34.499922],[-70.76869,-34.499899],[-70.769478,-34.499579],[-70.770192,-34.499431],[-70.770783,-34.499308],[-70.771079,-34.499086],[-70.771497,-34.498569],[-70.771501,-34.498556],[-70.77162,-34.49815],[-70.771719,-34.497535],[-70.77199,-34.497018],[-70.772099,-34.496574],[-70.772409,-34.496264],[-70.772802,-34.496131],[-70.773369,-34.495959],[-70.773935,-34.495836],[-70.774112,-34.495747],[-70.774378,-34.495614],[-70.774846,-34.495245],[-70.775215,-34.495146],[-70.775929,-34.495171],[-70.776594,-34.495048],[-70.777185,-34.494802],[-70.777554,-34.494555],[-70.777776,-34.494235],[-70.778342,-34.493644],[-70.778761,-34.4933],[-70.779106,-34.493201],[-70.779869,-34.49293],[-70.780056,-34.492866],[-70.780805,-34.49261],[-70.781519,-34.492364],[-70.782159,-34.492068],[-70.782652,-34.491699],[-70.783144,-34.491281],[-70.783538,-34.490936],[-70.783833,-34.490566],[-70.784104,-34.490099],[-70.784375,-34.489532],[-70.784523,-34.488917],[-70.784769,-34.4884],[-70.785065,-34.487932],[-70.785483,-34.487489],[-70.785705,-34.487347],[-70.786099,-34.487095],[-70.786616,-34.486774],[-70.786862,-34.48675],[-70.78733,-34.486577],[-70.787847,-34.486405],[-70.788143,-34.486282],[-70.788537,-34.486036],[-70.78898,-34.485617],[-70.789448,-34.485223],[-70.789989,-34.48478],[-70.790753,-34.484312],[-70.791516,-34.484091],[-70.792205,-34.483943],[-70.792895,-34.48345],[-70.793102,-34.482962],[-70.793166,-34.48281],[-70.793166,-34.482047],[-70.793313,-34.481554],[-70.793313,-34.480939],[-70.793313,-34.480274],[-70.793387,-34.479781],[-70.793634,-34.479338],[-70.793978,-34.47892],[-70.794668,-34.478329],[-70.795357,-34.477885],[-70.795702,-34.477565],[-70.796194,-34.477147],[-70.796785,-34.476753],[-70.797256,-34.47647],[-70.797278,-34.476457],[-70.797795,-34.476014],[-70.798189,-34.475546],[-70.798706,-34.475004],[-70.799174,-34.474635],[-70.799888,-34.474266],[-70.800553,-34.473798],[-70.801291,-34.473527],[-70.801833,-34.473281],[-70.802276,-34.472961],[-70.802843,-34.472591],[-70.803064,-34.471951],[-70.803335,-34.471286],[-70.803372,-34.471252],[-70.803877,-34.470769],[-70.804197,-34.470203],[-70.804591,-34.469661],[-70.805354,-34.469095],[-70.806167,-34.468479],[-70.806413,-34.468011],[-70.806413,-34.467445],[-70.806635,-34.466829],[-70.806807,-34.466115],[-70.807103,-34.465327],[-70.807107,-34.465307],[-70.80725,-34.464564],[-70.807669,-34.463899],[-70.808063,-34.463431],[-70.808287,-34.463261],[-70.80858,-34.463037],[-70.809146,-34.462742],[-70.809811,-34.462496],[-70.810722,-34.4622],[-70.811313,-34.462102],[-70.81183,-34.462053],[-70.812126,-34.461659],[-70.812471,-34.461314],[-70.813209,-34.460452],[-70.813726,-34.459836],[-70.813844,-34.459669],[-70.81816,-34.462471],[-70.823234,-34.461168],[-70.823867,-34.456983],[-70.823145,-34.456515],[-70.823298,-34.456447],[-70.824044,-34.456078],[-70.824613,-34.455793],[-70.825201,-34.455453],[-70.825841,-34.455035],[-70.826678,-34.454444],[-70.827614,-34.453607],[-70.827959,-34.453016],[-70.828525,-34.452277],[-70.829091,-34.451489],[-70.829221,-34.451266],[-70.829436,-34.450898],[-70.829978,-34.450307],[-70.830544,-34.449765],[-70.83097,-34.449384],[-70.831487,-34.449178],[-70.831952,-34.449126],[-70.832637,-34.449174],[-70.833228,-34.449125],[-70.834016,-34.449051],[-70.83473,-34.448977],[-70.834835,-34.448948],[-70.834647,-34.450192],[-70.839089,-34.453074],[-70.838457,-34.457259],[-70.833382,-34.458563],[-70.83275,-34.462748],[-70.827676,-34.464051],[-70.827043,-34.468235],[-70.831485,-34.471117],[-70.830853,-34.475301],[-70.835295,-34.478183],[-70.834663,-34.482367],[-70.829588,-34.483669],[-70.828955,-34.487852],[-70.833398,-34.490733],[-70.832765,-34.494916],[-70.837208,-34.497797],[-70.842283,-34.496495],[-70.846726,-34.499376],[-70.851802,-34.498074],[-70.856245,-34.500954],[-70.855613,-34.505137],[-70.860057,-34.508017],[-70.860182,-34.507984]],[[-70.817541,-34.49882],[-70.818174,-34.494638],[-70.823248,-34.493337],[-70.823881,-34.489154],[-70.819439,-34.486272],[-70.814365,-34.487573],[-70.813732,-34.491756],[-70.808658,-34.493057],[-70.808025,-34.497239],[-70.812466,-34.500121],[-70.817541,-34.49882]],[[-70.809923,-34.484692],[-70.810556,-34.480508],[-70.806115,-34.477626],[-70.801041,-34.478927],[-70.800408,-34.48311],[-70.804849,-34.485993],[-70.809923,-34.484692]],[[-70.81563,-34.479207],[-70.820071,-34.482089],[-70.825146,-34.480787],[-70.825778,-34.476603],[-70.821337,-34.473722],[-70.821969,-34.469537],[-70.817528,-34.466655],[-70.812454,-34.467957],[-70.811821,-34.472141],[-70.816263,-34.475023],[-70.81563,-34.479207]]]},"properties":{"comuna":"Malloa","mancha_id":"06109-88b2c14099fffff","clase":"Alto","nivel_medio":2.775,"nivel_medio_min":2.504,"nivel_medio_max":3.0,"pct_alto":77.6,"n_hexagonos":83,"area_ha":4467.05}},{"type":"Feature","geometry":{"type":"Polygon","coordinates":[[[-70.935581,-34.492633],[-70.940028,-34.495511],[-70.945107,-34.494205],[-70.949554,-34.497083],[-70.948923,-34.501267],[-70.953371,-34.504145],[-70.95274,-34.50833],[-70.957188,-34.511207],[-70.962267,-34.5099],[-70.966716,-34.512777],[-70.970736,-34.511743],[-70.970787,-34.511998],[-70.970863,-34.512644],[-70.970825,-34.513328],[-70.970711,-34.513821],[-70.970597,-34.514315],[-70.970386,-34.514906],[-70.96942,-34.515107],[-70.96745,-34.515388],[-70.966299,-34.51554],[-70.965921,-34.515589],[-70.964513,-34.51567],[-70.963575,-34.515679],[-70.963159,-34.515841],[-70.962995,-34.516021],[-70.962652,-34.516119],[-70.961899,-34.516233],[-70.961263,-34.51638],[-70.960675,-34.516495],[-70.959923,-34.516576],[-70.959335,-34.516642],[-70.958926,-34.516609],[-70.9586,-34.516527],[-70.958372,-34.516565],[-70.958109,-34.516609],[-70.957652,-34.516658],[-70.957178,-34.516723],[-70.956573,-34.51687],[-70.955887,-34.516887],[-70.955462,-34.516789],[-70.95507,-34.516609],[-70.95476,-34.516397],[-70.954499,-34.516152],[-70.954369,-34.515954],[-70.953815,-34.515107],[-70.953292,-34.514584],[-70.952729,-34.514021],[-70.952528,-34.513216],[-70.952465,-34.511528],[-70.952327,-34.51016],[-70.952246,-34.509114],[-70.952085,-34.508551],[-70.952064,-34.508504],[-70.951719,-34.507737],[-70.951355,-34.506895],[-70.950879,-34.505896],[-70.950356,-34.505574],[-70.948586,-34.504207],[-70.947701,-34.503201],[-70.947436,-34.502829],[-70.947106,-34.502489],[-70.946851,-34.502277],[-70.946575,-34.502043],[-70.946439,-34.501907],[-70.94631,-34.501778],[-70.946173,-34.501627],[-70.946001,-34.501533],[-70.9458,-34.50147],[-70.94564,-34.501438],[-70.945268,-34.501342],[-70.94495,-34.501246],[-70.944727,-34.50114],[-70.944631,-34.500981],[-70.944564,-34.500748],[-70.944289,-34.5],[-70.944283,-34.499984],[-70.943921,-34.4993],[-70.943719,-34.498817],[-70.943719,-34.497772],[-70.943518,-34.497369],[-70.943063,-34.497232],[-70.942435,-34.497462],[-70.941653,-34.497399],[-70.941109,-34.49714],[-70.940434,-34.496932],[-70.939843,-34.496742],[-70.939416,-34.496605],[-70.938619,-34.496388],[-70.937669,-34.495986],[-70.936885,-34.495998],[-70.936069,-34.495865],[-70.935362,-34.495733],[-70.934656,-34.4956],[-70.933873,-34.495425],[-70.932908,-34.495118],[-70.932035,-34.494705],[-70.931652,-34.494352],[-70.930815,-34.493989],[-70.930606,-34.493913],[-70.935581,-34.492633]]]},"properties":{"comuna":"Malloa","mancha_id":"06109-88b2c14037fffff","clase":"Alto","nivel_medio":2.868,"nivel_medio_min":2.652,"nivel_medio_max":2.983,"pct_alto":88.5,"n_hexagonos":7,"area_ha":174.05}},{"type":"Feature","geometry":{"type":"Polygon","coordinates":[[[-70.922873,-34.479811],[-70.922242,-34.483997],[-70.926688,-34.486876],[-70.926057,-34.491061],[-70.930231,-34.493763],[-70.929578,-34.493437],[-70.929269,-34.493194],[-70.928651,-34.493017],[-70.927702,-34.492841],[-70.927282,-34.492686],[-70.926642,-34.492576],[-70.926311,-34.492576],[-70.925892,-34.492532],[-70.925384,-34.492443],[-70.924898,-34.492377],[-70.924498,-34.492273],[-70.924344,-34.492118],[-70.923928,-34.491608],[-70.923921,-34.4916],[-70.923599,-34.491106],[-70.923331,-34.490523],[-70.922779,-34.489242],[-70.922558,-34.488315],[-70.922315,-34.487498],[-70.922095,-34.487035],[-70.921874,-34.486637],[-70.921565,-34.485997],[-70.921366,-34.485445],[-70.921234,-34.484827],[-70.920969,-34.484562],[-70.920505,-34.484496],[-70.92034,-34.484486],[-70.920152,-34.484474],[-70.919711,-34.484496],[-70.919291,-34.48454],[-70.918805,-34.484761],[-70.918276,-34.484938],[-70.917976,-34.485083],[-70.917954,-34.4851],[-70.917635,-34.485335],[-70.91726,-34.48549],[-70.917136,-34.48549],[-70.916774,-34.48549],[-70.916245,-34.485512],[-70.915737,-34.485379],[-70.915273,-34.485158],[-70.91481,-34.484938],[-70.914037,-34.484673],[-70.913264,-34.484275],[-70.912646,-34.483856],[-70.912183,-34.483348],[-70.911785,-34.482774],[-70.911732,-34.482677],[-70.912718,-34.482424],[-70.91335,-34.478238],[-70.918427,-34.476932],[-70.922873,-34.479811]]]},"properties":{"comuna":"Malloa","mancha_id":"06109-88b2c14015fffff","clase":"Alto","nivel_medio":2.83,"nivel_medio_min":2.801,"nivel_medio_max":2.918,"pct_alto":83.4,"n_hexagonos":4,"area_ha":97.43}},{"type":"Feature","geometry":{"type":"Polygon","coordinates":[[[-70.897487,-34.48634],[-70.898119,-34.482155],[-70.901279,-34.481343],[-70.901226,-34.481461],[-70.901107,-34.481982],[-70.901063,-34.48228],[-70.900929,-34.482682],[-70.90078,-34.483098],[-70.900556,-34.483723],[-70.900423,-34.484051],[-70.900318,-34.484453],[-70.900199,-34.484795],[-70.900065,-34.485167],[-70.899976,-34.485465],[-70.899827,-34.485807],[-70.899678,-34.48609],[-70.899485,-34.486313],[-70.899306,-34.486537],[-70.899009,-34.486849],[-70.898666,-34.487103],[-70.897487,-34.48634]]]},"properties":{"comuna":"Malloa","mancha_id":"06109-88b2c14013fffff","clase":"Alto","nivel_medio":2.511,"nivel_medio_min":2.511,"nivel_medio_max":2.511,"pct_alto":51.3,"n_hexagonos":1,"area_ha":12.96}}],"bbox":[-71.04771,-34.57806,-70.70649,-34.38589]}