{"type":"FeatureCollection","features":[{"type":"Feature","geometry":{"type":"Polygon","coordinates":[[[-70.720509,-34.076237],[-70.721142,-34.072028],[-70.726205,-34.070715],[-70.726837,-34.066506],[-70.7319,-34.065192],[-70.736331,-34.068088],[-70.735698,-34.072298],[-70.730635,-34.073611],[-70.730002,-34.07782],[-70.724939,-34.079133],[-70.720509,-34.076237]]]},"properties":{"comuna":"Graneros","mancha_id":"06106-88b2c1c205fffff","clase":"Muy Bajo","nivel_medio":0.291,"nivel_medio_min":0.28,"nivel_medio_max":0.301,"pct_alto":4.1,"n_hexagonos":2,"area_ha":125.82}},{"type":"Feature","geometry":{"type":"Polygon","coordinates":[[[-70.743291,-34.054143],[-70.743924,-34.049932],[-70.748987,-34.048617],[-70.753418,-34.051513],[-70.752785,-34.055724],[-70.747722,-34.057039],[-70.743291,-34.054143]]]},"properties":{"comuna":"Graneros","mancha_id":"06106-88b2c1d1bbfffff","clase":"Bajo","nivel_medio":1.307,"nivel_medio_min":1.307,"nivel_medio_max":1.307,"pct_alto":3.0,"n_hexagonos":1,"area_ha":62.95}},{"type":"Feature","geometry":{"type":"Polygon","coordinates":[[[-70.741391,-34.0344],[-70.742023,-34.030188],[-70.747086,-34.028872],[-70.751516,-34.031769],[-70.750884,-34.035981],[-70.745821,-34.037297],[-70.741391,-34.0344]]]},"properties":{"comuna":"Graneros","mancha_id":"06106-88b2c1d18bfffff","clase":"Bajo","nivel_medio":1.338,"nivel_medio_min":1.338,"nivel_medio_max":1.338,"pct_alto":4.3,"n_hexagonos":1,"area_ha":62.98}},{"type":"Feature","geometry":{"type":"Polygon","coordinates":[[[-70.743295,-34.086507],[-70.743927,-34.082298],[-70.748991,-34.080984],[-70.749623,-34.076775],[-70.745192,-34.07388],[-70.745825,-34.06967],[-70.750888,-34.068356],[-70.751521,-34.064145],[-70.756584,-34.06283],[-70.757217,-34.05862],[-70.76228,-34.057305],[-70.766712,-34.0602],[-70.76608,-34.064411],[-70.770511,-34.067306],[-70.775576,-34.06599],[-70.780008,-34.068885],[-70.785073,-34.067569],[-70.789505,-34.070464],[-70.788873,-34.074675],[-70.793307,-34.077569],[-70.792675,-34.081779],[-70.797108,-34.084673],[-70.796476,-34.088883],[-70.791411,-34.090199],[-70.790779,-34.094408],[-70.785714,-34.095723],[-70.785081,-34.099932],[-70.780016,-34.101246],[-70.775583,-34.098352],[-70.770518,-34.099667],[-70.766086,-34.096772],[-70.761021,-34.098086],[-70.756589,-34.095192],[-70.751525,-34.096505],[-70.747094,-34.093611],[-70.747726,-34.089402],[-70.743295,-34.086507]],[[-70.771783,-34.091249],[-70.772415,-34.08704],[-70.77748,-34.085725],[-70.781913,-34.08862],[-70.786978,-34.087305],[-70.78761,-34.083095],[-70.783177,-34.080201],[-70.778112,-34.081516],[-70.773679,-34.078621],[-70.768615,-34.079936],[-70.767983,-34.084146],[-70.762918,-34.08546],[-70.762286,-34.089669],[-70.766718,-34.092564],[-70.771783,-34.091249]]]},"properties":{"comuna":"Graneros","mancha_id":"06106-88b2c1c225fffff","clase":"Bajo","nivel_medio":1.207,"nivel_medio_min":0.906,"nivel_medio_max":1.479,"pct_alto":5.1,"n_hexagonos":21,"area_ha":1321.43}},{"type":"Feature","geometry":{"type":"Polygon","coordinates":[[[-70.716712,-34.069132],[-70.717345,-34.064922],[-70.722408,-34.063609],[-70.72304,-34.059399],[-70.728103,-34.058086],[-70.732533,-34.060982],[-70.737596,-34.059668],[-70.742026,-34.062564],[-70.741394,-34.066774],[-70.736331,-34.068088],[-70.7319,-34.065192],[-70.726837,-34.066506],[-70.726205,-34.070715],[-70.721142,-34.072028],[-70.716712,-34.069132]]]},"properties":{"comuna":"Graneros","mancha_id":"06106-88b2c1c20dfffff","clase":"Bajo","nivel_medio":0.886,"nivel_medio_min":0.611,"nivel_medio_max":1.334,"pct_alto":11.3,"n_hexagonos":3,"area_ha":188.77}},{"type":"Feature","geometry":{"type":"Polygon","coordinates":[[[-70.741397,-34.099132],[-70.745828,-34.102026],[-70.750893,-34.100713],[-70.755324,-34.103608],[-70.760389,-34.102294],[-70.764821,-34.105189],[-70.764189,-34.109396],[-70.765212,-34.110064],[-70.765196,-34.110066],[-70.764926,-34.110094],[-70.76473,-34.110115],[-70.764537,-34.110122],[-70.764355,-34.11014],[-70.764169,-34.110154],[-70.763941,-34.110164],[-70.763741,-34.110157],[-70.76359,-34.110143],[-70.763443,-34.110157],[-70.763289,-34.110199],[-70.763152,-34.110238],[-70.762924,-34.110248],[-70.762689,-34.110248],[-70.762454,-34.110248],[-70.762324,-34.110227],[-70.762212,-34.110189],[-70.762089,-34.110178],[-70.761928,-34.110175],[-70.761802,-34.110178],[-70.761668,-34.110206],[-70.761539,-34.110262],[-70.761426,-34.11034],[-70.761339,-34.110392],[-70.761202,-34.110406],[-70.761044,-34.110424],[-70.760918,-34.110438],[-70.760732,-34.110476],[-70.760592,-34.110508],[-70.760486,-34.110536],[-70.760385,-34.110557],[-70.76023,-34.110567],[-70.760118,-34.11056],[-70.759946,-34.11056],[-70.759827,-34.110532],[-70.759819,-34.11053],[-70.75969,-34.110487],[-70.75956,-34.110431],[-70.759462,-34.110364],[-70.759378,-34.11028],[-70.759322,-34.110227],[-70.759227,-34.110192],[-70.759091,-34.110164],[-70.758912,-34.110147],[-70.758764,-34.110136],[-70.758642,-34.110094],[-70.758543,-34.11008],[-70.758393,-34.110071],[-70.758181,-34.110064],[-70.758125,-34.110058],[-70.757948,-34.110037],[-70.757701,-34.110009],[-70.757551,-34.109982],[-70.757393,-34.10992],[-70.757291,-34.109907],[-70.757195,-34.109907],[-70.757064,-34.109907],[-70.756962,-34.109859],[-70.756832,-34.109831],[-70.756578,-34.109838],[-70.756386,-34.109824],[-70.756245,-34.109815],[-70.756058,-34.109785],[-70.755776,-34.109734],[-70.755569,-34.109714],[-70.755373,-34.109714],[-70.755141,-34.109684],[-70.754869,-34.109644],[-70.754652,-34.109593],[-70.75442,-34.109563],[-70.754052,-34.109553],[-70.753669,-34.109543],[-70.753427,-34.109553],[-70.753124,-34.109548],[-70.752898,-34.109553],[-70.752772,-34.109588],[-70.7526,-34.109608],[-70.752298,-34.109618],[-70.75196,-34.109613],[-70.751698,-34.109608],[-70.75141,-34.109608],[-70.751264,-34.109608],[-70.751143,-34.109649],[-70.750972,-34.109704],[-70.750806,-34.109734],[-70.750705,-34.10977],[-70.750574,-34.109835],[-70.750453,-34.109916],[-70.750338,-34.109967],[-70.750248,-34.11005],[-70.750146,-34.110133],[-70.75005,-34.110216],[-70.75,-34.110244],[-70.749935,-34.11028],[-70.74975,-34.110331],[-70.749539,-34.110382],[-70.749436,-34.1104],[-70.749353,-34.110414],[-70.749226,-34.110453],[-70.749072,-34.110465],[-70.748784,-34.110478],[-70.74851,-34.110465],[-70.748286,-34.110446],[-70.74796,-34.110402],[-70.747679,-34.110357],[-70.747442,-34.110312],[-70.747308,-34.110267],[-70.747154,-34.110191],[-70.746931,-34.110056],[-70.74672,-34.109935],[-70.746617,-34.109871],[-70.746407,-34.109686],[-70.746285,-34.109564],[-70.746119,-34.10943],[-70.745991,-34.109328],[-70.745857,-34.109238],[-70.74571,-34.1092],[-70.745563,-34.109161],[-70.745384,-34.109161],[-70.745077,-34.109155],[-70.744828,-34.109129],[-70.744617,-34.109085],[-70.744387,-34.108995],[-70.744214,-34.108931],[-70.743984,-34.108797],[-70.743741,-34.108605],[-70.743549,-34.108465],[-70.743377,-34.108337],[-70.743198,-34.108203],[-70.743031,-34.108126],[-70.742878,-34.108068],[-70.74275,-34.108043],[-70.74259,-34.108049],[-70.742367,-34.108132],[-70.742041,-34.108222],[-70.741702,-34.108311],[-70.741491,-34.108369],[-70.74119,-34.108439],[-70.74096,-34.108503],[-70.740583,-34.108561],[-70.740276,-34.108586],[-70.739973,-34.108602],[-70.739912,-34.108605],[-70.739675,-34.108586],[-70.739497,-34.108554],[-70.739232,-34.108465],[-70.739029,-34.108359],[-70.738738,-34.108174],[-70.738437,-34.107971],[-70.738199,-34.107812],[-70.737899,-34.10767],[-70.737607,-34.107547],[-70.737254,-34.10745],[-70.736847,-34.10737],[-70.736238,-34.107326],[-70.735902,-34.107317],[-70.735602,-34.107246],[-70.735293,-34.107167],[-70.734904,-34.107061],[-70.734648,-34.10699],[-70.734277,-34.106902],[-70.733923,-34.106814],[-70.733579,-34.106761],[-70.733314,-34.106716],[-70.733058,-34.106655],[-70.73289,-34.106593],[-70.732554,-34.106469],[-70.732192,-34.106301],[-70.731847,-34.106098],[-70.731556,-34.105939],[-70.731338,-34.105782],[-70.731335,-34.10578],[-70.731097,-34.105586],[-70.730938,-34.105506],[-70.730726,-34.105462],[-70.73031,-34.105444],[-70.729886,-34.105444],[-70.72983,-34.105437],[-70.729612,-34.105409],[-70.729153,-34.105356],[-70.728782,-34.105303],[-70.728552,-34.105268],[-70.728367,-34.105268],[-70.728084,-34.105294],[-70.727607,-34.105391],[-70.727298,-34.105453],[-70.726945,-34.10548],[-70.726529,-34.105435],[-70.726105,-34.105382],[-70.725867,-34.105321],[-70.725673,-34.105285],[-70.725496,-34.105276],[-70.725169,-34.105303],[-70.724842,-34.105356],[-70.724436,-34.105444],[-70.723959,-34.105586],[-70.723332,-34.105753],[-70.722713,-34.105965],[-70.722219,-34.106116],[-70.721821,-34.106204],[-70.721432,-34.106292],[-70.721176,-34.106292],[-70.720857,-34.106276],[-70.720823,-34.106275],[-70.720505,-34.106222],[-70.720218,-34.10613],[-70.719942,-34.106086],[-70.719655,-34.106042],[-70.719235,-34.106053],[-70.718771,-34.106064],[-70.718164,-34.106119],[-70.717844,-34.10613],[-70.717568,-34.10613],[-70.717325,-34.106119],[-70.716949,-34.106064],[-70.716463,-34.106031],[-70.716055,-34.106031],[-70.715779,-34.106031],[-70.715403,-34.106108],[-70.715149,-34.10624],[-70.714973,-34.106428],[-70.714873,-34.106594],[-70.714906,-34.106804],[-70.715039,-34.107179],[-70.715072,-34.107422],[-70.715072,-34.107621],[-70.715072,-34.107886],[-70.715017,-34.108151],[-70.714918,-34.108361],[-70.714807,-34.108648],[-70.714719,-34.108857],[-70.714542,-34.109045],[-70.714292,-34.109145],[-70.714266,-34.109156],[-70.71399,-34.109266],[-70.713681,-34.109343],[-70.713372,-34.109376],[-70.713107,-34.109432],[-70.712919,-34.109476],[-70.712742,-34.109586],[-70.712577,-34.109807],[-70.712433,-34.109962],[-70.712168,-34.110127],[-70.711804,-34.110359],[-70.711579,-34.110511],[-70.711474,-34.110804],[-70.711307,-34.111077],[-70.711202,-34.111349],[-70.711202,-34.1116],[-70.711202,-34.111831],[-70.71116,-34.11204],[-70.711034,-34.112229],[-70.710894,-34.112374],[-70.710813,-34.112495],[-70.710826,-34.112723],[-70.710907,-34.113179],[-70.710934,-34.11346],[-70.710894,-34.113674],[-70.710733,-34.113916],[-70.710679,-34.114077],[-70.710639,-34.114304],[-70.710692,-34.114506],[-70.710773,-34.11468],[-70.71092,-34.114881],[-70.711175,-34.115047],[-70.711269,-34.115109],[-70.711577,-34.115323],[-70.711778,-34.115484],[-70.711912,-34.115685],[-70.711939,-34.115913],[-70.711939,-34.116114],[-70.711698,-34.116302],[-70.711389,-34.116476],[-70.710961,-34.116744],[-70.710652,-34.116905],[-70.710424,-34.117025],[-70.710089,-34.117133],[-70.709768,-34.117146],[-70.709486,-34.11728],[-70.709467,-34.117297],[-70.709272,-34.117468],[-70.709178,-34.117669],[-70.709178,-34.117857],[-70.709258,-34.118071],[-70.709327,-34.118225],[-70.709432,-34.11846],[-70.709513,-34.118795],[-70.70954,-34.119197],[-70.709499,-34.11972],[-70.709493,-34.119868],[-70.709486,-34.120041],[-70.709392,-34.120403],[-70.709312,-34.120645],[-70.708937,-34.120913],[-70.708588,-34.121114],[-70.708132,-34.121167],[-70.707274,-34.121301],[-70.706725,-34.121368],[-70.706323,-34.121556],[-70.705813,-34.121744],[-70.705384,-34.121945],[-70.704969,-34.122132],[-70.704701,-34.122333],[-70.704594,-34.122481],[-70.704352,-34.122736],[-70.704192,-34.122937],[-70.704144,-34.123197],[-70.704131,-34.123386],[-70.704185,-34.123616],[-70.704225,-34.123819],[-70.704144,-34.124008],[-70.703887,-34.124171],[-70.703543,-34.124324],[-70.703522,-34.124333],[-70.703211,-34.124509],[-70.702859,-34.124766],[-70.702494,-34.125104],[-70.702115,-34.125442],[-70.70207,-34.125487],[-70.701885,-34.125672],[-70.701601,-34.125794],[-70.701371,-34.125902],[-70.701267,-34.12593],[-70.701117,-34.125937],[-70.700973,-34.125886],[-70.700871,-34.125798],[-70.700866,-34.125793],[-70.700751,-34.125686],[-70.700608,-34.125542],[-70.700507,-34.125456],[-70.7004,-34.125392],[-70.700285,-34.125377],[-70.700213,-34.125363],[-70.70012,-34.12537],[-70.70002,-34.125449],[-70.699905,-34.125578],[-70.699841,-34.125657],[-70.699747,-34.125671],[-70.699611,-34.125671],[-70.69946,-34.125607],[-70.699317,-34.125506],[-70.699174,-34.125428],[-70.699023,-34.125356],[-70.698916,-34.125356],[-70.698722,-34.125363],[-70.698528,-34.125413],[-70.698378,-34.125514],[-70.698256,-34.125714],[-70.698134,-34.125958],[-70.69807,-34.12608],[-70.69805,-34.126247],[-70.698048,-34.126266],[-70.698041,-34.126424],[-70.698005,-34.12651],[-70.697912,-34.126589],[-70.697811,-34.126639],[-70.697632,-34.126675],[-70.697345,-34.12669],[-70.697109,-34.126697],[-70.696858,-34.12669],[-70.696643,-34.126682],[-70.696377,-34.126697],[-70.696177,-34.126747],[-70.696019,-34.126804],[-70.695825,-34.126912],[-70.695696,-34.126991],[-70.695589,-34.127113],[-70.695503,-34.127242],[-70.695438,-34.127399],[-70.69541,-34.127536],[-70.695395,-34.127643],[-70.695388,-34.127743],[-70.695395,-34.127858],[-70.695374,-34.127966],[-70.69528,-34.128109],[-70.695151,-34.128281],[-70.695005,-34.128394],[-70.694844,-34.128529],[-70.694633,-34.128622],[-70.694388,-34.128723],[-70.69411,-34.128833],[-70.693958,-34.128909],[-70.693822,-34.129052],[-70.693687,-34.129213],[-70.693578,-34.129356],[-70.693535,-34.129508],[-70.693442,-34.129888],[-70.69335,-34.130251],[-70.69329,-34.130522],[-70.69324,-34.1308],[-70.693198,-34.130952],[-70.693181,-34.131147],[-70.693189,-34.131375],[-70.693181,-34.131493],[-70.693105,-34.131586],[-70.69286,-34.131746],[-70.692725,-34.131873],[-70.692666,-34.131961],[-70.69266,-34.13197],[-70.69264,-34.131999],[-70.692505,-34.132253],[-70.692429,-34.132557],[-70.692429,-34.132793],[-70.692446,-34.133114],[-70.692467,-34.133251],[-70.692488,-34.133393],[-70.692505,-34.133629],[-70.692505,-34.133823],[-70.692437,-34.133975],[-70.692339,-34.134098],[-70.692302,-34.134144],[-70.6921,-34.134431],[-70.691905,-34.134659],[-70.691728,-34.134879],[-70.691635,-34.135073],[-70.691483,-34.135377],[-70.691331,-34.135715],[-70.691188,-34.136053],[-70.691044,-34.136323],[-70.690965,-34.136442],[-70.689083,-34.136928],[-70.688814,-34.136054],[-70.688792,-34.135975],[-70.688791,-34.135972],[-70.688365,-34.134437],[-70.688356,-34.134402],[-70.688262,-34.134066],[-70.688086,-34.133431],[-70.687946,-34.132936],[-70.687904,-34.132789],[-70.687515,-34.131414],[-70.686949,-34.129399],[-70.688231,-34.129067],[-70.688865,-34.124862],[-70.693927,-34.123553],[-70.694561,-34.119347],[-70.690131,-34.116452],[-70.685069,-34.117761],[-70.684593,-34.120918],[-70.684524,-34.120667],[-70.684065,-34.118985],[-70.683981,-34.118678],[-70.683939,-34.118523],[-70.683436,-34.116694],[-70.683101,-34.115476],[-70.68267,-34.113906],[-70.682572,-34.113551],[-70.682394,-34.112909],[-70.682283,-34.112509],[-70.682207,-34.112236],[-70.681736,-34.11054],[-70.681644,-34.110206],[-70.681595,-34.110027],[-70.681435,-34.109432],[-70.681393,-34.109277],[-70.681262,-34.10879],[-70.681136,-34.108325],[-70.681112,-34.108236],[-70.68103,-34.107836],[-70.681016,-34.107526],[-70.681066,-34.107216],[-70.681129,-34.106955],[-70.681134,-34.106935],[-70.681144,-34.106896],[-70.681244,-34.106499],[-70.681264,-34.10635],[-70.681273,-34.106289],[-70.681263,-34.105982],[-70.681211,-34.105743],[-70.681109,-34.105533],[-70.681035,-34.105396],[-70.680912,-34.105226],[-70.680861,-34.105165],[-70.680559,-34.1048],[-70.680476,-34.104701],[-70.68041,-34.104622],[-70.680042,-34.104184],[-70.680033,-34.104174],[-70.679944,-34.104067],[-70.679803,-34.103899],[-70.679794,-34.103888],[-70.679537,-34.103581],[-70.679155,-34.103124],[-70.68254,-34.102248],[-70.683173,-34.098041],[-70.688235,-34.096731],[-70.688868,-34.092524],[-70.68444,-34.089627],[-70.685073,-34.08542],[-70.680644,-34.082523],[-70.68098,-34.080296],[-70.681022,-34.080283],[-70.68151,-34.080208],[-70.681758,-34.080169],[-70.682356,-34.080063],[-70.682171,-34.079772],[-70.681967,-34.07945],[-70.681672,-34.078987],[-70.681629,-34.078846],[-70.681631,-34.078555],[-70.681618,-34.078434],[-70.681612,-34.078376],[-70.68157,-34.07824],[-70.686339,-34.077004],[-70.686973,-34.072796],[-70.692034,-34.071484],[-70.692668,-34.067275],[-70.688239,-34.064378],[-70.683178,-34.06569],[-70.67875,-34.062792],[-70.675945,-34.063519],[-70.675257,-34.061712],[-70.675045,-34.061157],[-70.674954,-34.060917],[-70.67445,-34.059595],[-70.674384,-34.059418],[-70.674045,-34.058514],[-70.673987,-34.05836],[-70.673808,-34.057883],[-70.673374,-34.056726],[-70.673159,-34.056151],[-70.672937,-34.055557],[-70.672891,-34.055433],[-70.672766,-34.055099],[-70.672708,-34.054946],[-70.672239,-34.053693],[-70.672078,-34.053272],[-70.671816,-34.052589],[-70.671751,-34.052417],[-70.671582,-34.051978],[-70.671399,-34.0515],[-70.671257,-34.051117],[-70.671083,-34.050649],[-70.671005,-34.050453],[-70.67094,-34.05029],[-70.670923,-34.050246],[-70.670887,-34.050183],[-70.67077,-34.049979],[-70.670757,-34.049959],[-70.670745,-34.049941],[-70.670616,-34.049753],[-70.670581,-34.049702],[-70.670542,-34.049645],[-70.670535,-34.049633],[-70.670502,-34.049583],[-70.67048,-34.049549],[-70.670448,-34.049499],[-70.670415,-34.049447],[-70.670407,-34.049435],[-70.670407,-34.049435],[-70.670405,-34.049432],[-70.670402,-34.049427],[-70.670398,-34.049422],[-70.670395,-34.049417],[-70.670397,-34.049417],[-70.6704,-34.049417],[-70.670799,-34.04941],[-70.671086,-34.049495],[-70.671556,-34.049651],[-70.672013,-34.049803],[-70.672523,-34.049995],[-70.672767,-34.050069],[-70.673141,-34.050132],[-70.673536,-34.050313],[-70.673961,-34.050516],[-70.674215,-34.050577],[-70.674442,-34.050631],[-70.675144,-34.050934],[-70.675669,-34.051141],[-70.676173,-34.051324],[-70.676279,-34.051363],[-70.6767,-34.051507],[-70.676944,-34.051599],[-70.677521,-34.051799],[-70.678138,-34.05208],[-70.678426,-34.052209],[-70.678778,-34.052335],[-70.679184,-34.052461],[-70.679439,-34.05252],[-70.679679,-34.052501],[-70.680031,-34.052464],[-70.680323,-34.052435],[-70.680591,-34.052445],[-70.681235,-34.052491],[-70.681858,-34.052495],[-70.68229,-34.052491],[-70.682818,-34.05257],[-70.6832,-34.052649],[-70.683412,-34.052694],[-70.683777,-34.052669],[-70.68401,-34.052693],[-70.684059,-34.052698],[-70.684106,-34.052703],[-70.684436,-34.052643],[-70.68451,-34.052629],[-70.684665,-34.052743],[-70.684875,-34.052895],[-70.684911,-34.052922],[-70.684971,-34.05292],[-70.685191,-34.052913],[-70.685355,-34.052907],[-70.685719,-34.052896],[-70.68638,-34.052874],[-70.68645,-34.052872],[-70.686621,-34.052867],[-70.686632,-34.052867],[-70.68666,-34.052866],[-70.686688,-34.052866],[-70.687327,-34.052811],[-70.687584,-34.052789],[-70.687719,-34.052777],[-70.688344,-34.052725],[-70.688371,-34.052722],[-70.688807,-34.052686],[-70.689021,-34.052667],[-70.68944,-34.052632],[-70.689513,-34.052626],[-70.689635,-34.052615],[-70.689735,-34.052607],[-70.689878,-34.052595],[-70.690195,-34.052567],[-70.690563,-34.052535],[-70.690736,-34.052521],[-70.691107,-34.052488],[-70.691248,-34.052476],[-70.691697,-34.052437],[-70.691716,-34.052435],[-70.691828,-34.052427],[-70.692268,-34.052395],[-70.692635,-34.052369],[-70.692757,-34.05236],[-70.693454,-34.052308],[-70.693637,-34.052295],[-70.693658,-34.052293],[-70.694021,-34.052266],[-70.694652,-34.05222],[-70.694777,-34.05221],[-70.695456,-34.052154],[-70.695808,-34.052125],[-70.696209,-34.052091],[-70.696437,-34.052072],[-70.696812,-34.052041],[-70.697086,-34.052018],[-70.697692,-34.051959],[-70.697874,-34.051941],[-70.698628,-34.051869],[-70.698645,-34.051867],[-70.699168,-34.051826],[-70.699639,-34.051789],[-70.699864,-34.051771],[-70.700001,-34.05176],[-70.70103,-34.051679],[-70.701879,-34.051613],[-70.70207,-34.051598],[-70.702255,-34.051583],[-70.702315,-34.051578],[-70.702442,-34.051571],[-70.702601,-34.051561],[-70.702625,-34.051559],[-70.702748,-34.051552],[-70.70337,-34.051513],[-70.703776,-34.051488],[-70.703813,-34.051486],[-70.704367,-34.051452],[-70.704678,-34.051433],[-70.70468,-34.051433],[-70.705063,-34.051409],[-70.705181,-34.051402],[-70.705344,-34.051391],[-70.705467,-34.051382],[-70.705825,-34.051358],[-70.705834,-34.051357],[-70.706688,-34.051256],[-70.706889,-34.051232],[-70.707036,-34.051216],[-70.707076,-34.051211],[-70.707123,-34.051205],[-70.707292,-34.051183],[-70.707645,-34.051152],[-70.707777,-34.05114],[-70.708147,-34.051108],[-70.708185,-34.051105],[-70.708354,-34.051091],[-70.708449,-34.051084],[-70.70858,-34.051073],[-70.709424,-34.051006],[-70.709711,-34.050981],[-70.710249,-34.050935],[-70.710625,-34.05091],[-70.710913,-34.050891],[-70.712321,-34.050797],[-70.712383,-34.050792],[-70.713075,-34.05074],[-70.713468,-34.05071],[-70.714847,-34.050605],[-70.715314,-34.05057],[-70.71564,-34.050544],[-70.715862,-34.050526],[-70.716058,-34.050511],[-70.71647,-34.050478],[-70.716617,-34.050467],[-70.716896,-34.050445],[-70.717316,-34.050411],[-70.717346,-34.050409],[-70.717807,-34.050373],[-70.717891,-34.050366],[-70.717926,-34.050363],[-70.717936,-34.050362],[-70.718166,-34.050344],[-70.718544,-34.050314],[-70.718749,-34.050298],[-70.718749,-34.050298],[-70.718791,-34.050295],[-70.7191,-34.05027],[-70.719108,-34.05027],[-70.719427,-34.050241],[-70.719564,-34.050228],[-70.720137,-34.050176],[-70.720325,-34.050159],[-70.72058,-34.050136],[-70.720585,-34.050136],[-70.720666,-34.050128],[-70.720806,-34.050116],[-70.720839,-34.050113],[-70.721377,-34.050064],[-70.721442,-34.050058],[-70.721926,-34.050014],[-70.722758,-34.049939],[-70.72391,-34.049835],[-70.724485,-34.049785],[-70.724306,-34.050978],[-70.719243,-34.052292],[-70.718611,-34.056503],[-70.713548,-34.057816],[-70.712915,-34.062026],[-70.707853,-34.063339],[-70.70722,-34.067548],[-70.71165,-34.070445],[-70.711017,-34.074654],[-70.715446,-34.07755],[-70.714814,-34.081758],[-70.719244,-34.084654],[-70.724307,-34.083342],[-70.724939,-34.079133],[-70.730002,-34.07782],[-70.730635,-34.073611],[-70.735698,-34.072298],[-70.740129,-34.075193],[-70.739496,-34.079403],[-70.734433,-34.080716],[-70.7338,-34.084925],[-70.738231,-34.08782],[-70.737598,-34.092029],[-70.74203,-34.094924],[-70.741397,-34.099132]]]},"properties":{"comuna":"Graneros","mancha_id":"06106-88b2c1c041fffff","clase":"Bajo","nivel_medio":1.145,"nivel_medio_min":0.614,"nivel_medio_max":1.462,"pct_alto":3.9,"n_hexagonos":66,"area_ha":3122.16}},{"type":"Feature","geometry":{"type":"Polygon","coordinates":[[[-70.800267,-34.06362],[-70.800899,-34.059408],[-70.802142,-34.059085],[-70.802131,-34.059209],[-70.801962,-34.059521],[-70.80165,-34.05986],[-70.801537,-34.060228],[-70.801763,-34.060652],[-70.801877,-34.061133],[-70.801848,-34.061501],[-70.801763,-34.06184],[-70.801537,-34.062208],[-70.801283,-34.062632],[-70.801283,-34.063],[-70.801396,-34.063509],[-70.80165,-34.064075],[-70.80165,-34.064523],[-70.800267,-34.06362]]]},"properties":{"comuna":"Graneros","mancha_id":"06106-88b2c1da97fffff","clase":"Medio","nivel_medio":2.496,"nivel_medio_min":2.496,"nivel_medio_max":2.496,"pct_alto":49.6,"n_hexagonos":1,"area_ha":5.25}},{"type":"Feature","geometry":{"type":"Polygon","coordinates":[[[-70.813555,-34.039923],[-70.814187,-34.03571],[-70.817266,-34.034908],[-70.817804,-34.035446],[-70.818115,-34.036097],[-70.818454,-34.036634],[-70.818539,-34.036946],[-70.818737,-34.037342],[-70.818709,-34.037681],[-70.818426,-34.037964],[-70.81803,-34.038134],[-70.817577,-34.038615],[-70.817294,-34.039124],[-70.816559,-34.039633],[-70.816106,-34.039944],[-70.815795,-34.040057],[-70.815342,-34.040142],[-70.814777,-34.040057],[-70.814296,-34.040029],[-70.813891,-34.040142],[-70.813555,-34.039923]]]},"properties":{"comuna":"Graneros","mancha_id":"06106-88b2c1da89fffff","clase":"Medio","nivel_medio":2.465,"nivel_medio_min":2.465,"nivel_medio_max":2.465,"pct_alto":47.7,"n_hexagonos":1,"area_ha":19.36}},{"type":"Feature","geometry":{"type":"Polygon","coordinates":[[[-70.798982,-34.00727],[-70.79455,-34.004374],[-70.795042,-34.001092],[-70.795627,-34.001368],[-70.797391,-34.001964],[-70.798508,-34.002287],[-70.79985,-34.002984],[-70.800584,-34.00331],[-70.801298,-34.003596],[-70.80195,-34.004065],[-70.802501,-34.004554],[-70.803097,-34.004957],[-70.803674,-34.005441],[-70.804075,-34.005761],[-70.804046,-34.005951],[-70.806607,-34.007624],[-70.806662,-34.007777],[-70.806621,-34.008144],[-70.806629,-34.008844],[-70.806406,-34.009465],[-70.806158,-34.010433],[-70.805884,-34.011178],[-70.805859,-34.011774],[-70.805859,-34.012867],[-70.805901,-34.013569],[-70.802783,-34.014381],[-70.798351,-34.011485],[-70.798982,-34.00727]]]},"properties":{"comuna":"Graneros","mancha_id":"06106-88b2c1d107fffff","clase":"Medio","nivel_medio":2.266,"nivel_medio_min":2.176,"nivel_medio_max":2.317,"pct_alto":56.8,"n_hexagonos":2,"area_ha":83.98}},{"type":"Feature","geometry":{"type":"Polygon","coordinates":[[[-70.71862,-34.02296],[-70.718777,-34.023018],[-70.719746,-34.023377],[-70.720022,-34.023536],[-70.720855,-34.023993],[-70.721446,-34.02437],[-70.721849,-34.024746],[-70.722279,-34.025256],[-70.723058,-34.025794],[-70.723999,-34.026063],[-70.724859,-34.026358],[-70.725104,-34.026488],[-70.72304,-34.027024],[-70.718611,-34.024126],[-70.718512,-34.024152],[-70.718509,-34.024119],[-70.7185,-34.024026],[-70.718489,-34.023909],[-70.718482,-34.023839],[-70.718463,-34.023638],[-70.718462,-34.023626],[-70.718459,-34.023597],[-70.718448,-34.023482],[-70.718439,-34.023382],[-70.71843,-34.023295],[-70.718428,-34.023273],[-70.718427,-34.023265],[-70.718423,-34.023223],[-70.718422,-34.023205],[-70.718421,-34.023201],[-70.718421,-34.023198],[-70.718419,-34.023179],[-70.718418,-34.023168],[-70.718416,-34.023147],[-70.718414,-34.023127],[-70.718414,-34.023123],[-70.718413,-34.023113],[-70.718412,-34.023108],[-70.718412,-34.023107],[-70.718412,-34.023103],[-70.718411,-34.023098],[-70.718411,-34.023093],[-70.718411,-34.023091],[-70.71862,-34.02296]]]},"properties":{"comuna":"Graneros","mancha_id":"06106-88b2c1d0e7fffff","clase":"Medio","nivel_medio":2.46,"nivel_medio_min":1.55,"nivel_medio_max":2.492,"pct_alto":70.4,"n_hexagonos":2,"area_ha":8.06}},{"type":"Feature","geometry":{"type":"Polygon","coordinates":[[[-70.795128,-34.097864],[-70.795212,-34.097302],[-70.795971,-34.097105],[-70.795766,-34.097231],[-70.795455,-34.097598],[-70.795128,-34.097864]]]},"properties":{"comuna":"Graneros","mancha_id":"06106-88b2c1c323fffff","clase":"Medio","nivel_medio":2.121,"nivel_medio_min":2.121,"nivel_medio_max":2.121,"pct_alto":12.1,"n_hexagonos":1,"area_ha":0.2}},{"type":"Feature","geometry":{"type":"Polygon","coordinates":[[[-70.781913,-34.08862],[-70.77748,-34.085725],[-70.772415,-34.08704],[-70.771783,-34.091249],[-70.766718,-34.092564],[-70.762286,-34.089669],[-70.762918,-34.08546],[-70.767983,-34.084146],[-70.768615,-34.079936],[-70.773679,-34.078621],[-70.778112,-34.081516],[-70.783177,-34.080201],[-70.78761,-34.083095],[-70.786978,-34.087305],[-70.781913,-34.08862]]]},"properties":{"comuna":"Graneros","mancha_id":"06106-88b2c1c301fffff","clase":"Medio","nivel_medio":1.761,"nivel_medio_min":1.586,"nivel_medio_max":1.993,"pct_alto":11.6,"n_hexagonos":3,"area_ha":188.77}},{"type":"Feature","geometry":{"type":"Polygon","coordinates":[[[-70.678744,-34.095145],[-70.679378,-34.090938],[-70.67584,-34.088623],[-70.675848,-34.088591],[-70.675925,-34.088293],[-70.675933,-34.088264],[-70.676147,-34.087653],[-70.676162,-34.087608],[-70.676458,-34.086764],[-70.676513,-34.086605],[-70.676519,-34.086588],[-70.676601,-34.086355],[-70.676697,-34.086081],[-70.67681,-34.085892],[-70.676976,-34.08563],[-70.677013,-34.085571],[-70.677115,-34.08541],[-70.677318,-34.085117],[-70.677613,-34.084691],[-70.677671,-34.084608],[-70.677935,-34.084226],[-70.678218,-34.083818],[-70.678245,-34.083778],[-70.678351,-34.083622],[-70.678388,-34.083569],[-70.678492,-34.083416],[-70.678746,-34.083044],[-70.678771,-34.083008],[-70.678799,-34.082966],[-70.678815,-34.082944],[-70.678906,-34.08281],[-70.678965,-34.082724],[-70.67898,-34.082701],[-70.679058,-34.082586],[-70.679093,-34.082536],[-70.679098,-34.082528],[-70.679131,-34.08248],[-70.679142,-34.082465],[-70.679206,-34.08237],[-70.679229,-34.082336],[-70.679241,-34.082319],[-70.679244,-34.082314],[-70.679312,-34.082215],[-70.679331,-34.082187],[-70.67936,-34.082145],[-70.679365,-34.082137],[-70.679366,-34.082135],[-70.67937,-34.08213],[-70.679388,-34.082108],[-70.67942,-34.082068],[-70.679502,-34.081966],[-70.679534,-34.081926],[-70.679536,-34.081924],[-70.679615,-34.081826],[-70.679653,-34.081778],[-70.679655,-34.081776],[-70.679688,-34.081735],[-70.679978,-34.081375],[-70.680017,-34.081326],[-70.680155,-34.081152],[-70.680431,-34.080801],[-70.680632,-34.080547],[-70.680763,-34.080379],[-70.680873,-34.080329],[-70.68098,-34.080296],[-70.680644,-34.082523],[-70.685073,-34.08542],[-70.68444,-34.089627],[-70.688868,-34.092524],[-70.688235,-34.096731],[-70.683173,-34.098041],[-70.68254,-34.102248],[-70.679155,-34.103124],[-70.679088,-34.103043],[-70.678921,-34.102841],[-70.678873,-34.102782],[-70.678196,-34.10196],[-70.678148,-34.101901],[-70.677998,-34.101719],[-70.677989,-34.101706],[-70.677765,-34.101421],[-70.677653,-34.101278],[-70.677584,-34.101189],[-70.677513,-34.101098],[-70.67736,-34.100862],[-70.677225,-34.100652],[-70.676895,-34.100142],[-70.676863,-34.100092],[-70.676808,-34.100007],[-70.67675,-34.099898],[-70.676591,-34.099599],[-70.676471,-34.099315],[-70.676298,-34.098902],[-70.676213,-34.0987],[-70.67621,-34.098692],[-70.676128,-34.098496],[-70.676047,-34.098157],[-70.676022,-34.097798],[-70.675954,-34.096948],[-70.675952,-34.096915],[-70.67595,-34.096884],[-70.67588,-34.095886],[-70.678744,-34.095145]]]},"properties":{"comuna":"Graneros","mancha_id":"06106-88b2c1c2c5fffff","clase":"Medio","nivel_medio":1.747,"nivel_medio_min":1.584,"nivel_medio_max":1.878,"pct_alto":24.5,"n_hexagonos":4,"area_ha":160.27}},{"type":"Feature","geometry":{"type":"Polygon","coordinates":[[[-70.693927,-34.123553],[-70.688865,-34.124862],[-70.688231,-34.129067],[-70.686949,-34.129399],[-70.686564,-34.128025],[-70.686355,-34.127281],[-70.68621,-34.126756],[-70.685681,-34.124844],[-70.685125,-34.122839],[-70.684982,-34.122324],[-70.684699,-34.121303],[-70.684613,-34.120992],[-70.684593,-34.120918],[-70.685069,-34.117761],[-70.690131,-34.116452],[-70.694561,-34.119347],[-70.693927,-34.123553]]]},"properties":{"comuna":"Graneros","mancha_id":"06106-88b2c1c2abfffff","clase":"Medio","nivel_medio":1.586,"nivel_medio_min":1.572,"nivel_medio_max":1.645,"pct_alto":17.3,"n_hexagonos":2,"area_ha":76.66}},{"type":"Feature","geometry":{"type":"Polygon","coordinates":[[[-70.692034,-34.071484],[-70.686973,-34.072796],[-70.686339,-34.077004],[-70.68157,-34.07824],[-70.681568,-34.078233],[-70.681184,-34.077286],[-70.681098,-34.077059],[-70.679678,-34.073323],[-70.678933,-34.071333],[-70.67876,-34.070879],[-70.678554,-34.07034],[-70.678307,-34.069695],[-70.677863,-34.068535],[-70.677632,-34.06793],[-70.677591,-34.067825],[-70.677468,-34.067502],[-70.676537,-34.065071],[-70.676329,-34.064526],[-70.67621,-34.064212],[-70.676209,-34.064211],[-70.675945,-34.063519],[-70.67875,-34.062792],[-70.683178,-34.06569],[-70.688239,-34.064378],[-70.692668,-34.067275],[-70.692034,-34.071484]]]},"properties":{"comuna":"Graneros","mancha_id":"06106-88b2c1c253fffff","clase":"Medio","nivel_medio":1.721,"nivel_medio_min":1.6,"nivel_medio_max":1.858,"pct_alto":24.7,"n_hexagonos":3,"area_ha":146.66}},{"type":"Feature","geometry":{"type":"Polygon","coordinates":[[[-70.689464,-34.138164],[-70.689083,-34.136928],[-70.690965,-34.136442],[-70.690909,-34.136526],[-70.690774,-34.136703],[-70.690597,-34.136931],[-70.690453,-34.137117],[-70.690242,-34.137277],[-70.690073,-34.137421],[-70.689955,-34.137573],[-70.68985,-34.13769],[-70.689811,-34.137733],[-70.689668,-34.137953],[-70.689575,-34.138105],[-70.689464,-34.138164]]]},"properties":{"comuna":"Graneros","mancha_id":"06106-88b2c1c0cbfffff","clase":"Medio","nivel_medio":2.224,"nivel_medio_min":2.224,"nivel_medio_max":2.224,"pct_alto":48.8,"n_hexagonos":1,"area_ha":1.32}},{"type":"Feature","geometry":{"type":"Polygon","coordinates":[[[-70.741397,-34.099132],[-70.74203,-34.094924],[-70.737598,-34.092029],[-70.738231,-34.08782],[-70.7338,-34.084925],[-70.734433,-34.080716],[-70.739496,-34.079403],[-70.740129,-34.075193],[-70.735698,-34.072298],[-70.736331,-34.068088],[-70.741394,-34.066774],[-70.742026,-34.062564],[-70.737596,-34.059668],[-70.732533,-34.060982],[-70.728103,-34.058086],[-70.72304,-34.059399],[-70.722408,-34.063609],[-70.717345,-34.064922],[-70.716712,-34.069132],[-70.721142,-34.072028],[-70.720509,-34.076237],[-70.724939,-34.079133],[-70.724307,-34.083342],[-70.719244,-34.084654],[-70.714814,-34.081758],[-70.715446,-34.07755],[-70.711017,-34.074654],[-70.71165,-34.070445],[-70.70722,-34.067548],[-70.707853,-34.063339],[-70.712915,-34.062026],[-70.713548,-34.057816],[-70.718611,-34.056503],[-70.719243,-34.052292],[-70.724306,-34.050978],[-70.724485,-34.049785],[-70.725669,-34.049681],[-70.726065,-34.049647],[-70.72661,-34.049611],[-70.726699,-34.049607],[-70.726777,-34.049381],[-70.726975,-34.048763],[-70.72701,-34.048629],[-70.72702,-34.048493],[-70.727023,-34.048305],[-70.727001,-34.048158],[-70.726953,-34.047989],[-70.726815,-34.047646],[-70.72642,-34.046771],[-70.726406,-34.04674],[-70.726262,-34.046424],[-70.72609,-34.046046],[-70.725555,-34.044874],[-70.72543,-34.044601],[-70.725355,-34.044432],[-70.724782,-34.043147],[-70.724757,-34.043092],[-70.724659,-34.042873],[-70.724529,-34.042572],[-70.72424,-34.041904],[-70.724117,-34.04162],[-70.723896,-34.04111],[-70.72384,-34.04098],[-70.723471,-34.039969],[-70.723167,-34.039134],[-70.726204,-34.038345],[-70.730633,-34.041242],[-70.735696,-34.039927],[-70.736328,-34.035716],[-70.741391,-34.0344],[-70.745821,-34.037297],[-70.750884,-34.035981],[-70.751516,-34.031769],[-70.747086,-34.028872],[-70.747718,-34.02466],[-70.752781,-34.023343],[-70.753413,-34.01913],[-70.748983,-34.016233],[-70.749128,-34.015264],[-70.749325,-34.015053],[-70.749953,-34.014623],[-70.75,-34.014583],[-70.750581,-34.014094],[-70.751176,-34.013697],[-70.751573,-34.012904],[-70.751937,-34.012242],[-70.752367,-34.011845],[-70.75273,-34.011209],[-70.752763,-34.011151],[-70.753259,-34.01049],[-70.753482,-34.010045],[-70.753626,-34.009833],[-70.753718,-34.00978],[-70.753819,-34.009737],[-70.753954,-34.009703],[-70.754093,-34.00966],[-70.754262,-34.009713],[-70.754541,-34.009727],[-70.754824,-34.009729],[-70.754979,-34.009729],[-70.75564,-34.009663],[-70.756202,-34.009663],[-70.756864,-34.009828],[-70.757657,-34.009895],[-70.758319,-34.009994],[-70.758914,-34.009828],[-70.759674,-34.009564],[-70.760435,-34.009266],[-70.761493,-34.009101],[-70.762452,-34.009035],[-70.763212,-34.008936],[-70.763708,-34.008903],[-70.764535,-34.008836],[-70.764697,-34.008771],[-70.765031,-34.008638],[-70.765461,-34.008241],[-70.766155,-34.008076],[-70.766783,-34.007778],[-70.767478,-34.007448],[-70.767675,-34.007321],[-70.767941,-34.00715],[-70.768602,-34.006985],[-70.769429,-34.006819],[-70.769731,-34.006786],[-70.769892,-34.006768],[-70.774297,-34.009648],[-70.77936,-34.00833],[-70.783791,-34.011226],[-70.783159,-34.01544],[-70.778096,-34.016758],[-70.777464,-34.020972],[-70.781896,-34.023868],[-70.781264,-34.028082],[-70.7762,-34.029399],[-70.775568,-34.033612],[-70.78,-34.036508],[-70.779368,-34.040721],[-70.7838,-34.043616],[-70.788864,-34.042299],[-70.793297,-34.045195],[-70.792665,-34.049407],[-70.797098,-34.052302],[-70.796466,-34.056514],[-70.791401,-34.057831],[-70.790769,-34.062042],[-70.795202,-34.064937],[-70.79457,-34.069148],[-70.799004,-34.072042],[-70.798372,-34.076253],[-70.802805,-34.079147],[-70.802852,-34.079135],[-70.802952,-34.079323],[-70.803235,-34.079719],[-70.803348,-34.080172],[-70.803433,-34.080625],[-70.803404,-34.081106],[-70.803319,-34.081643],[-70.803348,-34.082067],[-70.803433,-34.082633],[-70.803574,-34.083142],[-70.803659,-34.08368],[-70.803659,-34.084327],[-70.803659,-34.084331],[-70.803772,-34.084925],[-70.8038,-34.085264],[-70.803744,-34.085632],[-70.803659,-34.086028],[-70.803602,-34.086424],[-70.803829,-34.086905],[-70.804225,-34.087414],[-70.804225,-34.08781],[-70.804196,-34.088093],[-70.803885,-34.088348],[-70.803546,-34.088517],[-70.80315,-34.088687],[-70.802612,-34.089055],[-70.802131,-34.089423],[-70.80182,-34.089734],[-70.801537,-34.089988],[-70.801028,-34.0903],[-70.800406,-34.090583],[-70.80001,-34.090781],[-70.799673,-34.09097],[-70.796476,-34.088883],[-70.797108,-34.084673],[-70.792675,-34.081779],[-70.793307,-34.077569],[-70.788873,-34.074675],[-70.789505,-34.070464],[-70.785073,-34.067569],[-70.780008,-34.068885],[-70.775576,-34.06599],[-70.770511,-34.067306],[-70.76608,-34.064411],[-70.766712,-34.0602],[-70.76228,-34.057305],[-70.757217,-34.05862],[-70.756584,-34.06283],[-70.751521,-34.064145],[-70.750888,-34.068356],[-70.745825,-34.06967],[-70.745192,-34.07388],[-70.749623,-34.076775],[-70.748991,-34.080984],[-70.743927,-34.082298],[-70.743295,-34.086507],[-70.747726,-34.089402],[-70.747094,-34.093611],[-70.751525,-34.096505],[-70.756589,-34.095192],[-70.761021,-34.098086],[-70.766086,-34.096772],[-70.770518,-34.099667],[-70.775583,-34.098352],[-70.780016,-34.101246],[-70.785081,-34.099932],[-70.788109,-34.101908],[-70.787958,-34.102436],[-70.78776,-34.102945],[-70.787364,-34.103369],[-70.786968,-34.103737],[-70.7866,-34.104416],[-70.786402,-34.10518],[-70.786289,-34.105944],[-70.785893,-34.106396],[-70.785242,-34.10699],[-70.784873,-34.107624],[-70.784846,-34.107669],[-70.784827,-34.108086],[-70.784803,-34.108594],[-70.784438,-34.108512],[-70.784129,-34.108334],[-70.784018,-34.108296],[-70.78365,-34.108171],[-70.78356,-34.108171],[-70.783545,-34.108171],[-70.782255,-34.108164],[-70.782124,-34.108163],[-70.782185,-34.108362],[-70.782222,-34.108485],[-70.782223,-34.108494],[-70.782234,-34.108617],[-70.782245,-34.10874],[-70.782251,-34.108756],[-70.782318,-34.108958],[-70.782322,-34.108969],[-70.782438,-34.109318],[-70.782448,-34.109349],[-70.782461,-34.109411],[-70.782561,-34.109913],[-70.782562,-34.109917],[-70.78262,-34.110147],[-70.782633,-34.110201],[-70.782646,-34.110242],[-70.78274,-34.110537],[-70.782776,-34.110716],[-70.782763,-34.110779],[-70.782757,-34.110807],[-70.782681,-34.111159],[-70.782672,-34.111404],[-70.782669,-34.111489],[-70.782666,-34.111549],[-70.782731,-34.111653],[-70.782953,-34.111812],[-70.783041,-34.111876],[-70.783061,-34.111888],[-70.783078,-34.111898],[-70.783255,-34.112004],[-70.783266,-34.112021],[-70.783344,-34.112149],[-70.783344,-34.11215],[-70.783356,-34.112188],[-70.783407,-34.112352],[-70.783466,-34.112492],[-70.7836,-34.112643],[-70.783666,-34.11269],[-70.783666,-34.112691],[-70.783767,-34.112762],[-70.783969,-34.112845],[-70.784003,-34.112868],[-70.78407,-34.112911],[-70.784082,-34.112928],[-70.784101,-34.112954],[-70.784137,-34.113005],[-70.784137,-34.113051],[-70.784137,-34.113063],[-70.784137,-34.113087],[-70.784128,-34.11311],[-70.784124,-34.113121],[-70.784109,-34.113159],[-70.784105,-34.113168],[-70.784088,-34.113211],[-70.784085,-34.113274],[-70.784083,-34.113316],[-70.784079,-34.113374],[-70.784078,-34.113392],[-70.784078,-34.113392],[-70.784074,-34.11347],[-70.784071,-34.113531],[-70.78407,-34.113537],[-70.784064,-34.113606],[-70.784063,-34.113622],[-70.784061,-34.113644],[-70.78406,-34.113659],[-70.784059,-34.113661],[-70.784059,-34.11367],[-70.784012,-34.11364],[-70.784007,-34.113636],[-70.783914,-34.11357],[-70.783847,-34.113524],[-70.783774,-34.113464],[-70.783689,-34.113391],[-70.783633,-34.113331],[-70.783577,-34.113264],[-70.783521,-34.113201],[-70.783444,-34.113145],[-70.783363,-34.113114],[-70.783265,-34.113089],[-70.783142,-34.113061],[-70.782999,-34.11304],[-70.782893,-34.11304],[-70.782732,-34.113008],[-70.782637,-34.112991],[-70.782543,-34.112963],[-70.78243,-34.11291],[-70.782339,-34.112851],[-70.782273,-34.112795],[-70.782271,-34.112794],[-70.782171,-34.112742],[-70.78208,-34.112717],[-70.781999,-34.112721],[-70.781918,-34.112717],[-70.781831,-34.112675],[-70.781715,-34.112616],[-70.781603,-34.112563],[-70.781526,-34.112531],[-70.781427,-34.1125],[-70.781329,-34.112489],[-70.781266,-34.112486],[-70.781196,-34.112486],[-70.781119,-34.112475],[-70.781052,-34.112465],[-70.780968,-34.112433],[-70.78088,-34.112398],[-70.780786,-34.112395],[-70.780691,-34.112398],[-70.780561,-34.112402],[-70.780473,-34.112409],[-70.7804,-34.112426],[-70.780351,-34.112461],[-70.780305,-34.112489],[-70.780249,-34.112521],[-70.780147,-34.112549],[-70.78001,-34.11257],[-70.779895,-34.112584],[-70.779793,-34.112595],[-70.779667,-34.112609],[-70.77953,-34.112647],[-70.779414,-34.112672],[-70.779327,-34.112689],[-70.779218,-34.112724],[-70.779134,-34.112756],[-70.779071,-34.112805],[-70.779011,-34.112851],[-70.778927,-34.112879],[-70.778801,-34.112889],[-70.778716,-34.112893],[-70.778562,-34.112879],[-70.778338,-34.112847],[-70.778194,-34.112826],[-70.778099,-34.112809],[-70.778015,-34.112787],[-70.777896,-34.11278],[-70.77764,-34.112773],[-70.777408,-34.11277],[-70.777198,-34.112773],[-70.77704,-34.112756],[-70.776914,-34.112745],[-70.776812,-34.112721],[-70.776689,-34.112661],[-70.77657,-34.112602],[-70.77644,-34.112546],[-70.776353,-34.112496],[-70.77623,-34.112461],[-70.7761,-34.112402],[-70.775974,-34.112335],[-70.775879,-34.112272],[-70.775746,-34.112205],[-70.775595,-34.112163],[-70.775453,-34.11213],[-70.775416,-34.112121],[-70.775234,-34.112086],[-70.775086,-34.112051],[-70.774988,-34.112044],[-70.77488,-34.11204],[-70.774785,-34.11203],[-70.774659,-34.111991],[-70.77455,-34.111925],[-70.774413,-34.111869],[-70.774287,-34.111791],[-70.774189,-34.111707],[-70.774097,-34.111623],[-70.77402,-34.111514],[-70.77395,-34.111402],[-70.773873,-34.111279],[-70.773796,-34.111178],[-70.773712,-34.111097],[-70.773642,-34.111066],[-70.773568,-34.111062],[-70.773473,-34.111066],[-70.773335,-34.111068],[-70.77328,-34.111069],[-70.773119,-34.111066],[-70.773031,-34.111055],[-70.772944,-34.111006],[-70.772824,-34.110943],[-70.772684,-34.110876],[-70.772565,-34.11082],[-70.772432,-34.110785],[-70.77226,-34.110736],[-70.772133,-34.110697],[-70.771983,-34.110659],[-70.77187,-34.11062],[-70.771723,-34.11056],[-70.771558,-34.110497],[-70.771369,-34.110417],[-70.771197,-34.110333],[-70.771043,-34.110273],[-70.770927,-34.110234],[-70.770794,-34.110213],[-70.770646,-34.110182],[-70.770503,-34.110154],[-70.770359,-34.110101],[-70.770219,-34.110041],[-70.770103,-34.109978],[-70.769984,-34.109933],[-70.769871,-34.109905],[-70.769717,-34.109859],[-70.769605,-34.109817],[-70.769493,-34.109782],[-70.769398,-34.109736],[-70.769268,-34.10968],[-70.769135,-34.109663],[-70.768977,-34.109645],[-70.768718,-34.109638],[-70.768525,-34.109649],[-70.768381,-34.109652],[-70.768195,-34.10967],[-70.767946,-34.109691],[-70.767753,-34.109708],[-70.767564,-34.109733],[-70.76743,-34.109736],[-70.767325,-34.109757],[-70.767178,-34.109789],[-70.766943,-34.109824],[-70.766697,-34.109856],[-70.766455,-34.109877],[-70.766284,-34.109898],[-70.766133,-34.109919],[-70.765975,-34.109926],[-70.765835,-34.10995],[-70.765663,-34.109996],[-70.765421,-34.110038],[-70.765212,-34.110064],[-70.764189,-34.109396],[-70.764821,-34.105189],[-70.760389,-34.102294],[-70.755324,-34.103608],[-70.750893,-34.100713],[-70.745828,-34.102026],[-70.741397,-34.099132]],[[-70.743291,-34.054143],[-70.747722,-34.057039],[-70.752785,-34.055724],[-70.753418,-34.051513],[-70.748987,-34.048617],[-70.743924,-34.049932],[-70.743291,-34.054143]],[[-70.769872,-34.039142],[-70.764809,-34.040458],[-70.764177,-34.04467],[-70.768608,-34.047566],[-70.773672,-34.04625],[-70.774304,-34.042038],[-70.769872,-34.039142]]]},"properties":{"comuna":"Graneros","mancha_id":"06106-88b2c1c04dfffff","clase":"Medio","nivel_medio":1.93,"nivel_medio_min":1.523,"nivel_medio_max":2.482,"pct_alto":21.7,"n_hexagonos":66,"area_ha":3661.44}},{"type":"Feature","geometry":{"type":"Polygon","coordinates":[[[-70.764177,-34.04467],[-70.764809,-34.040458],[-70.769872,-34.039142],[-70.774304,-34.042038],[-70.773672,-34.04625],[-70.768608,-34.047566],[-70.764177,-34.04467]]]},"properties":{"comuna":"Graneros","mancha_id":"06106-88b2c1d1abfffff","clase":"Alto","nivel_medio":2.504,"nivel_medio_min":2.504,"nivel_medio_max":2.504,"pct_alto":49.4,"n_hexagonos":1,"area_ha":62.98}},{"type":"Feature","geometry":{"type":"Polygon","coordinates":[[[-70.720304,-34.031886],[-70.720251,-34.031796],[-70.720248,-34.03179],[-70.720094,-34.031542],[-70.720023,-34.031428],[-70.719936,-34.031288],[-70.719881,-34.0312],[-70.719675,-34.030868],[-70.719572,-34.030702],[-70.71944,-34.03049],[-70.71895,-34.0292],[-70.718913,-34.028765],[-70.718866,-34.028226],[-70.718819,-34.027683],[-70.718779,-34.02722],[-70.718725,-34.026586],[-70.718647,-34.025686],[-70.718603,-34.025168],[-70.718554,-34.024605],[-70.718551,-34.024562],[-70.718544,-34.024484],[-70.718543,-34.024472],[-70.718532,-34.024365],[-70.718522,-34.024252],[-70.718516,-34.024196],[-70.718512,-34.024152],[-70.718611,-34.024126],[-70.72304,-34.027024],[-70.725104,-34.026488],[-70.725316,-34.0266],[-70.72588,-34.026869],[-70.726418,-34.02703],[-70.72709,-34.027218],[-70.727681,-34.027245],[-70.728084,-34.027487],[-70.728323,-34.027947],[-70.728378,-34.028432],[-70.728433,-34.028847],[-70.72853,-34.029068],[-70.728779,-34.029138],[-70.728904,-34.02893],[-70.728973,-34.02875],[-70.729222,-34.02857],[-70.729643,-34.028401],[-70.730395,-34.028186],[-70.731228,-34.027971],[-70.731451,-34.0279],[-70.7319,-34.027756],[-70.732778,-34.027699],[-70.733173,-34.027709],[-70.733596,-34.027652],[-70.733945,-34.02753],[-70.734443,-34.027426],[-70.734917,-34.027296],[-70.735305,-34.027155],[-70.735867,-34.026923],[-70.736429,-34.02656],[-70.737049,-34.026335],[-70.737293,-34.026194],[-70.737487,-34.025998],[-70.737855,-34.025551],[-70.737867,-34.025536],[-70.738046,-34.025338],[-70.738271,-34.02516],[-70.738625,-34.024992],[-70.73893,-34.024906],[-70.739372,-34.024821],[-70.739598,-34.02452],[-70.739795,-34.024285],[-70.740099,-34.024113],[-70.741091,-34.02365],[-70.741521,-34.023319],[-70.74205,-34.022889],[-70.74291,-34.022427],[-70.743307,-34.022129],[-70.743482,-34.021889],[-70.74367,-34.021633],[-70.743968,-34.021137],[-70.744332,-34.020244],[-70.744497,-34.019847],[-70.744649,-34.019459],[-70.744761,-34.019219],[-70.74494,-34.019074],[-70.745191,-34.018988],[-70.745654,-34.018922],[-70.746084,-34.018723],[-70.746323,-34.018434],[-70.746389,-34.018218],[-70.746445,-34.017992],[-70.746568,-34.017653],[-70.746745,-34.017401],[-70.747142,-34.016871],[-70.747335,-34.016662],[-70.747452,-34.016534],[-70.747744,-34.016309],[-70.748101,-34.016111],[-70.748531,-34.015879],[-70.748895,-34.015516],[-70.749128,-34.015264],[-70.748983,-34.016233],[-70.753413,-34.01913],[-70.752781,-34.023343],[-70.747718,-34.02466],[-70.747086,-34.028872],[-70.742023,-34.030188],[-70.741391,-34.0344],[-70.736328,-34.035716],[-70.735696,-34.039927],[-70.730633,-34.041242],[-70.726204,-34.038345],[-70.723167,-34.039134],[-70.722949,-34.038538],[-70.722932,-34.03849],[-70.722675,-34.03781],[-70.722416,-34.037123],[-70.722199,-34.036549],[-70.722179,-34.036496],[-70.722139,-34.03639],[-70.721745,-34.035344],[-70.721695,-34.035211],[-70.721387,-34.034426],[-70.721359,-34.034356],[-70.721209,-34.033975],[-70.721033,-34.033526],[-70.720902,-34.033191],[-70.720899,-34.033184],[-70.720595,-34.032408],[-70.720574,-34.032356],[-70.720567,-34.032337],[-70.720304,-34.031886]]]},"properties":{"comuna":"Graneros","mancha_id":"06106-88b2c1d0a5fffff","clase":"Alto","nivel_medio":2.736,"nivel_medio_min":2.507,"nivel_medio_max":2.979,"pct_alto":74.0,"n_hexagonos":9,"area_ha":352.42}},{"type":"Feature","geometry":{"type":"Polygon","coordinates":[[[-70.798372,-34.076253],[-70.799004,-34.072042],[-70.79457,-34.069148],[-70.795202,-34.064937],[-70.790769,-34.062042],[-70.791401,-34.057831],[-70.796466,-34.056514],[-70.797098,-34.052302],[-70.792665,-34.049407],[-70.793297,-34.045195],[-70.788864,-34.042299],[-70.7838,-34.043616],[-70.779368,-34.040721],[-70.78,-34.036508],[-70.775568,-34.033612],[-70.7762,-34.029399],[-70.781264,-34.028082],[-70.781896,-34.023868],[-70.777464,-34.020972],[-70.778096,-34.016758],[-70.783159,-34.01544],[-70.783791,-34.011226],[-70.77936,-34.00833],[-70.774297,-34.009648],[-70.769892,-34.006768],[-70.770321,-34.00672],[-70.771346,-34.00672],[-70.771942,-34.00672],[-70.772735,-34.006621],[-70.773529,-34.006555],[-70.774223,-34.006356],[-70.774851,-34.005993],[-70.775612,-34.005695],[-70.776571,-34.005431],[-70.777464,-34.005365],[-70.778004,-34.005194],[-70.778323,-34.004917],[-70.778642,-34.004513],[-70.779117,-34.004174],[-70.779677,-34.003909],[-70.779745,-34.003877],[-70.78028,-34.003641],[-70.781004,-34.003386],[-70.781696,-34.003182],[-70.782429,-34.00296],[-70.782875,-34.002748],[-70.783116,-34.002544],[-70.783449,-34.002289],[-70.783746,-34.001992],[-70.784408,-34.001463],[-70.784904,-34.001033],[-70.785362,-34.000746],[-70.785433,-34.000702],[-70.786028,-34.000438],[-70.787086,-34.000206],[-70.787582,-34.000008],[-70.787597,-34.0],[-70.788207,-33.999689],[-70.78956,-33.999167],[-70.790255,-33.998772],[-70.791098,-33.998514],[-70.792016,-33.99809],[-70.792174,-33.998017],[-70.792646,-33.99755],[-70.792855,-33.997247],[-70.792998,-33.996917],[-70.793135,-33.99665],[-70.793367,-33.996525],[-70.793541,-33.99727],[-70.793467,-33.997966],[-70.793375,-33.998977],[-70.793342,-33.999332],[-70.793268,-33.999953],[-70.793359,-34.0],[-70.793685,-34.00017],[-70.794163,-34.000489],[-70.794733,-34.000946],[-70.795042,-34.001092],[-70.79455,-34.004374],[-70.798982,-34.00727],[-70.798351,-34.011485],[-70.802783,-34.014381],[-70.805901,-34.013569],[-70.805909,-34.013711],[-70.806058,-34.014357],[-70.805934,-34.015102],[-70.805611,-34.015599],[-70.805636,-34.015822],[-70.805934,-34.016617],[-70.806629,-34.01771],[-70.807374,-34.018877],[-70.808045,-34.019846],[-70.808368,-34.020367],[-70.808543,-34.020981],[-70.808716,-34.021584],[-70.80874,-34.022255],[-70.808716,-34.022776],[-70.808542,-34.023447],[-70.808169,-34.024291],[-70.807722,-34.025061],[-70.807672,-34.025285],[-70.807722,-34.025583],[-70.80807,-34.025831],[-70.809585,-34.026378],[-70.810404,-34.026328],[-70.811721,-34.026378],[-70.812317,-34.026626],[-70.812714,-34.026998],[-70.81326,-34.027545],[-70.81334,-34.027831],[-70.813559,-34.028613],[-70.813832,-34.029507],[-70.814477,-34.031171],[-70.814701,-34.031767],[-70.815049,-34.032338],[-70.81557,-34.03276],[-70.816248,-34.033296],[-70.816672,-34.033947],[-70.81721,-34.034852],[-70.817266,-34.034908],[-70.814187,-34.03571],[-70.813555,-34.039923],[-70.813891,-34.040142],[-70.813589,-34.040227],[-70.812994,-34.040397],[-70.812287,-34.04068],[-70.81175,-34.04068],[-70.811127,-34.040623],[-70.81105,-34.040575],[-70.810901,-34.040482],[-70.810364,-34.040623],[-70.810052,-34.040651],[-70.809402,-34.040878],[-70.809061,-34.041093],[-70.808864,-34.041217],[-70.808481,-34.041304],[-70.808242,-34.041359],[-70.807591,-34.041726],[-70.807025,-34.042123],[-70.806262,-34.042745],[-70.805724,-34.043169],[-70.805158,-34.043565],[-70.804677,-34.04399],[-70.804253,-34.044442],[-70.804027,-34.044951],[-70.803885,-34.045602],[-70.803942,-34.046196],[-70.803986,-34.046462],[-70.804027,-34.046705],[-70.80414,-34.047554],[-70.804366,-34.04812],[-70.804564,-34.048516],[-70.804592,-34.048799],[-70.804621,-34.049336],[-70.804621,-34.049902],[-70.804592,-34.050298],[-70.804338,-34.050581],[-70.804168,-34.050836],[-70.803913,-34.051147],[-70.803857,-34.051543],[-70.803913,-34.052024],[-70.804002,-34.052185],[-70.804083,-34.052335],[-70.804112,-34.052901],[-70.804196,-34.053382],[-70.804225,-34.053863],[-70.80431,-34.054457],[-70.804196,-34.055023],[-70.803942,-34.055192],[-70.803489,-34.055419],[-70.803121,-34.055701],[-70.802612,-34.055956],[-70.802414,-34.05638],[-70.802273,-34.057116],[-70.802358,-34.057682],[-70.802244,-34.058417],[-70.80216,-34.05887],[-70.802142,-34.059085],[-70.800899,-34.059408],[-70.800267,-34.06362],[-70.80165,-34.064523],[-70.80165,-34.064528],[-70.801594,-34.064839],[-70.801509,-34.065207],[-70.801707,-34.06549],[-70.801933,-34.065801],[-70.802131,-34.066367],[-70.802301,-34.066989],[-70.802442,-34.06747],[-70.802556,-34.068092],[-70.802669,-34.068517],[-70.802782,-34.068998],[-70.80298,-34.069479],[-70.803235,-34.069988],[-70.803433,-34.070384],[-70.803546,-34.070808],[-70.803546,-34.070861],[-70.803546,-34.071317],[-70.803546,-34.071798],[-70.803631,-34.072336],[-70.803659,-34.072675],[-70.803433,-34.0731],[-70.803008,-34.073552],[-70.80298,-34.073892],[-70.803037,-34.074175],[-70.803121,-34.074599],[-70.803206,-34.07508],[-70.803121,-34.075617],[-70.80298,-34.0759],[-70.802838,-34.076268],[-70.802782,-34.076692],[-70.802697,-34.077004],[-70.802442,-34.077428],[-70.802386,-34.077881],[-70.802471,-34.07839],[-70.802669,-34.078786],[-70.802852,-34.079135],[-70.802805,-34.079147],[-70.798372,-34.076253]]]},"properties":{"comuna":"Graneros","mancha_id":"06106-88b2c1c361fffff","clase":"Alto","nivel_medio":2.717,"nivel_medio_min":2.518,"nivel_medio_max":2.944,"pct_alto":72.4,"n_hexagonos":31,"area_ha":1486.14}},{"type":"Feature","geometry":{"type":"Polygon","coordinates":[[[-70.791411,-34.090199],[-70.796476,-34.088883],[-70.799673,-34.09097],[-70.799557,-34.091035],[-70.799048,-34.091403],[-70.798482,-34.091912],[-70.798312,-34.092365],[-70.798199,-34.092591],[-70.798029,-34.093015],[-70.797831,-34.093327],[-70.797548,-34.093638],[-70.797209,-34.093892],[-70.796926,-34.094345],[-70.796756,-34.094911],[-70.796785,-34.095363],[-70.796898,-34.095788],[-70.797039,-34.096184],[-70.796869,-34.096495],[-70.796728,-34.09675],[-70.796134,-34.097004],[-70.795971,-34.097105],[-70.795212,-34.097302],[-70.795128,-34.097864],[-70.795002,-34.097966],[-70.794691,-34.098079],[-70.794154,-34.098277],[-70.793616,-34.098532],[-70.793135,-34.098815],[-70.792428,-34.098928],[-70.791749,-34.098928],[-70.790957,-34.098843],[-70.790419,-34.098928],[-70.790052,-34.099069],[-70.789627,-34.099239],[-70.789288,-34.099381],[-70.789175,-34.099437],[-70.788892,-34.099918],[-70.788552,-34.10054],[-70.788383,-34.101078],[-70.788128,-34.101842],[-70.788109,-34.101908],[-70.785081,-34.099932],[-70.785714,-34.095723],[-70.790779,-34.094408],[-70.791411,-34.090199]]]},"properties":{"comuna":"Graneros","mancha_id":"06106-88b2c1c32bfffff","clase":"Alto","nivel_medio":2.721,"nivel_medio_min":2.612,"nivel_medio_max":2.844,"pct_alto":76.3,"n_hexagonos":2,"area_ha":88.3}},{"type":"Feature","geometry":{"type":"Polygon","coordinates":[[[-70.679378,-34.090938],[-70.678744,-34.095145],[-70.67588,-34.095886],[-70.675876,-34.095824],[-70.675774,-34.094358],[-70.675715,-34.093502],[-70.675676,-34.092584],[-70.675673,-34.091747],[-70.675671,-34.091257],[-70.675641,-34.090424],[-70.67563,-34.090114],[-70.675611,-34.089593],[-70.675638,-34.089404],[-70.675654,-34.089341],[-70.675833,-34.088652],[-70.67584,-34.088623],[-70.679378,-34.090938]]]},"properties":{"comuna":"Graneros","mancha_id":"06106-88b2c1c2c1fffff","clase":"Alto","nivel_medio":3.108,"nivel_medio_min":3.108,"nivel_medio_max":3.108,"pct_alto":95.6,"n_hexagonos":1,"area_ha":20.11}}],"bbox":[-70.81874,-34.13817,-70.67039,-33.99652]}