{"type":"FeatureCollection","features":[{"type":"Feature","geometry":{"type":"Polygon","coordinates":[[[-71.245931,-34.279073],[-71.246558,-34.274867],[-71.251641,-34.273537],[-71.256098,-34.276414],[-71.255471,-34.28062],[-71.250388,-34.281949],[-71.249761,-34.286155],[-71.244678,-34.287484],[-71.240222,-34.284607],[-71.240848,-34.280402],[-71.245931,-34.279073]]]},"properties":{"comuna":"Peumo","mancha_id":"06112-88b2c02f4bfffff","clase":"Bajo","nivel_medio":1.456,"nivel_medio_min":1.422,"nivel_medio_max":1.49,"pct_alto":16.6,"n_hexagonos":2,"area_ha":125.91}},{"type":"Feature","geometry":{"type":"Polygon","coordinates":[[[-71.211737,-34.344552],[-71.212365,-34.340351],[-71.207909,-34.337475],[-71.208536,-34.333274],[-71.213619,-34.331949],[-71.218075,-34.334824],[-71.217448,-34.339026],[-71.221904,-34.341901],[-71.226988,-34.340576],[-71.227615,-34.336374],[-71.223159,-34.333499],[-71.223786,-34.329297],[-71.21933,-34.326421],[-71.219957,-34.322219],[-71.215501,-34.319343],[-71.216128,-34.31514],[-71.221211,-34.313814],[-71.225667,-34.31669],[-71.23075,-34.315363],[-71.235207,-34.318239],[-71.23458,-34.322442],[-71.239037,-34.325317],[-71.244121,-34.32399],[-71.248578,-34.326866],[-71.253662,-34.325538],[-71.254289,-34.321335],[-71.249831,-34.31846],[-71.250458,-34.314257],[-71.255542,-34.312929],[-71.256169,-34.308725],[-71.261253,-34.307397],[-71.261879,-34.303192],[-71.266964,-34.301863],[-71.271421,-34.304739],[-71.270795,-34.308943],[-71.275253,-34.311818],[-71.280338,-34.310489],[-71.280964,-34.306284],[-71.286049,-34.304955],[-71.290508,-34.307829],[-71.289882,-34.312034],[-71.294341,-34.314908],[-71.293714,-34.319112],[-71.298174,-34.321986],[-71.297548,-34.32619],[-71.292462,-34.32752],[-71.291836,-34.331723],[-71.28675,-34.333052],[-71.282291,-34.330178],[-71.277206,-34.331506],[-71.27658,-34.335709],[-71.271495,-34.337037],[-71.270868,-34.341239],[-71.265783,-34.342567],[-71.265156,-34.346768],[-71.260071,-34.348096],[-71.255613,-34.345221],[-71.250528,-34.346548],[-71.249902,-34.350749],[-71.25436,-34.353623],[-71.253733,-34.357824],[-71.248648,-34.35915],[-71.248021,-34.36335],[-71.248271,-34.363512],[-71.248049,-34.363645],[-71.247429,-34.364026],[-71.247048,-34.364312],[-71.246881,-34.364557],[-71.24681,-34.364884],[-71.24681,-34.365472],[-71.246542,-34.366117],[-71.246169,-34.366626],[-71.245904,-34.366822],[-71.245587,-34.366949],[-71.245083,-34.367067],[-71.24454,-34.367202],[-71.243998,-34.367643],[-71.243745,-34.368092],[-71.243659,-34.36839],[-71.243649,-34.368823],[-71.243745,-34.369252],[-71.244157,-34.369696],[-71.24457,-34.370316],[-71.244575,-34.370336],[-71.242309,-34.368876],[-71.237225,-34.370201],[-71.236598,-34.3744],[-71.241055,-34.377274],[-71.240428,-34.381473],[-71.235343,-34.382798],[-71.230886,-34.379924],[-71.225801,-34.381248],[-71.225174,-34.385446],[-71.229631,-34.38832],[-71.229004,-34.392518],[-71.223919,-34.393842],[-71.219462,-34.390968],[-71.214377,-34.392291],[-71.21375,-34.396489],[-71.214192,-34.396773],[-71.214147,-34.396781],[-71.213164,-34.396781],[-71.21294,-34.396699],[-71.212519,-34.396544],[-71.21201,-34.396239],[-71.211502,-34.395933],[-71.210348,-34.395798],[-71.209534,-34.395798],[-71.209059,-34.395949],[-71.208725,-34.396171],[-71.208279,-34.396544],[-71.207461,-34.397035],[-71.207431,-34.397053],[-71.207042,-34.397299],[-71.206549,-34.397474],[-71.206089,-34.397505],[-71.205485,-34.397664],[-71.204989,-34.397969],[-71.20448,-34.398444],[-71.204135,-34.398919],[-71.204024,-34.399411],[-71.203913,-34.399983],[-71.203768,-34.400513],[-71.203421,-34.400809],[-71.203008,-34.400983],[-71.202595,-34.401063],[-71.201834,-34.400954],[-71.201197,-34.400761],[-71.200376,-34.400547],[-71.199324,-34.400309],[-71.198522,-34.40029],[-71.197899,-34.400275],[-71.19661,-34.400275],[-71.195525,-34.400207],[-71.194439,-34.400241],[-71.193591,-34.400377],[-71.192811,-34.400445],[-71.191929,-34.400479],[-71.191524,-34.40056],[-71.188956,-34.398904],[-71.189584,-34.394707],[-71.185128,-34.391833],[-71.180045,-34.393154],[-71.175589,-34.390279],[-71.170506,-34.391601],[-71.169878,-34.395797],[-71.174333,-34.398672],[-71.173705,-34.402868],[-71.178161,-34.405743],[-71.183245,-34.404422],[-71.184458,-34.405204],[-71.184161,-34.405397],[-71.183754,-34.406042],[-71.183245,-34.406924],[-71.182805,-34.408043],[-71.182567,-34.408857],[-71.182533,-34.409739],[-71.182499,-34.411164],[-71.182397,-34.411944],[-71.182032,-34.412298],[-71.181702,-34.412628],[-71.181415,-34.412915],[-71.180765,-34.413304],[-71.180181,-34.413564],[-71.179696,-34.413707],[-71.179155,-34.413505],[-71.178641,-34.413383],[-71.178127,-34.413275],[-71.17764,-34.413153],[-71.177032,-34.413072],[-71.176531,-34.41295],[-71.176031,-34.412774],[-71.175571,-34.412666],[-71.175179,-34.412571],[-71.174516,-34.41249],[-71.174286,-34.412598],[-71.173989,-34.412855],[-71.173718,-34.413261],[-71.173407,-34.413572],[-71.17315,-34.413951],[-71.172893,-34.414221],[-71.17242,-34.414316],[-71.172006,-34.414223],[-71.171879,-34.414194],[-71.17146,-34.414045],[-71.171108,-34.413883],[-71.170635,-34.413761],[-71.17008,-34.413694],[-71.169607,-34.413721],[-71.16912,-34.413734],[-71.16866,-34.413856],[-71.168363,-34.414235],[-71.168376,-34.414695],[-71.168322,-34.415154],[-71.16839,-34.415574],[-71.168458,-34.415979],[-71.168629,-34.416283],[-71.166738,-34.416775],[-71.162282,-34.4139],[-71.157199,-34.41522],[-71.156866,-34.417446],[-71.156701,-34.417461],[-71.155824,-34.417689],[-71.155142,-34.417851],[-71.154622,-34.418046],[-71.153973,-34.418078],[-71.153356,-34.417916],[-71.152479,-34.417624],[-71.1517,-34.417234],[-71.15079,-34.417072],[-71.150108,-34.416942],[-71.149621,-34.416552],[-71.149004,-34.416292],[-71.14842,-34.416032],[-71.14777,-34.415967],[-71.147316,-34.415967],[-71.147056,-34.415967],[-71.146341,-34.416325],[-71.145789,-34.416714],[-71.145302,-34.417039],[-71.144847,-34.417429],[-71.144295,-34.417689],[-71.143971,-34.417786],[-71.143646,-34.417786],[-71.143159,-34.417754],[-71.142834,-34.417591],[-71.142639,-34.417234],[-71.142412,-34.416682],[-71.142217,-34.416422],[-71.141892,-34.416065],[-71.141502,-34.415805],[-71.14082,-34.415318],[-71.139944,-34.414701],[-71.139456,-34.414214],[-71.139002,-34.413824],[-71.138645,-34.413434],[-71.138222,-34.413175],[-71.137976,-34.413093],[-71.138124,-34.412108],[-71.143207,-34.410789],[-71.143835,-34.406594],[-71.148918,-34.405274],[-71.149546,-34.401079],[-71.154629,-34.399759],[-71.159084,-34.402634],[-71.164167,-34.401314],[-71.164795,-34.397118],[-71.16034,-34.394242],[-71.160968,-34.390046],[-71.166051,-34.388725],[-71.166679,-34.384528],[-71.171762,-34.383207],[-71.17239,-34.379009],[-71.177473,-34.377688],[-71.1781,-34.37349],[-71.173645,-34.370614],[-71.174273,-34.366416],[-71.179356,-34.365093],[-71.183811,-34.367969],[-71.188894,-34.366646],[-71.189522,-34.362447],[-71.194605,-34.361124],[-71.195233,-34.356925],[-71.200316,-34.355601],[-71.204772,-34.358476],[-71.204144,-34.362676],[-71.208601,-34.365551],[-71.213685,-34.364227],[-71.218141,-34.367102],[-71.223225,-34.365777],[-71.227683,-34.368652],[-71.232767,-34.367327],[-71.233394,-34.363127],[-71.228937,-34.360253],[-71.223853,-34.361578],[-71.219396,-34.358703],[-71.220023,-34.354503],[-71.215566,-34.351628],[-71.216194,-34.347427],[-71.211737,-34.344552]]]},"properties":{"comuna":"Peumo","mancha_id":"06112-88b2c02c03fffff","clase":"Bajo","nivel_medio":1.168,"nivel_medio_min":0.725,"nivel_medio_max":1.465,"pct_alto":4.7,"n_hexagonos":90,"area_ha":5379.18}},{"type":"Feature","geometry":{"type":"Polygon","coordinates":[[[-71.27518,-34.279506],[-71.270722,-34.27663],[-71.271154,-34.273727],[-71.271285,-34.273979],[-71.272248,-34.275145],[-71.273105,-34.275931],[-71.273355,-34.275835],[-71.273581,-34.275407],[-71.274854,-34.274467],[-71.276139,-34.274848],[-71.276888,-34.275169],[-71.278364,-34.275621],[-71.279518,-34.275931],[-71.28035,-34.276121],[-71.280544,-34.276292],[-71.280264,-34.278176],[-71.27518,-34.279506]]]},"properties":{"comuna":"Peumo","mancha_id":"06112-88b2c02a93fffff","clase":"Bajo","nivel_medio":1.338,"nivel_medio_min":1.338,"nivel_medio_max":1.338,"pct_alto":14.1,"n_hexagonos":1,"area_ha":32.13}},{"type":"Feature","geometry":{"type":"Polygon","coordinates":[[[-71.298099,-34.289677],[-71.298096,-34.289682],[-71.298097,-34.289678],[-71.298099,-34.289677]]]},"properties":{"comuna":"Peumo","mancha_id":"06112-88b2c028d9fffff","clase":"Bajo","nivel_medio":0.725,"nivel_medio_min":0.725,"nivel_medio_max":0.725,"pct_alto":20.7,"n_hexagonos":1,"area_ha":0.0}},{"type":"Feature","geometry":{"type":"Polygon","coordinates":[[[-71.29859,-34.294449],[-71.298644,-34.29464],[-71.297471,-34.293883],[-71.297826,-34.291499],[-71.298052,-34.292322],[-71.298223,-34.293007],[-71.298471,-34.293959],[-71.29859,-34.294449]]]},"properties":{"comuna":"Peumo","mancha_id":"06112-88b2c028d9fffff-2","clase":"Bajo","nivel_medio":0.725,"nivel_medio_min":0.725,"nivel_medio_max":0.725,"pct_alto":20.7,"n_hexagonos":1,"area_ha":1.58}},{"type":"Feature","geometry":{"type":"Polygon","coordinates":[[[-71.145092,-34.398203],[-71.14572,-34.394007],[-71.150802,-34.392687],[-71.155257,-34.395563],[-71.16034,-34.394242],[-71.164795,-34.397118],[-71.164167,-34.401314],[-71.159084,-34.402634],[-71.154629,-34.399759],[-71.149546,-34.401079],[-71.145092,-34.398203]]]},"properties":{"comuna":"Peumo","mancha_id":"06112-88b2c15945fffff","clase":"Medio","nivel_medio":1.999,"nivel_medio_min":1.598,"nivel_medio_max":2.399,"pct_alto":36.3,"n_hexagonos":2,"area_ha":125.45}},{"type":"Feature","geometry":{"type":"Polygon","coordinates":[[[-71.162282,-34.4139],[-71.166738,-34.416775],[-71.168629,-34.416283],[-71.168633,-34.41629],[-71.168633,-34.416628],[-71.168593,-34.416953],[-71.168444,-34.417183],[-71.168035,-34.417331],[-71.167418,-34.417331],[-71.166703,-34.417104],[-71.166689,-34.417104],[-71.165924,-34.417104],[-71.16495,-34.417137],[-71.164235,-34.417266],[-71.163131,-34.417559],[-71.162254,-34.417494],[-71.16141,-34.417299],[-71.160942,-34.417069],[-71.160499,-34.417008],[-71.159936,-34.417029],[-71.159169,-34.417104],[-71.15813,-34.417331],[-71.156866,-34.417446],[-71.157199,-34.41522],[-71.162282,-34.4139]]]},"properties":{"comuna":"Peumo","mancha_id":"06112-88b2c15929fffff","clase":"Medio","nivel_medio":1.754,"nivel_medio_min":1.739,"nivel_medio_max":2.0,"pct_alto":0.0,"n_hexagonos":2,"area_ha":24.35}},{"type":"Feature","geometry":{"type":"Polygon","coordinates":[[[-71.143207,-34.410789],[-71.138124,-34.412108],[-71.136835,-34.411275],[-71.136826,-34.411161],[-71.137248,-34.410609],[-71.137216,-34.410284],[-71.137021,-34.410122],[-71.136599,-34.409992],[-71.136993,-34.409066],[-71.137423,-34.407992],[-71.13773,-34.407286],[-71.137945,-34.406795],[-71.138252,-34.406212],[-71.138712,-34.405475],[-71.138988,-34.4048],[-71.13905,-34.403971],[-71.139094,-34.403792],[-71.139381,-34.403718],[-71.143835,-34.406594],[-71.143207,-34.410789]]]},"properties":{"comuna":"Peumo","mancha_id":"06112-88b2c15909fffff","clase":"Medio","nivel_medio":2.196,"nivel_medio_min":2.196,"nivel_medio_max":2.196,"pct_alto":54.6,"n_hexagonos":1,"area_ha":39.7}},{"type":"Feature","geometry":{"type":"Polygon","coordinates":[[[-71.19128,-34.285267],[-71.190652,-34.289471],[-71.186335,-34.290598],[-71.185868,-34.290031],[-71.185614,-34.289333],[-71.18536,-34.288508],[-71.185043,-34.287048],[-71.184916,-34.286033],[-71.185043,-34.284955],[-71.185297,-34.284066],[-71.18555,-34.283495],[-71.185741,-34.282924],[-71.185762,-34.282667],[-71.185804,-34.282163],[-71.186121,-34.281401],[-71.186312,-34.280894],[-71.186312,-34.279879],[-71.186502,-34.279181],[-71.186692,-34.278927],[-71.186883,-34.278292],[-71.186566,-34.277829],[-71.186454,-34.277539],[-71.187453,-34.278185],[-71.186826,-34.282389],[-71.19128,-34.285267]]]},"properties":{"comuna":"Peumo","mancha_id":"06112-88b2c02e0bfffff","clase":"Medio","nivel_medio":2.425,"nivel_medio_min":2.083,"nivel_medio_max":2.46,"pct_alto":45.4,"n_hexagonos":2,"area_ha":42.24}},{"type":"Feature","geometry":{"type":"Polygon","coordinates":[[[-71.223919,-34.393842],[-71.223292,-34.398039],[-71.219018,-34.399151],[-71.218985,-34.398823],[-71.218937,-34.398109],[-71.218699,-34.397442],[-71.218254,-34.396997],[-71.217777,-34.396612],[-71.216963,-34.396408],[-71.216396,-34.396251],[-71.215916,-34.396251],[-71.215504,-34.39634],[-71.214894,-34.396646],[-71.214192,-34.396773],[-71.21375,-34.396489],[-71.214377,-34.392291],[-71.219462,-34.390968],[-71.223919,-34.393842]]]},"properties":{"comuna":"Peumo","mancha_id":"06112-88b2c02d9bfffff","clase":"Medio","nivel_medio":1.551,"nivel_medio_min":1.551,"nivel_medio_max":1.551,"pct_alto":27.7,"n_hexagonos":1,"area_ha":54.88}},{"type":"Feature","geometry":{"type":"Polygon","coordinates":[[[-71.240428,-34.381473],[-71.241055,-34.377274],[-71.236598,-34.3744],[-71.237225,-34.370201],[-71.242309,-34.368876],[-71.244575,-34.370336],[-71.244682,-34.370856],[-71.244608,-34.372087],[-71.244574,-34.372765],[-71.244555,-34.37319],[-71.244745,-34.373587],[-71.245079,-34.373826],[-71.245619,-34.374159],[-71.246237,-34.374597],[-71.246332,-34.374667],[-71.24614,-34.375949],[-71.246919,-34.376451],[-71.246889,-34.376589],[-71.246372,-34.377141],[-71.245931,-34.377752],[-71.245592,-34.378227],[-71.24546,-34.378622],[-71.245355,-34.379143],[-71.245317,-34.379511],[-71.245185,-34.379855],[-71.244812,-34.380398],[-71.244475,-34.380972],[-71.244337,-34.381347],[-71.2441,-34.381687],[-71.243681,-34.381846],[-71.243236,-34.38183],[-71.242792,-34.381751],[-71.24237,-34.381653],[-71.241725,-34.381653],[-71.241114,-34.381754],[-71.240977,-34.381827],[-71.240402,-34.382128],[-71.239825,-34.382433],[-71.239385,-34.382603],[-71.238853,-34.382703],[-71.238456,-34.382592],[-71.238218,-34.382418],[-71.238011,-34.38237],[-71.237756,-34.382467],[-71.237587,-34.382704],[-71.237587,-34.383179],[-71.237551,-34.383545],[-71.237424,-34.384085],[-71.23736,-34.384562],[-71.23736,-34.38507],[-71.237328,-34.385753],[-71.237392,-34.386531],[-71.237503,-34.386976],[-71.237567,-34.387595],[-71.237567,-34.388199],[-71.237519,-34.388596],[-71.237417,-34.388737],[-71.234716,-34.386996],[-71.229631,-34.38832],[-71.225174,-34.385446],[-71.225801,-34.381248],[-71.230886,-34.379924],[-71.235343,-34.382798],[-71.240428,-34.381473]]]},"properties":{"comuna":"Peumo","mancha_id":"06112-88b2c02d89fffff","clase":"Medio","nivel_medio":1.896,"nivel_medio_min":1.673,"nivel_medio_max":2.441,"pct_alto":19.5,"n_hexagonos":4,"area_ha":159.26}},{"type":"Feature","geometry":{"type":"Polygon","coordinates":[[[-71.176156,-34.353819],[-71.171702,-34.350943],[-71.166619,-34.352266],[-71.1662,-34.351995],[-71.166452,-34.351894],[-71.167658,-34.351132],[-71.168165,-34.350308],[-71.168102,-34.349419],[-71.168102,-34.348467],[-71.168102,-34.347072],[-71.168165,-34.346501],[-71.168927,-34.34593],[-71.169815,-34.345422],[-71.170011,-34.345246],[-71.170449,-34.344851],[-71.171084,-34.343899],[-71.171528,-34.343265],[-71.172607,-34.342884],[-71.173305,-34.342567],[-71.174447,-34.342186],[-71.17635,-34.341678],[-71.177683,-34.341107],[-71.177797,-34.341063],[-71.17804,-34.34122],[-71.177412,-34.34542],[-71.181867,-34.348297],[-71.181239,-34.352496],[-71.176156,-34.353819]]]},"properties":{"comuna":"Peumo","mancha_id":"06112-88b2c02cc9fffff","clase":"Medio","nivel_medio":2.437,"nivel_medio_min":2.387,"nivel_medio_max":2.482,"pct_alto":43.9,"n_hexagonos":3,"area_ha":113.03}},{"type":"Feature","geometry":{"type":"Polygon","coordinates":[[[-71.189584,-34.394707],[-71.188956,-34.398904],[-71.191524,-34.40056],[-71.191081,-34.400648],[-71.190233,-34.401055],[-71.189555,-34.401361],[-71.189012,-34.401802],[-71.188639,-34.402412],[-71.188164,-34.403091],[-71.187282,-34.403701],[-71.186061,-34.404346],[-71.184942,-34.404889],[-71.184458,-34.405204],[-71.183245,-34.404422],[-71.178161,-34.405743],[-71.173705,-34.402868],[-71.174333,-34.398672],[-71.169878,-34.395797],[-71.170506,-34.391601],[-71.175589,-34.390279],[-71.180045,-34.393154],[-71.185128,-34.391833],[-71.189584,-34.394707]]]},"properties":{"comuna":"Peumo","mancha_id":"06112-88b2c02cb1fffff","clase":"Medio","nivel_medio":1.677,"nivel_medio_min":1.501,"nivel_medio_max":1.951,"pct_alto":21.7,"n_hexagonos":4,"area_ha":216.33}},{"type":"Feature","geometry":{"type":"Polygon","coordinates":[[[-71.167935,-34.376134],[-71.168562,-34.371936],[-71.173645,-34.370614],[-71.1781,-34.37349],[-71.177473,-34.377688],[-71.17239,-34.379009],[-71.171762,-34.383207],[-71.166679,-34.384528],[-71.162224,-34.381653],[-71.162852,-34.377455],[-71.167935,-34.376134]]]},"properties":{"comuna":"Peumo","mancha_id":"06112-88b2c02c8bfffff","clase":"Medio","nivel_medio":1.809,"nivel_medio_min":1.614,"nivel_medio_max":2.004,"pct_alto":32.8,"n_hexagonos":2,"area_ha":125.53}},{"type":"Feature","geometry":{"type":"Polygon","coordinates":[[[-71.23458,-34.322442],[-71.235207,-34.318239],[-71.240291,-34.316912],[-71.244748,-34.319788],[-71.249831,-34.31846],[-71.254289,-34.321335],[-71.253662,-34.325538],[-71.248578,-34.326866],[-71.244121,-34.32399],[-71.239037,-34.325317],[-71.23458,-34.322442]]]},"properties":{"comuna":"Peumo","mancha_id":"06112-88b2c02c69fffff","clase":"Medio","nivel_medio":1.595,"nivel_medio_min":1.509,"nivel_medio_max":1.682,"pct_alto":21.4,"n_hexagonos":2,"area_ha":125.79}},{"type":"Feature","geometry":{"type":"Polygon","coordinates":[[[-71.211672,-34.312264],[-71.212299,-34.308061],[-71.217382,-34.306734],[-71.218009,-34.302531],[-71.223092,-34.301204],[-71.227548,-34.304081],[-71.226921,-34.308284],[-71.221838,-34.309611],[-71.221211,-34.313814],[-71.216128,-34.31514],[-71.215501,-34.319343],[-71.210418,-34.320669],[-71.205962,-34.317792],[-71.20659,-34.31359],[-71.211672,-34.312264]]]},"properties":{"comuna":"Peumo","mancha_id":"06112-88b2c02c49fffff","clase":"Medio","nivel_medio":2.376,"nivel_medio_min":2.305,"nivel_medio_max":2.486,"pct_alto":43.4,"n_hexagonos":3,"area_ha":188.67}},{"type":"Feature","geometry":{"type":"Polygon","coordinates":[[[-71.249902,-34.350749],[-71.250528,-34.346548],[-71.255613,-34.345221],[-71.260071,-34.348096],[-71.265156,-34.346768],[-71.265783,-34.342567],[-71.270868,-34.341239],[-71.271495,-34.337037],[-71.27658,-34.335709],[-71.277206,-34.331506],[-71.282291,-34.330178],[-71.28675,-34.333052],[-71.286152,-34.337064],[-71.285795,-34.337151],[-71.284643,-34.337502],[-71.283241,-34.338003],[-71.283211,-34.338015],[-71.281039,-34.338583],[-71.280919,-34.339383],[-71.280887,-34.339405],[-71.280289,-34.339711],[-71.279352,-34.340029],[-71.278032,-34.340657],[-71.276179,-34.341108],[-71.274827,-34.341559],[-71.273224,-34.34246],[-71.273048,-34.342644],[-71.272172,-34.343562],[-71.271121,-34.344864],[-71.270119,-34.345665],[-71.269187,-34.345969],[-71.268361,-34.346032],[-71.267214,-34.346016],[-71.266567,-34.345953],[-71.26609,-34.346048],[-71.26563,-34.346302],[-71.265419,-34.346516],[-71.265242,-34.346824],[-71.265058,-34.347144],[-71.264209,-34.34847],[-71.263565,-34.349574],[-71.26347,-34.350114],[-71.263508,-34.350473],[-71.263207,-34.350974],[-71.262374,-34.351512],[-71.261532,-34.351861],[-71.260722,-34.352036],[-71.260052,-34.352276],[-71.259718,-34.352473],[-71.259515,-34.352592],[-71.259051,-34.353178],[-71.25875,-34.354179],[-71.2587,-34.355582],[-71.258546,-34.356308],[-71.258181,-34.3568],[-71.257832,-34.357213],[-71.257482,-34.357626],[-71.257022,-34.358103],[-71.256609,-34.358468],[-71.256246,-34.358887],[-71.256055,-34.359321],[-71.256053,-34.359325],[-71.255996,-34.359789],[-71.256101,-34.360199],[-71.256396,-34.36054],[-71.256569,-34.36091],[-71.256704,-34.361438],[-71.256947,-34.362443],[-71.256697,-34.363795],[-71.256446,-34.364496],[-71.25618,-34.364932],[-71.255799,-34.365154],[-71.255386,-34.365265],[-71.254852,-34.365201],[-71.254115,-34.364932],[-71.253575,-34.364455],[-71.253258,-34.364042],[-71.252908,-34.363471],[-71.252765,-34.363121],[-71.252591,-34.362788],[-71.252342,-34.362555],[-71.251766,-34.362487],[-71.251019,-34.362521],[-71.250336,-34.362597],[-71.25,-34.362732],[-71.249764,-34.362827],[-71.248848,-34.363166],[-71.248271,-34.363512],[-71.248021,-34.36335],[-71.248648,-34.35915],[-71.253733,-34.357824],[-71.25436,-34.353623],[-71.249902,-34.350749]]]},"properties":{"comuna":"Peumo","mancha_id":"06112-88b2c02c25fffff","clase":"Medio","nivel_medio":2.061,"nivel_medio_min":1.693,"nivel_medio_max":2.349,"pct_alto":51.5,"n_hexagonos":7,"area_ha":280.45}},{"type":"Feature","geometry":{"type":"Polygon","coordinates":[[[-71.217448,-34.339026],[-71.218075,-34.334824],[-71.213619,-34.331949],[-71.208536,-34.333274],[-71.207909,-34.337475],[-71.212365,-34.340351],[-71.211737,-34.344552],[-71.216194,-34.347427],[-71.215566,-34.351628],[-71.220023,-34.354503],[-71.219396,-34.358703],[-71.223853,-34.361578],[-71.228937,-34.360253],[-71.233394,-34.363127],[-71.232767,-34.367327],[-71.227683,-34.368652],[-71.223225,-34.365777],[-71.218141,-34.367102],[-71.213685,-34.364227],[-71.208601,-34.365551],[-71.204144,-34.362676],[-71.204772,-34.358476],[-71.200316,-34.355601],[-71.195233,-34.356925],[-71.194605,-34.361124],[-71.189522,-34.362447],[-71.188894,-34.366646],[-71.183811,-34.367969],[-71.179356,-34.365093],[-71.174273,-34.366416],[-71.169818,-34.36354],[-71.170446,-34.359341],[-71.175529,-34.358018],[-71.179984,-34.360895],[-71.185066,-34.359572],[-71.185694,-34.355372],[-71.190777,-34.354049],[-71.191405,-34.349849],[-71.196488,-34.348525],[-71.200943,-34.351401],[-71.206027,-34.350077],[-71.206654,-34.345877],[-71.202198,-34.343001],[-71.202826,-34.3388],[-71.19837,-34.335924],[-71.198997,-34.331723],[-71.20408,-34.330398],[-71.204708,-34.326196],[-71.209791,-34.324871],[-71.214246,-34.327747],[-71.21933,-34.326421],[-71.223786,-34.329297],[-71.223159,-34.333499],[-71.227615,-34.336374],[-71.226988,-34.340576],[-71.221904,-34.341901],[-71.217448,-34.339026]]]},"properties":{"comuna":"Peumo","mancha_id":"06112-88b2c02c01fffff","clase":"Medio","nivel_medio":1.909,"nivel_medio_min":1.537,"nivel_medio_max":2.389,"pct_alto":32.1,"n_hexagonos":15,"area_ha":942.39}},{"type":"Feature","geometry":{"type":"Polygon","coordinates":[[[-71.304426,-34.321375],[-71.3044,-34.321392],[-71.303975,-34.321676],[-71.303374,-34.322126],[-71.302623,-34.322277],[-71.302022,-34.322327],[-71.301521,-34.322527],[-71.30107,-34.322978],[-71.300569,-34.32398],[-71.300469,-34.324781],[-71.300469,-34.325432],[-71.300569,-34.326383],[-71.30082,-34.326884],[-71.30132,-34.327385],[-71.301871,-34.328086],[-71.30239,-34.328964],[-71.302522,-34.329188],[-71.303424,-34.33014],[-71.303724,-34.330741],[-71.303724,-34.331342],[-71.303274,-34.332343],[-71.302673,-34.332694],[-71.301671,-34.333095],[-71.301392,-34.333192],[-71.300551,-34.333484],[-71.300509,-34.333495],[-71.299267,-34.333495],[-71.298466,-34.333395],[-71.298124,-34.333502],[-71.297815,-34.333746],[-71.297658,-34.33397],[-71.297266,-34.334296],[-71.297047,-34.3344],[-71.296295,-34.334597],[-71.291836,-34.331723],[-71.292462,-34.32752],[-71.297548,-34.32619],[-71.298174,-34.321986],[-71.293714,-34.319112],[-71.294341,-34.314908],[-71.289882,-34.312034],[-71.290508,-34.307829],[-71.286049,-34.304955],[-71.280964,-34.306284],[-71.280338,-34.310489],[-71.275253,-34.311818],[-71.270795,-34.308943],[-71.271421,-34.304739],[-71.276506,-34.303409],[-71.277132,-34.299204],[-71.282217,-34.297875],[-71.282843,-34.293669],[-71.287928,-34.292339],[-71.292386,-34.295214],[-71.297471,-34.293883],[-71.298644,-34.29464],[-71.299051,-34.296072],[-71.298975,-34.296134],[-71.299089,-34.296643],[-71.299827,-34.299603],[-71.300255,-34.301238],[-71.300489,-34.30213],[-71.30101,-34.304229],[-71.302194,-34.308813],[-71.302869,-34.31143],[-71.304113,-34.316393],[-71.304321,-34.317224],[-71.304666,-34.31858],[-71.305431,-34.321435],[-71.305032,-34.321352],[-71.304426,-34.321375]]]},"properties":{"comuna":"Peumo","mancha_id":"06112-88b2c02891fffff","clase":"Medio","nivel_medio":1.896,"nivel_medio_min":1.505,"nivel_medio_max":2.481,"pct_alto":20.0,"n_hexagonos":13,"area_ha":581.53}},{"type":"Feature","geometry":{"type":"Polygon","coordinates":[[[-71.265012,-34.25791],[-71.263687,-34.258257],[-71.260558,-34.256237],[-71.262311,-34.256061],[-71.263034,-34.256131],[-71.263644,-34.256187],[-71.264198,-34.256464],[-71.264677,-34.257207],[-71.265012,-34.25791]]]},"properties":{"comuna":"Peumo","mancha_id":"06112-88b2c021adfffff","clase":"Medio","nivel_medio":2.482,"nivel_medio_min":2.482,"nivel_medio_max":2.482,"pct_alto":48.2,"n_hexagonos":1,"area_ha":5.24}},{"type":"Feature","geometry":{"type":"Polygon","coordinates":[[[-71.234328,-34.255633],[-71.23478,-34.255564],[-71.235242,-34.255494],[-71.236212,-34.255189],[-71.237127,-34.255078],[-71.237708,-34.255051],[-71.238567,-34.255023],[-71.239574,-34.255026],[-71.240424,-34.255211],[-71.241238,-34.255248],[-71.242051,-34.255618],[-71.242716,-34.256357],[-71.243086,-34.25669],[-71.243899,-34.257207],[-71.244309,-34.257173],[-71.243982,-34.25937],[-71.238899,-34.2607],[-71.238273,-34.264906],[-71.23319,-34.266236],[-71.232563,-34.270442],[-71.227481,-34.27177],[-71.226854,-34.275976],[-71.23131,-34.278853],[-71.236392,-34.277525],[-71.240848,-34.280402],[-71.240222,-34.284607],[-71.244678,-34.287484],[-71.249761,-34.286155],[-71.250388,-34.281949],[-71.255471,-34.28062],[-71.256098,-34.276414],[-71.251641,-34.273537],[-71.252268,-34.269331],[-71.257351,-34.268001],[-71.257977,-34.263794],[-71.263061,-34.262464],[-71.267518,-34.265341],[-71.267549,-34.265333],[-71.267549,-34.265827],[-71.267263,-34.267089],[-71.267225,-34.267303],[-71.267168,-34.267626],[-71.26717,-34.267674],[-71.26718,-34.267912],[-71.267228,-34.268269],[-71.26724,-34.268495],[-71.267359,-34.269102],[-71.267632,-34.269649],[-71.267965,-34.270077],[-71.268222,-34.270406],[-71.268513,-34.270779],[-71.268774,-34.271041],[-71.269393,-34.271422],[-71.270357,-34.272397],[-71.270916,-34.273266],[-71.271154,-34.273727],[-71.270722,-34.27663],[-71.27518,-34.279506],[-71.280264,-34.278176],[-71.284722,-34.281052],[-71.284096,-34.285258],[-71.279011,-34.286588],[-71.278385,-34.290794],[-71.273301,-34.292124],[-71.272674,-34.296329],[-71.26759,-34.297659],[-71.266964,-34.301863],[-71.261879,-34.303192],[-71.261253,-34.307397],[-71.256169,-34.308725],[-71.255542,-34.312929],[-71.250458,-34.314257],[-71.246001,-34.311381],[-71.246628,-34.307178],[-71.251712,-34.305849],[-71.252338,-34.301645],[-71.257422,-34.300317],[-71.258049,-34.296112],[-71.263133,-34.294783],[-71.263759,-34.290578],[-71.268843,-34.289248],[-71.269469,-34.285043],[-71.265012,-34.282167],[-71.259928,-34.283496],[-71.259302,-34.287702],[-71.254218,-34.289031],[-71.253592,-34.293236],[-71.248508,-34.294565],[-71.244051,-34.291688],[-71.238968,-34.293017],[-71.234512,-34.29014],[-71.235139,-34.285935],[-71.230683,-34.283059],[-71.2256,-34.284387],[-71.221145,-34.281509],[-71.221772,-34.277304],[-71.217316,-34.274427],[-71.217943,-34.270221],[-71.213488,-34.267343],[-71.214115,-34.263137],[-71.209661,-34.260259],[-71.210288,-34.256053],[-71.205834,-34.253174],[-71.205933,-34.25251],[-71.206231,-34.252533],[-71.206666,-34.252628],[-71.207409,-34.252808],[-71.208259,-34.253436],[-71.209146,-34.254028],[-71.209886,-34.254472],[-71.211587,-34.254915],[-71.212807,-34.255174],[-71.213768,-34.255137],[-71.214729,-34.254878],[-71.215406,-34.254478],[-71.215543,-34.254398],[-71.216248,-34.254081],[-71.216871,-34.254109],[-71.217539,-34.254398],[-71.218278,-34.254656],[-71.219055,-34.254915],[-71.219683,-34.255026],[-71.220275,-34.255137],[-71.220977,-34.255285],[-71.221791,-34.255766],[-71.222641,-34.256024],[-71.22327,-34.256283],[-71.223819,-34.256558],[-71.223935,-34.256616],[-71.22463,-34.256963],[-71.225118,-34.25669],[-71.225362,-34.256568],[-71.225738,-34.256381],[-71.226449,-34.256098],[-71.227373,-34.255839],[-71.228187,-34.255581],[-71.228759,-34.255356],[-71.229313,-34.255272],[-71.229813,-34.255211],[-71.230476,-34.25519],[-71.230996,-34.255174],[-71.232254,-34.255285],[-71.233511,-34.255507],[-71.234328,-34.255633]]]},"properties":{"comuna":"Peumo","mancha_id":"06112-88b2c02183fffff","clase":"Medio","nivel_medio":2.15,"nivel_medio_min":1.565,"nivel_medio_max":2.463,"pct_alto":40.1,"n_hexagonos":27,"area_ha":1470.64}},{"type":"Feature","geometry":{"type":"Polygon","coordinates":[[[-71.19059,-34.257158],[-71.185509,-34.258485],[-71.184882,-34.262691],[-71.17988,-34.263997],[-71.179916,-34.263312],[-71.180068,-34.262297],[-71.180474,-34.261383],[-71.180576,-34.260673],[-71.18083,-34.260013],[-71.18083,-34.259201],[-71.18083,-34.25849],[-71.181033,-34.257779],[-71.181337,-34.25717],[-71.181591,-34.256561],[-71.182021,-34.25623],[-71.182251,-34.256053],[-71.183048,-34.255347],[-71.183932,-34.254693],[-71.185078,-34.254065],[-71.186261,-34.253436],[-71.186872,-34.253082],[-71.187245,-34.252792],[-71.187632,-34.252682],[-71.187925,-34.252623],[-71.187999,-34.252401],[-71.188184,-34.251994],[-71.188295,-34.251477],[-71.188426,-34.251147],[-71.191217,-34.252952],[-71.19059,-34.257158]]]},"properties":{"comuna":"Peumo","mancha_id":"06112-88b2c020a3fffff","clase":"Medio","nivel_medio":1.998,"nivel_medio_min":1.778,"nivel_medio_max":2.167,"pct_alto":29.1,"n_hexagonos":2,"area_ha":66.85}},{"type":"Feature","geometry":{"type":"Polygon","coordinates":[[[-71.136835,-34.411275],[-71.138124,-34.412108],[-71.137976,-34.413093],[-71.137833,-34.413045],[-71.137313,-34.412785],[-71.137216,-34.41233],[-71.137053,-34.411811],[-71.136858,-34.411583],[-71.136835,-34.411275]]]},"properties":{"comuna":"Peumo","mancha_id":"06112-88b2c1590bfffff","clase":"Alto","nivel_medio":2.875,"nivel_medio_min":2.875,"nivel_medio_max":2.875,"pct_alto":87.5,"n_hexagonos":1,"area_ha":1.13}},{"type":"Feature","geometry":{"type":"Polygon","coordinates":[[[-71.246919,-34.376451],[-71.24614,-34.375949],[-71.246332,-34.374667],[-71.246572,-34.374842],[-71.246857,-34.375144],[-71.246984,-34.375525],[-71.247,-34.376081],[-71.246919,-34.376451]]]},"properties":{"comuna":"Peumo","mancha_id":"06112-88b2c02dc7fffff","clase":"Alto","nivel_medio":3.0,"nivel_medio_min":3.0,"nivel_medio_max":3.0,"pct_alto":100.0,"n_hexagonos":1,"area_ha":1.0}},{"type":"Feature","geometry":{"type":"Polygon","coordinates":[[[-71.223919,-34.393842],[-71.229004,-34.392518],[-71.229631,-34.38832],[-71.234716,-34.386996],[-71.237417,-34.388737],[-71.237044,-34.389251],[-71.23623,-34.389862],[-71.235721,-34.390099],[-71.235178,-34.390201],[-71.234534,-34.390167],[-71.233889,-34.389929],[-71.233007,-34.389522],[-71.232295,-34.389319],[-71.231311,-34.389319],[-71.230565,-34.389556],[-71.229955,-34.389997],[-71.229717,-34.39037],[-71.229717,-34.390811],[-71.229785,-34.391184],[-71.230226,-34.391558],[-71.230599,-34.391863],[-71.230799,-34.392107],[-71.230928,-34.392407],[-71.230904,-34.392745],[-71.230798,-34.393099],[-71.230563,-34.393503],[-71.230555,-34.393518],[-71.230226,-34.394102],[-71.229819,-34.394848],[-71.229378,-34.395492],[-71.228598,-34.396069],[-71.227682,-34.396544],[-71.226359,-34.397087],[-71.225909,-34.397267],[-71.225465,-34.397616],[-71.225002,-34.398138],[-71.224459,-34.398681],[-71.224386,-34.398744],[-71.224035,-34.399046],[-71.223591,-34.399459],[-71.223178,-34.399888],[-71.222662,-34.400411],[-71.222272,-34.400666],[-71.221847,-34.400852],[-71.22124,-34.400904],[-71.220525,-34.400713],[-71.219914,-34.400445],[-71.219445,-34.40011],[-71.219223,-34.39984],[-71.219048,-34.399443],[-71.219018,-34.399151],[-71.223292,-34.398039],[-71.223919,-34.393842]]]},"properties":{"comuna":"Peumo","mancha_id":"06112-88b2c02d91fffff","clase":"Alto","nivel_medio":2.625,"nivel_medio_min":2.534,"nivel_medio_max":2.945,"pct_alto":80.9,"n_hexagonos":3,"area_ha":53.63}},{"type":"Feature","geometry":{"type":"Polygon","coordinates":[[[-71.300551,-34.333484],[-71.300519,-34.333495],[-71.300509,-34.333495],[-71.300551,-34.333484]]]},"properties":{"comuna":"Peumo","mancha_id":"06112-88b2c02d6bfffff","clase":"Alto","nivel_medio":2.999,"nivel_medio_min":2.999,"nivel_medio_max":2.999,"pct_alto":99.9,"n_hexagonos":1,"area_ha":0.0}},{"type":"Feature","geometry":{"type":"Polygon","coordinates":[[[-71.291836,-34.331723],[-71.296295,-34.334597],[-71.297047,-34.3344],[-71.296269,-34.33477],[-71.296212,-34.334797],[-71.29526,-34.335448],[-71.294509,-34.335799],[-71.293788,-34.335979],[-71.293207,-34.336049],[-71.292756,-34.335963],[-71.29193,-34.335805],[-71.291104,-34.335916],[-71.290596,-34.336154],[-71.289952,-34.33635],[-71.28915,-34.3366],[-71.288293,-34.336626],[-71.287531,-34.336757],[-71.286689,-34.336932],[-71.286152,-34.337064],[-71.28675,-34.333052],[-71.291836,-34.331723]]]},"properties":{"comuna":"Peumo","mancha_id":"06112-88b2c02d47fffff","clase":"Alto","nivel_medio":2.706,"nivel_medio_min":2.706,"nivel_medio_max":2.999,"pct_alto":86.1,"n_hexagonos":2,"area_ha":33.71}},{"type":"Feature","geometry":{"type":"Polygon","coordinates":[[[-71.280919,-34.339383],[-71.281039,-34.338583],[-71.283211,-34.338015],[-71.28248,-34.33833],[-71.28175,-34.338822],[-71.280919,-34.339383]]]},"properties":{"comuna":"Peumo","mancha_id":"06112-88b2c02d09fffff","clase":"Alto","nivel_medio":3.0,"nivel_medio_min":3.0,"nivel_medio_max":3.0,"pct_alto":100.0,"n_hexagonos":1,"area_ha":0.71}},{"type":"Feature","geometry":{"type":"Polygon","coordinates":[[[-71.284722,-34.281052],[-71.280264,-34.278176],[-71.280544,-34.276292],[-71.280648,-34.276383],[-71.280933,-34.27674],[-71.281314,-34.277144],[-71.281719,-34.277703],[-71.281945,-34.278096],[-71.282444,-34.278512],[-71.282754,-34.27856],[-71.28342,-34.278619],[-71.284419,-34.278643],[-71.285764,-34.278786],[-71.286014,-34.278845],[-71.286478,-34.27906],[-71.286775,-34.279369],[-71.287156,-34.280083],[-71.287334,-34.280249],[-71.287468,-34.280333],[-71.28787,-34.280582],[-71.288452,-34.280773],[-71.288845,-34.281463],[-71.289074,-34.282551],[-71.289255,-34.282567],[-71.289558,-34.282567],[-71.290274,-34.281997],[-71.290678,-34.281447],[-71.29114,-34.281388],[-71.291526,-34.281308],[-71.291899,-34.281276],[-71.292251,-34.281357],[-71.292841,-34.281985],[-71.292979,-34.282171],[-71.29306,-34.282594],[-71.293036,-34.282813],[-71.29305,-34.28287],[-71.293798,-34.283446],[-71.294101,-34.283696],[-71.296286,-34.285493],[-71.296991,-34.286273],[-71.297714,-34.287034],[-71.297828,-34.28722],[-71.297938,-34.287334],[-71.298152,-34.287634],[-71.298238,-34.287829],[-71.298209,-34.287986],[-71.298104,-34.288081],[-71.297824,-34.288257],[-71.297662,-34.288324],[-71.298319,-34.288995],[-71.298414,-34.289047],[-71.298185,-34.289523],[-71.298099,-34.289677],[-71.298097,-34.289678],[-71.298096,-34.289682],[-71.298095,-34.289685],[-71.297947,-34.28988],[-71.29751,-34.290218],[-71.297657,-34.290884],[-71.297826,-34.291499],[-71.297471,-34.293883],[-71.292386,-34.295214],[-71.287928,-34.292339],[-71.282843,-34.293669],[-71.282217,-34.297875],[-71.277132,-34.299204],[-71.276506,-34.303409],[-71.271421,-34.304739],[-71.266964,-34.301863],[-71.26759,-34.297659],[-71.272674,-34.296329],[-71.273301,-34.292124],[-71.278385,-34.290794],[-71.279011,-34.286588],[-71.284096,-34.285258],[-71.284722,-34.281052]]]},"properties":{"comuna":"Peumo","mancha_id":"06112-88b2c02a97fffff","clase":"Alto","nivel_medio":2.864,"nivel_medio_min":2.542,"nivel_medio_max":3.316,"pct_alto":83.1,"n_hexagonos":7,"area_ha":331.31}},{"type":"Feature","geometry":{"type":"Polygon","coordinates":[[[-71.263061,-34.262464],[-71.257977,-34.263794],[-71.257351,-34.268001],[-71.252268,-34.269331],[-71.251641,-34.273537],[-71.246558,-34.274867],[-71.245931,-34.279073],[-71.240848,-34.280402],[-71.236392,-34.277525],[-71.23131,-34.278853],[-71.226854,-34.275976],[-71.227481,-34.27177],[-71.232563,-34.270442],[-71.23319,-34.266236],[-71.238273,-34.264906],[-71.238899,-34.2607],[-71.243982,-34.25937],[-71.244309,-34.257173],[-71.244787,-34.257133],[-71.2456,-34.256838],[-71.246783,-34.256764],[-71.247892,-34.256764],[-71.248706,-34.256431],[-71.249075,-34.255987],[-71.249408,-34.255322],[-71.249963,-34.254915],[-71.25,-34.254871],[-71.25046,-34.25433],[-71.250591,-34.254176],[-71.251479,-34.253658],[-71.252403,-34.253732],[-71.25329,-34.253991],[-71.253734,-34.254065],[-71.254436,-34.25425],[-71.254806,-34.254582],[-71.255619,-34.255322],[-71.256322,-34.255839],[-71.256705,-34.256041],[-71.257024,-34.256209],[-71.257727,-34.256468],[-71.258656,-34.256436],[-71.259543,-34.256325],[-71.260463,-34.256246],[-71.260558,-34.256237],[-71.263687,-34.258257],[-71.265012,-34.25791],[-71.265047,-34.257984],[-71.265713,-34.258612],[-71.266526,-34.259352],[-71.267024,-34.2599],[-71.267274,-34.260149],[-71.267376,-34.260572],[-71.267376,-34.260978],[-71.266871,-34.262163],[-71.267216,-34.263162],[-71.26743,-34.263971],[-71.267549,-34.264757],[-71.267549,-34.265333],[-71.267518,-34.265341],[-71.263061,-34.262464]]]},"properties":{"comuna":"Peumo","mancha_id":"06112-88b2c021a1fffff","clase":"Alto","nivel_medio":2.595,"nivel_medio_min":2.504,"nivel_medio_max":2.707,"pct_alto":59.9,"n_hexagonos":10,"area_ha":520.21}},{"type":"Feature","geometry":{"type":"Polygon","coordinates":[[[-71.195985,-34.246818],[-71.19605,-34.246851],[-71.19665,-34.247151],[-71.197161,-34.247356],[-71.197574,-34.247521],[-71.198314,-34.247669],[-71.198905,-34.247743],[-71.199497,-34.248149],[-71.200421,-34.248778],[-71.20105,-34.249296],[-71.201383,-34.249998],[-71.201385,-34.25],[-71.202196,-34.250663],[-71.20275,-34.251181],[-71.203601,-34.251773],[-71.204192,-34.25229],[-71.204858,-34.252438],[-71.205486,-34.252475],[-71.205933,-34.25251],[-71.205834,-34.253174],[-71.210288,-34.256053],[-71.209661,-34.260259],[-71.214115,-34.263137],[-71.213488,-34.267343],[-71.217943,-34.270221],[-71.217316,-34.274427],[-71.221772,-34.277304],[-71.221145,-34.281509],[-71.2256,-34.284387],[-71.230683,-34.283059],[-71.235139,-34.285935],[-71.234512,-34.29014],[-71.238968,-34.293017],[-71.244051,-34.291688],[-71.248508,-34.294565],[-71.253592,-34.293236],[-71.254218,-34.289031],[-71.259302,-34.287702],[-71.259928,-34.283496],[-71.265012,-34.282167],[-71.269469,-34.285043],[-71.268843,-34.289248],[-71.263759,-34.290578],[-71.263133,-34.294783],[-71.258049,-34.296112],[-71.257422,-34.300317],[-71.252338,-34.301645],[-71.251712,-34.305849],[-71.246628,-34.307178],[-71.246001,-34.311381],[-71.250458,-34.314257],[-71.249831,-34.31846],[-71.244748,-34.319788],[-71.240291,-34.316912],[-71.235207,-34.318239],[-71.23075,-34.315363],[-71.225667,-34.31669],[-71.221211,-34.313814],[-71.221838,-34.309611],[-71.226921,-34.308284],[-71.227548,-34.304081],[-71.223092,-34.301204],[-71.218009,-34.302531],[-71.217382,-34.306734],[-71.212299,-34.308061],[-71.211672,-34.312264],[-71.20659,-34.31359],[-71.205962,-34.317792],[-71.210418,-34.320669],[-71.215501,-34.319343],[-71.219957,-34.322219],[-71.21933,-34.326421],[-71.214246,-34.327747],[-71.209791,-34.324871],[-71.204708,-34.326196],[-71.20408,-34.330398],[-71.198997,-34.331723],[-71.19837,-34.335924],[-71.202826,-34.3388],[-71.202198,-34.343001],[-71.206654,-34.345877],[-71.206027,-34.350077],[-71.200943,-34.351401],[-71.196488,-34.348525],[-71.191405,-34.349849],[-71.190777,-34.354049],[-71.185694,-34.355372],[-71.185066,-34.359572],[-71.179984,-34.360895],[-71.175529,-34.358018],[-71.170446,-34.359341],[-71.169818,-34.36354],[-71.174273,-34.366416],[-71.173645,-34.370614],[-71.168562,-34.371936],[-71.167935,-34.376134],[-71.162852,-34.377455],[-71.162224,-34.381653],[-71.166679,-34.384528],[-71.166051,-34.388725],[-71.160968,-34.390046],[-71.16034,-34.394242],[-71.155257,-34.395563],[-71.150802,-34.392687],[-71.14572,-34.394007],[-71.145092,-34.398203],[-71.149546,-34.401079],[-71.148918,-34.405274],[-71.143835,-34.406594],[-71.139381,-34.403718],[-71.139094,-34.403792],[-71.139203,-34.403358],[-71.139357,-34.402652],[-71.139357,-34.401762],[-71.139571,-34.400902],[-71.139865,-34.400482],[-71.140001,-34.400288],[-71.1404,-34.399583],[-71.140699,-34.399344],[-71.14086,-34.399214],[-71.141045,-34.398723],[-71.141321,-34.398294],[-71.141781,-34.397741],[-71.142579,-34.39725],[-71.143193,-34.396851],[-71.143899,-34.396237],[-71.144789,-34.395347],[-71.145157,-34.394641],[-71.14562,-34.394059],[-71.145644,-34.393958],[-71.145771,-34.393414],[-71.145832,-34.392831],[-71.146003,-34.392238],[-71.14633,-34.391798],[-71.146815,-34.391388],[-71.147764,-34.390824],[-71.148533,-34.390279],[-71.149104,-34.389757],[-71.149501,-34.38946],[-71.149923,-34.389311],[-71.150394,-34.389162],[-71.150766,-34.388988],[-71.15105,-34.388749],[-71.151337,-34.388431],[-71.151633,-34.388104],[-71.152216,-34.387552],[-71.152339,-34.387306],[-71.152584,-34.387061],[-71.152922,-34.386631],[-71.153352,-34.386109],[-71.153505,-34.385649],[-71.153873,-34.385096],[-71.154088,-34.384667],[-71.154242,-34.384329],[-71.154364,-34.383746],[-71.15446,-34.383301],[-71.154814,-34.381471],[-71.154841,-34.381334],[-71.155031,-34.380065],[-71.155158,-34.378542],[-71.155602,-34.377781],[-71.1563,-34.37721],[-71.157379,-34.376512],[-71.158267,-34.375433],[-71.158968,-34.374948],[-71.159092,-34.374862],[-71.160044,-34.374164],[-71.160234,-34.37353],[-71.160298,-34.372578],[-71.160996,-34.371309],[-71.161567,-34.370294],[-71.162009,-34.369606],[-71.162138,-34.369406],[-71.162899,-34.368454],[-71.163026,-34.367502],[-71.162962,-34.366614],[-71.163026,-34.365535],[-71.162965,-34.363719],[-71.162962,-34.363632],[-71.162645,-34.361982],[-71.162328,-34.361221],[-71.161884,-34.360269],[-71.16182,-34.359381],[-71.161693,-34.358556],[-71.161693,-34.357668],[-71.161665,-34.35759],[-71.161503,-34.35716],[-71.161249,-34.356272],[-71.161376,-34.355447],[-71.162328,-34.354749],[-71.162962,-34.354368],[-71.163978,-34.35367],[-71.164358,-34.353226],[-71.165183,-34.352401],[-71.1662,-34.351995],[-71.166619,-34.352266],[-71.171702,-34.350943],[-71.176156,-34.353819],[-71.181239,-34.352496],[-71.181867,-34.348297],[-71.177412,-34.34542],[-71.17804,-34.34122],[-71.177797,-34.341063],[-71.17965,-34.340346],[-71.180601,-34.339902],[-71.180792,-34.33914],[-71.180348,-34.338569],[-71.180094,-34.337808],[-71.17965,-34.336856],[-71.178952,-34.335714],[-71.178444,-34.334509],[-71.178381,-34.33362],[-71.178348,-34.333066],[-71.178317,-34.332542],[-71.178,-34.331463],[-71.177492,-34.330321],[-71.177112,-34.32956],[-71.177873,-34.328925],[-71.178604,-34.327767],[-71.178634,-34.32772],[-71.179586,-34.327022],[-71.181299,-34.326451],[-71.181997,-34.325689],[-71.183457,-34.324737],[-71.183457,-34.323595],[-71.183583,-34.323024],[-71.183647,-34.322136],[-71.183729,-34.321863],[-71.183837,-34.321501],[-71.184408,-34.32093],[-71.18536,-34.320106],[-71.185931,-34.318964],[-71.186629,-34.317821],[-71.1872,-34.316552],[-71.187454,-34.31541],[-71.187367,-34.314999],[-71.1872,-34.314205],[-71.187835,-34.312745],[-71.188469,-34.311032],[-71.188771,-34.310159],[-71.18904,-34.309383],[-71.18885,-34.308241],[-71.189104,-34.307225],[-71.189167,-34.30621],[-71.189611,-34.304878],[-71.189865,-34.303799],[-71.189484,-34.303101],[-71.18885,-34.302594],[-71.188456,-34.302164],[-71.188152,-34.301832],[-71.187264,-34.300754],[-71.186375,-34.299929],[-71.186121,-34.298787],[-71.186058,-34.297898],[-71.186185,-34.296883],[-71.186566,-34.296249],[-71.186612,-34.296079],[-71.186756,-34.295551],[-71.186693,-34.294726],[-71.186819,-34.293647],[-71.186692,-34.292378],[-71.186756,-34.291109],[-71.186335,-34.290598],[-71.190652,-34.289471],[-71.19128,-34.285267],[-71.186826,-34.282389],[-71.187453,-34.278185],[-71.186454,-34.277539],[-71.186312,-34.277169],[-71.1855,-34.276662],[-71.184941,-34.276103],[-71.184383,-34.275647],[-71.18418,-34.274936],[-71.18418,-34.274378],[-71.183875,-34.273667],[-71.183622,-34.272703],[-71.18352,-34.272093],[-71.183622,-34.271637],[-71.183764,-34.271065],[-71.183774,-34.271028],[-71.183774,-34.270469],[-71.183419,-34.269657],[-71.183215,-34.268896],[-71.18286,-34.268185],[-71.182606,-34.267576],[-71.182048,-34.267018],[-71.181337,-34.266307],[-71.180779,-34.265698],[-71.180373,-34.264886],[-71.179865,-34.264277],[-71.17988,-34.263997],[-71.184882,-34.262691],[-71.185509,-34.258485],[-71.19059,-34.257158],[-71.191217,-34.252952],[-71.188426,-34.251147],[-71.188517,-34.250922],[-71.189219,-34.250257],[-71.18963,-34.25],[-71.189811,-34.249887],[-71.190624,-34.249148],[-71.191844,-34.248519],[-71.19262,-34.247854],[-71.19336,-34.247077],[-71.19384,-34.246634],[-71.194077,-34.246387],[-71.194258,-34.246268],[-71.194468,-34.246302],[-71.194802,-34.246486],[-71.195467,-34.246708],[-71.195985,-34.246818]]]},"properties":{"comuna":"Peumo","mancha_id":"06112-88b2c020a1fffff","clase":"Alto","nivel_medio":2.796,"nivel_medio_min":2.505,"nivel_medio_max":3.058,"pct_alto":81.2,"n_hexagonos":83,"area_ha":4474.04}}],"bbox":[-71.30544,-34.41808,-71.13659,-34.24626]}