{"type":"FeatureCollection","features":[{"type":"Feature","geometry":{"type":"Polygon","coordinates":[[[-71.008501,-34.397322],[-71.01358,-34.396008],[-71.017415,-34.398491],[-71.017473,-34.398545],[-71.017509,-34.398633],[-71.017544,-34.398852],[-71.017579,-34.39901],[-71.017649,-34.399169],[-71.017763,-34.399239],[-71.017878,-34.399221],[-71.017979,-34.399215],[-71.017865,-34.399972],[-71.017746,-34.400047],[-71.017596,-34.400144],[-71.017544,-34.400223],[-71.017535,-34.400329],[-71.017544,-34.400487],[-71.017605,-34.400803],[-71.017614,-34.401014],[-71.01757,-34.40112],[-71.017412,-34.401251],[-71.01721,-34.401383],[-71.016972,-34.401533],[-71.016682,-34.401708],[-71.016603,-34.401796],[-71.016515,-34.401902],[-71.016533,-34.402033],[-71.016533,-34.402165],[-71.016463,-34.402403],[-71.016322,-34.402578],[-71.016067,-34.402728],[-71.015777,-34.402868],[-71.015461,-34.402904],[-71.015215,-34.402886],[-71.014731,-34.402833],[-71.014424,-34.402772],[-71.01416,-34.402675],[-71.013897,-34.40257],[-71.013501,-34.402499],[-71.013176,-34.402464],[-71.012965,-34.402526],[-71.012842,-34.402605],[-71.012868,-34.402728],[-71.012956,-34.402851],[-71.013097,-34.402991],[-71.01329,-34.403123],[-71.013387,-34.403273],[-71.013308,-34.403457],[-71.013167,-34.403545],[-71.012956,-34.40373],[-71.012956,-34.40387],[-71.013,-34.404178],[-71.01301,-34.404215],[-71.01232,-34.404394],[-71.007871,-34.401515],[-71.008501,-34.397322]]]},"properties":{"comuna":"Quinta de Tilcoco","mancha_id":"06114-88b2c15a87fffff","clase":"Bajo","nivel_medio":1.468,"nivel_medio_min":1.468,"nivel_medio_max":1.468,"pct_alto":1.7,"n_hexagonos":1,"area_ha":56.74}},{"type":"Feature","geometry":{"type":"Polygon","coordinates":[[[-71.034483,-34.35431],[-71.035112,-34.350113],[-71.04019,-34.348797],[-71.044639,-34.351677],[-71.04401,-34.355873],[-71.038931,-34.35719],[-71.034483,-34.35431]]]},"properties":{"comuna":"Quinta de Tilcoco","mancha_id":"06114-88b2c15a0bfffff","clase":"Bajo","nivel_medio":1.5,"nivel_medio_min":1.5,"nivel_medio_max":1.5,"pct_alto":6.4,"n_hexagonos":1,"area_ha":62.71}},{"type":"Feature","geometry":{"type":"Polygon","coordinates":[[[-71.065629,-34.374465],[-71.070709,-34.373148],[-71.071039,-34.370949],[-71.071278,-34.371125],[-71.071556,-34.37133],[-71.071989,-34.371661],[-71.072125,-34.371765],[-71.072495,-34.372035],[-71.07281,-34.372364],[-71.07287,-34.372425],[-71.073163,-34.372755],[-71.0738,-34.373418],[-71.074488,-34.374208],[-71.074574,-34.374352],[-71.074241,-34.374555],[-71.074,-34.374685],[-71.073722,-34.374777],[-71.073408,-34.374777],[-71.073215,-34.374768],[-71.072612,-34.37474],[-71.071965,-34.374722],[-71.070929,-34.374759],[-71.070263,-34.37474],[-71.069782,-34.374851],[-71.06943,-34.375018],[-71.068931,-34.375332],[-71.068542,-34.375573],[-71.068172,-34.375758],[-71.06771,-34.376091],[-71.06734,-34.376442],[-71.067007,-34.376646],[-71.066692,-34.37696],[-71.066285,-34.377219],[-71.065989,-34.377367],[-71.065693,-34.377404],[-71.065304,-34.377386],[-71.0652,-34.377327],[-71.065629,-34.374465]]]},"properties":{"comuna":"Quinta de Tilcoco","mancha_id":"06114-88b2c15849fffff","clase":"Bajo","nivel_medio":1.211,"nivel_medio_min":1.076,"nivel_medio_max":1.281,"pct_alto":0.7,"n_hexagonos":2,"area_ha":20.57}},{"type":"Feature","geometry":{"type":"Polygon","coordinates":[[[-70.956368,-34.322112],[-70.956999,-34.317915],[-70.961324,-34.316795],[-70.961452,-34.317088],[-70.961906,-34.317541],[-70.96245,-34.317904],[-70.96313,-34.318266],[-70.96372,-34.318539],[-70.964437,-34.318692],[-70.96484,-34.318914],[-70.965243,-34.319176],[-70.965707,-34.319286],[-70.966231,-34.319297],[-70.966519,-34.319483],[-70.965889,-34.323681],[-70.960813,-34.324995],[-70.956368,-34.322112]]]},"properties":{"comuna":"Quinta de Tilcoco","mancha_id":"06114-88b2c15337fffff","clase":"Bajo","nivel_medio":1.486,"nivel_medio_min":1.486,"nivel_medio_max":1.486,"pct_alto":5.0,"n_hexagonos":1,"area_ha":59.32}},{"type":"Feature","geometry":{"type":"Polygon","coordinates":[[[-70.935467,-34.363809],[-70.930391,-34.36512],[-70.930153,-34.366705],[-70.929958,-34.365849],[-70.92957,-34.364781],[-70.929479,-34.364529],[-70.929283,-34.363986],[-70.931054,-34.363365],[-70.93189,-34.363071],[-70.932164,-34.362738],[-70.933161,-34.361536],[-70.934014,-34.360488],[-70.934136,-34.360337],[-70.934121,-34.360278],[-70.932882,-34.358189],[-70.932229,-34.357106],[-70.936097,-34.359615],[-70.935467,-34.363809]]]},"properties":{"comuna":"Quinta de Tilcoco","mancha_id":"06114-88b2c151cbfffff","clase":"Bajo","nivel_medio":1.235,"nivel_medio_min":1.229,"nivel_medio_max":1.414,"pct_alto":0.6,"n_hexagonos":2,"area_ha":20.93}},{"type":"Feature","geometry":{"type":"Polygon","coordinates":[[[-70.947173,-34.383281],[-70.94754,-34.380841],[-70.943095,-34.37796],[-70.943725,-34.373767],[-70.948801,-34.372455],[-70.953247,-34.375336],[-70.958323,-34.374024],[-70.962769,-34.376906],[-70.962138,-34.381099],[-70.966585,-34.38398],[-70.965954,-34.388173],[-70.962733,-34.389005],[-70.962646,-34.388961],[-70.962539,-34.38891],[-70.962162,-34.388738],[-70.961688,-34.388533],[-70.960851,-34.388292],[-70.960617,-34.388497],[-70.96032,-34.388668],[-70.960124,-34.388859],[-70.959752,-34.388693],[-70.959641,-34.388683],[-70.959606,-34.38868],[-70.959393,-34.388584],[-70.959185,-34.388578],[-70.958935,-34.388593],[-70.958535,-34.388509],[-70.95511,-34.38695],[-70.955103,-34.386947],[-70.953129,-34.386072],[-70.951502,-34.385339],[-70.95009,-34.38469],[-70.948503,-34.383893],[-70.947173,-34.383281]]]},"properties":{"comuna":"Quinta de Tilcoco","mancha_id":"06114-88b2c15185fffff","clase":"Bajo","nivel_medio":1.296,"nivel_medio_min":1.126,"nivel_medio_max":1.49,"pct_alto":2.8,"n_hexagonos":5,"area_ha":236.19}},{"type":"Feature","geometry":{"type":"Polygon","coordinates":[[[-70.97926,-34.364579],[-70.97989,-34.360384],[-70.984967,-34.35907],[-70.985597,-34.354875],[-70.990674,-34.353561],[-70.995121,-34.356442],[-70.994491,-34.360637],[-70.989414,-34.361951],[-70.988783,-34.366146],[-70.983706,-34.36746],[-70.97926,-34.364579]]]},"properties":{"comuna":"Quinta de Tilcoco","mancha_id":"06114-88b2c15131fffff","clase":"Bajo","nivel_medio":1.427,"nivel_medio_min":1.409,"nivel_medio_max":1.445,"pct_alto":2.8,"n_hexagonos":2,"area_ha":125.33}},{"type":"Feature","geometry":{"type":"Polygon","coordinates":[[[-70.986857,-34.346484],[-70.981781,-34.347798],[-70.981151,-34.351994],[-70.976074,-34.353308],[-70.975444,-34.357503],[-70.970367,-34.358816],[-70.969737,-34.363011],[-70.96466,-34.364324],[-70.96403,-34.368518],[-70.958954,-34.369831],[-70.954508,-34.366949],[-70.955139,-34.362755],[-70.950693,-34.359873],[-70.951324,-34.355679],[-70.946879,-34.352797],[-70.94751,-34.348602],[-70.952585,-34.347289],[-70.953216,-34.343093],[-70.958291,-34.34178],[-70.962737,-34.344662],[-70.967813,-34.343349],[-70.968443,-34.339153],[-70.973519,-34.337839],[-70.977965,-34.340721],[-70.983041,-34.339406],[-70.987487,-34.342288],[-70.986857,-34.346484]]]},"properties":{"comuna":"Quinta de Tilcoco","mancha_id":"06114-88b2c15101fffff","clase":"Bajo","nivel_medio":1.19,"nivel_medio_min":0.921,"nivel_medio_max":1.495,"pct_alto":11.7,"n_hexagonos":11,"area_ha":689.31}},{"type":"Feature","geometry":{"type":"Polygon","coordinates":[[[-71.017913,-34.399942],[-71.017865,-34.399972],[-71.017979,-34.399215],[-71.018009,-34.399213],[-71.018176,-34.399186],[-71.018326,-34.399133],[-71.018449,-34.399195],[-71.018493,-34.399336],[-71.018493,-34.399529],[-71.018431,-34.39967],[-71.018273,-34.399766],[-71.018115,-34.399872],[-71.017913,-34.399942]]]},"properties":{"comuna":"Quinta de Tilcoco","mancha_id":"06114-88b2c15aabfffff","clase":"Medio","nivel_medio":2.405,"nivel_medio_min":2.405,"nivel_medio_max":2.405,"pct_alto":40.5,"n_hexagonos":1,"area_ha":0.35}},{"type":"Feature","geometry":{"type":"Polygon","coordinates":[[[-70.956999,-34.317915],[-70.952554,-34.315032],[-70.952941,-34.312459],[-70.953744,-34.312009],[-70.954294,-34.311554],[-70.95504,-34.310868],[-70.955564,-34.310364],[-70.955988,-34.310162],[-70.956329,-34.310105],[-70.956691,-34.310286],[-70.957553,-34.310694],[-70.958233,-34.311193],[-70.958913,-34.311646],[-70.959729,-34.312372],[-70.960001,-34.313052],[-70.960183,-34.313777],[-70.960228,-34.314412],[-70.960364,-34.315228],[-70.960727,-34.315773],[-70.961135,-34.316362],[-70.961324,-34.316795],[-70.956999,-34.317915]]]},"properties":{"comuna":"Quinta de Tilcoco","mancha_id":"06114-88b2c15331fffff","clase":"Medio","nivel_medio":2.487,"nivel_medio_min":2.487,"nivel_medio_max":2.487,"pct_alto":53.2,"n_hexagonos":1,"area_ha":44.23}},{"type":"Feature","geometry":{"type":"Polygon","coordinates":[[[-71.051824,-34.325367],[-71.052152,-34.325521],[-71.052368,-34.325621],[-71.052985,-34.325658],[-71.05371,-34.325549],[-71.05405,-34.325533],[-71.054472,-34.325513],[-71.055306,-34.325585],[-71.056394,-34.325513],[-71.057338,-34.32573],[-71.058099,-34.326057],[-71.058752,-34.326492],[-71.059841,-34.326746],[-71.06053,-34.326927],[-71.060965,-34.327145],[-71.061027,-34.327252],[-71.061219,-34.32758],[-71.061328,-34.328016],[-71.061546,-34.328451],[-71.062162,-34.328705],[-71.062888,-34.32885],[-71.063795,-34.329068],[-71.064629,-34.329394],[-71.0655,-34.329394],[-71.065971,-34.329793],[-71.066407,-34.330555],[-71.067096,-34.331208],[-71.067226,-34.331246],[-71.067712,-34.331389],[-71.067459,-34.33191],[-71.067459,-34.332806],[-71.067459,-34.333477],[-71.067817,-34.334194],[-71.067833,-34.334454],[-71.067862,-34.334911],[-71.067817,-34.335493],[-71.06728,-34.335985],[-71.066518,-34.336702],[-71.065757,-34.337642],[-71.065354,-34.338269],[-71.064996,-34.338986],[-71.064637,-34.339747],[-71.06419,-34.340285],[-71.063429,-34.340814],[-71.063159,-34.341001],[-71.062488,-34.341673],[-71.061816,-34.342345],[-71.061323,-34.342927],[-71.061144,-34.343599],[-71.061323,-34.344226],[-71.061906,-34.345211],[-71.062183,-34.345969],[-71.062139,-34.346584],[-71.062114,-34.347143],[-71.062095,-34.347549],[-71.062095,-34.348296],[-71.062376,-34.34901],[-71.062969,-34.34965],[-71.063238,-34.349974],[-71.063127,-34.352718],[-71.063102,-34.35347],[-71.063068,-34.354395],[-71.063059,-34.35467],[-71.06297,-34.357102],[-71.06335,-34.357107],[-71.064456,-34.357119],[-71.066937,-34.357078],[-71.067369,-34.357075],[-71.067653,-34.357707],[-71.067934,-34.358268],[-71.068713,-34.359737],[-71.067332,-34.360047],[-71.067534,-34.361872],[-71.067591,-34.362391],[-71.067653,-34.362955],[-71.067793,-34.364224],[-71.068081,-34.366845],[-71.068252,-34.368406],[-71.068264,-34.368509],[-71.068282,-34.368665],[-71.068342,-34.369166],[-71.068706,-34.369476],[-71.069154,-34.369727],[-71.069626,-34.369994],[-71.07003,-34.37026],[-71.070443,-34.370533],[-71.070725,-34.370718],[-71.071039,-34.370949],[-71.070709,-34.373148],[-71.065629,-34.374465],[-71.0652,-34.377327],[-71.064879,-34.377145],[-71.06425,-34.377108],[-71.063621,-34.377293],[-71.063158,-34.377571],[-71.062548,-34.377959],[-71.062122,-34.378218],[-71.061641,-34.378329],[-71.061216,-34.378625],[-71.060975,-34.378903],[-71.060753,-34.379162],[-71.060698,-34.379458],[-71.060494,-34.379735],[-71.060298,-34.379879],[-71.060217,-34.379939],[-71.059884,-34.380253],[-71.059879,-34.380255],[-71.059421,-34.380438],[-71.059033,-34.380586],[-71.058441,-34.380734],[-71.05783,-34.380845],[-71.057293,-34.380882],[-71.056701,-34.381049],[-71.056109,-34.381123],[-71.055388,-34.381234],[-71.054703,-34.381141],[-71.054241,-34.380956],[-71.053667,-34.380716],[-71.05326,-34.380457],[-71.052872,-34.380272],[-71.052428,-34.380105],[-71.051947,-34.379957],[-71.051336,-34.37992],[-71.050615,-34.379976],[-71.050128,-34.380171],[-71.050059,-34.380198],[-71.049763,-34.380401],[-71.049671,-34.380642],[-71.049671,-34.380956],[-71.049689,-34.381123],[-71.04956,-34.381382],[-71.049301,-34.381549],[-71.048986,-34.381826],[-71.04869,-34.382067],[-71.048357,-34.382141],[-71.047969,-34.38227],[-71.04771,-34.382548],[-71.047506,-34.382825],[-71.047321,-34.383029],[-71.04697,-34.383232],[-71.046674,-34.383269],[-71.046045,-34.383177],[-71.045712,-34.383121],[-71.04536,-34.383158],[-71.04512,-34.383232],[-71.044861,-34.38351],[-71.044602,-34.383695],[-71.044431,-34.383763],[-71.044139,-34.38388],[-71.043769,-34.384028],[-71.043399,-34.384213],[-71.042974,-34.384305],[-71.04253,-34.384342],[-71.041512,-34.384342],[-71.040772,-34.384361],[-71.040365,-34.384342],[-71.04005,-34.38425],[-71.039736,-34.384046],[-71.039329,-34.383621],[-71.038903,-34.383177],[-71.038478,-34.382936],[-71.038163,-34.382862],[-71.037701,-34.382825],[-71.037238,-34.382825],[-71.03672,-34.382881],[-71.036332,-34.382825],[-71.03574,-34.382659],[-71.035333,-34.382363],[-71.035266,-34.382333],[-71.035037,-34.382233],[-71.034833,-34.382067],[-71.034574,-34.381845],[-71.034204,-34.381623],[-71.033998,-34.381614],[-71.030705,-34.379483],[-71.031334,-34.375288],[-71.036413,-34.373973],[-71.037043,-34.369777],[-71.032594,-34.366898],[-71.033223,-34.362702],[-71.028775,-34.359822],[-71.023697,-34.361138],[-71.019248,-34.358258],[-71.019878,-34.354062],[-71.024956,-34.352746],[-71.025586,-34.34855],[-71.021138,-34.345669],[-71.01606,-34.346985],[-71.011612,-34.344104],[-71.006535,-34.34542],[-71.002088,-34.342539],[-70.997011,-34.343854],[-70.996381,-34.34805],[-71.000828,-34.350931],[-71.005905,-34.349616],[-71.010353,-34.352497],[-71.009723,-34.356693],[-71.004645,-34.358008],[-71.004015,-34.362203],[-71.008463,-34.365084],[-71.013541,-34.363769],[-71.017989,-34.366649],[-71.023067,-34.365334],[-71.027515,-34.368214],[-71.026886,-34.372409],[-71.021807,-34.373724],[-71.021178,-34.377919],[-71.025626,-34.380798],[-71.024996,-34.384992],[-71.02847,-34.387241],[-71.028467,-34.387252],[-71.028388,-34.387568],[-71.028362,-34.387885],[-71.028353,-34.388157],[-71.028415,-34.388324],[-71.028634,-34.3885],[-71.028845,-34.388544],[-71.02903,-34.388605],[-71.029109,-34.38872],[-71.029118,-34.388904],[-71.028986,-34.389115],[-71.028792,-34.389352],[-71.028502,-34.389563],[-71.028327,-34.38959],[-71.028133,-34.389616],[-71.027852,-34.389607],[-71.027588,-34.389528],[-71.027334,-34.389458],[-71.027079,-34.389344],[-71.026754,-34.389308],[-71.026156,-34.389317],[-71.025637,-34.389335],[-71.025347,-34.389344],[-71.025137,-34.389361],[-71.024908,-34.389431],[-71.024627,-34.389519],[-71.024302,-34.389598],[-71.024073,-34.389634],[-71.023915,-34.389721],[-71.023713,-34.389844],[-71.023484,-34.390038],[-71.023414,-34.390275],[-71.023397,-34.390512],[-71.023432,-34.390671],[-71.023563,-34.390829],[-71.02373,-34.390961],[-71.023871,-34.391075],[-71.024003,-34.391189],[-71.024135,-34.391338],[-71.024267,-34.39147],[-71.024293,-34.391628],[-71.024372,-34.391857],[-71.024486,-34.392103],[-71.024618,-34.392261],[-71.024767,-34.392402],[-71.024961,-34.392534],[-71.025101,-34.392665],[-71.025224,-34.392815],[-71.02533,-34.392955],[-71.025335,-34.392966],[-71.025435,-34.393166],[-71.025427,-34.393439],[-71.025374,-34.393632],[-71.025304,-34.393764],[-71.025128,-34.393957],[-71.024917,-34.394124],[-71.024864,-34.394274],[-71.02489,-34.394467],[-71.02489,-34.394695],[-71.024794,-34.394862],[-71.024636,-34.395029],[-71.02446,-34.395161],[-71.024135,-34.395302],[-71.023801,-34.395407],[-71.023449,-34.395442],[-71.023427,-34.395443],[-71.023247,-34.395451],[-71.02301,-34.395486],[-71.022825,-34.395557],[-71.022702,-34.39568],[-71.022474,-34.39582],[-71.022236,-34.395908],[-71.021999,-34.395899],[-71.021692,-34.395917],[-71.021402,-34.395882],[-71.021235,-34.395855],[-71.021059,-34.395829],[-71.02076,-34.395785],[-71.020417,-34.395768],[-71.02011,-34.395715],[-71.019846,-34.395706],[-71.019574,-34.395706],[-71.01924,-34.395697],[-71.019073,-34.395706],[-71.018915,-34.39575],[-71.018712,-34.395803],[-71.018502,-34.395882],[-71.01837,-34.395979],[-71.018308,-34.396093],[-71.018247,-34.39626],[-71.018185,-34.396541],[-71.018115,-34.396734],[-71.017974,-34.396884],[-71.017807,-34.396989],[-71.017596,-34.397086],[-71.017421,-34.397182],[-71.017236,-34.397314],[-71.017122,-34.397455],[-71.017095,-34.397639],[-71.017104,-34.397938],[-71.017122,-34.398132],[-71.017201,-34.398281],[-71.01735,-34.39843],[-71.017415,-34.398491],[-71.01358,-34.396008],[-71.008501,-34.397322],[-71.007871,-34.401515],[-71.01232,-34.404394],[-71.01301,-34.404215],[-71.013053,-34.40438],[-71.013097,-34.404547],[-71.013158,-34.404811],[-71.013158,-34.405118],[-71.013158,-34.405303],[-71.013079,-34.405505],[-71.012939,-34.405698],[-71.012763,-34.405812],[-71.012508,-34.405918],[-71.012085,-34.405956],[-71.012016,-34.405962],[-71.011585,-34.405927],[-71.01126,-34.405768],[-71.010961,-34.405584],[-71.010768,-34.405443],[-71.010496,-34.405373],[-71.010311,-34.405311],[-71.010153,-34.405232],[-71.009933,-34.40503],[-71.009661,-34.404898],[-71.009432,-34.404828],[-71.009239,-34.404811],[-71.008975,-34.404819],[-71.008694,-34.404811],[-71.008466,-34.404802],[-71.008158,-34.404705],[-71.008114,-34.404556],[-71.008088,-34.404354],[-71.008053,-34.404143],[-71.008035,-34.403967],[-71.008026,-34.40387],[-71.007921,-34.403782],[-71.007815,-34.403747],[-71.007675,-34.403747],[-71.007499,-34.403738],[-71.007235,-34.403738],[-71.006901,-34.403747],[-71.006594,-34.403756],[-71.006356,-34.403703],[-71.006198,-34.403563],[-71.005917,-34.403308],[-71.005574,-34.403027],[-71.005346,-34.40278],[-71.005056,-34.402534],[-71.00472,-34.40233],[-71.004696,-34.402315],[-71.004476,-34.402183],[-71.004168,-34.40206],[-71.003799,-34.401954],[-71.0035,-34.401884],[-71.003246,-34.401867],[-71.00292,-34.401867],[-71.00263,-34.401867],[-71.002419,-34.401963],[-71.002182,-34.402077],[-71.001975,-34.402299],[-70.998345,-34.399949],[-70.993267,-34.401261],[-70.99308,-34.402504],[-70.992946,-34.402482],[-70.99255,-34.402411],[-70.992173,-34.402411],[-70.991847,-34.402464],[-70.991522,-34.402517],[-70.991197,-34.402596],[-70.990872,-34.402701],[-70.990591,-34.402851],[-70.990266,-34.403009],[-70.989914,-34.403097],[-70.989606,-34.403123],[-70.989325,-34.403106],[-70.989044,-34.403035],[-70.988745,-34.402912],[-70.988499,-34.402745],[-70.988192,-34.40242],[-70.987699,-34.402025],[-70.987242,-34.401506],[-70.986698,-34.401067],[-70.986223,-34.400654],[-70.985951,-34.400487],[-70.985687,-34.400434],[-70.98545,-34.400452],[-70.985168,-34.400522],[-70.985028,-34.40068],[-70.984419,-34.401299],[-70.983893,-34.401694],[-70.983485,-34.40172],[-70.98344,-34.401701],[-70.982972,-34.40151],[-70.982578,-34.401339],[-70.982078,-34.401326],[-70.981434,-34.401391],[-70.98075,-34.40147],[-70.97912,-34.400524],[-70.978698,-34.40035],[-70.978192,-34.400169],[-70.977386,-34.399743],[-70.977433,-34.399461],[-70.977431,-34.399344],[-70.977365,-34.399237],[-70.977155,-34.399129],[-70.977056,-34.399078],[-70.97694,-34.39904],[-70.97683,-34.399004],[-70.976612,-34.398933],[-70.976414,-34.398893],[-70.976345,-34.398799],[-70.976256,-34.39868],[-70.976135,-34.39849],[-70.976048,-34.398353],[-70.975935,-34.398248],[-70.97582,-34.398225],[-70.975704,-34.398234],[-70.975585,-34.398244],[-70.975495,-34.398252],[-70.975317,-34.398249],[-70.975296,-34.398231],[-70.975237,-34.398182],[-70.975167,-34.398124],[-70.975084,-34.398056],[-70.975053,-34.398029],[-70.975012,-34.397996],[-70.974967,-34.397959],[-70.974943,-34.397939],[-70.974917,-34.397917],[-70.974877,-34.397884],[-70.974835,-34.397849],[-70.974826,-34.397842],[-70.974811,-34.397819],[-70.974787,-34.397782],[-70.974762,-34.397743],[-70.974727,-34.397689],[-70.974563,-34.397627],[-70.974406,-34.397568],[-70.974072,-34.397239],[-70.973843,-34.397012],[-70.973651,-34.39682],[-70.972999,-34.396009],[-70.972104,-34.394912],[-70.971071,-34.39359],[-70.970527,-34.392842],[-70.970476,-34.392821],[-70.970439,-34.392806],[-70.97032,-34.392757],[-70.970157,-34.392672],[-70.96955,-34.392355],[-70.969279,-34.392242],[-70.969104,-34.39217],[-70.968056,-34.391663],[-70.967101,-34.391175],[-70.966117,-34.390646],[-70.965441,-34.390337],[-70.965067,-34.39011],[-70.964923,-34.390048],[-70.96442,-34.389833],[-70.963967,-34.389629],[-70.963742,-34.389527],[-70.963509,-34.389406],[-70.96332,-34.389304],[-70.962733,-34.389005],[-70.965954,-34.388173],[-70.966585,-34.38398],[-70.962138,-34.381099],[-70.962769,-34.376906],[-70.958323,-34.374024],[-70.953247,-34.375336],[-70.948801,-34.372455],[-70.943725,-34.373767],[-70.943095,-34.37796],[-70.94754,-34.380841],[-70.947173,-34.383281],[-70.94643,-34.38294],[-70.944764,-34.382107],[-70.943691,-34.381539],[-70.943539,-34.38145],[-70.94323,-34.381265],[-70.942681,-34.380826],[-70.942503,-34.380707],[-70.94242,-34.380635],[-70.942221,-34.38054],[-70.941983,-34.380472],[-70.941489,-34.380302],[-70.940749,-34.380002],[-70.940204,-34.379728],[-70.939984,-34.379612],[-70.93966,-34.379383],[-70.93944,-34.379113],[-70.939368,-34.378922],[-70.939336,-34.378836],[-70.939273,-34.378705],[-70.93911,-34.378536],[-70.938943,-34.378313],[-70.938797,-34.378086],[-70.938655,-34.377741],[-70.938625,-34.377587],[-70.938432,-34.377138],[-70.938283,-34.37687],[-70.938205,-34.37677],[-70.937932,-34.376525],[-70.9378,-34.376497],[-70.937536,-34.376483],[-70.937254,-34.376422],[-70.936774,-34.376243],[-70.936257,-34.376295],[-70.935095,-34.376469],[-70.934986,-34.376426],[-70.934619,-34.376022],[-70.934055,-34.375325],[-70.933805,-34.375062],[-70.933777,-34.375042],[-70.932907,-34.37445],[-70.932262,-34.374102],[-70.931735,-34.373789],[-70.931678,-34.373411],[-70.931514,-34.372685],[-70.931382,-34.372161],[-70.931267,-34.371646],[-70.931148,-34.371102],[-70.93109,-34.370838],[-70.930921,-34.370067],[-70.930907,-34.370003],[-70.930822,-34.36962],[-70.930704,-34.369018],[-70.930676,-34.368875],[-70.930584,-34.368541],[-70.930523,-34.368322],[-70.930476,-34.368088],[-70.930467,-34.367936],[-70.930385,-34.367675],[-70.930198,-34.366904],[-70.930153,-34.366705],[-70.930391,-34.36512],[-70.935467,-34.363809],[-70.936097,-34.359615],[-70.932229,-34.357106],[-70.932116,-34.356919],[-70.931745,-34.35628],[-70.931726,-34.356248],[-70.931549,-34.355942],[-70.931424,-34.355726],[-70.931384,-34.355479],[-70.931334,-34.35517],[-70.931285,-34.354866],[-70.931238,-34.35458],[-70.931229,-34.354435],[-70.930823,-34.352867],[-70.930327,-34.351269],[-70.929794,-34.349549],[-70.929598,-34.349357],[-70.928592,-34.348376],[-70.929227,-34.348159],[-70.930371,-34.347774],[-70.931076,-34.347058],[-70.931439,-34.346771],[-70.932147,-34.346205],[-70.932866,-34.345758],[-70.933901,-34.345471],[-70.934663,-34.345065],[-70.934824,-34.344978],[-70.936007,-34.344335],[-70.937024,-34.343765],[-70.938371,-34.343006],[-70.939954,-34.342076],[-70.941272,-34.341299],[-70.942411,-34.340691],[-70.943696,-34.341524],[-70.943065,-34.345719],[-70.94751,-34.348602],[-70.946879,-34.352797],[-70.951324,-34.355679],[-70.950693,-34.359873],[-70.955139,-34.362755],[-70.954508,-34.366949],[-70.958954,-34.369831],[-70.96403,-34.368518],[-70.96466,-34.364324],[-70.969737,-34.363011],[-70.970367,-34.358816],[-70.975444,-34.357503],[-70.976074,-34.353308],[-70.981151,-34.351994],[-70.981781,-34.347798],[-70.986857,-34.346484],[-70.987487,-34.342288],[-70.983041,-34.339406],[-70.977965,-34.340721],[-70.973519,-34.337839],[-70.968443,-34.339153],[-70.967813,-34.343349],[-70.962737,-34.344662],[-70.958291,-34.34178],[-70.953216,-34.343093],[-70.948771,-34.340211],[-70.949402,-34.336015],[-70.944957,-34.333132],[-70.942684,-34.33372],[-70.942823,-34.333537],[-70.943088,-34.333229],[-70.943109,-34.333163],[-70.943265,-34.332633],[-70.943347,-34.332407],[-70.94342,-34.332263],[-70.943484,-34.332168],[-70.943544,-34.332132],[-70.943793,-34.332001],[-70.944143,-34.331816],[-70.944474,-34.331466],[-70.944759,-34.331145],[-70.944894,-34.33102],[-70.945273,-34.330678],[-70.945333,-34.330634],[-70.945357,-34.330616],[-70.945669,-34.330386],[-70.946091,-34.330106],[-70.946647,-34.329732],[-70.947004,-34.329489],[-70.947269,-34.32925],[-70.947393,-34.329087],[-70.94748,-34.328858],[-70.947514,-34.328675],[-70.947549,-34.328491],[-70.947575,-34.328422],[-70.950663,-34.327623],[-70.951293,-34.323426],[-70.956368,-34.322112],[-70.960813,-34.324995],[-70.965889,-34.323681],[-70.970334,-34.326563],[-70.97541,-34.325248],[-70.975893,-34.32203],[-70.97696,-34.32203],[-70.978139,-34.322484],[-70.979091,-34.322846],[-70.979862,-34.323254],[-70.980361,-34.323617],[-70.981041,-34.324116],[-70.981799,-34.324641],[-70.982193,-34.324995],[-70.982583,-34.325476],[-70.983218,-34.326292],[-70.983717,-34.326973],[-70.983833,-34.3271],[-70.98417,-34.327471],[-70.984622,-34.327686],[-70.985077,-34.327698],[-70.985731,-34.327484],[-70.985865,-34.327421],[-70.986376,-34.327182],[-70.987027,-34.327109],[-70.988171,-34.32702],[-70.989461,-34.326698],[-70.990167,-34.326597],[-70.990873,-34.326617],[-70.991478,-34.326516],[-70.992287,-34.326247],[-70.99333,-34.326111],[-70.994463,-34.326111],[-70.99478,-34.326209],[-70.995053,-34.326292],[-70.995778,-34.326292],[-70.996549,-34.326292],[-70.997456,-34.326156],[-70.998544,-34.326202],[-70.999496,-34.326428],[-71.0,-34.326667],[-71.000358,-34.326837],[-71.000993,-34.327063],[-71.001582,-34.327335],[-71.002172,-34.327698],[-71.002761,-34.328061],[-71.003215,-34.328333],[-71.003759,-34.328832],[-71.004126,-34.328961],[-71.00453,-34.329104],[-71.005119,-34.329149],[-71.005709,-34.329104],[-71.006389,-34.328696],[-71.00716,-34.328469],[-71.00784,-34.32856],[-71.008475,-34.328741],[-71.008719,-34.328795],[-71.008981,-34.328835],[-71.009064,-34.329149],[-71.009064,-34.329561],[-71.009142,-34.329863],[-71.009472,-34.330283],[-71.00979,-34.330918],[-71.010198,-34.331552],[-71.010515,-34.332097],[-71.010658,-34.33225],[-71.01115,-34.332777],[-71.011603,-34.33323],[-71.012011,-34.33382],[-71.012288,-34.334421],[-71.01257,-34.334905],[-71.013034,-34.335187],[-71.013281,-34.335679],[-71.013553,-34.336676],[-71.013961,-34.336994],[-71.014304,-34.337042],[-71.014708,-34.336941],[-71.015322,-34.336767],[-71.015655,-34.336578],[-71.016183,-34.33645],[-71.016727,-34.33645],[-71.017589,-34.336359],[-71.017658,-34.336336],[-71.017319,-34.338592],[-71.021767,-34.341472],[-71.026845,-34.340156],[-71.031293,-34.343036],[-71.036371,-34.341719],[-71.037001,-34.337522],[-71.042079,-34.336205],[-71.042708,-34.332007],[-71.03826,-34.329126],[-71.038772,-34.325708],[-71.038946,-34.325476],[-71.039626,-34.324977],[-71.040478,-34.324681],[-71.041077,-34.324569],[-71.041668,-34.324439],[-71.042091,-34.324459],[-71.042696,-34.32452],[-71.04348,-34.324642],[-71.044097,-34.324751],[-71.044714,-34.324751],[-71.045367,-34.324751],[-71.045646,-34.324697],[-71.046128,-34.324606],[-71.046745,-34.324606],[-71.047507,-34.324896],[-71.048704,-34.324968],[-71.049502,-34.324823],[-71.050336,-34.324642],[-71.051171,-34.324787],[-71.05157,-34.325186],[-71.051824,-34.325367]],[[-70.990674,-34.353561],[-70.985597,-34.354875],[-70.984967,-34.35907],[-70.97989,-34.360384],[-70.97926,-34.364579],[-70.983706,-34.36746],[-70.988783,-34.366146],[-70.989414,-34.361951],[-70.994491,-34.360637],[-70.995121,-34.356442],[-70.990674,-34.353561]],[[-71.04401,-34.355873],[-71.044639,-34.351677],[-71.04019,-34.348797],[-71.035112,-34.350113],[-71.034483,-34.35431],[-71.038931,-34.35719],[-71.04401,-34.355873]]]},"properties":{"comuna":"Quinta de Tilcoco","mancha_id":"06114-88b2c024a7fffff","clase":"Medio","nivel_medio":1.972,"nivel_medio_min":1.51,"nivel_medio_max":2.482,"pct_alto":16.7,"n_hexagonos":122,"area_ha":6300.23}},{"type":"Feature","geometry":{"type":"Polygon","coordinates":[[[-70.993267,-34.401261],[-70.998345,-34.399949],[-71.001975,-34.402299],[-71.001927,-34.40235],[-71.001567,-34.40271],[-71.001189,-34.403106],[-71.000864,-34.403413],[-71.000512,-34.403694],[-71.00017,-34.403809],[-71.0,-34.403828],[-70.999862,-34.403844],[-70.999537,-34.403782],[-70.999203,-34.403694],[-70.998834,-34.403554],[-70.998447,-34.403404],[-70.997938,-34.403255],[-70.997375,-34.403167],[-70.996883,-34.403044],[-70.996224,-34.402912],[-70.995661,-34.402833],[-70.995073,-34.402798],[-70.994484,-34.402728],[-70.993816,-34.402649],[-70.993315,-34.402543],[-70.99308,-34.402504],[-70.993267,-34.401261]]]},"properties":{"comuna":"Quinta de Tilcoco","mancha_id":"06114-88b2c15a95fffff","clase":"Alto","nivel_medio":2.571,"nivel_medio_min":2.571,"nivel_medio_max":2.571,"pct_alto":48.5,"n_hexagonos":1,"area_ha":20.55}},{"type":"Feature","geometry":{"type":"Polygon","coordinates":[[[-70.965889,-34.323681],[-70.966519,-34.319483],[-70.966231,-34.319297],[-70.966252,-34.319297],[-70.966836,-34.319257],[-70.967156,-34.319318],[-70.967361,-34.319358],[-70.967663,-34.319535],[-70.967891,-34.319718],[-70.968209,-34.32008],[-70.968617,-34.320488],[-70.969116,-34.320987],[-70.969614,-34.321441],[-70.970567,-34.321849],[-70.971201,-34.32203],[-70.971882,-34.322121],[-70.972652,-34.322121],[-70.974058,-34.32203],[-70.975192,-34.32203],[-70.975893,-34.32203],[-70.97541,-34.325248],[-70.970334,-34.326563],[-70.965889,-34.323681]]]},"properties":{"comuna":"Quinta de Tilcoco","mancha_id":"06114-88b2c1514bfffff","clase":"Alto","nivel_medio":2.514,"nivel_medio_min":2.513,"nivel_medio_max":2.804,"pct_alto":57.1,"n_hexagonos":2,"area_ha":41.69}},{"type":"Feature","geometry":{"type":"Polygon","coordinates":[[[-71.009723,-34.356693],[-71.010353,-34.352497],[-71.005905,-34.349616],[-71.000828,-34.350931],[-70.996381,-34.34805],[-70.997011,-34.343854],[-71.002088,-34.342539],[-71.006535,-34.34542],[-71.011612,-34.344104],[-71.01606,-34.346985],[-71.021138,-34.345669],[-71.025586,-34.34855],[-71.024956,-34.352746],[-71.019878,-34.354062],[-71.019248,-34.358258],[-71.023697,-34.361138],[-71.028775,-34.359822],[-71.033223,-34.362702],[-71.032594,-34.366898],[-71.037043,-34.369777],[-71.036413,-34.373973],[-71.031334,-34.375288],[-71.030705,-34.379483],[-71.033998,-34.381614],[-71.03376,-34.381604],[-71.03339,-34.381771],[-71.033279,-34.382011],[-71.033223,-34.382418],[-71.033353,-34.382733],[-71.03339,-34.382992],[-71.033353,-34.383288],[-71.033112,-34.383584],[-71.032705,-34.383954],[-71.032317,-34.384139],[-71.031928,-34.384268],[-71.031632,-34.384268],[-71.031299,-34.384083],[-71.030985,-34.383621],[-71.030726,-34.383306],[-71.030522,-34.383047],[-71.030452,-34.383022],[-71.030319,-34.382973],[-71.030134,-34.382955],[-71.029782,-34.382973],[-71.029468,-34.383103],[-71.029209,-34.383214],[-71.02882,-34.383399],[-71.02858,-34.383602],[-71.028376,-34.383824],[-71.028265,-34.384046],[-71.028265,-34.384305],[-71.028265,-34.384842],[-71.028358,-34.38536],[-71.028432,-34.385609],[-71.028476,-34.385758],[-71.02852,-34.385899],[-71.028581,-34.386101],[-71.028634,-34.386452],[-71.028634,-34.386698],[-71.028581,-34.386883],[-71.028511,-34.387094],[-71.02847,-34.387241],[-71.024996,-34.384992],[-71.025626,-34.380798],[-71.021178,-34.377919],[-71.021807,-34.373724],[-71.026886,-34.372409],[-71.027515,-34.368214],[-71.023067,-34.365334],[-71.017989,-34.366649],[-71.013541,-34.363769],[-71.008463,-34.365084],[-71.004015,-34.362203],[-71.004645,-34.358008],[-71.009723,-34.356693]]]},"properties":{"comuna":"Quinta de Tilcoco","mancha_id":"06114-88b2c15125fffff","clase":"Alto","nivel_medio":2.667,"nivel_medio_min":2.514,"nivel_medio_max":3.079,"pct_alto":70.8,"n_hexagonos":10,"area_ha":600.15}},{"type":"Feature","geometry":{"type":"Polygon","coordinates":[[[-70.951293,-34.323426],[-70.950663,-34.327623],[-70.947575,-34.328422],[-70.947611,-34.328327],[-70.947667,-34.328171],[-70.947747,-34.327932],[-70.947835,-34.327705],[-70.947849,-34.327678],[-70.947986,-34.327439],[-70.948013,-34.327344],[-70.947997,-34.327297],[-70.947811,-34.327122],[-70.94768,-34.326935],[-70.947517,-34.326702],[-70.947448,-34.32654],[-70.947406,-34.32646],[-70.947311,-34.326284],[-70.947224,-34.325962],[-70.947222,-34.325828],[-70.947324,-34.325485],[-70.947342,-34.325241],[-70.947423,-34.324897],[-70.947468,-34.32473],[-70.947495,-34.324595],[-70.947566,-34.324471],[-70.947648,-34.324229],[-70.947786,-34.323832],[-70.947744,-34.323585],[-70.947705,-34.323351],[-70.947662,-34.322989],[-70.947685,-34.322862],[-70.947656,-34.322619],[-70.947575,-34.322426],[-70.947584,-34.322363],[-70.947577,-34.322112],[-70.947662,-34.321993],[-70.947735,-34.321846],[-70.947865,-34.321524],[-70.947933,-34.321246],[-70.947953,-34.321168],[-70.948042,-34.320933],[-70.948038,-34.320794],[-70.948004,-34.320659],[-70.94793,-34.320535],[-70.947875,-34.32042],[-70.947851,-34.320357],[-70.947851,-34.320256],[-70.947873,-34.320167],[-70.948127,-34.319773],[-70.948658,-34.319377],[-70.948721,-34.319246],[-70.948863,-34.318952],[-70.94911,-34.318438],[-70.949166,-34.31835],[-70.949409,-34.31798],[-70.949561,-34.317749],[-70.949861,-34.317295],[-70.949938,-34.316982],[-70.950039,-34.316783],[-70.950045,-34.316758],[-70.950074,-34.316133],[-70.950288,-34.315619],[-70.950481,-34.315152],[-70.95059,-34.314705],[-70.951017,-34.313991],[-70.95135,-34.313711],[-70.951753,-34.313328],[-70.95261,-34.312644],[-70.952941,-34.312459],[-70.952554,-34.315032],[-70.956999,-34.317915],[-70.956368,-34.322112],[-70.951293,-34.323426]]]},"properties":{"comuna":"Quinta de Tilcoco","mancha_id":"06114-88b2c15065fffff","clase":"Alto","nivel_medio":2.803,"nivel_medio_min":2.737,"nivel_medio_max":2.95,"pct_alto":83.0,"n_hexagonos":3,"area_ha":77.29}},{"type":"Feature","geometry":{"type":"Polygon","coordinates":[[[-70.943065,-34.345719],[-70.943696,-34.341524],[-70.942411,-34.340691],[-70.942961,-34.340397],[-70.943568,-34.340072],[-70.944188,-34.339738],[-70.944306,-34.339678],[-70.944109,-34.339067],[-70.943985,-34.33868],[-70.943891,-34.338389],[-70.943823,-34.338179],[-70.943803,-34.338117],[-70.943752,-34.338037],[-70.943711,-34.337975],[-70.943697,-34.337952],[-70.943634,-34.337852],[-70.943551,-34.337718],[-70.943478,-34.337681],[-70.943363,-34.337623],[-70.943213,-34.337552],[-70.943043,-34.337471],[-70.942932,-34.337416],[-70.942883,-34.337362],[-70.942843,-34.33729],[-70.942819,-34.337228],[-70.942786,-34.337142],[-70.94277,-34.337059],[-70.942745,-34.336938],[-70.942738,-34.336824],[-70.942735,-34.336787],[-70.942748,-34.336655],[-70.942758,-34.336549],[-70.94277,-34.336424],[-70.942769,-34.336408],[-70.942766,-34.336278],[-70.942768,-34.336266],[-70.942781,-34.336136],[-70.942747,-34.33612],[-70.942551,-34.336027],[-70.942422,-34.335965],[-70.942321,-34.335917],[-70.942231,-34.335875],[-70.942177,-34.335826],[-70.942084,-34.335741],[-70.942032,-34.335691],[-70.94203,-34.335604],[-70.942024,-34.335523],[-70.94202,-34.335465],[-70.942048,-34.335359],[-70.942102,-34.335279],[-70.942172,-34.335173],[-70.942229,-34.335088],[-70.942265,-34.335034],[-70.942316,-34.334944],[-70.942365,-34.334858],[-70.942384,-34.334824],[-70.942415,-34.33477],[-70.942463,-34.334686],[-70.942545,-34.334538],[-70.942607,-34.334412],[-70.942631,-34.334331],[-70.942623,-34.334212],[-70.942548,-34.333896],[-70.942618,-34.333808],[-70.942684,-34.33372],[-70.944957,-34.333132],[-70.949402,-34.336015],[-70.948771,-34.340211],[-70.953216,-34.343093],[-70.952585,-34.347289],[-70.94751,-34.348602],[-70.943065,-34.345719]]]},"properties":{"comuna":"Quinta de Tilcoco","mancha_id":"06114-88b2c15025fffff","clase":"Alto","nivel_medio":2.524,"nivel_medio_min":2.513,"nivel_medio_max":2.541,"pct_alto":63.3,"n_hexagonos":2,"area_ha":104.25}},{"type":"Feature","geometry":{"type":"Polygon","coordinates":[[[-71.038772,-34.325708],[-71.03826,-34.329126],[-71.042708,-34.332007],[-71.042079,-34.336205],[-71.037001,-34.337522],[-71.036371,-34.341719],[-71.031293,-34.343036],[-71.026845,-34.340156],[-71.021767,-34.341472],[-71.017319,-34.338592],[-71.017658,-34.336336],[-71.018075,-34.336195],[-71.018314,-34.335951],[-71.018904,-34.335407],[-71.019675,-34.335135],[-71.021443,-34.334318],[-71.022169,-34.333775],[-71.022747,-34.333538],[-71.023364,-34.333296],[-71.023479,-34.333251],[-71.023937,-34.332867],[-71.024447,-34.332505],[-71.024871,-34.332364],[-71.025751,-34.332505],[-71.026524,-34.332586],[-71.027149,-34.332767],[-71.027701,-34.332913],[-71.02842,-34.333251],[-71.029004,-34.333372],[-71.029514,-34.333275],[-71.030033,-34.33315],[-71.030557,-34.332913],[-71.031101,-34.332595],[-71.031364,-34.332162],[-71.031691,-34.331598],[-71.03287,-34.330373],[-71.032955,-34.330297],[-71.033731,-34.329603],[-71.034502,-34.329376],[-71.035228,-34.328968],[-71.035318,-34.328605],[-71.03559,-34.328061],[-71.036135,-34.327607],[-71.037314,-34.326927],[-71.038266,-34.326383],[-71.038772,-34.325708]]]},"properties":{"comuna":"Quinta de Tilcoco","mancha_id":"06114-88b2c024b5fffff","clase":"Alto","nivel_medio":2.746,"nivel_medio_min":2.608,"nivel_medio_max":2.92,"pct_alto":74.9,"n_hexagonos":5,"area_ha":215.09}}],"bbox":[-71.07458,-34.40597,-70.92859,-34.3101]}