{"type":"FeatureCollection","features":[{"type":"Feature","geometry":{"type":"Polygon","coordinates":[[[-70.767556,-34.213573],[-70.768009,-34.213456],[-70.77227,-34.216234],[-70.77184,-34.2162],[-70.77109,-34.21604],[-70.77087,-34.21599],[-70.76984,-34.2156],[-70.7681,-34.21514],[-70.76766,-34.21398],[-70.767556,-34.213573]]]},"properties":{"comuna":"Olivar","mancha_id":"06111-88b2c1cf53fffff","clase":"Muy Bajo","nivel_medio":0.196,"nivel_medio_min":0.196,"nivel_medio_max":0.196,"pct_alto":0.5,"n_hexagonos":1,"area_ha":4.15}},{"type":"Feature","geometry":{"type":"Polygon","coordinates":[[[-70.751268,-34.195285],[-70.750906,-34.19769],[-70.750032,-34.197915],[-70.750069,-34.197846],[-70.750102,-34.197515],[-70.750235,-34.197166],[-70.750401,-34.196752],[-70.750534,-34.196403],[-70.750683,-34.196221],[-70.750866,-34.195939],[-70.751048,-34.195723],[-70.751164,-34.195557],[-70.751268,-34.195285]]]},"properties":{"comuna":"Olivar","mancha_id":"06111-88b2c1ce69fffff","clase":"Muy Bajo","nivel_medio":0.151,"nivel_medio_min":0.151,"nivel_medio_max":0.151,"pct_alto":5.0,"n_hexagonos":1,"area_ha":1.31}},{"type":"Feature","geometry":{"type":"Polygon","coordinates":[[[-70.844304,-34.193952],[-70.844325,-34.193972],[-70.84403,-34.19378],[-70.844045,-34.193683],[-70.84408,-34.193715],[-70.844189,-34.19382],[-70.844249,-34.193887],[-70.844304,-34.193952]]]},"properties":{"comuna":"Olivar","mancha_id":"06111-88b2c1caabfffff","clase":"Muy Bajo","nivel_medio":0.078,"nivel_medio_min":0.078,"nivel_medio_max":0.078,"pct_alto":0.0,"n_hexagonos":1,"area_ha":0.02}},{"type":"Feature","geometry":{"type":"Polygon","coordinates":[[[-70.851643,-34.207964],[-70.852274,-34.203762],[-70.847836,-34.200872],[-70.848468,-34.196669],[-70.845221,-34.194555],[-70.845309,-34.194589],[-70.845509,-34.194648],[-70.845766,-34.194705],[-70.846032,-34.194757],[-70.846276,-34.194816],[-70.846409,-34.194853],[-70.846549,-34.194918],[-70.846662,-34.194993],[-70.846793,-34.195097],[-70.846963,-34.195289],[-70.84717,-34.195496],[-70.847296,-34.1956],[-70.847466,-34.195696],[-70.847554,-34.19574],[-70.847633,-34.195802],[-70.847754,-34.195932],[-70.847931,-34.196088],[-70.848109,-34.196184],[-70.848294,-34.196331],[-70.848501,-34.196598],[-70.848533,-34.196653],[-70.848634,-34.196827],[-70.848863,-34.197093],[-70.849092,-34.197292],[-70.849292,-34.197477],[-70.849395,-34.197588],[-70.849455,-34.197676],[-70.849498,-34.19778],[-70.84958,-34.1979],[-70.849668,-34.197966],[-70.849765,-34.198024],[-70.850016,-34.198224],[-70.850193,-34.198327],[-70.850363,-34.198497],[-70.850585,-34.198689],[-70.850705,-34.198829],[-70.850831,-34.198938],[-70.850924,-34.198987],[-70.851051,-34.199037],[-70.851295,-34.19914],[-70.851583,-34.199273],[-70.85179,-34.199406],[-70.851945,-34.199547],[-70.852078,-34.199687],[-70.852233,-34.199828],[-70.852448,-34.199998],[-70.85267,-34.20019],[-70.852936,-34.200441],[-70.853106,-34.200626],[-70.853202,-34.200803],[-70.853239,-34.200973],[-70.853263,-34.201262],[-70.853295,-34.201419],[-70.853389,-34.201639],[-70.853499,-34.201843],[-70.853656,-34.202157],[-70.853782,-34.202408],[-70.853829,-34.202675],[-70.853844,-34.203131],[-70.853864,-34.20335],[-70.853876,-34.203492],[-70.853986,-34.203806],[-70.854096,-34.203979],[-70.854184,-34.204087],[-70.854227,-34.204235],[-70.854253,-34.204403],[-70.854253,-34.204795],[-70.854269,-34.205109],[-70.8543,-34.205455],[-70.8543,-34.205769],[-70.854269,-34.206005],[-70.854269,-34.206209],[-70.854221,-34.206381],[-70.854127,-34.206601],[-70.854064,-34.20679],[-70.85408,-34.206978],[-70.854113,-34.207091],[-70.854211,-34.207217],[-70.854391,-34.20732],[-70.854626,-34.207408],[-70.854806,-34.207446],[-70.855007,-34.207497],[-70.85521,-34.207566],[-70.855352,-34.207669],[-70.855445,-34.207779],[-70.855538,-34.207872],[-70.855582,-34.207981],[-70.855601,-34.208088],[-70.855713,-34.20821],[-70.8559,-34.20836],[-70.856022,-34.208472],[-70.856088,-34.208631],[-70.856088,-34.208818],[-70.856078,-34.209005],[-70.856116,-34.209155],[-70.856209,-34.209314],[-70.856396,-34.209473],[-70.856611,-34.209604],[-70.856836,-34.209697],[-70.857023,-34.209753],[-70.857322,-34.2098],[-70.857593,-34.209865],[-70.85793,-34.210015],[-70.858098,-34.210118],[-70.858267,-34.210221],[-70.858337,-34.210269],[-70.856081,-34.210853],[-70.851643,-34.207964]]]},"properties":{"comuna":"Olivar","mancha_id":"06111-88b2c1c8c9fffff","clase":"Muy Bajo","nivel_medio":0.12,"nivel_medio_min":0.07,"nivel_medio_max":0.179,"pct_alto":0.3,"n_hexagonos":3,"area_ha":41.63}},{"type":"Feature","geometry":{"type":"Polygon","coordinates":[[[-70.78574,-34.192719],[-70.781305,-34.189828],[-70.776238,-34.191139],[-70.775606,-34.195341],[-70.770539,-34.196651],[-70.766105,-34.19376],[-70.761038,-34.19507],[-70.758216,-34.193229],[-70.758327,-34.193205],[-70.758585,-34.193119],[-70.75886,-34.19305],[-70.759203,-34.192921],[-70.759444,-34.192801],[-70.759599,-34.192698],[-70.759745,-34.192594],[-70.759908,-34.192517],[-70.760226,-34.192431],[-70.760596,-34.192302],[-70.760879,-34.192199],[-70.761103,-34.19213],[-70.761283,-34.192044],[-70.761446,-34.191924],[-70.76161,-34.191778],[-70.761799,-34.191606],[-70.761988,-34.191452],[-70.76222,-34.191314],[-70.762435,-34.191194],[-70.762624,-34.191091],[-70.762778,-34.191013],[-70.763002,-34.190962],[-70.763328,-34.190841],[-70.763578,-34.190781],[-70.763767,-34.190773],[-70.764024,-34.190712],[-70.764385,-34.19067],[-70.764626,-34.190704],[-70.764772,-34.19073],[-70.764944,-34.190833],[-70.765116,-34.190962],[-70.765331,-34.191039],[-70.76558,-34.191108],[-70.765881,-34.191125],[-70.766233,-34.191073],[-70.766517,-34.190979],[-70.766524,-34.190975],[-70.766792,-34.190824],[-70.766921,-34.190652],[-70.767058,-34.190463],[-70.767161,-34.190257],[-70.767256,-34.189999],[-70.767316,-34.189776],[-70.767419,-34.18957],[-70.767556,-34.189406],[-70.76778,-34.189295],[-70.767841,-34.189272],[-70.770792,-34.188509],[-70.770882,-34.188521],[-70.771071,-34.188624],[-70.771278,-34.188684],[-70.771681,-34.188693],[-70.772025,-34.188702],[-70.772326,-34.188727],[-70.772549,-34.188733],[-70.772678,-34.188736],[-70.773005,-34.188727],[-70.773263,-34.188719],[-70.773495,-34.188633],[-70.773675,-34.188521],[-70.77389,-34.188323],[-70.774096,-34.188066],[-70.774346,-34.187868],[-70.774535,-34.187713],[-70.774741,-34.187516],[-70.775024,-34.187301],[-70.775185,-34.187181],[-70.775351,-34.18712],[-70.775678,-34.187034],[-70.775927,-34.186931],[-70.776116,-34.186925],[-70.776262,-34.186966],[-70.776537,-34.187034],[-70.776846,-34.18706],[-70.777181,-34.187086],[-70.777491,-34.18712],[-70.777895,-34.187137],[-70.778238,-34.187137],[-70.778617,-34.187163],[-70.778909,-34.187189],[-70.779158,-34.187318],[-70.779433,-34.187524],[-70.779837,-34.187636],[-70.780284,-34.187713],[-70.780473,-34.187765],[-70.780739,-34.18773],[-70.780963,-34.187636],[-70.7811,-34.187516],[-70.781281,-34.187421],[-70.781495,-34.187378],[-70.781675,-34.187371],[-70.781719,-34.18737],[-70.781985,-34.187395],[-70.78232,-34.187507],[-70.782664,-34.187619],[-70.783094,-34.18773],[-70.783575,-34.187791],[-70.783876,-34.187816],[-70.784202,-34.187808],[-70.784546,-34.187782],[-70.784873,-34.187799],[-70.785302,-34.187808],[-70.785672,-34.187834],[-70.786007,-34.187894],[-70.786325,-34.187945],[-70.786712,-34.188048],[-70.78721,-34.188143],[-70.787442,-34.188306],[-70.787674,-34.188504],[-70.787984,-34.188762],[-70.788267,-34.18902],[-70.788542,-34.189234],[-70.788877,-34.189432],[-70.78929,-34.189673],[-70.789685,-34.189905],[-70.789883,-34.190059],[-70.790106,-34.190231],[-70.790321,-34.190395],[-70.790545,-34.190558],[-70.790828,-34.190644],[-70.790919,-34.190665],[-70.791052,-34.190695],[-70.791275,-34.190764],[-70.791559,-34.190824],[-70.791851,-34.190876],[-70.792126,-34.190936],[-70.792384,-34.191039],[-70.792719,-34.191177],[-70.79302,-34.191323],[-70.793295,-34.1914],[-70.793587,-34.191452],[-70.794051,-34.191452],[-70.794584,-34.191383],[-70.794962,-34.191314],[-70.795254,-34.191262],[-70.795546,-34.191194],[-70.795873,-34.191134],[-70.796208,-34.191073],[-70.796586,-34.190979],[-70.796981,-34.190867],[-70.797351,-34.190755],[-70.797755,-34.19067],[-70.79827,-34.190678],[-70.798734,-34.190609],[-70.79907,-34.190532],[-70.79937,-34.190446],[-70.799688,-34.190309],[-70.799963,-34.190162],[-70.800247,-34.190016],[-70.800694,-34.189879],[-70.800779,-34.18987],[-70.801209,-34.189827],[-70.801656,-34.189793],[-70.802077,-34.189802],[-70.80255,-34.189836],[-70.802988,-34.189991],[-70.803289,-34.190137],[-70.803487,-34.190326],[-70.803753,-34.190498],[-70.80402,-34.190566],[-70.804449,-34.190566],[-70.805059,-34.190644],[-70.805394,-34.19067],[-70.805807,-34.19073],[-70.806177,-34.190841],[-70.806563,-34.190927],[-70.806976,-34.190919],[-70.807371,-34.19073],[-70.807878,-34.190515],[-70.808205,-34.190257],[-70.808669,-34.190102],[-70.809064,-34.190042],[-70.809597,-34.190077],[-70.810018,-34.190223],[-70.810275,-34.190251],[-70.810277,-34.190251],[-70.810451,-34.190292],[-70.810594,-34.190282],[-70.810727,-34.19023],[-70.81084,-34.190138],[-70.811003,-34.189975],[-70.811157,-34.189801],[-70.81128,-34.189575],[-70.811351,-34.189432],[-70.811443,-34.189299],[-70.811546,-34.189197],[-70.811679,-34.189135],[-70.811812,-34.189105],[-70.812109,-34.189094],[-70.812313,-34.189064],[-70.812692,-34.188972],[-70.813091,-34.18892],[-70.813459,-34.18891],[-70.813797,-34.188859],[-70.814043,-34.188808],[-70.814196,-34.188746],[-70.81437,-34.188685],[-70.814616,-34.188634],[-70.814954,-34.188542],[-70.81525,-34.188439],[-70.815424,-34.188347],[-70.81563,-34.188276],[-70.81569,-34.188255],[-70.8161,-34.188163],[-70.816417,-34.188061],[-70.816683,-34.187928],[-70.817,-34.187754],[-70.817236,-34.187631],[-70.817399,-34.187539],[-70.817594,-34.187457],[-70.817799,-34.187457],[-70.818014,-34.187549],[-70.818218,-34.18761],[-70.818638,-34.18761],[-70.818976,-34.1876],[-70.819385,-34.18758],[-70.819804,-34.187477],[-70.820132,-34.187396],[-70.820367,-34.187273],[-70.820552,-34.187181],[-70.820726,-34.187129],[-70.820951,-34.187129],[-70.821288,-34.187232],[-70.821524,-34.187344],[-70.821749,-34.187365],[-70.822005,-34.187263],[-70.822353,-34.187222],[-70.822711,-34.18715],[-70.823141,-34.187058],[-70.823571,-34.187027],[-70.823908,-34.187017],[-70.824266,-34.186945],[-70.824584,-34.186874],[-70.824962,-34.186812],[-70.825454,-34.186782],[-70.825597,-34.186777],[-70.825019,-34.190627],[-70.81995,-34.19194],[-70.815514,-34.18905],[-70.810446,-34.190362],[-70.809814,-34.194565],[-70.804746,-34.195877],[-70.80031,-34.192987],[-70.795243,-34.194298],[-70.790808,-34.191408],[-70.78574,-34.192719]]]},"properties":{"comuna":"Olivar","mancha_id":"06111-88b2c1c1a3fffff","clase":"Muy Bajo","nivel_medio":0.303,"nivel_medio_min":0.0,"nivel_medio_max":0.493,"pct_alto":3.7,"n_hexagonos":8,"area_ha":246.42}},{"type":"Feature","geometry":{"type":"Polygon","coordinates":[[[-70.822407,-34.223612],[-70.825033,-34.222932],[-70.827155,-34.224314],[-70.827147,-34.224311],[-70.823242,-34.223587],[-70.822407,-34.223612]]]},"properties":{"comuna":"Olivar","mancha_id":"06111-88b2c1cf2dfffff","clase":"Bajo","nivel_medio":1.159,"nivel_medio_min":1.159,"nivel_medio_max":1.159,"pct_alto":5.3,"n_hexagonos":1,"area_ha":2.23}},{"type":"Feature","geometry":{"type":"Polygon","coordinates":[[[-70.732091,-34.208578],[-70.732161,-34.20853],[-70.734126,-34.209812],[-70.73256,-34.21017],[-70.732377,-34.210381],[-70.732234,-34.210656],[-70.732051,-34.211012],[-70.731909,-34.211307],[-70.731715,-34.211643],[-70.73145,-34.211878],[-70.731155,-34.21201],[-70.73087,-34.212091],[-70.73035,-34.212318],[-70.730324,-34.212229],[-70.730324,-34.212014],[-70.730345,-34.211935],[-70.73039,-34.211848],[-70.730443,-34.211757],[-70.730495,-34.211694],[-70.730539,-34.211617],[-70.73058,-34.21151],[-70.730613,-34.211387],[-70.730663,-34.211245],[-70.730706,-34.211119],[-70.730824,-34.210924],[-70.730969,-34.210724],[-70.731068,-34.210591],[-70.731299,-34.210327],[-70.731465,-34.210112],[-70.731564,-34.20983],[-70.731647,-34.209431],[-70.731743,-34.209226],[-70.73177,-34.209015],[-70.731829,-34.208871],[-70.731975,-34.208687],[-70.732091,-34.208578]]]},"properties":{"comuna":"Olivar","mancha_id":"06111-88b2c1ce01fffff","clase":"Bajo","nivel_medio":0.792,"nivel_medio_min":0.792,"nivel_medio_max":0.792,"pct_alto":15.5,"n_hexagonos":1,"area_ha":4.84}},{"type":"Feature","geometry":{"type":"Polygon","coordinates":[[[-70.770487,-34.18847],[-70.770792,-34.188509],[-70.767841,-34.189272],[-70.767995,-34.189217],[-70.768218,-34.189114],[-70.768553,-34.188968],[-70.76882,-34.188839],[-70.769181,-34.188676],[-70.769464,-34.188607],[-70.769696,-34.18853],[-70.7701,-34.18847],[-70.770487,-34.18847]]]},"properties":{"comuna":"Olivar","mancha_id":"06111-88b2c1c1b9fffff","clase":"Bajo","nivel_medio":0.699,"nivel_medio_min":0.699,"nivel_medio_max":0.699,"pct_alto":23.3,"n_hexagonos":1,"area_ha":0.48}},{"type":"Feature","geometry":{"type":"Polygon","coordinates":[[[-70.769907,-34.200853],[-70.76484,-34.202163],[-70.764207,-34.206364],[-70.768642,-34.209256],[-70.773709,-34.207946],[-70.774341,-34.203744],[-70.779408,-34.202434],[-70.780041,-34.198232],[-70.775606,-34.195341],[-70.776238,-34.191139],[-70.781305,-34.189828],[-70.78574,-34.192719],[-70.790808,-34.191408],[-70.795243,-34.194298],[-70.794611,-34.198501],[-70.799046,-34.201391],[-70.798414,-34.205593],[-70.80285,-34.208484],[-70.807918,-34.207172],[-70.80855,-34.20297],[-70.813618,-34.201658],[-70.81425,-34.197456],[-70.809814,-34.194565],[-70.810446,-34.190362],[-70.815514,-34.18905],[-70.81995,-34.19194],[-70.825019,-34.190627],[-70.825597,-34.186777],[-70.825802,-34.186771],[-70.82619,-34.186792],[-70.826477,-34.186822],[-70.826825,-34.186915],[-70.827091,-34.187089],[-70.827316,-34.187303],[-70.827572,-34.187508],[-70.827951,-34.187744],[-70.828401,-34.187999],[-70.828728,-34.188214],[-70.828943,-34.188409],[-70.82922,-34.188593],[-70.829424,-34.188746],[-70.82967,-34.188869],[-70.829885,-34.18891],[-70.830151,-34.18891],[-70.830427,-34.188941],[-70.830755,-34.189043],[-70.831123,-34.189156],[-70.831492,-34.18936],[-70.83184,-34.189575],[-70.832198,-34.189749],[-70.832505,-34.189934],[-70.832894,-34.190108],[-70.83316,-34.19021],[-70.833334,-34.190322],[-70.833467,-34.190374],[-70.8336,-34.190394],[-70.833835,-34.190404],[-70.834071,-34.190404],[-70.834234,-34.190415],[-70.834357,-34.190486],[-70.834562,-34.19065],[-70.834742,-34.190757],[-70.835043,-34.190936],[-70.83538,-34.1911],[-70.835769,-34.191264],[-70.836076,-34.191438],[-70.836353,-34.191591],[-70.836588,-34.191653],[-70.836772,-34.191725],[-70.836967,-34.191776],[-70.837243,-34.191786],[-70.837652,-34.191878],[-70.83797,-34.191929],[-70.838297,-34.191898],[-70.838614,-34.191837],[-70.838973,-34.191806],[-70.839474,-34.191725],[-70.840078,-34.191643],[-70.840559,-34.191591],[-70.840968,-34.19154],[-70.841193,-34.191561],[-70.84147,-34.191602],[-70.841715,-34.191745],[-70.84194,-34.191929],[-70.842188,-34.192098],[-70.842193,-34.192158],[-70.84222,-34.192206],[-70.842271,-34.192264],[-70.842484,-34.192403],[-70.842761,-34.19256],[-70.843029,-34.192689],[-70.843201,-34.192806],[-70.843343,-34.19295],[-70.843519,-34.193132],[-70.843605,-34.193214],[-70.84368,-34.193289],[-70.843754,-34.193373],[-70.843859,-34.193471],[-70.843942,-34.193577],[-70.844011,-34.193654],[-70.844045,-34.193683],[-70.84403,-34.19378],[-70.844325,-34.193972],[-70.84442,-34.194062],[-70.844576,-34.194188],[-70.844753,-34.194291],[-70.844932,-34.194405],[-70.845126,-34.194519],[-70.845221,-34.194555],[-70.848468,-34.196669],[-70.847836,-34.200872],[-70.852274,-34.203762],[-70.851643,-34.207964],[-70.856081,-34.210853],[-70.858337,-34.210269],[-70.858416,-34.210324],[-70.858604,-34.210427],[-70.858847,-34.210455],[-70.859137,-34.210576],[-70.859352,-34.210642],[-70.85966,-34.210707],[-70.859904,-34.210679],[-70.860137,-34.210679],[-70.860287,-34.210717],[-70.860577,-34.210819],[-70.860802,-34.210922],[-70.861045,-34.211072],[-70.861353,-34.211306],[-70.861559,-34.211493],[-70.861737,-34.211689],[-70.861868,-34.211914],[-70.861943,-34.21212],[-70.861989,-34.212363],[-70.862102,-34.212587],[-70.862242,-34.212774],[-70.86241,-34.212915],[-70.862588,-34.213148],[-70.862784,-34.213354],[-70.862962,-34.213513],[-70.863224,-34.213691],[-70.86342,-34.213831],[-70.863626,-34.213953],[-70.863822,-34.214119],[-70.86391,-34.214206],[-70.863991,-34.214289],[-70.864131,-34.214439],[-70.864318,-34.214668],[-70.86444,-34.21478],[-70.864542,-34.214856],[-70.864646,-34.214897],[-70.864832,-34.214966],[-70.865078,-34.214976],[-70.865211,-34.214949],[-70.865282,-34.214935],[-70.865422,-34.214888],[-70.865665,-34.214804],[-70.86603,-34.214664],[-70.86632,-34.214486],[-70.866498,-34.214336],[-70.866722,-34.214168],[-70.86689,-34.213981],[-70.867021,-34.213887],[-70.867264,-34.213747],[-70.867452,-34.213691],[-70.86773,-34.213671],[-70.868063,-34.213735],[-70.868275,-34.213812],[-70.868462,-34.21385],[-70.868635,-34.21387],[-70.868766,-34.213925],[-70.868873,-34.213981],[-70.869098,-34.214093],[-70.869444,-34.214243],[-70.869687,-34.214299],[-70.86993,-34.214336],[-70.870201,-34.214346],[-70.870416,-34.214383],[-70.870678,-34.21443],[-70.870959,-34.214505],[-70.871258,-34.214636],[-70.871455,-34.214766],[-70.871707,-34.214916],[-70.87196,-34.215],[-70.872212,-34.215075],[-70.872633,-34.21515],[-70.872951,-34.215243],[-70.873194,-34.215374],[-70.873438,-34.215533],[-70.873662,-34.215702],[-70.873999,-34.215898],[-70.874307,-34.216095],[-70.874513,-34.216291],[-70.874727,-34.216482],[-70.874775,-34.216525],[-70.874971,-34.216637],[-70.875168,-34.21674],[-70.875364,-34.216927],[-70.875551,-34.217039],[-70.87571,-34.21718],[-70.875888,-34.217395],[-70.876056,-34.217554],[-70.876281,-34.217722],[-70.87658,-34.217928],[-70.876805,-34.218059],[-70.877038,-34.218199],[-70.877338,-34.218311],[-70.877553,-34.218414],[-70.877646,-34.218517],[-70.877721,-34.218685],[-70.877787,-34.218929],[-70.877796,-34.219144],[-70.877936,-34.219368],[-70.878189,-34.219499],[-70.878385,-34.219555],[-70.878572,-34.219555],[-70.878703,-34.219565],[-70.8789,-34.21963],[-70.879068,-34.219686],[-70.87933,-34.219752],[-70.879685,-34.219789],[-70.8802,-34.21978],[-70.880555,-34.219714],[-70.880873,-34.219658],[-70.88121,-34.219537],[-70.881462,-34.219468],[-70.881681,-34.219422],[-70.881911,-34.219396],[-70.882127,-34.219368],[-70.882388,-34.219331],[-70.882669,-34.219265],[-70.88294,-34.219209],[-70.883202,-34.219172],[-70.883455,-34.219219],[-70.883586,-34.219293],[-70.883707,-34.219368],[-70.883866,-34.219415],[-70.883997,-34.219434],[-70.88403,-34.219434],[-70.884147,-34.219434],[-70.884502,-34.219396],[-70.884783,-34.219359],[-70.88511,-34.219321],[-70.885456,-34.219265],[-70.885756,-34.219265],[-70.886064,-34.219228],[-70.886392,-34.219256],[-70.886551,-34.219312],[-70.886803,-34.219331],[-70.887149,-34.21934],[-70.887458,-34.21934],[-70.887794,-34.219331],[-70.888056,-34.219312],[-70.888328,-34.219256],[-70.888589,-34.21919],[-70.888818,-34.219077],[-70.88914,-34.218931],[-70.889417,-34.218814],[-70.889636,-34.218639],[-70.889797,-34.218478],[-70.889929,-34.218317],[-70.890073,-34.21816],[-70.890179,-34.218078],[-70.890323,-34.218011],[-70.890674,-34.217908],[-70.89101,-34.217821],[-70.891244,-34.217747],[-70.891507,-34.21766],[-70.891708,-34.217613],[-70.891886,-34.217565],[-70.892083,-34.217501],[-70.892235,-34.217446],[-70.892399,-34.217363],[-70.892546,-34.217319],[-70.892667,-34.217303],[-70.892776,-34.217336],[-70.892921,-34.217358],[-70.893144,-34.217366],[-70.893264,-34.217382],[-70.893376,-34.217446],[-70.893512,-34.217485],[-70.893704,-34.217527],[-70.893966,-34.217559],[-70.894057,-34.217563],[-70.894212,-34.21757],[-70.894342,-34.217605],[-70.894589,-34.217605],[-70.89486,-34.217549],[-70.895084,-34.217541],[-70.895315,-34.217557],[-70.895491,-34.217573],[-70.895738,-34.217581],[-70.896025,-34.217636],[-70.896217,-34.217693],[-70.896377,-34.217717],[-70.896592,-34.217749],[-70.896822,-34.217772],[-70.897106,-34.217854],[-70.897326,-34.21794],[-70.897534,-34.21806],[-70.897765,-34.218212],[-70.898359,-34.224127],[-70.897929,-34.224238],[-70.893489,-34.221351],[-70.888418,-34.222666],[-70.887787,-34.226868],[-70.882716,-34.228182],[-70.878276,-34.225295],[-70.873205,-34.226609],[-70.872574,-34.230811],[-70.867503,-34.232124],[-70.863064,-34.229236],[-70.857994,-34.230549],[-70.857647,-34.232854],[-70.857378,-34.232745],[-70.855627,-34.232443],[-70.853574,-34.232161],[-70.84989,-34.231638],[-70.848223,-34.230715],[-70.847817,-34.23049],[-70.846348,-34.229645],[-70.845261,-34.228981],[-70.841839,-34.228236],[-70.839344,-34.228156],[-70.838882,-34.228035],[-70.838977,-34.227398],[-70.844047,-34.226086],[-70.844679,-34.221884],[-70.840241,-34.218995],[-70.835171,-34.220308],[-70.830734,-34.217419],[-70.825665,-34.218731],[-70.821228,-34.215841],[-70.816159,-34.217153],[-70.811722,-34.214264],[-70.806654,-34.215575],[-70.802218,-34.212685],[-70.79715,-34.213996],[-70.792714,-34.211106],[-70.787646,-34.212417],[-70.783211,-34.209526],[-70.778144,-34.210836],[-70.777511,-34.215037],[-70.77326,-34.216136],[-70.77292,-34.21621],[-70.77248,-34.21625],[-70.77227,-34.216234],[-70.768009,-34.213456],[-70.767556,-34.213573],[-70.76738,-34.21289],[-70.76615,-34.21242],[-70.7659,-34.21239],[-70.76464,-34.21245],[-70.76434,-34.21252],[-70.76389,-34.21255],[-70.76343,-34.21266],[-70.76272,-34.21268],[-70.76236,-34.21283],[-70.76215,-34.21302],[-70.76181,-34.21315],[-70.76155,-34.21327],[-70.76131,-34.21333],[-70.76074,-34.21333],[-70.758508,-34.211875],[-70.754781,-34.212838],[-70.7547,-34.2128],[-70.7539,-34.21279],[-70.75365,-34.21273],[-70.75291,-34.21247],[-70.75214,-34.21205],[-70.75153,-34.21176],[-70.75122,-34.211735],[-70.75091,-34.21171],[-70.75067,-34.21162],[-70.75,-34.21149],[-70.75,-34.21149],[-70.74904,-34.21113],[-70.74823,-34.2109],[-70.747578,-34.210662],[-70.749007,-34.210292],[-70.74964,-34.206092],[-70.745207,-34.2032],[-70.745727,-34.199746],[-70.745961,-34.199613],[-70.746146,-34.199497],[-70.74632,-34.199389],[-70.746708,-34.199172],[-70.747204,-34.19897],[-70.747608,-34.198846],[-70.747918,-34.198738],[-70.748337,-34.198691],[-70.748632,-34.19866],[-70.748958,-34.198614],[-70.749361,-34.198489],[-70.749749,-34.198257],[-70.749966,-34.19804],[-70.75,-34.197976],[-70.750032,-34.197915],[-70.750906,-34.19769],[-70.751268,-34.195285],[-70.751297,-34.195209],[-70.751338,-34.195023],[-70.751411,-34.194921],[-70.75153,-34.194855],[-70.751652,-34.194778],[-70.75182,-34.194694],[-70.751966,-34.194583],[-70.75211,-34.194512],[-70.752392,-34.194363],[-70.752757,-34.19418],[-70.75293,-34.194107],[-70.753153,-34.193995],[-70.753343,-34.193927],[-70.753506,-34.193866],[-70.753832,-34.193763],[-70.754142,-34.193686],[-70.754443,-34.193634],[-70.754786,-34.193583],[-70.755259,-34.19348],[-70.755594,-34.193342],[-70.755903,-34.193308],[-70.756178,-34.193308],[-70.75678,-34.193342],[-70.75727,-34.193325],[-70.757717,-34.193316],[-70.758095,-34.193256],[-70.758216,-34.193229],[-70.761038,-34.19507],[-70.766105,-34.19376],[-70.770539,-34.196651],[-70.769907,-34.200853]],[[-70.859257,-34.222146],[-70.863696,-34.225035],[-70.868766,-34.223721],[-70.869397,-34.219519],[-70.864958,-34.21663],[-70.859888,-34.217944],[-70.859257,-34.222146]]]},"properties":{"comuna":"Olivar","mancha_id":"06111-88b2c1c1b3fffff","clase":"Bajo","nivel_medio":1.097,"nivel_medio_min":0.513,"nivel_medio_max":1.484,"pct_alto":8.0,"n_hexagonos":48,"area_ha":2629.08}},{"type":"Feature","geometry":{"type":"Polygon","coordinates":[[[-70.754781,-34.212838],[-70.758508,-34.211875],[-70.76074,-34.21333],[-70.7602,-34.21333],[-70.75964,-34.21339],[-70.75935,-34.21331],[-70.75871,-34.21324],[-70.75775,-34.21321],[-70.75686,-34.21324],[-70.75591,-34.21324],[-70.75537,-34.21311],[-70.754781,-34.212838]]]},"properties":{"comuna":"Olivar","mancha_id":"06111-88b2c1ce2dfffff","clase":"Medio","nivel_medio":1.508,"nivel_medio_min":1.508,"nivel_medio_max":1.508,"pct_alto":40.0,"n_hexagonos":1,"area_ha":4.77}},{"type":"Feature","geometry":{"type":"Polygon","coordinates":[[[-70.738315,-34.20333],[-70.738325,-34.203324],[-70.738796,-34.203066],[-70.739184,-34.202833],[-70.739649,-34.202585],[-70.740006,-34.202414],[-70.740285,-34.202275],[-70.740496,-34.202206],[-70.740722,-34.202151],[-70.740906,-34.202058],[-70.741199,-34.201885],[-70.741329,-34.201735],[-70.741431,-34.201578],[-70.741511,-34.201421],[-70.741697,-34.201189],[-70.741914,-34.200956],[-70.742163,-34.200847],[-70.742519,-34.200754],[-70.743171,-34.200739],[-70.743497,-34.20077],[-70.743683,-34.20077],[-70.743881,-34.200739],[-70.744078,-34.200664],[-70.744256,-34.200575],[-70.744454,-34.200473],[-70.744658,-34.20033],[-70.744808,-34.200227],[-70.745027,-34.200139],[-70.745231,-34.200023],[-70.745451,-34.199917],[-70.7457,-34.199762],[-70.745727,-34.199746],[-70.745207,-34.2032],[-70.74964,-34.206092],[-70.749007,-34.210292],[-70.747578,-34.210662],[-70.74604,-34.2101],[-70.74387,-34.209],[-70.74287,-34.20875],[-70.74189,-34.20876],[-70.7409,-34.20859],[-70.74013,-34.20856],[-70.739525,-34.208594],[-70.73942,-34.2086],[-70.735601,-34.209475],[-70.734126,-34.209812],[-70.732161,-34.20853],[-70.732242,-34.208474],[-70.732573,-34.208359],[-70.732854,-34.208292],[-70.733168,-34.208144],[-70.733416,-34.207945],[-70.733648,-34.207697],[-70.733762,-34.207582],[-70.733872,-34.207377],[-70.733947,-34.207248],[-70.734029,-34.207145],[-70.734131,-34.207036],[-70.734259,-34.206951],[-70.734482,-34.206728],[-70.734641,-34.206442],[-70.734919,-34.206132],[-70.735141,-34.205942],[-70.735367,-34.20561],[-70.735585,-34.205315],[-70.735833,-34.205052],[-70.736097,-34.204819],[-70.736469,-34.204586],[-70.736795,-34.204338],[-70.737229,-34.204059],[-70.737632,-34.203718],[-70.737943,-34.203531],[-70.738315,-34.20333]]]},"properties":{"comuna":"Olivar","mancha_id":"06111-88b2c1ce0dfffff","clase":"Medio","nivel_medio":1.581,"nivel_medio_min":1.547,"nivel_medio_max":1.637,"pct_alto":36.7,"n_hexagonos":3,"area_ha":97.82}},{"type":"Feature","geometry":{"type":"Polygon","coordinates":[[[-70.813618,-34.201658],[-70.80855,-34.20297],[-70.807918,-34.207172],[-70.80285,-34.208484],[-70.798414,-34.205593],[-70.799046,-34.201391],[-70.794611,-34.198501],[-70.795243,-34.194298],[-70.80031,-34.192987],[-70.804746,-34.195877],[-70.809814,-34.194565],[-70.81425,-34.197456],[-70.813618,-34.201658]]]},"properties":{"comuna":"Olivar","mancha_id":"06111-88b2c1ca93fffff","clase":"Medio","nivel_medio":1.557,"nivel_medio_min":1.506,"nivel_medio_max":1.656,"pct_alto":16.0,"n_hexagonos":3,"area_ha":188.33}},{"type":"Feature","geometry":{"type":"Polygon","coordinates":[[[-70.838977,-34.227398],[-70.83454,-34.224509],[-70.830977,-34.225431],[-70.829381,-34.224975],[-70.827155,-34.224314],[-70.825033,-34.222932],[-70.822407,-34.223612],[-70.819901,-34.223687],[-70.819123,-34.223697],[-70.81823,-34.223707],[-70.816459,-34.223828],[-70.814044,-34.223929],[-70.81193,-34.222963],[-70.811181,-34.222479],[-70.81034,-34.221936],[-70.808145,-34.221159],[-70.8071,-34.220789],[-70.804866,-34.220145],[-70.804596,-34.220145],[-70.802954,-34.220145],[-70.801987,-34.220467],[-70.801584,-34.220924],[-70.801082,-34.221493],[-70.800874,-34.221618],[-70.800377,-34.221916],[-70.79762,-34.221312],[-70.794983,-34.220487],[-70.791803,-34.219883],[-70.791399,-34.21984],[-70.789005,-34.219581],[-70.788281,-34.219501],[-70.786006,-34.2193],[-70.783712,-34.218897],[-70.78253,-34.21873],[-70.782431,-34.218646],[-70.781906,-34.218196],[-70.78149,-34.21784],[-70.78101,-34.217318],[-70.7807,-34.21698],[-70.77989,-34.21631],[-70.77903,-34.21573],[-70.77858,-34.21548],[-70.77806,-34.2153],[-70.777896,-34.215288],[-70.77764,-34.21527],[-70.77623,-34.21558],[-70.77407,-34.21596],[-70.77326,-34.216136],[-70.777511,-34.215037],[-70.778144,-34.210836],[-70.783211,-34.209526],[-70.787646,-34.212417],[-70.792714,-34.211106],[-70.79715,-34.213996],[-70.802218,-34.212685],[-70.806654,-34.215575],[-70.811722,-34.214264],[-70.816159,-34.217153],[-70.821228,-34.215841],[-70.825665,-34.218731],[-70.830734,-34.217419],[-70.835171,-34.220308],[-70.840241,-34.218995],[-70.844679,-34.221884],[-70.844047,-34.226086],[-70.838977,-34.227398]]]},"properties":{"comuna":"Olivar","mancha_id":"06111-88b2c1c8d1fffff","clase":"Medio","nivel_medio":1.775,"nivel_medio_min":1.528,"nivel_medio_max":2.445,"pct_alto":30.0,"n_hexagonos":12,"area_ha":480.01}},{"type":"Feature","geometry":{"type":"Polygon","coordinates":[[[-70.859257,-34.222146],[-70.859888,-34.217944],[-70.864958,-34.21663],[-70.869397,-34.219519],[-70.868766,-34.223721],[-70.863696,-34.225035],[-70.859257,-34.222146]]]},"properties":{"comuna":"Olivar","mancha_id":"06111-88b2c1c8c7fffff","clase":"Medio","nivel_medio":1.815,"nivel_medio_min":1.815,"nivel_medio_max":1.815,"pct_alto":24.9,"n_hexagonos":1,"area_ha":62.79}},{"type":"Feature","geometry":{"type":"Polygon","coordinates":[[[-70.863064,-34.229236],[-70.867503,-34.232124],[-70.872574,-34.230811],[-70.873205,-34.226609],[-70.878276,-34.225295],[-70.882716,-34.228182],[-70.887787,-34.226868],[-70.888418,-34.222666],[-70.893489,-34.221351],[-70.897929,-34.224238],[-70.897298,-34.228441],[-70.898929,-34.229501],[-70.899221,-34.231984],[-70.899324,-34.232768],[-70.899335,-34.232852],[-70.899346,-34.232933],[-70.899376,-34.233165],[-70.899389,-34.233233],[-70.899437,-34.233483],[-70.899465,-34.23368],[-70.899479,-34.233781],[-70.899512,-34.234011],[-70.899588,-34.234699],[-70.899642,-34.235186],[-70.899677,-34.235439],[-70.899735,-34.235851],[-70.899744,-34.235883],[-70.896036,-34.236844],[-70.895621,-34.239608],[-70.89528,-34.239896],[-70.895006,-34.240188],[-70.894852,-34.240428],[-70.894715,-34.240668],[-70.894338,-34.240873],[-70.89355,-34.24113],[-70.892847,-34.241439],[-70.89247,-34.241713],[-70.892212,-34.241873],[-70.891051,-34.242174],[-70.89103,-34.242176],[-70.890516,-34.242261],[-70.890303,-34.24234],[-70.885893,-34.239473],[-70.880822,-34.240787],[-70.876382,-34.237899],[-70.873633,-34.238612],[-70.873577,-34.238517],[-70.873298,-34.238331],[-70.872864,-34.238207],[-70.872089,-34.2383],[-70.871345,-34.238424],[-70.870416,-34.238455],[-70.86978,-34.238217],[-70.869424,-34.238083],[-70.869276,-34.237889],[-70.86837,-34.2367],[-70.86804,-34.23642],[-70.8679,-34.23628],[-70.86775,-34.23619],[-70.86744,-34.23614],[-70.866908,-34.236085],[-70.8657,-34.23596],[-70.86519,-34.23584],[-70.86486,-34.23567],[-70.86449,-34.23545],[-70.86417,-34.23534],[-70.8637,-34.23511],[-70.86355,-34.235],[-70.86318,-34.23489],[-70.86297,-34.23478],[-70.86263,-34.23481],[-70.86235,-34.23485],[-70.86211,-34.23471],[-70.86197,-34.23456],[-70.86185,-34.23434],[-70.86139,-34.23418],[-70.861288,-34.234174],[-70.859914,-34.233771],[-70.857647,-34.232854],[-70.857994,-34.230549],[-70.863064,-34.229236]]]},"properties":{"comuna":"Olivar","mancha_id":"06111-88b2c1c881fffff","clase":"Medio","nivel_medio":1.685,"nivel_medio_min":1.509,"nivel_medio_max":2.001,"pct_alto":22.8,"n_hexagonos":9,"area_ha":466.5}},{"type":"Feature","geometry":{"type":"Polygon","coordinates":[[[-70.769907,-34.200853],[-70.770539,-34.196651],[-70.775606,-34.195341],[-70.780041,-34.198232],[-70.779408,-34.202434],[-70.774341,-34.203744],[-70.773709,-34.207946],[-70.768642,-34.209256],[-70.764207,-34.206364],[-70.76484,-34.202163],[-70.769907,-34.200853]]]},"properties":{"comuna":"Olivar","mancha_id":"06111-88b2c1c1b7fffff","clase":"Medio","nivel_medio":1.769,"nivel_medio_min":1.745,"nivel_medio_max":1.793,"pct_alto":26.2,"n_hexagonos":2,"area_ha":125.5}},{"type":"Feature","geometry":{"type":"Polygon","coordinates":[[[-70.897298,-34.228441],[-70.897929,-34.224238],[-70.898359,-34.224127],[-70.89871,-34.22763],[-70.898929,-34.229501],[-70.897298,-34.228441]]]},"properties":{"comuna":"Olivar","mancha_id":"06111-88b2c1c9d9fffff","clase":"Alto","nivel_medio":2.663,"nivel_medio_min":2.663,"nivel_medio_max":2.663,"pct_alto":43.7,"n_hexagonos":1,"area_ha":5.0}},{"type":"Feature","geometry":{"type":"Polygon","coordinates":[[[-70.895621,-34.239608],[-70.896036,-34.236844],[-70.899744,-34.235883],[-70.899767,-34.235968],[-70.899815,-34.236074],[-70.899857,-34.236136],[-70.89988,-34.23617],[-70.899996,-34.236287],[-70.900121,-34.236386],[-70.900271,-34.236478],[-70.900393,-34.236554],[-70.900557,-34.236676],[-70.900573,-34.236691],[-70.900672,-34.236784],[-70.900776,-34.236919],[-70.900866,-34.237117],[-70.90095,-34.237333],[-70.90104,-34.237542],[-70.901172,-34.237729],[-70.901301,-34.237848],[-70.901243,-34.237849],[-70.900925,-34.237854],[-70.900519,-34.237837],[-70.900372,-34.237831],[-70.90025,-34.237826],[-70.900178,-34.237823],[-70.899879,-34.237805],[-70.899851,-34.237803],[-70.899845,-34.237803],[-70.899291,-34.237768],[-70.898159,-34.238217],[-70.89806,-34.238278],[-70.898051,-34.238283],[-70.897851,-34.238406],[-70.89744,-34.238714],[-70.896874,-34.239057],[-70.89612,-34.239365],[-70.895726,-34.239519],[-70.895621,-34.239608]]]},"properties":{"comuna":"Olivar","mancha_id":"06111-88b2c1c9d3fffff","clase":"Alto","nivel_medio":2.634,"nivel_medio_min":2.634,"nivel_medio_max":2.634,"pct_alto":73.5,"n_hexagonos":1,"area_ha":10.16}},{"type":"Feature","geometry":{"type":"Polygon","coordinates":[[[-70.83454,-34.224509],[-70.838977,-34.227398],[-70.838882,-34.228035],[-70.836647,-34.227451],[-70.835419,-34.227028],[-70.832621,-34.225901],[-70.830977,-34.225431],[-70.83454,-34.224509]]]},"properties":{"comuna":"Olivar","mancha_id":"06111-88b2c1c8d3fffff","clase":"Alto","nivel_medio":2.666,"nivel_medio_min":2.666,"nivel_medio_max":2.666,"pct_alto":62.9,"n_hexagonos":1,"area_ha":10.43}},{"type":"Feature","geometry":{"type":"Polygon","coordinates":[[[-70.891476,-34.242141],[-70.891051,-34.242174],[-70.892212,-34.241873],[-70.891973,-34.242021],[-70.891476,-34.242141]]]},"properties":{"comuna":"Olivar","mancha_id":"06111-88b2c1c8a5fffff","clase":"Alto","nivel_medio":2.873,"nivel_medio_min":2.873,"nivel_medio_max":2.873,"pct_alto":87.3,"n_hexagonos":1,"area_ha":0.07}},{"type":"Feature","geometry":{"type":"Polygon","coordinates":[[[-70.880822,-34.240787],[-70.885893,-34.239473],[-70.890303,-34.24234],[-70.890054,-34.242433],[-70.889694,-34.242638],[-70.889265,-34.242775],[-70.888677,-34.24275],[-70.888061,-34.242643],[-70.887312,-34.242482],[-70.886508,-34.242375],[-70.885759,-34.242428],[-70.885143,-34.242616],[-70.884607,-34.242964],[-70.884179,-34.242937],[-70.883858,-34.242777],[-70.88351,-34.242991],[-70.883108,-34.243071],[-70.882844,-34.243165],[-70.882546,-34.243245],[-70.882358,-34.243266],[-70.882147,-34.243259],[-70.881813,-34.243172],[-70.881494,-34.243056],[-70.881204,-34.24294],[-70.880914,-34.242816],[-70.880698,-34.242696],[-70.880553,-34.242575],[-70.88034,-34.242396],[-70.880152,-34.24225],[-70.879895,-34.242187],[-70.879738,-34.2422],[-70.879493,-34.242268],[-70.878984,-34.242402],[-70.878476,-34.242482],[-70.877833,-34.242562],[-70.877137,-34.242402],[-70.876655,-34.242107],[-70.87636,-34.241839],[-70.875985,-34.24117],[-70.875503,-34.240608],[-70.875102,-34.24026],[-70.874513,-34.239831],[-70.874138,-34.239456],[-70.873633,-34.238612],[-70.876382,-34.237899],[-70.880822,-34.240787]]]},"properties":{"comuna":"Olivar","mancha_id":"06111-88b2c1c8a1fffff","clase":"Alto","nivel_medio":2.953,"nivel_medio_min":2.953,"nivel_medio_max":2.954,"pct_alto":95.3,"n_hexagonos":2,"area_ha":41.29}}],"bbox":[-70.90131,-34.24327,-70.73032,-34.18677]}