{"type":"FeatureCollection","features":[{"type":"Feature","geometry":{"type":"Polygon","coordinates":[[[-71.021458,-34.603207],[-71.016375,-34.604513],[-71.013891,-34.602911],[-71.014319,-34.602803],[-71.014935,-34.602685],[-71.015669,-34.602685],[-71.016213,-34.602709],[-71.016806,-34.602969],[-71.017303,-34.60304],[-71.017705,-34.602851],[-71.017895,-34.602638],[-71.018558,-34.602496],[-71.01915,-34.60259],[-71.020003,-34.602519],[-71.020547,-34.602211],[-71.021352,-34.601761],[-71.021704,-34.601573],[-71.021458,-34.603207]]]},"properties":{"comuna":"Placilla","mancha_id":"06308-88b2c14d45fffff","clase":"Muy Bajo","nivel_medio":0.361,"nivel_medio_min":0.361,"nivel_medio_max":0.361,"pct_alto":0.0,"n_hexagonos":1,"area_ha":9.5}},{"type":"Feature","geometry":{"type":"Polygon","coordinates":[[[-71.042421,-34.5938],[-71.037338,-34.595108],[-71.037271,-34.595065],[-71.037882,-34.594918],[-71.0389,-34.594468],[-71.039611,-34.594207],[-71.040534,-34.594065],[-71.041387,-34.593662],[-71.042121,-34.593165],[-71.042592,-34.592666],[-71.042421,-34.5938]]]},"properties":{"comuna":"Placilla","mancha_id":"06308-88b2c14895fffff","clase":"Muy Bajo","nivel_medio":0.358,"nivel_medio_min":0.358,"nivel_medio_max":0.358,"pct_alto":0.0,"n_hexagonos":1,"area_ha":1.66}},{"type":"Feature","geometry":{"type":"Polygon","coordinates":[[[-71.086386,-34.65881],[-71.087016,-34.654633],[-71.092102,-34.653325],[-71.096559,-34.656195],[-71.095929,-34.660372],[-71.090843,-34.661679],[-71.086386,-34.65881]]]},"properties":{"comuna":"Placilla","mancha_id":"06308-88b2c3b04bfffff","clase":"Bajo","nivel_medio":1.191,"nivel_medio_min":1.191,"nivel_medio_max":1.191,"pct_alto":7.3,"n_hexagonos":1,"area_ha":62.3}},{"type":"Feature","geometry":{"type":"Polygon","coordinates":[[[-71.099757,-34.667417],[-71.100386,-34.663241],[-71.105473,-34.661933],[-71.109931,-34.664802],[-71.109301,-34.668979],[-71.104214,-34.670286],[-71.099757,-34.667417]]]},"properties":{"comuna":"Placilla","mancha_id":"06308-88b2c3b047fffff","clase":"Bajo","nivel_medio":1.266,"nivel_medio_min":1.266,"nivel_medio_max":1.266,"pct_alto":11.3,"n_hexagonos":1,"area_ha":62.3}},{"type":"Feature","geometry":{"type":"Polygon","coordinates":[[[-71.016375,-34.604513],[-71.015744,-34.608692],[-71.010739,-34.609978],[-71.010477,-34.609313],[-71.010077,-34.608433],[-71.00941,-34.607979],[-71.008849,-34.607279],[-71.009251,-34.607113],[-71.00963,-34.606782],[-71.009867,-34.606285],[-71.009962,-34.605858],[-71.010127,-34.605385],[-71.010293,-34.605148],[-71.010767,-34.604816],[-71.011264,-34.604509],[-71.011667,-34.604224],[-71.01214,-34.604011],[-71.012756,-34.603656],[-71.013182,-34.603324],[-71.013319,-34.603137],[-71.013514,-34.603017],[-71.013845,-34.602922],[-71.013891,-34.602911],[-71.016375,-34.604513]]]},"properties":{"comuna":"Placilla","mancha_id":"06308-88b2c14d47fffff","clase":"Bajo","nivel_medio":1.027,"nivel_medio_min":1.027,"nivel_medio_max":1.027,"pct_alto":18.2,"n_hexagonos":1,"area_ha":34.24}},{"type":"Feature","geometry":{"type":"Polygon","coordinates":[[[-71.120628,-34.593756],[-71.121257,-34.589574],[-71.126343,-34.588262],[-71.126972,-34.58408],[-71.132058,-34.582768],[-71.136515,-34.585639],[-71.135886,-34.589821],[-71.140343,-34.592691],[-71.139715,-34.596873],[-71.134628,-34.598185],[-71.130171,-34.595315],[-71.125085,-34.596626],[-71.120628,-34.593756]]]},"properties":{"comuna":"Placilla","mancha_id":"06308-88b2c14985fffff","clase":"Bajo","nivel_medio":1.374,"nivel_medio_min":1.245,"nivel_medio_max":1.452,"pct_alto":4.3,"n_hexagonos":3,"area_ha":187.27}},{"type":"Feature","geometry":{"type":"Polygon","coordinates":[[[-71.053848,-34.582823],[-71.054478,-34.578641],[-71.059562,-34.577333],[-71.064015,-34.580205],[-71.063386,-34.584387],[-71.06784,-34.587259],[-71.06721,-34.59144],[-71.071665,-34.594312],[-71.071035,-34.598493],[-71.07549,-34.601364],[-71.07486,-34.605544],[-71.069776,-34.606853],[-71.069146,-34.611033],[-71.073601,-34.613904],[-71.078686,-34.612596],[-71.079315,-34.608416],[-71.0844,-34.607107],[-71.088856,-34.609978],[-71.088226,-34.614158],[-71.092682,-34.617029],[-71.092053,-34.621208],[-71.096509,-34.624078],[-71.101595,-34.622769],[-71.106051,-34.62564],[-71.111137,-34.62433],[-71.111767,-34.620151],[-71.10731,-34.61728],[-71.107939,-34.6131],[-71.113025,-34.611791],[-71.113654,-34.60761],[-71.11874,-34.6063],[-71.11937,-34.602119],[-71.124456,-34.600808],[-71.128913,-34.603678],[-71.133999,-34.602367],[-71.138457,-34.605237],[-71.137828,-34.609418],[-71.142286,-34.612287],[-71.141657,-34.616468],[-71.146115,-34.619337],[-71.151202,-34.618026],[-71.153517,-34.619515],[-71.153383,-34.619894],[-71.1528,-34.62109],[-71.152524,-34.621611],[-71.152064,-34.62247],[-71.152125,-34.623022],[-71.151794,-34.624404],[-71.151378,-34.626017],[-71.150969,-34.627603],[-71.150851,-34.628427],[-71.150714,-34.629291],[-71.15055,-34.6296],[-71.14999,-34.63054],[-71.149808,-34.630883],[-71.149316,-34.630567],[-71.144229,-34.631877],[-71.13977,-34.629008],[-71.140399,-34.624829],[-71.135941,-34.621959],[-71.13657,-34.617779],[-71.132112,-34.61491],[-71.127026,-34.61622],[-71.122568,-34.61335],[-71.117482,-34.614661],[-71.116853,-34.618841],[-71.12131,-34.621711],[-71.126397,-34.6204],[-71.130854,-34.62327],[-71.130225,-34.62745],[-71.134683,-34.630319],[-71.134054,-34.634498],[-71.138512,-34.637367],[-71.137883,-34.641546],[-71.142342,-34.644415],[-71.141959,-34.646961],[-71.14192,-34.64705],[-71.14158,-34.6478],[-71.141145,-34.64874],[-71.136625,-34.649903],[-71.135996,-34.654081],[-71.130909,-34.655391],[-71.126451,-34.652522],[-71.121363,-34.653831],[-71.116906,-34.650962],[-71.117535,-34.646784],[-71.113077,-34.643915],[-71.113707,-34.639737],[-71.109249,-34.636867],[-71.104163,-34.638176],[-71.103534,-34.642354],[-71.098447,-34.643663],[-71.093991,-34.640793],[-71.09462,-34.636615],[-71.099706,-34.635306],[-71.100336,-34.631128],[-71.095879,-34.628258],[-71.090794,-34.629566],[-71.090164,-34.633745],[-71.085078,-34.635053],[-71.084449,-34.639231],[-71.079363,-34.640538],[-71.074907,-34.637668],[-71.075537,-34.63349],[-71.080622,-34.632182],[-71.081252,-34.628004],[-71.076797,-34.625133],[-71.071711,-34.626441],[-71.067256,-34.62357],[-71.062172,-34.624877],[-71.057717,-34.622006],[-71.052632,-34.623313],[-71.052002,-34.627491],[-71.056457,-34.630362],[-71.061542,-34.629055],[-71.065997,-34.631926],[-71.065367,-34.636104],[-71.060282,-34.637411],[-71.059652,-34.641589],[-71.064107,-34.644459],[-71.063477,-34.648636],[-71.067932,-34.651507],[-71.067302,-34.655683],[-71.062217,-34.656989],[-71.057762,-34.654119],[-71.058392,-34.649943],[-71.053937,-34.647072],[-71.054567,-34.642895],[-71.050112,-34.640024],[-71.045027,-34.64133],[-71.040573,-34.638459],[-71.035489,-34.639764],[-71.031035,-34.636893],[-71.031665,-34.632715],[-71.036749,-34.63141],[-71.03738,-34.627232],[-71.042464,-34.625926],[-71.043094,-34.621748],[-71.048178,-34.620441],[-71.048808,-34.616263],[-71.053892,-34.614956],[-71.054522,-34.610776],[-71.050068,-34.607904],[-71.044984,-34.609212],[-71.044354,-34.613391],[-71.03927,-34.614697],[-71.03864,-34.618876],[-71.033556,-34.620182],[-71.029103,-34.61731],[-71.029733,-34.613132],[-71.02528,-34.610259],[-71.02591,-34.60608],[-71.030994,-34.604774],[-71.031624,-34.600594],[-71.028184,-34.598375],[-71.028528,-34.598186],[-71.029096,-34.597949],[-71.02957,-34.597641],[-71.029878,-34.597333],[-71.030304,-34.597144],[-71.030872,-34.597049],[-71.031204,-34.597144],[-71.031843,-34.597191],[-71.032672,-34.597167],[-71.033217,-34.596978],[-71.033525,-34.596646],[-71.033834,-34.596301],[-71.034131,-34.596109],[-71.034495,-34.596007],[-71.035182,-34.595604],[-71.035751,-34.595344],[-71.036177,-34.595249],[-71.036674,-34.595202],[-71.037195,-34.595083],[-71.037271,-34.595065],[-71.037338,-34.595108],[-71.042421,-34.5938],[-71.042592,-34.592666],[-71.042902,-34.592336],[-71.043565,-34.591768],[-71.044157,-34.591673],[-71.044749,-34.591579],[-71.045536,-34.591286],[-71.046091,-34.591286],[-71.046424,-34.590694],[-71.046498,-34.589769],[-71.04638,-34.588763],[-71.048135,-34.588312],[-71.048764,-34.584131],[-71.053848,-34.582823]],[[-71.132167,-34.647035],[-71.132796,-34.642856],[-71.128338,-34.639987],[-71.128967,-34.635808],[-71.124509,-34.632939],[-71.119423,-34.634249],[-71.118793,-34.638428],[-71.123251,-34.641297],[-71.122622,-34.645475],[-71.12708,-34.648344],[-71.132167,-34.647035]]]},"properties":{"comuna":"Placilla","mancha_id":"06308-88b2c14885fffff","clase":"Bajo","nivel_medio":1.303,"nivel_medio_min":0.511,"nivel_medio_max":1.493,"pct_alto":8.2,"n_hexagonos":63,"area_ha":3809.55}},{"type":"Feature","geometry":{"type":"Polygon","coordinates":[[[-71.090066,-34.569474],[-71.090695,-34.565291],[-71.09578,-34.56398],[-71.100235,-34.566852],[-71.099606,-34.571035],[-71.104061,-34.573907],[-71.109146,-34.572595],[-71.113602,-34.575467],[-71.112973,-34.57965],[-71.117429,-34.582521],[-71.1168,-34.586703],[-71.111715,-34.588014],[-71.107259,-34.585143],[-71.102173,-34.586454],[-71.097718,-34.583582],[-71.098347,-34.5794],[-71.093892,-34.576528],[-71.088807,-34.577839],[-71.084352,-34.574967],[-71.079268,-34.576277],[-71.078638,-34.580459],[-71.073554,-34.581768],[-71.069099,-34.578896],[-71.069729,-34.574714],[-71.074813,-34.573405],[-71.075443,-34.569222],[-71.070988,-34.566349],[-71.065905,-34.567659],[-71.061451,-34.564786],[-71.062081,-34.560604],[-71.067164,-34.559294],[-71.071618,-34.562167],[-71.076702,-34.560856],[-71.081156,-34.563729],[-71.080527,-34.567912],[-71.084981,-34.570784],[-71.090066,-34.569474]]]},"properties":{"comuna":"Placilla","mancha_id":"06308-88b2c14837fffff","clase":"Bajo","nivel_medio":1.353,"nivel_medio_min":1.187,"nivel_medio_max":1.474,"pct_alto":3.8,"n_hexagonos":10,"area_ha":624.22}},{"type":"Feature","geometry":{"type":"Polygon","coordinates":[[[-71.122622,-34.645475],[-71.123251,-34.641297],[-71.118793,-34.638428],[-71.119423,-34.634249],[-71.124509,-34.632939],[-71.128967,-34.635808],[-71.128338,-34.639987],[-71.132796,-34.642856],[-71.132167,-34.647035],[-71.12708,-34.648344],[-71.122622,-34.645475]]]},"properties":{"comuna":"Placilla","mancha_id":"06308-88b2c3b31dfffff","clase":"Medio","nivel_medio":1.82,"nivel_medio_min":1.658,"nivel_medio_max":1.983,"pct_alto":36.6,"n_hexagonos":2,"area_ha":124.69}},{"type":"Feature","geometry":{"type":"Polygon","coordinates":[[[-71.06205,-34.675207],[-71.064153,-34.676562],[-71.069239,-34.675256],[-71.072167,-34.677142],[-71.071901,-34.67718],[-71.070317,-34.677472],[-71.067982,-34.677805],[-71.066315,-34.677763],[-71.064981,-34.67768],[-71.06398,-34.677703],[-71.063147,-34.677722],[-71.062022,-34.67768],[-71.061855,-34.676888],[-71.061939,-34.67618],[-71.06205,-34.675207]]]},"properties":{"comuna":"Placilla","mancha_id":"06308-88b2c3b2a1fffff","clase":"Medio","nivel_medio":2.343,"nivel_medio_min":2.158,"nivel_medio_max":2.4,"pct_alto":35.2,"n_hexagonos":2,"area_ha":17.15}},{"type":"Feature","geometry":{"type":"Polygon","coordinates":[[[-71.105473,-34.661933],[-71.106103,-34.657756],[-71.101645,-34.654887],[-71.096559,-34.656195],[-71.092102,-34.653325],[-71.087016,-34.654633],[-71.086386,-34.65881],[-71.0813,-34.660117],[-71.076844,-34.657247],[-71.071758,-34.658553],[-71.067302,-34.655683],[-71.067932,-34.651507],[-71.063477,-34.648636],[-71.064107,-34.644459],[-71.059652,-34.641589],[-71.060282,-34.637411],[-71.065367,-34.636104],[-71.065997,-34.631926],[-71.061542,-34.629055],[-71.056457,-34.630362],[-71.052002,-34.627491],[-71.052632,-34.623313],[-71.057717,-34.622006],[-71.062172,-34.624877],[-71.067256,-34.62357],[-71.071711,-34.626441],[-71.076797,-34.625133],[-71.081252,-34.628004],[-71.080622,-34.632182],[-71.075537,-34.63349],[-71.074907,-34.637668],[-71.079363,-34.640538],[-71.084449,-34.639231],[-71.085078,-34.635053],[-71.090164,-34.633745],[-71.090794,-34.629566],[-71.095879,-34.628258],[-71.100336,-34.631128],[-71.099706,-34.635306],[-71.09462,-34.636615],[-71.093991,-34.640793],[-71.098447,-34.643663],[-71.103534,-34.642354],[-71.104163,-34.638176],[-71.109249,-34.636867],[-71.113707,-34.639737],[-71.113077,-34.643915],[-71.117535,-34.646784],[-71.116906,-34.650962],[-71.121363,-34.653831],[-71.126451,-34.652522],[-71.130909,-34.655391],[-71.135996,-34.654081],[-71.136625,-34.649903],[-71.141145,-34.64874],[-71.140981,-34.649094],[-71.14059,-34.64994],[-71.1404,-34.65035],[-71.1404,-34.65053],[-71.14041,-34.65112],[-71.1404,-34.65153],[-71.14037,-34.65206],[-71.14035,-34.65227],[-71.14028,-34.65298],[-71.14014,-34.65331],[-71.140112,-34.65373],[-71.140127,-34.654169],[-71.140127,-34.654442],[-71.140141,-34.654638],[-71.140185,-34.654823],[-71.140268,-34.655272],[-71.140249,-34.655447],[-71.140249,-34.655564],[-71.140259,-34.655681],[-71.140259,-34.655984],[-71.140249,-34.656198],[-71.140215,-34.656359],[-71.140307,-34.656506],[-71.14046,-34.65684],[-71.140522,-34.656932],[-71.14069,-34.65718],[-71.14083,-34.65733],[-71.14099,-34.65747],[-71.1411,-34.65763],[-71.14125,-34.6578],[-71.14141,-34.65792],[-71.14152,-34.65809],[-71.1416,-34.65826],[-71.14178,-34.65837],[-71.142,-34.65839],[-71.14223,-34.65843],[-71.14246,-34.65843],[-71.14274,-34.65844],[-71.14296,-34.6585],[-71.14319,-34.65854],[-71.1435,-34.65872],[-71.143373,-34.658949],[-71.14313,-34.659],[-71.14267,-34.659204],[-71.142196,-34.659473],[-71.141851,-34.659754],[-71.141557,-34.660023],[-71.14125,-34.660253],[-71.141019,-34.660407],[-71.140764,-34.660458],[-71.140508,-34.660368],[-71.140278,-34.660317],[-71.140124,-34.660356],[-71.139971,-34.660573],[-71.139887,-34.660722],[-71.139855,-34.660778],[-71.139766,-34.661021],[-71.139701,-34.66116],[-71.138921,-34.66136],[-71.138589,-34.661238],[-71.138386,-34.66119],[-71.138369,-34.661173],[-71.138252,-34.661456],[-71.138217,-34.661541],[-71.134738,-34.662437],[-71.134109,-34.666614],[-71.129021,-34.667923],[-71.128392,-34.672099],[-71.123305,-34.673408],[-71.118846,-34.670539],[-71.113759,-34.671847],[-71.109301,-34.668979],[-71.109931,-34.664802],[-71.105473,-34.661933]]]},"properties":{"comuna":"Placilla","mancha_id":"06308-88b2c3b045fffff","clase":"Medio","nivel_medio":1.969,"nivel_medio_min":1.5,"nivel_medio_max":2.491,"pct_alto":27.1,"n_hexagonos":30,"area_ha":1775.8}},{"type":"Feature","geometry":{"type":"Polygon","coordinates":[[[-71.090213,-34.665855],[-71.090843,-34.661679],[-71.095929,-34.660372],[-71.100386,-34.663241],[-71.099757,-34.667417],[-71.09467,-34.668725],[-71.090213,-34.665855]]]},"properties":{"comuna":"Placilla","mancha_id":"06308-88b2c3b043fffff","clase":"Medio","nivel_medio":2.146,"nivel_medio_min":2.146,"nivel_medio_max":2.146,"pct_alto":50.3,"n_hexagonos":1,"area_ha":62.29}},{"type":"Feature","geometry":{"type":"Polygon","coordinates":[[[-71.126959,-34.681609],[-71.127134,-34.680452],[-71.130747,-34.679523],[-71.130476,-34.680109],[-71.130049,-34.680679],[-71.129657,-34.681],[-71.128944,-34.681142],[-71.127733,-34.681392],[-71.126959,-34.681609]]]},"properties":{"comuna":"Placilla","mancha_id":"06308-88b2c3b02dfffff","clase":"Medio","nivel_medio":1.966,"nivel_medio_min":1.966,"nivel_medio_max":1.966,"pct_alto":25.0,"n_hexagonos":1,"area_ha":3.83}},{"type":"Feature","geometry":{"type":"Polygon","coordinates":[[[-71.11543,-34.693204],[-71.1157,-34.691418],[-71.119125,-34.690538],[-71.118968,-34.691047],[-71.118754,-34.691439],[-71.118362,-34.691759],[-71.117686,-34.692044],[-71.116688,-34.692436],[-71.11569,-34.693078],[-71.11543,-34.693204]]]},"properties":{"comuna":"Placilla","mancha_id":"06308-88b2c3b023fffff","clase":"Medio","nivel_medio":2.261,"nivel_medio_min":2.261,"nivel_medio_max":2.261,"pct_alto":26.1,"n_hexagonos":1,"area_ha":4.2}},{"type":"Feature","geometry":{"type":"Polygon","coordinates":[[[-71.078028,-34.677013],[-71.078781,-34.67682],[-71.078879,-34.676883],[-71.07832,-34.677013],[-71.078028,-34.677013]]]},"properties":{"comuna":"Placilla","mancha_id":"06308-88b2c3b019fffff","clase":"Medio","nivel_medio":2.0,"nivel_medio_min":2.0,"nivel_medio_max":2.0,"pct_alto":0.0,"n_hexagonos":1,"area_ha":0.05}},{"type":"Feature","geometry":{"type":"Polygon","coordinates":[[[-71.101696,-34.686989],[-71.102326,-34.682813],[-71.107413,-34.681506],[-71.111871,-34.684375],[-71.111241,-34.68855],[-71.106154,-34.689857],[-71.101696,-34.686989]]]},"properties":{"comuna":"Placilla","mancha_id":"06308-88b2c3b007fffff","clase":"Medio","nivel_medio":2.317,"nivel_medio_min":2.317,"nivel_medio_max":2.317,"pct_alto":31.7,"n_hexagonos":1,"area_ha":62.27}},{"type":"Feature","geometry":{"type":"Polygon","coordinates":[[[-71.030994,-34.604774],[-71.02591,-34.60608],[-71.02528,-34.610259],[-71.020197,-34.611565],[-71.015744,-34.608692],[-71.016375,-34.604513],[-71.021458,-34.603207],[-71.021704,-34.601573],[-71.022015,-34.601406],[-71.022678,-34.601027],[-71.023365,-34.601027],[-71.024052,-34.601122],[-71.024976,-34.601098],[-71.02529,-34.600958],[-71.025478,-34.600712],[-71.025591,-34.600435],[-71.025923,-34.599985],[-71.026302,-34.599725],[-71.026704,-34.599346],[-71.027178,-34.599062],[-71.027604,-34.598754],[-71.028054,-34.598446],[-71.028184,-34.598375],[-71.031624,-34.600594],[-71.030994,-34.604774]]]},"properties":{"comuna":"Placilla","mancha_id":"06308-88b2c14d69fffff","clase":"Medio","nivel_medio":1.762,"nivel_medio_min":1.644,"nivel_medio_max":1.856,"pct_alto":30.5,"n_hexagonos":2,"area_ha":111.89}},{"type":"Feature","geometry":{"type":"Polygon","coordinates":[[[-71.036749,-34.63141],[-71.031665,-34.632715],[-71.031035,-34.636893],[-71.035489,-34.639764],[-71.040573,-34.638459],[-71.045027,-34.64133],[-71.050112,-34.640024],[-71.054567,-34.642895],[-71.053937,-34.647072],[-71.058392,-34.649943],[-71.057762,-34.654119],[-71.062217,-34.656989],[-71.061587,-34.661165],[-71.056502,-34.662471],[-71.052046,-34.659601],[-71.046961,-34.660906],[-71.046798,-34.661988],[-71.044807,-34.661216],[-71.043349,-34.661007],[-71.042307,-34.660132],[-71.041598,-34.659132],[-71.041139,-34.658923],[-71.040789,-34.658476],[-71.040389,-34.657965],[-71.039514,-34.656631],[-71.038722,-34.655672],[-71.037471,-34.654964],[-71.036096,-34.654755],[-71.034262,-34.654047],[-71.033418,-34.653484],[-71.033011,-34.653213],[-71.03247,-34.652629],[-71.031136,-34.651879],[-71.03026,-34.651587],[-71.029177,-34.651004],[-71.02776,-34.650045],[-71.027487,-34.649848],[-71.029144,-34.649422],[-71.029774,-34.645246],[-71.025321,-34.642375],[-71.020237,-34.643679],[-71.015784,-34.640807],[-71.016414,-34.636631],[-71.021498,-34.635326],[-71.022128,-34.631149],[-71.017675,-34.628277],[-71.018306,-34.624099],[-71.023389,-34.622794],[-71.024019,-34.618616],[-71.029103,-34.61731],[-71.033556,-34.620182],[-71.03864,-34.618876],[-71.03927,-34.614697],[-71.044354,-34.613391],[-71.044984,-34.609212],[-71.050068,-34.607904],[-71.054522,-34.610776],[-71.053892,-34.614956],[-71.048808,-34.616263],[-71.048178,-34.620441],[-71.043094,-34.621748],[-71.042464,-34.625926],[-71.03738,-34.627232],[-71.036749,-34.63141]],[[-71.048852,-34.648378],[-71.044397,-34.645507],[-71.039313,-34.646812],[-71.038682,-34.650989],[-71.043137,-34.65386],[-71.048222,-34.652554],[-71.048852,-34.648378]]]},"properties":{"comuna":"Placilla","mancha_id":"06308-88b2c14d21fffff","clase":"Medio","nivel_medio":1.957,"nivel_medio_min":1.533,"nivel_medio_max":2.491,"pct_alto":33.6,"n_hexagonos":18,"area_ha":989.48}},{"type":"Feature","geometry":{"type":"Polygon","coordinates":[[[-71.116853,-34.618841],[-71.117482,-34.614661],[-71.122568,-34.61335],[-71.127026,-34.61622],[-71.132112,-34.61491],[-71.13657,-34.617779],[-71.135941,-34.621959],[-71.140399,-34.624829],[-71.13977,-34.629008],[-71.144229,-34.631877],[-71.149316,-34.630567],[-71.149808,-34.630883],[-71.14964,-34.6312],[-71.14884,-34.63259],[-71.14876,-34.63298],[-71.14819,-34.63466],[-71.14579,-34.6341],[-71.145016,-34.636968],[-71.14483,-34.63766],[-71.14439,-34.6398],[-71.14416,-34.64173],[-71.14378,-34.64265],[-71.14316,-34.644204],[-71.14313,-34.64428],[-71.14238,-34.64599],[-71.141959,-34.646961],[-71.142342,-34.644415],[-71.137883,-34.641546],[-71.138512,-34.637367],[-71.134054,-34.634498],[-71.134683,-34.630319],[-71.130225,-34.62745],[-71.130854,-34.62327],[-71.126397,-34.6204],[-71.12131,-34.621711],[-71.116853,-34.618841]]]},"properties":{"comuna":"Placilla","mancha_id":"06308-88b2c149b7fffff","clase":"Medio","nivel_medio":1.64,"nivel_medio_min":1.535,"nivel_medio_max":2.359,"pct_alto":5.4,"n_hexagonos":7,"area_ha":311.49}},{"type":"Feature","geometry":{"type":"Polygon","coordinates":[[[-71.044638,-34.576882],[-71.044941,-34.577077],[-71.044795,-34.578044],[-71.044737,-34.577729],[-71.044638,-34.576882]]]},"properties":{"comuna":"Placilla","mancha_id":"06308-88b2c1488bfffff","clase":"Medio","nivel_medio":2.241,"nivel_medio_min":2.241,"nivel_medio_max":2.241,"pct_alto":24.1,"n_hexagonos":1,"area_ha":0.17}},{"type":"Feature","geometry":{"type":"Polygon","coordinates":[[[-71.07259,-34.552897],[-71.072999,-34.552992],[-71.073594,-34.553129],[-71.074881,-34.553335],[-71.075705,-34.553464],[-71.076606,-34.553386],[-71.077764,-34.553],[-71.078743,-34.552511],[-71.079232,-34.552254],[-71.079772,-34.552151],[-71.080519,-34.552408],[-71.080931,-34.55282],[-71.081523,-34.553283],[-71.082115,-34.553824],[-71.082567,-34.554352],[-71.082578,-34.554365],[-71.083299,-34.555085],[-71.084122,-34.555755],[-71.084998,-34.556089],[-71.085667,-34.556424],[-71.086516,-34.55717],[-71.08698,-34.557325],[-71.087803,-34.557479],[-71.088885,-34.557531],[-71.089685,-34.557509],[-71.089837,-34.557505],[-71.090841,-34.557608],[-71.091721,-34.557684],[-71.09247,-34.557804],[-71.093204,-34.558028],[-71.093818,-34.558358],[-71.094367,-34.558766],[-71.094985,-34.559178],[-71.095526,-34.559487],[-71.096371,-34.56005],[-71.096761,-34.560311],[-71.097662,-34.5608],[-71.098563,-34.561057],[-71.099722,-34.561006],[-71.100442,-34.56098],[-71.101369,-34.560954],[-71.102013,-34.560517],[-71.103068,-34.55995],[-71.103494,-34.559775],[-71.103943,-34.55959],[-71.104486,-34.559338],[-71.105404,-34.559276],[-71.106291,-34.559494],[-71.106789,-34.559805],[-71.107187,-34.560414],[-71.107342,-34.560997],[-71.107393,-34.561186],[-71.107691,-34.561782],[-71.108319,-34.56273],[-71.108911,-34.563528],[-71.109503,-34.564198],[-71.110147,-34.56479],[-71.11088,-34.565551],[-71.11154,-34.56617],[-71.112361,-34.566437],[-71.11321,-34.566411],[-71.113957,-34.566437],[-71.114773,-34.56656],[-71.114932,-34.566623],[-71.115501,-34.566849],[-71.11595,-34.567035],[-71.116284,-34.567398],[-71.116548,-34.567959],[-71.116878,-34.568255],[-71.117339,-34.56842],[-71.1179,-34.568453],[-71.118538,-34.568239],[-71.119234,-34.568033],[-71.119826,-34.567879],[-71.120624,-34.567776],[-71.121386,-34.567576],[-71.122013,-34.567489],[-71.122709,-34.567544],[-71.123429,-34.567724],[-71.124073,-34.56793],[-71.124487,-34.568096],[-71.124974,-34.568291],[-71.125617,-34.568625],[-71.126016,-34.568881],[-71.126538,-34.569299],[-71.126935,-34.569805],[-71.127232,-34.5703],[-71.127341,-34.570553],[-71.12743,-34.570762],[-71.127628,-34.571454],[-71.127826,-34.571982],[-71.128122,-34.57241],[-71.128452,-34.572905],[-71.128601,-34.573245],[-71.128683,-34.573433],[-71.128912,-34.574211],[-71.12917,-34.574906],[-71.129839,-34.575833],[-71.130482,-34.576579],[-71.131049,-34.577171],[-71.131417,-34.577706],[-71.131491,-34.577815],[-71.131865,-34.578366],[-71.132235,-34.578972],[-71.132439,-34.579462],[-71.132532,-34.579615],[-71.132678,-34.579857],[-71.132954,-34.580312],[-71.133237,-34.580819],[-71.133527,-34.581083],[-71.134002,-34.581083],[-71.134833,-34.581007],[-71.135888,-34.580904],[-71.136815,-34.580981],[-71.137999,-34.581084],[-71.139183,-34.581135],[-71.140032,-34.581264],[-71.141011,-34.581573],[-71.141577,-34.581856],[-71.141934,-34.582109],[-71.142014,-34.582165],[-71.142378,-34.582354],[-71.142779,-34.582481],[-71.143533,-34.582474],[-71.144169,-34.58236],[-71.144784,-34.582312],[-71.145375,-34.58227],[-71.145923,-34.58227],[-71.146472,-34.582249],[-71.147232,-34.582228],[-71.148055,-34.58246],[-71.148625,-34.582755],[-71.149042,-34.583195],[-71.149553,-34.583579],[-71.14987,-34.583768],[-71.150303,-34.58389],[-71.151281,-34.584147],[-71.151403,-34.58417],[-71.152336,-34.584346],[-71.152846,-34.584507],[-71.153584,-34.584634],[-71.154049,-34.584676],[-71.154534,-34.584739],[-71.154914,-34.584929],[-71.154911,-34.585486],[-71.154705,-34.585923],[-71.154642,-34.586423],[-71.154608,-34.586947],[-71.154692,-34.587538],[-71.154885,-34.587905],[-71.15522,-34.588291],[-71.155899,-34.588677],[-71.155603,-34.588754],[-71.154975,-34.592936],[-71.149888,-34.594249],[-71.149259,-34.598431],[-71.153717,-34.601301],[-71.153089,-34.605482],[-71.155944,-34.60732],[-71.155836,-34.607565],[-71.155621,-34.608209],[-71.155621,-34.608945],[-71.155499,-34.609436],[-71.155223,-34.609804],[-71.15464,-34.610111],[-71.154241,-34.610571],[-71.153781,-34.611338],[-71.153383,-34.61238],[-71.153597,-34.612779],[-71.153868,-34.61332],[-71.153873,-34.613331],[-71.154211,-34.614098],[-71.154487,-34.615171],[-71.154456,-34.616244],[-71.154211,-34.617164],[-71.153873,-34.618514],[-71.153517,-34.619515],[-71.151202,-34.618026],[-71.146115,-34.619337],[-71.141657,-34.616468],[-71.142286,-34.612287],[-71.137828,-34.609418],[-71.138457,-34.605237],[-71.133999,-34.602367],[-71.128913,-34.603678],[-71.124456,-34.600808],[-71.11937,-34.602119],[-71.114913,-34.599248],[-71.109827,-34.600559],[-71.109198,-34.60474],[-71.113654,-34.60761],[-71.113025,-34.611791],[-71.107939,-34.6131],[-71.10731,-34.61728],[-71.111767,-34.620151],[-71.111137,-34.62433],[-71.106051,-34.62564],[-71.101595,-34.622769],[-71.096509,-34.624078],[-71.092053,-34.621208],[-71.092682,-34.617029],[-71.088226,-34.614158],[-71.088856,-34.609978],[-71.0844,-34.607107],[-71.079315,-34.608416],[-71.078686,-34.612596],[-71.073601,-34.613904],[-71.069146,-34.611033],[-71.069776,-34.606853],[-71.07486,-34.605544],[-71.07549,-34.601364],[-71.071035,-34.598493],[-71.071665,-34.594312],[-71.06721,-34.59144],[-71.06784,-34.587259],[-71.063386,-34.584387],[-71.064015,-34.580205],[-71.059562,-34.577333],[-71.054478,-34.578641],[-71.050024,-34.575769],[-71.050654,-34.571587],[-71.046201,-34.568714],[-71.042547,-34.569654],[-71.042516,-34.569495],[-71.042191,-34.569055],[-71.041836,-34.568375],[-71.041777,-34.567516],[-71.041658,-34.566658],[-71.041333,-34.566066],[-71.040652,-34.565592],[-71.039734,-34.565089],[-71.038728,-34.564615],[-71.037751,-34.564053],[-71.037182,-34.563717],[-71.037295,-34.562967],[-71.034898,-34.561419],[-71.035028,-34.560915],[-71.035324,-34.560116],[-71.035176,-34.559109],[-71.035264,-34.558369],[-71.035442,-34.55757],[-71.035472,-34.556652],[-71.035472,-34.556179],[-71.035095,-34.555493],[-71.034968,-34.555261],[-71.034347,-34.554403],[-71.033459,-34.553692],[-71.0326,-34.552893],[-71.032571,-34.55236],[-71.032807,-34.551531],[-71.032867,-34.550436],[-71.032215,-34.549074],[-71.031582,-34.548356],[-71.034733,-34.547545],[-71.035076,-34.545268],[-71.03535,-34.545584],[-71.035777,-34.545954],[-71.03629,-34.546325],[-71.036887,-34.546695],[-71.037685,-34.54708],[-71.038689,-34.547466],[-71.039487,-34.547775],[-71.040414,-34.548058],[-71.041109,-34.548238],[-71.041855,-34.548418],[-71.042447,-34.548496],[-71.043168,-34.548418],[-71.043966,-34.548161],[-71.044378,-34.548032],[-71.044432,-34.548021],[-71.044996,-34.547903],[-71.045665,-34.547775],[-71.046583,-34.547691],[-71.047289,-34.547623],[-71.047982,-34.547569],[-71.048405,-34.547646],[-71.048974,-34.547737],[-71.049629,-34.547852],[-71.050479,-34.547981],[-71.051508,-34.548084],[-71.052579,-34.548049],[-71.053516,-34.548006],[-71.054214,-34.54795],[-71.054469,-34.547929],[-71.055524,-34.547929],[-71.056554,-34.548006],[-71.057197,-34.548084],[-71.057789,-34.548393],[-71.058407,-34.548779],[-71.058999,-34.549088],[-71.06026,-34.549783],[-71.061264,-34.550349],[-71.062448,-34.550735],[-71.063401,-34.551044],[-71.063515,-34.551075],[-71.06425,-34.551276],[-71.064791,-34.55143],[-71.065331,-34.551507],[-71.06582,-34.551636],[-71.066296,-34.551753],[-71.0666,-34.551858],[-71.066949,-34.551893],[-71.067311,-34.551847],[-71.067649,-34.551812],[-71.067941,-34.551812],[-71.068343,-34.551816],[-71.068961,-34.551945],[-71.069836,-34.552177],[-71.07084,-34.552614],[-71.071535,-34.552666],[-71.07259,-34.552897]],[[-71.067164,-34.559294],[-71.062081,-34.560604],[-71.061451,-34.564786],[-71.065905,-34.567659],[-71.070988,-34.566349],[-71.075443,-34.569222],[-71.074813,-34.573405],[-71.069729,-34.574714],[-71.069099,-34.578896],[-71.073554,-34.581768],[-71.078638,-34.580459],[-71.079268,-34.576277],[-71.084352,-34.574967],[-71.088807,-34.577839],[-71.093892,-34.576528],[-71.098347,-34.5794],[-71.097718,-34.583582],[-71.102173,-34.586454],[-71.107259,-34.585143],[-71.111715,-34.588014],[-71.1168,-34.586703],[-71.117429,-34.582521],[-71.112973,-34.57965],[-71.113602,-34.575467],[-71.109146,-34.572595],[-71.104061,-34.573907],[-71.099606,-34.571035],[-71.100235,-34.566852],[-71.09578,-34.56398],[-71.090695,-34.565291],[-71.090066,-34.569474],[-71.084981,-34.570784],[-71.080527,-34.567912],[-71.081156,-34.563729],[-71.076702,-34.560856],[-71.071618,-34.562167],[-71.067164,-34.559294]],[[-71.077379,-34.588822],[-71.076749,-34.593003],[-71.081204,-34.595875],[-71.086289,-34.594565],[-71.090744,-34.597437],[-71.095829,-34.596127],[-71.100285,-34.598998],[-71.105371,-34.597688],[-71.106,-34.593506],[-71.101544,-34.590635],[-71.096459,-34.591946],[-71.092003,-34.589074],[-71.086918,-34.590384],[-71.082463,-34.587512],[-71.077379,-34.588822]],[[-71.121257,-34.589574],[-71.120628,-34.593756],[-71.125085,-34.596626],[-71.130171,-34.595315],[-71.134628,-34.598185],[-71.139715,-34.596873],[-71.140343,-34.592691],[-71.135886,-34.589821],[-71.136515,-34.585639],[-71.132058,-34.582768],[-71.126972,-34.58408],[-71.126343,-34.588262],[-71.121257,-34.589574]]]},"properties":{"comuna":"Placilla","mancha_id":"06308-88b2c14811fffff","clase":"Medio","nivel_medio":2.03,"nivel_medio_min":1.529,"nivel_medio_max":2.492,"pct_alto":22.3,"n_hexagonos":72,"area_ha":3750.12}},{"type":"Feature","geometry":{"type":"Polygon","coordinates":[[[-71.139318,-34.661379],[-71.138973,-34.661379],[-71.138921,-34.66136],[-71.139701,-34.66116],[-71.139664,-34.661238],[-71.139574,-34.661379],[-71.139318,-34.661379]]]},"properties":{"comuna":"Placilla","mancha_id":"06308-88b2c3b333fffff","clase":"Alto","nivel_medio":2.764,"nivel_medio_min":2.764,"nivel_medio_max":2.764,"pct_alto":65.7,"n_hexagonos":1,"area_ha":0.08}},{"type":"Feature","geometry":{"type":"Polygon","coordinates":[[[-71.038682,-34.650989],[-71.039313,-34.646812],[-71.044397,-34.645507],[-71.048852,-34.648378],[-71.048222,-34.652554],[-71.043137,-34.65386],[-71.038682,-34.650989]]]},"properties":{"comuna":"Placilla","mancha_id":"06308-88b2c3b2c5fffff","clase":"Alto","nivel_medio":2.627,"nivel_medio_min":2.627,"nivel_medio_max":2.627,"pct_alto":62.7,"n_hexagonos":1,"area_ha":62.28}},{"type":"Feature","geometry":{"type":"Polygon","coordinates":[[[-71.095929,-34.660372],[-71.096559,-34.656195],[-71.101645,-34.654887],[-71.106103,-34.657756],[-71.105473,-34.661933],[-71.100386,-34.663241],[-71.095929,-34.660372]]]},"properties":{"comuna":"Placilla","mancha_id":"06308-88b2c3b041fffff","clase":"Alto","nivel_medio":2.583,"nivel_medio_min":2.583,"nivel_medio_max":2.583,"pct_alto":66.4,"n_hexagonos":1,"area_ha":62.3}},{"type":"Feature","geometry":{"type":"Polygon","coordinates":[[[-71.092325,-34.684558],[-71.09229,-34.68451],[-71.091991,-34.684099],[-71.091449,-34.683557],[-71.090741,-34.68314],[-71.090324,-34.682765],[-71.089615,-34.682182],[-71.08899,-34.681515],[-71.088281,-34.681098],[-71.08774,-34.680681],[-71.087031,-34.680514],[-71.085739,-34.680139],[-71.085072,-34.679931],[-71.084113,-34.679556],[-71.08401,-34.679491],[-71.083321,-34.679056],[-71.082571,-34.677388],[-71.082154,-34.676555],[-71.081696,-34.676013],[-71.080695,-34.67618],[-71.07957,-34.676721],[-71.078879,-34.676883],[-71.078781,-34.67682],[-71.078028,-34.677013],[-71.077111,-34.677013],[-71.075068,-34.676846],[-71.072776,-34.677055],[-71.072167,-34.677142],[-71.069239,-34.675256],[-71.064153,-34.676562],[-71.06205,-34.675207],[-71.062105,-34.674721],[-71.06198,-34.674262],[-71.061397,-34.67397],[-71.060355,-34.673845],[-71.059712,-34.673588],[-71.059104,-34.673345],[-71.058021,-34.67297],[-71.057437,-34.67197],[-71.05677,-34.671011],[-71.055103,-34.669719],[-71.053352,-34.668343],[-71.052519,-34.667843],[-71.052195,-34.66759],[-71.051185,-34.666801],[-71.050059,-34.665259],[-71.048475,-34.663425],[-71.04685,-34.662008],[-71.046798,-34.661988],[-71.046961,-34.660906],[-71.052046,-34.659601],[-71.056502,-34.662471],[-71.061587,-34.661165],[-71.062217,-34.656989],[-71.067302,-34.655683],[-71.071758,-34.658553],[-71.076844,-34.657247],[-71.0813,-34.660117],[-71.086386,-34.65881],[-71.090843,-34.661679],[-71.090213,-34.665855],[-71.09467,-34.668725],[-71.099757,-34.667417],[-71.104214,-34.670286],[-71.109301,-34.668979],[-71.113759,-34.671847],[-71.118846,-34.670539],[-71.123305,-34.673408],[-71.128392,-34.672099],[-71.129021,-34.667923],[-71.134109,-34.666614],[-71.134738,-34.662437],[-71.138217,-34.661541],[-71.138096,-34.661833],[-71.137961,-34.662185],[-71.137616,-34.663066],[-71.137385,-34.663649],[-71.137236,-34.664501],[-71.137172,-34.664651],[-71.137018,-34.66508],[-71.136913,-34.665381],[-71.136877,-34.665769],[-71.13694,-34.666614],[-71.137001,-34.667448],[-71.137067,-34.667556],[-71.137371,-34.668427],[-71.137594,-34.668856],[-71.137766,-34.669183],[-71.138328,-34.670038],[-71.138453,-34.670246],[-71.138605,-34.670499],[-71.138813,-34.670692],[-71.139184,-34.671022],[-71.139516,-34.671482],[-71.139557,-34.671628],[-71.13968,-34.672051],[-71.139814,-34.672683],[-71.139917,-34.673172],[-71.139957,-34.673367],[-71.139932,-34.673746],[-71.140027,-34.674106],[-71.139822,-34.674298],[-71.139206,-34.674473],[-71.138859,-34.674572],[-71.13706,-34.675642],[-71.136156,-34.675998],[-71.135299,-34.67607],[-71.134086,-34.676379],[-71.133158,-34.676903],[-71.132682,-34.677498],[-71.132412,-34.67788],[-71.132222,-34.678149],[-71.131752,-34.678435],[-71.131402,-34.678648],[-71.130904,-34.679183],[-71.130747,-34.679523],[-71.127134,-34.680452],[-71.126959,-34.681609],[-71.126593,-34.681712],[-71.126023,-34.682211],[-71.125702,-34.682852],[-71.125417,-34.68385],[-71.125203,-34.68442],[-71.125225,-34.684956],[-71.125239,-34.685275],[-71.125488,-34.686023],[-71.125025,-34.686985],[-71.124348,-34.687805],[-71.123529,-34.68841],[-71.122495,-34.688909],[-71.121391,-34.689194],[-71.120923,-34.689209],[-71.120286,-34.68923],[-71.119681,-34.689515],[-71.119253,-34.69012],[-71.119125,-34.690538],[-71.1157,-34.691418],[-71.11543,-34.693204],[-71.114515,-34.693648],[-71.113838,-34.693683],[-71.11279,-34.693853],[-71.111665,-34.694353],[-71.110206,-34.694853],[-71.108789,-34.694603],[-71.107789,-34.694186],[-71.106621,-34.693561],[-71.105715,-34.692765],[-71.104912,-34.69206],[-71.103829,-34.691393],[-71.10237,-34.69056],[-71.101119,-34.689726],[-71.100161,-34.688893],[-71.099661,-34.688226],[-71.099536,-34.6876],[-71.099547,-34.687541],[-71.099661,-34.686933],[-71.098994,-34.686475],[-71.098035,-34.686308],[-71.097368,-34.686267],[-71.096326,-34.686183],[-71.095576,-34.685808],[-71.095034,-34.685433],[-71.093909,-34.684933],[-71.093158,-34.684766],[-71.092325,-34.684558]],[[-71.107413,-34.681506],[-71.102326,-34.682813],[-71.101696,-34.686989],[-71.106154,-34.689857],[-71.111241,-34.68855],[-71.111871,-34.684375],[-71.107413,-34.681506]]]},"properties":{"comuna":"Placilla","mancha_id":"06308-88b2c3b001fffff","clase":"Alto","nivel_medio":2.751,"nivel_medio_min":2.528,"nivel_medio_max":2.984,"pct_alto":76.4,"n_hexagonos":30,"area_ha":1477.31}},{"type":"Feature","geometry":{"type":"Polygon","coordinates":[[[-71.153089,-34.605482],[-71.153717,-34.601301],[-71.149259,-34.598431],[-71.149888,-34.594249],[-71.154975,-34.592936],[-71.155603,-34.588754],[-71.155899,-34.588677],[-71.156172,-34.588832],[-71.156687,-34.58927],[-71.157665,-34.590145],[-71.158147,-34.590507],[-71.158641,-34.590733],[-71.158504,-34.591158],[-71.15829,-34.591802],[-71.158136,-34.592661],[-71.15829,-34.593121],[-71.158382,-34.59352],[-71.15832,-34.594102],[-71.158198,-34.594746],[-71.158017,-34.594895],[-71.157676,-34.595176],[-71.156756,-34.595881],[-71.15645,-34.596494],[-71.156112,-34.597138],[-71.155928,-34.598365],[-71.155959,-34.599132],[-71.155959,-34.59996],[-71.155959,-34.600722],[-71.155959,-34.601033],[-71.155683,-34.601892],[-71.155683,-34.602444],[-71.155345,-34.602812],[-71.155131,-34.603149],[-71.155131,-34.603548],[-71.155315,-34.604315],[-71.155683,-34.604683],[-71.156051,-34.60502],[-71.156266,-34.605603],[-71.156296,-34.606001],[-71.156174,-34.606799],[-71.155944,-34.60732],[-71.153089,-34.605482]]]},"properties":{"comuna":"Placilla","mancha_id":"06308-88b2c38699fffff","clase":"Alto","nivel_medio":2.695,"nivel_medio_min":2.54,"nivel_medio_max":2.778,"pct_alto":70.6,"n_hexagonos":3,"area_ha":74.78}},{"type":"Feature","geometry":{"type":"Polygon","coordinates":[[[-71.01142,-34.615199],[-71.011288,-34.614987],[-71.010878,-34.614328],[-71.010984,-34.613368],[-71.011331,-34.612194],[-71.011224,-34.611047],[-71.010824,-34.610193],[-71.010739,-34.609978],[-71.015744,-34.608692],[-71.020197,-34.611565],[-71.02528,-34.610259],[-71.029733,-34.613132],[-71.029103,-34.61731],[-71.024019,-34.618616],[-71.023389,-34.622794],[-71.018306,-34.624099],[-71.017675,-34.628277],[-71.022128,-34.631149],[-71.021498,-34.635326],[-71.016414,-34.636631],[-71.015784,-34.640807],[-71.020237,-34.643679],[-71.025321,-34.642375],[-71.029774,-34.645246],[-71.029144,-34.649422],[-71.027487,-34.649848],[-71.025801,-34.648628],[-71.0243,-34.647794],[-71.023383,-34.647002],[-71.022674,-34.646544],[-71.021632,-34.64571],[-71.020965,-34.64521],[-71.02034,-34.645168],[-71.020049,-34.644924],[-71.019298,-34.644293],[-71.017839,-34.643376],[-71.016839,-34.642667],[-71.016255,-34.642209],[-71.01538,-34.641417],[-71.015077,-34.640989],[-71.014671,-34.640417],[-71.014005,-34.639916],[-71.012712,-34.639208],[-71.011212,-34.638207],[-71.010295,-34.637374],[-71.009878,-34.636665],[-71.009961,-34.636123],[-71.010087,-34.63479],[-71.010087,-34.63424],[-71.010087,-34.634123],[-71.010087,-34.633372],[-71.01017,-34.63233],[-71.010503,-34.63158],[-71.011004,-34.629871],[-71.011294,-34.628745],[-71.011337,-34.628579],[-71.011462,-34.62787],[-71.011754,-34.62687],[-71.012171,-34.626245],[-71.012587,-34.625953],[-71.013463,-34.625703],[-71.01388,-34.625328],[-71.014213,-34.624036],[-71.014213,-34.623285],[-71.014338,-34.622452],[-71.014457,-34.621617],[-71.014588,-34.620701],[-71.014963,-34.619951],[-71.015047,-34.619409],[-71.014463,-34.618492],[-71.01429,-34.61833],[-71.013796,-34.617867],[-71.012796,-34.617533],[-71.012087,-34.616866],[-71.011879,-34.615908],[-71.01142,-34.615199]]]},"properties":{"comuna":"Placilla","mancha_id":"06308-88b2c14d01fffff","clase":"Alto","nivel_medio":2.699,"nivel_medio_min":2.537,"nivel_medio_max":3.004,"pct_alto":76.5,"n_hexagonos":10,"area_ha":364.84}},{"type":"Feature","geometry":{"type":"Polygon","coordinates":[[[-71.035076,-34.545268],[-71.034733,-34.547545],[-71.031582,-34.548356],[-71.031327,-34.548068],[-71.030913,-34.546884],[-71.030499,-34.545433],[-71.03038,-34.544723],[-71.030082,-34.543734],[-71.030452,-34.544274],[-71.030794,-34.544559],[-71.031364,-34.544702],[-71.032161,-34.544616],[-71.032844,-34.544616],[-71.033556,-34.544616],[-71.034154,-34.544673],[-71.034638,-34.544872],[-71.03498,-34.545157],[-71.035076,-34.545268]]]},"properties":{"comuna":"Placilla","mancha_id":"06308-88b2c14abdfffff","clase":"Alto","nivel_medio":2.724,"nivel_medio_min":2.724,"nivel_medio_max":2.724,"pct_alto":72.4,"n_hexagonos":1,"area_ha":14.02}},{"type":"Feature","geometry":{"type":"Polygon","coordinates":[[[-71.109198,-34.60474],[-71.109827,-34.600559],[-71.114913,-34.599248],[-71.11937,-34.602119],[-71.11874,-34.6063],[-71.113654,-34.60761],[-71.109198,-34.60474]]]},"properties":{"comuna":"Placilla","mancha_id":"06308-88b2c149b9fffff","clase":"Alto","nivel_medio":2.596,"nivel_medio_min":2.596,"nivel_medio_max":2.596,"pct_alto":69.7,"n_hexagonos":1,"area_ha":62.39}},{"type":"Feature","geometry":{"type":"Polygon","coordinates":[[[-71.034898,-34.561419],[-71.037295,-34.562967],[-71.037182,-34.563717],[-71.036448,-34.563283],[-71.035649,-34.562839],[-71.034939,-34.562365],[-71.034791,-34.561833],[-71.034898,-34.561419]]]},"properties":{"comuna":"Placilla","mancha_id":"06308-88b2c148ddfffff","clase":"Alto","nivel_medio":2.901,"nivel_medio_min":2.901,"nivel_medio_max":2.901,"pct_alto":90.1,"n_hexagonos":1,"area_ha":2.16}},{"type":"Feature","geometry":{"type":"Polygon","coordinates":[[[-71.076749,-34.593003],[-71.077379,-34.588822],[-71.082463,-34.587512],[-71.086918,-34.590384],[-71.092003,-34.589074],[-71.096459,-34.591946],[-71.101544,-34.590635],[-71.106,-34.593506],[-71.105371,-34.597688],[-71.100285,-34.598998],[-71.095829,-34.596127],[-71.090744,-34.597437],[-71.086289,-34.594565],[-71.081204,-34.595875],[-71.076749,-34.593003]]]},"properties":{"comuna":"Placilla","mancha_id":"06308-88b2c148a5fffff","clase":"Alto","nivel_medio":2.855,"nivel_medio_min":2.776,"nivel_medio_max":2.931,"pct_alto":79.1,"n_hexagonos":3,"area_ha":187.18}},{"type":"Feature","geometry":{"type":"Polygon","coordinates":[[[-71.053848,-34.582823],[-71.048764,-34.584131],[-71.048135,-34.588312],[-71.04638,-34.588763],[-71.04635,-34.588511],[-71.046239,-34.587734],[-71.046395,-34.587053],[-71.046839,-34.586461],[-71.047194,-34.585662],[-71.047164,-34.584655],[-71.046927,-34.583649],[-71.046927,-34.582946],[-71.046927,-34.58282],[-71.04675,-34.581962],[-71.046513,-34.581162],[-71.046039,-34.580393],[-71.045507,-34.579742],[-71.045151,-34.579416],[-71.044974,-34.579002],[-71.044795,-34.578044],[-71.044941,-34.577077],[-71.044638,-34.576882],[-71.044589,-34.576456],[-71.044174,-34.575805],[-71.0435,-34.575604],[-71.042998,-34.575517],[-71.042715,-34.575298],[-71.042872,-34.574946],[-71.04326,-34.574534],[-71.043457,-34.574207],[-71.043494,-34.573792],[-71.043494,-34.5732],[-71.043138,-34.572489],[-71.042724,-34.571927],[-71.042487,-34.571068],[-71.042625,-34.570041],[-71.042547,-34.569654],[-71.046201,-34.568714],[-71.050654,-34.571587],[-71.050024,-34.575769],[-71.054478,-34.578641],[-71.053848,-34.582823]]]},"properties":{"comuna":"Placilla","mancha_id":"06308-88b2c14881fffff","clase":"Alto","nivel_medio":2.75,"nivel_medio_min":2.689,"nivel_medio_max":2.798,"pct_alto":75.9,"n_hexagonos":3,"area_ha":115.66}}],"bbox":[-71.15865,-34.69486,-71.00884,-34.54373]}