{"type":"FeatureCollection","features":[{"type":"Feature","geometry":{"type":"Polygon","coordinates":[[[-71.631033,-34.519264],[-71.630699,-34.521518],[-71.630359,-34.521608],[-71.63049,-34.52054],[-71.63057,-34.51997],[-71.6307,-34.5197],[-71.63087,-34.51939],[-71.631033,-34.519264]]]},"properties":{"comuna":"Pumanque","mancha_id":"06309-88b2c3d6cbfffff","clase":"Bajo","nivel_medio":1.232,"nivel_medio_min":1.232,"nivel_medio_max":1.232,"pct_alto":0.0,"n_hexagonos":1,"area_ha":0.72}},{"type":"Feature","geometry":{"type":"Polygon","coordinates":[[[-71.651843,-34.544204],[-71.652465,-34.540008],[-71.657566,-34.53867],[-71.658188,-34.534474],[-71.663289,-34.533136],[-71.667767,-34.535993],[-71.667145,-34.54019],[-71.662045,-34.541528],[-71.661423,-34.545724],[-71.656322,-34.547061],[-71.651843,-34.544204]]]},"properties":{"comuna":"Pumanque","mancha_id":"06309-88b2c3d6a9fffff","clase":"Bajo","nivel_medio":1.188,"nivel_medio_min":1.008,"nivel_medio_max":1.368,"pct_alto":8.7,"n_hexagonos":2,"area_ha":125.68}},{"type":"Feature","geometry":{"type":"Polygon","coordinates":[[[-71.628832,-34.534107],[-71.629454,-34.529911],[-71.634554,-34.528574],[-71.639031,-34.531433],[-71.644131,-34.530095],[-71.644754,-34.525899],[-71.649854,-34.524561],[-71.654332,-34.527419],[-71.65371,-34.531616],[-71.648609,-34.532954],[-71.647987,-34.53715],[-71.642887,-34.538487],[-71.638409,-34.535629],[-71.633309,-34.536966],[-71.628832,-34.534107]]]},"properties":{"comuna":"Pumanque","mancha_id":"06309-88b2c3d689fffff","clase":"Bajo","nivel_medio":1.326,"nivel_medio_min":1.264,"nivel_medio_max":1.369,"pct_alto":2.0,"n_hexagonos":3,"area_ha":188.52}},{"type":"Feature","geometry":{"type":"Polygon","coordinates":[[[-71.669011,-34.5276],[-71.669633,-34.523403],[-71.665154,-34.520545],[-71.665776,-34.516347],[-71.670877,-34.515008],[-71.675355,-34.517866],[-71.674734,-34.522064],[-71.679213,-34.524922],[-71.678591,-34.529119],[-71.67349,-34.530458],[-71.669011,-34.5276]]]},"properties":{"comuna":"Pumanque","mancha_id":"06309-88b2c3d633fffff","clase":"Bajo","nivel_medio":1.226,"nivel_medio_min":1.188,"nivel_medio_max":1.263,"pct_alto":0.0,"n_hexagonos":2,"area_ha":125.75}},{"type":"Feature","geometry":{"type":"Polygon","coordinates":[[[-71.768844,-34.582037],[-71.769465,-34.577841],[-71.77457,-34.5765],[-71.779054,-34.579353],[-71.778433,-34.583548],[-71.773328,-34.58489],[-71.768844,-34.582037]]]},"properties":{"comuna":"Pumanque","mancha_id":"06309-88b2c3d531fffff","clase":"Bajo","nivel_medio":1.18,"nivel_medio_min":1.18,"nivel_medio_max":1.18,"pct_alto":0.0,"n_hexagonos":1,"area_ha":62.85}},{"type":"Feature","geometry":{"type":"Polygon","coordinates":[[[-71.653833,-34.563841],[-71.654455,-34.559646],[-71.659556,-34.558309],[-71.664036,-34.561166],[-71.663414,-34.565361],[-71.658312,-34.566698],[-71.653833,-34.563841]]]},"properties":{"comuna":"Pumanque","mancha_id":"06309-88b2c3d4c9fffff","clase":"Bajo","nivel_medio":1.416,"nivel_medio_min":1.416,"nivel_medio_max":1.416,"pct_alto":5.6,"n_hexagonos":1,"area_ha":62.81}},{"type":"Feature","geometry":{"type":"Polygon","coordinates":[[[-71.655824,-34.583472],[-71.656446,-34.579279],[-71.661547,-34.577942],[-71.666027,-34.580799],[-71.665405,-34.584992],[-71.660303,-34.586328],[-71.655824,-34.583472]]]},"properties":{"comuna":"Pumanque","mancha_id":"06309-88b2c3d489fffff","clase":"Bajo","nivel_medio":1.383,"nivel_medio_min":1.383,"nivel_medio_max":1.383,"pct_alto":3.8,"n_hexagonos":1,"area_ha":62.78}},{"type":"Feature","geometry":{"type":"Polygon","coordinates":[[[-71.726902,-34.633343],[-71.727523,-34.629152],[-71.732627,-34.627814],[-71.737111,-34.630667],[-71.73649,-34.634858],[-71.731385,-34.636196],[-71.726902,-34.633343]]]},"properties":{"comuna":"Pumanque","mancha_id":"06309-88b2c3c759fffff","clase":"Bajo","nivel_medio":1.422,"nivel_medio_min":1.422,"nivel_medio_max":1.422,"pct_alto":3.9,"n_hexagonos":1,"area_ha":62.75}},{"type":"Feature","geometry":{"type":"Polygon","coordinates":[[[-71.739245,-34.682455],[-71.73476,-34.679604],[-71.729655,-34.68094],[-71.725171,-34.678088],[-71.725792,-34.6739],[-71.730898,-34.672564],[-71.735382,-34.675416],[-71.740487,-34.674079],[-71.744972,-34.676931],[-71.744351,-34.681119],[-71.739245,-34.682455]]]},"properties":{"comuna":"Pumanque","mancha_id":"06309-88b2c3c461fffff","clase":"Bajo","nivel_medio":1.401,"nivel_medio_min":1.324,"nivel_medio_max":1.477,"pct_alto":1.6,"n_hexagonos":2,"area_ha":125.37}},{"type":"Feature","geometry":{"type":"Polygon","coordinates":[[[-71.797899,-34.650978],[-71.792792,-34.652318],[-71.792172,-34.656509],[-71.787065,-34.657848],[-71.782579,-34.654997],[-71.777472,-34.656336],[-71.772987,-34.653485],[-71.773608,-34.649295],[-71.769122,-34.646443],[-71.769743,-34.642252],[-71.774849,-34.640913],[-71.77547,-34.636721],[-71.780576,-34.635382],[-71.781197,-34.63119],[-71.776712,-34.628338],[-71.771606,-34.629678],[-71.767121,-34.626825],[-71.767742,-34.622633],[-71.763257,-34.619781],[-71.758152,-34.62112],[-71.753668,-34.618267],[-71.748563,-34.619607],[-71.744079,-34.616753],[-71.7447,-34.612561],[-71.740217,-34.609708],[-71.735112,-34.611047],[-71.73063,-34.608193],[-71.731251,-34.604],[-71.736355,-34.602661],[-71.740838,-34.605515],[-71.745942,-34.604175],[-71.746563,-34.599982],[-71.751668,-34.598642],[-71.752289,-34.594448],[-71.757393,-34.593108],[-71.761877,-34.595961],[-71.761256,-34.600155],[-71.756152,-34.601496],[-71.755531,-34.605689],[-71.750426,-34.607029],[-71.749805,-34.611222],[-71.754289,-34.614075],[-71.759394,-34.612735],[-71.760015,-34.608542],[-71.76512,-34.607202],[-71.769604,-34.610055],[-71.774709,-34.608714],[-71.779194,-34.611567],[-71.7843,-34.610226],[-71.788785,-34.613078],[-71.788165,-34.617272],[-71.79265,-34.620123],[-71.79203,-34.624316],[-71.786923,-34.625657],[-71.786303,-34.629849],[-71.790789,-34.632701],[-71.790168,-34.636893],[-71.794654,-34.639744],[-71.794033,-34.643936],[-71.79852,-34.646787],[-71.797899,-34.650978]]]},"properties":{"comuna":"Pumanque","mancha_id":"06309-88b2c3c0dbfffff","clase":"Bajo","nivel_medio":1.184,"nivel_medio_min":0.97,"nivel_medio_max":1.418,"pct_alto":1.7,"n_hexagonos":22,"area_ha":1381.24}},{"type":"Feature","geometry":{"type":"Polygon","coordinates":[[[-71.59631,-34.51797],[-71.596412,-34.517991],[-71.597311,-34.518172],[-71.5977,-34.51825],[-71.59868,-34.5185],[-71.60013,-34.51886],[-71.60155,-34.51924],[-71.60201,-34.51926],[-71.60242,-34.51906],[-71.60256,-34.51876],[-71.60274,-34.51808],[-71.6029,-34.51784],[-71.603108,-34.517675],[-71.606449,-34.51981],[-71.607404,-34.51956],[-71.60746,-34.51958],[-71.60881,-34.51997],[-71.60976,-34.52028],[-71.60998,-34.52035],[-71.61105,-34.52059],[-71.61178,-34.52078],[-71.61208,-34.52092],[-71.6123,-34.52108],[-71.61316,-34.52211],[-71.61428,-34.52338],[-71.61485,-34.52397],[-71.61537,-34.52431],[-71.615572,-34.524377],[-71.615401,-34.525529],[-71.610302,-34.526866],[-71.60968,-34.531062],[-71.614156,-34.533921],[-71.613533,-34.538116],[-71.608434,-34.539452],[-71.603958,-34.536593],[-71.604581,-34.532397],[-71.600104,-34.529538],[-71.596866,-34.530386],[-71.59666,-34.53013],[-71.59647,-34.53],[-71.59606,-34.52985],[-71.59572,-34.52974],[-71.59555,-34.52967],[-71.5954,-34.52957],[-71.59505,-34.52928],[-71.59418,-34.5285],[-71.59331,-34.52778],[-71.59368,-34.52732],[-71.59377,-34.52699],[-71.59367,-34.52645],[-71.59359,-34.525],[-71.59354,-34.52425],[-71.593284,-34.523259],[-71.59323,-34.52305],[-71.59324,-34.52267],[-71.59342,-34.52192],[-71.59343,-34.52147],[-71.59329,-34.52062],[-71.59314,-34.51985],[-71.59308,-34.51908],[-71.59352,-34.51904],[-71.59378,-34.51886],[-71.59411,-34.51839],[-71.59449,-34.51792],[-71.59475,-34.51781],[-71.59498,-34.51776],[-71.59528,-34.51776],[-71.59591,-34.51789],[-71.59631,-34.51797]]]},"properties":{"comuna":"Pumanque","mancha_id":"06309-88b2c399e1fffff","clase":"Bajo","nivel_medio":1.352,"nivel_medio_min":1.277,"nivel_medio_max":1.495,"pct_alto":7.0,"n_hexagonos":7,"area_ha":286.21}},{"type":"Feature","geometry":{"type":"Polygon","coordinates":[[[-71.58294,-34.546127],[-71.583563,-34.541933],[-71.588661,-34.540598],[-71.593137,-34.543458],[-71.598236,-34.542123],[-71.602712,-34.544982],[-71.60209,-34.549177],[-71.59699,-34.550512],[-71.592514,-34.547652],[-71.587415,-34.548987],[-71.58294,-34.546127]]]},"properties":{"comuna":"Pumanque","mancha_id":"06309-88b2c399a3fffff","clase":"Bajo","nivel_medio":1.413,"nivel_medio_min":1.325,"nivel_medio_max":1.5,"pct_alto":17.5,"n_hexagonos":2,"area_ha":125.58}},{"type":"Feature","geometry":{"type":"Polygon","coordinates":[[[-71.613652,-34.570334],[-71.614275,-34.56614],[-71.609797,-34.563282],[-71.61042,-34.559088],[-71.61552,-34.557753],[-71.616142,-34.553559],[-71.611666,-34.5507],[-71.612288,-34.546506],[-71.617388,-34.54517],[-71.621865,-34.548029],[-71.626965,-34.546693],[-71.627587,-34.542498],[-71.632687,-34.541161],[-71.637165,-34.54402],[-71.636542,-34.548215],[-71.631442,-34.549551],[-71.63082,-34.553746],[-71.62572,-34.555082],[-71.625097,-34.559276],[-71.629575,-34.562134],[-71.628952,-34.566328],[-71.623852,-34.567663],[-71.623229,-34.571857],[-71.618129,-34.573192],[-71.613652,-34.570334]]]},"properties":{"comuna":"Pumanque","mancha_id":"06309-88b2c38b61fffff","clase":"Bajo","nivel_medio":1.262,"nivel_medio_min":1.06,"nivel_medio_max":1.431,"pct_alto":3.6,"n_hexagonos":7,"area_ha":439.54}},{"type":"Feature","geometry":{"type":"Polygon","coordinates":[[[-71.590761,-34.592437],[-71.591384,-34.588246],[-71.596484,-34.586912],[-71.600961,-34.58977],[-71.600338,-34.593962],[-71.595238,-34.595295],[-71.590761,-34.592437]]]},"properties":{"comuna":"Pumanque","mancha_id":"06309-88b2c38b39fffff","clase":"Bajo","nivel_medio":1.317,"nivel_medio_min":1.317,"nivel_medio_max":1.317,"pct_alto":10.7,"n_hexagonos":1,"area_ha":62.72}},{"type":"Feature","geometry":{"type":"Polygon","coordinates":[[[-71.598352,-34.574337],[-71.598975,-34.570144],[-71.604075,-34.56881],[-71.608552,-34.571668],[-71.607929,-34.575861],[-71.602829,-34.577195],[-71.598352,-34.574337]]]},"properties":{"comuna":"Pumanque","mancha_id":"06309-88b2c38b0dfffff","clase":"Bajo","nivel_medio":1.457,"nivel_medio_min":1.457,"nivel_medio_max":1.457,"pct_alto":11.0,"n_hexagonos":1,"area_ha":62.76}},{"type":"Feature","geometry":{"type":"Polygon","coordinates":[[[-71.726501,-34.536702],[-71.727122,-34.532505],[-71.732225,-34.531163],[-71.732846,-34.526965],[-71.736174,-34.52609],[-71.736597,-34.526554],[-71.737138,-34.526753],[-71.737792,-34.526952],[-71.73836,-34.527151],[-71.739071,-34.527321],[-71.739583,-34.52735],[-71.739895,-34.527236],[-71.740299,-34.527121],[-71.740492,-34.527066],[-71.74122,-34.527157],[-71.742009,-34.527538],[-71.742906,-34.527783],[-71.743819,-34.52789],[-71.74435,-34.527974],[-71.744359,-34.527975],[-71.744436,-34.527951],[-71.744814,-34.527833],[-71.745134,-34.527647],[-71.745596,-34.527565],[-71.745775,-34.527599],[-71.746167,-34.527674],[-71.746629,-34.527837],[-71.747145,-34.528117],[-71.747629,-34.528658],[-71.748311,-34.529141],[-71.748746,-34.529371],[-71.748928,-34.529917],[-71.749064,-34.530645],[-71.749133,-34.531396],[-71.749201,-34.532328],[-71.749315,-34.532783],[-71.749565,-34.533101],[-71.749951,-34.53342],[-71.75,-34.533474],[-71.750361,-34.533875],[-71.75057,-34.534407],[-71.750611,-34.534512],[-71.750702,-34.535194],[-71.750725,-34.536126],[-71.750861,-34.536877],[-71.751066,-34.537332],[-71.751521,-34.537582],[-71.751839,-34.537719],[-71.752453,-34.538037],[-71.752681,-34.538424],[-71.752749,-34.538924],[-71.752885,-34.539288],[-71.752976,-34.539584],[-71.753636,-34.540016],[-71.753932,-34.540425],[-71.75425,-34.541107],[-71.754555,-34.541428],[-71.754682,-34.541562],[-71.755092,-34.541881],[-71.755456,-34.542586],[-71.755621,-34.542962],[-71.755751,-34.543197],[-71.755958,-34.543365],[-71.756229,-34.543515],[-71.756431,-34.54338],[-71.756668,-34.543111],[-71.756824,-34.542694],[-71.757073,-34.542401],[-71.759739,-34.544099],[-71.759118,-34.548296],[-71.763601,-34.551151],[-71.762981,-34.555348],[-71.757877,-34.55669],[-71.753394,-34.553836],[-71.754015,-34.549639],[-71.749532,-34.546783],[-71.744429,-34.548125],[-71.739946,-34.54527],[-71.740567,-34.541073],[-71.736086,-34.538217],[-71.730983,-34.539558],[-71.726501,-34.536702]]]},"properties":{"comuna":"Pumanque","mancha_id":"06309-88b2c3d46dfffff","clase":"Medio","nivel_medio":2.29,"nivel_medio_min":2.096,"nivel_medio_max":2.433,"pct_alto":29.0,"n_hexagonos":9,"area_ha":462.97}},{"type":"Feature","geometry":{"type":"Polygon","coordinates":[[[-71.841407,-34.522358],[-71.841447,-34.522342],[-71.841412,-34.522582],[-71.840719,-34.522765],[-71.840742,-34.522743],[-71.841052,-34.522551],[-71.841407,-34.522358]]]},"properties":{"comuna":"Pumanque","mancha_id":"06309-88b2c3d0e7fffff","clase":"Medio","nivel_medio":2.372,"nivel_medio_min":2.372,"nivel_medio_max":2.372,"pct_alto":40.1,"n_hexagonos":1,"area_ha":0.09}},{"type":"Feature","geometry":{"type":"Polygon","coordinates":[[[-71.839132,-34.523156],[-71.839187,-34.523169],[-71.836306,-34.523929],[-71.835872,-34.523653],[-71.836008,-34.523595],[-71.836318,-34.523393],[-71.836745,-34.523185],[-71.837245,-34.522912],[-71.837632,-34.52273],[-71.838053,-34.522669],[-71.838423,-34.522831],[-71.838748,-34.523038],[-71.839132,-34.523156]]]},"properties":{"comuna":"Pumanque","mancha_id":"06309-88b2c3d0e7fffff-2","clase":"Medio","nivel_medio":2.372,"nivel_medio_min":2.372,"nivel_medio_max":2.372,"pct_alto":40.1,"n_hexagonos":1,"area_ha":1.84}},{"type":"Feature","geometry":{"type":"Polygon","coordinates":[[[-71.805056,-34.536204],[-71.799952,-34.537549],[-71.797358,-34.535898],[-71.797374,-34.535899],[-71.798056,-34.535876],[-71.798716,-34.535808],[-71.799421,-34.535762],[-71.800672,-34.535876],[-71.801218,-34.535785],[-71.802196,-34.535581],[-71.802787,-34.535376],[-71.803287,-34.535103],[-71.803879,-34.534784],[-71.804356,-34.534716],[-71.804834,-34.534671],[-71.805107,-34.534557],[-71.80532,-34.534415],[-71.805448,-34.53433],[-71.805744,-34.53433],[-71.806153,-34.534216],[-71.806585,-34.534034],[-71.806949,-34.534193],[-71.807495,-34.534352],[-71.807973,-34.53433],[-71.808359,-34.534307],[-71.808996,-34.534239],[-71.809497,-34.534125],[-71.81002,-34.534125],[-71.81077,-34.534011],[-71.81143,-34.534102],[-71.811771,-34.533966],[-71.812317,-34.533784],[-71.812863,-34.533738],[-71.813295,-34.533761],[-71.813886,-34.533806],[-71.8145,-34.533761],[-71.815228,-34.533715],[-71.815235,-34.533721],[-71.81566,-34.534057],[-71.816115,-34.534443],[-71.816547,-34.534512],[-71.817116,-34.534489],[-71.817776,-34.534398],[-71.818231,-34.534011],[-71.818594,-34.533875],[-71.819186,-34.533829],[-71.819527,-34.533897],[-71.820278,-34.533943],[-71.820823,-34.534079],[-71.82162,-34.534512],[-71.822097,-34.534671],[-71.822734,-34.534693],[-71.823212,-34.534603],[-71.82353,-34.534671],[-71.824076,-34.534921],[-71.824667,-34.534944],[-71.824771,-34.534968],[-71.824856,-34.535022],[-71.824236,-34.539221],[-71.819131,-34.540567],[-71.814646,-34.537713],[-71.809541,-34.539058],[-71.805056,-34.536204]]]},"properties":{"comuna":"Pumanque","mancha_id":"06309-88b2c3d095fffff","clase":"Medio","nivel_medio":2.407,"nivel_medio_min":2.364,"nivel_medio_max":2.414,"pct_alto":40.8,"n_hexagonos":3,"area_ha":101.78}},{"type":"Feature","geometry":{"type":"Polygon","coordinates":[[[-71.852877,-34.511386],[-71.852862,-34.511485],[-71.85277,-34.511509],[-71.852877,-34.511386]]]},"properties":{"comuna":"Pumanque","mancha_id":"06309-88b2c3d033fffff","clase":"Medio","nivel_medio":2.0,"nivel_medio_min":2.0,"nivel_medio_max":2.0,"pct_alto":0.0,"n_hexagonos":1,"area_ha":0.0}},{"type":"Feature","geometry":{"type":"Polygon","coordinates":[[[-71.567683,-34.54987],[-71.567645,-34.550129],[-71.56753,-34.550159],[-71.567683,-34.54987]]]},"properties":{"comuna":"Pumanque","mancha_id":"06309-88b2c399bbfffff","clase":"Medio","nivel_medio":2.0,"nivel_medio_min":2.0,"nivel_medio_max":2.0,"pct_alto":0.0,"n_hexagonos":1,"area_ha":0.01}},{"type":"Feature","geometry":{"type":"Polygon","coordinates":[[[-71.607404,-34.51956],[-71.606449,-34.51981],[-71.603108,-34.517675],[-71.60319,-34.51761],[-71.60358,-34.51748],[-71.6038,-34.51744],[-71.60408,-34.51749],[-71.60431,-34.51762],[-71.60454,-34.51775],[-71.605,-34.51816],[-71.60584,-34.5188],[-71.60614,-34.51898],[-71.60699,-34.51941],[-71.607404,-34.51956]]]},"properties":{"comuna":"Pumanque","mancha_id":"06309-88b2c39933fffff","clase":"Medio","nivel_medio":2.192,"nivel_medio_min":2.192,"nivel_medio_max":2.192,"pct_alto":47.8,"n_hexagonos":1,"area_ha":2.51}},{"type":"Feature","geometry":{"type":"Polygon","coordinates":[[[-71.608282,-34.672404],[-71.612761,-34.675259],[-71.612634,-34.676116],[-71.61257,-34.676071],[-71.611762,-34.675945],[-71.610425,-34.675995],[-71.609315,-34.676702],[-71.608609,-34.67761],[-71.607978,-34.67819],[-71.607221,-34.678796],[-71.60601,-34.679023],[-71.604976,-34.679048],[-71.604363,-34.679071],[-71.604295,-34.679073],[-71.604085,-34.678893],[-71.603765,-34.678619],[-71.603134,-34.678114],[-71.60268,-34.677988],[-71.602663,-34.677987],[-71.60239,-34.677963],[-71.6021,-34.677938],[-71.601444,-34.677736],[-71.600662,-34.677181],[-71.599703,-34.676575],[-71.598845,-34.676071],[-71.59824,-34.675894],[-71.597559,-34.675566],[-71.597256,-34.674885],[-71.597256,-34.674002],[-71.597433,-34.673271],[-71.597559,-34.672287],[-71.597608,-34.671164],[-71.598702,-34.670879],[-71.599325,-34.666693],[-71.604427,-34.665362],[-71.608905,-34.668218],[-71.608282,-34.672404]]]},"properties":{"comuna":"Pumanque","mancha_id":"06309-88b2c389a1fffff","clase":"Medio","nivel_medio":2.352,"nivel_medio_min":1.593,"nivel_medio_max":2.481,"pct_alto":39.7,"n_hexagonos":4,"area_ha":132.53}},{"type":"Feature","geometry":{"type":"Polygon","coordinates":[[[-71.615757,-34.622152],[-71.61638,-34.617962],[-71.621481,-34.616629],[-71.62596,-34.619485],[-71.631061,-34.618152],[-71.631684,-34.613962],[-71.636785,-34.612628],[-71.637408,-34.608437],[-71.642509,-34.607102],[-71.643132,-34.602911],[-71.638653,-34.600055],[-71.639275,-34.595863],[-71.644376,-34.594528],[-71.644999,-34.590336],[-71.64052,-34.587479],[-71.635419,-34.588814],[-71.634796,-34.593006],[-71.629695,-34.594341],[-71.625217,-34.591484],[-71.62584,-34.587292],[-71.621362,-34.584434],[-71.621984,-34.580242],[-71.617507,-34.577384],[-71.618129,-34.573192],[-71.623229,-34.571857],[-71.623852,-34.567663],[-71.628952,-34.566328],[-71.63343,-34.569186],[-71.632808,-34.573379],[-71.637286,-34.576237],[-71.642387,-34.574901],[-71.646866,-34.577758],[-71.651967,-34.576422],[-71.652589,-34.572228],[-71.64811,-34.569371],[-71.648732,-34.565177],[-71.653833,-34.563841],[-71.658312,-34.566698],[-71.663414,-34.565361],[-71.664036,-34.561166],[-71.659556,-34.558309],[-71.654455,-34.559646],[-71.649977,-34.556789],[-71.644876,-34.558126],[-71.644254,-34.56232],[-71.639153,-34.563656],[-71.634675,-34.560798],[-71.629575,-34.562134],[-71.625097,-34.559276],[-71.62572,-34.555082],[-71.63082,-34.553746],[-71.631442,-34.549551],[-71.636542,-34.548215],[-71.637165,-34.54402],[-71.632687,-34.541161],[-71.627587,-34.542498],[-71.626965,-34.546693],[-71.621865,-34.548029],[-71.617388,-34.54517],[-71.612288,-34.546506],[-71.611666,-34.5507],[-71.616142,-34.553559],[-71.61552,-34.557753],[-71.61042,-34.559088],[-71.609797,-34.563282],[-71.614275,-34.56614],[-71.613652,-34.570334],[-71.608552,-34.571668],[-71.604075,-34.56881],[-71.598975,-34.570144],[-71.598352,-34.574337],[-71.602829,-34.577195],[-71.607929,-34.575861],[-71.612406,-34.578719],[-71.611784,-34.582911],[-71.606684,-34.584245],[-71.606061,-34.588437],[-71.610538,-34.591295],[-71.609915,-34.595486],[-71.604815,-34.596819],[-71.604192,-34.60101],[-71.599092,-34.602343],[-71.594615,-34.599486],[-71.595238,-34.595295],[-71.600338,-34.593962],[-71.600961,-34.58977],[-71.596484,-34.586912],[-71.591384,-34.588246],[-71.586907,-34.585387],[-71.581808,-34.58672],[-71.577332,-34.583861],[-71.572233,-34.585194],[-71.567757,-34.582335],[-71.562658,-34.583667],[-71.558183,-34.580808],[-71.558806,-34.576616],[-71.554331,-34.573757],[-71.549233,-34.575088],[-71.544758,-34.572228],[-71.545382,-34.568037],[-71.55048,-34.566705],[-71.551104,-34.562513],[-71.556202,-34.56118],[-71.560676,-34.56404],[-71.560053,-34.568233],[-71.564528,-34.571092],[-71.569627,-34.56976],[-71.574102,-34.572619],[-71.579201,-34.571286],[-71.579824,-34.567094],[-71.584923,-34.56576],[-71.585546,-34.561567],[-71.581071,-34.558708],[-71.581694,-34.554515],[-71.577218,-34.551655],[-71.577841,-34.547461],[-71.574924,-34.545597],[-71.57533,-34.544704],[-71.575739,-34.543663],[-71.576514,-34.543031],[-71.576963,-34.542256],[-71.577513,-34.541766],[-71.57835,-34.541256],[-71.578962,-34.54095],[-71.579635,-34.540623],[-71.580145,-34.540338],[-71.580516,-34.539986],[-71.580553,-34.53995],[-71.581104,-34.539583],[-71.581798,-34.539277],[-71.582389,-34.538808],[-71.582818,-34.538339],[-71.582981,-34.537869],[-71.583246,-34.5374],[-71.583654,-34.537216],[-71.584164,-34.536931],[-71.585388,-34.536319],[-71.58598,-34.535788],[-71.586571,-34.53534],[-71.587122,-34.535319],[-71.587545,-34.535292],[-71.589284,-34.536404],[-71.594383,-34.535068],[-71.59468,-34.533066],[-71.594834,-34.532993],[-71.595283,-34.532667],[-71.595446,-34.532361],[-71.595793,-34.531933],[-71.59614,-34.531606],[-71.59669,-34.5313],[-71.59713,-34.53095],[-71.59702,-34.53066],[-71.59695,-34.53049],[-71.596866,-34.530386],[-71.600104,-34.529538],[-71.604581,-34.532397],[-71.603958,-34.536593],[-71.608434,-34.539452],[-71.613533,-34.538116],[-71.614156,-34.533921],[-71.60968,-34.531062],[-71.610302,-34.526866],[-71.615401,-34.525529],[-71.615572,-34.524377],[-71.6157,-34.52442],[-71.61587,-34.52444],[-71.61659,-34.52453],[-71.6181,-34.52463],[-71.61852,-34.52461],[-71.61991,-34.52455],[-71.62051,-34.52457],[-71.62132,-34.5246],[-71.6224,-34.52473],[-71.62395,-34.52498],[-71.62429,-34.52495],[-71.62459,-34.52484],[-71.62492,-34.52461],[-71.625401,-34.524193],[-71.62559,-34.52403],[-71.62617,-34.52354],[-71.62659,-34.52332],[-71.627,-34.52318],[-71.62751,-34.523],[-71.6285,-34.52264],[-71.6291,-34.52246],[-71.62966,-34.52235],[-71.62992,-34.52224],[-71.63024,-34.52204],[-71.63034,-34.52176],[-71.630359,-34.521608],[-71.630699,-34.521518],[-71.631033,-34.519264],[-71.63118,-34.51915],[-71.63176,-34.51884],[-71.63263,-34.5185],[-71.63409,-34.51793],[-71.6347,-34.5175],[-71.63566,-34.51654],[-71.63623,-34.516034],[-71.636421,-34.515984],[-71.636441,-34.515846],[-71.63691,-34.51543],[-71.63825,-34.51417],[-71.63879,-34.51377],[-71.63901,-34.51366],[-71.6395,-34.51368],[-71.64005,-34.51378],[-71.64027,-34.5138],[-71.64058,-34.51376],[-71.64095,-34.51365],[-71.64129,-34.51345],[-71.6416,-34.51315],[-71.64208,-34.51246],[-71.64236,-34.5121],[-71.64252,-34.51198],[-71.64269,-34.51195],[-71.642528,-34.5113],[-71.642457,-34.511064],[-71.642303,-34.510551],[-71.642226,-34.510295],[-71.642182,-34.510181],[-71.641959,-34.509598],[-71.64149,-34.508399],[-71.641242,-34.507599],[-71.641116,-34.507259],[-71.640792,-34.50638],[-71.640532,-34.50578],[-71.640146,-34.504852],[-71.639995,-34.504482],[-71.639966,-34.50441],[-71.639658,-34.50392],[-71.639332,-34.503356],[-71.639139,-34.503093],[-71.638857,-34.502921],[-71.638444,-34.502498],[-71.638424,-34.502467],[-71.638348,-34.502348],[-71.638169,-34.50207],[-71.638013,-34.50196],[-71.6379,-34.501759],[-71.637805,-34.501582],[-71.637538,-34.501077],[-71.637291,-34.500663],[-71.637406,-34.500572],[-71.637487,-34.500528],[-71.638768,-34.500149],[-71.638789,-34.500143],[-71.63947,-34.500173],[-71.640298,-34.500143],[-71.641156,-34.500054],[-71.641325,-34.5],[-71.642074,-34.499758],[-71.642962,-34.499492],[-71.643998,-34.499344],[-71.644737,-34.499018],[-71.645544,-34.498834],[-71.648486,-34.500714],[-71.647864,-34.504912],[-71.652342,-34.507771],[-71.65172,-34.511969],[-71.656198,-34.514828],[-71.661298,-34.513489],[-71.66192,-34.509291],[-71.66702,-34.507951],[-71.667642,-34.503753],[-71.672742,-34.502413],[-71.673364,-34.498214],[-71.668885,-34.495355],[-71.663785,-34.496695],[-71.663164,-34.500894],[-71.658064,-34.502234],[-71.653586,-34.499374],[-71.653967,-34.496799],[-71.654977,-34.496533],[-71.656072,-34.496325],[-71.657138,-34.496118],[-71.658144,-34.496],[-71.658558,-34.495615],[-71.659061,-34.495556],[-71.660364,-34.495437],[-71.661103,-34.495171],[-71.661311,-34.495115],[-71.662317,-34.494846],[-71.66282,-34.494668],[-71.663441,-34.494254],[-71.66427,-34.493691],[-71.665099,-34.493425],[-71.665839,-34.493425],[-71.666934,-34.493277],[-71.667614,-34.492981],[-71.668591,-34.492537],[-71.669338,-34.492296],[-71.669508,-34.492241],[-71.67016,-34.492212],[-71.671432,-34.491975],[-71.672113,-34.491797],[-71.672705,-34.49159],[-71.673267,-34.491383],[-71.674125,-34.491205],[-71.674776,-34.491442],[-71.675812,-34.491561],[-71.676907,-34.491679],[-71.67744,-34.491945],[-71.677818,-34.491865],[-71.678417,-34.491738],[-71.679038,-34.491768],[-71.680133,-34.491709],[-71.681228,-34.49162],[-71.682293,-34.491176],[-71.682915,-34.490821],[-71.683448,-34.490554],[-71.684158,-34.490051],[-71.684401,-34.489877],[-71.684186,-34.491333],[-71.688665,-34.494192],[-71.688043,-34.498391],[-71.692522,-34.50125],[-71.697623,-34.499908],[-71.698245,-34.495709],[-71.693765,-34.492851],[-71.694387,-34.488651],[-71.697097,-34.487938],[-71.697121,-34.487966],[-71.697225,-34.488067],[-71.697475,-34.488251],[-71.697764,-34.488385],[-71.698025,-34.488492],[-71.69857,-34.48867],[-71.698843,-34.48873],[-71.699411,-34.488822],[-71.699605,-34.488891],[-71.699771,-34.488932],[-71.70011,-34.488955],[-71.700359,-34.488976],[-71.700655,-34.489009],[-71.700816,-34.48902],[-71.701009,-34.489034],[-71.701253,-34.489043],[-71.701412,-34.489082],[-71.701741,-34.489112],[-71.701905,-34.489178],[-71.702012,-34.489234],[-71.702176,-34.489334],[-71.702314,-34.489446],[-71.702403,-34.489533],[-71.702677,-34.489635],[-71.702844,-34.489688],[-71.70295,-34.489695],[-71.703103,-34.489724],[-71.70323,-34.489765],[-71.703354,-34.489841],[-71.703529,-34.48993],[-71.703595,-34.48997],[-71.703766,-34.490127],[-71.703934,-34.490217],[-71.703957,-34.490237],[-71.704091,-34.490361],[-71.70409,-34.490465],[-71.704098,-34.490585],[-71.704117,-34.490678],[-71.70415,-34.490778],[-71.70429,-34.491007],[-71.704462,-34.491242],[-71.704667,-34.491505],[-71.705015,-34.491971],[-71.705271,-34.492352],[-71.70539,-34.492533],[-71.705696,-34.493177],[-71.705779,-34.493325],[-71.705916,-34.493363],[-71.706377,-34.493439],[-71.70666,-34.493457],[-71.707123,-34.493435],[-71.707826,-34.493409],[-71.708107,-34.493431],[-71.70826,-34.493449],[-71.709036,-34.493544],[-71.709164,-34.493552],[-71.709268,-34.493551],[-71.709372,-34.493527],[-71.709473,-34.493482],[-71.709858,-34.493362],[-71.7101,-34.493311],[-71.710717,-34.493108],[-71.711119,-34.493037],[-71.711381,-34.493016],[-71.711377,-34.493128],[-71.711324,-34.493387],[-71.711303,-34.493955],[-71.711187,-34.49452],[-71.71116,-34.495091],[-71.711101,-34.496364],[-71.711084,-34.496719],[-71.710978,-34.497695],[-71.711486,-34.497881],[-71.711913,-34.498529],[-71.712674,-34.498783],[-71.713689,-34.499182],[-71.715392,-34.499725],[-71.716298,-34.4998],[-71.717225,-34.499971],[-71.717378,-34.499999],[-71.71738,-34.5],[-71.718203,-34.500227],[-71.719124,-34.500885],[-71.719958,-34.501247],[-71.7209,-34.50161],[-71.721728,-34.501819],[-71.72261,-34.502302],[-71.723178,-34.502672],[-71.723775,-34.503212],[-71.724713,-34.503724],[-71.725765,-34.50415],[-71.726381,-34.504368],[-71.726732,-34.504492],[-71.727443,-34.504691],[-71.727926,-34.504833],[-71.728495,-34.504804],[-71.728921,-34.504804],[-71.729689,-34.504975],[-71.730002,-34.505174],[-71.730058,-34.506084],[-71.730513,-34.506823],[-71.730883,-34.507278],[-71.730897,-34.5073],[-71.731281,-34.507903],[-71.731565,-34.508699],[-71.731989,-34.509075],[-71.732532,-34.509325],[-71.733214,-34.509183],[-71.734152,-34.509239],[-71.735005,-34.509382],[-71.735716,-34.509638],[-71.736029,-34.510235],[-71.736285,-34.510945],[-71.736541,-34.511514],[-71.737024,-34.51231],[-71.737198,-34.513296],[-71.73711,-34.513737],[-71.734709,-34.514369],[-71.734088,-34.518568],[-71.728986,-34.51991],[-71.724505,-34.517053],[-71.719403,-34.518395],[-71.718781,-34.522593],[-71.723262,-34.52545],[-71.722641,-34.529648],[-71.717539,-34.530989],[-71.716918,-34.535187],[-71.711816,-34.536528],[-71.711194,-34.540725],[-71.706092,-34.542065],[-71.705471,-34.546261],[-71.700369,-34.547601],[-71.699747,-34.551797],[-71.704228,-34.554654],[-71.703606,-34.558849],[-71.698504,-34.560188],[-71.697882,-34.564384],[-71.69278,-34.565722],[-71.692159,-34.569917],[-71.696639,-34.572773],[-71.701742,-34.571434],[-71.706223,-34.57429],[-71.711326,-34.572951],[-71.715807,-34.575806],[-71.72091,-34.574467],[-71.721532,-34.570272],[-71.726635,-34.568932],[-71.731117,-34.571787],[-71.730496,-34.575982],[-71.725392,-34.577322],[-71.724771,-34.581517],[-71.719668,-34.582856],[-71.719046,-34.58705],[-71.723528,-34.589905],[-71.722907,-34.594098],[-71.727389,-34.596953],[-71.732493,-34.595614],[-71.733114,-34.59142],[-71.728632,-34.588565],[-71.729253,-34.584371],[-71.734357,-34.583032],[-71.738839,-34.585886],[-71.738218,-34.59008],[-71.742701,-34.592934],[-71.747806,-34.591594],[-71.748427,-34.5874],[-71.753531,-34.58606],[-71.754152,-34.581865],[-71.749668,-34.579011],[-71.750289,-34.574816],[-71.755393,-34.573475],[-71.759877,-34.576329],[-71.764981,-34.574987],[-71.765602,-34.570792],[-71.761118,-34.567938],[-71.761739,-34.563741],[-71.766843,-34.562399],[-71.771327,-34.565254],[-71.770706,-34.56945],[-71.77519,-34.572304],[-71.780295,-34.570961],[-71.780915,-34.566765],[-71.776431,-34.563911],[-71.777052,-34.559715],[-71.782156,-34.558372],[-71.782777,-34.554175],[-71.787881,-34.552831],[-71.792366,-34.555685],[-71.797471,-34.554342],[-71.798091,-34.550144],[-71.793606,-34.54729],[-71.788502,-34.548634],[-71.784018,-34.545779],[-71.784638,-34.541581],[-71.789743,-34.540237],[-71.794227,-34.543092],[-71.799331,-34.541747],[-71.803816,-34.544601],[-71.808921,-34.543257],[-71.813406,-34.54611],[-71.812786,-34.550309],[-71.817271,-34.553162],[-71.822377,-34.551817],[-71.826862,-34.55467],[-71.831968,-34.553325],[-71.832588,-34.549126],[-71.837694,-34.547781],[-71.838314,-34.543582],[-71.84342,-34.542235],[-71.844039,-34.538036],[-71.839553,-34.535183],[-71.840173,-34.530983],[-71.845278,-34.529636],[-71.848277,-34.531543],[-71.848043,-34.531667],[-71.847511,-34.532011],[-71.847354,-34.532606],[-71.847292,-34.533045],[-71.847323,-34.533577],[-71.847417,-34.534079],[-71.84748,-34.534736],[-71.847511,-34.5353],[-71.847824,-34.535864],[-71.848012,-34.536115],[-71.848419,-34.536397],[-71.848639,-34.536773],[-71.848643,-34.536822],[-71.848701,-34.537462],[-71.848733,-34.538433],[-71.848889,-34.539247],[-71.84914,-34.539686],[-71.84961,-34.54003],[-71.849798,-34.540344],[-71.849829,-34.540845],[-71.849704,-34.541064],[-71.849359,-34.54144],[-71.848983,-34.541941],[-71.848795,-34.542348],[-71.848733,-34.542756],[-71.848921,-34.543132],[-71.848983,-34.543476],[-71.848701,-34.543789],[-71.848325,-34.544009],[-71.847511,-34.544165],[-71.84726,-34.544322],[-71.847155,-34.544611],[-71.847135,-34.544667],[-71.847135,-34.545857],[-71.847135,-34.546327],[-71.847104,-34.546797],[-71.846822,-34.547267],[-71.846414,-34.547392],[-71.846195,-34.547611],[-71.846195,-34.54805],[-71.846101,-34.548614],[-71.845882,-34.549146],[-71.845381,-34.549679],[-71.845243,-34.549826],[-71.844942,-34.550148],[-71.844566,-34.550336],[-71.844002,-34.55065],[-71.843501,-34.550963],[-71.843188,-34.551307],[-71.842906,-34.551809],[-71.842561,-34.552341],[-71.84206,-34.55278],[-71.841843,-34.552917],[-71.841465,-34.553156],[-71.841215,-34.553594],[-71.84087,-34.554252],[-71.840619,-34.554628],[-71.840736,-34.555049],[-71.840776,-34.555192],[-71.841121,-34.555756],[-71.840995,-34.556038],[-71.840619,-34.556382],[-71.840275,-34.557165],[-71.839913,-34.557978],[-71.839609,-34.558535],[-71.839457,-34.559269],[-71.839147,-34.55964],[-71.838395,-34.559922],[-71.8378,-34.560016],[-71.836672,-34.560141],[-71.836296,-34.560454],[-71.836245,-34.560636],[-71.836171,-34.560893],[-71.836171,-34.561801],[-71.83614,-34.56318],[-71.836077,-34.563744],[-71.835858,-34.564276],[-71.835607,-34.564464],[-71.835169,-34.564401],[-71.834855,-34.564307],[-71.834672,-34.564268],[-71.834438,-34.564315],[-71.834146,-34.564432],[-71.833772,-34.564514],[-71.833433,-34.564479],[-71.833039,-34.564589],[-71.832779,-34.564759],[-71.832651,-34.564954],[-71.832627,-34.565145],[-71.832732,-34.565308],[-71.832942,-34.565647],[-71.833133,-34.565936],[-71.833509,-34.566563],[-71.833978,-34.567221],[-71.833947,-34.567816],[-71.833686,-34.568193],[-71.833665,-34.568223],[-71.833352,-34.568599],[-71.832976,-34.568944],[-71.832349,-34.569257],[-71.831942,-34.569539],[-71.831754,-34.569821],[-71.83174,-34.570038],[-71.831692,-34.570247],[-71.831635,-34.570523],[-71.831637,-34.570746],[-71.831818,-34.571027],[-71.831978,-34.571247],[-71.831968,-34.571513],[-71.83192,-34.571913],[-71.831797,-34.572341],[-71.831664,-34.572789],[-71.831471,-34.573228],[-71.831096,-34.573513],[-71.830566,-34.573749],[-71.830437,-34.5739],[-71.830254,-34.574114],[-71.829913,-34.574675],[-71.829652,-34.575056],[-71.829312,-34.575257],[-71.82883,-34.575317],[-71.828715,-34.575353],[-71.82851,-34.575417],[-71.828028,-34.575738],[-71.827487,-34.576039],[-71.826725,-34.57636],[-71.826066,-34.576713],[-71.825783,-34.576961],[-71.825703,-34.577262],[-71.825683,-34.577623],[-71.825663,-34.578364],[-71.825583,-34.578926],[-71.825529,-34.579225],[-71.825382,-34.580048],[-71.825242,-34.58081],[-71.824961,-34.581632],[-71.824761,-34.582053],[-71.82456,-34.582334],[-71.824199,-34.582695],[-71.823979,-34.582995],[-71.823758,-34.583376],[-71.823618,-34.583777],[-71.823598,-34.584038],[-71.823397,-34.584238],[-71.823129,-34.584435],[-71.823097,-34.584459],[-71.822736,-34.58484],[-71.822275,-34.585361],[-71.822094,-34.585802],[-71.821894,-34.586243],[-71.821713,-34.586664],[-71.821733,-34.587065],[-71.821854,-34.587506],[-71.822054,-34.587847],[-71.822134,-34.588188],[-71.822194,-34.588569],[-71.822174,-34.589591],[-71.822194,-34.589892],[-71.822235,-34.590373],[-71.822235,-34.590634],[-71.821974,-34.590874],[-71.821653,-34.591235],[-71.821212,-34.591716],[-71.821194,-34.592385],[-71.821192,-34.592458],[-71.821152,-34.59326],[-71.820972,-34.594002],[-71.820791,-34.594583],[-71.820871,-34.594924],[-71.820907,-34.594985],[-71.821092,-34.595305],[-71.821252,-34.595666],[-71.821372,-34.596267],[-71.821493,-34.596728],[-71.821673,-34.597009],[-71.822054,-34.59745],[-71.822495,-34.597771],[-71.822495,-34.597801],[-71.822495,-34.598032],[-71.822435,-34.598613],[-71.822215,-34.599014],[-71.821794,-34.599415],[-71.821533,-34.599756],[-71.821112,-34.600397],[-71.820731,-34.600959],[-71.82021,-34.6016],[-71.820029,-34.601941],[-71.819889,-34.602562],[-71.819929,-34.603184],[-71.819949,-34.603785],[-71.819949,-34.604567],[-71.819927,-34.604893],[-71.819909,-34.605149],[-71.819809,-34.60557],[-71.819729,-34.606131],[-71.819729,-34.606532],[-71.819729,-34.606752],[-71.819668,-34.607133],[-71.819588,-34.607574],[-71.819368,-34.607995],[-71.81923,-34.608339],[-71.818925,-34.608561],[-71.818897,-34.608582],[-71.818564,-34.608839],[-71.818459,-34.609311],[-71.818453,-34.609338],[-71.818564,-34.609672],[-71.818566,-34.610141],[-71.818536,-34.61081],[-71.818453,-34.611226],[-71.818301,-34.611486],[-71.818045,-34.611744],[-71.817664,-34.612105],[-71.817203,-34.612448],[-71.81687,-34.612781],[-71.816649,-34.613139],[-71.816357,-34.613884],[-71.81613,-34.614435],[-71.815871,-34.615051],[-71.815741,-34.615861],[-71.815653,-34.616394],[-71.815644,-34.616444],[-71.815579,-34.617254],[-71.815936,-34.617999],[-71.81626,-34.61855],[-71.816552,-34.619004],[-71.816811,-34.619425],[-71.817176,-34.619695],[-71.817252,-34.619703],[-71.817623,-34.619744],[-71.81801,-34.61976],[-71.818436,-34.619691],[-71.818854,-34.619698],[-71.819147,-34.619667],[-71.819588,-34.619744],[-71.820029,-34.619824],[-71.820258,-34.62],[-71.820571,-34.620205],[-71.820851,-34.620546],[-71.821202,-34.621167],[-71.821368,-34.621694],[-71.821535,-34.622166],[-71.821729,-34.622666],[-71.822146,-34.623166],[-71.822575,-34.623633],[-71.822776,-34.623914],[-71.823033,-34.624231],[-71.823117,-34.624335],[-71.823558,-34.624756],[-71.824079,-34.624996],[-71.82438,-34.625157],[-71.8245,-34.625297],[-71.82452,-34.625578],[-71.82456,-34.626199],[-71.8245,-34.62672],[-71.82452,-34.627202],[-71.82454,-34.627623],[-71.82444,-34.627883],[-71.824039,-34.628324],[-71.823357,-34.628785],[-71.822976,-34.629126],[-71.822575,-34.629467],[-71.822248,-34.62976],[-71.821994,-34.629988],[-71.821433,-34.630289],[-71.821172,-34.63051],[-71.820951,-34.63085],[-71.820791,-34.631372],[-71.820591,-34.631712],[-71.82019,-34.632053],[-71.819688,-34.632334],[-71.818907,-34.632474],[-71.818125,-34.632494],[-71.817664,-34.632675],[-71.817323,-34.632895],[-71.817062,-34.633116],[-71.816822,-34.633597],[-71.816481,-34.633958],[-71.81616,-34.634339],[-71.815585,-34.6347],[-71.815458,-34.63478],[-71.815117,-34.635181],[-71.814917,-34.635562],[-71.814797,-34.635902],[-71.814897,-34.636083],[-71.815037,-34.636344],[-71.815238,-34.636584],[-71.815518,-34.636965],[-71.815478,-34.637186],[-71.815258,-34.637446],[-71.814997,-34.637627],[-71.814737,-34.637647],[-71.814235,-34.637687],[-71.814095,-34.637727],[-71.813975,-34.637827],[-71.813935,-34.638048],[-71.813774,-34.638629],[-71.813494,-34.639311],[-71.813313,-34.639712],[-71.813113,-34.640353],[-71.813113,-34.640634],[-71.813253,-34.641115],[-71.813333,-34.641596],[-71.813073,-34.642097],[-71.812992,-34.642198],[-71.812969,-34.642211],[-71.812632,-34.642398],[-71.81211,-34.642518],[-71.81197,-34.642578],[-71.81189,-34.642679],[-71.811789,-34.642879],[-71.811689,-34.64316],[-71.811569,-34.643461],[-71.811308,-34.644082],[-71.810907,-34.644543],[-71.810206,-34.645405],[-71.809725,-34.645987],[-71.809524,-34.646368],[-71.809304,-34.646789],[-71.809043,-34.64719],[-71.808822,-34.64747],[-71.808642,-34.647651],[-71.808702,-34.647871],[-71.808842,-34.648052],[-71.808885,-34.648094],[-71.809043,-34.648252],[-71.809163,-34.648533],[-71.809223,-34.648874],[-71.809364,-34.649255],[-71.809364,-34.649415],[-71.809283,-34.650157],[-71.809103,-34.650558],[-71.808923,-34.650999],[-71.808842,-34.65146],[-71.808702,-34.651961],[-71.808482,-34.652322],[-71.808381,-34.652583],[-71.808272,-34.652983],[-71.808261,-34.653024],[-71.808361,-34.653284],[-71.808462,-34.653685],[-71.808762,-34.654106],[-71.809043,-34.654688],[-71.809123,-34.654868],[-71.808943,-34.65587],[-71.808421,-34.656011],[-71.808121,-34.656211],[-71.8078,-34.656432],[-71.80766,-34.656813],[-71.807559,-34.657214],[-71.807519,-34.657474],[-71.807359,-34.657815],[-71.807038,-34.658036],[-71.806878,-34.658156],[-71.806717,-34.658396],[-71.806316,-34.658838],[-71.805815,-34.659299],[-71.805615,-34.659559],[-71.805394,-34.65998],[-71.805284,-34.660255],[-71.805274,-34.660281],[-71.805214,-34.660943],[-71.805073,-34.661865],[-71.804973,-34.662226],[-71.804813,-34.662426],[-71.804432,-34.662526],[-71.803971,-34.662526],[-71.80361,-34.662526],[-71.803149,-34.662727],[-71.802688,-34.662907],[-71.802066,-34.663268],[-71.801565,-34.663749],[-71.801385,-34.66401],[-71.801164,-34.664331],[-71.801024,-34.664732],[-71.800943,-34.665213],[-71.800943,-34.665473],[-71.800863,-34.665814],[-71.800723,-34.666315],[-71.800706,-34.666352],[-71.800502,-34.666797],[-71.800448,-34.666915],[-71.800282,-34.667278],[-71.799941,-34.667679],[-71.7995,-34.66804],[-71.798979,-34.668481],[-71.798377,-34.668842],[-71.797836,-34.669283],[-71.797375,-34.669664],[-71.797034,-34.670345],[-71.796533,-34.670886],[-71.796074,-34.671594],[-71.796052,-34.671628],[-71.795711,-34.671929],[-71.79531,-34.67227],[-71.794849,-34.67253],[-71.794702,-34.672567],[-71.794207,-34.672691],[-71.793866,-34.672831],[-71.793586,-34.672971],[-71.793285,-34.673232],[-71.793004,-34.673493],[-71.792828,-34.673809],[-71.792751,-34.676492],[-71.792666,-34.679492],[-71.79234,-34.67959],[-71.79039,-34.68101],[-71.78947,-34.68178],[-71.789159,-34.682097],[-71.788448,-34.681646],[-71.783341,-34.682984],[-71.78272,-34.687173],[-71.784207,-34.688117],[-71.7838,-34.68838],[-71.78273,-34.68903],[-71.78211,-34.68936],[-71.7811,-34.68981],[-71.78049,-34.69015],[-71.77988,-34.69072],[-71.77894,-34.69161],[-71.77854,-34.69201],[-71.77827,-34.69224],[-71.77805,-34.69234],[-71.77746,-34.69248],[-71.777011,-34.69257],[-71.77646,-34.69268],[-71.77492,-34.69292],[-71.77414,-34.69304],[-71.77151,-34.69335],[-71.770922,-34.693424],[-71.76977,-34.69357],[-71.76738,-34.69387],[-71.76623,-34.69402],[-71.7654,-34.69428],[-71.76454,-34.69454],[-71.76328,-34.69491],[-71.76188,-34.695299],[-71.761129,-34.695507],[-71.7586,-34.69621],[-71.75819,-34.69627],[-71.75728,-34.69617],[-71.756915,-34.696115],[-71.757117,-34.695769],[-71.757175,-34.695365],[-71.757276,-34.695088],[-71.757365,-34.694874],[-71.757436,-34.69459],[-71.757578,-34.694519],[-71.75788,-34.69443],[-71.758147,-34.694394],[-71.758325,-34.694198],[-71.758432,-34.694021],[-71.758254,-34.693896],[-71.758058,-34.693878],[-71.757756,-34.693825],[-71.757436,-34.693771],[-71.756938,-34.693789],[-71.756422,-34.693825],[-71.755924,-34.693843],[-71.755424,-34.693898],[-71.75489,-34.693898],[-71.754512,-34.69392],[-71.75409,-34.693943],[-71.753667,-34.694032],[-71.7532,-34.694209],[-71.752978,-34.694276],[-71.752689,-34.694298],[-71.752355,-34.694298],[-71.752217,-34.694264],[-71.752,-34.694209],[-71.75151,-34.694076],[-71.751021,-34.693898],[-71.750465,-34.693698],[-71.75,-34.693512],[-71.74991,-34.693476],[-71.749554,-34.693342],[-71.749087,-34.69332],[-71.74862,-34.693387],[-71.748309,-34.693431],[-71.747708,-34.693565],[-71.747108,-34.693654],[-71.746419,-34.693609],[-71.745663,-34.693565],[-71.744774,-34.693498],[-71.744151,-34.693409],[-71.743617,-34.693387],[-71.743106,-34.693409],[-71.742639,-34.693498],[-71.74251,-34.693522],[-71.742039,-34.693609],[-71.741654,-34.693748],[-71.741414,-34.693962],[-71.741413,-34.693963],[-71.740749,-34.694312],[-71.740171,-34.694591],[-71.739771,-34.694841],[-71.739446,-34.695288],[-71.739299,-34.695446],[-71.739064,-34.695909],[-71.739011,-34.696327],[-71.738945,-34.696567],[-71.738876,-34.696813],[-71.738741,-34.697049],[-71.738499,-34.697342],[-71.737956,-34.697792],[-71.737612,-34.698001],[-71.737355,-34.698222],[-71.737134,-34.698504],[-71.736965,-34.698864],[-71.736802,-34.698978],[-71.736792,-34.698982],[-71.736649,-34.699037],[-71.736439,-34.699096],[-71.736173,-34.699283],[-71.736099,-34.699376],[-71.735879,-34.699657],[-71.735755,-34.70004],[-71.73575,-34.700049],[-71.735599,-34.699997],[-71.73556,-34.700105],[-71.735523,-34.700207],[-71.735467,-34.700291],[-71.735398,-34.700393],[-71.735295,-34.700545],[-71.735221,-34.700655],[-71.735008,-34.700814],[-71.734936,-34.700868],[-71.734825,-34.700953],[-71.73479,-34.700885],[-71.734713,-34.700734],[-71.734705,-34.700627],[-71.734688,-34.700417],[-71.734683,-34.700354],[-71.734688,-34.700276],[-71.734694,-34.700181],[-71.734701,-34.700073],[-71.734707,-34.699989],[-71.734714,-34.699948],[-71.734731,-34.699859],[-71.734753,-34.699738],[-71.734755,-34.699728],[-71.734761,-34.699693],[-71.734779,-34.699611],[-71.7348,-34.69951],[-71.734822,-34.699408],[-71.734851,-34.699272],[-71.734869,-34.699186],[-71.734879,-34.699139],[-71.734902,-34.699028],[-71.734928,-34.698909],[-71.734949,-34.698811],[-71.734993,-34.698602],[-71.735,-34.698552],[-71.735016,-34.698449],[-71.735035,-34.698323],[-71.73505,-34.698222],[-71.735041,-34.698108],[-71.735034,-34.69801],[-71.735027,-34.697913],[-71.735015,-34.697762],[-71.735003,-34.697606],[-71.734982,-34.697328],[-71.73489,-34.697288],[-71.734769,-34.697235],[-71.734668,-34.697192],[-71.734553,-34.697138],[-71.734421,-34.697077],[-71.734356,-34.697047],[-71.734247,-34.696984],[-71.73417,-34.696939],[-71.734079,-34.696872],[-71.734068,-34.696864],[-71.734042,-34.696847],[-71.733934,-34.69679],[-71.733894,-34.69677],[-71.733814,-34.696707],[-71.733713,-34.696661],[-71.733558,-34.696591],[-71.733477,-34.696564],[-71.733352,-34.696522],[-71.733299,-34.696504],[-71.733137,-34.696437],[-71.732985,-34.696358],[-71.732848,-34.69634],[-71.732802,-34.696334],[-71.732796,-34.696332],[-71.73255,-34.69609],[-71.732456,-34.695918],[-71.732374,-34.695587],[-71.732332,-34.695164],[-71.732219,-34.694812],[-71.731981,-34.694471],[-71.731743,-34.694203],[-71.731506,-34.693996],[-71.731309,-34.693862],[-71.731216,-34.693831],[-71.730937,-34.693934],[-71.730679,-34.694058],[-71.730503,-34.694213],[-71.730173,-34.694275],[-71.729832,-34.694306],[-71.729377,-34.694606],[-71.728984,-34.694988],[-71.728654,-34.695257],[-71.728313,-34.695484],[-71.727827,-34.695711],[-71.727443,-34.695839],[-71.727331,-34.695877],[-71.726897,-34.696083],[-71.726422,-34.696373],[-71.726019,-34.696569],[-71.725729,-34.696683],[-71.725347,-34.696827],[-71.724892,-34.696879],[-71.724489,-34.69691],[-71.724055,-34.69691],[-71.723787,-34.69691],[-71.723425,-34.696827],[-71.723022,-34.696724],[-71.722774,-34.696631],[-71.722154,-34.696466],[-71.721513,-34.696342],[-71.721162,-34.696331],[-71.7208,-34.696383],[-71.720314,-34.696466],[-71.720004,-34.696466],[-71.719612,-34.696311],[-71.719374,-34.696135],[-71.718971,-34.696042],[-71.718454,-34.696145],[-71.717989,-34.696362],[-71.717941,-34.696401],[-71.717679,-34.69661],[-71.717307,-34.696745],[-71.716904,-34.696765],[-71.716326,-34.696714],[-71.716013,-34.696581],[-71.715912,-34.696538],[-71.715571,-34.69628],[-71.715354,-34.696125],[-71.714972,-34.695877],[-71.714724,-34.695732],[-71.714176,-34.69567],[-71.713691,-34.695722],[-71.713267,-34.695928],[-71.712957,-34.696187],[-71.712544,-34.696362],[-71.712161,-34.696517],[-71.711686,-34.696641],[-71.7112,-34.696696],[-71.711045,-34.696714],[-71.710746,-34.696714],[-71.710322,-34.696693],[-71.709847,-34.696621],[-71.709557,-34.696548],[-71.709423,-34.696414],[-71.709206,-34.696207],[-71.708927,-34.69599],[-71.708762,-34.695908],[-71.7084,-34.695753],[-71.707966,-34.695587],[-71.707584,-34.695432],[-71.70716,-34.695257],[-71.706747,-34.695153],[-71.706385,-34.695074],[-71.706044,-34.694998],[-71.705362,-34.69505],[-71.704742,-34.695164],[-71.704236,-34.695205],[-71.703812,-34.695339],[-71.703502,-34.695474],[-71.703068,-34.695649],[-71.702603,-34.695794],[-71.702585,-34.695798],[-71.702095,-34.695903],[-71.701417,-34.696048],[-71.7009,-34.696064],[-71.700351,-34.695822],[-71.700109,-34.695548],[-71.700093,-34.694999],[-71.700061,-34.694385],[-71.700049,-34.694185],[-71.700028,-34.69382],[-71.700028,-34.693013],[-71.700077,-34.692544],[-71.699931,-34.692157],[-71.699786,-34.691818],[-71.699463,-34.691656],[-71.699059,-34.691463],[-71.698737,-34.69114],[-71.698706,-34.691087],[-71.699023,-34.68895],[-71.696732,-34.687492],[-71.696718,-34.687426],[-71.696525,-34.686942],[-71.696234,-34.686716],[-71.69575,-34.686296],[-71.69533,-34.685779],[-71.694958,-34.685424],[-71.694689,-34.685095],[-71.694522,-34.684891],[-71.694296,-34.684261],[-71.694183,-34.683632],[-71.694054,-34.682986],[-71.693893,-34.682598],[-71.693667,-34.682082],[-71.693457,-34.681581],[-71.693425,-34.681048],[-71.693462,-34.680829],[-71.693554,-34.68029],[-71.693731,-34.679821],[-71.69378,-34.679482],[-71.693683,-34.679127],[-71.693344,-34.678643],[-71.692924,-34.678158],[-71.692633,-34.677868],[-71.692407,-34.677545],[-71.692068,-34.677367],[-71.691697,-34.677319],[-71.691277,-34.677319],[-71.691035,-34.677399],[-71.690927,-34.67739],[-71.69068,-34.677367],[-71.690341,-34.67727],[-71.690082,-34.677109],[-71.689743,-34.676867],[-71.689469,-34.676576],[-71.689275,-34.676124],[-71.688904,-34.675656],[-71.6885,-34.675413],[-71.687935,-34.67522],[-71.687612,-34.675091],[-71.68737,-34.6748],[-71.687289,-34.674477],[-71.687257,-34.674138],[-71.687305,-34.67346],[-71.687354,-34.67304],[-71.687354,-34.672879],[-71.687273,-34.672362],[-71.687206,-34.672264],[-71.691301,-34.674871],[-71.696406,-34.673537],[-71.697028,-34.669349],[-71.692545,-34.666496],[-71.687441,-34.66783],[-71.686855,-34.671776],[-71.686353,-34.671425],[-71.685723,-34.671296],[-71.685416,-34.671183],[-71.685077,-34.67107],[-71.684576,-34.671022],[-71.684221,-34.671086],[-71.683834,-34.671458],[-71.683269,-34.671635],[-71.682704,-34.671619],[-71.682187,-34.671442],[-71.681719,-34.671442],[-71.681347,-34.671458],[-71.680798,-34.671458],[-71.68033,-34.671361],[-71.679733,-34.671264],[-71.678554,-34.671151],[-71.678134,-34.671072],[-71.677779,-34.671006],[-71.676988,-34.670925],[-71.676116,-34.670925],[-71.675602,-34.670925],[-71.675115,-34.670925],[-71.674501,-34.670941],[-71.673371,-34.671167],[-71.672709,-34.671458],[-71.67216,-34.671748],[-71.67207,-34.671795],[-71.667648,-34.668979],[-71.662544,-34.670312],[-71.661922,-34.674499],[-71.656818,-34.675832],[-71.656672,-34.676817],[-71.656189,-34.67708],[-71.655104,-34.677206],[-71.654549,-34.677358],[-71.653893,-34.677408],[-71.65354,-34.67708],[-71.653086,-34.676651],[-71.65238,-34.676727],[-71.651926,-34.677156],[-71.651446,-34.677635],[-71.650614,-34.678165],[-71.649478,-34.678644],[-71.648293,-34.678846],[-71.647536,-34.678871],[-71.6472,-34.678871],[-71.646527,-34.678871],[-71.645341,-34.678896],[-71.644584,-34.679048],[-71.644531,-34.67904],[-71.64408,-34.678972],[-71.643525,-34.678493],[-71.643171,-34.678215],[-71.642944,-34.677963],[-71.642465,-34.677761],[-71.641809,-34.677711],[-71.641607,-34.677257],[-71.641557,-34.676752],[-71.641481,-34.676096],[-71.641153,-34.675718],[-71.640497,-34.675314],[-71.640396,-34.674835],[-71.640548,-34.67433],[-71.640573,-34.6738],[-71.640119,-34.673043],[-71.639463,-34.67264],[-71.638718,-34.67251],[-71.638454,-34.672463],[-71.637377,-34.672614],[-71.637369,-34.672615],[-71.636385,-34.672842],[-71.635906,-34.672892],[-71.635124,-34.672842],[-71.634468,-34.672589],[-71.63366,-34.672236],[-71.632954,-34.671732],[-71.632525,-34.671429],[-71.63197,-34.670622],[-71.631735,-34.670308],[-71.631289,-34.669713],[-71.630986,-34.669385],[-71.630229,-34.668957],[-71.6298,-34.669057],[-71.629296,-34.669587],[-71.629422,-34.670067],[-71.629624,-34.670723],[-71.629637,-34.670856],[-71.629725,-34.671732],[-71.629548,-34.672337],[-71.629119,-34.672791],[-71.628665,-34.67317],[-71.628262,-34.673094],[-71.62784,-34.672799],[-71.627757,-34.672741],[-71.62695,-34.67269],[-71.626218,-34.672766],[-71.62536,-34.673144],[-71.624099,-34.673472],[-71.623241,-34.673826],[-71.622711,-34.674053],[-71.622636,-34.674532],[-71.622257,-34.67491],[-71.621349,-34.675465],[-71.620786,-34.675791],[-71.617864,-34.673928],[-71.618486,-34.669742],[-71.614007,-34.666887],[-71.61463,-34.6627],[-71.619732,-34.661369],[-71.620355,-34.657182],[-71.615876,-34.654326],[-71.616499,-34.650139],[-71.61202,-34.647283],[-71.612643,-34.643095],[-71.608165,-34.640239],[-71.608788,-34.636051],[-71.604309,-34.633194],[-71.604932,-34.629006],[-71.600454,-34.626149],[-71.601077,-34.62196],[-71.606178,-34.620628],[-71.610656,-34.623484],[-71.615757,-34.622152]],[[-71.592514,-34.547652],[-71.59699,-34.550512],[-71.60209,-34.549177],[-71.602712,-34.544982],[-71.598236,-34.542123],[-71.593137,-34.543458],[-71.588661,-34.540598],[-71.583563,-34.541933],[-71.58294,-34.546127],[-71.587415,-34.548987],[-71.592514,-34.547652]],[[-71.797899,-34.650978],[-71.79852,-34.646787],[-71.794033,-34.643936],[-71.794654,-34.639744],[-71.790168,-34.636893],[-71.790789,-34.632701],[-71.786303,-34.629849],[-71.786923,-34.625657],[-71.79203,-34.624316],[-71.796515,-34.627168],[-71.801622,-34.625827],[-71.802242,-34.621634],[-71.797756,-34.618782],[-71.79265,-34.620123],[-71.788165,-34.617272],[-71.788785,-34.613078],[-71.7843,-34.610226],[-71.779194,-34.611567],[-71.774709,-34.608714],[-71.769604,-34.610055],[-71.76512,-34.607202],[-71.760015,-34.608542],[-71.759394,-34.612735],[-71.754289,-34.614075],[-71.749805,-34.611222],[-71.750426,-34.607029],[-71.755531,-34.605689],[-71.756152,-34.601496],[-71.761256,-34.600155],[-71.761877,-34.595961],[-71.757393,-34.593108],[-71.752289,-34.594448],[-71.751668,-34.598642],[-71.746563,-34.599982],[-71.745942,-34.604175],[-71.740838,-34.605515],[-71.736355,-34.602661],[-71.731251,-34.604],[-71.73063,-34.608193],[-71.735112,-34.611047],[-71.740217,-34.609708],[-71.7447,-34.612561],[-71.744079,-34.616753],[-71.748563,-34.619607],[-71.753668,-34.618267],[-71.758152,-34.62112],[-71.763257,-34.619781],[-71.767742,-34.622633],[-71.767121,-34.626825],[-71.771606,-34.629678],[-71.776712,-34.628338],[-71.781197,-34.63119],[-71.780576,-34.635382],[-71.77547,-34.636721],[-71.774849,-34.640913],[-71.769743,-34.642252],[-71.769122,-34.646443],[-71.773608,-34.649295],[-71.772987,-34.653485],[-71.777472,-34.656336],[-71.782579,-34.654997],[-71.787065,-34.657848],[-71.792172,-34.656509],[-71.792792,-34.652318],[-71.797899,-34.650978]],[[-71.809065,-34.575492],[-71.809685,-34.571296],[-71.8052,-34.568443],[-71.800095,-34.569786],[-71.799474,-34.573983],[-71.80396,-34.576836],[-71.809065,-34.575492]],[[-71.725171,-34.678088],[-71.729655,-34.68094],[-71.73476,-34.679604],[-71.739245,-34.682455],[-71.744351,-34.681119],[-71.744972,-34.676931],[-71.740487,-34.674079],[-71.735382,-34.675416],[-71.730898,-34.672564],[-71.725792,-34.6739],[-71.725171,-34.678088]],[[-71.736624,-34.667039],[-71.741109,-34.669891],[-71.746214,-34.668554],[-71.746836,-34.664365],[-71.751942,-34.663028],[-71.752563,-34.658838],[-71.748078,-34.655986],[-71.748699,-34.651797],[-71.744215,-34.648944],[-71.73911,-34.650282],[-71.734626,-34.64743],[-71.729521,-34.648767],[-71.725037,-34.645914],[-71.725659,-34.641724],[-71.721176,-34.638871],[-71.721797,-34.63468],[-71.717314,-34.631827],[-71.71221,-34.633164],[-71.707728,-34.63031],[-71.702624,-34.631647],[-71.702002,-34.635837],[-71.706484,-34.638691],[-71.711588,-34.637354],[-71.716071,-34.640208],[-71.71545,-34.644398],[-71.719933,-34.647251],[-71.719311,-34.65144],[-71.723794,-34.654293],[-71.728899,-34.652957],[-71.733383,-34.655809],[-71.738488,-34.654472],[-71.742973,-34.657324],[-71.742351,-34.661513],[-71.737246,-34.66285],[-71.736624,-34.667039]],[[-71.687313,-34.635655],[-71.692416,-34.634319],[-71.693038,-34.630129],[-71.688557,-34.627275],[-71.683453,-34.628611],[-71.682831,-34.632801],[-71.687313,-34.635655]],[[-71.727523,-34.629152],[-71.726902,-34.633343],[-71.731385,-34.636196],[-71.73649,-34.634858],[-71.737111,-34.630667],[-71.732627,-34.627814],[-71.727523,-34.629152]],[[-71.67349,-34.530458],[-71.678591,-34.529119],[-71.679213,-34.524922],[-71.674734,-34.522064],[-71.675355,-34.517866],[-71.670877,-34.515008],[-71.665776,-34.516347],[-71.665154,-34.520545],[-71.669633,-34.523403],[-71.669011,-34.5276],[-71.67349,-34.530458]],[[-71.667145,-34.54019],[-71.667767,-34.535993],[-71.663289,-34.533136],[-71.658188,-34.534474],[-71.657566,-34.53867],[-71.652465,-34.540008],[-71.647987,-34.53715],[-71.648609,-34.532954],[-71.65371,-34.531616],[-71.654332,-34.527419],[-71.649854,-34.524561],[-71.644754,-34.525899],[-71.644131,-34.530095],[-71.639031,-34.531433],[-71.634554,-34.528574],[-71.629454,-34.529911],[-71.628832,-34.534107],[-71.633309,-34.536966],[-71.638409,-34.535629],[-71.642887,-34.538487],[-71.642265,-34.542683],[-71.646743,-34.545541],[-71.651843,-34.544204],[-71.656322,-34.547061],[-71.661423,-34.545724],[-71.662045,-34.541528],[-71.667145,-34.54019]],[[-71.660303,-34.586328],[-71.665405,-34.584992],[-71.666027,-34.580799],[-71.661547,-34.577942],[-71.656446,-34.579279],[-71.655824,-34.583472],[-71.660303,-34.586328]],[[-71.678845,-34.59356],[-71.673743,-34.594897],[-71.673121,-34.599089],[-71.677601,-34.601945],[-71.682704,-34.600608],[-71.683326,-34.596416],[-71.678845,-34.59356]],[[-71.768844,-34.582037],[-71.773328,-34.58489],[-71.778433,-34.583548],[-71.779054,-34.579353],[-71.77457,-34.5765],[-71.769465,-34.577841],[-71.768844,-34.582037]]]},"properties":{"comuna":"Pumanque","mancha_id":"06309-88b2c38901fffff","clase":"Medio","nivel_medio":2.107,"nivel_medio_min":1.501,"nivel_medio_max":2.499,"pct_alto":21.4,"n_hexagonos":489,"area_ha":28269.84}},{"type":"Feature","geometry":{"type":"Polygon","coordinates":[[[-71.573592,-34.609004],[-71.574216,-34.604814],[-71.579315,-34.603483],[-71.583792,-34.606341],[-71.583169,-34.61053],[-71.578069,-34.611862],[-71.573592,-34.609004]]]},"properties":{"comuna":"Pumanque","mancha_id":"06309-88b2c38861fffff","clase":"Medio","nivel_medio":2.439,"nivel_medio_min":2.439,"nivel_medio_max":2.439,"pct_alto":43.9,"n_hexagonos":1,"area_ha":62.69}},{"type":"Feature","geometry":{"type":"Polygon","coordinates":[[[-71.575575,-34.628617],[-71.576199,-34.624429],[-71.581299,-34.623098],[-71.585776,-34.625955],[-71.585153,-34.630144],[-71.580052,-34.631475],[-71.575575,-34.628617]]]},"properties":{"comuna":"Pumanque","mancha_id":"06309-88b2c38821fffff","clase":"Medio","nivel_medio":2.372,"nivel_medio_min":2.372,"nivel_medio_max":2.372,"pct_alto":38.7,"n_hexagonos":1,"area_ha":62.66}},{"type":"Feature","geometry":{"type":"Polygon","coordinates":[[[-71.552571,-34.618516],[-71.547472,-34.619846],[-71.543591,-34.617367],[-71.543591,-34.616664],[-71.543795,-34.616027],[-71.543872,-34.615389],[-71.544076,-34.614674],[-71.544331,-34.614164],[-71.544689,-34.613168],[-71.544711,-34.612514],[-71.548719,-34.611469],[-71.553195,-34.614327],[-71.552571,-34.618516]]]},"properties":{"comuna":"Pumanque","mancha_id":"06309-88b2c3880bfffff","clase":"Medio","nivel_medio":2.499,"nivel_medio_min":2.499,"nivel_medio_max":2.499,"pct_alto":48.9,"n_hexagonos":1,"area_ha":59.02}},{"type":"Feature","geometry":{"type":"Polygon","coordinates":[[[-71.636441,-34.515846],[-71.636421,-34.515984],[-71.63623,-34.516034],[-71.636441,-34.515846]]]},"properties":{"comuna":"Pumanque","mancha_id":"06309-88b2c3d6c9fffff","clase":"Alto","nivel_medio":2.721,"nivel_medio_min":2.721,"nivel_medio_max":2.721,"pct_alto":72.5,"n_hexagonos":1,"area_ha":0.01}},{"type":"Feature","geometry":{"type":"Polygon","coordinates":[[[-71.642265,-34.542683],[-71.642887,-34.538487],[-71.647987,-34.53715],[-71.652465,-34.540008],[-71.651843,-34.544204],[-71.646743,-34.545541],[-71.642265,-34.542683]]]},"properties":{"comuna":"Pumanque","mancha_id":"06309-88b2c3d685fffff","clase":"Alto","nivel_medio":2.561,"nivel_medio_min":2.561,"nivel_medio_max":2.561,"pct_alto":69.8,"n_hexagonos":1,"area_ha":62.83}},{"type":"Feature","geometry":{"type":"Polygon","coordinates":[[[-71.688043,-34.498391],[-71.688665,-34.494192],[-71.684186,-34.491333],[-71.684401,-34.489877],[-71.684779,-34.489607],[-71.685726,-34.489134],[-71.686703,-34.488512],[-71.687591,-34.488305],[-71.688064,-34.487832],[-71.688627,-34.487388],[-71.689189,-34.486707],[-71.689396,-34.486233],[-71.691098,-34.486552],[-71.691622,-34.48665],[-71.693882,-34.487155],[-71.695442,-34.487583],[-71.695537,-34.487623],[-71.695749,-34.48765],[-71.69596,-34.487666],[-71.69615,-34.487681],[-71.696389,-34.487729],[-71.696582,-34.487735],[-71.696719,-34.487748],[-71.696866,-34.487783],[-71.697002,-34.487826],[-71.697097,-34.487938],[-71.694387,-34.488651],[-71.693765,-34.492851],[-71.698245,-34.495709],[-71.697623,-34.499908],[-71.692522,-34.50125],[-71.688043,-34.498391]]]},"properties":{"comuna":"Pumanque","mancha_id":"06309-88b2c3d663fffff","clase":"Alto","nivel_medio":2.695,"nivel_medio_min":2.512,"nivel_medio_max":2.828,"pct_alto":69.7,"n_hexagonos":3,"area_ha":120.77}},{"type":"Feature","geometry":{"type":"Polygon","coordinates":[[[-71.663164,-34.500894],[-71.663785,-34.496695],[-71.668885,-34.495355],[-71.673364,-34.498214],[-71.672742,-34.502413],[-71.667642,-34.503753],[-71.66702,-34.507951],[-71.66192,-34.509291],[-71.661298,-34.513489],[-71.656198,-34.514828],[-71.65172,-34.511969],[-71.652342,-34.507771],[-71.647864,-34.504912],[-71.648486,-34.500714],[-71.645544,-34.498834],[-71.645773,-34.498782],[-71.64675,-34.498427],[-71.647963,-34.497805],[-71.64894,-34.49742],[-71.649473,-34.497272],[-71.650449,-34.497124],[-71.651544,-34.496947],[-71.65258,-34.496917],[-71.653409,-34.496947],[-71.653967,-34.496799],[-71.653586,-34.499374],[-71.658064,-34.502234],[-71.663164,-34.500894]]]},"properties":{"comuna":"Pumanque","mancha_id":"06309-88b2c3d60bfffff","clase":"Alto","nivel_medio":2.641,"nivel_medio_min":2.544,"nivel_medio_max":2.78,"pct_alto":64.6,"n_hexagonos":5,"area_ha":271.89}},{"type":"Feature","geometry":{"type":"Polygon","coordinates":[[[-71.799474,-34.573983],[-71.800095,-34.569786],[-71.8052,-34.568443],[-71.809685,-34.571296],[-71.809065,-34.575492],[-71.80396,-34.576836],[-71.799474,-34.573983]]]},"properties":{"comuna":"Pumanque","mancha_id":"06309-88b2c3d525fffff","clase":"Alto","nivel_medio":2.649,"nivel_medio_min":2.649,"nivel_medio_max":2.649,"pct_alto":66.5,"n_hexagonos":1,"area_ha":62.88}},{"type":"Feature","geometry":{"type":"Polygon","coordinates":[[[-71.632808,-34.573379],[-71.63343,-34.569186],[-71.628952,-34.566328],[-71.629575,-34.562134],[-71.634675,-34.560798],[-71.639153,-34.563656],[-71.644254,-34.56232],[-71.644876,-34.558126],[-71.649977,-34.556789],[-71.654455,-34.559646],[-71.653833,-34.563841],[-71.648732,-34.565177],[-71.64811,-34.569371],[-71.652589,-34.572228],[-71.651967,-34.576422],[-71.646866,-34.577758],[-71.642387,-34.574901],[-71.637286,-34.576237],[-71.632808,-34.573379]]]},"properties":{"comuna":"Pumanque","mancha_id":"06309-88b2c3d4d9fffff","clase":"Alto","nivel_medio":2.658,"nivel_medio_min":2.538,"nivel_medio_max":2.799,"pct_alto":68.6,"n_hexagonos":5,"area_ha":313.94}},{"type":"Feature","geometry":{"type":"Polygon","coordinates":[[[-71.673121,-34.599089],[-71.673743,-34.594897],[-71.678845,-34.59356],[-71.683326,-34.596416],[-71.682704,-34.600608],[-71.677601,-34.601945],[-71.673121,-34.599089]]]},"properties":{"comuna":"Pumanque","mancha_id":"06309-88b2c3d4abfffff","clase":"Alto","nivel_medio":2.545,"nivel_medio_min":2.545,"nivel_medio_max":2.545,"pct_alto":38.7,"n_hexagonos":1,"area_ha":62.77}},{"type":"Feature","geometry":{"type":"Polygon","coordinates":[[[-71.656818,-34.675832],[-71.661922,-34.674499],[-71.662544,-34.670312],[-71.667648,-34.668979],[-71.67207,-34.671795],[-71.671724,-34.671974],[-71.671369,-34.672217],[-71.671159,-34.672588],[-71.670998,-34.672862],[-71.670529,-34.673234],[-71.67019,-34.673557],[-71.669577,-34.674009],[-71.669254,-34.674251],[-71.668996,-34.674509],[-71.668543,-34.674655],[-71.668075,-34.674655],[-71.667559,-34.674574],[-71.667252,-34.674429],[-71.666574,-34.67417],[-71.66596,-34.67417],[-71.665492,-34.674235],[-71.664911,-34.674445],[-71.66399,-34.674848],[-71.663393,-34.675123],[-71.662944,-34.67515],[-71.662586,-34.675171],[-71.661859,-34.675171],[-71.660858,-34.675187],[-71.660067,-34.675187],[-71.659195,-34.675365],[-71.658081,-34.675995],[-71.657299,-34.676475],[-71.656672,-34.676817],[-71.656818,-34.675832]]]},"properties":{"comuna":"Pumanque","mancha_id":"06309-88b2c3c685fffff","clase":"Alto","nivel_medio":2.53,"nivel_medio_min":2.514,"nivel_medio_max":2.777,"pct_alto":53.0,"n_hexagonos":2,"area_ha":44.15}},{"type":"Feature","geometry":{"type":"Polygon","coordinates":[[[-71.719311,-34.65144],[-71.719933,-34.647251],[-71.71545,-34.644398],[-71.716071,-34.640208],[-71.711588,-34.637354],[-71.706484,-34.638691],[-71.702002,-34.635837],[-71.702624,-34.631647],[-71.707728,-34.63031],[-71.71221,-34.633164],[-71.717314,-34.631827],[-71.721797,-34.63468],[-71.721176,-34.638871],[-71.725659,-34.641724],[-71.725037,-34.645914],[-71.729521,-34.648767],[-71.734626,-34.64743],[-71.73911,-34.650282],[-71.744215,-34.648944],[-71.748699,-34.651797],[-71.748078,-34.655986],[-71.752563,-34.658838],[-71.751942,-34.663028],[-71.746836,-34.664365],[-71.746214,-34.668554],[-71.741109,-34.669891],[-71.736624,-34.667039],[-71.737246,-34.66285],[-71.742351,-34.661513],[-71.742973,-34.657324],[-71.738488,-34.654472],[-71.733383,-34.655809],[-71.728899,-34.652957],[-71.723794,-34.654293],[-71.719311,-34.65144]]]},"properties":{"comuna":"Pumanque","mancha_id":"06309-88b2c3c625fffff","clase":"Alto","nivel_medio":2.631,"nivel_medio_min":2.564,"nivel_medio_max":2.698,"pct_alto":62.0,"n_hexagonos":8,"area_ha":501.77}},{"type":"Feature","geometry":{"type":"Polygon","coordinates":[[[-71.682831,-34.632801],[-71.683453,-34.628611],[-71.688557,-34.627275],[-71.693038,-34.630129],[-71.692416,-34.634319],[-71.687313,-34.635655],[-71.682831,-34.632801]]]},"properties":{"comuna":"Pumanque","mancha_id":"06309-88b2c3c609fffff","clase":"Alto","nivel_medio":2.533,"nivel_medio_min":2.533,"nivel_medio_max":2.533,"pct_alto":53.0,"n_hexagonos":1,"area_ha":62.72}},{"type":"Feature","geometry":{"type":"Polygon","coordinates":[[[-71.783341,-34.682984],[-71.788448,-34.681646],[-71.789159,-34.682097],[-71.78845,-34.68282],[-71.78789,-34.68354],[-71.78744,-34.68416],[-71.7867,-34.68519],[-71.78601,-34.68618],[-71.78573,-34.68664],[-71.78537,-34.68719],[-71.78523,-34.68739],[-71.78456,-34.68789],[-71.784207,-34.688117],[-71.78272,-34.687173],[-71.783341,-34.682984]]]},"properties":{"comuna":"Pumanque","mancha_id":"06309-88b2c3c547fffff","clase":"Alto","nivel_medio":2.558,"nivel_medio_min":2.558,"nivel_medio_max":2.558,"pct_alto":57.1,"n_hexagonos":1,"area_ha":21.3}},{"type":"Feature","geometry":{"type":"Polygon","coordinates":[[[-71.696406,-34.673537],[-71.691301,-34.674871],[-71.687206,-34.672264],[-71.686885,-34.671797],[-71.686855,-34.671776],[-71.687441,-34.66783],[-71.692545,-34.666496],[-71.697028,-34.669349],[-71.696406,-34.673537]]]},"properties":{"comuna":"Pumanque","mancha_id":"06309-88b2c3c459fffff","clase":"Alto","nivel_medio":2.501,"nivel_medio_min":2.501,"nivel_medio_max":2.501,"pct_alto":50.1,"n_hexagonos":1,"area_ha":62.61}},{"type":"Feature","geometry":{"type":"Polygon","coordinates":[[[-71.696732,-34.687492],[-71.699023,-34.68895],[-71.698706,-34.691087],[-71.698575,-34.690865],[-71.698252,-34.690752],[-71.697768,-34.690623],[-71.697316,-34.690106],[-71.697057,-34.689557],[-71.696896,-34.689154],[-71.696831,-34.688799],[-71.696831,-34.688282],[-71.696815,-34.687894],[-71.696732,-34.687492]]]},"properties":{"comuna":"Pumanque","mancha_id":"06309-88b2c3c419fffff","clase":"Alto","nivel_medio":2.528,"nivel_medio_min":2.528,"nivel_medio_max":2.528,"pct_alto":52.8,"n_hexagonos":1,"area_ha":4.61}},{"type":"Feature","geometry":{"type":"Polygon","coordinates":[[[-71.79203,-34.624316],[-71.79265,-34.620123],[-71.797756,-34.618782],[-71.802242,-34.621634],[-71.801622,-34.625827],[-71.796515,-34.627168],[-71.79203,-34.624316]]]},"properties":{"comuna":"Pumanque","mancha_id":"06309-88b2c3c2b9fffff","clase":"Alto","nivel_medio":2.506,"nivel_medio_min":2.506,"nivel_medio_max":2.506,"pct_alto":55.2,"n_hexagonos":1,"area_ha":62.8}},{"type":"Feature","geometry":{"type":"Polygon","coordinates":[[[-71.837694,-34.547781],[-71.832588,-34.549126],[-71.831968,-34.553325],[-71.826862,-34.55467],[-71.822377,-34.551817],[-71.817271,-34.553162],[-71.812786,-34.550309],[-71.813406,-34.54611],[-71.808921,-34.543257],[-71.803816,-34.544601],[-71.799331,-34.541747],[-71.794227,-34.543092],[-71.789743,-34.540237],[-71.784638,-34.541581],[-71.784018,-34.545779],[-71.788502,-34.548634],[-71.793606,-34.54729],[-71.798091,-34.550144],[-71.797471,-34.554342],[-71.792366,-34.555685],[-71.787881,-34.552831],[-71.782777,-34.554175],[-71.782156,-34.558372],[-71.777052,-34.559715],[-71.776431,-34.563911],[-71.780915,-34.566765],[-71.780295,-34.570961],[-71.77519,-34.572304],[-71.770706,-34.56945],[-71.771327,-34.565254],[-71.766843,-34.562399],[-71.761739,-34.563741],[-71.761118,-34.567938],[-71.765602,-34.570792],[-71.764981,-34.574987],[-71.759877,-34.576329],[-71.755393,-34.573475],[-71.750289,-34.574816],[-71.749668,-34.579011],[-71.754152,-34.581865],[-71.753531,-34.58606],[-71.748427,-34.5874],[-71.747806,-34.591594],[-71.742701,-34.592934],[-71.738218,-34.59008],[-71.738839,-34.585886],[-71.734357,-34.583032],[-71.729253,-34.584371],[-71.728632,-34.588565],[-71.733114,-34.59142],[-71.732493,-34.595614],[-71.727389,-34.596953],[-71.722907,-34.594098],[-71.723528,-34.589905],[-71.719046,-34.58705],[-71.719668,-34.582856],[-71.724771,-34.581517],[-71.725392,-34.577322],[-71.730496,-34.575982],[-71.731117,-34.571787],[-71.726635,-34.568932],[-71.721532,-34.570272],[-71.72091,-34.574467],[-71.715807,-34.575806],[-71.711326,-34.572951],[-71.706223,-34.57429],[-71.701742,-34.571434],[-71.696639,-34.572773],[-71.692159,-34.569917],[-71.69278,-34.565722],[-71.697882,-34.564384],[-71.698504,-34.560188],[-71.703606,-34.558849],[-71.704228,-34.554654],[-71.699747,-34.551797],[-71.700369,-34.547601],[-71.705471,-34.546261],[-71.706092,-34.542065],[-71.711194,-34.540725],[-71.711816,-34.536528],[-71.716918,-34.535187],[-71.717539,-34.530989],[-71.722641,-34.529648],[-71.723262,-34.52545],[-71.718781,-34.522593],[-71.719403,-34.518395],[-71.724505,-34.517053],[-71.728986,-34.51991],[-71.734088,-34.518568],[-71.734709,-34.514369],[-71.73711,-34.513737],[-71.737035,-34.514112],[-71.737062,-34.514954],[-71.737008,-34.515579],[-71.736953,-34.516204],[-71.736981,-34.516748],[-71.736845,-34.517264],[-71.736845,-34.517917],[-71.736899,-34.518705],[-71.736967,-34.519361],[-71.736953,-34.520037],[-71.736841,-34.520323],[-71.736709,-34.520662],[-71.736301,-34.521341],[-71.735975,-34.521749],[-71.73573,-34.522619],[-71.735631,-34.523114],[-71.735403,-34.523711],[-71.735268,-34.524467],[-71.735459,-34.525065],[-71.736057,-34.525962],[-71.736174,-34.52609],[-71.732846,-34.526965],[-71.732225,-34.531163],[-71.727122,-34.532505],[-71.726501,-34.536702],[-71.730983,-34.539558],[-71.736086,-34.538217],[-71.740567,-34.541073],[-71.739946,-34.54527],[-71.744429,-34.548125],[-71.749532,-34.546783],[-71.754015,-34.549639],[-71.753394,-34.553836],[-71.757877,-34.55669],[-71.762981,-34.555348],[-71.763601,-34.551151],[-71.759118,-34.548296],[-71.759739,-34.544099],[-71.757073,-34.542401],[-71.757133,-34.542331],[-71.757306,-34.541973],[-71.757411,-34.541461],[-71.757467,-34.541214],[-71.757634,-34.540962],[-71.758025,-34.540404],[-71.758283,-34.54037],[-71.758584,-34.54032],[-71.758919,-34.54038],[-71.759338,-34.540515],[-71.759925,-34.541018],[-71.760391,-34.541494],[-71.760687,-34.541608],[-71.761119,-34.541949],[-71.761733,-34.542131],[-71.76237,-34.542313],[-71.762802,-34.542472],[-71.763416,-34.54295],[-71.763643,-34.543072],[-71.764008,-34.543268],[-71.764576,-34.543382],[-71.764876,-34.543368],[-71.76519,-34.543427],[-71.765587,-34.543586],[-71.765919,-34.543965],[-71.766261,-34.544335],[-71.766564,-34.54444],[-71.76682,-34.544525],[-71.767048,-34.544639],[-71.767328,-34.544633],[-71.767693,-34.54462],[-71.767766,-34.544618],[-71.768016,-34.54461],[-71.768283,-34.544542],[-71.768556,-34.54443],[-71.768793,-34.544421],[-71.768964,-34.544459],[-71.769148,-34.544587],[-71.769277,-34.544762],[-71.769382,-34.544961],[-71.769524,-34.54517],[-71.76977,-34.545369],[-71.769903,-34.545426],[-71.769942,-34.545449],[-71.770064,-34.545521],[-71.77024,-34.545497],[-71.770649,-34.545543],[-71.771104,-34.54552],[-71.771695,-34.545429],[-71.772378,-34.545292],[-71.773014,-34.544951],[-71.773447,-34.544542],[-71.773532,-34.544504],[-71.77381,-34.544383],[-71.773927,-34.544401],[-71.774402,-34.544474],[-71.774623,-34.544391],[-71.774948,-34.544269],[-71.775289,-34.54386],[-71.775675,-34.543496],[-71.776221,-34.543314],[-71.776858,-34.543086],[-71.777222,-34.542586],[-71.777927,-34.542358],[-71.778541,-34.541994],[-71.779064,-34.541608],[-71.779724,-34.541335],[-71.780111,-34.540948],[-71.780384,-34.540493],[-71.780406,-34.539857],[-71.780679,-34.539561],[-71.781134,-34.53947],[-71.781383,-34.539509],[-71.781862,-34.539584],[-71.782362,-34.539493],[-71.782658,-34.53922],[-71.782976,-34.538788],[-71.783181,-34.538242],[-71.78334,-34.537878],[-71.783818,-34.537605],[-71.784182,-34.537446],[-71.785456,-34.536308],[-71.786502,-34.535399],[-71.786889,-34.534898],[-71.787048,-34.534421],[-71.787343,-34.534216],[-71.78762,-34.534293],[-71.787753,-34.53433],[-71.788049,-34.534489],[-71.78864,-34.534239],[-71.789186,-34.53392],[-71.789572,-34.533647],[-71.789777,-34.533602],[-71.7903,-34.534034],[-71.790823,-34.534261],[-71.791574,-34.534534],[-71.79237,-34.53483],[-71.792825,-34.534989],[-71.793462,-34.534966],[-71.793783,-34.535138],[-71.793803,-34.535148],[-71.794121,-34.53533],[-71.794349,-34.535512],[-71.794644,-34.535467],[-71.794917,-34.535444],[-71.795554,-34.535512],[-71.796055,-34.535785],[-71.796487,-34.535831],[-71.797358,-34.535898],[-71.799952,-34.537549],[-71.805056,-34.536204],[-71.809541,-34.539058],[-71.814646,-34.537713],[-71.819131,-34.540567],[-71.824236,-34.539221],[-71.824856,-34.535022],[-71.824771,-34.534968],[-71.824926,-34.535003],[-71.825259,-34.53508],[-71.825782,-34.535399],[-71.826305,-34.535672],[-71.826692,-34.535672],[-71.827124,-34.535581],[-71.827488,-34.535581],[-71.828056,-34.535694],[-71.828648,-34.535694],[-71.829239,-34.535626],[-71.829967,-34.535512],[-71.830444,-34.535512],[-71.831809,-34.535535],[-71.832885,-34.535535],[-71.833015,-34.535535],[-71.833359,-34.535414],[-71.83357,-34.535092],[-71.833758,-34.534616],[-71.833714,-34.53414],[-71.833736,-34.53373],[-71.833858,-34.533353],[-71.833858,-34.533065],[-71.833592,-34.532821],[-71.833315,-34.532611],[-71.833127,-34.53219],[-71.83306,-34.531946],[-71.83285,-34.531724],[-71.832584,-34.531613],[-71.832274,-34.531292],[-71.832019,-34.53096],[-71.831797,-34.53055],[-71.831476,-34.530273],[-71.831044,-34.529996],[-71.830833,-34.529686],[-71.830704,-34.529444],[-71.830667,-34.529375],[-71.830501,-34.52911],[-71.830346,-34.528799],[-71.830262,-34.528554],[-71.83008,-34.528234],[-71.829914,-34.527824],[-71.82988,-34.52737],[-71.829936,-34.527038],[-71.830135,-34.526628],[-71.83039,-34.526306],[-71.830667,-34.525896],[-71.830988,-34.525542],[-71.831243,-34.525254],[-71.831695,-34.524868],[-71.832309,-34.524527],[-71.832833,-34.524345],[-71.833038,-34.524212],[-71.833193,-34.524002],[-71.833237,-34.523802],[-71.833437,-34.523658],[-71.833629,-34.523617],[-71.833902,-34.52367],[-71.834301,-34.523814],[-71.8346,-34.523913],[-71.835039,-34.523913],[-71.835357,-34.523844],[-71.835744,-34.523708],[-71.835872,-34.523653],[-71.836306,-34.523929],[-71.839187,-34.523169],[-71.83956,-34.52326],[-71.840077,-34.523215],[-71.840452,-34.523026],[-71.840719,-34.522765],[-71.841412,-34.522582],[-71.841447,-34.522342],[-71.842021,-34.522116],[-71.842411,-34.521841],[-71.842707,-34.521576],[-71.843224,-34.521236],[-71.843623,-34.520896],[-71.84425,-34.520455],[-71.844637,-34.520228],[-71.845069,-34.520069],[-71.845615,-34.520023],[-71.846093,-34.519955],[-71.846429,-34.519552],[-71.846621,-34.519241],[-71.846911,-34.519022],[-71.847139,-34.518909],[-71.847526,-34.518841],[-71.847889,-34.518795],[-71.84839,-34.518613],[-71.848689,-34.518518],[-71.849,-34.518355],[-71.849033,-34.51824],[-71.849059,-34.518148],[-71.849133,-34.517764],[-71.849277,-34.517317],[-71.849459,-34.516975],[-71.849595,-34.516657],[-71.849871,-34.516021],[-71.850049,-34.515563],[-71.850211,-34.515031],[-71.850374,-34.514603],[-71.850551,-34.513982],[-71.850684,-34.513598],[-71.850869,-34.513291],[-71.851233,-34.51295],[-71.851802,-34.512472],[-71.852211,-34.512154],[-71.85256,-34.511752],[-71.85277,-34.511509],[-71.852862,-34.511485],[-71.852877,-34.511386],[-71.852944,-34.511309],[-71.853417,-34.510747],[-71.853668,-34.510363],[-71.853889,-34.510023],[-71.854096,-34.509536],[-71.854333,-34.509048],[-71.85469,-34.508674],[-71.8551,-34.508378],[-71.855514,-34.508059],[-71.855802,-34.507851],[-71.856474,-34.507914],[-71.856922,-34.508362],[-71.857296,-34.508735],[-71.857629,-34.509144],[-71.858067,-34.509833],[-71.858366,-34.510627],[-71.858503,-34.5112],[-71.858839,-34.511648],[-71.859462,-34.512283],[-71.859916,-34.513091],[-71.860045,-34.513626],[-71.860166,-34.514124],[-71.860198,-34.514845],[-71.860166,-34.515377],[-71.859822,-34.515785],[-71.859133,-34.516505],[-71.858412,-34.517602],[-71.857942,-34.518322],[-71.85741,-34.518917],[-71.857389,-34.518959],[-71.85719,-34.519356],[-71.856813,-34.519802],[-71.856585,-34.520276],[-71.856205,-34.520998],[-71.856034,-34.521397],[-71.855863,-34.521796],[-71.855654,-34.52229],[-71.855426,-34.522537],[-71.855103,-34.522936],[-71.854781,-34.523544],[-71.854653,-34.524274],[-71.854401,-34.524855],[-71.853869,-34.525747],[-71.853774,-34.52585],[-71.853413,-34.526241],[-71.853052,-34.526659],[-71.852742,-34.526999],[-71.852178,-34.5275],[-71.851614,-34.527814],[-71.851113,-34.528315],[-71.850549,-34.528941],[-71.849798,-34.529662],[-71.84939,-34.530132],[-71.849265,-34.530602],[-71.848921,-34.53104],[-71.848639,-34.531353],[-71.848277,-34.531543],[-71.845278,-34.529636],[-71.840173,-34.530983],[-71.839553,-34.535183],[-71.844039,-34.538036],[-71.84342,-34.542235],[-71.838314,-34.543582],[-71.837694,-34.547781]]]},"properties":{"comuna":"Pumanque","mancha_id":"06309-88b2c3c249fffff","clase":"Alto","nivel_medio":2.679,"nivel_medio_min":2.501,"nivel_medio_max":3.0,"pct_alto":68.2,"n_hexagonos":76,"area_ha":4191.69}},{"type":"Feature","geometry":{"type":"Polygon","coordinates":[[[-71.594383,-34.535068],[-71.589284,-34.536404],[-71.587545,-34.535292],[-71.587755,-34.535278],[-71.588856,-34.535095],[-71.59008,-34.534687],[-71.590835,-34.534258],[-71.591305,-34.533871],[-71.591794,-34.533728],[-71.592304,-34.533646],[-71.592937,-34.533565],[-71.59363,-34.533401],[-71.594099,-34.53334],[-71.59468,-34.533066],[-71.594383,-34.535068]]]},"properties":{"comuna":"Pumanque","mancha_id":"06309-88b2c399a9fffff","clase":"Alto","nivel_medio":2.636,"nivel_medio_min":2.636,"nivel_medio_max":2.636,"pct_alto":62.6,"n_hexagonos":1,"area_ha":10.85}},{"type":"Feature","geometry":{"type":"Polygon","coordinates":[[[-71.552571,-34.618516],[-71.553195,-34.614327],[-71.548719,-34.611469],[-71.544711,-34.612514],[-71.544714,-34.612428],[-71.544612,-34.611944],[-71.544255,-34.611178],[-71.544229,-34.610566],[-71.544255,-34.61003],[-71.544408,-34.60929],[-71.544535,-34.608167],[-71.544918,-34.606993],[-71.545378,-34.606355],[-71.545684,-34.605921],[-71.545964,-34.605385],[-71.545995,-34.605141],[-71.546067,-34.604569],[-71.546602,-34.60411],[-71.546934,-34.603625],[-71.547266,-34.603242],[-71.547368,-34.602859],[-71.547113,-34.602553],[-71.546296,-34.602374],[-71.54576,-34.602323],[-71.545223,-34.602034],[-71.545097,-34.601966],[-71.544838,-34.601758],[-71.544674,-34.601307],[-71.544612,-34.600875],[-71.544345,-34.600383],[-71.54414,-34.59991],[-71.543996,-34.5995],[-71.543918,-34.599226],[-71.543832,-34.598925],[-71.543483,-34.598206],[-71.543011,-34.597796],[-71.542374,-34.597118],[-71.541902,-34.596523],[-71.54143,-34.595845],[-71.541368,-34.595311],[-71.541656,-34.595024],[-71.542107,-34.594593],[-71.542805,-34.5941],[-71.543195,-34.593587],[-71.543257,-34.593155],[-71.543154,-34.592909],[-71.543083,-34.592806],[-71.54297,-34.592642],[-71.542867,-34.592108],[-71.542764,-34.59139],[-71.542518,-34.59061],[-71.542333,-34.589809],[-71.541984,-34.589337],[-71.541676,-34.58909],[-71.541512,-34.588741],[-71.541553,-34.588166],[-71.541573,-34.587715],[-71.541532,-34.587222],[-71.541306,-34.586709],[-71.541081,-34.586134],[-71.540793,-34.585456],[-71.540759,-34.585357],[-71.540567,-34.584799],[-71.540608,-34.584306],[-71.540629,-34.583773],[-71.540711,-34.583321],[-71.540629,-34.582992],[-71.540403,-34.58289],[-71.540095,-34.582684],[-71.539705,-34.582417],[-71.539356,-34.582233],[-71.538432,-34.582007],[-71.537672,-34.581658],[-71.537488,-34.58137],[-71.537303,-34.581021],[-71.53718,-34.580631],[-71.537364,-34.580118],[-71.537549,-34.579584],[-71.537611,-34.578948],[-71.537672,-34.578434],[-71.537667,-34.578109],[-71.537665,-34.577991],[-71.537504,-34.57742],[-71.537079,-34.576951],[-71.536772,-34.576482],[-71.53664,-34.576043],[-71.536687,-34.575621],[-71.536831,-34.575149],[-71.536831,-34.574749],[-71.536299,-34.573732],[-71.535776,-34.572894],[-71.535688,-34.572352],[-71.535849,-34.571957],[-71.53623,-34.571634],[-71.536274,-34.571415],[-71.536263,-34.571388],[-71.536127,-34.571063],[-71.535766,-34.570632],[-71.535378,-34.570003],[-71.535312,-34.569858],[-71.535088,-34.569373],[-71.535088,-34.568695],[-71.535088,-34.568211],[-71.535088,-34.567678],[-71.534943,-34.567],[-71.534555,-34.566467],[-71.534361,-34.565596],[-71.53436,-34.565581],[-71.534263,-34.564799],[-71.535161,-34.564656],[-71.53616,-34.564472],[-71.536793,-34.564125],[-71.537527,-34.563942],[-71.538527,-34.56384],[-71.539363,-34.564023],[-71.539588,-34.56437],[-71.539955,-34.565084],[-71.539991,-34.565416],[-71.540016,-34.565656],[-71.540098,-34.566349],[-71.540281,-34.566839],[-71.540628,-34.567104],[-71.540894,-34.567145],[-71.541526,-34.567124],[-71.542566,-34.566818],[-71.542995,-34.566676],[-71.543153,-34.566612],[-71.543607,-34.566431],[-71.5443,-34.566186],[-71.544851,-34.565941],[-71.545178,-34.56588],[-71.546096,-34.565819],[-71.547014,-34.565452],[-71.548401,-34.564758],[-71.548911,-34.564452],[-71.549319,-34.563983],[-71.549625,-34.563452],[-71.550135,-34.562963],[-71.55087,-34.562616],[-71.551096,-34.562508],[-71.551726,-34.562208],[-71.552359,-34.561881],[-71.553093,-34.561473],[-71.553359,-34.561065],[-71.553705,-34.560555],[-71.554236,-34.559943],[-71.554644,-34.559739],[-71.555174,-34.559556],[-71.555664,-34.559515],[-71.556174,-34.559494],[-71.55646,-34.559445],[-71.556766,-34.559392],[-71.55748,-34.559066],[-71.558092,-34.558862],[-71.558602,-34.55878],[-71.559091,-34.558719],[-71.559805,-34.558719],[-71.560887,-34.55874],[-71.561519,-34.558719],[-71.561907,-34.558393],[-71.562335,-34.557924],[-71.562988,-34.557393],[-71.563661,-34.557046],[-71.563818,-34.556866],[-71.563926,-34.55674],[-71.564192,-34.556067],[-71.564824,-34.555169],[-71.565028,-34.554741],[-71.565252,-34.553925],[-71.565701,-34.553313],[-71.566191,-34.552436],[-71.56666,-34.551681],[-71.567048,-34.55115],[-71.567415,-34.550375],[-71.56753,-34.550159],[-71.567645,-34.550129],[-71.567683,-34.54987],[-71.567945,-34.549375],[-71.568517,-34.548906],[-71.569577,-34.548519],[-71.57021,-34.548641],[-71.571026,-34.548498],[-71.571903,-34.54807],[-71.572597,-34.547621],[-71.573127,-34.547254],[-71.573739,-34.546744],[-71.57431,-34.546254],[-71.574922,-34.545601],[-71.574924,-34.545597],[-71.577841,-34.547461],[-71.577218,-34.551655],[-71.581694,-34.554515],[-71.581071,-34.558708],[-71.585546,-34.561567],[-71.584923,-34.56576],[-71.579824,-34.567094],[-71.579201,-34.571286],[-71.574102,-34.572619],[-71.569627,-34.56976],[-71.564528,-34.571092],[-71.560053,-34.568233],[-71.560676,-34.56404],[-71.556202,-34.56118],[-71.551104,-34.562513],[-71.55048,-34.566705],[-71.545382,-34.568037],[-71.544758,-34.572228],[-71.549233,-34.575088],[-71.554331,-34.573757],[-71.558806,-34.576616],[-71.558183,-34.580808],[-71.562658,-34.583667],[-71.567757,-34.582335],[-71.572233,-34.585194],[-71.577332,-34.583861],[-71.581808,-34.58672],[-71.586907,-34.585387],[-71.591384,-34.588246],[-71.590761,-34.592437],[-71.595238,-34.595295],[-71.594615,-34.599486],[-71.599092,-34.602343],[-71.604192,-34.60101],[-71.604815,-34.596819],[-71.609915,-34.595486],[-71.610538,-34.591295],[-71.606061,-34.588437],[-71.606684,-34.584245],[-71.611784,-34.582911],[-71.612406,-34.578719],[-71.607929,-34.575861],[-71.608552,-34.571668],[-71.613652,-34.570334],[-71.618129,-34.573192],[-71.617507,-34.577384],[-71.621984,-34.580242],[-71.621362,-34.584434],[-71.62584,-34.587292],[-71.625217,-34.591484],[-71.629695,-34.594341],[-71.634796,-34.593006],[-71.635419,-34.588814],[-71.64052,-34.587479],[-71.644999,-34.590336],[-71.644376,-34.594528],[-71.639275,-34.595863],[-71.638653,-34.600055],[-71.643132,-34.602911],[-71.642509,-34.607102],[-71.637408,-34.608437],[-71.636785,-34.612628],[-71.631684,-34.613962],[-71.631061,-34.618152],[-71.62596,-34.619485],[-71.621481,-34.616629],[-71.61638,-34.617962],[-71.615757,-34.622152],[-71.610656,-34.623484],[-71.606178,-34.620628],[-71.601077,-34.62196],[-71.600454,-34.626149],[-71.604932,-34.629006],[-71.604309,-34.633194],[-71.608788,-34.636051],[-71.608165,-34.640239],[-71.612643,-34.643095],[-71.61202,-34.647283],[-71.616499,-34.650139],[-71.615876,-34.654326],[-71.620355,-34.657182],[-71.619732,-34.661369],[-71.61463,-34.6627],[-71.614007,-34.666887],[-71.618486,-34.669742],[-71.617864,-34.673928],[-71.620786,-34.675791],[-71.620214,-34.676121],[-71.619457,-34.676601],[-71.618599,-34.676903],[-71.617716,-34.676929],[-71.616959,-34.676954],[-71.616127,-34.676979],[-71.61542,-34.67713],[-71.614739,-34.677307],[-71.614033,-34.677156],[-71.613377,-34.676803],[-71.612998,-34.676374],[-71.612634,-34.676116],[-71.612761,-34.675259],[-71.608282,-34.672404],[-71.608905,-34.668218],[-71.604427,-34.665362],[-71.599325,-34.666693],[-71.598702,-34.670879],[-71.597608,-34.671164],[-71.597609,-34.671126],[-71.597382,-34.670142],[-71.597155,-34.669436],[-71.597307,-34.668729],[-71.597634,-34.668174],[-71.597912,-34.667418],[-71.598063,-34.666282],[-71.598042,-34.665875],[-71.598013,-34.665298],[-71.597912,-34.664516],[-71.597332,-34.663709],[-71.596373,-34.663078],[-71.596096,-34.6627],[-71.595717,-34.662019],[-71.595258,-34.661076],[-71.595238,-34.661035],[-71.595061,-34.659723],[-71.595049,-34.659382],[-71.595036,-34.659042],[-71.594658,-34.657881],[-71.594229,-34.657377],[-71.594052,-34.656746],[-71.593926,-34.656191],[-71.593926,-34.655661],[-71.593926,-34.655031],[-71.593775,-34.654728],[-71.593245,-34.654627],[-71.592765,-34.654576],[-71.59158,-34.654778],[-71.59129,-34.654789],[-71.590873,-34.654804],[-71.590394,-34.654526],[-71.589789,-34.65382],[-71.589435,-34.653466],[-71.588981,-34.652987],[-71.588502,-34.652508],[-71.588199,-34.652432],[-71.587821,-34.652483],[-71.587341,-34.652508],[-71.586433,-34.652483],[-71.585651,-34.652533],[-71.584844,-34.652861],[-71.583809,-34.653239],[-71.582901,-34.653593],[-71.581816,-34.653693],[-71.581645,-34.653708],[-71.580933,-34.653769],[-71.579596,-34.653189],[-71.578713,-34.65271],[-71.577679,-34.652129],[-71.576518,-34.651751],[-71.575282,-34.650918],[-71.574626,-34.64996],[-71.574425,-34.64943],[-71.574273,-34.649152],[-71.57422,-34.649096],[-71.57392,-34.648774],[-71.573163,-34.648547],[-71.572356,-34.648269],[-71.571725,-34.64779],[-71.571473,-34.646857],[-71.571271,-34.646403],[-71.571069,-34.645873],[-71.570842,-34.645469],[-71.570716,-34.644662],[-71.570237,-34.643501],[-71.57001,-34.64282],[-71.569603,-34.642251],[-71.569379,-34.641937],[-71.5689,-34.641155],[-71.568647,-34.640903],[-71.567638,-34.640323],[-71.566982,-34.639742],[-71.566402,-34.639086],[-71.565721,-34.638632],[-71.565267,-34.63843],[-71.564459,-34.638279],[-71.564335,-34.638269],[-71.563803,-34.638229],[-71.563097,-34.638102],[-71.562239,-34.637749],[-71.561558,-34.637472],[-71.560852,-34.636866],[-71.559893,-34.636538],[-71.558934,-34.636463],[-71.558102,-34.636639],[-71.557522,-34.636816],[-71.556866,-34.63669],[-71.556185,-34.636261],[-71.555377,-34.635479],[-71.554997,-34.635141],[-71.554923,-34.635075],[-71.554242,-34.634394],[-71.553611,-34.633864],[-71.552981,-34.633587],[-71.552098,-34.633309],[-71.55129,-34.63336],[-71.55071,-34.633889],[-71.550306,-34.634747],[-71.550079,-34.635605],[-71.549852,-34.636135],[-71.549575,-34.636336],[-71.548894,-34.636236],[-71.548162,-34.63616],[-71.547456,-34.636437],[-71.546497,-34.636791],[-71.545437,-34.636841],[-71.545378,-34.636853],[-71.544529,-34.637018],[-71.54405,-34.63723],[-71.543496,-34.636983],[-71.543311,-34.6369],[-71.542494,-34.636645],[-71.541601,-34.635701],[-71.541269,-34.634833],[-71.541269,-34.63417],[-71.541422,-34.633685],[-71.541907,-34.633353],[-71.542264,-34.632894],[-71.542264,-34.632282],[-71.542239,-34.631184],[-71.542258,-34.630275],[-71.542264,-34.629985],[-71.542392,-34.628888],[-71.542417,-34.627637],[-71.542443,-34.626361],[-71.542417,-34.625647],[-71.542403,-34.625193],[-71.542392,-34.62483],[-71.542392,-34.623912],[-71.542239,-34.62307],[-71.541984,-34.622406],[-71.542111,-34.621615],[-71.542392,-34.620849],[-71.5428,-34.619701],[-71.543208,-34.618961],[-71.54354,-34.618298],[-71.543591,-34.617456],[-71.543591,-34.617367],[-71.547472,-34.619846],[-71.552571,-34.618516]],[[-71.575575,-34.628617],[-71.580052,-34.631475],[-71.585153,-34.630144],[-71.585776,-34.625955],[-71.581299,-34.623098],[-71.576199,-34.624429],[-71.575575,-34.628617]],[[-71.573592,-34.609004],[-71.578069,-34.611862],[-71.583169,-34.61053],[-71.583792,-34.606341],[-71.579315,-34.603483],[-71.574216,-34.604814],[-71.573592,-34.609004]]]},"properties":{"comuna":"Pumanque","mancha_id":"06309-88b2c38801fffff","clase":"Alto","nivel_medio":2.766,"nivel_medio_min":2.508,"nivel_medio_max":3.153,"pct_alto":75.9,"n_hexagonos":110,"area_ha":5916.56}}],"bbox":[-71.8602,-34.70096,-71.53426,-34.48623]}