{"type":"FeatureCollection","features":[{"type":"Feature","geometry":{"type":"Polygon","coordinates":[[[-71.631033,-34.519264],[-71.631321,-34.517322],[-71.63623,-34.516034],[-71.63566,-34.51654],[-71.6347,-34.5175],[-71.63409,-34.51793],[-71.63263,-34.5185],[-71.63176,-34.51884],[-71.63118,-34.51915],[-71.631033,-34.519264]]]},"properties":{"comuna":"Peralillo","mancha_id":"06307-88b2c3d6c1fffff","clase":"Bajo","nivel_medio":1.451,"nivel_medio_min":1.451,"nivel_medio_max":1.451,"pct_alto":11.3,"n_hexagonos":1,"area_ha":6.08}},{"type":"Feature","geometry":{"type":"Polygon","coordinates":[[[-71.577387,-34.418462],[-71.572914,-34.415599],[-71.573079,-34.414488],[-71.573412,-34.414569],[-71.574555,-34.414643],[-71.575151,-34.414594],[-71.575897,-34.414469],[-71.576394,-34.41432],[-71.576692,-34.413972],[-71.577114,-34.413426],[-71.577288,-34.413351],[-71.577587,-34.413624],[-71.577835,-34.413997],[-71.578233,-34.414668],[-71.578382,-34.415364],[-71.578406,-34.41591],[-71.578307,-34.416407],[-71.578009,-34.41688],[-71.57786,-34.417302],[-71.577835,-34.41765],[-71.577934,-34.417948],[-71.578083,-34.418172],[-71.578239,-34.418238],[-71.577387,-34.418462]]]},"properties":{"comuna":"Peralillo","mancha_id":"06307-88b2c39b49fffff","clase":"Bajo","nivel_medio":1.284,"nivel_medio_min":1.284,"nivel_medio_max":1.284,"pct_alto":2.2,"n_hexagonos":1,"area_ha":15.54}},{"type":"Feature","geometry":{"type":"Polygon","coordinates":[[[-71.58322,-34.445198],[-71.582597,-34.449399],[-71.587071,-34.452262],[-71.586448,-34.456462],[-71.581351,-34.4578],[-71.576878,-34.454937],[-71.571781,-34.456274],[-71.567308,-34.453412],[-71.562212,-34.454749],[-71.557739,-34.451885],[-71.558362,-34.447685],[-71.563458,-34.446348],[-71.564081,-34.442147],[-71.569177,-34.44081],[-71.5698,-34.436609],[-71.574896,-34.435271],[-71.575518,-34.431069],[-71.580614,-34.429731],[-71.581237,-34.425529],[-71.581829,-34.425373],[-71.583001,-34.42697],[-71.583398,-34.427169],[-71.583677,-34.427388],[-71.584273,-34.428322],[-71.584651,-34.428739],[-71.585346,-34.429196],[-71.585946,-34.429535],[-71.586556,-34.429901],[-71.587167,-34.430206],[-71.587411,-34.430511],[-71.587868,-34.430877],[-71.588905,-34.430145],[-71.588996,-34.431567],[-71.585088,-34.432594],[-71.584465,-34.436796],[-71.579369,-34.438134],[-71.578746,-34.442335],[-71.58322,-34.445198]]]},"properties":{"comuna":"Peralillo","mancha_id":"06307-88b2c39b03fffff","clase":"Bajo","nivel_medio":1.205,"nivel_medio_min":1.0,"nivel_medio_max":1.482,"pct_alto":3.5,"n_hexagonos":8,"area_ha":466.95}},{"type":"Feature","geometry":{"type":"Polygon","coordinates":[[[-71.494725,-34.480497],[-71.495349,-34.4763],[-71.500444,-34.474967],[-71.504914,-34.477831],[-71.504291,-34.482028],[-71.508762,-34.484892],[-71.508138,-34.489089],[-71.503043,-34.490422],[-71.498572,-34.487558],[-71.499196,-34.483361],[-71.494725,-34.480497]]]},"properties":{"comuna":"Peralillo","mancha_id":"06307-88b2c39aa1fffff","clase":"Bajo","nivel_medio":1.121,"nivel_medio_min":1.042,"nivel_medio_max":1.2,"pct_alto":4.3,"n_hexagonos":2,"area_ha":125.65}},{"type":"Feature","geometry":{"type":"Polygon","coordinates":[[[-71.45647,-34.474367],[-71.457094,-34.47017],[-71.462188,-34.468838],[-71.466657,-34.471704],[-71.466032,-34.4759],[-71.460939,-34.477232],[-71.45647,-34.474367]]]},"properties":{"comuna":"Peralillo","mancha_id":"06307-88b2c39a9dfffff","clase":"Bajo","nivel_medio":1.346,"nivel_medio_min":1.346,"nivel_medio_max":1.346,"pct_alto":9.0,"n_hexagonos":1,"area_ha":62.81}},{"type":"Feature","geometry":{"type":"Polygon","coordinates":[[[-71.475596,-34.477433],[-71.47622,-34.473237],[-71.481314,-34.471904],[-71.485784,-34.474769],[-71.48516,-34.478966],[-71.480066,-34.480298],[-71.475596,-34.477433]]]},"properties":{"comuna":"Peralillo","mancha_id":"06307-88b2c39a87fffff","clase":"Bajo","nivel_medio":0.536,"nivel_medio_min":0.536,"nivel_medio_max":0.536,"pct_alto":13.3,"n_hexagonos":1,"area_ha":62.82}},{"type":"Feature","geometry":{"type":"Polygon","coordinates":[[[-71.530906,-34.434702],[-71.53153,-34.430501],[-71.536625,-34.429165],[-71.537248,-34.424963],[-71.542343,-34.423626],[-71.546814,-34.426491],[-71.55191,-34.425153],[-71.556382,-34.428018],[-71.555759,-34.432219],[-71.550663,-34.433556],[-71.546191,-34.430692],[-71.541096,-34.432029],[-71.540473,-34.43623],[-71.535378,-34.437566],[-71.534755,-34.441767],[-71.52966,-34.443103],[-71.525188,-34.440238],[-71.525812,-34.436038],[-71.530906,-34.434702]]]},"properties":{"comuna":"Peralillo","mancha_id":"06307-88b2c39a29fffff","clase":"Bajo","nivel_medio":1.176,"nivel_medio_min":1.067,"nivel_medio_max":1.474,"pct_alto":3.5,"n_hexagonos":4,"area_ha":251.69}},{"type":"Feature","geometry":{"type":"Polygon","coordinates":[[[-71.565663,-34.530492],[-71.566286,-34.526297],[-71.571384,-34.524962],[-71.572007,-34.520767],[-71.577105,-34.519432],[-71.577728,-34.515236],[-71.573253,-34.512375],[-71.573876,-34.508179],[-71.578974,-34.506843],[-71.583448,-34.509704],[-71.582825,-34.513901],[-71.587301,-34.516761],[-71.592399,-34.515426],[-71.596412,-34.517991],[-71.59631,-34.51797],[-71.59591,-34.51789],[-71.59528,-34.51776],[-71.59498,-34.51776],[-71.59475,-34.51781],[-71.59449,-34.51792],[-71.59411,-34.51839],[-71.59378,-34.51886],[-71.59352,-34.51904],[-71.59308,-34.51908],[-71.59314,-34.51985],[-71.59329,-34.52062],[-71.59343,-34.52147],[-71.59342,-34.52192],[-71.59324,-34.52267],[-71.59323,-34.52305],[-71.593284,-34.523259],[-71.591153,-34.523818],[-71.586678,-34.520957],[-71.58158,-34.522293],[-71.580957,-34.526488],[-71.585432,-34.529348],[-71.584809,-34.533544],[-71.57971,-34.534878],[-71.575235,-34.532018],[-71.570137,-34.533352],[-71.565663,-34.530492]]]},"properties":{"comuna":"Peralillo","mancha_id":"06307-88b2c39981fffff","clase":"Bajo","nivel_medio":1.256,"nivel_medio_min":1.14,"nivel_medio_max":1.421,"pct_alto":7.6,"n_hexagonos":6,"area_ha":361.14}},{"type":"Feature","geometry":{"type":"Polygon","coordinates":[[[-71.538711,-34.481086],[-71.539335,-34.476888],[-71.534862,-34.474025],[-71.529767,-34.475359],[-71.525295,-34.472496],[-71.525919,-34.468298],[-71.521447,-34.465434],[-71.522071,-34.461235],[-71.527166,-34.459901],[-71.531637,-34.462764],[-71.531014,-34.466963],[-71.535486,-34.469826],[-71.540582,-34.468491],[-71.545054,-34.471354],[-71.544431,-34.475553],[-71.548903,-34.478416],[-71.554,-34.47708],[-71.558473,-34.479943],[-71.55785,-34.484141],[-71.562323,-34.487003],[-71.56742,-34.485667],[-71.571894,-34.488529],[-71.571271,-34.492727],[-71.566174,-34.494062],[-71.5617,-34.4912],[-71.556603,-34.492536],[-71.55598,-34.496733],[-71.550883,-34.498067],[-71.55026,-34.502264],[-71.545163,-34.503598],[-71.54069,-34.500736],[-71.535594,-34.50207],[-71.531121,-34.499208],[-71.526025,-34.500541],[-71.521553,-34.497678],[-71.522177,-34.493482],[-71.517705,-34.490619],[-71.518329,-34.486422],[-71.523424,-34.485088],[-71.524048,-34.480891],[-71.529143,-34.479557],[-71.533615,-34.48242],[-71.538711,-34.481086]]]},"properties":{"comuna":"Peralillo","mancha_id":"06307-88b2c39801fffff","clase":"Bajo","nivel_medio":1.258,"nivel_medio_min":1.002,"nivel_medio_max":1.493,"pct_alto":3.0,"n_hexagonos":17,"area_ha":1068.34}},{"type":"Feature","geometry":{"type":"Polygon","coordinates":[[[-71.423757,-34.398179],[-71.418666,-34.399511],[-71.416679,-34.398235],[-71.416766,-34.397749],[-71.416906,-34.39712],[-71.416975,-34.396445],[-71.416999,-34.39549],[-71.416859,-34.394652],[-71.416696,-34.39386],[-71.416533,-34.393162],[-71.41623,-34.392626],[-71.415759,-34.392197],[-71.419916,-34.391109],[-71.424382,-34.393978],[-71.423757,-34.398179]]]},"properties":{"comuna":"Peralillo","mancha_id":"06307-88b2c39333fffff","clase":"Bajo","nivel_medio":1.254,"nivel_medio_min":1.254,"nivel_medio_max":1.254,"pct_alto":0.7,"n_hexagonos":1,"area_ha":50.87}},{"type":"Feature","geometry":{"type":"Polygon","coordinates":[[[-71.425818,-34.450107],[-71.426443,-34.445909],[-71.421976,-34.443042],[-71.422601,-34.438844],[-71.427692,-34.437513],[-71.43216,-34.44038],[-71.431535,-34.444578],[-71.436002,-34.447445],[-71.435378,-34.451643],[-71.439845,-34.454509],[-71.439221,-34.458707],[-71.434128,-34.460037],[-71.429661,-34.457171],[-71.430285,-34.452974],[-71.425818,-34.450107]]]},"properties":{"comuna":"Peralillo","mancha_id":"06307-88b2c391e1fffff","clase":"Bajo","nivel_medio":1.269,"nivel_medio_min":0.946,"nivel_medio_max":1.478,"pct_alto":0.9,"n_hexagonos":3,"area_ha":188.48}},{"type":"Feature","geometry":{"type":"Polygon","coordinates":[[[-71.477368,-34.432586],[-71.477992,-34.428386],[-71.473523,-34.42552],[-71.474147,-34.421319],[-71.47924,-34.419985],[-71.483709,-34.422851],[-71.488803,-34.421517],[-71.489426,-34.417316],[-71.492658,-34.416469],[-71.492658,-34.416482],[-71.492707,-34.417103],[-71.492856,-34.417501],[-71.493105,-34.41765],[-71.493527,-34.417749],[-71.494223,-34.418023],[-71.494944,-34.418221],[-71.495465,-34.418246],[-71.496111,-34.418172],[-71.496832,-34.417948],[-71.497402,-34.417829],[-71.497428,-34.417824],[-71.49795,-34.417724],[-71.498397,-34.417724],[-71.498869,-34.417774],[-71.499491,-34.417998],[-71.5,-34.418194],[-71.500137,-34.418246],[-71.500548,-34.418438],[-71.500882,-34.418594],[-71.501305,-34.418793],[-71.501894,-34.419102],[-71.502149,-34.419265],[-71.502476,-34.419601],[-71.502684,-34.419996],[-71.502767,-34.420474],[-71.502975,-34.421077],[-71.503183,-34.421576],[-71.50339,-34.421971],[-71.503578,-34.422345],[-71.503661,-34.422844],[-71.503963,-34.42334],[-71.504112,-34.423688],[-71.504361,-34.42416],[-71.50456,-34.424483],[-71.504887,-34.424798],[-71.505199,-34.425006],[-71.505538,-34.425205],[-71.505578,-34.425228],[-71.506026,-34.425353],[-71.506672,-34.425353],[-71.507243,-34.425328],[-71.507914,-34.425228],[-71.50851,-34.425079],[-71.508643,-34.425035],[-71.50917,-34.424861],[-71.509802,-34.424582],[-71.510334,-34.424278],[-71.510916,-34.424091],[-71.511498,-34.423842],[-71.512018,-34.423572],[-71.5126,-34.423281],[-71.513016,-34.423135],[-71.513577,-34.423031],[-71.514118,-34.422906],[-71.514596,-34.422865],[-71.515244,-34.422868],[-71.515815,-34.422793],[-71.516138,-34.422843],[-71.516586,-34.422942],[-71.516983,-34.423191],[-71.517331,-34.423439],[-71.517605,-34.423737],[-71.517814,-34.423947],[-71.517494,-34.426108],[-71.512399,-34.427443],[-71.511776,-34.431644],[-71.506682,-34.432979],[-71.506058,-34.437179],[-71.500964,-34.438514],[-71.50034,-34.442714],[-71.495246,-34.444048],[-71.490776,-34.441183],[-71.485683,-34.442517],[-71.485059,-34.446716],[-71.479965,-34.448049],[-71.479341,-34.452248],[-71.474247,-34.453581],[-71.473623,-34.457779],[-71.46853,-34.459111],[-71.464061,-34.456246],[-71.464685,-34.452048],[-71.469778,-34.450715],[-71.470402,-34.446517],[-71.465934,-34.443651],[-71.466558,-34.439452],[-71.471651,-34.438119],[-71.472275,-34.433919],[-71.477368,-34.432586]]]},"properties":{"comuna":"Peralillo","mancha_id":"06307-88b2c39125fffff","clase":"Bajo","nivel_medio":1.16,"nivel_medio_min":0.981,"nivel_medio_max":1.426,"pct_alto":1.8,"n_hexagonos":18,"area_ha":994.67}},{"type":"Feature","geometry":{"type":"Polygon","coordinates":[[[-71.410451,-34.421843],[-71.411076,-34.417644],[-71.40661,-34.414776],[-71.407235,-34.410576],[-71.406436,-34.410062],[-71.406428,-34.409833],[-71.406241,-34.409228],[-71.406125,-34.408692],[-71.405915,-34.408273],[-71.405543,-34.407738],[-71.405124,-34.407365],[-71.404914,-34.406923],[-71.404681,-34.406666],[-71.404239,-34.405945],[-71.40375,-34.40513],[-71.403331,-34.404222],[-71.403297,-34.40416],[-71.403395,-34.403507],[-71.408485,-34.402176],[-71.412951,-34.405044],[-71.418041,-34.403712],[-71.422508,-34.406581],[-71.427599,-34.405248],[-71.432065,-34.408116],[-71.431441,-34.412317],[-71.426349,-34.413649],[-71.421883,-34.410781],[-71.416792,-34.412113],[-71.416167,-34.416313],[-71.420633,-34.419181],[-71.420008,-34.42338],[-71.414917,-34.424711],[-71.410451,-34.421843]]]},"properties":{"comuna":"Peralillo","mancha_id":"06307-88b2c39025fffff","clase":"Bajo","nivel_medio":1.167,"nivel_medio_min":1.001,"nivel_medio_max":1.468,"pct_alto":1.1,"n_hexagonos":5,"area_ha":306.27}},{"type":"Feature","geometry":{"type":"Polygon","coordinates":[[[-71.473823,-34.522249],[-71.468728,-34.523579],[-71.468104,-34.527772],[-71.465619,-34.52842],[-71.464904,-34.527998],[-71.464056,-34.527501],[-71.463375,-34.527085],[-71.462849,-34.526781],[-71.46226,-34.526433],[-71.461956,-34.526276],[-71.462034,-34.526142],[-71.462194,-34.52602],[-71.462355,-34.52585],[-71.462715,-34.525505],[-71.46331,-34.52497],[-71.463631,-34.524631],[-71.464187,-34.524101],[-71.464892,-34.523459],[-71.465124,-34.523261],[-71.465223,-34.523209],[-71.465439,-34.523096],[-71.465544,-34.523056],[-71.465736,-34.522982],[-71.465919,-34.522942],[-71.466177,-34.522886],[-71.466421,-34.522834],[-71.466549,-34.522807],[-71.466767,-34.522732],[-71.466878,-34.522694],[-71.466978,-34.522659],[-71.467009,-34.522649],[-71.467121,-34.522607],[-71.467177,-34.522585],[-71.467328,-34.522529],[-71.467424,-34.522492],[-71.467584,-34.522432],[-71.467655,-34.522394],[-71.467765,-34.522333],[-71.467971,-34.522191],[-71.4682,-34.522033],[-71.468281,-34.521966],[-71.468394,-34.521871],[-71.468453,-34.521774],[-71.468485,-34.521712],[-71.468524,-34.521635],[-71.468535,-34.521604],[-71.46856,-34.521532],[-71.468564,-34.521476],[-71.468571,-34.521375],[-71.46862,-34.521223],[-71.468641,-34.521157],[-71.468652,-34.521038],[-71.468661,-34.520942],[-71.46867,-34.520853],[-71.468699,-34.520762],[-71.468732,-34.520657],[-71.468776,-34.520559],[-71.468805,-34.520497],[-71.469094,-34.52026],[-71.469246,-34.520138],[-71.469374,-34.520034],[-71.469463,-34.519963],[-71.469528,-34.519913],[-71.469789,-34.519718],[-71.469982,-34.519544],[-71.470246,-34.519308],[-71.470342,-34.519205],[-71.470491,-34.519045],[-71.470593,-34.518934],[-71.470689,-34.518808],[-71.470852,-34.518593],[-71.471011,-34.518372],[-71.471082,-34.51829],[-71.471225,-34.518128],[-71.471307,-34.517997],[-71.47132,-34.517928],[-71.471395,-34.517781],[-71.47143,-34.51767],[-71.47151,-34.51732],[-71.47156,-34.517086],[-71.471629,-34.516723],[-71.471657,-34.516557],[-71.471711,-34.516302],[-71.471712,-34.5163],[-71.471763,-34.515968],[-71.471796,-34.515695],[-71.471879,-34.515332],[-71.471959,-34.515115],[-71.47198,-34.515087],[-71.472071,-34.514891],[-71.470679,-34.514794],[-71.470042,-34.514751],[-71.470601,-34.510997],[-71.475696,-34.509667],[-71.480166,-34.51253],[-71.485261,-34.511199],[-71.489732,-34.514063],[-71.489108,-34.518257],[-71.484013,-34.519588],[-71.479542,-34.516724],[-71.474447,-34.518055],[-71.473823,-34.522249]]]},"properties":{"comuna":"Peralillo","mancha_id":"06307-88b2c38325fffff","clase":"Bajo","nivel_medio":1.276,"nivel_medio_min":1.044,"nivel_medio_max":1.472,"pct_alto":8.3,"n_hexagonos":4,"area_ha":176.24}},{"type":"Feature","geometry":{"type":"Polygon","coordinates":[[[-71.431723,-34.509052],[-71.432348,-34.504858],[-71.437442,-34.503529],[-71.44191,-34.506394],[-71.441286,-34.510588],[-71.436192,-34.511917],[-71.436175,-34.512031],[-71.435471,-34.511877],[-71.43479,-34.511877],[-71.432236,-34.511111],[-71.43032,-34.510813],[-71.427743,-34.51009],[-71.431723,-34.509052]]]},"properties":{"comuna":"Peralillo","mancha_id":"06307-88b2c38301fffff","clase":"Bajo","nivel_medio":1.231,"nivel_medio_min":1.203,"nivel_medio_max":1.423,"pct_alto":8.6,"n_hexagonos":2,"area_ha":71.97}},{"type":"Feature","geometry":{"type":"Polygon","coordinates":[[[-71.378119,-34.474658],[-71.382584,-34.477525],[-71.387676,-34.476198],[-71.392142,-34.479065],[-71.397234,-34.477736],[-71.4017,-34.480603],[-71.406792,-34.479274],[-71.407417,-34.475079],[-71.412509,-34.47375],[-71.416976,-34.476616],[-71.422069,-34.475287],[-71.422694,-34.471091],[-71.427786,-34.469761],[-71.428411,-34.465565],[-71.433503,-34.464234],[-71.437971,-34.4671],[-71.437347,-34.471297],[-71.441815,-34.474163],[-71.446908,-34.472832],[-71.451376,-34.475698],[-71.450752,-34.479894],[-71.445659,-34.481224],[-71.445034,-34.48542],[-71.439941,-34.48675],[-71.439316,-34.490945],[-71.443785,-34.49381],[-71.44316,-34.498005],[-71.438066,-34.499335],[-71.433598,-34.49647],[-71.428505,-34.497799],[-71.42788,-34.501993],[-71.422787,-34.503322],[-71.422162,-34.507515],[-71.419448,-34.508223],[-71.418565,-34.508032],[-71.416467,-34.50758],[-71.416131,-34.507483],[-71.416722,-34.506956],[-71.416499,-34.506879],[-71.415405,-34.506631],[-71.414138,-34.506353],[-71.412689,-34.506035],[-71.412524,-34.505998],[-71.411247,-34.505718],[-71.409695,-34.50537],[-71.409509,-34.505286],[-71.410448,-34.504751],[-71.410996,-34.504299],[-71.411278,-34.50403],[-71.411316,-34.503787],[-71.411534,-34.502993],[-71.411726,-34.502481],[-71.41179,-34.501956],[-71.411764,-34.501495],[-71.4117,-34.501072],[-71.411645,-34.500771],[-71.411598,-34.500509],[-71.411521,-34.500099],[-71.411525,-34.5],[-71.411534,-34.499817],[-71.411636,-34.499484],[-71.411854,-34.499062],[-71.412071,-34.498601],[-71.412366,-34.498037],[-71.412609,-34.497589],[-71.412725,-34.497013],[-71.41284,-34.496462],[-71.412878,-34.496001],[-71.412789,-34.495745],[-71.412622,-34.4954],[-71.412417,-34.495079],[-71.412225,-34.494721],[-71.412084,-34.494439],[-71.412033,-34.494221],[-71.412017,-34.494038],[-71.414476,-34.493396],[-71.415101,-34.489202],[-71.413438,-34.488135],[-71.413595,-34.487921],[-71.413877,-34.487665],[-71.414146,-34.487358],[-71.414402,-34.487089],[-71.414581,-34.486743],[-71.414709,-34.486321],[-71.414735,-34.485847],[-71.414594,-34.485232],[-71.414436,-34.484963],[-71.414343,-34.484962],[-71.413168,-34.484929],[-71.41085,-34.484884],[-71.408275,-34.484834],[-71.404468,-34.484732],[-71.403444,-34.484666],[-71.401502,-34.484606],[-71.401106,-34.484589],[-71.397221,-34.484419],[-71.393133,-34.484297],[-71.388113,-34.484147],[-71.388059,-34.484145],[-71.385652,-34.484091],[-71.381463,-34.483996],[-71.376745,-34.483867],[-71.374169,-34.483797],[-71.373422,-34.483809],[-71.37397,-34.483362],[-71.374255,-34.48309],[-71.374404,-34.482778],[-71.374595,-34.482303],[-71.374635,-34.482031],[-71.374515,-34.481537],[-71.3745,-34.481474],[-71.374554,-34.480945],[-71.37469,-34.480456],[-71.374676,-34.480035],[-71.374486,-34.479233],[-71.374241,-34.478174],[-71.374146,-34.477386],[-71.374106,-34.476789],[-71.374255,-34.476191],[-71.374535,-34.475593],[-71.374554,-34.475553],[-71.374798,-34.475064],[-71.375016,-34.47467],[-71.375138,-34.474167],[-71.375233,-34.473774],[-71.375423,-34.473122],[-71.375817,-34.47228],[-71.376129,-34.471247],[-71.376577,-34.470541],[-71.376931,-34.469889],[-71.377257,-34.469508],[-71.377338,-34.469414],[-71.377745,-34.468966],[-71.378112,-34.468586],[-71.378302,-34.468151],[-71.378302,-34.467662],[-71.378289,-34.467092],[-71.378194,-34.466467],[-71.378071,-34.466005],[-71.377895,-34.465625],[-71.377637,-34.465177],[-71.377311,-34.464606],[-71.376998,-34.464226],[-71.376727,-34.464022],[-71.376374,-34.463683],[-71.376129,-34.46333],[-71.376072,-34.463095],[-71.376021,-34.462881],[-71.375898,-34.462352],[-71.375885,-34.461836],[-71.37598,-34.461252],[-71.376075,-34.460736],[-71.376211,-34.460274],[-71.376387,-34.459663],[-71.376686,-34.459214],[-71.377026,-34.458848],[-71.377474,-34.458359],[-71.378003,-34.457788],[-71.378397,-34.457462],[-71.378723,-34.457055],[-71.378843,-34.456735],[-71.378846,-34.456729],[-71.378846,-34.456335],[-71.37871,-34.455901],[-71.378492,-34.455276],[-71.378411,-34.454923],[-71.378397,-34.45438],[-71.378357,-34.453809],[-71.378357,-34.453184],[-71.378438,-34.452682],[-71.378601,-34.452234],[-71.378859,-34.451745],[-71.379076,-34.451337],[-71.379307,-34.450808],[-71.379552,-34.450427],[-71.379932,-34.45002],[-71.379959,-34.449982],[-71.381871,-34.449483],[-71.382248,-34.446954],[-71.382282,-34.44691],[-71.382404,-34.446081],[-71.382587,-34.445262],[-71.387587,-34.443957],[-71.388213,-34.43976],[-71.393303,-34.43843],[-71.393929,-34.434232],[-71.391491,-34.432666],[-71.391598,-34.432201],[-71.391653,-34.431617],[-71.391585,-34.430843],[-71.391435,-34.430096],[-71.391245,-34.429621],[-71.39085,-34.429159],[-71.39099,-34.428693],[-71.391363,-34.427925],[-71.391828,-34.427483],[-71.392387,-34.42704],[-71.392969,-34.426668],[-71.393738,-34.426272],[-71.393932,-34.426161],[-71.395179,-34.425835],[-71.399644,-34.428704],[-71.404735,-34.427373],[-71.409201,-34.430241],[-71.414292,-34.42891],[-71.418759,-34.431778],[-71.418134,-34.435977],[-71.413043,-34.437307],[-71.412418,-34.441505],[-71.407326,-34.442836],[-71.406701,-34.447033],[-71.40161,-34.448363],[-71.400985,-34.45256],[-71.395894,-34.45389],[-71.395268,-34.458086],[-71.390177,-34.459415],[-71.389552,-34.463611],[-71.384461,-34.46494],[-71.383835,-34.469135],[-71.378744,-34.470463],[-71.378119,-34.474658]]]},"properties":{"comuna":"Peralillo","mancha_id":"06307-88b2c38245fffff","clase":"Bajo","nivel_medio":1.178,"nivel_medio_min":0.709,"nivel_medio_max":1.486,"pct_alto":3.3,"n_hexagonos":41,"area_ha":2088.43}},{"type":"Feature","geometry":{"type":"Polygon","coordinates":[[[-71.461893,-34.372032],[-71.456801,-34.373367],[-71.456177,-34.37757],[-71.451086,-34.378905],[-71.450462,-34.383108],[-71.454929,-34.385976],[-71.454304,-34.390178],[-71.458772,-34.393046],[-71.458147,-34.397248],[-71.462615,-34.400115],[-71.461991,-34.404317],[-71.456899,-34.405651],[-71.452431,-34.402783],[-71.44734,-34.404117],[-71.442873,-34.401249],[-71.443497,-34.397048],[-71.43903,-34.39418],[-71.439655,-34.389978],[-71.435188,-34.38711],[-71.435813,-34.382907],[-71.431346,-34.380039],[-71.431971,-34.375836],[-71.42938,-34.374172],[-71.429176,-34.37309],[-71.42892,-34.371996],[-71.428804,-34.371111],[-71.428455,-34.369668],[-71.428281,-34.368724],[-71.428245,-34.368527],[-71.428035,-34.367456],[-71.427733,-34.366827],[-71.427407,-34.366408],[-71.427127,-34.365919],[-71.426685,-34.36522],[-71.426243,-34.364615],[-71.425684,-34.36373],[-71.425548,-34.363038],[-71.425349,-34.362441],[-71.424752,-34.361794],[-71.424759,-34.361568],[-71.429379,-34.360357],[-71.429638,-34.358613],[-71.430572,-34.358748],[-71.434244,-34.359333],[-71.437028,-34.35979],[-71.439194,-34.360148],[-71.440747,-34.360404],[-71.443716,-34.360847],[-71.448799,-34.361358],[-71.448899,-34.361368],[-71.457116,-34.362253],[-71.45844,-34.362328],[-71.45805,-34.364959],[-71.462517,-34.367828],[-71.461893,-34.372032]]]},"properties":{"comuna":"Peralillo","mancha_id":"06307-88b2c064dbfffff","clase":"Bajo","nivel_medio":1.035,"nivel_medio_min":0.811,"nivel_medio_max":1.385,"pct_alto":1.1,"n_hexagonos":18,"area_ha":1015.81}},{"type":"Feature","geometry":{"type":"Polygon","coordinates":[[[-71.490674,-34.408913],[-71.491298,-34.404711],[-71.493427,-34.404153],[-71.493527,-34.404307],[-71.4939,-34.404729],[-71.494571,-34.405176],[-71.495267,-34.405798],[-71.495888,-34.406319],[-71.496559,-34.406816],[-71.496882,-34.407214],[-71.497056,-34.40791],[-71.49708,-34.408481],[-71.497155,-34.409376],[-71.496931,-34.409897],[-71.496484,-34.410692],[-71.495937,-34.411512],[-71.495858,-34.411592],[-71.495689,-34.411761],[-71.495465,-34.412034],[-71.495217,-34.412308],[-71.495041,-34.412469],[-71.495144,-34.411779],[-71.490674,-34.408913]]]},"properties":{"comuna":"Peralillo","mancha_id":"06307-88b2c064b7fffff","clase":"Bajo","nivel_medio":1.397,"nivel_medio_min":1.349,"nivel_medio_max":1.398,"pct_alto":5.2,"n_hexagonos":2,"area_ha":33.68}},{"type":"Feature","geometry":{"type":"Polygon","coordinates":[[[-71.632566,-34.508927],[-71.637043,-34.511787],[-71.636441,-34.515846],[-71.63623,-34.516034],[-71.631321,-34.517322],[-71.626844,-34.514462],[-71.627467,-34.510265],[-71.632566,-34.508927]]]},"properties":{"comuna":"Peralillo","mancha_id":"06307-88b2c3d6c9fffff","clase":"Medio","nivel_medio":2.277,"nivel_medio_min":2.277,"nivel_medio_max":2.277,"pct_alto":46.9,"n_hexagonos":1,"area_ha":62.85}},{"type":"Feature","geometry":{"type":"Polygon","coordinates":[[[-71.642303,-34.510551],[-71.642143,-34.510448],[-71.642182,-34.510181],[-71.642226,-34.510295],[-71.642303,-34.510551]]]},"properties":{"comuna":"Peralillo","mancha_id":"06307-88b2c3d61bfffff","clase":"Medio","nivel_medio":2.067,"nivel_medio_min":2.067,"nivel_medio_max":2.067,"pct_alto":6.7,"n_hexagonos":1,"area_ha":0.03}},{"type":"Feature","geometry":{"type":"Polygon","coordinates":[[[-71.579369,-34.438134],[-71.584465,-34.436796],[-71.585088,-34.432594],[-71.588996,-34.431567],[-71.589088,-34.433012],[-71.589241,-34.433287],[-71.589424,-34.433592],[-71.589546,-34.434416],[-71.589241,-34.435056],[-71.588326,-34.435666],[-71.587075,-34.436337],[-71.586917,-34.43679],[-71.58682,-34.437017],[-71.586643,-34.438023],[-71.58661,-34.438168],[-71.586347,-34.439325],[-71.586317,-34.439947],[-71.586376,-34.440598],[-71.586495,-34.440953],[-71.586909,-34.441279],[-71.587382,-34.441723],[-71.588093,-34.442433],[-71.588461,-34.442883],[-71.588892,-34.44341],[-71.589395,-34.443883],[-71.589602,-34.444386],[-71.589807,-34.444814],[-71.589957,-34.445126],[-71.590312,-34.445452],[-71.590697,-34.445688],[-71.591348,-34.445925],[-71.591703,-34.446162],[-71.591733,-34.446339],[-71.591466,-34.446635],[-71.590963,-34.446902],[-71.590342,-34.446902],[-71.58978,-34.447139],[-71.589158,-34.447553],[-71.588744,-34.44779],[-71.588359,-34.448145],[-71.588063,-34.4485],[-71.587856,-34.449033],[-71.587856,-34.449329],[-71.587945,-34.449624],[-71.588063,-34.450009],[-71.5883,-34.450601],[-71.588537,-34.451223],[-71.588605,-34.451859],[-71.588625,-34.452051],[-71.588744,-34.453383],[-71.588655,-34.453501],[-71.588211,-34.453945],[-71.588122,-34.454241],[-71.588122,-34.454774],[-71.5883,-34.455425],[-71.588507,-34.455987],[-71.588655,-34.456372],[-71.588981,-34.456846],[-71.589128,-34.457734],[-71.589001,-34.458095],[-71.586448,-34.456462],[-71.587071,-34.452262],[-71.582597,-34.449399],[-71.58322,-34.445198],[-71.578746,-34.442335],[-71.579369,-34.438134]]]},"properties":{"comuna":"Peralillo","mancha_id":"06307-88b2c39b01fffff","clase":"Medio","nivel_medio":1.919,"nivel_medio_min":1.604,"nivel_medio_max":2.262,"pct_alto":10.3,"n_hexagonos":5,"area_ha":130.41}},{"type":"Feature","geometry":{"type":"Polygon","coordinates":[[[-71.59468,-34.533066],[-71.595006,-34.530873],[-71.59053,-34.528013],[-71.585432,-34.529348],[-71.580957,-34.526488],[-71.58158,-34.522293],[-71.586678,-34.520957],[-71.591153,-34.523818],[-71.593284,-34.523259],[-71.59354,-34.52425],[-71.59359,-34.525],[-71.59367,-34.52645],[-71.59377,-34.52699],[-71.59368,-34.52732],[-71.59331,-34.52778],[-71.59418,-34.5285],[-71.59505,-34.52928],[-71.5954,-34.52957],[-71.59555,-34.52967],[-71.59572,-34.52974],[-71.59606,-34.52985],[-71.59647,-34.53],[-71.59666,-34.53013],[-71.596866,-34.530386],[-71.59695,-34.53049],[-71.59702,-34.53066],[-71.59713,-34.53095],[-71.59669,-34.5313],[-71.59614,-34.531606],[-71.595793,-34.531933],[-71.595446,-34.532361],[-71.595283,-34.532667],[-71.594834,-34.532993],[-71.59468,-34.533066]]]},"properties":{"comuna":"Peralillo","mancha_id":"06307-88b2c399adfffff","clase":"Medio","nivel_medio":1.738,"nivel_medio_min":1.607,"nivel_medio_max":2.162,"pct_alto":29.0,"n_hexagonos":3,"area_ha":85.34}},{"type":"Feature","geometry":{"type":"Polygon","coordinates":[[[-71.473823,-34.522249],[-71.474447,-34.518055],[-71.479542,-34.516724],[-71.484013,-34.519588],[-71.483389,-34.523782],[-71.478294,-34.525112],[-71.473823,-34.522249]]]},"properties":{"comuna":"Peralillo","mancha_id":"06307-88b2c39899fffff","clase":"Medio","nivel_medio":2.224,"nivel_medio_min":2.224,"nivel_medio_max":2.224,"pct_alto":57.0,"n_hexagonos":1,"area_ha":62.75}},{"type":"Feature","geometry":{"type":"Polygon","coordinates":[[[-71.429638,-34.358613],[-71.429379,-34.360357],[-71.424759,-34.361568],[-71.424777,-34.360998],[-71.425071,-34.360066],[-71.425701,-34.359435],[-71.426217,-34.359149],[-71.426962,-34.358748],[-71.42804,-34.358384],[-71.429638,-34.358613]]]},"properties":{"comuna":"Peralillo","mancha_id":"06307-88b2c39347fffff","clase":"Medio","nivel_medio":1.589,"nivel_medio_min":1.589,"nivel_medio_max":1.589,"pct_alto":14.3,"n_hexagonos":1,"area_ha":9.58}},{"type":"Feature","geometry":{"type":"Polygon","coordinates":[[[-71.393303,-34.43843],[-71.388213,-34.43976],[-71.387587,-34.443957],[-71.382587,-34.445262],[-71.382635,-34.445049],[-71.382811,-34.444329],[-71.382933,-34.443922],[-71.383368,-34.443338],[-71.383803,-34.443026],[-71.384237,-34.442632],[-71.38455,-34.442306],[-71.38474,-34.441925],[-71.384971,-34.441559],[-71.385242,-34.441192],[-71.385487,-34.440839],[-71.385921,-34.44054],[-71.386342,-34.440255],[-71.386858,-34.439875],[-71.387117,-34.439522],[-71.387409,-34.439244],[-71.38766,-34.439005],[-71.387986,-34.438734],[-71.388285,-34.438286],[-71.388339,-34.437892],[-71.38857,-34.437525],[-71.389222,-34.437009],[-71.389561,-34.436656],[-71.389778,-34.436398],[-71.390267,-34.436099],[-71.390471,-34.435827],[-71.390607,-34.435352],[-71.390553,-34.434904],[-71.390743,-34.434279],[-71.390811,-34.433695],[-71.39096,-34.433206],[-71.391204,-34.432962],[-71.391476,-34.432731],[-71.391491,-34.432666],[-71.393929,-34.434232],[-71.393303,-34.43843]]]},"properties":{"comuna":"Peralillo","mancha_id":"06307-88b2c39037fffff","clase":"Medio","nivel_medio":1.799,"nivel_medio_min":1.679,"nivel_medio_max":1.884,"pct_alto":4.4,"n_hexagonos":2,"area_ha":40.27}},{"type":"Feature","geometry":{"type":"Polygon","coordinates":[[[-71.539991,-34.565416],[-71.540908,-34.565177],[-71.543153,-34.566612],[-71.542995,-34.566676],[-71.542566,-34.566818],[-71.541526,-34.567124],[-71.540894,-34.567145],[-71.540628,-34.567104],[-71.540281,-34.566839],[-71.540098,-34.566349],[-71.540016,-34.565656],[-71.539991,-34.565416]]]},"properties":{"comuna":"Peralillo","mancha_id":"06307-88b2c38a05fffff","clase":"Medio","nivel_medio":2.471,"nivel_medio_min":2.471,"nivel_medio_max":2.471,"pct_alto":47.1,"n_hexagonos":1,"area_ha":3.83}},{"type":"Feature","geometry":{"type":"Polygon","coordinates":[[[-71.415101,-34.489202],[-71.414476,-34.493396],[-71.412017,-34.494038],[-71.412007,-34.493927],[-71.41202,-34.493632],[-71.412135,-34.493159],[-71.412238,-34.492659],[-71.41243,-34.491981],[-71.412545,-34.491494],[-71.412776,-34.490738],[-71.413006,-34.489983],[-71.413198,-34.48933],[-71.413198,-34.48869],[-71.413378,-34.488216],[-71.413438,-34.488135],[-71.415101,-34.489202]]]},"properties":{"comuna":"Peralillo","mancha_id":"06307-88b2c38359fffff","clase":"Medio","nivel_medio":1.534,"nivel_medio_min":1.534,"nivel_medio_max":1.534,"pct_alto":0.0,"n_hexagonos":1,"area_ha":11.14}},{"type":"Feature","geometry":{"type":"Polygon","coordinates":[[[-71.468104,-34.527772],[-71.472574,-34.530635],[-71.472492,-34.531184],[-71.472155,-34.531055],[-71.471742,-34.531017],[-71.471531,-34.530999],[-71.471424,-34.530963],[-71.471269,-34.530907],[-71.470731,-34.530731],[-71.469779,-34.530333],[-71.46795,-34.529577],[-71.466965,-34.529214],[-71.466243,-34.528783],[-71.465886,-34.528578],[-71.465619,-34.52842],[-71.468104,-34.527772]]]},"properties":{"comuna":"Peralillo","mancha_id":"06307-88b2c3814dfffff","clase":"Medio","nivel_medio":2.249,"nivel_medio_min":2.249,"nivel_medio_max":2.249,"pct_alto":26.4,"n_hexagonos":1,"area_ha":8.46}},{"type":"Feature","geometry":{"type":"Polygon","coordinates":[[[-71.484856,-34.382167],[-71.48548,-34.377963],[-71.489374,-34.376941],[-71.489403,-34.376999],[-71.489726,-34.378167],[-71.490049,-34.378912],[-71.490471,-34.379583],[-71.490819,-34.38013],[-71.491142,-34.380652],[-71.491664,-34.381273],[-71.49226,-34.381745],[-71.492856,-34.382292],[-71.493478,-34.382764],[-71.494173,-34.383435],[-71.494406,-34.383701],[-71.494521,-34.383832],[-71.494819,-34.384304],[-71.494944,-34.384603],[-71.495142,-34.385124],[-71.495242,-34.385596],[-71.495416,-34.386193],[-71.495664,-34.386665],[-71.495987,-34.387137],[-71.49626,-34.38751],[-71.496363,-34.387896],[-71.49653,-34.388506],[-71.496585,-34.388977],[-71.496779,-34.389338],[-71.497084,-34.389698],[-71.497403,-34.389994],[-71.497702,-34.390392],[-71.497862,-34.390873],[-71.497876,-34.390914],[-71.498049,-34.391361],[-71.498074,-34.391933],[-71.498074,-34.392355],[-71.498025,-34.393324],[-71.49795,-34.394566],[-71.497975,-34.395188],[-71.4979,-34.395933],[-71.497851,-34.396529],[-71.497555,-34.397016],[-71.497223,-34.39746],[-71.496973,-34.397903],[-71.496641,-34.398263],[-71.49628,-34.398568],[-71.496184,-34.39864],[-71.495837,-34.398901],[-71.495267,-34.399238],[-71.494867,-34.399261],[-71.494368,-34.399511],[-71.493924,-34.399733],[-71.493651,-34.399983],[-71.493353,-34.400381],[-71.492982,-34.400758],[-71.492677,-34.401119],[-71.492594,-34.401507],[-71.492566,-34.402061],[-71.492621,-34.402726],[-71.492881,-34.403213],[-71.493105,-34.403661],[-71.493427,-34.404153],[-71.491298,-34.404711],[-71.490674,-34.408913],[-71.495144,-34.411779],[-71.495041,-34.412469],[-71.494919,-34.412581],[-71.494546,-34.412854],[-71.493925,-34.413401],[-71.493577,-34.413724],[-71.493204,-34.414196],[-71.492906,-34.414668],[-71.492757,-34.415264],[-71.492658,-34.415935],[-71.492658,-34.416469],[-71.489426,-34.417316],[-71.488803,-34.421517],[-71.483709,-34.422851],[-71.47924,-34.419985],[-71.474147,-34.421319],[-71.473523,-34.42552],[-71.477992,-34.428386],[-71.477368,-34.432586],[-71.472275,-34.433919],[-71.471651,-34.438119],[-71.466558,-34.439452],[-71.465934,-34.443651],[-71.470402,-34.446517],[-71.469778,-34.450715],[-71.464685,-34.452048],[-71.464061,-34.456246],[-71.46853,-34.459111],[-71.473623,-34.457779],[-71.474247,-34.453581],[-71.479341,-34.452248],[-71.479965,-34.448049],[-71.485059,-34.446716],[-71.485683,-34.442517],[-71.490776,-34.441183],[-71.495246,-34.444048],[-71.50034,-34.442714],[-71.500964,-34.438514],[-71.506058,-34.437179],[-71.506682,-34.432979],[-71.511776,-34.431644],[-71.512399,-34.427443],[-71.517494,-34.426108],[-71.517814,-34.423947],[-71.518002,-34.424135],[-71.518275,-34.424607],[-71.51845,-34.425109],[-71.51845,-34.425569],[-71.518367,-34.426339],[-71.51836,-34.426663],[-71.51835,-34.427191],[-71.518149,-34.427954],[-71.517731,-34.42869],[-71.517629,-34.429204],[-71.51758,-34.429601],[-71.517679,-34.430049],[-71.517828,-34.430421],[-71.518077,-34.430695],[-71.518424,-34.430943],[-71.518698,-34.431043],[-71.519071,-34.431043],[-71.519468,-34.431018],[-71.519914,-34.43084],[-71.520425,-34.430597],[-71.520927,-34.430238],[-71.521481,-34.4298],[-71.521898,-34.429419],[-71.52235,-34.429005],[-71.522613,-34.428802],[-71.52322,-34.428334],[-71.52404,-34.427589],[-71.524785,-34.427092],[-71.525258,-34.426843],[-71.52568,-34.426819],[-71.526053,-34.426893],[-71.526599,-34.426968],[-71.527151,-34.427012],[-71.527221,-34.427017],[-71.527891,-34.426992],[-71.52819,-34.426868],[-71.528317,-34.426752],[-71.528484,-34.426565],[-71.528608,-34.426295],[-71.528816,-34.425942],[-71.528983,-34.425567],[-71.529128,-34.425089],[-71.529357,-34.424798],[-71.529544,-34.424362],[-71.529897,-34.423904],[-71.530326,-34.423365],[-71.5306,-34.422893],[-71.530815,-34.422613],[-71.530975,-34.422407],[-71.531275,-34.422154],[-71.531685,-34.421839],[-71.532285,-34.421602],[-71.53287,-34.421467],[-71.532935,-34.421451],[-71.53378,-34.421278],[-71.534526,-34.421203],[-71.535072,-34.421178],[-71.536116,-34.421153],[-71.537085,-34.421128],[-71.537681,-34.421128],[-71.537955,-34.421004],[-71.538129,-34.420756],[-71.538427,-34.420408],[-71.5387,-34.42001],[-71.539123,-34.419565],[-71.539612,-34.419344],[-71.540141,-34.419116],[-71.540688,-34.418892],[-71.541558,-34.418544],[-71.541578,-34.418535],[-71.542576,-34.418097],[-71.543292,-34.41778],[-71.543987,-34.417512],[-71.544514,-34.417352],[-71.544962,-34.417352],[-71.545434,-34.417501],[-71.545931,-34.417799],[-71.546651,-34.418047],[-71.547422,-34.418221],[-71.54755,-34.418221],[-71.547968,-34.418221],[-71.54821,-34.418183],[-71.54844,-34.418147],[-71.548962,-34.417973],[-71.54936,-34.417774],[-71.549658,-34.417376],[-71.550055,-34.416954],[-71.550552,-34.416432],[-71.550826,-34.416035],[-71.551149,-34.415761],[-71.551646,-34.415538],[-71.552242,-34.415264],[-71.552863,-34.415115],[-71.55336,-34.414941],[-71.553882,-34.414892],[-71.554354,-34.414842],[-71.554826,-34.414941],[-71.555224,-34.415041],[-71.555621,-34.41519],[-71.556118,-34.415389],[-71.55659,-34.415687],[-71.557435,-34.416184],[-71.558091,-34.416487],[-71.558404,-34.416631],[-71.559348,-34.417004],[-71.560342,-34.417128],[-71.561361,-34.417277],[-71.562305,-34.417327],[-71.562777,-34.417302],[-71.5632,-34.417153],[-71.563597,-34.416929],[-71.56397,-34.416631],[-71.564169,-34.416333],[-71.564343,-34.415687],[-71.564566,-34.415041],[-71.564589,-34.414869],[-71.564642,-34.414471],[-71.564814,-34.413722],[-71.56497,-34.412943],[-71.56511,-34.412272],[-71.565266,-34.411882],[-71.565535,-34.411662],[-71.565883,-34.411562],[-71.566231,-34.411662],[-71.566728,-34.411835],[-71.5672,-34.412034],[-71.567772,-34.412258],[-71.568269,-34.412308],[-71.568766,-34.412332],[-71.569089,-34.412357],[-71.569536,-34.412382],[-71.569958,-34.412457],[-71.57058,-34.412829],[-71.571176,-34.413326],[-71.571872,-34.413873],[-71.572592,-34.41437],[-71.573079,-34.414488],[-71.572914,-34.415599],[-71.577387,-34.418462],[-71.578239,-34.418238],[-71.578431,-34.418321],[-71.578754,-34.41837],[-71.578953,-34.41847],[-71.579102,-34.418669],[-71.579276,-34.419016],[-71.579475,-34.419414],[-71.579649,-34.419886],[-71.579823,-34.420184],[-71.579897,-34.420482],[-71.579922,-34.42083],[-71.579897,-34.421327],[-71.579922,-34.42175],[-71.581413,-34.424806],[-71.581829,-34.425373],[-71.581237,-34.425529],[-71.580614,-34.429731],[-71.575518,-34.431069],[-71.574896,-34.435271],[-71.5698,-34.436609],[-71.569177,-34.44081],[-71.564081,-34.442147],[-71.563458,-34.446348],[-71.558362,-34.447685],[-71.557739,-34.451885],[-71.562212,-34.454749],[-71.567308,-34.453412],[-71.571781,-34.456274],[-71.576878,-34.454937],[-71.581351,-34.4578],[-71.580728,-34.462],[-71.585202,-34.464862],[-71.58458,-34.469061],[-71.584619,-34.469087],[-71.584571,-34.469512],[-71.584364,-34.470874],[-71.584571,-34.471554],[-71.584837,-34.472146],[-71.58537,-34.47259],[-71.585843,-34.472975],[-71.586495,-34.473656],[-71.586998,-34.474484],[-71.587264,-34.47478],[-71.587412,-34.475224],[-71.587442,-34.475905],[-71.587442,-34.476378],[-71.58744,-34.476382],[-71.587323,-34.476793],[-71.587323,-34.477296],[-71.587382,-34.478065],[-71.587471,-34.478746],[-71.587442,-34.479249],[-71.587146,-34.4799],[-71.586968,-34.480285],[-71.587057,-34.480699],[-71.587412,-34.481025],[-71.587856,-34.481469],[-71.588241,-34.481942],[-71.588329,-34.482475],[-71.588596,-34.482889],[-71.589424,-34.483747],[-71.589559,-34.483897],[-71.589928,-34.48431],[-71.590223,-34.484635],[-71.590608,-34.484842],[-71.591023,-34.484931],[-71.591822,-34.48499],[-71.592177,-34.485227],[-71.59268,-34.48576],[-71.593449,-34.486677],[-71.593804,-34.487269],[-71.5941,-34.48798],[-71.594278,-34.488512],[-71.594544,-34.489104],[-71.595018,-34.489341],[-71.595876,-34.489666],[-71.596207,-34.489759],[-71.596616,-34.489874],[-71.597267,-34.490022],[-71.5978,-34.490288],[-71.598244,-34.490525],[-71.598806,-34.49085],[-71.599368,-34.491294],[-71.600167,-34.491649],[-71.600848,-34.491975],[-71.601351,-34.492182],[-71.602032,-34.492508],[-71.602629,-34.492574],[-71.602831,-34.492596],[-71.603689,-34.492685],[-71.604133,-34.492922],[-71.604459,-34.493277],[-71.604903,-34.493691],[-71.605406,-34.494076],[-71.606205,-34.49449],[-71.607063,-34.494934],[-71.607685,-34.49529],[-71.608336,-34.495378],[-71.609135,-34.495319],[-71.609934,-34.495082],[-71.610117,-34.495082],[-71.61091,-34.495082],[-71.611917,-34.495378],[-71.612686,-34.495733],[-71.613485,-34.495852],[-71.614195,-34.495941],[-71.615172,-34.496177],[-71.616001,-34.496533],[-71.616829,-34.496828],[-71.617688,-34.496799],[-71.618368,-34.496651],[-71.619197,-34.496503],[-71.619745,-34.496243],[-71.619759,-34.496237],[-71.620207,-34.496032],[-71.620795,-34.495763],[-71.621476,-34.495497],[-71.621983,-34.495566],[-71.622127,-34.495585],[-71.622719,-34.495941],[-71.623192,-34.496444],[-71.623932,-34.496651],[-71.624465,-34.49668],[-71.625382,-34.496799],[-71.626477,-34.496917],[-71.627543,-34.497095],[-71.627987,-34.49748],[-71.628283,-34.497953],[-71.629111,-34.498456],[-71.629207,-34.498528],[-71.630295,-34.499344],[-71.63142,-34.499758],[-71.632219,-34.499906],[-71.632607,-34.5],[-71.633077,-34.500114],[-71.633314,-34.500557],[-71.633758,-34.501031],[-71.634172,-34.501149],[-71.634675,-34.501149],[-71.6358,-34.501001],[-71.636776,-34.500824],[-71.637291,-34.500663],[-71.637538,-34.501077],[-71.637805,-34.501582],[-71.6379,-34.501759],[-71.638013,-34.50196],[-71.638169,-34.50207],[-71.638348,-34.502348],[-71.638424,-34.502467],[-71.638444,-34.502498],[-71.638857,-34.502921],[-71.639139,-34.503093],[-71.639332,-34.503356],[-71.639658,-34.50392],[-71.639966,-34.50441],[-71.639995,-34.504482],[-71.638287,-34.503391],[-71.633188,-34.504729],[-71.628711,-34.50187],[-71.623613,-34.503208],[-71.62299,-34.507405],[-71.617891,-34.508743],[-71.617269,-34.51294],[-71.61217,-34.514277],[-71.611547,-34.518473],[-71.616024,-34.521333],[-71.615572,-34.524377],[-71.61537,-34.52431],[-71.61485,-34.52397],[-71.61428,-34.52338],[-71.61316,-34.52211],[-71.6123,-34.52108],[-71.61208,-34.52092],[-71.61178,-34.52078],[-71.61105,-34.52059],[-71.60998,-34.52035],[-71.60976,-34.52028],[-71.60881,-34.51997],[-71.60746,-34.51958],[-71.607404,-34.51956],[-71.60699,-34.51941],[-71.60614,-34.51898],[-71.60584,-34.5188],[-71.605,-34.51816],[-71.60454,-34.51775],[-71.60431,-34.51762],[-71.60408,-34.51749],[-71.6038,-34.51744],[-71.60358,-34.51748],[-71.60319,-34.51761],[-71.603108,-34.517675],[-71.6029,-34.51784],[-71.60274,-34.51808],[-71.60256,-34.51876],[-71.60242,-34.51906],[-71.60201,-34.51926],[-71.60155,-34.51924],[-71.60013,-34.51886],[-71.59868,-34.5185],[-71.5977,-34.51825],[-71.597311,-34.518172],[-71.596412,-34.517991],[-71.592399,-34.515426],[-71.587301,-34.516761],[-71.582825,-34.513901],[-71.583448,-34.509704],[-71.578974,-34.506843],[-71.573876,-34.508179],[-71.569402,-34.505318],[-71.564304,-34.506653],[-71.563681,-34.510849],[-71.568155,-34.51371],[-71.573253,-34.512375],[-71.577728,-34.515236],[-71.577105,-34.519432],[-71.572007,-34.520767],[-71.571384,-34.524962],[-71.566286,-34.526297],[-71.565663,-34.530492],[-71.570137,-34.533352],[-71.575235,-34.532018],[-71.57971,-34.534878],[-71.579087,-34.539073],[-71.573989,-34.540407],[-71.573366,-34.544601],[-71.568268,-34.545935],[-71.567683,-34.54987],[-71.56753,-34.550159],[-71.567415,-34.550375],[-71.567048,-34.55115],[-71.56666,-34.551681],[-71.566191,-34.552436],[-71.565701,-34.553313],[-71.565252,-34.553925],[-71.565028,-34.554741],[-71.564824,-34.555169],[-71.564192,-34.556067],[-71.563926,-34.55674],[-71.563818,-34.556866],[-71.561923,-34.555655],[-71.562546,-34.551462],[-71.558072,-34.548602],[-71.558695,-34.544408],[-71.554221,-34.541548],[-71.554844,-34.537354],[-71.55037,-34.534493],[-71.545273,-34.535826],[-71.540799,-34.532965],[-71.541423,-34.52877],[-71.54652,-34.527437],[-71.550993,-34.530298],[-71.556091,-34.528965],[-71.556714,-34.52477],[-71.55224,-34.521909],[-71.552864,-34.517713],[-71.54839,-34.514852],[-71.543293,-34.516186],[-71.53882,-34.513324],[-71.533723,-34.514657],[-71.5331,-34.518852],[-71.528003,-34.520185],[-71.523531,-34.517323],[-71.524154,-34.513128],[-71.519682,-34.510266],[-71.514586,-34.511598],[-71.510114,-34.508735],[-71.510738,-34.50454],[-71.515834,-34.503207],[-71.516457,-34.499012],[-71.511986,-34.496148],[-71.512609,-34.491952],[-71.508138,-34.489089],[-71.508762,-34.484892],[-71.504291,-34.482028],[-71.504914,-34.477831],[-71.500444,-34.474967],[-71.495349,-34.4763],[-71.494725,-34.480497],[-71.499196,-34.483361],[-71.498572,-34.487558],[-71.503043,-34.490422],[-71.502419,-34.494618],[-71.497324,-34.49595],[-71.4967,-34.500146],[-71.491605,-34.501478],[-71.490981,-34.505673],[-71.495452,-34.508536],[-71.494828,-34.512731],[-71.489732,-34.514063],[-71.485261,-34.511199],[-71.480166,-34.51253],[-71.475696,-34.509667],[-71.470601,-34.510997],[-71.470042,-34.514751],[-71.469354,-34.514704],[-71.467924,-34.51458],[-71.461569,-34.514346],[-71.461476,-34.514339],[-71.458641,-34.51412],[-71.454417,-34.513793],[-71.45401,-34.514149],[-71.450849,-34.512123],[-71.446827,-34.513173],[-71.446242,-34.513112],[-71.44508,-34.51302],[-71.444625,-34.512984],[-71.438196,-34.512473],[-71.436175,-34.512031],[-71.436192,-34.511917],[-71.441286,-34.510588],[-71.44191,-34.506394],[-71.437442,-34.503529],[-71.432348,-34.504858],[-71.431723,-34.509052],[-71.427743,-34.51009],[-71.426783,-34.509821],[-71.425227,-34.509481],[-71.421948,-34.508765],[-71.419448,-34.508223],[-71.422162,-34.507515],[-71.422787,-34.503322],[-71.42788,-34.501993],[-71.428505,-34.497799],[-71.433598,-34.49647],[-71.438066,-34.499335],[-71.44316,-34.498005],[-71.443785,-34.49381],[-71.439316,-34.490945],[-71.439941,-34.48675],[-71.445034,-34.48542],[-71.445659,-34.481224],[-71.450752,-34.479894],[-71.451376,-34.475698],[-71.446908,-34.472832],[-71.441815,-34.474163],[-71.437347,-34.471297],[-71.437971,-34.4671],[-71.433503,-34.464234],[-71.428411,-34.465565],[-71.427786,-34.469761],[-71.422694,-34.471091],[-71.422069,-34.475287],[-71.416976,-34.476616],[-71.412509,-34.47375],[-71.407417,-34.475079],[-71.406792,-34.479274],[-71.4017,-34.480603],[-71.397234,-34.477736],[-71.392142,-34.479065],[-71.387676,-34.476198],[-71.382584,-34.477525],[-71.378119,-34.474658],[-71.378744,-34.470463],[-71.383835,-34.469135],[-71.384461,-34.46494],[-71.389552,-34.463611],[-71.390177,-34.459415],[-71.395268,-34.458086],[-71.395894,-34.45389],[-71.400985,-34.45256],[-71.40161,-34.448363],[-71.406701,-34.447033],[-71.407326,-34.442836],[-71.412418,-34.441505],[-71.413043,-34.437307],[-71.418134,-34.435977],[-71.418759,-34.431778],[-71.414292,-34.42891],[-71.409201,-34.430241],[-71.404735,-34.427373],[-71.399644,-34.428704],[-71.395179,-34.425835],[-71.39523,-34.425493],[-71.39595,-34.425247],[-71.396741,-34.425038],[-71.397463,-34.425038],[-71.398371,-34.425201],[-71.399186,-34.42541],[-71.400071,-34.42555],[-71.400746,-34.42555],[-71.401445,-34.425294],[-71.402167,-34.425061],[-71.402679,-34.424689],[-71.402865,-34.424293],[-71.402935,-34.423757],[-71.402935,-34.423361],[-71.402819,-34.422803],[-71.402656,-34.42222],[-71.402446,-34.421825],[-71.40212,-34.421103],[-71.402118,-34.421092],[-71.402027,-34.420497],[-71.40205,-34.420055],[-71.402236,-34.419636],[-71.402353,-34.419077],[-71.402469,-34.418425],[-71.402632,-34.417587],[-71.402679,-34.416818],[-71.402888,-34.416073],[-71.403131,-34.415686],[-71.403238,-34.415514],[-71.403587,-34.415119],[-71.404099,-34.414746],[-71.404658,-34.414467],[-71.4051,-34.414141],[-71.405426,-34.413815],[-71.405869,-34.413396],[-71.406171,-34.412907],[-71.406265,-34.412325],[-71.406288,-34.411766],[-71.406404,-34.411137],[-71.406451,-34.410485],[-71.406436,-34.410062],[-71.407235,-34.410576],[-71.40661,-34.414776],[-71.411076,-34.417644],[-71.410451,-34.421843],[-71.414917,-34.424711],[-71.420008,-34.42338],[-71.420633,-34.419181],[-71.416167,-34.416313],[-71.416792,-34.412113],[-71.421883,-34.410781],[-71.426349,-34.413649],[-71.431441,-34.412317],[-71.432065,-34.408116],[-71.427599,-34.405248],[-71.422508,-34.406581],[-71.418041,-34.403712],[-71.412951,-34.405044],[-71.408485,-34.402176],[-71.403395,-34.403507],[-71.403297,-34.40416],[-71.402888,-34.403407],[-71.402865,-34.403167],[-71.402819,-34.402685],[-71.402819,-34.402312],[-71.402958,-34.401847],[-71.403401,-34.401427],[-71.403843,-34.401148],[-71.404448,-34.400915],[-71.405077,-34.400752],[-71.405659,-34.400543],[-71.406032,-34.400333],[-71.406265,-34.400217],[-71.406572,-34.40011],[-71.406915,-34.40005],[-71.407217,-34.400231],[-71.407619,-34.400372],[-71.408123,-34.400372],[-71.408477,-34.400356],[-71.408765,-34.400295],[-71.408803,-34.400287],[-71.409059,-34.400333],[-71.409408,-34.40045],[-71.409618,-34.400752],[-71.409781,-34.401171],[-71.409897,-34.401707],[-71.410116,-34.402325],[-71.410277,-34.402647],[-71.410572,-34.402801],[-71.411015,-34.402964],[-71.411425,-34.40303],[-71.411807,-34.40303],[-71.41225,-34.40301],[-71.412834,-34.40303],[-71.413692,-34.403197],[-71.414577,-34.40329],[-71.41502,-34.403197],[-71.415462,-34.402988],[-71.415788,-34.402685],[-71.416067,-34.402336],[-71.416277,-34.401823],[-71.416393,-34.401171],[-71.416556,-34.400287],[-71.416556,-34.399495],[-71.416603,-34.398657],[-71.416679,-34.398235],[-71.418666,-34.399511],[-71.423757,-34.398179],[-71.424382,-34.393978],[-71.419916,-34.391109],[-71.415759,-34.392197],[-71.415718,-34.39216],[-71.414857,-34.391578],[-71.414437,-34.391019],[-71.414065,-34.390437],[-71.413995,-34.390065],[-71.414088,-34.389506],[-71.414368,-34.389087],[-71.414647,-34.388644],[-71.415043,-34.388342],[-71.415648,-34.388132],[-71.4163,-34.387853],[-71.417162,-34.38748],[-71.418256,-34.386945],[-71.419679,-34.386354],[-71.420541,-34.386907],[-71.425631,-34.385574],[-71.426256,-34.381372],[-71.424887,-34.380493],[-71.425265,-34.380169],[-71.425917,-34.379866],[-71.426685,-34.379447],[-71.4275,-34.379005],[-71.428594,-34.378492],[-71.429176,-34.378097],[-71.429642,-34.377677],[-71.429782,-34.377188],[-71.429805,-34.37663],[-71.429782,-34.375954],[-71.429642,-34.375233],[-71.429409,-34.374324],[-71.42938,-34.374172],[-71.431971,-34.375836],[-71.431346,-34.380039],[-71.435813,-34.382907],[-71.435188,-34.38711],[-71.439655,-34.389978],[-71.43903,-34.39418],[-71.443497,-34.397048],[-71.442873,-34.401249],[-71.44734,-34.404117],[-71.452431,-34.402783],[-71.456899,-34.405651],[-71.461991,-34.404317],[-71.462615,-34.400115],[-71.458147,-34.397248],[-71.458772,-34.393046],[-71.454304,-34.390178],[-71.454929,-34.385976],[-71.450462,-34.383108],[-71.451086,-34.378905],[-71.456177,-34.37757],[-71.456801,-34.373367],[-71.461893,-34.372032],[-71.462517,-34.367828],[-71.45805,-34.364959],[-71.45844,-34.362328],[-71.458653,-34.36234],[-71.458691,-34.362762],[-71.458648,-34.363245],[-71.45863,-34.363597],[-71.458729,-34.364036],[-71.458969,-34.36445],[-71.459337,-34.364849],[-71.459942,-34.365373],[-71.460634,-34.365896],[-71.461187,-34.36608],[-71.461633,-34.366049],[-71.462095,-34.365896],[-71.462602,-34.365696],[-71.463018,-34.365573],[-71.463525,-34.365388],[-71.463894,-34.36525],[-71.464202,-34.365142],[-71.464633,-34.365111],[-71.465176,-34.365097],[-71.465801,-34.365019],[-71.466401,-34.365034],[-71.466965,-34.365097],[-71.467812,-34.365119],[-71.467934,-34.365122],[-71.468854,-34.365221],[-71.469723,-34.365371],[-71.470295,-34.365594],[-71.470891,-34.365644],[-71.471587,-34.365669],[-71.472208,-34.365818],[-71.472829,-34.366017],[-71.473326,-34.366389],[-71.473922,-34.366787],[-71.474544,-34.367135],[-71.474867,-34.367607],[-71.475364,-34.36793],[-71.476035,-34.368228],[-71.476176,-34.368284],[-71.472076,-34.36936],[-71.471452,-34.373564],[-71.47592,-34.376432],[-71.475296,-34.380635],[-71.479764,-34.383503],[-71.484856,-34.382167]],[[-71.454402,-34.422453],[-71.449309,-34.423786],[-71.448685,-34.427986],[-71.453153,-34.430853],[-71.458245,-34.42952],[-71.45887,-34.42532],[-71.454402,-34.422453]],[[-71.427692,-34.437513],[-71.422601,-34.438844],[-71.421976,-34.443042],[-71.426443,-34.445909],[-71.425818,-34.450107],[-71.430285,-34.452974],[-71.429661,-34.457171],[-71.434128,-34.460037],[-71.439221,-34.458707],[-71.439845,-34.454509],[-71.435378,-34.451643],[-71.436002,-34.447445],[-71.431535,-34.444578],[-71.43216,-34.44038],[-71.427692,-34.437513]],[[-71.533615,-34.48242],[-71.529143,-34.479557],[-71.524048,-34.480891],[-71.523424,-34.485088],[-71.518329,-34.486422],[-71.517705,-34.490619],[-71.522177,-34.493482],[-71.521553,-34.497678],[-71.526025,-34.500541],[-71.531121,-34.499208],[-71.535594,-34.50207],[-71.54069,-34.500736],[-71.545163,-34.503598],[-71.55026,-34.502264],[-71.550883,-34.498067],[-71.55598,-34.496733],[-71.556603,-34.492536],[-71.5617,-34.4912],[-71.566174,-34.494062],[-71.571271,-34.492727],[-71.571894,-34.488529],[-71.56742,-34.485667],[-71.562323,-34.487003],[-71.55785,-34.484141],[-71.558473,-34.479943],[-71.554,-34.47708],[-71.548903,-34.478416],[-71.544431,-34.475553],[-71.545054,-34.471354],[-71.540582,-34.468491],[-71.535486,-34.469826],[-71.531014,-34.466963],[-71.531637,-34.462764],[-71.527166,-34.459901],[-71.522071,-34.461235],[-71.521447,-34.465434],[-71.525919,-34.468298],[-71.525295,-34.472496],[-71.529767,-34.475359],[-71.534862,-34.474025],[-71.539335,-34.476888],[-71.538711,-34.481086],[-71.533615,-34.48242]],[[-71.581465,-34.490054],[-71.580842,-34.494252],[-71.585317,-34.497113],[-71.584694,-34.501311],[-71.589169,-34.504172],[-71.594267,-34.502835],[-71.59489,-34.498638],[-71.590415,-34.495777],[-71.591038,-34.491579],[-71.586563,-34.488718],[-71.581465,-34.490054]],[[-71.546924,-34.458758],[-71.546301,-34.462957],[-71.550773,-34.46582],[-71.555869,-34.464484],[-71.556492,-34.460285],[-71.55202,-34.457422],[-71.546924,-34.458758]],[[-71.532884,-34.454366],[-71.533508,-34.450167],[-71.529036,-34.447303],[-71.523941,-34.448638],[-71.523318,-34.452838],[-71.527789,-34.455702],[-71.532884,-34.454366]],[[-71.565439,-34.466011],[-71.569912,-34.468873],[-71.575009,-34.467536],[-71.575632,-34.463337],[-71.571158,-34.460474],[-71.566062,-34.461811],[-71.565439,-34.466011]],[[-71.609562,-34.498825],[-71.604463,-34.500162],[-71.603841,-34.504359],[-71.608316,-34.50722],[-71.613415,-34.505883],[-71.614038,-34.501685],[-71.609562,-34.498825]],[[-71.530906,-34.434702],[-71.525812,-34.436038],[-71.525188,-34.440238],[-71.52966,-34.443103],[-71.534755,-34.441767],[-71.535378,-34.437566],[-71.540473,-34.43623],[-71.541096,-34.432029],[-71.546191,-34.430692],[-71.550663,-34.433556],[-71.555759,-34.432219],[-71.556382,-34.428018],[-71.55191,-34.425153],[-71.546814,-34.426491],[-71.542343,-34.423626],[-71.537248,-34.424963],[-71.536625,-34.429165],[-71.53153,-34.430501],[-71.530906,-34.434702]],[[-71.466032,-34.4759],[-71.466657,-34.471704],[-71.47175,-34.470372],[-71.47622,-34.473237],[-71.475596,-34.477433],[-71.480066,-34.480298],[-71.479442,-34.484494],[-71.483912,-34.487359],[-71.489006,-34.486027],[-71.48963,-34.48183],[-71.48516,-34.478966],[-71.485784,-34.474769],[-71.490878,-34.473436],[-71.491502,-34.469239],[-71.487032,-34.466374],[-71.487656,-34.462176],[-71.483186,-34.459311],[-71.478093,-34.460644],[-71.477468,-34.464842],[-71.472375,-34.466174],[-71.467905,-34.463309],[-71.462812,-34.464641],[-71.462188,-34.468838],[-71.457094,-34.47017],[-71.45647,-34.474367],[-71.460939,-34.477232],[-71.466032,-34.4759]]]},"properties":{"comuna":"Peralillo","mancha_id":"06307-88b2c06481fffff","clase":"Medio","nivel_medio":1.946,"nivel_medio_min":1.506,"nivel_medio_max":2.499,"pct_alto":16.5,"n_hexagonos":280,"area_ha":16103.88}},{"type":"Feature","geometry":{"type":"Polygon","coordinates":[[[-71.581351,-34.4578],[-71.586448,-34.456462],[-71.589001,-34.458095],[-71.588951,-34.458237],[-71.588714,-34.458799],[-71.5883,-34.459687],[-71.587767,-34.46093],[-71.58753,-34.46167],[-71.587057,-34.462646],[-71.586761,-34.463268],[-71.586731,-34.463682],[-71.586998,-34.464304],[-71.58701,-34.464387],[-71.587146,-34.46531],[-71.587116,-34.465783],[-71.586347,-34.466316],[-71.585814,-34.466642],[-71.585222,-34.467233],[-71.584926,-34.467885],[-71.584719,-34.46821],[-71.584619,-34.469087],[-71.58458,-34.469061],[-71.585202,-34.464862],[-71.580728,-34.462],[-71.581351,-34.4578]]]},"properties":{"comuna":"Peralillo","mancha_id":"06307-88b2c39b31fffff","clase":"Alto","nivel_medio":2.681,"nivel_medio_min":2.68,"nivel_medio_max":2.696,"pct_alto":79.8,"n_hexagonos":2,"area_ha":51.05}},{"type":"Feature","geometry":{"type":"Polygon","coordinates":[[[-71.479442,-34.484494],[-71.480066,-34.480298],[-71.48516,-34.478966],[-71.48963,-34.48183],[-71.489006,-34.486027],[-71.483912,-34.487359],[-71.479442,-34.484494]]]},"properties":{"comuna":"Peralillo","mancha_id":"06307-88b2c39abdfffff","clase":"Alto","nivel_medio":2.664,"nivel_medio_min":2.664,"nivel_medio_max":2.664,"pct_alto":71.7,"n_hexagonos":1,"area_ha":62.81}},{"type":"Feature","geometry":{"type":"Polygon","coordinates":[[[-71.47622,-34.473237],[-71.47175,-34.470372],[-71.466657,-34.471704],[-71.462188,-34.468838],[-71.462812,-34.464641],[-71.467905,-34.463309],[-71.472375,-34.466174],[-71.477468,-34.464842],[-71.478093,-34.460644],[-71.483186,-34.459311],[-71.487656,-34.462176],[-71.487032,-34.466374],[-71.491502,-34.469239],[-71.490878,-34.473436],[-71.485784,-34.474769],[-71.481314,-34.471904],[-71.47622,-34.473237]]]},"properties":{"comuna":"Peralillo","mancha_id":"06307-88b2c39a81fffff","clase":"Alto","nivel_medio":2.696,"nivel_medio_min":2.536,"nivel_medio_max":2.852,"pct_alto":75.8,"n_hexagonos":4,"area_ha":251.32}},{"type":"Feature","geometry":{"type":"Polygon","coordinates":[[[-71.523318,-34.452838],[-71.523941,-34.448638],[-71.529036,-34.447303],[-71.533508,-34.450167],[-71.532884,-34.454366],[-71.527789,-34.455702],[-71.523318,-34.452838]]]},"properties":{"comuna":"Peralillo","mancha_id":"06307-88b2c39a35fffff","clase":"Alto","nivel_medio":2.55,"nivel_medio_min":2.55,"nivel_medio_max":2.55,"pct_alto":77.0,"n_hexagonos":1,"area_ha":62.89}},{"type":"Feature","geometry":{"type":"Polygon","coordinates":[[[-71.563681,-34.510849],[-71.564304,-34.506653],[-71.569402,-34.505318],[-71.573876,-34.508179],[-71.573253,-34.512375],[-71.568155,-34.51371],[-71.563681,-34.510849]]]},"properties":{"comuna":"Peralillo","mancha_id":"06307-88b2c399c1fffff","clase":"Alto","nivel_medio":2.649,"nivel_medio_min":2.649,"nivel_medio_max":2.649,"pct_alto":66.5,"n_hexagonos":1,"area_ha":62.83}},{"type":"Feature","geometry":{"type":"Polygon","coordinates":[[[-71.59053,-34.528013],[-71.595006,-34.530873],[-71.59468,-34.533066],[-71.594099,-34.53334],[-71.59363,-34.533401],[-71.592937,-34.533565],[-71.592304,-34.533646],[-71.591794,-34.533728],[-71.591305,-34.533871],[-71.590835,-34.534258],[-71.59008,-34.534687],[-71.588856,-34.535095],[-71.587755,-34.535278],[-71.587545,-34.535292],[-71.587122,-34.535319],[-71.586571,-34.53534],[-71.58598,-34.535788],[-71.585388,-34.536319],[-71.584164,-34.536931],[-71.583654,-34.537216],[-71.583246,-34.5374],[-71.582981,-34.537869],[-71.582818,-34.538339],[-71.582389,-34.538808],[-71.581798,-34.539277],[-71.581104,-34.539583],[-71.580553,-34.53995],[-71.580516,-34.539986],[-71.580145,-34.540338],[-71.579635,-34.540623],[-71.578962,-34.54095],[-71.57835,-34.541256],[-71.577513,-34.541766],[-71.576963,-34.542256],[-71.576514,-34.543031],[-71.575739,-34.543663],[-71.57533,-34.544704],[-71.574924,-34.545597],[-71.574922,-34.545601],[-71.57431,-34.546254],[-71.573739,-34.546744],[-71.573127,-34.547254],[-71.572597,-34.547621],[-71.571903,-34.54807],[-71.571026,-34.548498],[-71.57021,-34.548641],[-71.569577,-34.548519],[-71.568517,-34.548906],[-71.567945,-34.549375],[-71.567683,-34.54987],[-71.568268,-34.545935],[-71.573366,-34.544601],[-71.573989,-34.540407],[-71.579087,-34.539073],[-71.57971,-34.534878],[-71.584809,-34.533544],[-71.585432,-34.529348],[-71.59053,-34.528013]]]},"properties":{"comuna":"Peralillo","mancha_id":"06307-88b2c399a9fffff","clase":"Alto","nivel_medio":2.704,"nivel_medio_min":2.627,"nivel_medio_max":2.751,"pct_alto":69.1,"n_hexagonos":4,"area_ha":118.39}},{"type":"Feature","geometry":{"type":"Polygon","coordinates":[[[-71.603841,-34.504359],[-71.604463,-34.500162],[-71.609562,-34.498825],[-71.614038,-34.501685],[-71.613415,-34.505883],[-71.608316,-34.50722],[-71.603841,-34.504359]]]},"properties":{"comuna":"Peralillo","mancha_id":"06307-88b2c39939fffff","clase":"Alto","nivel_medio":2.5,"nivel_medio_min":2.5,"nivel_medio_max":2.5,"pct_alto":49.8,"n_hexagonos":1,"area_ha":62.86}},{"type":"Feature","geometry":{"type":"Polygon","coordinates":[[[-71.62299,-34.507405],[-71.623613,-34.503208],[-71.628711,-34.50187],[-71.633188,-34.504729],[-71.638287,-34.503391],[-71.639995,-34.504482],[-71.640146,-34.504852],[-71.640532,-34.50578],[-71.640792,-34.50638],[-71.641116,-34.507259],[-71.641242,-34.507599],[-71.64149,-34.508399],[-71.641959,-34.509598],[-71.642182,-34.510181],[-71.642143,-34.510448],[-71.642303,-34.510551],[-71.642457,-34.511064],[-71.642528,-34.5113],[-71.64269,-34.51195],[-71.64252,-34.51198],[-71.64236,-34.5121],[-71.64208,-34.51246],[-71.6416,-34.51315],[-71.64129,-34.51345],[-71.64095,-34.51365],[-71.64058,-34.51376],[-71.64027,-34.5138],[-71.64005,-34.51378],[-71.6395,-34.51368],[-71.63901,-34.51366],[-71.63879,-34.51377],[-71.63825,-34.51417],[-71.63691,-34.51543],[-71.636441,-34.515846],[-71.637043,-34.511787],[-71.632566,-34.508927],[-71.627467,-34.510265],[-71.626844,-34.514462],[-71.631321,-34.517322],[-71.631033,-34.519264],[-71.63087,-34.51939],[-71.6307,-34.5197],[-71.63057,-34.51997],[-71.63049,-34.52054],[-71.630359,-34.521608],[-71.63034,-34.52176],[-71.63024,-34.52204],[-71.62992,-34.52224],[-71.62966,-34.52235],[-71.6291,-34.52246],[-71.6285,-34.52264],[-71.62751,-34.523],[-71.627,-34.52318],[-71.62659,-34.52332],[-71.62617,-34.52354],[-71.62559,-34.52403],[-71.625401,-34.524193],[-71.62492,-34.52461],[-71.62459,-34.52484],[-71.62429,-34.52495],[-71.62395,-34.52498],[-71.6224,-34.52473],[-71.62132,-34.5246],[-71.62051,-34.52457],[-71.61991,-34.52455],[-71.61852,-34.52461],[-71.6181,-34.52463],[-71.61659,-34.52453],[-71.61587,-34.52444],[-71.6157,-34.52442],[-71.615572,-34.524377],[-71.616024,-34.521333],[-71.611547,-34.518473],[-71.61217,-34.514277],[-71.617269,-34.51294],[-71.617891,-34.508743],[-71.62299,-34.507405]]]},"properties":{"comuna":"Peralillo","mancha_id":"06307-88b2c39923fffff","clase":"Alto","nivel_medio":2.663,"nivel_medio_min":2.525,"nivel_medio_max":2.898,"pct_alto":63.9,"n_hexagonos":8,"area_ha":362.67}},{"type":"Feature","geometry":{"type":"Polygon","coordinates":[[[-71.584694,-34.501311],[-71.585317,-34.497113],[-71.580842,-34.494252],[-71.581465,-34.490054],[-71.586563,-34.488718],[-71.591038,-34.491579],[-71.590415,-34.495777],[-71.59489,-34.498638],[-71.594267,-34.502835],[-71.589169,-34.504172],[-71.584694,-34.501311]]]},"properties":{"comuna":"Peralillo","mancha_id":"06307-88b2c39911fffff","clase":"Alto","nivel_medio":2.542,"nivel_medio_min":2.507,"nivel_medio_max":2.577,"pct_alto":56.6,"n_hexagonos":2,"area_ha":125.72}},{"type":"Feature","geometry":{"type":"Polygon","coordinates":[[[-71.565439,-34.466011],[-71.566062,-34.461811],[-71.571158,-34.460474],[-71.575632,-34.463337],[-71.575009,-34.467536],[-71.569912,-34.468873],[-71.565439,-34.466011]]]},"properties":{"comuna":"Peralillo","mancha_id":"06307-88b2c3986dfffff","clase":"Alto","nivel_medio":2.528,"nivel_medio_min":2.528,"nivel_medio_max":2.528,"pct_alto":53.6,"n_hexagonos":1,"area_ha":62.89}},{"type":"Feature","geometry":{"type":"Polygon","coordinates":[[[-71.546301,-34.462957],[-71.546924,-34.458758],[-71.55202,-34.457422],[-71.556492,-34.460285],[-71.555869,-34.464484],[-71.550773,-34.46582],[-71.546301,-34.462957]]]},"properties":{"comuna":"Peralillo","mancha_id":"06307-88b2c39845fffff","clase":"Alto","nivel_medio":2.55,"nivel_medio_min":2.55,"nivel_medio_max":2.55,"pct_alto":68.0,"n_hexagonos":1,"area_ha":62.89}},{"type":"Feature","geometry":{"type":"Polygon","coordinates":[[[-71.425631,-34.385574],[-71.420541,-34.386907],[-71.419679,-34.386354],[-71.41977,-34.386316],[-71.420887,-34.385967],[-71.422424,-34.385478],[-71.422983,-34.385175],[-71.423239,-34.384779],[-71.423285,-34.38429],[-71.423495,-34.383289],[-71.423821,-34.382078],[-71.4241,-34.381333],[-71.42445,-34.380914],[-71.424776,-34.380588],[-71.424887,-34.380493],[-71.426256,-34.381372],[-71.425631,-34.385574]]]},"properties":{"comuna":"Peralillo","mancha_id":"06307-88b2c39339fffff","clase":"Alto","nivel_medio":2.61,"nivel_medio_min":2.61,"nivel_medio_max":2.61,"pct_alto":65.8,"n_hexagonos":1,"area_ha":15.14}},{"type":"Feature","geometry":{"type":"Polygon","coordinates":[[[-71.382248,-34.446954],[-71.381871,-34.449483],[-71.379959,-34.449982],[-71.380258,-34.449558],[-71.380448,-34.449042],[-71.380883,-34.448594],[-71.381304,-34.448023],[-71.381738,-34.447562],[-71.382024,-34.447249],[-71.382248,-34.446954]]]},"properties":{"comuna":"Peralillo","mancha_id":"06307-88b2c391dbfffff","clase":"Alto","nivel_medio":2.802,"nivel_medio_min":2.802,"nivel_medio_max":2.802,"pct_alto":80.3,"n_hexagonos":1,"area_ha":2.65}},{"type":"Feature","geometry":{"type":"Polygon","coordinates":[[[-71.448685,-34.427986],[-71.449309,-34.423786],[-71.454402,-34.422453],[-71.45887,-34.42532],[-71.458245,-34.42952],[-71.453153,-34.430853],[-71.448685,-34.427986]]]},"properties":{"comuna":"Peralillo","mancha_id":"06307-88b2c39107fffff","clase":"Alto","nivel_medio":2.519,"nivel_medio_min":2.519,"nivel_medio_max":2.519,"pct_alto":52.8,"n_hexagonos":1,"area_ha":62.88}},{"type":"Feature","geometry":{"type":"Polygon","coordinates":[[[-71.39523,-34.425493],[-71.395179,-34.425835],[-71.393932,-34.426161],[-71.394925,-34.425597],[-71.39523,-34.425493]]]},"properties":{"comuna":"Peralillo","mancha_id":"06307-88b2c3903dfffff","clase":"Alto","nivel_medio":2.57,"nivel_medio_min":2.57,"nivel_medio_max":2.57,"pct_alto":57.0,"n_hexagonos":1,"area_ha":0.24}},{"type":"Feature","geometry":{"type":"Polygon","coordinates":[[[-71.523803,-34.557634],[-71.523735,-34.557574],[-71.523176,-34.557081],[-71.523102,-34.556195],[-71.52277,-34.555162],[-71.522032,-34.554092],[-71.521516,-34.553649],[-71.520741,-34.552727],[-71.52004,-34.551768],[-71.519072,-34.550733],[-71.51897,-34.550624],[-71.517973,-34.549332],[-71.517678,-34.548521],[-71.51742,-34.547561],[-71.517383,-34.546971],[-71.51742,-34.546122],[-71.517457,-34.545163],[-71.51742,-34.544388],[-71.517236,-34.543539],[-71.517102,-34.543188],[-71.51683,-34.542469],[-71.516424,-34.541362],[-71.515981,-34.53996],[-71.515686,-34.539222],[-71.515354,-34.539149],[-71.514431,-34.539112],[-71.513398,-34.539038],[-71.51266,-34.53878],[-71.512254,-34.538152],[-71.511959,-34.537747],[-71.510963,-34.537414],[-71.510764,-34.537295],[-71.510409,-34.537082],[-71.509782,-34.536308],[-71.509223,-34.535727],[-71.508823,-34.535311],[-71.507684,-34.534742],[-71.507642,-34.534721],[-71.507545,-34.534653],[-71.507273,-34.534463],[-71.506646,-34.533872],[-71.506375,-34.533872],[-71.505797,-34.533872],[-71.505096,-34.533872],[-71.504395,-34.533319],[-71.503952,-34.532839],[-71.503325,-34.532027],[-71.502698,-34.531622],[-71.501775,-34.531548],[-71.500964,-34.531548],[-71.5,-34.531601],[-71.499635,-34.531622],[-71.498602,-34.531474],[-71.498012,-34.531326],[-71.497385,-34.531363],[-71.49697,-34.531243],[-71.495983,-34.530957],[-71.495171,-34.53092],[-71.494211,-34.530478],[-71.4934,-34.530109],[-71.492772,-34.529518],[-71.49233,-34.529039],[-71.491887,-34.528411],[-71.491407,-34.527821],[-71.490559,-34.527932],[-71.489894,-34.528116],[-71.489193,-34.528559],[-71.488824,-34.528854],[-71.48816,-34.529039],[-71.487465,-34.529295],[-71.487459,-34.529297],[-71.486832,-34.529592],[-71.486242,-34.530219],[-71.485782,-34.530739],[-71.485515,-34.531279],[-71.485507,-34.531289],[-71.484913,-34.532027],[-71.484138,-34.532618],[-71.483604,-34.532892],[-71.483398,-34.532894],[-71.482143,-34.532908],[-71.482029,-34.532913],[-71.481367,-34.532938],[-71.479773,-34.533004],[-71.479202,-34.532989],[-71.47723,-34.532748],[-71.476522,-34.532641],[-71.475799,-34.53254],[-71.474773,-34.532224],[-71.474428,-34.532064],[-71.473753,-34.531754],[-71.473402,-34.531561],[-71.473054,-34.531397],[-71.472492,-34.531184],[-71.472574,-34.530635],[-71.468104,-34.527772],[-71.468728,-34.523579],[-71.473823,-34.522249],[-71.478294,-34.525112],[-71.483389,-34.523782],[-71.484013,-34.519588],[-71.489108,-34.518257],[-71.489732,-34.514063],[-71.494828,-34.512731],[-71.495452,-34.508536],[-71.490981,-34.505673],[-71.491605,-34.501478],[-71.4967,-34.500146],[-71.497324,-34.49595],[-71.502419,-34.494618],[-71.503043,-34.490422],[-71.508138,-34.489089],[-71.512609,-34.491952],[-71.511986,-34.496148],[-71.516457,-34.499012],[-71.515834,-34.503207],[-71.510738,-34.50454],[-71.510114,-34.508735],[-71.514586,-34.511598],[-71.519682,-34.510266],[-71.524154,-34.513128],[-71.523531,-34.517323],[-71.528003,-34.520185],[-71.5331,-34.518852],[-71.533723,-34.514657],[-71.53882,-34.513324],[-71.543293,-34.516186],[-71.54839,-34.514852],[-71.552864,-34.517713],[-71.55224,-34.521909],[-71.556714,-34.52477],[-71.556091,-34.528965],[-71.550993,-34.530298],[-71.54652,-34.527437],[-71.541423,-34.52877],[-71.540799,-34.532965],[-71.545273,-34.535826],[-71.55037,-34.534493],[-71.554844,-34.537354],[-71.554221,-34.541548],[-71.558695,-34.544408],[-71.558072,-34.548602],[-71.562546,-34.551462],[-71.561923,-34.555655],[-71.563818,-34.556866],[-71.563661,-34.557046],[-71.562988,-34.557393],[-71.562335,-34.557924],[-71.561907,-34.558393],[-71.561519,-34.558719],[-71.560887,-34.55874],[-71.559805,-34.558719],[-71.559091,-34.558719],[-71.558602,-34.55878],[-71.558092,-34.558862],[-71.55748,-34.559066],[-71.556766,-34.559392],[-71.55646,-34.559445],[-71.556174,-34.559494],[-71.555664,-34.559515],[-71.555174,-34.559556],[-71.554644,-34.559739],[-71.554236,-34.559943],[-71.553705,-34.560555],[-71.553359,-34.561065],[-71.553093,-34.561473],[-71.552359,-34.561881],[-71.551726,-34.562208],[-71.551096,-34.562508],[-71.55087,-34.562616],[-71.550135,-34.562963],[-71.549625,-34.563452],[-71.549319,-34.563983],[-71.548911,-34.564452],[-71.548401,-34.564758],[-71.547014,-34.565452],[-71.546096,-34.565819],[-71.545178,-34.56588],[-71.544851,-34.565941],[-71.5443,-34.566186],[-71.543607,-34.566431],[-71.543153,-34.566612],[-71.540908,-34.565177],[-71.539991,-34.565416],[-71.539955,-34.565084],[-71.539588,-34.56437],[-71.539363,-34.564023],[-71.538527,-34.56384],[-71.537527,-34.563942],[-71.536793,-34.564125],[-71.53616,-34.564472],[-71.535161,-34.564656],[-71.534263,-34.564799],[-71.533658,-34.564362],[-71.532857,-34.564038],[-71.532087,-34.563392],[-71.531856,-34.562683],[-71.531872,-34.562052],[-71.531672,-34.561513],[-71.531656,-34.561499],[-71.529906,-34.559978],[-71.529567,-34.558864],[-71.529338,-34.557893],[-71.528743,-34.557847],[-71.527456,-34.55804],[-71.526607,-34.558188],[-71.525833,-34.558188],[-71.525095,-34.558077],[-71.524504,-34.557893],[-71.523803,-34.557634]]]},"properties":{"comuna":"Peralillo","mancha_id":"06307-88b2c38a09fffff","clase":"Alto","nivel_medio":2.799,"nivel_medio_min":2.526,"nivel_medio_max":2.974,"pct_alto":81.6,"n_hexagonos":53,"area_ha":2908.62}},{"type":"Feature","geometry":{"type":"Polygon","coordinates":[[[-71.446827,-34.513173],[-71.450849,-34.512123],[-71.45401,-34.514149],[-71.453395,-34.514687],[-71.452799,-34.515198],[-71.452501,-34.515283],[-71.452032,-34.515326],[-71.451266,-34.515709],[-71.449904,-34.516049],[-71.448669,-34.516475],[-71.448882,-34.515794],[-71.449776,-34.513367],[-71.448286,-34.513325],[-71.446827,-34.513173]]]},"properties":{"comuna":"Peralillo","mancha_id":"06307-88b2c3832bfffff","clase":"Alto","nivel_medio":2.65,"nivel_medio_min":2.65,"nivel_medio_max":2.65,"pct_alto":67.1,"n_hexagonos":1,"area_ha":13.69}},{"type":"Feature","geometry":{"type":"Polygon","coordinates":[[[-71.489374,-34.376941],[-71.48548,-34.377963],[-71.484856,-34.382167],[-71.479764,-34.383503],[-71.475296,-34.380635],[-71.47592,-34.376432],[-71.471452,-34.373564],[-71.472076,-34.36936],[-71.476176,-34.368284],[-71.476531,-34.368427],[-71.476954,-34.368675],[-71.477227,-34.369023],[-71.477351,-34.36947],[-71.477525,-34.369918],[-71.477948,-34.370315],[-71.478519,-34.370787],[-71.479041,-34.371135],[-71.479588,-34.371483],[-71.479911,-34.371732],[-71.480631,-34.371955],[-71.481253,-34.37203],[-71.48146,-34.372073],[-71.481725,-34.372129],[-71.482321,-34.372402],[-71.483116,-34.372899],[-71.483737,-34.373247],[-71.484309,-34.37362],[-71.485079,-34.374067],[-71.4858,-34.374465],[-71.486421,-34.374862],[-71.486868,-34.37516],[-71.487464,-34.375558],[-71.488036,-34.375757],[-71.488483,-34.375931],[-71.488806,-34.376154],[-71.489129,-34.376453],[-71.489374,-34.376941]]]},"properties":{"comuna":"Peralillo","mancha_id":"06307-88b2c06489fffff","clase":"Alto","nivel_medio":2.858,"nivel_medio_min":2.812,"nivel_medio_max":2.971,"pct_alto":86.7,"n_hexagonos":3,"area_ha":141.15}}],"bbox":[-71.64269,-34.56715,-71.37342,-34.35838]}