{"type":"FeatureCollection","features":[{"type":"Feature","geometry":{"type":"Polygon","coordinates":[[[-71.284544,-34.47887],[-71.285171,-34.474677],[-71.290259,-34.473354],[-71.294721,-34.476224],[-71.294094,-34.480417],[-71.289006,-34.48174],[-71.288379,-34.485933],[-71.283291,-34.487255],[-71.278829,-34.484386],[-71.279456,-34.480193],[-71.284544,-34.47887]]]},"properties":{"comuna":"Palmilla","mancha_id":"06306-88b2c39555fffff","clase":"Bajo","nivel_medio":1.301,"nivel_medio_min":1.24,"nivel_medio_max":1.363,"pct_alto":11.2,"n_hexagonos":2,"area_ha":125.38}},{"type":"Feature","geometry":{"type":"Polygon","coordinates":[[[-71.389453,-34.430766],[-71.389562,-34.430699],[-71.390059,-34.430393],[-71.390338,-34.43016],[-71.390501,-34.429928],[-71.390734,-34.429578],[-71.39085,-34.429159],[-71.391245,-34.429621],[-71.391435,-34.430096],[-71.391585,-34.430843],[-71.391653,-34.431617],[-71.391598,-34.432201],[-71.391491,-34.432666],[-71.391476,-34.432731],[-71.391204,-34.432962],[-71.39096,-34.433206],[-71.390811,-34.433695],[-71.390743,-34.434279],[-71.390553,-34.434904],[-71.390607,-34.435352],[-71.390471,-34.435827],[-71.390267,-34.436099],[-71.389778,-34.436398],[-71.389561,-34.436656],[-71.389222,-34.437009],[-71.38857,-34.437525],[-71.388339,-34.437892],[-71.388285,-34.438286],[-71.387986,-34.438734],[-71.38766,-34.439005],[-71.387409,-34.439244],[-71.387117,-34.439522],[-71.386858,-34.439875],[-71.386342,-34.440255],[-71.385921,-34.44054],[-71.385487,-34.440839],[-71.385242,-34.441192],[-71.384971,-34.441559],[-71.38474,-34.441925],[-71.38455,-34.442306],[-71.384237,-34.442632],[-71.383803,-34.443026],[-71.383368,-34.443338],[-71.382933,-34.443922],[-71.382811,-34.444329],[-71.382635,-34.445049],[-71.382587,-34.445262],[-71.382497,-34.445286],[-71.382248,-34.446954],[-71.382024,-34.447249],[-71.381738,-34.447562],[-71.381304,-34.448023],[-71.380883,-34.448594],[-71.380448,-34.449042],[-71.380258,-34.449558],[-71.379959,-34.449982],[-71.376781,-34.450812],[-71.372316,-34.447943],[-71.372941,-34.443747],[-71.368476,-34.440878],[-71.369102,-34.436681],[-71.374192,-34.435352],[-71.374466,-34.433516],[-71.374852,-34.433812],[-71.375157,-34.434072],[-71.375739,-34.434375],[-71.376018,-34.434561],[-71.376204,-34.434515],[-71.37653,-34.434119],[-71.376856,-34.433793],[-71.377089,-34.433443],[-71.377369,-34.43328],[-71.377718,-34.433187],[-71.378114,-34.433001],[-71.378393,-34.432791],[-71.378696,-34.432442],[-71.378975,-34.431977],[-71.379162,-34.431488],[-71.379418,-34.430929],[-71.379581,-34.430696],[-71.379837,-34.430626],[-71.38014,-34.430603],[-71.38036,-34.430674],[-71.380654,-34.430853],[-71.381177,-34.431287],[-71.3817,-34.431837],[-71.382421,-34.432372],[-71.383017,-34.432833],[-71.383579,-34.433165],[-71.383962,-34.433434],[-71.384233,-34.43363],[-71.384333,-34.433702],[-71.384678,-34.433881],[-71.385048,-34.433919],[-71.385448,-34.433932],[-71.385937,-34.433816],[-71.386403,-34.43363],[-71.386776,-34.43342],[-71.387055,-34.433187],[-71.387265,-34.432908],[-71.387497,-34.432629],[-71.387777,-34.432209],[-71.388103,-34.431767],[-71.388167,-34.431702],[-71.388545,-34.431325],[-71.388941,-34.431068],[-71.389453,-34.430766]]]},"properties":{"comuna":"Palmilla","mancha_id":"06306-88b2c39031fffff","clase":"Bajo","nivel_medio":1.336,"nivel_medio_min":1.0,"nivel_medio_max":1.462,"pct_alto":3.1,"n_hexagonos":7,"area_ha":253.47}},{"type":"Feature","geometry":{"type":"Polygon","coordinates":[[[-71.305758,-34.565989],[-71.306384,-34.561801],[-71.311475,-34.56048],[-71.31594,-34.563347],[-71.315313,-34.567534],[-71.310222,-34.568855],[-71.309596,-34.573042],[-71.304504,-34.574363],[-71.30004,-34.571496],[-71.300667,-34.567309],[-71.305758,-34.565989]]]},"properties":{"comuna":"Palmilla","mancha_id":"06306-88b2c38761fffff","clase":"Bajo","nivel_medio":1.311,"nivel_medio_min":1.205,"nivel_medio_max":1.417,"pct_alto":13.5,"n_hexagonos":2,"area_ha":125.15}},{"type":"Feature","geometry":{"type":"Polygon","coordinates":[[[-71.426005,-34.514574],[-71.42663,-34.510381],[-71.427743,-34.51009],[-71.43032,-34.510813],[-71.432236,-34.511111],[-71.43479,-34.511877],[-71.435471,-34.511877],[-71.436175,-34.512031],[-71.435567,-34.51611],[-71.430474,-34.517439],[-71.426005,-34.514574]]]},"properties":{"comuna":"Palmilla","mancha_id":"06306-88b2c38303fffff","clase":"Bajo","nivel_medio":1.269,"nivel_medio_min":1.269,"nivel_medio_max":1.269,"pct_alto":8.6,"n_hexagonos":1,"area_ha":53.51}},{"type":"Feature","geometry":{"type":"Polygon","coordinates":[[[-71.311397,-34.528291],[-71.306307,-34.529613],[-71.30568,-34.533803],[-71.30059,-34.535125],[-71.296127,-34.532257],[-71.291037,-34.533578],[-71.286574,-34.53071],[-71.287201,-34.526521],[-71.29229,-34.525199],[-71.292917,-34.521009],[-71.288454,-34.518141],[-71.289081,-34.513951],[-71.294171,-34.512628],[-71.298633,-34.515497],[-71.298007,-34.519687],[-71.30247,-34.522555],[-71.30756,-34.521233],[-71.312023,-34.524101],[-71.311397,-34.528291]]]},"properties":{"comuna":"Palmilla","mancha_id":"06306-88b2c382d1fffff","clase":"Bajo","nivel_medio":1.182,"nivel_medio_min":1.037,"nivel_medio_max":1.335,"pct_alto":5.3,"n_hexagonos":5,"area_ha":313.15}},{"type":"Feature","geometry":{"type":"Polygon","coordinates":[[[-71.331214,-34.559381],[-71.326749,-34.556515],[-71.321657,-34.557837],[-71.317193,-34.554971],[-71.317819,-34.550782],[-71.32291,-34.54946],[-71.327375,-34.552327],[-71.332466,-34.551004],[-71.333092,-34.546815],[-71.338184,-34.545492],[-71.342649,-34.548359],[-71.342023,-34.552548],[-71.346489,-34.555414],[-71.345862,-34.559602],[-71.340771,-34.560925],[-71.336305,-34.558059],[-71.331214,-34.559381]]]},"properties":{"comuna":"Palmilla","mancha_id":"06306-88b2c382b1fffff","clase":"Bajo","nivel_medio":1.238,"nivel_medio_min":1.002,"nivel_medio_max":1.469,"pct_alto":4.1,"n_hexagonos":4,"area_ha":250.44}},{"type":"Feature","geometry":{"type":"Polygon","coordinates":[[[-71.420472,-34.584489],[-71.421098,-34.580301],[-71.423439,-34.579692],[-71.423632,-34.580066],[-71.423866,-34.580827],[-71.424061,-34.58153],[-71.424061,-34.582252],[-71.424061,-34.583014],[-71.424022,-34.583658],[-71.423886,-34.584634],[-71.423788,-34.585337],[-71.42369,-34.585981],[-71.423417,-34.586372],[-71.423414,-34.586374],[-71.420472,-34.584489]]]},"properties":{"comuna":"Palmilla","mancha_id":"06306-88b2c381c7fffff","clase":"Bajo","nivel_medio":1.27,"nivel_medio_min":1.27,"nivel_medio_max":1.27,"pct_alto":6.4,"n_hexagonos":1,"area_ha":17.93}},{"type":"Feature","geometry":{"type":"Polygon","coordinates":[[[-71.462384,-34.533294],[-71.45729,-34.534623],[-71.456665,-34.538816],[-71.45157,-34.540144],[-71.450945,-34.544336],[-71.445851,-34.545664],[-71.441381,-34.5428],[-71.436287,-34.544128],[-71.431818,-34.541264],[-71.432443,-34.537073],[-71.437537,-34.535745],[-71.438162,-34.531553],[-71.443256,-34.530224],[-71.44388,-34.526032],[-71.448975,-34.524703],[-71.453444,-34.527567],[-71.458539,-34.526238],[-71.459163,-34.522045],[-71.464258,-34.520715],[-71.464882,-34.516521],[-71.469977,-34.515191],[-71.471711,-34.516302],[-71.471657,-34.516557],[-71.471629,-34.516723],[-71.47156,-34.517086],[-71.47151,-34.51732],[-71.47143,-34.51767],[-71.471395,-34.517781],[-71.47132,-34.517928],[-71.471307,-34.517997],[-71.471225,-34.518128],[-71.471082,-34.51829],[-71.471011,-34.518372],[-71.470852,-34.518593],[-71.470689,-34.518808],[-71.470593,-34.518934],[-71.470491,-34.519045],[-71.470342,-34.519205],[-71.470246,-34.519308],[-71.469982,-34.519544],[-71.469789,-34.519718],[-71.469528,-34.519913],[-71.469463,-34.519963],[-71.469374,-34.520034],[-71.469246,-34.520138],[-71.469094,-34.52026],[-71.468805,-34.520497],[-71.468776,-34.520559],[-71.468732,-34.520657],[-71.468699,-34.520762],[-71.46867,-34.520853],[-71.468661,-34.520942],[-71.468652,-34.521038],[-71.468641,-34.521157],[-71.46862,-34.521223],[-71.468571,-34.521375],[-71.468564,-34.521476],[-71.46856,-34.521532],[-71.468535,-34.521604],[-71.468524,-34.521635],[-71.468485,-34.521712],[-71.468453,-34.521774],[-71.468394,-34.521871],[-71.468281,-34.521966],[-71.4682,-34.522033],[-71.467971,-34.522191],[-71.467765,-34.522333],[-71.467655,-34.522394],[-71.467584,-34.522432],[-71.467424,-34.522492],[-71.467328,-34.522529],[-71.467177,-34.522585],[-71.467121,-34.522607],[-71.467009,-34.522649],[-71.466978,-34.522659],[-71.466878,-34.522694],[-71.466767,-34.522732],[-71.466549,-34.522807],[-71.466421,-34.522834],[-71.466177,-34.522886],[-71.465919,-34.522942],[-71.465736,-34.522982],[-71.465544,-34.523056],[-71.465439,-34.523096],[-71.465223,-34.523209],[-71.465124,-34.523261],[-71.464892,-34.523459],[-71.464187,-34.524101],[-71.463631,-34.524631],[-71.46331,-34.52497],[-71.462715,-34.525505],[-71.462355,-34.52585],[-71.462194,-34.52602],[-71.462034,-34.526142],[-71.461956,-34.526276],[-71.46226,-34.526433],[-71.462849,-34.526781],[-71.463375,-34.527085],[-71.464056,-34.527501],[-71.464904,-34.527998],[-71.465619,-34.52842],[-71.465886,-34.528578],[-71.466243,-34.528783],[-71.466965,-34.529214],[-71.46795,-34.529577],[-71.469779,-34.530333],[-71.470731,-34.530731],[-71.471269,-34.530907],[-71.471424,-34.530963],[-71.471531,-34.530999],[-71.471742,-34.531017],[-71.472155,-34.531055],[-71.472492,-34.531184],[-71.47195,-34.534828],[-71.466855,-34.536157],[-71.462384,-34.533294]]]},"properties":{"comuna":"Palmilla","mancha_id":"06306-88b2c38149fffff","clase":"Bajo","nivel_medio":1.238,"nivel_medio_min":1.084,"nivel_medio_max":1.462,"pct_alto":4.9,"n_hexagonos":9,"area_ha":503.46}},{"type":"Feature","geometry":{"type":"Polygon","coordinates":[[[-71.372662,-34.576793],[-71.373287,-34.572605],[-71.37838,-34.571281],[-71.379006,-34.567092],[-71.384099,-34.565768],[-71.388567,-34.568633],[-71.387941,-34.572821],[-71.392409,-34.575685],[-71.391784,-34.579873],[-71.38669,-34.581197],[-71.386064,-34.585385],[-71.380971,-34.586709],[-71.376503,-34.583845],[-71.37141,-34.585168],[-71.366943,-34.582303],[-71.367569,-34.578116],[-71.372662,-34.576793]]]},"properties":{"comuna":"Palmilla","mancha_id":"06306-88b2c380e1fffff","clase":"Bajo","nivel_medio":1.297,"nivel_medio_min":1.045,"nivel_medio_max":1.494,"pct_alto":7.4,"n_hexagonos":5,"area_ha":313.03}},{"type":"Feature","geometry":{"type":"Polygon","coordinates":[[[-71.347907,-34.611386],[-71.348533,-34.607201],[-71.344067,-34.604337],[-71.344693,-34.600151],[-71.349786,-34.59883],[-71.350412,-34.594644],[-71.355505,-34.593322],[-71.359972,-34.596186],[-71.359346,-34.600373],[-71.354253,-34.601694],[-71.353626,-34.60588],[-71.358093,-34.608744],[-71.357467,-34.612929],[-71.352374,-34.61425],[-71.352083,-34.616195],[-71.351032,-34.615841],[-71.350104,-34.615517],[-71.346386,-34.614195],[-71.34632,-34.61418],[-71.346622,-34.61349],[-71.346642,-34.613456],[-71.34636,-34.61338],[-71.345687,-34.613263],[-71.344966,-34.613129],[-71.34417,-34.61298],[-71.34303,-34.612651],[-71.347907,-34.611386]]]},"properties":{"comuna":"Palmilla","mancha_id":"06306-88b2c380b3fffff","clase":"Bajo","nivel_medio":1.433,"nivel_medio_min":1.336,"nivel_medio_max":1.498,"pct_alto":13.4,"n_hexagonos":4,"area_ha":206.91}},{"type":"Feature","geometry":{"type":"Polygon","coordinates":[[[-71.384187,-34.597946],[-71.384813,-34.59376],[-71.389907,-34.592436],[-71.390532,-34.588249],[-71.395626,-34.586925],[-71.396252,-34.582737],[-71.401346,-34.581413],[-71.405814,-34.584276],[-71.405189,-34.588464],[-71.400095,-34.589788],[-71.399469,-34.593976],[-71.403938,-34.596839],[-71.409033,-34.595515],[-71.411068,-34.596818],[-71.411032,-34.596837],[-71.410931,-34.596871],[-71.410863,-34.596894],[-71.410757,-34.596926],[-71.410666,-34.596952],[-71.410301,-34.597111],[-71.409975,-34.597196],[-71.409738,-34.597288],[-71.409587,-34.597347],[-71.409416,-34.597465],[-71.409305,-34.597565],[-71.409149,-34.597717],[-71.409119,-34.597747],[-71.409104,-34.597767],[-71.409085,-34.597782],[-71.409004,-34.597861],[-71.408941,-34.597921],[-71.408656,-34.598114],[-71.40842,-34.598247],[-71.408318,-34.598324],[-71.408289,-34.598374],[-71.408279,-34.598427],[-71.408278,-34.598453],[-71.408278,-34.598512],[-71.408277,-34.598554],[-71.408275,-34.59859],[-71.408271,-34.59864],[-71.408267,-34.598712],[-71.408189,-34.598741],[-71.407993,-34.598814],[-71.407836,-34.598872],[-71.407787,-34.598781],[-71.407744,-34.598755],[-71.407672,-34.598764],[-71.407519,-34.598809],[-71.4072,-34.5989],[-71.406953,-34.598971],[-71.406643,-34.599061],[-71.406322,-34.599152],[-71.406062,-34.599226],[-71.405241,-34.599455],[-71.405012,-34.599519],[-71.404594,-34.599635],[-71.404042,-34.599795],[-71.403472,-34.599958],[-71.403385,-34.599983],[-71.40246,-34.600252],[-71.40186,-34.600429],[-71.40121,-34.600618],[-71.40033,-34.60086],[-71.399566,-34.601069],[-71.398673,-34.601312],[-71.398438,-34.601377],[-71.397848,-34.601538],[-71.397214,-34.601706],[-71.396271,-34.601955],[-71.395327,-34.602204],[-71.394828,-34.602337],[-71.3948,-34.602442],[-71.394735,-34.602687],[-71.394625,-34.603102],[-71.39448,-34.603643],[-71.394052,-34.605115],[-71.393919,-34.605559],[-71.393673,-34.606291],[-71.393466,-34.606898],[-71.392389,-34.606722],[-71.390532,-34.606445],[-71.390216,-34.606397],[-71.38803,-34.604996],[-71.388655,-34.60081],[-71.384187,-34.597946]]]},"properties":{"comuna":"Palmilla","mancha_id":"06306-88b2c380a5fffff","clase":"Bajo","nivel_medio":1.274,"nivel_medio_min":1.021,"nivel_medio_max":1.421,"pct_alto":2.2,"n_hexagonos":6,"area_ha":304.08}},{"type":"Feature","geometry":{"type":"Polygon","coordinates":[[[-71.40885,-34.531134],[-71.409475,-34.526942],[-71.414568,-34.525615],[-71.419037,-34.52848],[-71.42413,-34.527152],[-71.428599,-34.530017],[-71.427974,-34.534209],[-71.42288,-34.535536],[-71.418411,-34.532672],[-71.413318,-34.533999],[-71.40885,-34.531134]]]},"properties":{"comuna":"Palmilla","mancha_id":"06306-88b2c38069fffff","clase":"Bajo","nivel_medio":1.333,"nivel_medio_min":1.216,"nivel_medio_max":1.45,"pct_alto":7.0,"n_hexagonos":2,"area_ha":125.4}},{"type":"Feature","geometry":{"type":"Polygon","coordinates":[[[-71.390355,-34.523865],[-71.385888,-34.520999],[-71.380796,-34.522325],[-71.376329,-34.519459],[-71.376955,-34.515267],[-71.382047,-34.513941],[-71.382672,-34.509748],[-71.378206,-34.506882],[-71.373114,-34.508208],[-71.372489,-34.512401],[-71.367397,-34.513727],[-71.366771,-34.517918],[-71.36168,-34.519244],[-71.357214,-34.516377],[-71.352123,-34.517702],[-71.351497,-34.521893],[-71.346406,-34.523218],[-71.341941,-34.520351],[-71.342567,-34.51616],[-71.338102,-34.513292],[-71.333011,-34.514617],[-71.328547,-34.511749],[-71.329173,-34.507557],[-71.324709,-34.50469],[-71.319619,-34.506014],[-71.318993,-34.510205],[-71.313903,-34.511528],[-71.309439,-34.50866],[-71.310066,-34.504469],[-71.305603,-34.5016],[-71.306229,-34.497409],[-71.301766,-34.49454],[-71.302393,-34.490348],[-71.29793,-34.487479],[-71.298557,-34.483286],[-71.303646,-34.481962],[-71.308108,-34.484831],[-71.313198,-34.483507],[-71.317661,-34.486376],[-71.32275,-34.485051],[-71.327214,-34.48792],[-71.332304,-34.486595],[-71.33293,-34.482402],[-71.33802,-34.481076],[-71.338646,-34.476882],[-71.334182,-34.474014],[-71.334808,-34.46982],[-71.339898,-34.468494],[-71.340524,-34.464299],[-71.33606,-34.46143],[-71.336686,-34.457235],[-71.341776,-34.455908],[-71.34624,-34.458777],[-71.351329,-34.45745],[-71.351955,-34.453254],[-71.347491,-34.450386],[-71.348117,-34.446189],[-71.353207,-34.444862],[-71.353832,-34.440665],[-71.355975,-34.440106],[-71.356169,-34.440167],[-71.356521,-34.440103],[-71.356785,-34.440056],[-71.357111,-34.439847],[-71.357185,-34.439791],[-71.358922,-34.439337],[-71.363386,-34.442206],[-71.362761,-34.446403],[-71.357671,-34.447731],[-71.357045,-34.451927],[-71.36151,-34.454796],[-71.360884,-34.458991],[-71.365349,-34.46186],[-71.364723,-34.466055],[-71.359633,-34.467382],[-71.359007,-34.471577],[-71.363472,-34.474445],[-71.368562,-34.473118],[-71.369188,-34.468923],[-71.374279,-34.467595],[-71.374904,-34.4634],[-71.376072,-34.463095],[-71.376129,-34.46333],[-71.376374,-34.463683],[-71.376727,-34.464022],[-71.376998,-34.464226],[-71.377311,-34.464606],[-71.377637,-34.465177],[-71.377895,-34.465625],[-71.378071,-34.466005],[-71.378194,-34.466467],[-71.378289,-34.467092],[-71.378302,-34.467662],[-71.378302,-34.468151],[-71.378112,-34.468586],[-71.377745,-34.468966],[-71.377338,-34.469414],[-71.377257,-34.469508],[-71.376931,-34.469889],[-71.376577,-34.470541],[-71.376129,-34.471247],[-71.375817,-34.47228],[-71.375423,-34.473122],[-71.375233,-34.473774],[-71.375138,-34.474167],[-71.375016,-34.47467],[-71.374798,-34.475064],[-71.374554,-34.475553],[-71.374535,-34.475593],[-71.373028,-34.475986],[-71.372402,-34.48018],[-71.374515,-34.481537],[-71.374635,-34.482031],[-71.374595,-34.482303],[-71.374404,-34.482778],[-71.374255,-34.48309],[-71.37397,-34.483362],[-71.373422,-34.483809],[-71.374169,-34.483797],[-71.376745,-34.483867],[-71.381463,-34.483996],[-71.385652,-34.484091],[-71.388059,-34.484145],[-71.388113,-34.484147],[-71.393133,-34.484297],[-71.395983,-34.486126],[-71.401075,-34.484798],[-71.401106,-34.484589],[-71.401502,-34.484606],[-71.403444,-34.484666],[-71.404468,-34.484732],[-71.408275,-34.484834],[-71.41085,-34.484884],[-71.410634,-34.486336],[-71.413438,-34.488135],[-71.413378,-34.488216],[-71.413198,-34.48869],[-71.413198,-34.48933],[-71.413006,-34.489983],[-71.412776,-34.490738],[-71.412545,-34.491494],[-71.41243,-34.491981],[-71.412238,-34.492659],[-71.412135,-34.493159],[-71.41202,-34.493632],[-71.412007,-34.493927],[-71.412017,-34.494038],[-71.412033,-34.494221],[-71.412084,-34.494439],[-71.412225,-34.494721],[-71.412417,-34.495079],[-71.412622,-34.4954],[-71.412789,-34.495745],[-71.412878,-34.496001],[-71.41284,-34.496462],[-71.412725,-34.497013],[-71.412609,-34.497589],[-71.412366,-34.498037],[-71.412071,-34.498601],[-71.411854,-34.499062],[-71.411636,-34.499484],[-71.411534,-34.499817],[-71.411525,-34.5],[-71.411521,-34.500099],[-71.411598,-34.500509],[-71.411645,-34.500771],[-71.4117,-34.501072],[-71.411764,-34.501495],[-71.41179,-34.501956],[-71.411726,-34.502481],[-71.411534,-34.502993],[-71.411316,-34.503787],[-71.411278,-34.50403],[-71.410996,-34.504299],[-71.410448,-34.504751],[-71.409509,-34.505286],[-71.409695,-34.50537],[-71.411247,-34.505718],[-71.412524,-34.505998],[-71.412689,-34.506035],[-71.414138,-34.506353],[-71.415405,-34.506631],[-71.416499,-34.506879],[-71.416722,-34.506956],[-71.416131,-34.507483],[-71.416467,-34.50758],[-71.418565,-34.508032],[-71.419448,-34.508223],[-71.417069,-34.508844],[-71.416444,-34.513037],[-71.411351,-34.514365],[-71.410726,-34.518557],[-71.405633,-34.519885],[-71.405007,-34.524077],[-71.399915,-34.525404],[-71.395447,-34.522538],[-71.390355,-34.523865]],[[-71.391606,-34.51548],[-71.396073,-34.518346],[-71.401165,-34.517019],[-71.401791,-34.512827],[-71.397323,-34.509961],[-71.392231,-34.511288],[-71.391606,-34.51548]],[[-71.363557,-34.506668],[-71.359091,-34.503801],[-71.354,-34.505126],[-71.353375,-34.509318],[-71.35784,-34.512185],[-71.362931,-34.51086],[-71.363557,-34.506668]],[[-71.364808,-34.498282],[-71.369274,-34.501149],[-71.374365,-34.499823],[-71.374991,-34.495629],[-71.370525,-34.492762],[-71.371151,-34.488569],[-71.366685,-34.485701],[-71.367311,-34.481507],[-71.362846,-34.47864],[-71.357755,-34.479966],[-71.35713,-34.48416],[-71.361595,-34.487028],[-71.360969,-34.491222],[-71.355878,-34.492548],[-71.355252,-34.496741],[-71.359717,-34.499608],[-71.364808,-34.498282]],[[-71.340606,-34.496524],[-71.345697,-34.495199],[-71.346323,-34.491006],[-71.341858,-34.488138],[-71.336768,-34.489463],[-71.336142,-34.493656],[-71.340606,-34.496524]],[[-71.320872,-34.49763],[-71.325335,-34.500498],[-71.330425,-34.499173],[-71.331052,-34.494981],[-71.326588,-34.492113],[-71.321498,-34.493437],[-71.320872,-34.49763]]]},"properties":{"comuna":"Palmilla","mancha_id":"06306-88b2c38049fffff","clase":"Bajo","nivel_medio":1.241,"nivel_medio_min":0.751,"nivel_medio_max":1.496,"pct_alto":3.2,"n_hexagonos":69,"area_ha":4021.12}},{"type":"Feature","geometry":{"type":"Polygon","coordinates":[[[-71.380257,-34.558714],[-71.375165,-34.560039],[-71.374539,-34.564228],[-71.369446,-34.565552],[-71.364979,-34.562687],[-71.365605,-34.558498],[-71.361139,-34.555632],[-71.361765,-34.551443],[-71.366857,-34.550119],[-71.371324,-34.552984],[-71.376416,-34.55166],[-71.380883,-34.554525],[-71.380257,-34.558714]]]},"properties":{"comuna":"Palmilla","mancha_id":"06306-88b2c38011fffff","clase":"Bajo","nivel_medio":1.287,"nivel_medio_min":1.17,"nivel_medio_max":1.474,"pct_alto":3.1,"n_hexagonos":3,"area_ha":187.89}},{"type":"Feature","geometry":{"type":"Polygon","coordinates":[[[-71.385976,-34.5532],[-71.386602,-34.54901],[-71.382134,-34.546145],[-71.38276,-34.541955],[-71.387853,-34.54063],[-71.388478,-34.536439],[-71.393571,-34.535113],[-71.394196,-34.530922],[-71.399289,-34.529595],[-71.403757,-34.532461],[-71.403132,-34.536652],[-71.407599,-34.539517],[-71.406974,-34.543708],[-71.411442,-34.546572],[-71.410817,-34.550763],[-71.415286,-34.553627],[-71.41466,-34.557817],[-71.409567,-34.559143],[-71.408941,-34.563332],[-71.403847,-34.564658],[-71.403222,-34.568847],[-71.398128,-34.570172],[-71.39366,-34.567308],[-71.394286,-34.563119],[-71.389818,-34.560254],[-71.390444,-34.556065],[-71.385976,-34.5532]]]},"properties":{"comuna":"Palmilla","mancha_id":"06306-88b2c38001fffff","clase":"Bajo","nivel_medio":1.246,"nivel_medio_min":0.996,"nivel_medio_max":1.477,"pct_alto":4.8,"n_hexagonos":12,"area_ha":751.9}},{"type":"Feature","geometry":{"type":"Polygon","coordinates":[[[-71.278903,-34.516594],[-71.27953,-34.512404],[-71.284619,-34.511082],[-71.285246,-34.506891],[-71.290335,-34.505569],[-71.294797,-34.508438],[-71.294171,-34.512628],[-71.289081,-34.513951],[-71.288454,-34.518141],[-71.283365,-34.519463],[-71.278903,-34.516594]]]},"properties":{"comuna":"Palmilla","mancha_id":"06306-88b2c395e1fffff","clase":"Medio","nivel_medio":2.372,"nivel_medio_min":2.325,"nivel_medio_max":2.42,"pct_alto":59.4,"n_hexagonos":2,"area_ha":125.28}},{"type":"Feature","geometry":{"type":"Polygon","coordinates":[[[-71.270515,-34.529601],[-71.270442,-34.529525],[-71.271166,-34.529991],[-71.271107,-34.529988],[-71.270849,-34.529936],[-71.270515,-34.529601]]]},"properties":{"comuna":"Palmilla","mancha_id":"06306-88b2c39587fffff","clase":"Medio","nivel_medio":2.0,"nivel_medio_min":2.0,"nivel_medio_max":2.0,"pct_alto":0.0,"n_hexagonos":1,"area_ha":0.06}},{"type":"Feature","geometry":{"type":"Polygon","coordinates":[[[-71.320872,-34.49763],[-71.321498,-34.493437],[-71.326588,-34.492113],[-71.331052,-34.494981],[-71.330425,-34.499173],[-71.325335,-34.500498],[-71.320872,-34.49763]]]},"properties":{"comuna":"Palmilla","mancha_id":"06306-88b2c39521fffff","clase":"Medio","nivel_medio":1.683,"nivel_medio_min":1.683,"nivel_medio_max":1.683,"pct_alto":22.6,"n_hexagonos":1,"area_ha":62.69}},{"type":"Feature","geometry":{"type":"Polygon","coordinates":[[[-71.263564,-34.488353],[-71.264191,-34.484161],[-71.269279,-34.482838],[-71.269906,-34.478646],[-71.274994,-34.477323],[-71.279456,-34.480193],[-71.278829,-34.484386],[-71.283291,-34.487255],[-71.282664,-34.491448],[-71.277575,-34.49277],[-71.273114,-34.4899],[-71.268026,-34.491222],[-71.263564,-34.488353]]]},"properties":{"comuna":"Palmilla","mancha_id":"06306-88b2c39425fffff","clase":"Medio","nivel_medio":2.105,"nivel_medio_min":1.921,"nivel_medio_max":2.4,"pct_alto":52.9,"n_hexagonos":3,"area_ha":188.02}},{"type":"Feature","geometry":{"type":"Polygon","coordinates":[[[-71.257849,-34.493866],[-71.252762,-34.495187],[-71.252674,-34.495772],[-71.252316,-34.495314],[-71.252049,-34.494729],[-71.251929,-34.494465],[-71.251698,-34.493615],[-71.251621,-34.492534],[-71.251621,-34.49171],[-71.251646,-34.491015],[-71.251801,-34.490423],[-71.252058,-34.489831],[-71.252419,-34.489059],[-71.252599,-34.488132],[-71.252753,-34.487669],[-71.253294,-34.487128],[-71.253533,-34.48693],[-71.253912,-34.486614],[-71.254059,-34.486513],[-71.254016,-34.486804],[-71.258476,-34.489674],[-71.257849,-34.493866]]]},"properties":{"comuna":"Palmilla","mancha_id":"06306-88b2c39423fffff","clase":"Medio","nivel_medio":2.471,"nivel_medio_min":2.0,"nivel_medio_max":2.472,"pct_alto":48.1,"n_hexagonos":3,"area_ha":42.61}},{"type":"Feature","geometry":{"type":"Polygon","coordinates":[[[-71.382248,-34.446954],[-71.382497,-34.445286],[-71.382587,-34.445262],[-71.382404,-34.446081],[-71.382282,-34.44691],[-71.382248,-34.446954]]]},"properties":{"comuna":"Palmilla","mancha_id":"06306-88b2c391d1fffff","clase":"Medio","nivel_medio":2.034,"nivel_medio_min":2.034,"nivel_medio_max":2.034,"pct_alto":10.4,"n_hexagonos":1,"area_ha":0.07}},{"type":"Feature","geometry":{"type":"Polygon","coordinates":[[[-71.413438,-34.488135],[-71.410634,-34.486336],[-71.41085,-34.484884],[-71.413168,-34.484929],[-71.414343,-34.484962],[-71.414436,-34.484963],[-71.414594,-34.485232],[-71.414735,-34.485847],[-71.414709,-34.486321],[-71.414581,-34.486743],[-71.414402,-34.487089],[-71.414146,-34.487358],[-71.413877,-34.487665],[-71.413595,-34.487921],[-71.413438,-34.488135]]]},"properties":{"comuna":"Palmilla","mancha_id":"06306-88b2c391b7fffff","clase":"Medio","nivel_medio":2.049,"nivel_medio_min":2.049,"nivel_medio_max":2.049,"pct_alto":8.1,"n_hexagonos":1,"area_ha":9.58}},{"type":"Feature","geometry":{"type":"Polygon","coordinates":[[[-71.348117,-34.446189],[-71.347491,-34.450386],[-71.351955,-34.453254],[-71.351329,-34.45745],[-71.34624,-34.458777],[-71.341776,-34.455908],[-71.336686,-34.457235],[-71.33606,-34.46143],[-71.340524,-34.464299],[-71.339898,-34.468494],[-71.334808,-34.46982],[-71.334182,-34.474014],[-71.338646,-34.476882],[-71.33802,-34.481076],[-71.33293,-34.482402],[-71.332304,-34.486595],[-71.327214,-34.48792],[-71.32275,-34.485051],[-71.317661,-34.486376],[-71.313198,-34.483507],[-71.308108,-34.484831],[-71.303646,-34.481962],[-71.298557,-34.483286],[-71.29793,-34.487479],[-71.292841,-34.488802],[-71.288379,-34.485933],[-71.289006,-34.48174],[-71.294094,-34.480417],[-71.294721,-34.476224],[-71.290259,-34.473354],[-71.290886,-34.46916],[-71.288949,-34.467915],[-71.28964,-34.467539],[-71.290258,-34.467436],[-71.290799,-34.46705],[-71.291391,-34.466844],[-71.291931,-34.466638],[-71.292626,-34.466227],[-71.293064,-34.465763],[-71.293527,-34.465532],[-71.294402,-34.465377],[-71.295226,-34.465223],[-71.295973,-34.46512],[-71.296382,-34.465103],[-71.295974,-34.467837],[-71.300436,-34.470706],[-71.305525,-34.469382],[-71.306151,-34.465188],[-71.31124,-34.463863],[-71.311867,-34.459668],[-71.316955,-34.458343],[-71.317548,-34.45437],[-71.318011,-34.454036],[-71.321757,-34.451331],[-71.323041,-34.450339],[-71.324656,-34.449091],[-71.326247,-34.447858],[-71.326406,-34.447735],[-71.327189,-34.447095],[-71.32858,-34.446001],[-71.328788,-34.445838],[-71.329671,-34.445148],[-71.330968,-34.444127],[-71.332723,-34.442744],[-71.333882,-34.441835],[-71.33412,-34.441648],[-71.334376,-34.441447],[-71.336295,-34.439942],[-71.337151,-34.439241],[-71.337746,-34.438762],[-71.338512,-34.43814],[-71.338845,-34.437869],[-71.339066,-34.437691],[-71.339215,-34.437569],[-71.33926,-34.437494],[-71.339261,-34.437462],[-71.339268,-34.43744],[-71.339271,-34.437431],[-71.339319,-34.437376],[-71.339346,-34.437315],[-71.339374,-34.43724],[-71.339397,-34.437157],[-71.339942,-34.436606],[-71.340329,-34.436584],[-71.340653,-34.436566],[-71.340836,-34.436773],[-71.340952,-34.436983],[-71.340954,-34.436986],[-71.341255,-34.437448],[-71.341627,-34.437635],[-71.342023,-34.437704],[-71.342081,-34.437711],[-71.342465,-34.437751],[-71.342908,-34.437704],[-71.343327,-34.437588],[-71.343723,-34.437402],[-71.344189,-34.437099],[-71.344724,-34.43682],[-71.34512,-34.43654],[-71.345586,-34.436494],[-71.345888,-34.436494],[-71.346168,-34.43661],[-71.346354,-34.436796],[-71.346401,-34.437053],[-71.346401,-34.437332],[-71.346377,-34.437774],[-71.346377,-34.43817],[-71.346447,-34.438426],[-71.346574,-34.438525],[-71.346657,-34.438589],[-71.347006,-34.438706],[-71.347285,-34.438822],[-71.347518,-34.438915],[-71.347704,-34.439078],[-71.347937,-34.439404],[-71.34817,-34.439684],[-71.348403,-34.439823],[-71.348892,-34.439893],[-71.349521,-34.439847],[-71.349823,-34.439754],[-71.350149,-34.439614],[-71.350452,-34.439334],[-71.350615,-34.438962],[-71.350715,-34.438662],[-71.350731,-34.438613],[-71.350871,-34.438287],[-71.351076,-34.438107],[-71.351411,-34.437948],[-71.35213,-34.437788],[-71.352896,-34.43766],[-71.353503,-34.437628],[-71.35395,-34.437628],[-71.354317,-34.437708],[-71.35448,-34.437914],[-71.35455,-34.438263],[-71.354684,-34.438906],[-71.35494,-34.439257],[-71.355179,-34.439545],[-71.355403,-34.439768],[-71.355674,-34.43996],[-71.355914,-34.440087],[-71.355975,-34.440106],[-71.353832,-34.440665],[-71.353207,-34.444862],[-71.348117,-34.446189]]]},"properties":{"comuna":"Palmilla","mancha_id":"06306-88b2c39081fffff","clase":"Medio","nivel_medio":1.984,"nivel_medio_min":1.505,"nivel_medio_max":2.497,"pct_alto":17.8,"n_hexagonos":31,"area_ha":1579.95}},{"type":"Feature","geometry":{"type":"Polygon","coordinates":[[[-71.401075,-34.484798],[-71.395983,-34.486126],[-71.393133,-34.484297],[-71.397221,-34.484419],[-71.401106,-34.484589],[-71.401075,-34.484798]]]},"properties":{"comuna":"Palmilla","mancha_id":"06306-88b2c3826dfffff","clase":"Medio","nivel_medio":2.456,"nivel_medio_min":2.456,"nivel_medio_max":2.456,"pct_alto":64.8,"n_hexagonos":1,"area_ha":7.64}},{"type":"Feature","geometry":{"type":"Polygon","coordinates":[[[-71.336142,-34.493656],[-71.336768,-34.489463],[-71.341858,-34.488138],[-71.346323,-34.491006],[-71.345697,-34.495199],[-71.340606,-34.496524],[-71.336142,-34.493656]]]},"properties":{"comuna":"Palmilla","mancha_id":"06306-88b2c38253fffff","clase":"Medio","nivel_medio":1.825,"nivel_medio_min":1.825,"nivel_medio_max":1.825,"pct_alto":18.9,"n_hexagonos":1,"area_ha":62.71}},{"type":"Feature","geometry":{"type":"Polygon","coordinates":[[[-71.359007,-34.471577],[-71.359633,-34.467382],[-71.364723,-34.466055],[-71.365349,-34.46186],[-71.360884,-34.458991],[-71.36151,-34.454796],[-71.357045,-34.451927],[-71.357671,-34.447731],[-71.362761,-34.446403],[-71.363386,-34.442206],[-71.358922,-34.439337],[-71.357185,-34.439791],[-71.357383,-34.43964],[-71.35774,-34.439404],[-71.358136,-34.439195],[-71.358439,-34.439055],[-71.358765,-34.438985],[-71.358992,-34.438872],[-71.359044,-34.438845],[-71.359184,-34.438636],[-71.3593,-34.438263],[-71.35937,-34.437867],[-71.35951,-34.437518],[-71.359673,-34.437379],[-71.35997,-34.437261],[-71.360278,-34.437192],[-71.360481,-34.437085],[-71.360744,-34.436913],[-71.36093,-34.436657],[-71.361116,-34.43647],[-71.361303,-34.436354],[-71.361559,-34.436238],[-71.361908,-34.436168],[-71.36228,-34.436168],[-71.362886,-34.436144],[-71.363282,-34.436098],[-71.363608,-34.435981],[-71.363817,-34.435865],[-71.364353,-34.435539],[-71.364952,-34.435169],[-71.365238,-34.434957],[-71.365303,-34.43469],[-71.365207,-34.434323],[-71.365027,-34.434062],[-71.36492,-34.433908],[-71.364725,-34.433443],[-71.36471,-34.433327],[-71.364679,-34.433094],[-71.364793,-34.432772],[-71.364818,-34.432698],[-71.365098,-34.432396],[-71.365401,-34.432303],[-71.365703,-34.432303],[-71.366029,-34.432349],[-71.366541,-34.432396],[-71.366891,-34.432396],[-71.367193,-34.432396],[-71.367543,-34.432279],[-71.367892,-34.432116],[-71.368125,-34.43193],[-71.368451,-34.431627],[-71.368707,-34.431604],[-71.368963,-34.431674],[-71.369266,-34.43186],[-71.369592,-34.431837],[-71.369871,-34.431767],[-71.370337,-34.431557],[-71.370779,-34.431301],[-71.371196,-34.431049],[-71.371524,-34.430812],[-71.37185,-34.430682],[-71.372074,-34.430698],[-71.372234,-34.430778],[-71.372457,-34.430954],[-71.372904,-34.431465],[-71.373463,-34.432247],[-71.373853,-34.432838],[-71.374373,-34.433445],[-71.374466,-34.433516],[-71.374192,-34.435352],[-71.369102,-34.436681],[-71.368476,-34.440878],[-71.372941,-34.443747],[-71.372316,-34.447943],[-71.376781,-34.450812],[-71.379959,-34.449982],[-71.379932,-34.45002],[-71.379552,-34.450427],[-71.379307,-34.450808],[-71.379076,-34.451337],[-71.378859,-34.451745],[-71.378601,-34.452234],[-71.378438,-34.452682],[-71.378357,-34.453184],[-71.378357,-34.453809],[-71.378397,-34.45438],[-71.378411,-34.454923],[-71.378492,-34.455276],[-71.37871,-34.455901],[-71.378846,-34.456335],[-71.378846,-34.456729],[-71.378843,-34.456735],[-71.378723,-34.457055],[-71.378397,-34.457462],[-71.378003,-34.457788],[-71.377474,-34.458359],[-71.377026,-34.458848],[-71.376686,-34.459214],[-71.376387,-34.459663],[-71.376211,-34.460274],[-71.376075,-34.460736],[-71.37598,-34.461252],[-71.375885,-34.461836],[-71.375898,-34.462352],[-71.376021,-34.462881],[-71.376072,-34.463095],[-71.374904,-34.4634],[-71.374279,-34.467595],[-71.369188,-34.468923],[-71.368562,-34.473118],[-71.363472,-34.474445],[-71.359007,-34.471577]]]},"properties":{"comuna":"Palmilla","mancha_id":"06306-88b2c38249fffff","clase":"Medio","nivel_medio":1.846,"nivel_medio_min":1.51,"nivel_medio_max":2.2,"pct_alto":18.1,"n_hexagonos":12,"area_ha":521.11}},{"type":"Feature","geometry":{"type":"Polygon","coordinates":[[[-71.372402,-34.48018],[-71.373028,-34.475986],[-71.374535,-34.475593],[-71.374255,-34.476191],[-71.374106,-34.476789],[-71.374146,-34.477386],[-71.374241,-34.478174],[-71.374486,-34.479233],[-71.374676,-34.480035],[-71.37469,-34.480456],[-71.374554,-34.480945],[-71.3745,-34.481474],[-71.374515,-34.481537],[-71.372402,-34.48018]]]},"properties":{"comuna":"Palmilla","mancha_id":"06306-88b2c38245fffff","clase":"Medio","nivel_medio":2.008,"nivel_medio_min":2.008,"nivel_medio_max":2.008,"pct_alto":49.8,"n_hexagonos":1,"area_ha":8.7}},{"type":"Feature","geometry":{"type":"Polygon","coordinates":[[[-71.391606,-34.51548],[-71.392231,-34.511288],[-71.397323,-34.509961],[-71.401791,-34.512827],[-71.401165,-34.517019],[-71.396073,-34.518346],[-71.391606,-34.51548]]]},"properties":{"comuna":"Palmilla","mancha_id":"06306-88b2c38227fffff","clase":"Medio","nivel_medio":1.502,"nivel_medio_min":1.502,"nivel_medio_max":1.502,"pct_alto":15.7,"n_hexagonos":1,"area_ha":62.71}},{"type":"Feature","geometry":{"type":"Polygon","coordinates":[[[-71.353375,-34.509318],[-71.354,-34.505126],[-71.359091,-34.503801],[-71.363557,-34.506668],[-71.362931,-34.51086],[-71.35784,-34.512185],[-71.353375,-34.509318]]]},"properties":{"comuna":"Palmilla","mancha_id":"06306-88b2c38215fffff","clase":"Medio","nivel_medio":1.817,"nivel_medio_min":1.817,"nivel_medio_max":1.817,"pct_alto":2.4,"n_hexagonos":1,"area_ha":62.69}},{"type":"Feature","geometry":{"type":"Polygon","coordinates":[[[-71.369274,-34.501149],[-71.364808,-34.498282],[-71.359717,-34.499608],[-71.355252,-34.496741],[-71.355878,-34.492548],[-71.360969,-34.491222],[-71.361595,-34.487028],[-71.35713,-34.48416],[-71.357755,-34.479966],[-71.362846,-34.47864],[-71.367311,-34.481507],[-71.366685,-34.485701],[-71.371151,-34.488569],[-71.370525,-34.492762],[-71.374991,-34.495629],[-71.374365,-34.499823],[-71.369274,-34.501149]]]},"properties":{"comuna":"Palmilla","mancha_id":"06306-88b2c38201fffff","clase":"Medio","nivel_medio":1.662,"nivel_medio_min":1.522,"nivel_medio_max":1.838,"pct_alto":11.2,"n_hexagonos":4,"area_ha":250.89}},{"type":"Feature","geometry":{"type":"Polygon","coordinates":[[[-71.456665,-34.538816],[-71.45729,-34.534623],[-71.462384,-34.533294],[-71.466855,-34.536157],[-71.46623,-34.54035],[-71.461135,-34.541679],[-71.46051,-34.545871],[-71.455416,-34.547199],[-71.450945,-34.544336],[-71.45157,-34.540144],[-71.456665,-34.538816]]]},"properties":{"comuna":"Palmilla","mancha_id":"06306-88b2c38141fffff","clase":"Medio","nivel_medio":1.936,"nivel_medio_min":1.746,"nivel_medio_max":2.127,"pct_alto":44.6,"n_hexagonos":2,"area_ha":125.42}},{"type":"Feature","geometry":{"type":"Polygon","coordinates":[[[-71.390444,-34.556065],[-71.389818,-34.560254],[-71.394286,-34.563119],[-71.39366,-34.567308],[-71.398128,-34.570172],[-71.403222,-34.568847],[-71.403847,-34.564658],[-71.408941,-34.563332],[-71.409567,-34.559143],[-71.41466,-34.557817],[-71.419129,-34.560681],[-71.418504,-34.56487],[-71.41341,-34.566196],[-71.412785,-34.570385],[-71.417254,-34.573249],[-71.418689,-34.572875],[-71.418868,-34.573487],[-71.419278,-34.574346],[-71.419708,-34.575068],[-71.420137,-34.575673],[-71.420625,-34.576474],[-71.421035,-34.577079],[-71.421504,-34.577489],[-71.422051,-34.578114],[-71.422656,-34.578758],[-71.42328,-34.579383],[-71.423439,-34.579692],[-71.421098,-34.580301],[-71.420472,-34.584489],[-71.423414,-34.586374],[-71.422949,-34.586782],[-71.422402,-34.587192],[-71.421641,-34.587641],[-71.421289,-34.587816],[-71.420918,-34.587953],[-71.420411,-34.588343],[-71.419981,-34.58887],[-71.419532,-34.589515],[-71.419064,-34.590178],[-71.418673,-34.591057],[-71.41838,-34.591916],[-71.418278,-34.592261],[-71.418166,-34.592638],[-71.418049,-34.593146],[-71.417768,-34.59398],[-71.417467,-34.593917],[-71.417094,-34.593972],[-71.416279,-34.594055],[-71.415747,-34.59452],[-71.415458,-34.594739],[-71.415371,-34.594791],[-71.415363,-34.594791],[-71.415347,-34.594792],[-71.415273,-34.594795],[-71.415255,-34.594791],[-71.415237,-34.594787],[-71.415205,-34.594779],[-71.415182,-34.594774],[-71.415152,-34.594767],[-71.415072,-34.594748],[-71.415011,-34.594723],[-71.414923,-34.594686],[-71.414824,-34.594645],[-71.414678,-34.594584],[-71.41452,-34.594519],[-71.414359,-34.594452],[-71.414249,-34.594397],[-71.414179,-34.594363],[-71.414156,-34.594353],[-71.414148,-34.594347],[-71.414094,-34.59432],[-71.414048,-34.594298],[-71.413943,-34.594261],[-71.413908,-34.594301],[-71.413882,-34.594332],[-71.413855,-34.594392],[-71.413842,-34.594421],[-71.413817,-34.594472],[-71.413777,-34.594557],[-71.413745,-34.594623],[-71.413701,-34.594718],[-71.413685,-34.594754],[-71.413643,-34.594819],[-71.413599,-34.594847],[-71.413524,-34.594878],[-71.413438,-34.594906],[-71.413366,-34.594944],[-71.413308,-34.594981],[-71.413234,-34.59505],[-71.413158,-34.59512],[-71.413071,-34.5952],[-71.413022,-34.595287],[-71.412977,-34.595384],[-71.41298,-34.595468],[-71.412967,-34.595553],[-71.412956,-34.595624],[-71.412958,-34.59569],[-71.41294,-34.59575],[-71.412916,-34.595782],[-71.41289,-34.595817],[-71.412831,-34.595865],[-71.412791,-34.595875],[-71.412736,-34.595873],[-71.412693,-34.595863],[-71.41266,-34.595855],[-71.412634,-34.595855],[-71.412589,-34.595848],[-71.412498,-34.595869],[-71.412464,-34.59588],[-71.412401,-34.595913],[-71.412353,-34.595953],[-71.412295,-34.596002],[-71.412223,-34.596063],[-71.412106,-34.596149],[-71.411921,-34.596193],[-71.411859,-34.596208],[-71.411729,-34.596237],[-71.411639,-34.59632],[-71.411602,-34.596396],[-71.41157,-34.596462],[-71.411541,-34.596522],[-71.411469,-34.596573],[-71.411381,-34.596635],[-71.411269,-34.596714],[-71.411188,-34.596756],[-71.411137,-34.596783],[-71.411068,-34.596818],[-71.409033,-34.595515],[-71.403938,-34.596839],[-71.399469,-34.593976],[-71.400095,-34.589788],[-71.405189,-34.588464],[-71.405814,-34.584276],[-71.401346,-34.581413],[-71.396252,-34.582737],[-71.395626,-34.586925],[-71.390532,-34.588249],[-71.389907,-34.592436],[-71.384813,-34.59376],[-71.384187,-34.597946],[-71.388655,-34.60081],[-71.38803,-34.604996],[-71.390216,-34.606397],[-71.388824,-34.606184],[-71.388033,-34.606059],[-71.386882,-34.605888],[-71.386172,-34.60578],[-71.385435,-34.60567],[-71.384967,-34.6056],[-71.384206,-34.605489],[-71.383653,-34.605408],[-71.383033,-34.605322],[-71.38197,-34.605181],[-71.380942,-34.605041],[-71.380866,-34.605031],[-71.380417,-34.60497],[-71.379109,-34.604789],[-71.377729,-34.604598],[-71.377392,-34.604551],[-71.375371,-34.60426],[-71.378468,-34.603456],[-71.379093,-34.599269],[-71.374626,-34.596406],[-71.369532,-34.597728],[-71.368906,-34.601914],[-71.373374,-34.604778],[-71.374145,-34.604578],[-71.373575,-34.605583],[-71.373326,-34.606455],[-71.373088,-34.606694],[-71.372702,-34.607079],[-71.371842,-34.608008],[-71.371295,-34.608473],[-71.370904,-34.609004],[-71.370708,-34.609367],[-71.370688,-34.609499],[-71.367654,-34.610286],[-71.367269,-34.612864],[-71.366743,-34.612942],[-71.366268,-34.613249],[-71.365877,-34.613668],[-71.365709,-34.61445],[-71.365674,-34.614823],[-71.365625,-34.615344],[-71.365793,-34.616265],[-71.365961,-34.61688],[-71.3661,-34.617438],[-71.366072,-34.618053],[-71.365765,-34.618918],[-71.365262,-34.61998],[-71.36476,-34.62079],[-71.364313,-34.62132],[-71.363923,-34.621546],[-71.363824,-34.62159],[-71.363365,-34.621794],[-71.362453,-34.621293],[-71.361917,-34.62098],[-71.360552,-34.620174],[-71.360255,-34.619998],[-71.359599,-34.619603],[-71.358875,-34.619181],[-71.358302,-34.618852],[-71.357051,-34.618132],[-71.35615,-34.617614],[-71.354546,-34.616681],[-71.354445,-34.616623],[-71.354185,-34.616917],[-71.353691,-34.616748],[-71.352092,-34.616198],[-71.352083,-34.616195],[-71.352374,-34.61425],[-71.357467,-34.612929],[-71.358093,-34.608744],[-71.353626,-34.60588],[-71.354253,-34.601694],[-71.359346,-34.600373],[-71.359972,-34.596186],[-71.355505,-34.593322],[-71.350412,-34.594644],[-71.349786,-34.59883],[-71.344693,-34.600151],[-71.344067,-34.604337],[-71.348533,-34.607201],[-71.347907,-34.611386],[-71.34303,-34.612651],[-71.342481,-34.612493],[-71.342361,-34.612459],[-71.341767,-34.612287],[-71.340742,-34.61198],[-71.336511,-34.610319],[-71.338348,-34.609843],[-71.338974,-34.605658],[-71.334508,-34.602793],[-71.335134,-34.598608],[-71.330668,-34.595743],[-71.331295,-34.591557],[-71.336387,-34.590236],[-71.340853,-34.593101],[-71.345945,-34.591779],[-71.346572,-34.587593],[-71.351664,-34.586271],[-71.35229,-34.582084],[-71.347824,-34.579219],[-71.34845,-34.575032],[-71.343984,-34.572166],[-71.34461,-34.567979],[-71.340144,-34.565113],[-71.335053,-34.566435],[-71.330587,-34.563569],[-71.325496,-34.564891],[-71.324869,-34.569079],[-71.319778,-34.5704],[-71.319151,-34.574587],[-71.31406,-34.575908],[-71.309596,-34.573042],[-71.310222,-34.568855],[-71.315313,-34.567534],[-71.31594,-34.563347],[-71.311475,-34.56048],[-71.306384,-34.561801],[-71.305758,-34.565989],[-71.300667,-34.567309],[-71.296203,-34.564442],[-71.29683,-34.560255],[-71.30192,-34.558934],[-71.302547,-34.554747],[-71.307638,-34.553425],[-71.308264,-34.549237],[-71.3038,-34.54637],[-71.304427,-34.542181],[-71.309517,-34.540859],[-71.310144,-34.53667],[-71.30568,-34.533803],[-71.306307,-34.529613],[-71.311397,-34.528291],[-71.312023,-34.524101],[-71.30756,-34.521233],[-71.30247,-34.522555],[-71.298007,-34.519687],[-71.298633,-34.515497],[-71.303723,-34.514174],[-71.30435,-34.509983],[-71.299887,-34.507115],[-71.300513,-34.502924],[-71.305603,-34.5016],[-71.310066,-34.504469],[-71.309439,-34.50866],[-71.313903,-34.511528],[-71.318993,-34.510205],[-71.319619,-34.506014],[-71.324709,-34.50469],[-71.329173,-34.507557],[-71.328547,-34.511749],[-71.333011,-34.514617],[-71.338102,-34.513292],[-71.342567,-34.51616],[-71.341941,-34.520351],[-71.346406,-34.523218],[-71.351497,-34.521893],[-71.352123,-34.517702],[-71.357214,-34.516377],[-71.36168,-34.519244],[-71.366771,-34.517918],[-71.367397,-34.513727],[-71.372489,-34.512401],[-71.373114,-34.508208],[-71.378206,-34.506882],[-71.382672,-34.509748],[-71.382047,-34.513941],[-71.376955,-34.515267],[-71.376329,-34.519459],[-71.380796,-34.522325],[-71.385888,-34.520999],[-71.390355,-34.523865],[-71.395447,-34.522538],[-71.399915,-34.525404],[-71.405007,-34.524077],[-71.405633,-34.519885],[-71.410726,-34.518557],[-71.411351,-34.514365],[-71.416444,-34.513037],[-71.417069,-34.508844],[-71.419448,-34.508223],[-71.421948,-34.508765],[-71.425227,-34.509481],[-71.426783,-34.509821],[-71.427743,-34.51009],[-71.42663,-34.510381],[-71.426005,-34.514574],[-71.430474,-34.517439],[-71.435567,-34.51611],[-71.436175,-34.512031],[-71.438196,-34.512473],[-71.444625,-34.512984],[-71.44508,-34.51302],[-71.446242,-34.513112],[-71.446827,-34.513173],[-71.448286,-34.513325],[-71.449776,-34.513367],[-71.448882,-34.515794],[-71.448669,-34.516475],[-71.449904,-34.516049],[-71.451266,-34.515709],[-71.452032,-34.515326],[-71.452501,-34.515283],[-71.452799,-34.515198],[-71.453395,-34.514687],[-71.45401,-34.514149],[-71.454417,-34.513793],[-71.458641,-34.51412],[-71.461476,-34.514339],[-71.461569,-34.514346],[-71.467924,-34.51458],[-71.469354,-34.514704],[-71.470042,-34.514751],[-71.470679,-34.514794],[-71.472071,-34.514891],[-71.47198,-34.515087],[-71.471959,-34.515115],[-71.471879,-34.515332],[-71.471796,-34.515695],[-71.471763,-34.515968],[-71.471712,-34.5163],[-71.471711,-34.516302],[-71.469977,-34.515191],[-71.464882,-34.516521],[-71.464258,-34.520715],[-71.459163,-34.522045],[-71.458539,-34.526238],[-71.453444,-34.527567],[-71.448975,-34.524703],[-71.44388,-34.526032],[-71.443256,-34.530224],[-71.438162,-34.531553],[-71.437537,-34.535745],[-71.432443,-34.537073],[-71.431818,-34.541264],[-71.436287,-34.544128],[-71.435662,-34.548319],[-71.430568,-34.549647],[-71.429943,-34.553837],[-71.424848,-34.555164],[-71.42038,-34.5523],[-71.415286,-34.553627],[-71.410817,-34.550763],[-71.411442,-34.546572],[-71.406974,-34.543708],[-71.407599,-34.539517],[-71.403132,-34.536652],[-71.403757,-34.532461],[-71.399289,-34.529595],[-71.394196,-34.530922],[-71.393571,-34.535113],[-71.388478,-34.536439],[-71.387853,-34.54063],[-71.38276,-34.541955],[-71.382134,-34.546145],[-71.386602,-34.54901],[-71.385976,-34.5532],[-71.390444,-34.556065]],[[-71.380257,-34.558714],[-71.380883,-34.554525],[-71.376416,-34.55166],[-71.371324,-34.552984],[-71.366857,-34.550119],[-71.361765,-34.551443],[-71.361139,-34.555632],[-71.365605,-34.558498],[-71.364979,-34.562687],[-71.369446,-34.565552],[-71.374539,-34.564228],[-71.375165,-34.560039],[-71.380257,-34.558714]],[[-71.384099,-34.565768],[-71.379006,-34.567092],[-71.37838,-34.571281],[-71.373287,-34.572605],[-71.372662,-34.576793],[-71.367569,-34.578116],[-71.366943,-34.582303],[-71.37141,-34.585168],[-71.376503,-34.583845],[-71.380971,-34.586709],[-71.386064,-34.585385],[-71.38669,-34.581197],[-71.391784,-34.579873],[-71.392409,-34.575685],[-71.387941,-34.572821],[-71.388567,-34.568633],[-71.384099,-34.565768]],[[-71.416536,-34.545246],[-71.421005,-34.54811],[-71.426099,-34.546783],[-71.426724,-34.542592],[-71.422255,-34.539728],[-71.417161,-34.541055],[-71.416536,-34.545246]],[[-71.409475,-34.526942],[-71.40885,-34.531134],[-71.413318,-34.533999],[-71.418411,-34.532672],[-71.42288,-34.535536],[-71.427974,-34.534209],[-71.428599,-34.530017],[-71.42413,-34.527152],[-71.419037,-34.52848],[-71.414568,-34.525615],[-71.409475,-34.526942]],[[-71.345862,-34.559602],[-71.346489,-34.555414],[-71.342023,-34.552548],[-71.342649,-34.548359],[-71.338184,-34.545492],[-71.333092,-34.546815],[-71.332466,-34.551004],[-71.327375,-34.552327],[-71.32291,-34.54946],[-71.317819,-34.550782],[-71.317193,-34.554971],[-71.321657,-34.557837],[-71.326749,-34.556515],[-71.331214,-34.559381],[-71.336305,-34.558059],[-71.340771,-34.560925],[-71.345862,-34.559602]],[[-71.321578,-34.525645],[-71.326668,-34.524322],[-71.327294,-34.520131],[-71.32283,-34.517264],[-71.31774,-34.518587],[-71.317114,-34.522778],[-71.321578,-34.525645]]]},"properties":{"comuna":"Palmilla","mancha_id":"06306-88b2c38015fffff","clase":"Medio","nivel_medio":1.932,"nivel_medio_min":1.527,"nivel_medio_max":2.49,"pct_alto":24.3,"n_hexagonos":137,"area_ha":7859.0}},{"type":"Feature","geometry":{"type":"Polygon","coordinates":[[[-71.316955,-34.458343],[-71.311867,-34.459668],[-71.31124,-34.463863],[-71.306151,-34.465188],[-71.305525,-34.469382],[-71.300436,-34.470706],[-71.295974,-34.467837],[-71.296382,-34.465103],[-71.296616,-34.465094],[-71.297517,-34.464991],[-71.298212,-34.464811],[-71.298856,-34.464579],[-71.299937,-34.464399],[-71.300838,-34.463936],[-71.301327,-34.463575],[-71.301945,-34.463344],[-71.302588,-34.463266],[-71.303077,-34.463266],[-71.303164,-34.463266],[-71.303566,-34.463266],[-71.303798,-34.463215],[-71.304081,-34.463086],[-71.304287,-34.462957],[-71.304416,-34.462777],[-71.304467,-34.4627],[-71.304673,-34.462494],[-71.305034,-34.462314],[-71.30542,-34.461954],[-71.3056,-34.46167],[-71.305651,-34.461361],[-71.305924,-34.460908],[-71.306454,-34.460332],[-71.306861,-34.459903],[-71.307064,-34.45979],[-71.307403,-34.459756],[-71.307731,-34.459733],[-71.308013,-34.459733],[-71.308657,-34.459485],[-71.308961,-34.459361],[-71.309389,-34.459222],[-71.310211,-34.458955],[-71.310678,-34.458904],[-71.311051,-34.458864],[-71.311807,-34.458706],[-71.312462,-34.458525],[-71.312982,-34.458378],[-71.313264,-34.458141],[-71.313321,-34.457836],[-71.313411,-34.457565],[-71.313513,-34.457102],[-71.313784,-34.456774],[-71.314111,-34.456413],[-71.314416,-34.456244],[-71.314721,-34.456108],[-71.314902,-34.45604],[-71.315218,-34.455984],[-71.315455,-34.455882],[-71.317548,-34.45437],[-71.316955,-34.458343]]]},"properties":{"comuna":"Palmilla","mancha_id":"06306-88b2c3909bfffff","clase":"Alto","nivel_medio":2.657,"nivel_medio_min":2.531,"nivel_medio_max":2.825,"pct_alto":64.7,"n_hexagonos":3,"area_ha":100.81}},{"type":"Feature","geometry":{"type":"Polygon","coordinates":[[[-71.367269,-34.612864],[-71.367654,-34.610286],[-71.370688,-34.609499],[-71.370653,-34.60973],[-71.370653,-34.610261],[-71.370653,-34.610847],[-71.370513,-34.611489],[-71.370429,-34.611936],[-71.37015,-34.612299],[-71.369703,-34.612579],[-71.3692,-34.612718],[-71.368474,-34.612858],[-71.368027,-34.612858],[-71.367497,-34.61283],[-71.367269,-34.612864]]]},"properties":{"comuna":"Palmilla","mancha_id":"06306-88b2c38e4bfffff","clase":"Alto","nivel_medio":2.88,"nivel_medio_min":2.88,"nivel_medio_max":2.88,"pct_alto":64.0,"n_hexagonos":1,"area_ha":8.63}},{"type":"Feature","geometry":{"type":"Polygon","coordinates":[[[-71.317114,-34.522778],[-71.31774,-34.518587],[-71.32283,-34.517264],[-71.327294,-34.520131],[-71.326668,-34.524322],[-71.321578,-34.525645],[-71.317114,-34.522778]]]},"properties":{"comuna":"Palmilla","mancha_id":"06306-88b2c382c3fffff","clase":"Alto","nivel_medio":2.652,"nivel_medio_min":2.652,"nivel_medio_max":2.652,"pct_alto":65.0,"n_hexagonos":1,"area_ha":62.65}},{"type":"Feature","geometry":{"type":"Polygon","coordinates":[[[-71.379093,-34.599269],[-71.378468,-34.603456],[-71.375371,-34.60426],[-71.374404,-34.60412],[-71.374145,-34.604578],[-71.373374,-34.604778],[-71.368906,-34.601914],[-71.369532,-34.597728],[-71.374626,-34.596406],[-71.379093,-34.599269]]]},"properties":{"comuna":"Palmilla","mancha_id":"06306-88b2c380a3fffff","clase":"Alto","nivel_medio":2.579,"nivel_medio_min":2.579,"nivel_medio_max":2.579,"pct_alto":53.1,"n_hexagonos":1,"area_ha":62.32}},{"type":"Feature","geometry":{"type":"Polygon","coordinates":[[[-71.351664,-34.586271],[-71.346572,-34.587593],[-71.345945,-34.591779],[-71.340853,-34.593101],[-71.336387,-34.590236],[-71.331295,-34.591557],[-71.330668,-34.595743],[-71.335134,-34.598608],[-71.334508,-34.602793],[-71.338974,-34.605658],[-71.338348,-34.609843],[-71.336511,-34.610319],[-71.328932,-34.607344],[-71.322343,-34.604757],[-71.320645,-34.60415],[-71.320077,-34.603752],[-71.31977,-34.603156],[-71.31964,-34.602905],[-71.31946,-34.602314],[-71.319358,-34.60198],[-71.319281,-34.601441],[-71.319127,-34.600722],[-71.318998,-34.600208],[-71.318819,-34.59931],[-71.318819,-34.598693],[-71.318767,-34.598128],[-71.31887,-34.597743],[-71.318973,-34.597152],[-71.318998,-34.59669],[-71.318767,-34.596125],[-71.318793,-34.595688],[-71.319255,-34.594841],[-71.31945,-34.594629],[-71.31982,-34.594225],[-71.320077,-34.593685],[-71.32018,-34.592864],[-71.320205,-34.592093],[-71.319974,-34.591271],[-71.319743,-34.590938],[-71.31905,-34.59045],[-71.317791,-34.590141],[-71.316661,-34.59009],[-71.316199,-34.590064],[-71.315223,-34.590064],[-71.314247,-34.589833],[-71.313143,-34.589782],[-71.312064,-34.589499],[-71.312027,-34.589491],[-71.311191,-34.589294],[-71.310344,-34.58914],[-71.309805,-34.588909],[-71.309214,-34.588523],[-71.308803,-34.588395],[-71.307853,-34.587933],[-71.306928,-34.587496],[-71.305696,-34.586906],[-71.304848,-34.586803],[-71.30427,-34.586495],[-71.304078,-34.586392],[-71.303307,-34.586084],[-71.30264,-34.585673],[-71.301792,-34.585442],[-71.300739,-34.585622],[-71.300633,-34.585643],[-71.299738,-34.585827],[-71.299019,-34.58575],[-71.298659,-34.585493],[-71.298556,-34.585108],[-71.29812,-34.584774],[-71.297812,-34.584492],[-71.297308,-34.584276],[-71.296913,-34.584106],[-71.295731,-34.583901],[-71.294884,-34.583773],[-71.294242,-34.583773],[-71.293292,-34.58385],[-71.292701,-34.584055],[-71.291699,-34.584132],[-71.291063,-34.584087],[-71.29098,-34.584081],[-71.289953,-34.583901],[-71.2889,-34.583695],[-71.287899,-34.583362],[-71.286948,-34.583362],[-71.286255,-34.583439],[-71.285208,-34.583389],[-71.285176,-34.583387],[-71.28361,-34.583233],[-71.282968,-34.583053],[-71.282114,-34.582928],[-71.282095,-34.582925],[-71.28099,-34.582514],[-71.280246,-34.582386],[-71.279681,-34.58254],[-71.278653,-34.582437],[-71.277703,-34.582257],[-71.276881,-34.581821],[-71.276482,-34.581626],[-71.275931,-34.581358],[-71.275418,-34.580948],[-71.274365,-34.580922],[-71.272978,-34.580973],[-71.272217,-34.581159],[-71.271822,-34.581256],[-71.270846,-34.581667],[-71.269922,-34.581975],[-71.268741,-34.581975],[-71.267919,-34.581795],[-71.267688,-34.581718],[-71.267071,-34.581487],[-71.266327,-34.581256],[-71.265572,-34.581393],[-71.265778,-34.580672],[-71.266023,-34.580313],[-71.266164,-34.580106],[-71.266293,-34.579617],[-71.266653,-34.579436],[-71.26704,-34.57887],[-71.267477,-34.578072],[-71.268069,-34.577403],[-71.268636,-34.576708],[-71.269125,-34.576167],[-71.269717,-34.575575],[-71.270009,-34.575152],[-71.270231,-34.574829],[-71.270643,-34.57416],[-71.270901,-34.573233],[-71.271132,-34.572255],[-71.271287,-34.571276],[-71.271544,-34.569758],[-71.271776,-34.568857],[-71.27193,-34.568007],[-71.272239,-34.567415],[-71.272244,-34.56741],[-71.272677,-34.566849],[-71.273012,-34.566437],[-71.273501,-34.566154],[-71.273835,-34.566051],[-71.274505,-34.566025],[-71.274942,-34.565922],[-71.275586,-34.565691],[-71.275998,-34.565433],[-71.276796,-34.564841],[-71.277259,-34.564095],[-71.277799,-34.563451],[-71.27852,-34.562627],[-71.278806,-34.562447],[-71.279009,-34.562319],[-71.279395,-34.561932],[-71.279781,-34.561521],[-71.280116,-34.561057],[-71.280633,-34.560791],[-71.281043,-34.560851],[-71.281867,-34.560723],[-71.28287,-34.560311],[-71.283591,-34.55995],[-71.284492,-34.559513],[-71.285367,-34.558946],[-71.286165,-34.558663],[-71.286751,-34.558371],[-71.286938,-34.558277],[-71.287375,-34.558046],[-71.28789,-34.557814],[-71.288328,-34.557453],[-71.288971,-34.557042],[-71.289743,-34.556604],[-71.290593,-34.556295],[-71.291185,-34.556012],[-71.291957,-34.555729],[-71.292086,-34.5556],[-71.292137,-34.555111],[-71.292034,-34.554596],[-71.291854,-34.55385],[-71.291674,-34.553206],[-71.291417,-34.552691],[-71.290932,-34.551876],[-71.29085,-34.551739],[-71.290207,-34.550684],[-71.289743,-34.550014],[-71.28964,-34.549602],[-71.289409,-34.548882],[-71.288997,-34.547955],[-71.288907,-34.547813],[-71.288688,-34.547466],[-71.288199,-34.546925],[-71.287736,-34.546822],[-71.287015,-34.546565],[-71.286423,-34.546282],[-71.285779,-34.545844],[-71.285136,-34.545381],[-71.284878,-34.545201],[-71.284595,-34.545046],[-71.28426,-34.544737],[-71.284003,-34.544403],[-71.283904,-34.543482],[-71.2839,-34.54345],[-71.283926,-34.542832],[-71.283823,-34.542498],[-71.283411,-34.542421],[-71.282767,-34.542343],[-71.282304,-34.542215],[-71.281815,-34.542163],[-71.281352,-34.5417],[-71.281017,-34.541417],[-71.280657,-34.540902],[-71.280245,-34.540516],[-71.279807,-34.540336],[-71.279292,-34.539975],[-71.278906,-34.539769],[-71.278391,-34.539203],[-71.277825,-34.538817],[-71.277491,-34.538328],[-71.277285,-34.53789],[-71.277027,-34.537556],[-71.276887,-34.537251],[-71.276718,-34.536886],[-71.276306,-34.535728],[-71.276152,-34.53511],[-71.27574,-34.534364],[-71.275405,-34.533772],[-71.274994,-34.533051],[-71.274865,-34.532819],[-71.274479,-34.532279],[-71.27417,-34.531944],[-71.273784,-34.531609],[-71.273372,-34.531223],[-71.273012,-34.530889],[-71.272398,-34.530363],[-71.272291,-34.530271],[-71.271956,-34.530091],[-71.271622,-34.530013],[-71.271166,-34.529991],[-71.270442,-34.529525],[-71.27,-34.529061],[-71.269434,-34.528366],[-71.268996,-34.527697],[-71.268713,-34.527182],[-71.268455,-34.526744],[-71.268404,-34.526023],[-71.268507,-34.525792],[-71.268636,-34.525354],[-71.268507,-34.525097],[-71.268121,-34.525045],[-71.267858,-34.525031],[-71.267632,-34.52502],[-71.266988,-34.524942],[-71.266164,-34.524968],[-71.265418,-34.524865],[-71.263976,-34.524814],[-71.263075,-34.524839],[-71.262123,-34.524814],[-71.26166,-34.524685],[-71.261299,-34.524222],[-71.260836,-34.523835],[-71.26063,-34.523501],[-71.260321,-34.523063],[-71.259858,-34.522651],[-71.259472,-34.522239],[-71.259086,-34.522111],[-71.258622,-34.521879],[-71.258605,-34.521862],[-71.258365,-34.521622],[-71.258288,-34.52139],[-71.258442,-34.521184],[-71.258674,-34.521055],[-71.258957,-34.521004],[-71.259317,-34.520644],[-71.259652,-34.52036],[-71.259909,-34.519691],[-71.260167,-34.519228],[-71.260167,-34.518919],[-71.260141,-34.518533],[-71.260141,-34.518095],[-71.260064,-34.517889],[-71.259961,-34.51758],[-71.259961,-34.517194],[-71.260295,-34.51686],[-71.260579,-34.516628],[-71.260887,-34.51619],[-71.261068,-34.515572],[-71.261093,-34.514903],[-71.260915,-34.514214],[-71.260887,-34.514105],[-71.260759,-34.513282],[-71.260604,-34.512406],[-71.260656,-34.511351],[-71.260759,-34.510888],[-71.261016,-34.510244],[-71.261068,-34.509652],[-71.261192,-34.50911],[-71.261274,-34.508751],[-71.261222,-34.507953],[-71.261145,-34.507284],[-71.260965,-34.506589],[-71.260553,-34.506228],[-71.260141,-34.505559],[-71.259678,-34.504787],[-71.259189,-34.504246],[-71.258725,-34.503886],[-71.258133,-34.503448],[-71.257798,-34.502779],[-71.257773,-34.502419],[-71.258004,-34.501981],[-71.258017,-34.501878],[-71.25803,-34.501775],[-71.257798,-34.501466],[-71.257747,-34.501157],[-71.257696,-34.500849],[-71.257541,-34.500565],[-71.257438,-34.500308],[-71.257232,-34.500076],[-71.257118,-34.5],[-71.256846,-34.499819],[-71.256383,-34.499536],[-71.256022,-34.499278],[-71.255791,-34.498738],[-71.255379,-34.497991],[-71.255096,-34.497682],[-71.254607,-34.497579],[-71.254066,-34.49727],[-71.253371,-34.496756],[-71.252779,-34.495906],[-71.252674,-34.495772],[-71.252762,-34.495187],[-71.257849,-34.493866],[-71.258476,-34.489674],[-71.254016,-34.486804],[-71.254059,-34.486513],[-71.254478,-34.486228],[-71.254864,-34.485893],[-71.255231,-34.485551],[-71.255673,-34.485128],[-71.256116,-34.484598],[-71.256408,-34.484142],[-71.256795,-34.483756],[-71.25704,-34.483473],[-71.257165,-34.483232],[-71.257052,-34.482984],[-71.256846,-34.482624],[-71.256563,-34.482315],[-71.256529,-34.482122],[-71.256434,-34.481594],[-71.256511,-34.480796],[-71.256743,-34.480075],[-71.256975,-34.479483],[-71.257335,-34.478891],[-71.257747,-34.478273],[-71.258004,-34.47781],[-71.258288,-34.477373],[-71.258828,-34.476961],[-71.259189,-34.476549],[-71.259318,-34.476429],[-71.259523,-34.47624],[-71.259884,-34.475957],[-71.260373,-34.475777],[-71.261171,-34.475468],[-71.26166,-34.475339],[-71.261866,-34.475159],[-71.262432,-34.474824],[-71.262774,-34.474568],[-71.26303,-34.474117],[-71.26341,-34.473614],[-71.263667,-34.472919],[-71.264157,-34.472199],[-71.264491,-34.472044],[-71.265083,-34.471967],[-71.265855,-34.472096],[-71.265996,-34.472096],[-71.266448,-34.472096],[-71.267065,-34.472199],[-71.267657,-34.472353],[-71.268481,-34.472585],[-71.269099,-34.472791],[-71.269614,-34.473074],[-71.27018,-34.473305],[-71.270695,-34.473408],[-71.271519,-34.473589],[-71.272317,-34.473589],[-71.273089,-34.473486],[-71.274015,-34.473331],[-71.274813,-34.473022],[-71.275088,-34.472787],[-71.275534,-34.472404],[-71.275946,-34.471941],[-71.276409,-34.471709],[-71.276898,-34.471709],[-71.277439,-34.471529],[-71.278134,-34.471143],[-71.278958,-34.470937],[-71.279653,-34.470809],[-71.280245,-34.470577],[-71.280657,-34.470216],[-71.280968,-34.470078],[-71.281352,-34.469908],[-71.281867,-34.469779],[-71.282304,-34.469753],[-71.282767,-34.469753],[-71.283231,-34.469573],[-71.283952,-34.469238],[-71.28493,-34.468775],[-71.285728,-34.468466],[-71.286603,-34.468312],[-71.287555,-34.468131],[-71.288739,-34.468028],[-71.288949,-34.467915],[-71.290886,-34.46916],[-71.290259,-34.473354],[-71.285171,-34.474677],[-71.284544,-34.47887],[-71.279456,-34.480193],[-71.274994,-34.477323],[-71.269906,-34.478646],[-71.269279,-34.482838],[-71.264191,-34.484161],[-71.263564,-34.488353],[-71.268026,-34.491222],[-71.273114,-34.4899],[-71.277575,-34.49277],[-71.282664,-34.491448],[-71.283291,-34.487255],[-71.288379,-34.485933],[-71.292841,-34.488802],[-71.29793,-34.487479],[-71.302393,-34.490348],[-71.301766,-34.49454],[-71.306229,-34.497409],[-71.305603,-34.5016],[-71.300513,-34.502924],[-71.299887,-34.507115],[-71.30435,-34.509983],[-71.303723,-34.514174],[-71.298633,-34.515497],[-71.294171,-34.512628],[-71.294797,-34.508438],[-71.290335,-34.505569],[-71.285246,-34.506891],[-71.284619,-34.511082],[-71.27953,-34.512404],[-71.278903,-34.516594],[-71.283365,-34.519463],[-71.288454,-34.518141],[-71.292917,-34.521009],[-71.29229,-34.525199],[-71.287201,-34.526521],[-71.286574,-34.53071],[-71.291037,-34.533578],[-71.296127,-34.532257],[-71.30059,-34.535125],[-71.30568,-34.533803],[-71.310144,-34.53667],[-71.309517,-34.540859],[-71.304427,-34.542181],[-71.3038,-34.54637],[-71.308264,-34.549237],[-71.307638,-34.553425],[-71.302547,-34.554747],[-71.30192,-34.558934],[-71.29683,-34.560255],[-71.296203,-34.564442],[-71.300667,-34.567309],[-71.30004,-34.571496],[-71.304504,-34.574363],[-71.309596,-34.573042],[-71.31406,-34.575908],[-71.319151,-34.574587],[-71.319778,-34.5704],[-71.324869,-34.569079],[-71.325496,-34.564891],[-71.330587,-34.563569],[-71.335053,-34.566435],[-71.340144,-34.565113],[-71.34461,-34.567979],[-71.343984,-34.572166],[-71.34845,-34.575032],[-71.347824,-34.579219],[-71.35229,-34.582084],[-71.351664,-34.586271]]]},"properties":{"comuna":"Palmilla","mancha_id":"06306-88b2c3808bfffff","clase":"Alto","nivel_medio":2.815,"nivel_medio_min":2.518,"nivel_medio_max":3.0,"pct_alto":83.2,"n_hexagonos":85,"area_ha":4245.03}},{"type":"Feature","geometry":{"type":"Polygon","coordinates":[[[-71.416536,-34.545246],[-71.417161,-34.541055],[-71.422255,-34.539728],[-71.426724,-34.542592],[-71.426099,-34.546783],[-71.421005,-34.54811],[-71.416536,-34.545246]]]},"properties":{"comuna":"Palmilla","mancha_id":"06306-88b2c38067fffff","clase":"Alto","nivel_medio":2.714,"nivel_medio_min":2.714,"nivel_medio_max":2.714,"pct_alto":71.4,"n_hexagonos":1,"area_ha":62.68}},{"type":"Feature","geometry":{"type":"Polygon","coordinates":[[[-71.41466,-34.557817],[-71.415286,-34.553627],[-71.42038,-34.5523],[-71.424848,-34.555164],[-71.429943,-34.553837],[-71.430568,-34.549647],[-71.435662,-34.548319],[-71.436287,-34.544128],[-71.441381,-34.5428],[-71.445851,-34.545664],[-71.450945,-34.544336],[-71.455416,-34.547199],[-71.46051,-34.545871],[-71.461135,-34.541679],[-71.46623,-34.54035],[-71.466855,-34.536157],[-71.47195,-34.534828],[-71.472492,-34.531184],[-71.473054,-34.531397],[-71.473402,-34.531561],[-71.473753,-34.531754],[-71.474428,-34.532064],[-71.474773,-34.532224],[-71.475799,-34.53254],[-71.476522,-34.532641],[-71.47723,-34.532748],[-71.479202,-34.532989],[-71.479773,-34.533004],[-71.481367,-34.532938],[-71.482029,-34.532913],[-71.482143,-34.532908],[-71.483398,-34.532894],[-71.483604,-34.532892],[-71.482847,-34.533282],[-71.48225,-34.53357],[-71.481906,-34.53374],[-71.481113,-34.534131],[-71.479821,-34.5345],[-71.479379,-34.534684],[-71.478235,-34.53509],[-71.477644,-34.535791],[-71.476907,-34.536713],[-71.47614,-34.537511],[-71.476093,-34.53756],[-71.475275,-34.538018],[-71.474686,-34.53792],[-71.474065,-34.537414],[-71.473181,-34.5372],[-71.47256,-34.537266],[-71.471971,-34.537429],[-71.471317,-34.537953],[-71.470966,-34.538558],[-71.470081,-34.539296],[-71.46949,-34.539555],[-71.468715,-34.539776],[-71.467645,-34.540256],[-71.466907,-34.540772],[-71.466901,-34.540779],[-71.466428,-34.541326],[-71.465653,-34.5421],[-71.46521,-34.542765],[-71.464804,-34.543281],[-71.464324,-34.543687],[-71.463919,-34.544019],[-71.463328,-34.544314],[-71.462775,-34.544609],[-71.46248,-34.544868],[-71.462184,-34.545347],[-71.462148,-34.545864],[-71.461483,-34.546307],[-71.461255,-34.546347],[-71.460856,-34.546417],[-71.46034,-34.546307],[-71.459528,-34.546233],[-71.458716,-34.546454],[-71.457978,-34.546897],[-71.457498,-34.547118],[-71.457093,-34.547598],[-71.456576,-34.548336],[-71.455986,-34.548816],[-71.455358,-34.548705],[-71.455183,-34.548758],[-71.45462,-34.548926],[-71.453956,-34.549591],[-71.453145,-34.549886],[-71.452517,-34.550476],[-71.452222,-34.550956],[-71.45141,-34.551509],[-71.45034,-34.552247],[-71.449721,-34.552712],[-71.449694,-34.552732],[-71.449602,-34.552801],[-71.448791,-34.553539],[-71.448237,-34.554129],[-71.447831,-34.554904],[-71.447425,-34.555789],[-71.446909,-34.556786],[-71.446097,-34.557228],[-71.44547,-34.557413],[-71.445212,-34.557376],[-71.444695,-34.557228],[-71.444252,-34.556896],[-71.443846,-34.556786],[-71.443256,-34.55649],[-71.442776,-34.556269],[-71.441891,-34.556121],[-71.441005,-34.556048],[-71.440559,-34.556048],[-71.440378,-34.556048],[-71.440009,-34.555974],[-71.439382,-34.555753],[-71.439031,-34.555498],[-71.438976,-34.555457],[-71.438201,-34.555015],[-71.437316,-34.554756],[-71.436653,-34.554492],[-71.436302,-34.554297],[-71.435989,-34.554316],[-71.435326,-34.55459],[-71.434545,-34.554941],[-71.434252,-34.555117],[-71.433783,-34.555429],[-71.433256,-34.555741],[-71.433127,-34.555878],[-71.432924,-34.556093],[-71.432553,-34.556659],[-71.432143,-34.55703],[-71.431792,-34.557323],[-71.43146,-34.557459],[-71.431011,-34.557459],[-71.430679,-34.557459],[-71.430016,-34.557459],[-71.429528,-34.557616],[-71.428805,-34.557986],[-71.428649,-34.558182],[-71.428551,-34.558728],[-71.42859,-34.559197],[-71.428649,-34.559783],[-71.428434,-34.560681],[-71.428337,-34.561188],[-71.42818,-34.561696],[-71.428162,-34.561878],[-71.428102,-34.562457],[-71.428259,-34.563453],[-71.428259,-34.56396],[-71.427966,-34.56437],[-71.427517,-34.564722],[-71.42658,-34.565053],[-71.425721,-34.565678],[-71.424823,-34.565991],[-71.424198,-34.566205],[-71.423359,-34.566479],[-71.422211,-34.567246],[-71.420725,-34.56824],[-71.42002,-34.567591],[-71.41922,-34.567162],[-71.418185,-34.566732],[-71.417033,-34.566205],[-71.416272,-34.565834],[-71.415979,-34.565678],[-71.415745,-34.565776],[-71.415706,-34.566088],[-71.415803,-34.566459],[-71.415862,-34.566986],[-71.415999,-34.567377],[-71.41635,-34.567787],[-71.41676,-34.568314],[-71.417365,-34.568919],[-71.417931,-34.569505],[-71.418283,-34.569914],[-71.41838,-34.570324],[-71.418341,-34.570793],[-71.418361,-34.571496],[-71.418537,-34.572355],[-71.418689,-34.572875],[-71.417254,-34.573249],[-71.412785,-34.570385],[-71.41341,-34.566196],[-71.418504,-34.56487],[-71.419129,-34.560681],[-71.41466,-34.557817]]]},"properties":{"comuna":"Palmilla","mancha_id":"06306-88b2c38021fffff","clase":"Alto","nivel_medio":2.783,"nivel_medio_min":2.503,"nivel_medio_max":3.0,"pct_alto":79.3,"n_hexagonos":15,"area_ha":494.5}}],"bbox":[-71.48361,-34.6218,-71.25162,-34.42915]}