{"type":"FeatureCollection","features":[{"type":"Feature","geometry":{"type":"Polygon","coordinates":[[[-71.323109,-35.393175],[-71.323738,-35.389044],[-71.328847,-35.387755],[-71.333327,-35.390595],[-71.332699,-35.394726],[-71.32759,-35.396015],[-71.323109,-35.393175]]]},"properties":{"comuna":"Pelarco","mancha_id":"07106-88b2dd9621fffff","clase":"Muy Bajo","nivel_medio":0.346,"nivel_medio_min":0.346,"nivel_medio_max":0.346,"pct_alto":0.0,"n_hexagonos":1,"area_ha":61.36}},{"type":"Feature","geometry":{"type":"Polygon","coordinates":[[[-71.551474,-35.410837],[-71.5521,-35.406704],[-71.553758,-35.406282],[-71.553766,-35.406323],[-71.553916,-35.40708],[-71.553963,-35.407315],[-71.554007,-35.40754],[-71.55414,-35.40821],[-71.554154,-35.40827],[-71.554182,-35.408391],[-71.55423,-35.4086],[-71.554267,-35.408759],[-71.554271,-35.408777],[-71.5543,-35.408903],[-71.554375,-35.409224],[-71.554409,-35.409372],[-71.554517,-35.409837],[-71.55467,-35.410501],[-71.555308,-35.413256],[-71.551474,-35.410837]]]},"properties":{"comuna":"Pelarco","mancha_id":"07106-88b2dd9addfffff","clase":"Bajo","nivel_medio":1.439,"nivel_medio_min":1.439,"nivel_medio_max":1.439,"pct_alto":5.0,"n_hexagonos":1,"area_ha":14.74}},{"type":"Feature","geometry":{"type":"Polygon","coordinates":[[[-71.395989,-35.398592],[-71.396617,-35.394461],[-71.401728,-35.393168],[-71.406212,-35.396006],[-71.405584,-35.400138],[-71.400473,-35.401431],[-71.395989,-35.398592]]]},"properties":{"comuna":"Pelarco","mancha_id":"07106-88b2dd972dfffff","clase":"Bajo","nivel_medio":1.222,"nivel_medio_min":1.222,"nivel_medio_max":1.222,"pct_alto":0.1,"n_hexagonos":1,"area_ha":61.4}},{"type":"Feature","geometry":{"type":"Polygon","coordinates":[[[-71.292535,-35.432644],[-71.293164,-35.428517],[-71.298273,-35.42723],[-71.302753,-35.43007],[-71.302124,-35.434197],[-71.297015,-35.435484],[-71.292535,-35.432644]]]},"properties":{"comuna":"Pelarco","mancha_id":"07106-88b2dd96a5fffff","clase":"Bajo","nivel_medio":1.285,"nivel_medio_min":1.285,"nivel_medio_max":1.285,"pct_alto":6.8,"n_hexagonos":1,"area_ha":61.28}},{"type":"Feature","geometry":{"type":"Polygon","coordinates":[[[-71.39452,-35.44236],[-71.394238,-35.442453],[-71.393792,-35.442599],[-71.39313,-35.44298],[-71.393085,-35.443008],[-71.389084,-35.444018],[-71.3846,-35.441181],[-71.379489,-35.442471],[-71.37923,-35.444171],[-71.37882,-35.44384],[-71.37761,-35.44335],[-71.37641,-35.44299],[-71.37527,-35.44268],[-71.374588,-35.442656],[-71.37416,-35.44276],[-71.37301,-35.44301],[-71.37174,-35.44305],[-71.37024,-35.44315],[-71.369564,-35.443093],[-71.369894,-35.440923],[-71.375005,-35.439633],[-71.375633,-35.435505],[-71.37115,-35.432667],[-71.366039,-35.433957],[-71.361557,-35.431119],[-71.362185,-35.42699],[-71.367295,-35.4257],[-71.367924,-35.421571],[-71.373034,-35.420281],[-71.377517,-35.423119],[-71.382628,-35.421828],[-71.383256,-35.417698],[-71.378773,-35.41486],[-71.379401,-35.41073],[-71.374918,-35.407891],[-71.369808,-35.409183],[-71.365325,-35.406343],[-71.365953,-35.402213],[-71.361471,-35.399374],[-71.362099,-35.395243],[-71.367209,-35.393952],[-71.371692,-35.396791],[-71.376802,-35.395499],[-71.381285,-35.398338],[-71.386395,-35.397046],[-71.390878,-35.399885],[-71.390251,-35.404016],[-71.394734,-35.406854],[-71.394106,-35.410985],[-71.388995,-35.412277],[-71.388367,-35.416407],[-71.392851,-35.419245],[-71.397962,-35.417953],[-71.402446,-35.420791],[-71.407558,-35.419498],[-71.412043,-35.422336],[-71.411415,-35.426466],[-71.4159,-35.429303],[-71.415335,-35.433021],[-71.41527,-35.43295],[-71.41451,-35.43213],[-71.41372,-35.43145],[-71.41273,-35.43128],[-71.41172,-35.43125],[-71.410973,-35.431512],[-71.410517,-35.431891],[-71.40955,-35.43251],[-71.40834,-35.43348],[-71.408266,-35.433526],[-71.40761,-35.43394],[-71.407043,-35.434208],[-71.40665,-35.43457],[-71.40614,-35.43539],[-71.40571,-35.43658],[-71.40513,-35.43777],[-71.40446,-35.43876],[-71.403613,-35.439533],[-71.403512,-35.43957],[-71.40252,-35.43993],[-71.40167,-35.44002],[-71.40037,-35.44016],[-71.39877,-35.44055],[-71.39659,-35.44132],[-71.395557,-35.441839],[-71.39452,-35.44236]],[[-71.394824,-35.438599],[-71.399936,-35.437308],[-71.400564,-35.433179],[-71.396079,-35.430341],[-71.390968,-35.431633],[-71.39034,-35.435762],[-71.394824,-35.438599]]]},"properties":{"comuna":"Pelarco","mancha_id":"07106-88b2dd9501fffff","clase":"Bajo","nivel_medio":1.237,"nivel_medio_min":1.014,"nivel_medio_max":1.483,"pct_alto":4.1,"n_hexagonos":23,"area_ha":1296.09}},{"type":"Feature","geometry":{"type":"Polygon","coordinates":[[[-71.274063,-35.45713],[-71.273433,-35.461255],[-71.269726,-35.462187],[-71.26967,-35.46188],[-71.26971,-35.46138],[-71.2699,-35.46095],[-71.27065,-35.46066],[-71.27064,-35.46017],[-71.27068,-35.45954],[-71.27057,-35.45927],[-71.27023,-35.45857],[-71.26974,-35.45768],[-71.26943,-35.45719],[-71.26916,-35.45683],[-71.26843,-35.45619],[-71.26802,-35.45572],[-71.26791,-35.45559],[-71.26766,-35.45528],[-71.26758,-35.454793],[-71.269584,-35.45429],[-71.274063,-35.45713]]]},"properties":{"comuna":"Pelarco","mancha_id":"07106-88b2dd94d1fffff","clase":"Bajo","nivel_medio":1.362,"nivel_medio_min":1.362,"nivel_medio_max":1.362,"pct_alto":2.9,"n_hexagonos":1,"area_ha":26.27}},{"type":"Feature","geometry":{"type":"Polygon","coordinates":[[[-71.283022,-35.46281],[-71.287502,-35.465649],[-71.287447,-35.466005],[-71.28607,-35.4665],[-71.28519,-35.46712],[-71.2842,-35.46743],[-71.28262,-35.46764],[-71.28108,-35.46793],[-71.28024,-35.46798],[-71.27891,-35.46783],[-71.27797,-35.46802],[-71.27743,-35.468311],[-71.27671,-35.4687],[-71.27612,-35.46894],[-71.27604,-35.46879],[-71.275816,-35.468587],[-71.277283,-35.468219],[-71.277913,-35.464094],[-71.283022,-35.46281]]]},"properties":{"comuna":"Pelarco","mancha_id":"07106-88b2dd948bfffff","clase":"Bajo","nivel_medio":1.09,"nivel_medio_min":1.005,"nivel_medio_max":1.091,"pct_alto":2.3,"n_hexagonos":2,"area_ha":36.52}},{"type":"Feature","geometry":{"type":"Polygon","coordinates":[[[-71.325704,-35.408404],[-71.321223,-35.405564],[-71.316114,-35.406853],[-71.311634,-35.404012],[-71.306526,-35.405301],[-71.302046,-35.40246],[-71.296938,-35.403748],[-71.292459,-35.400907],[-71.293088,-35.396778],[-71.298196,-35.395489],[-71.298825,-35.39136],[-71.303933,-35.390071],[-71.304562,-35.385941],[-71.30967,-35.384652],[-71.314149,-35.387493],[-71.319258,-35.386203],[-71.323738,-35.389044],[-71.323109,-35.393175],[-71.32759,-35.396015],[-71.332699,-35.394726],[-71.333327,-35.390595],[-71.338436,-35.389305],[-71.342917,-35.392145],[-71.348026,-35.390854],[-71.352508,-35.393694],[-71.35188,-35.397825],[-71.34677,-35.399116],[-71.346142,-35.403246],[-71.341032,-35.404536],[-71.340404,-35.408666],[-71.335294,-35.409955],[-71.330813,-35.407115],[-71.325704,-35.408404]]]},"properties":{"comuna":"Pelarco","mancha_id":"07106-88b2dd9449fffff","clase":"Bajo","nivel_medio":1.195,"nivel_medio_min":0.755,"nivel_medio_max":1.499,"pct_alto":1.3,"n_hexagonos":14,"area_ha":858.85}},{"type":"Feature","geometry":{"type":"Polygon","coordinates":[[[-71.327319,-35.439754],[-71.330894,-35.438853],[-71.333365,-35.440418],[-71.33259,-35.44048],[-71.33152,-35.44038],[-71.33066,-35.43997],[-71.32984,-35.43966],[-71.32883,-35.43965],[-71.32754,-35.43976],[-71.327319,-35.439754]]]},"properties":{"comuna":"Pelarco","mancha_id":"07106-88b2dd9439fffff","clase":"Bajo","nivel_medio":1.466,"nivel_medio_min":1.466,"nivel_medio_max":1.466,"pct_alto":0.0,"n_hexagonos":1,"area_ha":3.44}},{"type":"Feature","geometry":{"type":"Polygon","coordinates":[[[-71.355818,-35.436537],[-71.3603,-35.439375],[-71.360007,-35.441299],[-71.3598,-35.44128],[-71.35883,-35.44115],[-71.35743,-35.44122],[-71.35452,-35.4415],[-71.35288,-35.4418],[-71.35078,-35.44195],[-71.350083,-35.441928],[-71.350707,-35.437826],[-71.355818,-35.436537]]]},"properties":{"comuna":"Pelarco","mancha_id":"07106-88b2dd9421fffff","clase":"Bajo","nivel_medio":1.147,"nivel_medio_min":1.147,"nivel_medio_max":1.147,"pct_alto":0.5,"n_hexagonos":1,"area_ha":39.09}},{"type":"Feature","geometry":{"type":"Polygon","coordinates":[[[-71.309827,-35.448129],[-71.310455,-35.444003],[-71.313052,-35.443349],[-71.31312,-35.44369],[-71.3132,-35.4443],[-71.31307,-35.44482],[-71.31334,-35.44534],[-71.31355,-35.44595],[-71.313443,-35.446733],[-71.313097,-35.447711],[-71.31239,-35.44894],[-71.312132,-35.44959],[-71.3117,-35.45068],[-71.311159,-35.451356],[-71.310926,-35.451648],[-71.310887,-35.451895],[-71.311109,-35.452196],[-71.31148,-35.45237],[-71.3125,-35.45254],[-71.3128,-35.4528],[-71.3129,-35.45309],[-71.3129,-35.4535],[-71.31271,-35.45386],[-71.3124,-35.45418],[-71.31203,-35.45441],[-71.31105,-35.45484],[-71.31017,-35.455],[-71.30931,-35.45518],[-71.30779,-35.45545],[-71.30722,-35.455526],[-71.304088,-35.453542],[-71.304717,-35.449416],[-71.309827,-35.448129]]]},"properties":{"comuna":"Pelarco","mancha_id":"07106-88b2dd9417fffff","clase":"Bajo","nivel_medio":1.351,"nivel_medio_min":1.32,"nivel_medio_max":1.361,"pct_alto":1.9,"n_hexagonos":2,"area_ha":62.73}},{"type":"Feature","geometry":{"type":"Polygon","coordinates":[[[-71.428543,-35.360311],[-71.426564,-35.359058],[-71.427122,-35.355376],[-71.4273,-35.35542],[-71.42782,-35.35561],[-71.42829,-35.35581],[-71.42873,-35.35607],[-71.42904,-35.35645],[-71.42921,-35.35675],[-71.42936,-35.35735],[-71.42941,-35.35783],[-71.42931,-35.35816],[-71.42906,-35.35869],[-71.42872,-35.35933],[-71.42853,-35.35976],[-71.42851,-35.36007],[-71.428543,-35.360311]]]},"properties":{"comuna":"Pelarco","mancha_id":"07106-88b2dd92a9fffff","clase":"Bajo","nivel_medio":1.426,"nivel_medio_min":1.426,"nivel_medio_max":1.426,"pct_alto":0.0,"n_hexagonos":1,"area_ha":9.23}},{"type":"Feature","geometry":{"type":"Polygon","coordinates":[[[-71.449614,-35.369116],[-71.444502,-35.370412],[-71.440406,-35.36782],[-71.44102,-35.36774],[-71.44222,-35.3677],[-71.44343,-35.36747],[-71.44389,-35.36714],[-71.44398,-35.36671],[-71.44399,-35.36637],[-71.44417,-35.36594],[-71.44479,-35.36561],[-71.44567,-35.36528],[-71.44677,-35.36489],[-71.44815,-35.36429],[-71.448789,-35.364062],[-71.450241,-35.364981],[-71.449614,-35.369116]]]},"properties":{"comuna":"Pelarco","mancha_id":"07106-88b2dd92a5fffff","clase":"Bajo","nivel_medio":1.412,"nivel_medio_min":1.412,"nivel_medio_max":1.412,"pct_alto":2.6,"n_hexagonos":1,"area_ha":34.04}},{"type":"Feature","geometry":{"type":"Polygon","coordinates":[[[-71.380569,-35.370707],[-71.381197,-35.366574],[-71.386307,-35.365281],[-71.390789,-35.36812],[-71.390162,-35.372253],[-71.394644,-35.375093],[-71.394017,-35.379226],[-71.388906,-35.380519],[-71.384424,-35.377679],[-71.385051,-35.373547],[-71.380569,-35.370707]]]},"properties":{"comuna":"Pelarco","mancha_id":"07106-88b2dd9293fffff","clase":"Bajo","nivel_medio":1.276,"nivel_medio_min":1.234,"nivel_medio_max":1.319,"pct_alto":2.4,"n_hexagonos":2,"area_ha":122.85}},{"type":"Feature","geometry":{"type":"Polygon","coordinates":[[[-71.499592,-35.396188],[-71.500218,-35.392054],[-71.505332,-35.390756],[-71.505958,-35.386622],[-71.511072,-35.385323],[-71.51556,-35.388159],[-71.514934,-35.392293],[-71.519423,-35.395129],[-71.518797,-35.399262],[-71.513682,-35.400561],[-71.509194,-35.397725],[-71.504079,-35.399023],[-71.499592,-35.396188]]]},"properties":{"comuna":"Pelarco","mancha_id":"07106-88b2dd91c1fffff","clase":"Bajo","nivel_medio":1.288,"nivel_medio_min":1.169,"nivel_medio_max":1.467,"pct_alto":9.7,"n_hexagonos":3,"area_ha":184.41}},{"type":"Feature","geometry":{"type":"Polygon","coordinates":[[[-71.511804,-35.41296],[-71.516918,-35.411662],[-71.517545,-35.407529],[-71.522659,-35.406231],[-71.527148,-35.409066],[-71.532264,-35.407767],[-71.536753,-35.410601],[-71.536127,-35.414734],[-71.539993,-35.417174],[-71.53938,-35.41703],[-71.538262,-35.416804],[-71.53726,-35.4168],[-71.53652,-35.41682],[-71.53527,-35.41708],[-71.53412,-35.41737],[-71.533532,-35.417329],[-71.533272,-35.417081],[-71.53295,-35.41652],[-71.53259,-35.416],[-71.532202,-35.415731],[-71.5321,-35.41566],[-71.53084,-35.4154],[-71.529917,-35.415342],[-71.52926,-35.4153],[-71.5283,-35.41539],[-71.5277,-35.415553],[-71.527041,-35.415903],[-71.526062,-35.416029],[-71.52496,-35.41592],[-71.524401,-35.415699],[-71.52388,-35.415338],[-71.523561,-35.414912],[-71.523096,-35.414473],[-71.522767,-35.414152],[-71.522654,-35.414041],[-71.521971,-35.413767],[-71.521252,-35.413852],[-71.520338,-35.413797],[-71.520303,-35.413799],[-71.519,-35.41386],[-71.51676,-35.41372],[-71.515429,-35.413605],[-71.514081,-35.413493],[-71.513205,-35.413515],[-71.512329,-35.41356],[-71.5117,-35.413807],[-71.511671,-35.413836],[-71.511804,-35.41296]]]},"properties":{"comuna":"Pelarco","mancha_id":"07106-88b2dd9185fffff","clase":"Bajo","nivel_medio":1.301,"nivel_medio_min":1.091,"nivel_medio_max":1.369,"pct_alto":0.1,"n_hexagonos":5,"area_ha":153.14}},{"type":"Feature","geometry":{"type":"Polygon","coordinates":[[[-71.536019,-35.382962],[-71.536645,-35.378827],[-71.541759,-35.377527],[-71.546249,-35.380362],[-71.546942,-35.380186],[-71.546972,-35.380409],[-71.547143,-35.381674],[-71.54715,-35.381731],[-71.547247,-35.382424],[-71.547321,-35.382948],[-71.547436,-35.383772],[-71.547584,-35.384824],[-71.547715,-35.385818],[-71.545623,-35.384497],[-71.540508,-35.385797],[-71.536019,-35.382962]]]},"properties":{"comuna":"Pelarco","mancha_id":"07106-88b2dd9103fffff","clase":"Bajo","nivel_medio":1.485,"nivel_medio_min":1.389,"nivel_medio_max":1.496,"pct_alto":3.8,"n_hexagonos":2,"area_ha":68.32}},{"type":"Feature","geometry":{"type":"Polygon","coordinates":[[[-71.432397,-35.385403],[-71.433024,-35.38127],[-71.42854,-35.378432],[-71.423428,-35.379727],[-71.418944,-35.376889],[-71.419571,-35.372755],[-71.415088,-35.369916],[-71.415715,-35.365782],[-71.420826,-35.364487],[-71.42531,-35.367326],[-71.430421,-35.366031],[-71.430585,-35.364948],[-71.4311,-35.36548],[-71.43181,-35.36621],[-71.43216,-35.3665],[-71.43269,-35.36688],[-71.43317,-35.36715],[-71.43405,-35.36755],[-71.435,-35.36791],[-71.43584,-35.36796],[-71.43694,-35.36802],[-71.438365,-35.367992],[-71.434906,-35.368869],[-71.434278,-35.373003],[-71.438763,-35.375842],[-71.438136,-35.379975],[-71.442621,-35.382813],[-71.447733,-35.381517],[-71.452219,-35.384355],[-71.451592,-35.388488],[-71.446479,-35.389784],[-71.441994,-35.386946],[-71.436882,-35.388241],[-71.432397,-35.385403]]]},"properties":{"comuna":"Pelarco","mancha_id":"07106-88b2dd90c1fffff","clase":"Bajo","nivel_medio":1.331,"nivel_medio_min":1.14,"nivel_medio_max":1.493,"pct_alto":8.6,"n_hexagonos":7,"area_ha":373.75}},{"type":"Feature","geometry":{"type":"Polygon","coordinates":[[[-71.463169,-35.409396],[-71.463796,-35.405264],[-71.468909,-35.403968],[-71.473396,-35.406805],[-71.472769,-35.410937],[-71.467656,-35.412232],[-71.463169,-35.409396]]]},"properties":{"comuna":"Pelarco","mancha_id":"07106-88b2dd90adfffff","clase":"Bajo","nivel_medio":1.23,"nivel_medio_min":1.23,"nivel_medio_max":1.23,"pct_alto":0.0,"n_hexagonos":1,"area_ha":61.42}},{"type":"Feature","geometry":{"type":"Polygon","coordinates":[[[-71.430516,-35.397801],[-71.431143,-35.393669],[-71.436255,-35.392374],[-71.44074,-35.395211],[-71.440113,-35.399344],[-71.435001,-35.400638],[-71.434373,-35.40477],[-71.429261,-35.406064],[-71.424776,-35.403227],[-71.425404,-35.399095],[-71.430516,-35.397801]]]},"properties":{"comuna":"Pelarco","mancha_id":"07106-88b2dd9089fffff","clase":"Bajo","nivel_medio":1.301,"nivel_medio_min":1.15,"nivel_medio_max":1.453,"pct_alto":0.8,"n_hexagonos":2,"area_ha":122.83}},{"type":"Feature","geometry":{"type":"Polygon","coordinates":[[[-71.51458,-35.36013],[-71.514885,-35.360142],[-71.515307,-35.360158],[-71.51584,-35.360375],[-71.51614,-35.360925],[-71.516173,-35.361361],[-71.51618,-35.36145],[-71.51576,-35.36238],[-71.515774,-35.362807],[-71.5159,-35.3631],[-71.516124,-35.363407],[-71.51634,-35.36356],[-71.51817,-35.36417],[-71.51903,-35.36434],[-71.51917,-35.364312],[-71.51959,-35.36423],[-71.5203,-35.36399],[-71.5214,-35.36401],[-71.522771,-35.36409],[-71.523198,-35.364371],[-71.52372,-35.36459],[-71.524537,-35.36464],[-71.525004,-35.36459],[-71.52577,-35.36449],[-71.526353,-35.364224],[-71.52686,-35.36395],[-71.527158,-35.363772],[-71.528052,-35.363237],[-71.528319,-35.363091],[-71.528732,-35.363051],[-71.529319,-35.363131],[-71.53014,-35.36327],[-71.531105,-35.363451],[-71.532144,-35.363531],[-71.532637,-35.363504],[-71.533171,-35.36357],[-71.533859,-35.363628],[-71.528919,-35.364884],[-71.528293,-35.36902],[-71.523179,-35.37032],[-71.51869,-35.367484],[-71.513577,-35.368783],[-71.509089,-35.365947],[-71.509715,-35.361811],[-71.509548,-35.361706],[-71.5114,-35.36108],[-71.51303,-35.36037],[-71.51458,-35.36013]]]},"properties":{"comuna":"Pelarco","mancha_id":"07106-88b2dd9065fffff","clase":"Bajo","nivel_medio":1.245,"nivel_medio_min":1.0,"nivel_medio_max":1.436,"pct_alto":1.8,"n_hexagonos":5,"area_ha":114.54}},{"type":"Feature","geometry":{"type":"Polygon","coordinates":[[[-71.499668,-35.363221],[-71.499488,-35.364409],[-71.49661,-35.36514],[-71.49673,-35.36486],[-71.49703,-35.36435],[-71.49773,-35.3636],[-71.49837,-35.36329],[-71.49895,-35.36323],[-71.49943,-35.36324],[-71.499668,-35.363221]]]},"properties":{"comuna":"Pelarco","mancha_id":"07106-88b2dd9063fffff","clase":"Bajo","nivel_medio":1.232,"nivel_medio_min":1.232,"nivel_medio_max":1.232,"pct_alto":0.0,"n_hexagonos":1,"area_ha":3.27}},{"type":"Feature","geometry":{"type":"Polygon","coordinates":[[[-71.45646,-35.36427],[-71.456643,-35.364501],[-71.455353,-35.363684],[-71.455582,-35.362171],[-71.45571,-35.36216],[-71.45599,-35.36223],[-71.45616,-35.36266],[-71.45619,-35.36352],[-71.45646,-35.36427]]]},"properties":{"comuna":"Pelarco","mancha_id":"07106-88b2dd9057fffff","clase":"Bajo","nivel_medio":1.214,"nivel_medio_min":1.214,"nivel_medio_max":1.214,"pct_alto":0.0,"n_hexagonos":1,"area_ha":1.37}},{"type":"Feature","geometry":{"type":"Polygon","coordinates":[[[-71.461427,-35.36589],[-71.46181,-35.36587],[-71.462015,-35.36597],[-71.46018,-35.366435],[-71.46044,-35.36631],[-71.460977,-35.366056],[-71.461427,-35.36589]]]},"properties":{"comuna":"Pelarco","mancha_id":"07106-88b2dd9057fffff-2","clase":"Bajo","nivel_medio":1.214,"nivel_medio_min":1.214,"nivel_medio_max":1.214,"pct_alto":0.0,"n_hexagonos":1,"area_ha":0.25}},{"type":"Feature","geometry":{"type":"Polygon","coordinates":[[[-71.493734,-35.369847],[-71.488635,-35.371142],[-71.488009,-35.375277],[-71.482895,-35.376574],[-71.478409,-35.373737],[-71.479017,-35.369725],[-71.47909,-35.36972],[-71.47954,-35.36955],[-71.479883,-35.369387],[-71.484148,-35.368305],[-71.484291,-35.367362],[-71.48486,-35.3673],[-71.48549,-35.36721],[-71.48608,-35.36724],[-71.48643,-35.36734],[-71.48667,-35.3675],[-71.48781,-35.36823],[-71.48857,-35.36855],[-71.48928,-35.36881],[-71.49006,-35.3691],[-71.49076,-35.36933],[-71.49185,-35.36957],[-71.49287,-35.36975],[-71.493734,-35.369847]]]},"properties":{"comuna":"Pelarco","mancha_id":"07106-88b2dd9005fffff","clase":"Bajo","nivel_medio":1.367,"nivel_medio_min":1.242,"nivel_medio_max":1.398,"pct_alto":1.6,"n_hexagonos":2,"area_ha":76.66}},{"type":"Feature","geometry":{"type":"Polygon","coordinates":[[[-71.45637,-35.42635],[-71.455649,-35.426555],[-71.45447,-35.42689],[-71.45262,-35.42744],[-71.45117,-35.42764],[-71.449671,-35.428026],[-71.44923,-35.42814],[-71.448451,-35.428132],[-71.44787,-35.42796],[-71.447092,-35.427791],[-71.446439,-35.427684],[-71.446099,-35.42759],[-71.445741,-35.42725],[-71.445502,-35.42699],[-71.445148,-35.426758],[-71.444859,-35.426636],[-71.444502,-35.426583],[-71.44414,-35.42661],[-71.443303,-35.426636],[-71.442587,-35.426524],[-71.44256,-35.42652],[-71.441958,-35.426424],[-71.44143,-35.42645],[-71.440249,-35.426596],[-71.43635,-35.424131],[-71.431237,-35.425424],[-71.426752,-35.422587],[-71.427379,-35.418457],[-71.432492,-35.417163],[-71.433119,-35.413033],[-71.438232,-35.411739],[-71.442717,-35.414575],[-71.44783,-35.413281],[-71.448457,-35.40915],[-71.45357,-35.407855],[-71.458056,-35.410691],[-71.457429,-35.414823],[-71.461916,-35.417659],[-71.467029,-35.416364],[-71.471516,-35.4192],[-71.47663,-35.417904],[-71.477256,-35.413772],[-71.48237,-35.412476],[-71.486858,-35.415312],[-71.486231,-35.419444],[-71.490719,-35.422279],[-71.4904,-35.42438],[-71.4892,-35.42438],[-71.48731,-35.42493],[-71.48534,-35.42499],[-71.48344,-35.42461],[-71.481914,-35.424357],[-71.480868,-35.424237],[-71.480603,-35.424131],[-71.479779,-35.423802],[-71.4785,-35.42328],[-71.47729,-35.42258],[-71.476175,-35.421925],[-71.475609,-35.42168],[-71.47464,-35.42153],[-71.47341,-35.42119],[-71.4724,-35.42039],[-71.471831,-35.420127],[-71.47138,-35.420095],[-71.47093,-35.420062],[-71.47017,-35.42036],[-71.469466,-35.420931],[-71.468887,-35.422169],[-71.46831,-35.42287],[-71.467681,-35.42344],[-71.4666,-35.42403],[-71.465528,-35.42447],[-71.46543,-35.42451],[-71.46396,-35.42503],[-71.46216,-35.42536],[-71.46039,-35.42557],[-71.45832,-35.4259],[-71.45637,-35.42635]]]},"properties":{"comuna":"Pelarco","mancha_id":"07106-88b2dd8249fffff","clase":"Bajo","nivel_medio":1.147,"nivel_medio_min":0.991,"nivel_medio_max":1.428,"pct_alto":1.7,"n_hexagonos":13,"area_ha":645.03}},{"type":"Feature","geometry":{"type":"Polygon","coordinates":[[[-71.204251,-35.367537],[-71.204881,-35.363407],[-71.209986,-35.362122],[-71.214461,-35.364966],[-71.213831,-35.369096],[-71.208726,-35.370382],[-71.204251,-35.367537]]]},"properties":{"comuna":"Pelarco","mancha_id":"07106-88b2ce5953fffff","clase":"Bajo","nivel_medio":1.413,"nivel_medio_min":1.413,"nivel_medio_max":1.413,"pct_alto":0.0,"n_hexagonos":1,"area_ha":61.32}},{"type":"Feature","geometry":{"type":"Polygon","coordinates":[[[-71.232992,-35.372213],[-71.233622,-35.368083],[-71.238728,-35.366796],[-71.243204,-35.36964],[-71.24831,-35.368353],[-71.252787,-35.371196],[-71.252711,-35.371695],[-71.25222,-35.37151],[-71.251643,-35.371482],[-71.25102,-35.371442],[-71.250578,-35.371502],[-71.250317,-35.371663],[-71.25,-35.37182],[-71.24953,-35.37207],[-71.24906,-35.37226],[-71.24831,-35.37256],[-71.24708,-35.37284],[-71.2463,-35.37317],[-71.24578,-35.37338],[-71.24499,-35.37353],[-71.24363,-35.37381],[-71.243029,-35.374059],[-71.242574,-35.37377],[-71.237469,-35.375057],[-71.232992,-35.372213]]]},"properties":{"comuna":"Pelarco","mancha_id":"07106-88b2ce5901fffff","clase":"Bajo","nivel_medio":1.089,"nivel_medio_min":0.99,"nivel_medio_max":1.275,"pct_alto":1.7,"n_hexagonos":2,"area_ha":93.91}},{"type":"Feature","geometry":{"type":"Polygon","coordinates":[[[-71.176147,-35.358725],[-71.171674,-35.355879],[-71.171998,-35.353754],[-71.175787,-35.350873],[-71.177408,-35.350465],[-71.17755,-35.349532],[-71.18255,-35.34573],[-71.183052,-35.345072],[-71.183141,-35.345049],[-71.183158,-35.344942],[-71.183773,-35.34425],[-71.184431,-35.343372],[-71.185044,-35.342619],[-71.185251,-35.342255],[-71.185254,-35.341287],[-71.185482,-35.340616],[-71.185577,-35.340464],[-71.188875,-35.339633],[-71.193349,-35.342479],[-71.192719,-35.34661],[-71.187615,-35.347895],[-71.186985,-35.352026],[-71.191458,-35.354872],[-71.196562,-35.353587],[-71.197193,-35.349456],[-71.202297,-35.34817],[-71.206771,-35.351016],[-71.211875,-35.34973],[-71.21635,-35.352575],[-71.21572,-35.356705],[-71.210616,-35.357991],[-71.206141,-35.355146],[-71.201037,-35.356432],[-71.200407,-35.360562],[-71.195302,-35.361847],[-71.190828,-35.359002],[-71.185724,-35.360286],[-71.181251,-35.357441],[-71.176147,-35.358725]]]},"properties":{"comuna":"Pelarco","mancha_id":"07106-88b2ce580dfffff","clase":"Bajo","nivel_medio":1.341,"nivel_medio_min":1.144,"nivel_medio_max":1.465,"pct_alto":0.2,"n_hexagonos":7,"area_ha":412.52}},{"type":"Feature","geometry":{"type":"Polygon","coordinates":[[[-71.16594,-35.361293],[-71.160836,-35.362576],[-71.160206,-35.366705],[-71.155103,-35.367988],[-71.154472,-35.372116],[-71.158945,-35.374962],[-71.164048,-35.373679],[-71.168521,-35.376525],[-71.167891,-35.380653],[-71.172364,-35.383498],[-71.172089,-35.385303],[-71.1719,-35.38535],[-71.17159,-35.38537],[-71.17092,-35.38533],[-71.17043,-35.38542],[-71.17022,-35.3855],[-71.17011,-35.3855],[-71.16949,-35.3858],[-71.16912,-35.38646],[-71.16888,-35.38674],[-71.1688,-35.38691],[-71.16841,-35.38723],[-71.16785,-35.38769],[-71.16763,-35.38795],[-71.16644,-35.38812],[-71.16617,-35.38814],[-71.165711,-35.388325],[-71.16535,-35.38847],[-71.16493,-35.389],[-71.16455,-35.38923],[-71.16389,-35.3893],[-71.16359,-35.38948],[-71.16309,-35.38966],[-71.1624,-35.39],[-71.16217,-35.39023],[-71.1618,-35.39043],[-71.16125,-35.39039],[-71.16068,-35.39056],[-71.16014,-35.39086],[-71.15968,-35.39118],[-71.1588,-35.39159],[-71.15788,-35.39159],[-71.15709,-35.39168],[-71.15673,-35.39165],[-71.156704,-35.391653],[-71.15642,-35.39168],[-71.156084,-35.391558],[-71.156063,-35.391551],[-71.155784,-35.391458],[-71.155443,-35.391287],[-71.155211,-35.390668],[-71.155211,-35.390172],[-71.154979,-35.389739],[-71.15452,-35.38934],[-71.15387,-35.38882],[-71.15333,-35.38829],[-71.15265,-35.388],[-71.151962,-35.387655],[-71.151714,-35.387425],[-71.151472,-35.387119],[-71.15129,-35.386683],[-71.15112,-35.38599],[-71.15104,-35.38521],[-71.151,-35.384897],[-71.15094,-35.38442],[-71.15058,-35.38346],[-71.15055,-35.38233],[-71.15032,-35.380815],[-71.15032,-35.380424],[-71.15039,-35.379935],[-71.15011,-35.3789],[-71.149978,-35.378316],[-71.14985,-35.37775],[-71.149617,-35.377367],[-71.149405,-35.377066],[-71.149204,-35.376776],[-71.149104,-35.376553],[-71.148919,-35.376341],[-71.148881,-35.376297],[-71.148446,-35.375829],[-71.148179,-35.375517],[-71.147833,-35.37506],[-71.147254,-35.374669],[-71.146719,-35.374435],[-71.14634,-35.374213],[-71.145928,-35.373978],[-71.14529,-35.3734],[-71.14529,-35.37277],[-71.14536,-35.37221],[-71.14594,-35.37153],[-71.146145,-35.371347],[-71.14658,-35.37096],[-71.14725,-35.37063],[-71.14759,-35.36996],[-71.14767,-35.36945],[-71.14748,-35.36894],[-71.14711,-35.36837],[-71.14696,-35.36782],[-71.1469,-35.36733],[-71.14697,-35.36667],[-71.14734,-35.365968],[-71.14744,-35.36578],[-71.14795,-35.36517],[-71.14899,-35.36453],[-71.14985,-35.3641],[-71.150898,-35.363389],[-71.15131,-35.36311],[-71.15222,-35.36274],[-71.15368,-35.36239],[-71.1554,-35.36188],[-71.15668,-35.36146],[-71.15712,-35.36134],[-71.15816,-35.36108],[-71.158458,-35.361062],[-71.15918,-35.36102],[-71.16018,-35.36105],[-71.16203,-35.36165],[-71.16291,-35.36141],[-71.16374,-35.36076],[-71.16437,-35.35961],[-71.16481,-35.35922],[-71.166446,-35.357976],[-71.16594,-35.361293]]]},"properties":{"comuna":"Pelarco","mancha_id":"07106-88b2ce580bfffff","clase":"Bajo","nivel_medio":1.312,"nivel_medio_min":1.0,"nivel_medio_max":1.462,"pct_alto":2.2,"n_hexagonos":13,"area_ha":423.69}},{"type":"Feature","geometry":{"type":"Polygon","coordinates":[[[-71.169782,-35.368268],[-71.170413,-35.364138],[-71.175516,-35.362855],[-71.17999,-35.3657],[-71.185094,-35.364416],[-71.189568,-35.367261],[-71.188938,-35.371391],[-71.183833,-35.372675],[-71.17936,-35.369829],[-71.174256,-35.371113],[-71.169782,-35.368268]]]},"properties":{"comuna":"Pelarco","mancha_id":"07106-88b2ce5807fffff","clase":"Bajo","nivel_medio":1.284,"nivel_medio_min":1.165,"nivel_medio_max":1.403,"pct_alto":4.0,"n_hexagonos":2,"area_ha":122.6}},{"type":"Feature","geometry":{"type":"Polygon","coordinates":[[[-71.357533,-35.360639],[-71.358161,-35.356505],[-71.36327,-35.355212],[-71.367751,-35.358053],[-71.367123,-35.362187],[-71.362014,-35.363479],[-71.357533,-35.360639]]]},"properties":{"comuna":"Pelarco","mancha_id":"07106-88b2c32da3fffff","clase":"Bajo","nivel_medio":1.411,"nivel_medio_min":1.411,"nivel_medio_max":1.411,"pct_alto":8.0,"n_hexagonos":1,"area_ha":61.43}},{"type":"Feature","geometry":{"type":"Polygon","coordinates":[[[-71.38882,-35.322],[-71.389568,-35.32202],[-71.38993,-35.32203],[-71.39135,-35.32194],[-71.39167,-35.32198],[-71.39203,-35.32208],[-71.39273,-35.3225],[-71.39323,-35.32308],[-71.39346,-35.3234],[-71.39377,-35.32363],[-71.39377,-35.32363],[-71.39415,-35.32379],[-71.39466,-35.32394],[-71.39527,-35.32402],[-71.39595,-35.32418],[-71.3962,-35.32437],[-71.39649,-35.32469],[-71.39672,-35.32509],[-71.3971,-35.32544],[-71.3976,-35.32566],[-71.39844,-35.32601],[-71.39882,-35.3262],[-71.3992,-35.32645],[-71.39939,-35.3266],[-71.39955,-35.32684],[-71.40007,-35.32785],[-71.40079,-35.32862],[-71.401623,-35.329108],[-71.401547,-35.329613],[-71.396437,-35.330908],[-71.39581,-35.335044],[-71.3907,-35.336339],[-71.390073,-35.340475],[-71.384963,-35.341769],[-71.380481,-35.338928],[-71.375372,-35.340223],[-71.374744,-35.344357],[-71.369635,-35.345651],[-71.365154,-35.34281],[-71.365782,-35.338675],[-71.370891,-35.337382],[-71.371518,-35.333246],[-71.367037,-35.330405],[-71.367665,-35.326269],[-71.372774,-35.324975],[-71.37307,-35.323023],[-71.37314,-35.32297],[-71.37347,-35.32267],[-71.37388,-35.32246],[-71.37423,-35.32236],[-71.37475,-35.32233],[-71.37592,-35.32234],[-71.37665,-35.32236],[-71.37702,-35.3223],[-71.37754,-35.32217],[-71.37784,-35.32202],[-71.37838,-35.3217],[-71.37881,-35.32149],[-71.37924,-35.3213],[-71.38007,-35.32116],[-71.380761,-35.320971],[-71.38124,-35.32084],[-71.38159,-35.320506],[-71.38191,-35.32072],[-71.38231,-35.32082],[-71.38282,-35.32089],[-71.38321,-35.32102],[-71.38355,-35.32121],[-71.38381,-35.32148],[-71.38409,-35.32169],[-71.38442,-35.32183],[-71.384804,-35.321926],[-71.38502,-35.32198],[-71.38564,-35.3221],[-71.38614,-35.32211],[-71.38658,-35.32207],[-71.38698,-35.322],[-71.38757,-35.32201],[-71.38824,-35.32194],[-71.38882,-35.322]]]},"properties":{"comuna":"Pelarco","mancha_id":"07106-88b2c32d31fffff","clase":"Bajo","nivel_medio":1.161,"nivel_medio_min":0.897,"nivel_medio_max":1.481,"pct_alto":0.6,"n_hexagonos":11,"area_ha":524.94}},{"type":"Feature","geometry":{"type":"Polygon","coordinates":[[[-71.275026,-35.321875],[-71.275655,-35.31774],[-71.280761,-35.31645],[-71.285238,-35.319294],[-71.284609,-35.323428],[-71.279503,-35.324719],[-71.275026,-35.321875]]]},"properties":{"comuna":"Pelarco","mancha_id":"07106-88b2c32cc7fffff","clase":"Bajo","nivel_medio":1.351,"nivel_medio_min":1.351,"nivel_medio_max":1.351,"pct_alto":0.2,"n_hexagonos":1,"area_ha":61.44}},{"type":"Feature","geometry":{"type":"Polygon","coordinates":[[[-71.29042,-35.349783],[-71.291049,-35.34565],[-71.296156,-35.34436],[-71.300634,-35.347203],[-71.305741,-35.345913],[-71.31022,-35.348755],[-71.309591,-35.352888],[-71.304484,-35.354178],[-71.300005,-35.351336],[-71.294898,-35.352626],[-71.294269,-35.356758],[-71.289162,-35.358048],[-71.288533,-35.36218],[-71.283426,-35.363469],[-71.278948,-35.360626],[-71.279577,-35.356494],[-71.284684,-35.355205],[-71.285313,-35.351073],[-71.29042,-35.349783]]]},"properties":{"comuna":"Pelarco","mancha_id":"07106-88b2c32ca3fffff","clase":"Bajo","nivel_medio":1.421,"nivel_medio_min":1.267,"nivel_medio_max":1.478,"pct_alto":0.5,"n_hexagonos":4,"area_ha":245.58}},{"type":"Feature","geometry":{"type":"Polygon","coordinates":[[[-71.273139,-35.334276],[-71.273768,-35.330143],[-71.278874,-35.328853],[-71.283351,-35.331697],[-71.288458,-35.330406],[-71.292935,-35.33325],[-71.292306,-35.337384],[-71.2872,-35.338674],[-71.282722,-35.33583],[-71.277616,-35.33712],[-71.276987,-35.341253],[-71.271881,-35.342542],[-71.267404,-35.339699],[-71.268033,-35.335566],[-71.273139,-35.334276]]]},"properties":{"comuna":"Pelarco","mancha_id":"07106-88b2c32c81fffff","clase":"Bajo","nivel_medio":1.31,"nivel_medio_min":1.145,"nivel_medio_max":1.476,"pct_alto":0.7,"n_hexagonos":3,"area_ha":184.24}},{"type":"Feature","geometry":{"type":"Polygon","coordinates":[[[-71.323577,-35.325502],[-71.319098,-35.322659],[-71.319232,-35.321781],[-71.31963,-35.32169],[-71.32038,-35.32159],[-71.32124,-35.32161],[-71.32227,-35.32183],[-71.323,-35.322],[-71.32382,-35.32221],[-71.32441,-35.32221],[-71.32507,-35.32234],[-71.32562,-35.32257],[-71.32621,-35.32245],[-71.32711,-35.32212],[-71.32792,-35.32172],[-71.3288,-35.32136],[-71.329138,-35.321227],[-71.33017,-35.32082],[-71.33079,-35.32067],[-71.33117,-35.32076],[-71.33168,-35.32112],[-71.33214,-35.3212],[-71.332504,-35.321062],[-71.33285,-35.320983],[-71.333208,-35.321155],[-71.33362,-35.32133],[-71.33449,-35.32166],[-71.334841,-35.3217],[-71.33517,-35.32165],[-71.335558,-35.321514],[-71.33583,-35.32127],[-71.33613,-35.3208],[-71.33661,-35.3203],[-71.336755,-35.320263],[-71.33731,-35.32012],[-71.33819,-35.32014],[-71.33915,-35.31987],[-71.34026,-35.31996],[-71.34188,-35.31995],[-71.34311,-35.31973],[-71.34372,-35.31926],[-71.344197,-35.319086],[-71.344236,-35.319072],[-71.3446,-35.31901],[-71.34547,-35.31898],[-71.345995,-35.319021],[-71.346454,-35.319123],[-71.347023,-35.319242],[-71.34766,-35.31945],[-71.3484,-35.31971],[-71.34891,-35.3199],[-71.3492,-35.31992],[-71.34958,-35.31988],[-71.35012,-35.3197],[-71.35102,-35.31953],[-71.3518,-35.31963],[-71.35252,-35.31988],[-71.35359,-35.32024],[-71.353837,-35.320287],[-71.353596,-35.32188],[-71.348488,-35.323173],[-71.344008,-35.320331],[-71.3389,-35.321624],[-71.338272,-35.325759],[-71.333164,-35.327052],[-71.332536,-35.331187],[-71.337015,-35.334029],[-71.336387,-35.338164],[-71.331279,-35.339456],[-71.330651,-35.34359],[-71.33513,-35.346432],[-71.334502,-35.350566],[-71.338982,-35.353407],[-71.338354,-35.35754],[-71.342834,-35.360382],[-71.342206,-35.364515],[-71.337097,-35.365806],[-71.332617,-35.362965],[-71.327509,-35.364256],[-71.32688,-35.368388],[-71.321772,-35.369678],[-71.317292,-35.366837],[-71.317921,-35.362705],[-71.323029,-35.361414],[-71.323657,-35.357281],[-71.328766,-35.35599],[-71.329394,-35.351857],[-71.324914,-35.349015],[-71.325543,-35.344882],[-71.321064,-35.34204],[-71.321692,-35.337906],[-71.317213,-35.335063],[-71.312106,-35.336354],[-71.307627,-35.333511],[-71.308256,-35.329377],[-71.313363,-35.328086],[-71.317841,-35.330929],[-71.322949,-35.329637],[-71.323577,-35.325502]]]},"properties":{"comuna":"Pelarco","mancha_id":"07106-88b2c32c37fffff","clase":"Bajo","nivel_medio":1.293,"nivel_medio_min":1.001,"nivel_medio_max":1.482,"pct_alto":2.9,"n_hexagonos":14,"area_ha":721.76}},{"type":"Feature","geometry":{"type":"Polygon","coordinates":[[[-71.290973,-35.313868],[-71.286496,-35.311024],[-71.28139,-35.312315],[-71.276913,-35.30947],[-71.277393,-35.306312],[-71.27821,-35.30619],[-71.27908,-35.30615],[-71.27984,-35.30634],[-71.28058,-35.3068],[-71.28126,-35.30753],[-71.28245,-35.3081],[-71.28346,-35.30833],[-71.28422,-35.30856],[-71.28477,-35.30942],[-71.28577,-35.31005],[-71.286611,-35.310265],[-71.28663,-35.31027],[-71.28758,-35.31067],[-71.2887,-35.3109],[-71.289826,-35.31113],[-71.2906,-35.31122],[-71.29122,-35.311289],[-71.291511,-35.311552],[-71.291884,-35.31182],[-71.292176,-35.312073],[-71.29259,-35.31219],[-71.29353,-35.31227],[-71.293796,-35.312431],[-71.29393,-35.31267],[-71.294003,-35.313102],[-71.290973,-35.313868]]]},"properties":{"comuna":"Pelarco","mancha_id":"07106-88b2c32c13fffff","clase":"Bajo","nivel_medio":1.25,"nivel_medio_min":1.026,"nivel_medio_max":1.326,"pct_alto":4.9,"n_hexagonos":2,"area_ha":45.51}},{"type":"Feature","geometry":{"type":"Polygon","coordinates":[[[-71.39034,-35.435762],[-71.390968,-35.431633],[-71.396079,-35.430341],[-71.400564,-35.433179],[-71.399936,-35.437308],[-71.394824,-35.438599],[-71.39034,-35.435762]]]},"properties":{"comuna":"Pelarco","mancha_id":"07106-88b2dd9509fffff","clase":"Medio","nivel_medio":1.609,"nivel_medio_min":1.609,"nivel_medio_max":1.609,"pct_alto":0.0,"n_hexagonos":1,"area_ha":61.34}},{"type":"Feature","geometry":{"type":"Polygon","coordinates":[[[-71.38918,-35.44469],[-71.388991,-35.444629],[-71.38797,-35.4443],[-71.386822,-35.444118],[-71.386017,-35.444089],[-71.385058,-35.444241],[-71.3837,-35.44462],[-71.38189,-35.44485],[-71.38049,-35.44486],[-71.37985,-35.44467],[-71.37923,-35.444171],[-71.379489,-35.442471],[-71.3846,-35.441181],[-71.389084,-35.444018],[-71.393085,-35.443008],[-71.39203,-35.44366],[-71.39114,-35.44444],[-71.390793,-35.444773],[-71.390385,-35.444889],[-71.38918,-35.44469]]]},"properties":{"comuna":"Pelarco","mancha_id":"07106-88b2dd9503fffff","clase":"Medio","nivel_medio":1.563,"nivel_medio_min":1.52,"nivel_medio_max":1.894,"pct_alto":26.5,"n_hexagonos":2,"area_ha":25.49}},{"type":"Feature","geometry":{"type":"Polygon","coordinates":[[[-71.484291,-35.367362],[-71.484148,-35.368305],[-71.479883,-35.369387],[-71.48032,-35.36918],[-71.48087,-35.36881],[-71.48169,-35.3681],[-71.48202,-35.36781],[-71.48238,-35.36764],[-71.48269,-35.36752],[-71.48321,-35.36742],[-71.48404,-35.36739],[-71.484291,-35.367362]]]},"properties":{"comuna":"Pelarco","mancha_id":"07106-88b2dd9001fffff","clase":"Medio","nivel_medio":1.949,"nivel_medio_min":1.949,"nivel_medio_max":1.949,"pct_alto":0.0,"n_hexagonos":1,"area_ha":3.3}},{"type":"Feature","geometry":{"type":"Polygon","coordinates":[[[-71.17755,-35.349532],[-71.177408,-35.350465],[-71.175787,-35.350873],[-71.17755,-35.349532]]]},"properties":{"comuna":"Pelarco","mancha_id":"07106-88b2ce5847fffff","clase":"Medio","nivel_medio":2.0,"nivel_medio_min":2.0,"nivel_medio_max":2.0,"pct_alto":0.0,"n_hexagonos":1,"area_ha":0.73}},{"type":"Feature","geometry":{"type":"Polygon","coordinates":[[[-71.183158,-35.344942],[-71.183141,-35.345049],[-71.183052,-35.345072],[-71.183114,-35.34499],[-71.183158,-35.344942]]]},"properties":{"comuna":"Pelarco","mancha_id":"07106-88b2ce5845fffff","clase":"Medio","nivel_medio":1.889,"nivel_medio_min":1.889,"nivel_medio_max":1.889,"pct_alto":0.0,"n_hexagonos":1,"area_ha":0.0}},{"type":"Feature","geometry":{"type":"Polygon","coordinates":[[[-71.307627,-35.333511],[-71.312106,-35.336354],[-71.317213,-35.335063],[-71.321692,-35.337906],[-71.321064,-35.34204],[-71.325543,-35.344882],[-71.324914,-35.349015],[-71.329394,-35.351857],[-71.328766,-35.35599],[-71.323657,-35.357281],[-71.323029,-35.361414],[-71.317921,-35.362705],[-71.317292,-35.366837],[-71.321772,-35.369678],[-71.32688,-35.368388],[-71.327509,-35.364256],[-71.332617,-35.362965],[-71.337097,-35.365806],[-71.342206,-35.364515],[-71.342834,-35.360382],[-71.338354,-35.35754],[-71.338982,-35.353407],[-71.334502,-35.350566],[-71.33513,-35.346432],[-71.330651,-35.34359],[-71.331279,-35.339456],[-71.336387,-35.338164],[-71.337015,-35.334029],[-71.332536,-35.331187],[-71.333164,-35.327052],[-71.338272,-35.325759],[-71.3389,-35.321624],[-71.344008,-35.320331],[-71.348488,-35.323173],[-71.353596,-35.32188],[-71.353837,-35.320287],[-71.35459,-35.32043],[-71.35561,-35.32064],[-71.35644,-35.32065],[-71.35711,-35.32084],[-71.3577,-35.32119],[-71.35828,-35.32173],[-71.35881,-35.3223],[-71.35938,-35.32258],[-71.3609,-35.32276],[-71.36193,-35.32302],[-71.36255,-35.32295],[-71.36314,-35.3228],[-71.36329,-35.322729],[-71.36369,-35.32254],[-71.36427,-35.32228],[-71.36443,-35.32225],[-71.36457,-35.32226],[-71.36476,-35.3223],[-71.36491,-35.32243],[-71.36499,-35.32259],[-71.36509,-35.32268],[-71.36526,-35.32271],[-71.36542,-35.3227],[-71.36569,-35.32267],[-71.36607,-35.32255],[-71.36654,-35.32251],[-71.36684,-35.32248],[-71.36713,-35.3225],[-71.36754,-35.32256],[-71.36788,-35.3226],[-71.36826,-35.32266],[-71.36859,-35.3228],[-71.36904,-35.32304],[-71.36941,-35.32326],[-71.36981,-35.32349],[-71.37047,-35.3237],[-71.37107,-35.32373],[-71.37159,-35.32373],[-71.37231,-35.3235],[-71.37276,-35.32326],[-71.37307,-35.323023],[-71.372774,-35.324975],[-71.367665,-35.326269],[-71.367037,-35.330405],[-71.371518,-35.333246],[-71.370891,-35.337382],[-71.365782,-35.338675],[-71.365154,-35.34281],[-71.369635,-35.345651],[-71.374744,-35.344357],[-71.375372,-35.340223],[-71.380481,-35.338928],[-71.384963,-35.341769],[-71.390073,-35.340475],[-71.3907,-35.336339],[-71.39581,-35.335044],[-71.396437,-35.330908],[-71.401547,-35.329613],[-71.401623,-35.329108],[-71.40178,-35.3292],[-71.40293,-35.33003],[-71.40357,-35.33022],[-71.40431,-35.33032],[-71.40524,-35.33028],[-71.40582,-35.33015],[-71.40676,-35.32983],[-71.40754,-35.32975],[-71.40796,-35.32974],[-71.40821,-35.32976],[-71.40901,-35.33],[-71.41001,-35.33034],[-71.41029,-35.33046],[-71.41046,-35.33064],[-71.41047,-35.33083],[-71.41042,-35.33108],[-71.41035,-35.33114],[-71.41002,-35.33135],[-71.40965,-35.33149],[-71.4096,-35.331548],[-71.40952,-35.33164],[-71.40949,-35.33173],[-71.40948,-35.33203],[-71.40951,-35.33246],[-71.40959,-35.33269],[-71.40989,-35.33308],[-71.41015,-35.33339],[-71.41034,-35.3336],[-71.41048,-35.33382],[-71.4105,-35.334],[-71.41046,-35.33448],[-71.41014,-35.33535],[-71.40986,-35.33594],[-71.40976,-35.33631],[-71.40987,-35.33659],[-71.41004,-35.33684],[-71.41026,-35.33699],[-71.4115,-35.33759],[-71.41227,-35.33788],[-71.41304,-35.33824],[-71.41311,-35.33851],[-71.413114,-35.33861],[-71.41313,-35.33898],[-71.41348,-35.33932],[-71.41366,-35.3395],[-71.41374,-35.33972],[-71.41376,-35.34042],[-71.41384,-35.34081],[-71.41397,-35.34117],[-71.41429,-35.34143],[-71.41459,-35.3416],[-71.41544,-35.34177],[-71.41617,-35.34183],[-71.41673,-35.34182],[-71.41735,-35.34206],[-71.41768,-35.34257],[-71.41773,-35.34318],[-71.41759,-35.34385],[-71.41722,-35.34455],[-71.41655,-35.34508],[-71.41619,-35.34554],[-71.41608,-35.34571],[-71.416061,-35.345816],[-71.41601,-35.3461],[-71.41613,-35.34653],[-71.41642,-35.34694],[-71.41724,-35.34774],[-71.41808,-35.34847],[-71.41892,-35.34903],[-71.41957,-35.34949],[-71.42019,-35.35027],[-71.4209,-35.35112],[-71.42156,-35.35175],[-71.42212,-35.35217],[-71.422174,-35.352219],[-71.4227,-35.35269],[-71.42331,-35.35294],[-71.42414,-35.35338],[-71.42494,-35.35383],[-71.42547,-35.35416],[-71.42592,-35.35446],[-71.42619,-35.35494],[-71.42665,-35.35526],[-71.427122,-35.355376],[-71.426564,-35.359058],[-71.428543,-35.360311],[-71.42861,-35.36079],[-71.42848,-35.36132],[-71.42833,-35.36186],[-71.42822,-35.36227],[-71.42824,-35.36258],[-71.42847,-35.36278],[-71.4291,-35.36324],[-71.4296,-35.36375],[-71.43019,-35.36445],[-71.43052,-35.36488],[-71.430585,-35.364948],[-71.430421,-35.366031],[-71.42531,-35.367326],[-71.420826,-35.364487],[-71.415715,-35.365782],[-71.415088,-35.369916],[-71.419571,-35.372755],[-71.418944,-35.376889],[-71.423428,-35.379727],[-71.42854,-35.378432],[-71.433024,-35.38127],[-71.432397,-35.385403],[-71.436882,-35.388241],[-71.441994,-35.386946],[-71.446479,-35.389784],[-71.451592,-35.388488],[-71.452219,-35.384355],[-71.447733,-35.381517],[-71.442621,-35.382813],[-71.438136,-35.379975],[-71.438763,-35.375842],[-71.434278,-35.373003],[-71.434906,-35.368869],[-71.438365,-35.367992],[-71.43849,-35.36799],[-71.43979,-35.3679],[-71.440406,-35.36782],[-71.444502,-35.370412],[-71.449614,-35.369116],[-71.450241,-35.364981],[-71.448789,-35.364062],[-71.44916,-35.36393],[-71.45029,-35.36328],[-71.45149,-35.3628],[-71.45299,-35.36242],[-71.45373,-35.36229],[-71.45445,-35.36225],[-71.45548,-35.36218],[-71.455582,-35.362171],[-71.455353,-35.363684],[-71.456643,-35.364501],[-71.457,-35.36495],[-71.457712,-35.36569],[-71.45852,-35.36624],[-71.459295,-35.366589],[-71.459578,-35.366639],[-71.459827,-35.366596],[-71.45986,-35.36659],[-71.46018,-35.366435],[-71.462015,-35.36597],[-71.46216,-35.36604],[-71.462543,-35.366323],[-71.46358,-35.36706],[-71.46418,-35.36746],[-71.46483,-35.36783],[-71.46526,-35.3681],[-71.465459,-35.368422],[-71.46546,-35.36883],[-71.46554,-35.36956],[-71.46592,-35.37037],[-71.46607,-35.37083],[-71.46633,-35.37128],[-71.46661,-35.37146],[-71.46711,-35.37163],[-71.46785,-35.37175],[-71.46846,-35.37178],[-71.468872,-35.371784],[-71.46954,-35.37179],[-71.47029,-35.37173],[-71.47076,-35.37165],[-71.47102,-35.3715],[-71.47107,-35.37116],[-71.47107,-35.37071],[-71.47108,-35.3703],[-71.47116,-35.37011],[-71.47145,-35.36993],[-71.47192,-35.36983],[-71.47235,-35.36974],[-71.47298,-35.36958],[-71.47332,-35.36953],[-71.47371,-35.36957],[-71.47409,-35.3697],[-71.47443,-35.36983],[-71.47495,-35.37011],[-71.47543,-35.37024],[-71.47616,-35.37028],[-71.47685,-35.37025],[-71.47756,-35.37008],[-71.47829,-35.36981],[-71.47865,-35.36975],[-71.479017,-35.369725],[-71.478409,-35.373737],[-71.482895,-35.376574],[-71.488009,-35.375277],[-71.488635,-35.371142],[-71.493734,-35.369847],[-71.493758,-35.36985],[-71.49394,-35.36987],[-71.49449,-35.36977],[-71.49494,-35.36961],[-71.49576,-35.36925],[-71.49628,-35.36905],[-71.49665,-35.36885],[-71.49695,-35.36859],[-71.49698,-35.36825],[-71.49698,-35.36795],[-71.4968,-35.36747],[-71.49653,-35.36683],[-71.49638,-35.36635],[-71.49642,-35.36585],[-71.49646,-35.36549],[-71.49661,-35.36514],[-71.499488,-35.364409],[-71.499668,-35.363221],[-71.49994,-35.3632],[-71.5,-35.36318],[-71.5,-35.36318],[-71.50052,-35.36298],[-71.50102,-35.36298],[-71.50163,-35.36301],[-71.50224,-35.36294],[-71.502828,-35.362824],[-71.503362,-35.362807],[-71.503945,-35.362941],[-71.504594,-35.363274],[-71.505677,-35.363291],[-71.50701,-35.362957],[-71.50787,-35.36266],[-71.508526,-35.362308],[-71.50924,-35.36181],[-71.509548,-35.361706],[-71.509715,-35.361811],[-71.509089,-35.365947],[-71.513577,-35.368783],[-71.51869,-35.367484],[-71.523179,-35.37032],[-71.528293,-35.36902],[-71.528919,-35.364884],[-71.533859,-35.363628],[-71.53414,-35.363651],[-71.53429,-35.363664],[-71.534837,-35.36365],[-71.535503,-35.363504],[-71.536289,-35.363131],[-71.537444,-35.362504],[-71.53794,-35.36209],[-71.53836,-35.36175],[-71.538755,-35.361459],[-71.53947,-35.361278],[-71.540099,-35.360958],[-71.540738,-35.36051],[-71.54117,-35.36011],[-71.54173,-35.359796],[-71.542107,-35.359621],[-71.54226,-35.35955],[-71.54324,-35.359239],[-71.543713,-35.359124],[-71.543935,-35.359062],[-71.543971,-35.359055],[-71.544056,-35.359686],[-71.544062,-35.359726],[-71.544112,-35.360232],[-71.544167,-35.36059],[-71.544223,-35.360957],[-71.544234,-35.361028],[-71.544245,-35.361098],[-71.544263,-35.361217],[-71.544493,-35.362725],[-71.544562,-35.363265],[-71.544612,-35.363659],[-71.544658,-35.364017],[-71.544683,-35.364215],[-71.544775,-35.364863],[-71.54487,-35.365539],[-71.544908,-35.365829],[-71.544922,-35.36593],[-71.545081,-35.36714],[-71.545082,-35.367148],[-71.545138,-35.367574],[-71.545227,-35.368139],[-71.545242,-35.368247],[-71.54532,-35.368813],[-71.545417,-35.369516],[-71.545429,-35.369602],[-71.545559,-35.370423],[-71.545577,-35.370538],[-71.545703,-35.371333],[-71.545726,-35.37149],[-71.545732,-35.371535],[-71.545863,-35.372441],[-71.545873,-35.372504],[-71.54612,-35.37421],[-71.546232,-35.374982],[-71.546232,-35.374983],[-71.546248,-35.3751],[-71.54629,-35.375409],[-71.546345,-35.375811],[-71.546437,-35.376483],[-71.546765,-35.378884],[-71.546855,-35.379542],[-71.546914,-35.379979],[-71.546942,-35.380186],[-71.546249,-35.380362],[-71.541759,-35.377527],[-71.536645,-35.378827],[-71.536019,-35.382962],[-71.540508,-35.385797],[-71.545623,-35.384497],[-71.547715,-35.385818],[-71.547788,-35.386374],[-71.547894,-35.387175],[-71.547954,-35.387637],[-71.547945,-35.387794],[-71.548121,-35.389098],[-71.548157,-35.389373],[-71.548262,-35.390165],[-71.548284,-35.390329],[-71.548417,-35.391333],[-71.548469,-35.391725],[-71.548583,-35.392581],[-71.548713,-35.393566],[-71.548783,-35.39409],[-71.548831,-35.394328],[-71.548849,-35.394418],[-71.548899,-35.394513],[-71.548966,-35.394537],[-71.549111,-35.394533],[-71.549297,-35.394488],[-71.550186,-35.394276],[-71.550312,-35.394261],[-71.550398,-35.394274],[-71.550424,-35.394278],[-71.550578,-35.394432],[-71.550962,-35.394778],[-71.551048,-35.394856],[-71.55105,-35.394858],[-71.551235,-35.394992],[-71.551593,-35.395251],[-71.551631,-35.395416],[-71.551674,-35.395603],[-71.551741,-35.395887],[-71.551841,-35.396307],[-71.551885,-35.396492],[-71.551901,-35.396559],[-71.551926,-35.396665],[-71.552037,-35.39721],[-71.552069,-35.397366],[-71.552173,-35.397872],[-71.552271,-35.398352],[-71.552333,-35.398694],[-71.552343,-35.398752],[-71.552466,-35.399429],[-71.552485,-35.39953],[-71.552551,-35.399889],[-71.552603,-35.40017],[-71.552793,-35.40119],[-71.552892,-35.401727],[-71.552975,-35.402173],[-71.553123,-35.403015],[-71.55317,-35.403284],[-71.553335,-35.404129],[-71.55339,-35.404407],[-71.553608,-35.405526],[-71.553642,-35.405698],[-71.553746,-35.406224],[-71.553758,-35.406282],[-71.5521,-35.406704],[-71.551474,-35.410837],[-71.555308,-35.413256],[-71.555524,-35.414189],[-71.555198,-35.414526],[-71.554716,-35.415023],[-71.553713,-35.415762],[-71.55243,-35.41642],[-71.55088,-35.417397],[-71.549597,-35.418321],[-71.549283,-35.41851],[-71.54841,-35.419034],[-71.54717,-35.419403],[-71.546141,-35.419588],[-71.545059,-35.41972],[-71.544057,-35.419667],[-71.543186,-35.419429],[-71.54247,-35.41882],[-71.542093,-35.418336],[-71.541603,-35.41782],[-71.5411,-35.417496],[-71.541013,-35.417468],[-71.540403,-35.417271],[-71.539993,-35.417174],[-71.536127,-35.414734],[-71.536753,-35.410601],[-71.532264,-35.407767],[-71.527148,-35.409066],[-71.522659,-35.406231],[-71.517545,-35.407529],[-71.516918,-35.411662],[-71.511804,-35.41296],[-71.511671,-35.413836],[-71.511116,-35.414391],[-71.510779,-35.415043],[-71.510262,-35.415672],[-71.509992,-35.416391],[-71.5097,-35.416772],[-71.50862,-35.41751],[-71.50807,-35.41788],[-71.507056,-35.418563],[-71.505913,-35.419377],[-71.50567,-35.41955],[-71.504947,-35.420111],[-71.503673,-35.420844],[-71.502837,-35.421256],[-71.502057,-35.421558],[-71.50139,-35.4219],[-71.500791,-35.422324],[-71.5,-35.422509],[-71.499971,-35.422515],[-71.498857,-35.4226],[-71.49849,-35.422661],[-71.497974,-35.422747],[-71.497124,-35.422787],[-71.496081,-35.422813],[-71.495242,-35.422915],[-71.494507,-35.423041],[-71.493624,-35.423146],[-71.4929,-35.42344],[-71.49278,-35.42349],[-71.492295,-35.423694],[-71.49197,-35.42383],[-71.49046,-35.42438],[-71.4904,-35.42438],[-71.490719,-35.422279],[-71.486231,-35.419444],[-71.486858,-35.415312],[-71.48237,-35.412476],[-71.477256,-35.413772],[-71.47663,-35.417904],[-71.471516,-35.4192],[-71.467029,-35.416364],[-71.461916,-35.417659],[-71.457429,-35.414823],[-71.458056,-35.410691],[-71.45357,-35.407855],[-71.448457,-35.40915],[-71.44783,-35.413281],[-71.442717,-35.414575],[-71.438232,-35.411739],[-71.433119,-35.413033],[-71.432492,-35.417163],[-71.427379,-35.418457],[-71.426752,-35.422587],[-71.431237,-35.425424],[-71.43635,-35.424131],[-71.440249,-35.426596],[-71.44022,-35.4266],[-71.439619,-35.426872],[-71.439006,-35.427445],[-71.43839,-35.42797],[-71.43708,-35.42916],[-71.436604,-35.429718],[-71.435386,-35.430583],[-71.43395,-35.43117],[-71.433485,-35.431372],[-71.43243,-35.43183],[-71.4306,-35.43251],[-71.429832,-35.432873],[-71.42876,-35.43338],[-71.42681,-35.43444],[-71.426124,-35.434986],[-71.425448,-35.435342],[-71.425444,-35.435345],[-71.424668,-35.435627],[-71.423589,-35.435822],[-71.423192,-35.435702],[-71.422918,-35.43547],[-71.4228,-35.43537],[-71.42166,-35.43471],[-71.420713,-35.434341],[-71.419859,-35.433913],[-71.418978,-35.433776],[-71.418017,-35.433809],[-71.4168,-35.433978],[-71.416204,-35.433847],[-71.41583,-35.43356],[-71.415335,-35.433021],[-71.4159,-35.429303],[-71.411415,-35.426466],[-71.412043,-35.422336],[-71.407558,-35.419498],[-71.402446,-35.420791],[-71.397962,-35.417953],[-71.392851,-35.419245],[-71.388367,-35.416407],[-71.388995,-35.412277],[-71.394106,-35.410985],[-71.394734,-35.406854],[-71.390251,-35.404016],[-71.390878,-35.399885],[-71.386395,-35.397046],[-71.381285,-35.398338],[-71.376802,-35.395499],[-71.371692,-35.396791],[-71.367209,-35.393952],[-71.362099,-35.395243],[-71.361471,-35.399374],[-71.365953,-35.402213],[-71.365325,-35.406343],[-71.369808,-35.409183],[-71.374918,-35.407891],[-71.379401,-35.41073],[-71.378773,-35.41486],[-71.383256,-35.417698],[-71.382628,-35.421828],[-71.377517,-35.423119],[-71.373034,-35.420281],[-71.367924,-35.421571],[-71.367295,-35.4257],[-71.362185,-35.42699],[-71.361557,-35.431119],[-71.366039,-35.433957],[-71.37115,-35.432667],[-71.375633,-35.435505],[-71.375005,-35.439633],[-71.369894,-35.440923],[-71.369564,-35.443093],[-71.36894,-35.44304],[-71.36789,-35.44305],[-71.367279,-35.442998],[-71.36674,-35.44279],[-71.366446,-35.442672],[-71.36609,-35.44262],[-71.365,-35.44241],[-71.36389,-35.44215],[-71.3623,-35.44153],[-71.36133,-35.44142],[-71.360007,-35.441299],[-71.3603,-35.439375],[-71.355818,-35.436537],[-71.350707,-35.437826],[-71.350083,-35.441928],[-71.34889,-35.44189],[-71.3473,-35.44174],[-71.34599,-35.44159],[-71.34504,-35.44147],[-71.3438,-35.44136],[-71.34225,-35.44103],[-71.340975,-35.440713],[-71.34044,-35.44058],[-71.340057,-35.440512],[-71.33876,-35.44028],[-71.33749,-35.4398],[-71.336852,-35.439736],[-71.3361,-35.43988],[-71.33469,-35.44018],[-71.33371,-35.44039],[-71.333365,-35.440418],[-71.330894,-35.438853],[-71.327319,-35.439754],[-71.3264,-35.43973],[-71.326034,-35.43973],[-71.32527,-35.43973],[-71.325124,-35.439722],[-71.3245,-35.43969],[-71.32331,-35.43898],[-71.32238,-35.43813],[-71.322242,-35.437896],[-71.32186,-35.43725],[-71.321486,-35.436932],[-71.321364,-35.436902],[-71.320738,-35.436746],[-71.32001,-35.43653],[-71.31924,-35.43646],[-71.3184,-35.43678],[-71.3178,-35.43748],[-71.31671,-35.43826],[-71.316168,-35.438573],[-71.31534,-35.43905],[-71.3138,-35.44013],[-71.31251,-35.4409],[-71.31248,-35.4412],[-71.31285,-35.44198],[-71.31302,-35.44319],[-71.313052,-35.443349],[-71.310455,-35.444003],[-71.309827,-35.448129],[-71.304717,-35.449416],[-71.304088,-35.453542],[-71.30722,-35.455526],[-71.306804,-35.455582],[-71.305937,-35.455852],[-71.30496,-35.45609],[-71.30359,-35.45667],[-71.303136,-35.456825],[-71.302603,-35.457214],[-71.3017,-35.45775],[-71.301079,-35.457898],[-71.30069,-35.45792],[-71.30003,-35.45784],[-71.29927,-35.45773],[-71.29857,-35.4576],[-71.298556,-35.457597],[-71.297691,-35.457394],[-71.297065,-35.457307],[-71.296528,-35.457141],[-71.29587,-35.4569],[-71.29509,-35.45677],[-71.294805,-35.456852],[-71.29461,-35.45702],[-71.29438,-35.45737],[-71.294157,-35.457903],[-71.294037,-35.458433],[-71.2939,-35.4589],[-71.293849,-35.459244],[-71.293821,-35.459664],[-71.293905,-35.460011],[-71.29393,-35.460065],[-71.294236,-35.46074],[-71.294304,-35.461114],[-71.29428,-35.46186],[-71.294087,-35.4622],[-71.293744,-35.462623],[-71.293327,-35.462854],[-71.292812,-35.463047],[-71.29275,-35.46307],[-71.29194,-35.46322],[-71.29104,-35.4635],[-71.290216,-35.463684],[-71.289724,-35.463924],[-71.28914,-35.4645],[-71.288505,-35.465397],[-71.288453,-35.465471],[-71.288163,-35.465743],[-71.28774,-35.4659],[-71.287447,-35.466005],[-71.287502,-35.465649],[-71.283022,-35.46281],[-71.277913,-35.464094],[-71.277283,-35.468219],[-71.275816,-35.468587],[-71.2754,-35.46821],[-71.27419,-35.46759],[-71.27312,-35.46713],[-71.27224,-35.46679],[-71.27186,-35.46647],[-71.27141,-35.46605],[-71.27061,-35.46471],[-71.27011,-35.46358],[-71.26994,-35.46308],[-71.26985,-35.46282],[-71.26974,-35.46226],[-71.269726,-35.462187],[-71.273433,-35.461255],[-71.274063,-35.45713],[-71.269584,-35.45429],[-71.26758,-35.454793],[-71.26749,-35.45424],[-71.26739,-35.45381],[-71.26726,-35.45356],[-71.26691,-35.45323],[-71.2662,-35.45278],[-71.2654,-35.4523],[-71.26441,-35.45111],[-71.26388,-35.45053],[-71.26355,-35.45014],[-71.2634,-35.4498],[-71.26317,-35.44943],[-71.26285,-35.44904],[-71.26251,-35.44883],[-71.26223,-35.44866],[-71.26204,-35.44838],[-71.26202,-35.448258],[-71.26199,-35.44808],[-71.26183,-35.44765],[-71.26159,-35.44719],[-71.26146,-35.44591],[-71.26142,-35.44514],[-71.26085,-35.44356],[-71.26019,-35.44201],[-71.26,-35.44176],[-71.259409,-35.440981],[-71.25937,-35.44093],[-71.25901,-35.44033],[-71.25866,-35.43963],[-71.25839,-35.43906],[-71.2583,-35.43826],[-71.25809,-35.43786],[-71.2576,-35.43776],[-71.25722,-35.43775],[-71.25683,-35.43726],[-71.25619,-35.43654],[-71.25513,-35.43589],[-71.25495,-35.43575],[-71.25478,-35.43534],[-71.25459,-35.4352],[-71.25438,-35.43518],[-71.25382,-35.43542],[-71.25337,-35.43528],[-71.252821,-35.43538],[-71.25222,-35.43549],[-71.2519,-35.4354],[-71.25176,-35.43518],[-71.25176,-35.43503],[-71.25182,-35.43479],[-71.25192,-35.43451],[-71.25191,-35.43413],[-71.251823,-35.433974],[-71.25177,-35.43388],[-71.25154,-35.43366],[-71.251336,-35.433666],[-71.25118,-35.43367],[-71.25086,-35.43373],[-71.25058,-35.43374],[-71.25027,-35.43361],[-71.25024,-35.43344],[-71.250513,-35.433143],[-71.25165,-35.43191],[-71.25168,-35.43154],[-71.25161,-35.43123],[-71.25135,-35.431],[-71.25099,-35.43092],[-71.25027,-35.43119],[-71.25,-35.43139],[-71.24983,-35.43151],[-71.24946,-35.4315],[-71.2493,-35.43124],[-71.24902,-35.43006],[-71.24893,-35.42876],[-71.248927,-35.428712],[-71.24908,-35.427708],[-71.248864,-35.427571],[-71.2489,-35.42667],[-71.24848,-35.42528],[-71.24844,-35.42482],[-71.24783,-35.42424],[-71.24766,-35.4242],[-71.24737,-35.42413],[-71.24711,-35.424],[-71.24663,-35.42343],[-71.24597,-35.42262],[-71.24553,-35.42224],[-71.24522,-35.42189],[-71.24524,-35.42143],[-71.245148,-35.421294],[-71.24509,-35.42121],[-71.24514,-35.42102],[-71.245206,-35.420909],[-71.24526,-35.42082],[-71.245287,-35.420726],[-71.24532,-35.42061],[-71.24488,-35.41924],[-71.24518,-35.41881],[-71.24541,-35.41826],[-71.24559,-35.41789],[-71.24572,-35.41745],[-71.24597,-35.41675],[-71.24648,-35.41582],[-71.24704,-35.41479],[-71.24765,-35.41396],[-71.24777,-35.41376],[-71.247775,-35.4133],[-71.24778,-35.41285],[-71.24778,-35.41233],[-71.24766,-35.41192],[-71.24743,-35.41124],[-71.24735,-35.41072],[-71.24744,-35.41052],[-71.24801,-35.40933],[-71.24808,-35.40885],[-71.24811,-35.40836],[-71.248176,-35.408093],[-71.24836,-35.40734],[-71.24859,-35.40679],[-71.24907,-35.40644],[-71.24933,-35.40624],[-71.24963,-35.40598],[-71.24998,-35.40547],[-71.25,-35.40543],[-71.25,-35.40543],[-71.2501,-35.40521],[-71.25043,-35.40467],[-71.25061,-35.40435],[-71.25094,-35.40372],[-71.25093,-35.40308],[-71.25029,-35.40249],[-71.25,-35.40221],[-71.24967,-35.4019],[-71.24926,-35.40141],[-71.2492,-35.40118],[-71.24916,-35.40067],[-71.249157,-35.400595],[-71.24915,-35.40042],[-71.24918,-35.39976],[-71.24923,-35.39954],[-71.24931,-35.3992],[-71.24934,-35.39901],[-71.2494,-35.39815],[-71.24969,-35.39741],[-71.24981,-35.3971],[-71.24982,-35.39692],[-71.24986,-35.39659],[-71.24965,-35.39602],[-71.249448,-35.395863],[-71.24938,-35.39581],[-71.24923,-35.39573],[-71.24885,-35.39551],[-71.24876,-35.39527],[-71.24873,-35.39511],[-71.24871,-35.39478],[-71.24882,-35.39459],[-71.24898,-35.39432],[-71.24901,-35.3939],[-71.249,-35.39343],[-71.24883,-35.39287],[-71.24874,-35.39227],[-71.2487,-35.39201],[-71.24873,-35.39155],[-71.24876,-35.3914],[-71.24883,-35.39108],[-71.24901,-35.39066],[-71.24916,-35.39031],[-71.2492,-35.39022],[-71.24923,-35.38997],[-71.24927,-35.38979],[-71.24943,-35.38942],[-71.24954,-35.38923],[-71.24997,-35.38848],[-71.25,-35.38843],[-71.25,-35.38843],[-71.25017,-35.38814],[-71.250295,-35.387732],[-71.25032,-35.38765],[-71.25036,-35.38743],[-71.25042,-35.38703],[-71.25046,-35.38676],[-71.25046,-35.38665],[-71.25049,-35.38628],[-71.25063,-35.38572],[-71.25069,-35.38545],[-71.25074,-35.38495],[-71.25076,-35.38484],[-71.25081,-35.38466],[-71.25098,-35.38404],[-71.25119,-35.38361],[-71.251219,-35.383506],[-71.25129,-35.38325],[-71.25137,-35.38321],[-71.25141,-35.38304],[-71.25153,-35.38292],[-71.25169,-35.382],[-71.25222,-35.38179],[-71.25272,-35.38122],[-71.25264,-35.38094],[-71.25269,-35.38068],[-71.25295,-35.38034],[-71.25403,-35.37993],[-71.25425,-35.37964],[-71.25483,-35.37929],[-71.25512,-35.37904],[-71.25535,-35.37878],[-71.25556,-35.37841],[-71.25591,-35.37817],[-71.256234,-35.377915],[-71.25666,-35.37758],[-71.25669,-35.37756],[-71.2571,-35.37735],[-71.25766,-35.37713],[-71.25797,-35.37699],[-71.25799,-35.37686],[-71.25805,-35.37661],[-71.25812,-35.37618],[-71.25756,-35.37436],[-71.25559,-35.37283],[-71.25365,-35.37205],[-71.252711,-35.371695],[-71.252787,-35.371196],[-71.24831,-35.368353],[-71.243204,-35.36964],[-71.238728,-35.366796],[-71.233622,-35.368083],[-71.232992,-35.372213],[-71.237469,-35.375057],[-71.242574,-35.37377],[-71.243029,-35.374059],[-71.24288,-35.37412],[-71.2423,-35.37454],[-71.24161,-35.37504],[-71.24079,-35.37555],[-71.24019,-35.37603],[-71.23989,-35.37628],[-71.23958,-35.37639],[-71.23927,-35.37645],[-71.23896,-35.37644],[-71.23855,-35.37632],[-71.23839,-35.37634],[-71.23826,-35.37641],[-71.23817,-35.37663],[-71.23813,-35.37681],[-71.23804,-35.37694],[-71.23778,-35.3771],[-71.23732,-35.37722],[-71.237119,-35.377346],[-71.23705,-35.37739],[-71.23664,-35.37785],[-71.2362,-35.37826],[-71.23589,-35.37849],[-71.23556,-35.37858],[-71.23515,-35.37862],[-71.23474,-35.3786],[-71.23417,-35.37836],[-71.23392,-35.37815],[-71.23338,-35.37778],[-71.233,-35.37757],[-71.23251,-35.37742],[-71.23223,-35.37725],[-71.2317,-35.37679],[-71.23139,-35.37667],[-71.23096,-35.37666],[-71.22973,-35.37684],[-71.22829,-35.37706],[-71.22778,-35.37709],[-71.227345,-35.377053],[-71.22731,-35.37705],[-71.22693,-35.37693],[-71.226,-35.37635],[-71.22541,-35.37627],[-71.22484,-35.37633],[-71.22394,-35.37651],[-71.22294,-35.37681],[-71.22246,-35.377],[-71.22222,-35.37737],[-71.22158,-35.37803],[-71.221152,-35.378279],[-71.22115,-35.37828],[-71.22061,-35.37844],[-71.2202,-35.37869],[-71.21997,-35.37887],[-71.21975,-35.37893],[-71.21942,-35.37894],[-71.21918,-35.37899],[-71.21904,-35.37925],[-71.21897,-35.37966],[-71.21869,-35.37999],[-71.2182,-35.38029],[-71.21758,-35.38038],[-71.21696,-35.38031],[-71.21594,-35.38004],[-71.21554,-35.37978],[-71.21524,-35.37976],[-71.21493,-35.37972],[-71.21477,-35.3796],[-71.21413,-35.37913],[-71.21329,-35.37902],[-71.21264,-35.37882],[-71.212366,-35.378696],[-71.21191,-35.37849],[-71.21119,-35.3783],[-71.21058,-35.37828],[-71.20944,-35.37837],[-71.20876,-35.37836],[-71.20829,-35.37821],[-71.20744,-35.37771],[-71.2069,-35.37742],[-71.20636,-35.37732],[-71.20538,-35.37721],[-71.20499,-35.37713],[-71.20467,-35.37698],[-71.20415,-35.37667],[-71.20305,-35.37638],[-71.202909,-35.376335],[-71.202991,-35.375796],[-71.198516,-35.372951],[-71.19792,-35.373101],[-71.19774,-35.37297],[-71.19747,-35.37234],[-71.1971,-35.37212],[-71.19649,-35.37185],[-71.19472,-35.37165],[-71.19422,-35.37212],[-71.19396,-35.37225],[-71.19305,-35.37253],[-71.19131,-35.37285],[-71.191272,-35.372875],[-71.19057,-35.37334],[-71.19044,-35.37338],[-71.18875,-35.37419],[-71.1887,-35.37423],[-71.18855,-35.37454],[-71.18753,-35.37566],[-71.18625,-35.37659],[-71.18573,-35.37664],[-71.18548,-35.3766],[-71.18489,-35.37634],[-71.18408,-35.37635],[-71.183205,-35.37679],[-71.183153,-35.376816],[-71.18231,-35.37724],[-71.18195,-35.37735],[-71.18186,-35.37743],[-71.18164,-35.37749],[-71.1812,-35.37796],[-71.18109,-35.37816],[-71.1811,-35.37837],[-71.18125,-35.37861],[-71.18131,-35.37882],[-71.18131,-35.37887],[-71.18108,-35.37893],[-71.18013,-35.37892],[-71.17968,-35.37902],[-71.17877,-35.37944],[-71.17823,-35.37952],[-71.1779,-35.379391],[-71.17777,-35.37934],[-71.17755,-35.37935],[-71.1767,-35.3797],[-71.17635,-35.37997],[-71.17587,-35.38046],[-71.1756,-35.38101],[-71.17535,-35.38135],[-71.1752,-35.38203],[-71.17491,-35.38282],[-71.174886,-35.382864],[-71.17477,-35.38308],[-71.17471,-35.38336],[-71.17392,-35.38415],[-71.17345,-35.38462],[-71.17281,-35.38507],[-71.17242,-35.38522],[-71.172089,-35.385303],[-71.172364,-35.383498],[-71.167891,-35.380653],[-71.168521,-35.376525],[-71.164048,-35.373679],[-71.158945,-35.374962],[-71.154472,-35.372116],[-71.155103,-35.367988],[-71.160206,-35.366705],[-71.160836,-35.362576],[-71.16594,-35.361293],[-71.166446,-35.357976],[-71.167982,-35.356808],[-71.171998,-35.353754],[-71.171674,-35.355879],[-71.176147,-35.358725],[-71.181251,-35.357441],[-71.185724,-35.360286],[-71.190828,-35.359002],[-71.195302,-35.361847],[-71.200407,-35.360562],[-71.201037,-35.356432],[-71.206141,-35.355146],[-71.210616,-35.357991],[-71.21572,-35.356705],[-71.21635,-35.352575],[-71.211875,-35.34973],[-71.206771,-35.351016],[-71.202297,-35.34817],[-71.197193,-35.349456],[-71.196562,-35.353587],[-71.191458,-35.354872],[-71.186985,-35.352026],[-71.187615,-35.347895],[-71.192719,-35.34661],[-71.193349,-35.342479],[-71.188875,-35.339633],[-71.185577,-35.340464],[-71.185611,-35.340409],[-71.186064,-35.339633],[-71.186077,-35.339257],[-71.18605,-35.338434],[-71.186222,-35.337702],[-71.18633,-35.33698],[-71.18715,-35.33659],[-71.1889,-35.33553],[-71.189283,-35.33536],[-71.1898,-35.33513],[-71.19063,-35.33494],[-71.19162,-35.33483],[-71.19199,-35.33486],[-71.192019,-35.334868],[-71.19213,-35.3349],[-71.19223,-35.33499],[-71.193231,-35.335139],[-71.193696,-35.335239],[-71.194235,-35.335233],[-71.19472,-35.335138],[-71.195407,-35.334761],[-71.195444,-35.334747],[-71.196025,-35.334534],[-71.196448,-35.33443],[-71.196715,-35.334445],[-71.197179,-35.334427],[-71.197831,-35.334369],[-71.198511,-35.334326],[-71.199539,-35.334404],[-71.200058,-35.334549],[-71.201433,-35.334833],[-71.202023,-35.335024],[-71.202444,-35.335102],[-71.202808,-35.335081],[-71.203108,-35.335124],[-71.203529,-35.335245],[-71.203779,-35.335274],[-71.203936,-35.335345],[-71.204216,-35.335583],[-71.204314,-35.335666],[-71.204536,-35.335809],[-71.2047,-35.335852],[-71.205057,-35.335795],[-71.205863,-35.335547],[-71.206166,-35.335474],[-71.206577,-35.335457],[-71.207308,-35.335588],[-71.207712,-35.335666],[-71.207814,-35.335685],[-71.208433,-35.335847],[-71.208857,-35.335959],[-71.209221,-35.336073],[-71.209651,-35.336211],[-71.210377,-35.336466],[-71.210651,-35.336561],[-71.211165,-35.336754],[-71.211436,-35.336861],[-71.211512,-35.336894],[-71.211714,-35.336908],[-71.212102,-35.336899],[-71.212521,-35.336799],[-71.212778,-35.33667],[-71.213252,-35.336285],[-71.213294,-35.336247],[-71.213775,-35.335738],[-71.213946,-35.335562],[-71.214048,-35.335475],[-71.214629,-35.334983],[-71.215403,-35.334331],[-71.215995,-35.333699],[-71.216128,-35.333553],[-71.216428,-35.333492],[-71.216569,-35.333489],[-71.216652,-35.333494],[-71.216964,-35.333584],[-71.217323,-35.33366],[-71.218843,-35.333332],[-71.220892,-35.332894],[-71.221001,-35.332871],[-71.222432,-35.332564],[-71.223333,-35.332368],[-71.22405,-35.332192],[-71.225042,-35.331945],[-71.226339,-35.331621],[-71.227909,-35.331231],[-71.228828,-35.331003],[-71.22948,-35.33084],[-71.230955,-35.330472],[-71.232727,-35.33006],[-71.233579,-35.329856],[-71.234238,-35.329615],[-71.235602,-35.329311],[-71.236484,-35.329115],[-71.23747,-35.328897],[-71.239557,-35.328433],[-71.240492,-35.328223],[-71.241555,-35.327969],[-71.243273,-35.327555],[-71.244761,-35.327196],[-71.245486,-35.327022],[-71.247587,-35.326517],[-71.249287,-35.326112],[-71.249489,-35.326188],[-71.249699,-35.326267],[-71.25,-35.326297],[-71.250428,-35.326328],[-71.25087,-35.326284],[-71.250911,-35.326277],[-71.251606,-35.326103],[-71.252142,-35.325944],[-71.252357,-35.325802],[-71.25254,-35.325721],[-71.252921,-35.325554],[-71.253376,-35.325446],[-71.253747,-35.325342],[-71.253985,-35.325264],[-71.254104,-35.325112],[-71.254154,-35.324864],[-71.254256,-35.324685],[-71.254278,-35.324465],[-71.254291,-35.324343],[-71.254334,-35.324176],[-71.25443,-35.324116],[-71.254511,-35.324088],[-71.254766,-35.324083],[-71.255093,-35.324047],[-71.255378,-35.32404],[-71.255593,-35.323964],[-71.255672,-35.323843],[-71.255737,-35.323673],[-71.2558,-35.32338],[-71.255854,-35.32291],[-71.256013,-35.322237],[-71.256144,-35.322106],[-71.256263,-35.32206],[-71.256316,-35.321873],[-71.256276,-35.32162],[-71.25599,-35.320877],[-71.255785,-35.320667],[-71.255593,-35.320563],[-71.255353,-35.32054],[-71.255206,-35.32047],[-71.255171,-35.320341],[-71.255216,-35.320262],[-71.255254,-35.320053],[-71.255143,-35.31981],[-71.255022,-35.319686],[-71.254789,-35.319458],[-71.254532,-35.319101],[-71.254529,-35.319097],[-71.254397,-35.318839],[-71.254245,-35.31852],[-71.25422,-35.318068],[-71.254258,-35.317772],[-71.254445,-35.317597],[-71.254665,-35.317312],[-71.254766,-35.317084],[-71.254799,-35.316859],[-71.254867,-35.316604],[-71.255047,-35.316462],[-71.255161,-35.316318],[-71.25531,-35.316169],[-71.255411,-35.316088],[-71.255684,-35.315977],[-71.2558,-35.315739],[-71.256033,-35.315509],[-71.2562,-35.315304],[-71.256357,-35.315094],[-71.256445,-35.314936],[-71.256635,-35.314594],[-71.25664,-35.314586],[-71.256989,-35.31403],[-71.257583,-35.312981],[-71.257626,-35.312718],[-71.257631,-35.3125],[-71.257854,-35.312182],[-71.257904,-35.312103],[-71.258208,-35.311919],[-71.258625,-35.311795],[-71.259487,-35.311785],[-71.259656,-35.311777],[-71.259747,-35.311754],[-71.260033,-35.311721],[-71.260235,-35.311699],[-71.26065,-35.311643],[-71.26086,-35.311618],[-71.261153,-35.311577],[-71.261414,-35.311537],[-71.26156,-35.311517],[-71.26174,-35.311486],[-71.261883,-35.31146],[-71.262076,-35.311426],[-71.262566,-35.311327],[-71.262766,-35.311317],[-71.263135,-35.311269],[-71.263333,-35.311244],[-71.263512,-35.311236],[-71.263717,-35.311153],[-71.263939,-35.310963],[-71.264124,-35.310771],[-71.264273,-35.310457],[-71.264534,-35.31027],[-71.26498,-35.31048],[-71.26584,-35.31031],[-71.26656,-35.30985],[-71.26714,-35.30955],[-71.26769,-35.30875],[-71.268189,-35.308461],[-71.26871,-35.30816],[-71.26944,-35.30773],[-71.27067,-35.30757],[-71.27165,-35.30741],[-71.2725,-35.3074],[-71.27394,-35.30705],[-71.27539,-35.30669],[-71.27632,-35.30668],[-71.27707,-35.30636],[-71.277393,-35.306312],[-71.276913,-35.30947],[-71.28139,-35.312315],[-71.286496,-35.311024],[-71.290973,-35.313868],[-71.294003,-35.313102],[-71.29406,-35.31344],[-71.29403,-35.31399],[-71.29427,-35.31459],[-71.29472,-35.31512],[-71.29545,-35.31551],[-71.29609,-35.31614],[-71.29705,-35.31691],[-71.2979,-35.31746],[-71.29871,-35.31765],[-71.29995,-35.31752],[-71.300241,-35.317495],[-71.30078,-35.31745],[-71.30149,-35.31768],[-71.30209,-35.31818],[-71.30257,-35.31887],[-71.30323,-35.31975],[-71.30428,-35.3202],[-71.30561,-35.32041],[-71.30757,-35.32067],[-71.30913,-35.32079],[-71.309548,-35.320877],[-71.309513,-35.321108],[-71.313991,-35.323951],[-71.319098,-35.322659],[-71.323577,-35.325502],[-71.322949,-35.329637],[-71.317841,-35.330929],[-71.313363,-35.328086],[-71.308256,-35.329377],[-71.307627,-35.333511]],[[-71.276987,-35.341253],[-71.277616,-35.33712],[-71.282722,-35.33583],[-71.2872,-35.338674],[-71.292306,-35.337384],[-71.292935,-35.33325],[-71.288458,-35.330406],[-71.283351,-35.331697],[-71.278874,-35.328853],[-71.273768,-35.330143],[-71.273139,-35.334276],[-71.268033,-35.335566],[-71.267404,-35.339699],[-71.271881,-35.342542],[-71.276987,-35.341253]],[[-71.275026,-35.321875],[-71.279503,-35.324719],[-71.284609,-35.323428],[-71.285238,-35.319294],[-71.280761,-35.31645],[-71.275655,-35.31774],[-71.275026,-35.321875]],[[-71.300634,-35.347203],[-71.296156,-35.34436],[-71.291049,-35.34565],[-71.29042,-35.349783],[-71.285313,-35.351073],[-71.284684,-35.355205],[-71.279577,-35.356494],[-71.278948,-35.360626],[-71.283426,-35.363469],[-71.288533,-35.36218],[-71.289162,-35.358048],[-71.294269,-35.356758],[-71.294898,-35.352626],[-71.300005,-35.351336],[-71.304484,-35.354178],[-71.309591,-35.352888],[-71.31022,-35.348755],[-71.305741,-35.345913],[-71.300634,-35.347203]],[[-71.367751,-35.358053],[-71.36327,-35.355212],[-71.358161,-35.356505],[-71.357533,-35.360639],[-71.362014,-35.363479],[-71.367123,-35.362187],[-71.367751,-35.358053]],[[-71.175516,-35.362855],[-71.170413,-35.364138],[-71.169782,-35.368268],[-71.174256,-35.371113],[-71.17936,-35.369829],[-71.183833,-35.372675],[-71.188938,-35.371391],[-71.189568,-35.367261],[-71.185094,-35.364416],[-71.17999,-35.3657],[-71.175516,-35.362855]],[[-71.204251,-35.367537],[-71.208726,-35.370382],[-71.213831,-35.369096],[-71.214461,-35.364966],[-71.209986,-35.362122],[-71.204881,-35.363407],[-71.204251,-35.367537]],[[-71.511072,-35.385323],[-71.505958,-35.386622],[-71.505332,-35.390756],[-71.500218,-35.392054],[-71.499592,-35.396188],[-71.504079,-35.399023],[-71.509194,-35.397725],[-71.513682,-35.400561],[-71.518797,-35.399262],[-71.519423,-35.395129],[-71.514934,-35.392293],[-71.51556,-35.388159],[-71.511072,-35.385323]],[[-71.434373,-35.40477],[-71.435001,-35.400638],[-71.440113,-35.399344],[-71.44074,-35.395211],[-71.436255,-35.392374],[-71.431143,-35.393669],[-71.430516,-35.397801],[-71.425404,-35.399095],[-71.424776,-35.403227],[-71.429261,-35.406064],[-71.434373,-35.40477]],[[-71.463169,-35.409396],[-71.467656,-35.412232],[-71.472769,-35.410937],[-71.473396,-35.406805],[-71.468909,-35.403968],[-71.463796,-35.405264],[-71.463169,-35.409396]],[[-71.405584,-35.400138],[-71.406212,-35.396006],[-71.401728,-35.393168],[-71.396617,-35.394461],[-71.395989,-35.398592],[-71.400473,-35.401431],[-71.405584,-35.400138]],[[-71.390789,-35.36812],[-71.386307,-35.365281],[-71.381197,-35.366574],[-71.380569,-35.370707],[-71.385051,-35.373547],[-71.384424,-35.377679],[-71.388906,-35.380519],[-71.394017,-35.379226],[-71.394644,-35.375093],[-71.390162,-35.372253],[-71.390789,-35.36812]],[[-71.302124,-35.434197],[-71.302753,-35.43007],[-71.298273,-35.42723],[-71.293164,-35.428517],[-71.292535,-35.432644],[-71.297015,-35.435484],[-71.302124,-35.434197]],[[-71.330813,-35.407115],[-71.335294,-35.409955],[-71.340404,-35.408666],[-71.344885,-35.411505],[-71.349995,-35.410215],[-71.350623,-35.406085],[-71.346142,-35.403246],[-71.34677,-35.399116],[-71.35188,-35.397825],[-71.352508,-35.393694],[-71.348026,-35.390854],[-71.342917,-35.392145],[-71.338436,-35.389305],[-71.333327,-35.390595],[-71.328847,-35.387755],[-71.323738,-35.389044],[-71.319258,-35.386203],[-71.314149,-35.387493],[-71.30967,-35.384652],[-71.304562,-35.385941],[-71.303933,-35.390071],[-71.298825,-35.39136],[-71.298196,-35.395489],[-71.293088,-35.396778],[-71.292459,-35.400907],[-71.296938,-35.403748],[-71.302046,-35.40246],[-71.306526,-35.405301],[-71.311634,-35.404012],[-71.316114,-35.406853],[-71.321223,-35.405564],[-71.325704,-35.408404],[-71.330813,-35.407115]],[[-71.279726,-35.419994],[-71.279097,-35.424122],[-71.283576,-35.426963],[-71.288684,-35.425676],[-71.289314,-35.421549],[-71.284834,-35.418708],[-71.279726,-35.419994]]]},"properties":{"comuna":"Pelarco","mancha_id":"07106-88b2c32c87fffff","clase":"Medio","nivel_medio":1.904,"nivel_medio_min":1.502,"nivel_medio_max":2.497,"pct_alto":10.0,"n_hexagonos":457,"area_ha":25401.7}},{"type":"Feature","geometry":{"type":"Polygon","coordinates":[[[-71.340404,-35.408666],[-71.341032,-35.404536],[-71.346142,-35.403246],[-71.350623,-35.406085],[-71.349995,-35.410215],[-71.344885,-35.411505],[-71.340404,-35.408666]]]},"properties":{"comuna":"Pelarco","mancha_id":"07106-88b2dd9713fffff","clase":"Alto","nivel_medio":2.607,"nivel_medio_min":2.607,"nivel_medio_max":2.607,"pct_alto":61.9,"n_hexagonos":1,"area_ha":61.35}},{"type":"Feature","geometry":{"type":"Polygon","coordinates":[[[-71.279097,-35.424122],[-71.279726,-35.419994],[-71.284834,-35.418708],[-71.289314,-35.421549],[-71.288684,-35.425676],[-71.283576,-35.426963],[-71.279097,-35.424122]]]},"properties":{"comuna":"Pelarco","mancha_id":"07106-88b2dd96a9fffff","clase":"Alto","nivel_medio":2.652,"nivel_medio_min":2.652,"nivel_medio_max":2.652,"pct_alto":64.4,"n_hexagonos":1,"area_ha":61.28}},{"type":"Feature","geometry":{"type":"Polygon","coordinates":[[[-71.198516,-35.372951],[-71.202991,-35.375796],[-71.202909,-35.376335],[-71.20233,-35.37615],[-71.20157,-35.37586],[-71.19976,-35.37469],[-71.19892,-35.37405],[-71.1985,-35.3736],[-71.19826,-35.37335],[-71.19792,-35.373101],[-71.198516,-35.372951]]]},"properties":{"comuna":"Pelarco","mancha_id":"07106-88b2ce5827fffff","clase":"Alto","nivel_medio":3.029,"nivel_medio_min":3.029,"nivel_medio_max":3.029,"pct_alto":88.0,"n_hexagonos":1,"area_ha":4.09}},{"type":"Feature","geometry":{"type":"Polygon","coordinates":[[[-71.313991,-35.323951],[-71.309513,-35.321108],[-71.309548,-35.320877],[-71.30999,-35.32097],[-71.31154,-35.32141],[-71.31282,-35.3215],[-71.31362,-35.32129],[-71.31413,-35.32075],[-71.31466,-35.32045],[-71.315175,-35.320398],[-71.31571,-35.32047],[-71.31627,-35.32098],[-71.31681,-35.32157],[-71.3172,-35.32196],[-71.31771,-35.32216],[-71.31828,-35.32212],[-71.31893,-35.32185],[-71.319232,-35.321781],[-71.319098,-35.322659],[-71.313991,-35.323951]]]},"properties":{"comuna":"Pelarco","mancha_id":"07106-88b2c32c33fffff","clase":"Alto","nivel_medio":2.788,"nivel_medio_min":2.788,"nivel_medio_max":2.788,"pct_alto":62.3,"n_hexagonos":1,"area_ha":16.2}},{"type":"Feature","geometry":{"type":"Polygon","coordinates":[[[-71.248864,-35.427571],[-71.24908,-35.427708],[-71.248927,-35.428712],[-71.24886,-35.42766],[-71.248864,-35.427571]]]},"properties":{"comuna":"Pelarco","mancha_id":"07106-88b2dd9691fffff","clase":"Muy Alto","nivel_medio":3.851,"nivel_medio_min":3.851,"nivel_medio_max":3.851,"pct_alto":92.5,"n_hexagonos":1,"area_ha":0.13}}],"bbox":[-71.55553,-35.46895,-71.14529,-35.30615]}