{"type":"FeatureCollection","features":[{"type":"Feature","geometry":{"type":"Polygon","coordinates":[[[-71.760289,-35.560305],[-71.765414,-35.559001],[-71.766037,-35.554874],[-71.767144,-35.554592],[-71.76688,-35.556445],[-71.76688,-35.558641],[-71.767321,-35.559721],[-71.767821,-35.560471],[-71.76784,-35.560523],[-71.76807,-35.561137],[-71.767904,-35.561803],[-71.767238,-35.562553],[-71.766571,-35.563302],[-71.765739,-35.563969],[-71.765786,-35.564805],[-71.765201,-35.565748],[-71.763932,-35.566464],[-71.763409,-35.56678],[-71.759665,-35.564432],[-71.760289,-35.560305]]]},"properties":{"comuna":"Maule","mancha_id":"07105-88b2ddd4b1fffff","clase":"Muy Bajo","nivel_medio":0.431,"nivel_medio_min":0.166,"nivel_medio_max":0.471,"pct_alto":1.1,"n_hexagonos":2,"area_ha":49.0}},{"type":"Feature","geometry":{"type":"Polygon","coordinates":[[[-71.790899,-35.520752],[-71.796024,-35.519446],[-71.79666,-35.519844],[-71.795501,-35.52016],[-71.793701,-35.52016],[-71.792392,-35.520487],[-71.790936,-35.520814],[-71.790884,-35.52085],[-71.790899,-35.520752]]]},"properties":{"comuna":"Maule","mancha_id":"07105-88b2ddd43bfffff","clase":"Muy Bajo","nivel_medio":0.102,"nivel_medio_min":0.102,"nivel_medio_max":0.102,"pct_alto":0.0,"n_hexagonos":1,"area_ha":1.42}},{"type":"Feature","geometry":{"type":"Polygon","coordinates":[[[-71.811916,-35.512101],[-71.812023,-35.511393],[-71.813574,-35.510997],[-71.812591,-35.511668],[-71.811916,-35.512101]]]},"properties":{"comuna":"Maule","mancha_id":"07105-88b2ddd42bfffff","clase":"Muy Bajo","nivel_medio":0.0,"nivel_medio_min":0.0,"nivel_medio_max":0.0,"pct_alto":0.0,"n_hexagonos":1,"area_ha":0.54}},{"type":"Feature","geometry":{"type":"Polygon","coordinates":[[[-71.688034,-35.451615],[-71.682913,-35.452919],[-71.682289,-35.457052],[-71.677168,-35.458355],[-71.672672,-35.455526],[-71.673157,-35.452313],[-71.67418,-35.45199],[-71.67571,-35.45133],[-71.67726,-35.45109],[-71.67875,-35.45093],[-71.679744,-35.450925],[-71.68261,-35.45091],[-71.68495,-35.45089],[-71.68665,-35.45117],[-71.688098,-35.451185],[-71.68859,-35.45119],[-71.68871,-35.45118],[-71.69053,-35.45122],[-71.69226,-35.45129],[-71.6927,-35.45138],[-71.69334,-35.45135],[-71.69417,-35.45131],[-71.69498,-35.45126],[-71.69578,-35.45119],[-71.69644,-35.45103],[-71.69693,-35.45086],[-71.69742,-35.45061],[-71.69791,-35.45043],[-71.698064,-35.450405],[-71.697651,-35.453139],[-71.69253,-35.454444],[-71.688034,-35.451615]]]},"properties":{"comuna":"Maule","mancha_id":"07105-88b2dd9919fffff","clase":"Muy Bajo","nivel_medio":0.219,"nivel_medio_min":0.193,"nivel_medio_max":0.272,"pct_alto":5.3,"n_hexagonos":3,"area_ha":89.1}},{"type":"Feature","geometry":{"type":"Polygon","coordinates":[[[-71.819492,-35.461796],[-71.81499,-35.458971],[-71.815427,-35.456066],[-71.8157,-35.4562],[-71.81679,-35.45682],[-71.81806,-35.45767],[-71.82397,-35.45937],[-71.824792,-35.459321],[-71.824617,-35.460486],[-71.819492,-35.461796]]]},"properties":{"comuna":"Maule","mancha_id":"07105-88b2ddd751fffff","clase":"Bajo","nivel_medio":1.24,"nivel_medio_min":1.24,"nivel_medio_max":1.24,"pct_alto":2.3,"n_hexagonos":1,"area_ha":26.48}},{"type":"Feature","geometry":{"type":"Polygon","coordinates":[[[-71.848896,-35.458252],[-71.844495,-35.459378],[-71.841662,-35.457601],[-71.84329,-35.45698],[-71.84541,-35.45683],[-71.848896,-35.458252]]]},"properties":{"comuna":"Maule","mancha_id":"07105-88b2ddd747fffff","clase":"Bajo","nivel_medio":1.31,"nivel_medio_min":1.31,"nivel_medio_max":1.31,"pct_alto":0.0,"n_hexagonos":1,"area_ha":10.12}},{"type":"Feature","geometry":{"type":"Polygon","coordinates":[[[-71.789991,-35.461383],[-71.784867,-35.462691],[-71.784753,-35.46262],[-71.78515,-35.46246],[-71.78597,-35.46215],[-71.78655,-35.46099],[-71.78813,-35.45929],[-71.78968,-35.45847],[-71.790468,-35.458219],[-71.789991,-35.461383]]]},"properties":{"comuna":"Maule","mancha_id":"07105-88b2ddd605fffff","clase":"Bajo","nivel_medio":1.085,"nivel_medio_min":1.085,"nivel_medio_max":1.085,"pct_alto":1.3,"n_hexagonos":1,"area_ha":9.73}},{"type":"Feature","geometry":{"type":"Polygon","coordinates":[[[-71.774865,-35.460936],[-71.775467,-35.461116],[-71.775243,-35.461174],[-71.77462,-35.465308],[-71.769497,-35.466615],[-71.764997,-35.463789],[-71.759873,-35.465096],[-71.755374,-35.46227],[-71.750944,-35.4634],[-71.75122,-35.46289],[-71.75226,-35.46214],[-71.755472,-35.461616],[-71.75588,-35.46155],[-71.75924,-35.46083],[-71.76053,-35.46012],[-71.76229,-35.45951],[-71.763293,-35.458194],[-71.76354,-35.45787],[-71.76575,-35.45671],[-71.76834,-35.45633],[-71.77016,-35.45684],[-71.770821,-35.457829],[-71.771474,-35.458807],[-71.77153,-35.45889],[-71.77401,-35.46068],[-71.774865,-35.460936]]]},"properties":{"comuna":"Maule","mancha_id":"07105-88b2ddd601fffff","clase":"Bajo","nivel_medio":1.363,"nivel_medio_min":0.519,"nivel_medio_max":1.474,"pct_alto":1.2,"n_hexagonos":5,"area_ha":119.52}},{"type":"Feature","geometry":{"type":"Polygon","coordinates":[[[-71.75454,-35.565735],[-71.759665,-35.564432],[-71.763409,-35.56678],[-71.76237,-35.567408],[-71.761036,-35.567896],[-71.759636,-35.568026],[-71.758243,-35.568133],[-71.757077,-35.568632],[-71.755911,-35.569132],[-71.754495,-35.569465],[-71.753972,-35.569494],[-71.75454,-35.565735]]]},"properties":{"comuna":"Maule","mancha_id":"07105-88b2ddd4b3fffff","clase":"Bajo","nivel_medio":0.722,"nivel_medio_min":0.722,"nivel_medio_max":0.722,"pct_alto":13.9,"n_hexagonos":1,"area_ha":27.03}},{"type":"Feature","geometry":{"type":"Polygon","coordinates":[[[-71.838896,-35.496586],[-71.838274,-35.500718],[-71.833422,-35.501958],[-71.832918,-35.501883],[-71.831509,-35.501676],[-71.827031,-35.50235],[-71.823882,-35.503393],[-71.823085,-35.503393],[-71.823519,-35.500513],[-71.828645,-35.499204],[-71.829267,-35.495072],[-71.834393,-35.493762],[-71.838896,-35.496586]]]},"properties":{"comuna":"Maule","mancha_id":"07105-88b2ddd465fffff","clase":"Bajo","nivel_medio":1.186,"nivel_medio_min":0.81,"nivel_medio_max":1.314,"pct_alto":1.0,"n_hexagonos":2,"area_ha":82.44}},{"type":"Feature","geometry":{"type":"Polygon","coordinates":[[[-71.786397,-35.517928],[-71.78702,-35.513798],[-71.782518,-35.510974],[-71.783141,-35.506843],[-71.788265,-35.505536],[-71.792767,-35.50836],[-71.792144,-35.512491],[-71.796647,-35.515315],[-71.801772,-35.514008],[-71.804934,-35.515991],[-71.804766,-35.51606],[-71.801962,-35.51697],[-71.799754,-35.518443],[-71.7973,-35.51967],[-71.79666,-35.519844],[-71.796024,-35.519446],[-71.790899,-35.520752],[-71.790884,-35.52085],[-71.788431,-35.522512],[-71.786509,-35.524022],[-71.784999,-35.525257],[-71.784639,-35.525868],[-71.78405,-35.526867],[-71.783723,-35.528503],[-71.783764,-35.530474],[-71.783771,-35.530511],[-71.784011,-35.531846],[-71.78434,-35.533494],[-71.784121,-35.534921],[-71.782693,-35.536678],[-71.781863,-35.537686],[-71.781156,-35.538545],[-71.778959,-35.540302],[-71.777312,-35.54173],[-71.776214,-35.542828],[-71.775966,-35.543026],[-71.775116,-35.543707],[-71.773579,-35.543816],[-71.771821,-35.544256],[-71.770174,-35.545244],[-71.768966,-35.546232],[-71.768569,-35.547425],[-71.767868,-35.549527],[-71.767144,-35.554592],[-71.766037,-35.554874],[-71.761535,-35.552051],[-71.75641,-35.553354],[-71.751909,-35.55053],[-71.752532,-35.546403],[-71.748031,-35.543579],[-71.748655,-35.539451],[-71.753779,-35.538147],[-71.75828,-35.540971],[-71.763405,-35.539667],[-71.764028,-35.535538],[-71.769153,-35.534234],[-71.773655,-35.537058],[-71.77878,-35.535753],[-71.779403,-35.531623],[-71.774901,-35.5288],[-71.775524,-35.52467],[-71.780649,-35.523364],[-71.781272,-35.519234],[-71.786397,-35.517928]]]},"properties":{"comuna":"Maule","mancha_id":"07105-88b2ddd415fffff","clase":"Bajo","nivel_medio":1.307,"nivel_medio_min":0.633,"nivel_medio_max":1.488,"pct_alto":1.8,"n_hexagonos":13,"area_ha":629.12}},{"type":"Feature","geometry":{"type":"Polygon","coordinates":[[[-71.797892,-35.507053],[-71.798515,-35.502922],[-71.80364,-35.501614],[-71.808143,-35.504438],[-71.80752,-35.50857],[-71.802395,-35.509877],[-71.797892,-35.507053]]]},"properties":{"comuna":"Maule","mancha_id":"07105-88b2ddd401fffff","clase":"Bajo","nivel_medio":1.471,"nivel_medio_min":1.471,"nivel_medio_max":1.471,"pct_alto":15.0,"n_hexagonos":1,"area_ha":61.48}},{"type":"Feature","geometry":{"type":"Polygon","coordinates":[[[-71.882921,-35.46982],[-71.882896,-35.469875],[-71.881743,-35.47247],[-71.87924,-35.476003],[-71.878975,-35.476467],[-71.876885,-35.480126],[-71.87445,-35.482681],[-71.87291,-35.484297],[-71.869033,-35.48734],[-71.868138,-35.487773],[-71.864076,-35.489744],[-71.86152,-35.492673],[-71.859365,-35.495142],[-71.858561,-35.497627],[-71.857774,-35.499371],[-71.853653,-35.496789],[-71.854275,-35.492656],[-71.84977,-35.489833],[-71.844644,-35.491143],[-71.840141,-35.48832],[-71.840763,-35.484186],[-71.845888,-35.482876],[-71.850392,-35.485699],[-71.855519,-35.484388],[-71.85614,-35.480254],[-71.861267,-35.478943],[-71.865771,-35.481766],[-71.870898,-35.480455],[-71.871519,-35.47632],[-71.876646,-35.475008],[-71.877267,-35.470873],[-71.872763,-35.46805],[-71.873384,-35.463914],[-71.87851,-35.462602],[-71.878595,-35.462039],[-71.879172,-35.463016],[-71.87921,-35.46308],[-71.88,-35.46389],[-71.880727,-35.463991],[-71.88214,-35.464186],[-71.8816,-35.464538],[-71.881572,-35.464556],[-71.881301,-35.465943],[-71.882234,-35.467661],[-71.882537,-35.468612],[-71.882921,-35.46982]]]},"properties":{"comuna":"Maule","mancha_id":"07105-88b2ddd0d1fffff","clase":"Bajo","nivel_medio":1.331,"nivel_medio_min":0.963,"nivel_medio_max":1.492,"pct_alto":8.9,"n_hexagonos":11,"area_ha":414.49}},{"type":"Feature","geometry":{"type":"Polygon","coordinates":[[[-71.649693,-35.477262],[-71.650318,-35.473132],[-71.655438,-35.47183],[-71.659934,-35.474659],[-71.659309,-35.47879],[-71.654189,-35.480091],[-71.649693,-35.477262]]]},"properties":{"comuna":"Maule","mancha_id":"07105-88b2dd99d5fffff","clase":"Bajo","nivel_medio":1.327,"nivel_medio_min":1.327,"nivel_medio_max":1.327,"pct_alto":36.0,"n_hexagonos":1,"area_ha":61.44}},{"type":"Feature","geometry":{"type":"Polygon","coordinates":[[[-71.735103,-35.454058],[-71.732255,-35.452268],[-71.732347,-35.451653],[-71.73334,-35.45221],[-71.735103,-35.454058]]]},"properties":{"comuna":"Maule","mancha_id":"07105-88b2dd992dfffff","clase":"Bajo","nivel_medio":0.932,"nivel_medio_min":0.932,"nivel_medio_max":0.932,"pct_alto":0.0,"n_hexagonos":1,"area_ha":1.39}},{"type":"Feature","geometry":{"type":"Polygon","coordinates":[[[-71.73841,-35.460662],[-71.73613,-35.459229],[-71.736626,-35.455942],[-71.73829,-35.45849],[-71.73828,-35.46037],[-71.73841,-35.460662]]]},"properties":{"comuna":"Maule","mancha_id":"07105-88b2dd9925fffff","clase":"Bajo","nivel_medio":0.793,"nivel_medio_min":0.793,"nivel_medio_max":0.793,"pct_alto":0.0,"n_hexagonos":1,"area_ha":5.67}},{"type":"Feature","geometry":{"type":"Polygon","coordinates":[[[-71.66333,-35.452185],[-71.663056,-35.454],[-71.667552,-35.45683],[-71.672672,-35.455526],[-71.677168,-35.458355],[-71.682289,-35.457052],[-71.682913,-35.452919],[-71.688034,-35.451615],[-71.69253,-35.454444],[-71.691906,-35.458576],[-71.686785,-35.45988],[-71.686161,-35.464013],[-71.681041,-35.465316],[-71.676544,-35.462488],[-71.671423,-35.463791],[-71.666927,-35.460962],[-71.661807,-35.462265],[-71.657311,-35.459435],[-71.652191,-35.460738],[-71.647696,-35.457908],[-71.642577,-35.45921],[-71.642072,-35.458892],[-71.64235,-35.45871],[-71.64298,-35.45791],[-71.64469,-35.45699],[-71.64799,-35.45538],[-71.648078,-35.455384],[-71.64922,-35.45544],[-71.65063,-35.45567],[-71.65164,-35.45546],[-71.65253,-35.45508],[-71.6533,-35.45467],[-71.654853,-35.453362],[-71.65558,-35.45275],[-71.65651,-35.45234],[-71.65798,-35.45152],[-71.65895,-35.45134],[-71.66009,-35.45163],[-71.66139,-35.45214],[-71.66256,-35.45213],[-71.66333,-35.452185]]]},"properties":{"comuna":"Maule","mancha_id":"07105-88b2dd9823fffff","clase":"Bajo","nivel_medio":1.136,"nivel_medio_min":0.548,"nivel_medio_max":1.436,"pct_alto":31.0,"n_hexagonos":7,"area_ha":324.93}},{"type":"Feature","geometry":{"type":"Polygon","coordinates":[[[-71.682545,-35.520533],[-71.683169,-35.516405],[-71.688291,-35.515103],[-71.692789,-35.51793],[-71.697911,-35.516628],[-71.70241,-35.519454],[-71.701786,-35.523583],[-71.696663,-35.524885],[-71.692165,-35.522058],[-71.687043,-35.52336],[-71.682545,-35.520533]]]},"properties":{"comuna":"Maule","mancha_id":"07105-88b2dd8b43fffff","clase":"Bajo","nivel_medio":0.82,"nivel_medio_min":0.517,"nivel_medio_max":1.123,"pct_alto":21.8,"n_hexagonos":2,"area_ha":122.79}},{"type":"Feature","geometry":{"type":"Polygon","coordinates":[[[-71.689044,-35.542696],[-71.684546,-35.53987],[-71.679423,-35.54117],[-71.678799,-35.545297],[-71.673677,-35.546597],[-71.669179,-35.54377],[-71.669803,-35.539644],[-71.665306,-35.536817],[-71.66593,-35.53269],[-71.671052,-35.53139],[-71.67555,-35.534217],[-71.680672,-35.532916],[-71.68517,-35.535743],[-71.690293,-35.534442],[-71.694791,-35.537268],[-71.694167,-35.541395],[-71.689044,-35.542696]]]},"properties":{"comuna":"Maule","mancha_id":"07105-88b2dd8b03fffff","clase":"Bajo","nivel_medio":1.275,"nivel_medio_min":1.119,"nivel_medio_max":1.484,"pct_alto":8.3,"n_hexagonos":4,"area_ha":245.43}},{"type":"Feature","geometry":{"type":"Polygon","coordinates":[[[-71.59236,-35.563235],[-71.592986,-35.559112],[-71.598106,-35.557816],[-71.602601,-35.560644],[-71.607722,-35.559348],[-71.612217,-35.562175],[-71.611592,-35.566299],[-71.606471,-35.567595],[-71.605846,-35.571718],[-71.600725,-35.573014],[-71.59623,-35.570186],[-71.591109,-35.571482],[-71.586614,-35.568654],[-71.58724,-35.564531],[-71.59236,-35.563235]]]},"properties":{"comuna":"Maule","mancha_id":"07105-88b2dd8a85fffff","clase":"Bajo","nivel_medio":1.367,"nivel_medio_min":1.236,"nivel_medio_max":1.467,"pct_alto":2.1,"n_hexagonos":4,"area_ha":245.07}},{"type":"Feature","geometry":{"type":"Polygon","coordinates":[[[-71.592244,-35.531535],[-71.59287,-35.527409],[-71.597989,-35.526112],[-71.602484,-35.528941],[-71.601858,-35.533067],[-71.596739,-35.534364],[-71.592244,-35.531535]]]},"properties":{"comuna":"Maule","mancha_id":"07105-88b2dd8a1bfffff","clase":"Bajo","nivel_medio":1.463,"nivel_medio_min":1.463,"nivel_medio_max":1.463,"pct_alto":0.0,"n_hexagonos":1,"area_ha":61.32}},{"type":"Feature","geometry":{"type":"Polygon","coordinates":[[[-71.617219,-35.529174],[-71.617844,-35.525048],[-71.613349,-35.522219],[-71.613974,-35.518092],[-71.619094,-35.516794],[-71.623589,-35.519622],[-71.622964,-35.523749],[-71.62746,-35.526578],[-71.63258,-35.525279],[-71.637076,-35.528107],[-71.636451,-35.532234],[-71.631331,-35.533532],[-71.626835,-35.530704],[-71.621714,-35.532002],[-71.617219,-35.529174]]]},"properties":{"comuna":"Maule","mancha_id":"07105-88b2dd8a03fffff","clase":"Bajo","nivel_medio":1.433,"nivel_medio_min":1.409,"nivel_medio_max":1.447,"pct_alto":2.6,"n_hexagonos":3,"area_ha":184.03}},{"type":"Feature","geometry":{"type":"Polygon","coordinates":[[[-71.601539,-35.584905],[-71.601094,-35.584814],[-71.603534,-35.584196],[-71.603496,-35.584283],[-71.603025,-35.5847],[-71.601539,-35.584905]]]},"properties":{"comuna":"Maule","mancha_id":"07105-88b2dd88cbfffff","clase":"Bajo","nivel_medio":0.988,"nivel_medio_min":0.988,"nivel_medio_max":0.988,"pct_alto":5.1,"n_hexagonos":1,"area_ha":0.59}},{"type":"Feature","geometry":{"type":"Polygon","coordinates":[[[-71.64232,-35.558516],[-71.642945,-35.554391],[-71.648067,-35.553093],[-71.652564,-35.555919],[-71.651939,-35.560044],[-71.646817,-35.561343],[-71.64232,-35.558516]]]},"properties":{"comuna":"Maule","mancha_id":"07105-88b2dd8843fffff","clase":"Bajo","nivel_medio":1.402,"nivel_medio_min":1.402,"nivel_medio_max":1.402,"pct_alto":6.8,"n_hexagonos":1,"area_ha":61.31}},{"type":"Feature","geometry":{"type":"Polygon","coordinates":[[[-71.621105,-35.576147],[-71.619811,-35.577049],[-71.619415,-35.577325],[-71.617827,-35.577734],[-71.617827,-35.5784],[-71.617264,-35.57922],[-71.616035,-35.580295],[-71.614703,-35.580603],[-71.613482,-35.581036],[-71.613115,-35.581166],[-71.611984,-35.581365],[-71.610893,-35.581429],[-71.609875,-35.581588],[-71.608855,-35.581662],[-71.607629,-35.581383],[-71.606786,-35.581376],[-71.60612,-35.581588],[-71.605185,-35.582128],[-71.604508,-35.582806],[-71.604109,-35.583166],[-71.604595,-35.579964],[-71.609716,-35.578668],[-71.610341,-35.574545],[-71.615463,-35.573249],[-71.619959,-35.576076],[-71.621455,-35.575698],[-71.621105,-35.576147]]]},"properties":{"comuna":"Maule","mancha_id":"07105-88b2dd881bfffff","clase":"Bajo","nivel_medio":1.422,"nivel_medio_min":0.88,"nivel_medio_max":1.471,"pct_alto":13.6,"n_hexagonos":3,"area_ha":71.6}},{"type":"Feature","geometry":{"type":"Polygon","coordinates":[[[-71.64107,-35.566765],[-71.646192,-35.565467],[-71.647141,-35.566064],[-71.646818,-35.566312],[-71.644513,-35.567029],[-71.642516,-35.567798],[-71.640876,-35.568259],[-71.640839,-35.568293],[-71.64107,-35.566765]]]},"properties":{"comuna":"Maule","mancha_id":"07105-88b2dd880bfffff","clase":"Bajo","nivel_medio":1.126,"nivel_medio_min":1.126,"nivel_medio_max":1.126,"pct_alto":0.0,"n_hexagonos":1,"area_ha":7.16}},{"type":"Feature","geometry":{"type":"Polygon","coordinates":[[[-71.582631,-35.530002],[-71.577512,-35.531299],[-71.576886,-35.535424],[-71.571767,-35.53672],[-71.571761,-35.536754],[-71.57173,-35.536696],[-71.571566,-35.536398],[-71.571365,-35.536031],[-71.570918,-35.535217],[-71.570733,-35.534881],[-71.570575,-35.534594],[-71.570265,-35.534029],[-71.570261,-35.534015],[-71.570244,-35.53394],[-71.570282,-35.533865],[-71.570968,-35.533501],[-71.57105,-35.533458],[-71.571207,-35.533357],[-71.571237,-35.533279],[-71.571225,-35.533205],[-71.571114,-35.532837],[-71.571094,-35.532769],[-71.571037,-35.532581],[-71.57094,-35.532259],[-71.570922,-35.5322],[-71.570735,-35.531578],[-71.570722,-35.531446],[-71.57071,-35.531315],[-71.570704,-35.531253],[-71.570699,-35.531203],[-71.570695,-35.531163],[-71.570689,-35.531152],[-71.570619,-35.531015],[-71.570908,-35.530994],[-71.570979,-35.530994],[-71.572294,-35.530916],[-71.572509,-35.530903],[-71.572846,-35.530875],[-71.573949,-35.530784],[-71.575433,-35.530214],[-71.575654,-35.530129],[-71.578283,-35.52912],[-71.578815,-35.528916],[-71.579172,-35.528832],[-71.579446,-35.52882],[-71.580683,-35.528761],[-71.581885,-35.528511],[-71.582658,-35.528083],[-71.58303,-35.527372],[-71.582631,-35.530002]]]},"properties":{"comuna":"Maule","mancha_id":"07105-88b2dd8123fffff","clase":"Bajo","nivel_medio":1.334,"nivel_medio_min":0.641,"nivel_medio_max":1.404,"pct_alto":11.9,"n_hexagonos":3,"area_ha":45.94}},{"type":"Feature","geometry":{"type":"Polygon","coordinates":[[[-71.645822,-35.470302],[-71.646447,-35.466171],[-71.651567,-35.464869],[-71.656063,-35.467699],[-71.655438,-35.47183],[-71.650318,-35.473132],[-71.645822,-35.470302]]]},"properties":{"comuna":"Maule","mancha_id":"07105-88b2dd99ddfffff","clase":"Medio","nivel_medio":1.862,"nivel_medio_min":1.862,"nivel_medio_max":1.862,"pct_alto":48.2,"n_hexagonos":1,"area_ha":61.44}},{"type":"Feature","geometry":{"type":"Polygon","coordinates":[[[-71.670799,-35.467923],[-71.671423,-35.463791],[-71.676544,-35.462488],[-71.681041,-35.465316],[-71.680416,-35.469448],[-71.675296,-35.470751],[-71.670799,-35.467923]]]},"properties":{"comuna":"Maule","mancha_id":"07105-88b2dd99c5fffff","clase":"Medio","nivel_medio":2.363,"nivel_medio_min":2.363,"nivel_medio_max":2.363,"pct_alto":77.3,"n_hexagonos":1,"area_ha":61.46}},{"type":"Feature","geometry":{"type":"Polygon","coordinates":[[[-71.672799,-35.487275],[-71.673423,-35.483145],[-71.678544,-35.481842],[-71.683041,-35.48467],[-71.688162,-35.483367],[-71.688786,-35.479236],[-71.693908,-35.477933],[-71.698405,-35.480761],[-71.697781,-35.484892],[-71.702279,-35.487719],[-71.701655,-35.49185],[-71.696533,-35.493153],[-71.692036,-35.490326],[-71.686914,-35.491628],[-71.682417,-35.488801],[-71.677296,-35.490103],[-71.672799,-35.487275]]]},"properties":{"comuna":"Maule","mancha_id":"07105-88b2dd9985fffff","clase":"Medio","nivel_medio":1.974,"nivel_medio_min":1.849,"nivel_medio_max":2.104,"pct_alto":10.2,"n_hexagonos":4,"area_ha":245.77}},{"type":"Feature","geometry":{"type":"Polygon","coordinates":[[[-71.697911,-35.516628],[-71.698535,-35.512499],[-71.703658,-35.511196],[-71.708156,-35.514023],[-71.707533,-35.518152],[-71.70241,-35.519454],[-71.697911,-35.516628]]]},"properties":{"comuna":"Maule","mancha_id":"07105-88b2dd8b45fffff","clase":"Medio","nivel_medio":2.488,"nivel_medio_min":2.488,"nivel_medio_max":2.488,"pct_alto":78.2,"n_hexagonos":1,"area_ha":61.41}},{"type":"Feature","geometry":{"type":"Polygon","coordinates":[[[-71.588846,-35.521468],[-71.588848,-35.521467],[-71.591029,-35.51994],[-71.591568,-35.519563],[-71.5935,-35.51821],[-71.593925,-35.517888],[-71.594363,-35.517556],[-71.597764,-35.514978],[-71.598938,-35.514088],[-71.599176,-35.513907],[-71.599925,-35.513339],[-71.59999,-35.51329],[-71.60082,-35.512702],[-71.601099,-35.512505],[-71.602611,-35.511435],[-71.604406,-35.510164],[-71.606362,-35.50878],[-71.606774,-35.508488],[-71.606855,-35.508361],[-71.607159,-35.507886],[-71.60765,-35.50712],[-71.607874,-35.506769],[-71.608106,-35.506406],[-71.60862,-35.505679],[-71.609348,-35.504648],[-71.609463,-35.504485],[-71.609716,-35.504126],[-71.609736,-35.504098],[-71.610305,-35.503657],[-71.610608,-35.503272],[-71.610637,-35.503235],[-71.61072,-35.50313],[-71.610812,-35.503018],[-71.610978,-35.502817],[-71.61102,-35.502765],[-71.61123,-35.50251],[-71.611432,-35.502368],[-71.612,-35.50197],[-71.6136,-35.50116],[-71.614192,-35.500836],[-71.614307,-35.500774],[-71.615445,-35.500151],[-71.61552,-35.50011],[-71.61565,-35.5],[-71.61565,-35.5],[-71.616934,-35.499077],[-71.617258,-35.498887],[-71.618356,-35.498244],[-71.61908,-35.49782],[-71.619208,-35.497733],[-71.619316,-35.497659],[-71.62101,-35.4965],[-71.62292,-35.49549],[-71.62381,-35.49478],[-71.62466,-35.49368],[-71.625029,-35.4934],[-71.62561,-35.49296],[-71.62742,-35.49128],[-71.62864,-35.48972],[-71.62922,-35.48871],[-71.62965,-35.48775],[-71.629864,-35.487398],[-71.6306,-35.48619],[-71.6313,-35.48551],[-71.63177,-35.48524],[-71.63348,-35.48462],[-71.6348,-35.48395],[-71.63591,-35.48287],[-71.636255,-35.482375],[-71.63674,-35.48168],[-71.63731,-35.48083],[-71.63784,-35.47902],[-71.638,-35.47727],[-71.63824,-35.47654],[-71.638438,-35.476151],[-71.63922,-35.47462],[-71.63978,-35.47363],[-71.64052,-35.472814],[-71.640078,-35.475735],[-71.644573,-35.478564],[-71.643949,-35.482694],[-71.648444,-35.485523],[-71.64782,-35.489653],[-71.652315,-35.492482],[-71.657436,-35.49118],[-71.658061,-35.48705],[-71.653565,-35.484222],[-71.654189,-35.480091],[-71.659309,-35.47879],[-71.663806,-35.481618],[-71.663181,-35.485749],[-71.667678,-35.488577],[-71.667053,-35.492707],[-71.661932,-35.494009],[-71.661308,-35.498138],[-71.665805,-35.500966],[-71.670926,-35.499665],[-71.675423,-35.502492],[-71.674798,-35.506622],[-71.679296,-35.509449],[-71.678671,-35.513578],[-71.67355,-35.514879],[-71.672925,-35.519007],[-71.667804,-35.520308],[-71.667179,-35.524436],[-71.671677,-35.527263],[-71.676799,-35.525962],[-71.677423,-35.521834],[-71.682545,-35.520533],[-71.687043,-35.52336],[-71.692165,-35.522058],[-71.696663,-35.524885],[-71.696039,-35.529013],[-71.700538,-35.531839],[-71.699914,-35.535966],[-71.694791,-35.537268],[-71.690293,-35.534442],[-71.68517,-35.535743],[-71.680672,-35.532916],[-71.67555,-35.534217],[-71.671052,-35.53139],[-71.66593,-35.53269],[-71.665306,-35.536817],[-71.669803,-35.539644],[-71.669179,-35.54377],[-71.673677,-35.546597],[-71.678799,-35.545297],[-71.679423,-35.54117],[-71.684546,-35.53987],[-71.689044,-35.542696],[-71.694167,-35.541395],[-71.698666,-35.54422],[-71.703789,-35.542919],[-71.704413,-35.538792],[-71.709536,-35.53749],[-71.71016,-35.533363],[-71.715283,-35.53206],[-71.715907,-35.527932],[-71.711408,-35.525106],[-71.712031,-35.520978],[-71.717154,-35.519675],[-71.721654,-35.522501],[-71.726777,-35.521197],[-71.731277,-35.524023],[-71.730653,-35.528152],[-71.735153,-35.530977],[-71.740277,-35.529673],[-71.7409,-35.525544],[-71.7364,-35.522719],[-71.737024,-35.51859],[-71.732524,-35.515765],[-71.733148,-35.511635],[-71.728648,-35.508809],[-71.729272,-35.504679],[-71.724772,-35.501853],[-71.719649,-35.503157],[-71.719026,-35.507287],[-71.713903,-35.50859],[-71.709404,-35.505764],[-71.704282,-35.507067],[-71.699783,-35.50424],[-71.694661,-35.505543],[-71.694037,-35.509672],[-71.688915,-35.510974],[-71.684417,-35.508147],[-71.685042,-35.504018],[-71.680544,-35.501191],[-71.681168,-35.497061],[-71.68629,-35.495759],[-71.690788,-35.498586],[-71.695909,-35.497283],[-71.700407,-35.50011],[-71.70553,-35.498807],[-71.710028,-35.501634],[-71.715151,-35.50033],[-71.715774,-35.4962],[-71.711276,-35.493373],[-71.711899,-35.489243],[-71.707401,-35.486415],[-71.708025,-35.482284],[-71.713147,-35.48098],[-71.713771,-35.476848],[-71.718893,-35.475544],[-71.719516,-35.471412],[-71.715018,-35.468584],[-71.715642,-35.464452],[-71.720764,-35.463146],[-71.721387,-35.459013],[-71.716889,-35.456185],[-71.717513,-35.452052],[-71.713015,-35.449224],[-71.707894,-35.450529],[-71.70727,-35.454663],[-71.711768,-35.457491],[-71.711144,-35.461624],[-71.706022,-35.462929],[-71.701525,-35.4601],[-71.696404,-35.461405],[-71.691906,-35.458576],[-71.69253,-35.454444],[-71.697651,-35.453139],[-71.698064,-35.450405],[-71.69885,-35.45028],[-71.69969,-35.44995],[-71.70054,-35.44914],[-71.70111,-35.44876],[-71.70167,-35.44856],[-71.70287,-35.44803],[-71.703298,-35.447726],[-71.703396,-35.447701],[-71.703404,-35.447651],[-71.70453,-35.44685],[-71.70578,-35.44622],[-71.7061,-35.44575],[-71.70624,-35.44512],[-71.70682,-35.44477],[-71.70747,-35.44402],[-71.70817,-35.44436],[-71.7095,-35.44549],[-71.71171,-35.44631],[-71.713399,-35.44668],[-71.71468,-35.44696],[-71.71692,-35.4473],[-71.71921,-35.44753],[-71.72135,-35.44733],[-71.72233,-35.44749],[-71.722745,-35.447554],[-71.723107,-35.44761],[-71.7233,-35.44764],[-71.72506,-35.44809],[-71.72669,-35.44914],[-71.72847,-35.45009],[-71.73113,-35.45097],[-71.732347,-35.451653],[-71.732255,-35.452268],[-71.735103,-35.454058],[-71.73603,-35.45503],[-71.736626,-35.455942],[-71.73613,-35.459229],[-71.73841,-35.460662],[-71.73894,-35.46185],[-71.74044,-35.46314],[-71.740464,-35.463151],[-71.74285,-35.46421],[-71.74617,-35.4652],[-71.74885,-35.46507],[-71.75,-35.46462],[-71.75,-35.46462],[-71.750099,-35.464581],[-71.75036,-35.46448],[-71.750944,-35.4634],[-71.755374,-35.46227],[-71.759873,-35.465096],[-71.764997,-35.463789],[-71.769497,-35.466615],[-71.77462,-35.465308],[-71.775243,-35.461174],[-71.775467,-35.461116],[-71.77658,-35.46145],[-71.77857,-35.46182],[-71.78018,-35.46275],[-71.78202,-35.46368],[-71.78448,-35.46273],[-71.784753,-35.46262],[-71.784867,-35.462691],[-71.789991,-35.461383],[-71.790468,-35.458219],[-71.79172,-35.45782],[-71.79534,-35.45644],[-71.796267,-35.456271],[-71.79798,-35.45596],[-71.80072,-35.45553],[-71.80228,-35.45476],[-71.80455,-35.45355],[-71.805908,-35.453835],[-71.80693,-35.45405],[-71.80849,-35.45512],[-71.81083,-35.4549],[-71.81341,-35.45508],[-71.815427,-35.456066],[-71.81499,-35.458971],[-71.819492,-35.461796],[-71.824617,-35.460486],[-71.824792,-35.459321],[-71.82885,-35.45908],[-71.83333,-35.45973],[-71.834605,-35.459599],[-71.83567,-35.45949],[-71.83923,-35.45912],[-71.8408,-35.45793],[-71.841662,-35.457601],[-71.844495,-35.459378],[-71.848896,-35.458252],[-71.84894,-35.45827],[-71.850613,-35.45869],[-71.85201,-35.45904],[-71.85399,-35.45922],[-71.85838,-35.45898],[-71.859373,-35.458755],[-71.8601,-35.45859],[-71.86657,-35.45832],[-71.869325,-35.458128],[-71.87045,-35.45805],[-71.87291,-35.45808],[-71.8755,-35.45873],[-71.87804,-35.4611],[-71.878595,-35.462039],[-71.87851,-35.462602],[-71.873384,-35.463914],[-71.872763,-35.46805],[-71.877267,-35.470873],[-71.876646,-35.475008],[-71.871519,-35.47632],[-71.870898,-35.480455],[-71.865771,-35.481766],[-71.861267,-35.478943],[-71.85614,-35.480254],[-71.855519,-35.484388],[-71.850392,-35.485699],[-71.845888,-35.482876],[-71.840763,-35.484186],[-71.840141,-35.48832],[-71.844644,-35.491143],[-71.84977,-35.489833],[-71.854275,-35.492656],[-71.853653,-35.496789],[-71.857774,-35.499371],[-71.857703,-35.499528],[-71.857507,-35.5],[-71.85666,-35.502044],[-71.855372,-35.503945],[-71.852979,-35.504313],[-71.850967,-35.504151],[-71.849176,-35.504007],[-71.845679,-35.503577],[-71.843739,-35.503296],[-71.84198,-35.503041],[-71.841447,-35.502964],[-71.838686,-35.502657],[-71.835251,-35.502228],[-71.833422,-35.501958],[-71.838274,-35.500718],[-71.838896,-35.496586],[-71.834393,-35.493762],[-71.829267,-35.495072],[-71.828645,-35.499204],[-71.823519,-35.500513],[-71.823085,-35.503393],[-71.822083,-35.503393],[-71.819629,-35.50372],[-71.817339,-35.504947],[-71.817131,-35.505553],[-71.816357,-35.50781],[-71.81513,-35.509936],[-71.813574,-35.510997],[-71.812023,-35.511393],[-71.811916,-35.512101],[-71.808747,-35.514139],[-71.807164,-35.515071],[-71.804934,-35.515991],[-71.801772,-35.514008],[-71.796647,-35.515315],[-71.792144,-35.512491],[-71.792767,-35.50836],[-71.788265,-35.505536],[-71.783141,-35.506843],[-71.782518,-35.510974],[-71.78702,-35.513798],[-71.786397,-35.517928],[-71.781272,-35.519234],[-71.780649,-35.523364],[-71.775524,-35.52467],[-71.774901,-35.5288],[-71.779403,-35.531623],[-71.77878,-35.535753],[-71.773655,-35.537058],[-71.769153,-35.534234],[-71.764028,-35.535538],[-71.763405,-35.539667],[-71.75828,-35.540971],[-71.753779,-35.538147],[-71.748655,-35.539451],[-71.748031,-35.543579],[-71.752532,-35.546403],[-71.751909,-35.55053],[-71.75641,-35.553354],[-71.761535,-35.552051],[-71.766037,-35.554874],[-71.765414,-35.559001],[-71.760289,-35.560305],[-71.759665,-35.564432],[-71.75454,-35.565735],[-71.753972,-35.569494],[-71.752996,-35.569548],[-71.751997,-35.569965],[-71.750414,-35.570465],[-71.75,-35.570603],[-71.748915,-35.570964],[-71.748627,-35.57106],[-71.747916,-35.571297],[-71.746084,-35.57188],[-71.745334,-35.572214],[-71.744585,-35.57238],[-71.743835,-35.572463],[-71.742902,-35.572363],[-71.742369,-35.572164],[-71.741518,-35.571556],[-71.741355,-35.569984],[-71.740957,-35.569187],[-71.740541,-35.568357],[-71.740053,-35.566893],[-71.739186,-35.565157],[-71.737667,-35.563476],[-71.736311,-35.562663],[-71.735588,-35.562616],[-71.735119,-35.562586],[-71.733763,-35.5625],[-71.731322,-35.562717],[-71.729532,-35.562771],[-71.728247,-35.562232],[-71.726708,-35.562135],[-71.725475,-35.562417],[-71.724881,-35.562552],[-71.72315,-35.563001],[-71.719944,-35.562969],[-71.718213,-35.563161],[-71.715585,-35.563129],[-71.715514,-35.563121],[-71.714375,-35.562993],[-71.713454,-35.562569],[-71.711655,-35.56137],[-71.709589,-35.559771],[-71.709188,-35.559117],[-71.708817,-35.558467],[-71.708747,-35.557725],[-71.708703,-35.557543],[-71.708585,-35.557053],[-71.70833,-35.556126],[-71.70731,-35.555546],[-71.706429,-35.55536],[-71.704922,-35.555407],[-71.703113,-35.554758],[-71.702065,-35.554314],[-71.701907,-35.554248],[-71.70081,-35.553915],[-71.700006,-35.553575],[-71.699233,-35.552957],[-71.698615,-35.552524],[-71.697657,-35.551968],[-71.696791,-35.551627],[-71.695709,-35.55172],[-71.69407,-35.551411],[-71.693297,-35.550916],[-71.69274,-35.550831],[-71.692494,-35.550793],[-71.690577,-35.551442],[-71.68965,-35.551658],[-71.688938,-35.551875],[-71.687795,-35.552308],[-71.686589,-35.552524],[-71.685816,-35.553142],[-71.685167,-35.553699],[-71.685117,-35.553784],[-71.684734,-35.554441],[-71.684178,-35.555028],[-71.683157,-35.555925],[-71.682323,-35.556203],[-71.68134,-35.556307],[-71.680407,-35.556307],[-71.679008,-35.556373],[-71.67796,-35.5565],[-71.677137,-35.556279],[-71.676955,-35.55623],[-71.675448,-35.555882],[-71.674834,-35.555828],[-71.674016,-35.556017],[-71.673811,-35.556785],[-71.673504,-35.557297],[-71.672326,-35.558015],[-71.670849,-35.558046],[-71.670343,-35.558057],[-71.668956,-35.558085],[-71.667565,-35.557582],[-71.665826,-35.557312],[-71.664087,-35.557467],[-71.662618,-35.557892],[-71.662096,-35.558022],[-71.661536,-35.558162],[-71.660454,-35.558239],[-71.659565,-35.557892],[-71.65829,-35.557969],[-71.65686,-35.558239],[-71.655044,-35.559515],[-71.653524,-35.56104],[-71.653374,-35.56119],[-71.651838,-35.5616],[-71.65066,-35.562061],[-71.650045,-35.562829],[-71.649277,-35.563802],[-71.648816,-35.564776],[-71.647141,-35.566064],[-71.646192,-35.565467],[-71.64107,-35.566765],[-71.640839,-35.568293],[-71.639698,-35.569334],[-71.637393,-35.570871],[-71.636369,-35.571793],[-71.635447,-35.57169],[-71.634423,-35.571178],[-71.633531,-35.571059],[-71.632886,-35.570973],[-71.631145,-35.570717],[-71.629557,-35.571025],[-71.627303,-35.571281],[-71.625611,-35.571281],[-71.625459,-35.571281],[-71.624332,-35.572049],[-71.623513,-35.573432],[-71.622181,-35.574764],[-71.621455,-35.575698],[-71.619959,-35.576076],[-71.615463,-35.573249],[-71.610341,-35.574545],[-71.609716,-35.578668],[-71.604595,-35.579964],[-71.604109,-35.583166],[-71.603904,-35.583351],[-71.603534,-35.584196],[-71.601094,-35.584814],[-71.599798,-35.584547],[-71.59862,-35.583164],[-71.597749,-35.582754],[-71.595598,-35.582959],[-71.59523,-35.583106],[-71.594317,-35.583471],[-71.592968,-35.583583],[-71.591149,-35.583801],[-71.590282,-35.583966],[-71.589635,-35.584184],[-71.589119,-35.584597],[-71.588945,-35.584736],[-71.588094,-35.585547],[-71.587112,-35.58559],[-71.586388,-35.585404],[-71.585209,-35.585135],[-71.583658,-35.58497],[-71.582562,-35.584928],[-71.581764,-35.584674],[-71.580382,-35.584383],[-71.579314,-35.584312],[-71.579291,-35.58431],[-71.578715,-35.584535],[-71.578219,-35.584845],[-71.577618,-35.585619],[-71.576668,-35.586334],[-71.575903,-35.586789],[-71.573961,-35.579781],[-71.573063,-35.57654],[-71.575659,-35.575953],[-71.581694,-35.574591],[-71.5836,-35.57416],[-71.58459,-35.57392],[-71.58517,-35.57289],[-71.58379,-35.569368],[-71.58343,-35.56845],[-71.58173,-35.56527],[-71.58167,-35.56459],[-71.582,-35.56434],[-71.58241,-35.56407],[-71.58269,-35.56368],[-71.58263,-35.56299],[-71.58254,-35.56219],[-71.582371,-35.561797],[-71.58232,-35.56168],[-71.58203,-35.56114],[-71.5817,-35.56051],[-71.58139,-35.55991],[-71.58111,-35.55924],[-71.58084,-35.5586],[-71.58062,-35.55799],[-71.57886,-35.55498],[-71.57882,-35.55479],[-71.57881,-35.554767],[-71.57774,-35.55226],[-71.577013,-35.550643],[-71.576842,-35.550263],[-71.57617,-35.54877],[-71.575956,-35.548394],[-71.575912,-35.548316],[-71.575345,-35.547318],[-71.575141,-35.546924],[-71.575107,-35.546858],[-71.574733,-35.546133],[-71.57458,-35.545837],[-71.574515,-35.545679],[-71.574545,-35.545581],[-71.574658,-35.545507],[-71.575398,-35.545235],[-71.576279,-35.544912],[-71.575633,-35.543681],[-71.575627,-35.543669],[-71.575397,-35.543229],[-71.575018,-35.542506],[-71.574826,-35.542161],[-71.574298,-35.541209],[-71.573432,-35.539702],[-71.573197,-35.539294],[-71.572779,-35.538563],[-71.572133,-35.537432],[-71.572119,-35.537407],[-71.571761,-35.536754],[-71.571767,-35.53672],[-71.576886,-35.535424],[-71.577512,-35.531299],[-71.582631,-35.530002],[-71.58303,-35.527372],[-71.583062,-35.52731],[-71.583407,-35.52656],[-71.583468,-35.526501],[-71.584208,-35.525782],[-71.584412,-35.525584],[-71.585453,-35.524573],[-71.586273,-35.524031],[-71.586615,-35.523805],[-71.587286,-35.523122],[-71.58735,-35.522979],[-71.58756,-35.522515],[-71.588642,-35.521611],[-71.588846,-35.521468]],[[-71.597989,-35.526112],[-71.59287,-35.527409],[-71.592244,-35.531535],[-71.596739,-35.534364],[-71.601858,-35.533067],[-71.602484,-35.528941],[-71.597989,-35.526112]],[[-71.646817,-35.561343],[-71.651939,-35.560044],[-71.652564,-35.555919],[-71.648067,-35.553093],[-71.642945,-35.554391],[-71.64232,-35.558516],[-71.646817,-35.561343]],[[-71.622964,-35.523749],[-71.623589,-35.519622],[-71.619094,-35.516794],[-71.613974,-35.518092],[-71.613349,-35.522219],[-71.617844,-35.525048],[-71.617219,-35.529174],[-71.621714,-35.532002],[-71.626835,-35.530704],[-71.631331,-35.533532],[-71.636451,-35.532234],[-71.637076,-35.528107],[-71.63258,-35.525279],[-71.62746,-35.526578],[-71.622964,-35.523749]],[[-71.649817,-35.508997],[-71.654313,-35.511825],[-71.659434,-35.510525],[-71.663931,-35.513353],[-71.669053,-35.512052],[-71.669677,-35.507923],[-71.66518,-35.505095],[-71.660059,-35.506396],[-71.655563,-35.503568],[-71.650442,-35.504869],[-71.649817,-35.508997]],[[-71.59236,-35.563235],[-71.58724,-35.564531],[-71.586614,-35.568654],[-71.591109,-35.571482],[-71.59623,-35.570186],[-71.600725,-35.573014],[-71.605846,-35.571718],[-71.606471,-35.567595],[-71.611592,-35.566299],[-71.612217,-35.562175],[-71.607722,-35.559348],[-71.602601,-35.560644],[-71.598106,-35.557816],[-71.592986,-35.559112],[-71.59236,-35.563235]],[[-71.583371,-35.557579],[-71.588491,-35.556284],[-71.589117,-35.55216],[-71.584622,-35.549331],[-71.579503,-35.550627],[-71.578877,-35.554751],[-71.583371,-35.557579]],[[-71.594237,-35.550864],[-71.598732,-35.553692],[-71.603852,-35.552396],[-71.604477,-35.548271],[-71.599982,-35.545443],[-71.594862,-35.546739],[-71.594237,-35.550864]],[[-71.728782,-35.540536],[-71.733282,-35.543361],[-71.738406,-35.542058],[-71.73903,-35.53793],[-71.73453,-35.535105],[-71.729406,-35.536408],[-71.728782,-35.540536]],[[-71.797892,-35.507053],[-71.802395,-35.509877],[-71.80752,-35.50857],[-71.808143,-35.504438],[-71.80364,-35.501614],[-71.798515,-35.502922],[-71.797892,-35.507053]],[[-71.772892,-35.509455],[-71.773515,-35.505324],[-71.769013,-35.5025],[-71.769636,-35.498368],[-71.765136,-35.495543],[-71.760012,-35.496849],[-71.759389,-35.50098],[-71.754265,-35.502286],[-71.753642,-35.506416],[-71.758142,-35.509242],[-71.763266,-35.507936],[-71.767767,-35.510761],[-71.772892,-35.509455]],[[-71.80613,-35.485084],[-71.805508,-35.489217],[-71.81001,-35.492042],[-71.815135,-35.490733],[-71.819638,-35.493557],[-71.824764,-35.492248],[-71.825386,-35.488115],[-71.830511,-35.486806],[-71.831134,-35.482672],[-71.82663,-35.479848],[-71.821505,-35.481158],[-71.817002,-35.478333],[-71.817625,-35.4742],[-71.813122,-35.471375],[-71.813745,-35.467241],[-71.809243,-35.464416],[-71.804118,-35.465725],[-71.803496,-35.469859],[-71.807998,-35.472684],[-71.807375,-35.476818],[-71.802251,-35.478127],[-71.801628,-35.48226],[-71.80613,-35.485084]],[[-71.792002,-35.480743],[-71.792625,-35.47661],[-71.788123,-35.473785],[-71.782999,-35.475093],[-71.778498,-35.472267],[-71.773374,-35.473575],[-71.772751,-35.477708],[-71.777252,-35.480533],[-71.782376,-35.479226],[-71.786878,-35.482051],[-71.792002,-35.480743]],[[-71.756272,-35.521631],[-71.761397,-35.520327],[-71.76202,-35.516197],[-71.757519,-35.513372],[-71.752395,-35.514677],[-71.751772,-35.518807],[-71.756272,-35.521631]],[[-71.754127,-35.470536],[-71.749628,-35.46771],[-71.744505,-35.469016],[-71.743882,-35.473149],[-71.748381,-35.475976],[-71.753504,-35.474669],[-71.754127,-35.470536]],[[-71.745888,-35.492503],[-71.750388,-35.495329],[-71.755511,-35.494024],[-71.756135,-35.489892],[-71.761258,-35.488586],[-71.761881,-35.484454],[-71.757381,-35.481628],[-71.752258,-35.482934],[-71.747758,-35.480108],[-71.742635,-35.481414],[-71.738135,-35.478587],[-71.733013,-35.479893],[-71.732389,-35.484025],[-71.736889,-35.486851],[-71.742011,-35.485546],[-71.746511,-35.488372],[-71.745888,-35.492503]],[[-71.726643,-35.489461],[-71.727267,-35.485329],[-71.722768,-35.482503],[-71.717645,-35.483807],[-71.717022,-35.487938],[-71.72152,-35.490765],[-71.726643,-35.489461]],[[-71.838125,-35.468959],[-71.838747,-35.464825],[-71.834244,-35.462],[-71.829119,-35.463311],[-71.828497,-35.467446],[-71.823372,-35.468756],[-71.82275,-35.47289],[-71.827253,-35.475714],[-71.832378,-35.474404],[-71.833,-35.47027],[-71.838125,-35.468959]],[[-71.858006,-35.46785],[-71.857384,-35.471985],[-71.861888,-35.474809],[-71.867015,-35.473497],[-71.867636,-35.469362],[-71.863132,-35.466538],[-71.863754,-35.462403],[-71.85925,-35.459579],[-71.854124,-35.460891],[-71.853502,-35.465026],[-71.858006,-35.46785]]]},"properties":{"comuna":"Maule","mancha_id":"07105-88b2dd8121fffff","clase":"Medio","nivel_medio":2.042,"nivel_medio_min":1.503,"nivel_medio_max":2.495,"pct_alto":23.0,"n_hexagonos":288,"area_ha":15865.23}},{"type":"Feature","geometry":{"type":"Polygon","coordinates":[[[-71.857384,-35.471985],[-71.858006,-35.46785],[-71.853502,-35.465026],[-71.854124,-35.460891],[-71.85925,-35.459579],[-71.863754,-35.462403],[-71.863132,-35.466538],[-71.867636,-35.469362],[-71.867015,-35.473497],[-71.861888,-35.474809],[-71.857384,-35.471985]]]},"properties":{"comuna":"Maule","mancha_id":"07105-88b2ddd729fffff","clase":"Alto","nivel_medio":2.625,"nivel_medio_min":2.56,"nivel_medio_max":2.69,"pct_alto":63.1,"n_hexagonos":2,"area_ha":123.15}},{"type":"Feature","geometry":{"type":"Polygon","coordinates":[[[-71.828497,-35.467446],[-71.829119,-35.463311],[-71.834244,-35.462],[-71.838747,-35.464825],[-71.838125,-35.468959],[-71.833,-35.47027],[-71.832378,-35.474404],[-71.827253,-35.475714],[-71.82275,-35.47289],[-71.823372,-35.468756],[-71.828497,-35.467446]]]},"properties":{"comuna":"Maule","mancha_id":"07105-88b2ddd70bfffff","clase":"Alto","nivel_medio":2.566,"nivel_medio_min":2.523,"nivel_medio_max":2.609,"pct_alto":38.3,"n_hexagonos":2,"area_ha":123.11}},{"type":"Feature","geometry":{"type":"Polygon","coordinates":[[[-71.717022,-35.487938],[-71.717645,-35.483807],[-71.722768,-35.482503],[-71.727267,-35.485329],[-71.726643,-35.489461],[-71.72152,-35.490765],[-71.717022,-35.487938]]]},"properties":{"comuna":"Maule","mancha_id":"07105-88b2ddd6d5fffff","clase":"Alto","nivel_medio":2.58,"nivel_medio_min":2.58,"nivel_medio_max":2.58,"pct_alto":53.0,"n_hexagonos":1,"area_ha":61.46}},{"type":"Feature","geometry":{"type":"Polygon","coordinates":[[[-71.732389,-35.484025],[-71.733013,-35.479893],[-71.738135,-35.478587],[-71.742635,-35.481414],[-71.747758,-35.480108],[-71.752258,-35.482934],[-71.757381,-35.481628],[-71.761881,-35.484454],[-71.761258,-35.488586],[-71.756135,-35.489892],[-71.755511,-35.494024],[-71.750388,-35.495329],[-71.745888,-35.492503],[-71.746511,-35.488372],[-71.742011,-35.485546],[-71.736889,-35.486851],[-71.732389,-35.484025]]]},"properties":{"comuna":"Maule","mancha_id":"07105-88b2ddd6c7fffff","clase":"Alto","nivel_medio":2.732,"nivel_medio_min":2.519,"nivel_medio_max":3.036,"pct_alto":70.6,"n_hexagonos":4,"area_ha":245.92}},{"type":"Feature","geometry":{"type":"Polygon","coordinates":[[[-71.753642,-35.506416],[-71.754265,-35.502286],[-71.759389,-35.50098],[-71.760012,-35.496849],[-71.765136,-35.495543],[-71.769636,-35.498368],[-71.769013,-35.5025],[-71.773515,-35.505324],[-71.772892,-35.509455],[-71.767767,-35.510761],[-71.763266,-35.507936],[-71.758142,-35.509242],[-71.753642,-35.506416]]]},"properties":{"comuna":"Maule","mancha_id":"07105-88b2ddd6a1fffff","clase":"Alto","nivel_medio":2.721,"nivel_medio_min":2.631,"nivel_medio_max":2.89,"pct_alto":72.1,"n_hexagonos":3,"area_ha":184.38}},{"type":"Feature","geometry":{"type":"Polygon","coordinates":[[[-71.772751,-35.477708],[-71.773374,-35.473575],[-71.778498,-35.472267],[-71.782999,-35.475093],[-71.788123,-35.473785],[-71.792625,-35.47661],[-71.792002,-35.480743],[-71.786878,-35.482051],[-71.782376,-35.479226],[-71.777252,-35.480533],[-71.772751,-35.477708]]]},"properties":{"comuna":"Maule","mancha_id":"07105-88b2ddd631fffff","clase":"Alto","nivel_medio":2.669,"nivel_medio_min":2.609,"nivel_medio_max":2.729,"pct_alto":62.7,"n_hexagonos":2,"area_ha":123.03}},{"type":"Feature","geometry":{"type":"Polygon","coordinates":[[[-71.743882,-35.473149],[-71.744505,-35.469016],[-71.749628,-35.46771],[-71.754127,-35.470536],[-71.753504,-35.474669],[-71.748381,-35.475976],[-71.743882,-35.473149]]]},"properties":{"comuna":"Maule","mancha_id":"07105-88b2ddd613fffff","clase":"Alto","nivel_medio":2.613,"nivel_medio_min":2.613,"nivel_medio_max":2.613,"pct_alto":77.6,"n_hexagonos":1,"area_ha":61.5}},{"type":"Feature","geometry":{"type":"Polygon","coordinates":[[[-71.728782,-35.540536],[-71.729406,-35.536408],[-71.73453,-35.535105],[-71.73903,-35.53793],[-71.738406,-35.542058],[-71.733282,-35.543361],[-71.728782,-35.540536]]]},"properties":{"comuna":"Maule","mancha_id":"07105-88b2ddd4d3fffff","clase":"Alto","nivel_medio":2.58,"nivel_medio_min":2.58,"nivel_medio_max":2.58,"pct_alto":65.2,"n_hexagonos":1,"area_ha":61.39}},{"type":"Feature","geometry":{"type":"Polygon","coordinates":[[[-71.751772,-35.518807],[-71.752395,-35.514677],[-71.757519,-35.513372],[-71.76202,-35.516197],[-71.761397,-35.520327],[-71.756272,-35.521631],[-71.751772,-35.518807]]]},"properties":{"comuna":"Maule","mancha_id":"07105-88b2ddd4c9fffff","clase":"Alto","nivel_medio":2.627,"nivel_medio_min":2.627,"nivel_medio_max":2.627,"pct_alto":62.7,"n_hexagonos":1,"area_ha":61.44}},{"type":"Feature","geometry":{"type":"Polygon","coordinates":[[[-71.805508,-35.489217],[-71.80613,-35.485084],[-71.801628,-35.48226],[-71.802251,-35.478127],[-71.807375,-35.476818],[-71.807998,-35.472684],[-71.803496,-35.469859],[-71.804118,-35.465725],[-71.809243,-35.464416],[-71.813745,-35.467241],[-71.813122,-35.471375],[-71.817625,-35.4742],[-71.817002,-35.478333],[-71.821505,-35.481158],[-71.82663,-35.479848],[-71.831134,-35.482672],[-71.830511,-35.486806],[-71.825386,-35.488115],[-71.824764,-35.492248],[-71.819638,-35.493557],[-71.815135,-35.490733],[-71.81001,-35.492042],[-71.805508,-35.489217]]]},"properties":{"comuna":"Maule","mancha_id":"07105-88b2ddd445fffff","clase":"Alto","nivel_medio":2.782,"nivel_medio_min":2.682,"nivel_medio_max":2.901,"pct_alto":77.5,"n_hexagonos":7,"area_ha":430.69}},{"type":"Feature","geometry":{"type":"Polygon","coordinates":[[[-71.703404,-35.447651],[-71.703396,-35.447701],[-71.703298,-35.447726],[-71.703404,-35.447651]]]},"properties":{"comuna":"Maule","mancha_id":"07105-88b2dd990bfffff","clase":"Alto","nivel_medio":3.0,"nivel_medio_min":3.0,"nivel_medio_max":3.0,"pct_alto":100.0,"n_hexagonos":1,"area_ha":0.0}},{"type":"Feature","geometry":{"type":"Polygon","coordinates":[[[-71.667552,-35.45683],[-71.663056,-35.454],[-71.66333,-35.452185],[-71.66383,-35.45222],[-71.66606,-35.45254],[-71.66747,-35.4526],[-71.67109,-35.45264],[-71.67209,-35.45265],[-71.673157,-35.452313],[-71.672672,-35.455526],[-71.667552,-35.45683]]]},"properties":{"comuna":"Maule","mancha_id":"07105-88b2dd9827fffff","clase":"Alto","nivel_medio":2.598,"nivel_medio_min":2.598,"nivel_medio_max":2.598,"pct_alto":83.5,"n_hexagonos":1,"area_ha":32.45}},{"type":"Feature","geometry":{"type":"Polygon","coordinates":[[[-71.699914,-35.535966],[-71.700538,-35.531839],[-71.696039,-35.529013],[-71.696663,-35.524885],[-71.701786,-35.523583],[-71.70241,-35.519454],[-71.707533,-35.518152],[-71.708156,-35.514023],[-71.703658,-35.511196],[-71.698535,-35.512499],[-71.697911,-35.516628],[-71.692789,-35.51793],[-71.688291,-35.515103],[-71.683169,-35.516405],[-71.682545,-35.520533],[-71.677423,-35.521834],[-71.676799,-35.525962],[-71.671677,-35.527263],[-71.667179,-35.524436],[-71.667804,-35.520308],[-71.672925,-35.519007],[-71.67355,-35.514879],[-71.678671,-35.513578],[-71.679296,-35.509449],[-71.674798,-35.506622],[-71.675423,-35.502492],[-71.670926,-35.499665],[-71.665805,-35.500966],[-71.661308,-35.498138],[-71.661932,-35.494009],[-71.667053,-35.492707],[-71.667678,-35.488577],[-71.663181,-35.485749],[-71.663806,-35.481618],[-71.659309,-35.47879],[-71.659934,-35.474659],[-71.665054,-35.473357],[-71.665679,-35.469225],[-71.661183,-35.466396],[-71.656063,-35.467699],[-71.651567,-35.464869],[-71.646447,-35.466171],[-71.645822,-35.470302],[-71.650318,-35.473132],[-71.649693,-35.477262],[-71.654189,-35.480091],[-71.653565,-35.484222],[-71.658061,-35.48705],[-71.657436,-35.49118],[-71.652315,-35.492482],[-71.64782,-35.489653],[-71.648444,-35.485523],[-71.643949,-35.482694],[-71.644573,-35.478564],[-71.640078,-35.475735],[-71.64052,-35.472814],[-71.64113,-35.47214],[-71.641456,-35.471412],[-71.64152,-35.47127],[-71.64175,-35.47021],[-71.64207,-35.46943],[-71.64285,-35.46748],[-71.64281,-35.46695],[-71.64229,-35.46629],[-71.64215,-35.46596],[-71.643,-35.46428],[-71.643019,-35.464013],[-71.64304,-35.46371],[-71.64262,-35.46286],[-71.64217,-35.46197],[-71.642161,-35.461957],[-71.64145,-35.46093],[-71.6406,-35.46029],[-71.64065,-35.45994],[-71.64119,-35.45947],[-71.642072,-35.458892],[-71.642577,-35.45921],[-71.647696,-35.457908],[-71.652191,-35.460738],[-71.657311,-35.459435],[-71.661807,-35.462265],[-71.666927,-35.460962],[-71.671423,-35.463791],[-71.670799,-35.467923],[-71.675296,-35.470751],[-71.680416,-35.469448],[-71.681041,-35.465316],[-71.686161,-35.464013],[-71.686785,-35.45988],[-71.691906,-35.458576],[-71.696404,-35.461405],[-71.701525,-35.4601],[-71.706022,-35.462929],[-71.711144,-35.461624],[-71.711768,-35.457491],[-71.70727,-35.454663],[-71.707894,-35.450529],[-71.713015,-35.449224],[-71.717513,-35.452052],[-71.716889,-35.456185],[-71.721387,-35.459013],[-71.720764,-35.463146],[-71.715642,-35.464452],[-71.715018,-35.468584],[-71.719516,-35.471412],[-71.718893,-35.475544],[-71.713771,-35.476848],[-71.713147,-35.48098],[-71.708025,-35.482284],[-71.707401,-35.486415],[-71.711899,-35.489243],[-71.711276,-35.493373],[-71.715774,-35.4962],[-71.715151,-35.50033],[-71.710028,-35.501634],[-71.70553,-35.498807],[-71.700407,-35.50011],[-71.695909,-35.497283],[-71.690788,-35.498586],[-71.68629,-35.495759],[-71.681168,-35.497061],[-71.680544,-35.501191],[-71.685042,-35.504018],[-71.684417,-35.508147],[-71.688915,-35.510974],[-71.694037,-35.509672],[-71.694661,-35.505543],[-71.699783,-35.50424],[-71.704282,-35.507067],[-71.709404,-35.505764],[-71.713903,-35.50859],[-71.719026,-35.507287],[-71.719649,-35.503157],[-71.724772,-35.501853],[-71.729272,-35.504679],[-71.728648,-35.508809],[-71.733148,-35.511635],[-71.732524,-35.515765],[-71.737024,-35.51859],[-71.7364,-35.522719],[-71.7409,-35.525544],[-71.740277,-35.529673],[-71.735153,-35.530977],[-71.730653,-35.528152],[-71.731277,-35.524023],[-71.726777,-35.521197],[-71.721654,-35.522501],[-71.717154,-35.519675],[-71.712031,-35.520978],[-71.711408,-35.525106],[-71.715907,-35.527932],[-71.715283,-35.53206],[-71.71016,-35.533363],[-71.709536,-35.53749],[-71.704413,-35.538792],[-71.703789,-35.542919],[-71.698666,-35.54422],[-71.694167,-35.541395],[-71.694791,-35.537268],[-71.699914,-35.535966]],[[-71.673423,-35.483145],[-71.672799,-35.487275],[-71.677296,-35.490103],[-71.682417,-35.488801],[-71.686914,-35.491628],[-71.692036,-35.490326],[-71.696533,-35.493153],[-71.701655,-35.49185],[-71.702279,-35.487719],[-71.697781,-35.484892],[-71.698405,-35.480761],[-71.693908,-35.477933],[-71.688786,-35.479236],[-71.688162,-35.483367],[-71.683041,-35.48467],[-71.678544,-35.481842],[-71.673423,-35.483145]]]},"properties":{"comuna":"Maule","mancha_id":"07105-88b2dd8b05fffff","clase":"Alto","nivel_medio":2.796,"nivel_medio_min":2.516,"nivel_medio_max":3.179,"pct_alto":68.2,"n_hexagonos":54,"area_ha":3218.71}},{"type":"Feature","geometry":{"type":"Polygon","coordinates":[[[-71.594237,-35.550864],[-71.594862,-35.546739],[-71.599982,-35.545443],[-71.604477,-35.548271],[-71.603852,-35.552396],[-71.598732,-35.553692],[-71.594237,-35.550864]]]},"properties":{"comuna":"Maule","mancha_id":"07105-88b2dd8aebfffff","clase":"Alto","nivel_medio":2.567,"nivel_medio_min":2.567,"nivel_medio_max":2.567,"pct_alto":62.7,"n_hexagonos":1,"area_ha":61.29}},{"type":"Feature","geometry":{"type":"Polygon","coordinates":[[[-71.578877,-35.554751],[-71.579503,-35.550627],[-71.584622,-35.549331],[-71.589117,-35.55216],[-71.588491,-35.556284],[-71.583371,-35.557579],[-71.578877,-35.554751]]]},"properties":{"comuna":"Maule","mancha_id":"07105-88b2dd8a89fffff","clase":"Alto","nivel_medio":2.539,"nivel_medio_min":2.539,"nivel_medio_max":2.539,"pct_alto":52.3,"n_hexagonos":1,"area_ha":61.28}},{"type":"Feature","geometry":{"type":"Polygon","coordinates":[[[-71.649817,-35.508997],[-71.650442,-35.504869],[-71.655563,-35.503568],[-71.660059,-35.506396],[-71.66518,-35.505095],[-71.669677,-35.507923],[-71.669053,-35.512052],[-71.663931,-35.513353],[-71.659434,-35.510525],[-71.654313,-35.511825],[-71.649817,-35.508997]]]},"properties":{"comuna":"Maule","mancha_id":"07105-88b2dd8a6dfffff","clase":"Alto","nivel_medio":2.696,"nivel_medio_min":2.512,"nivel_medio_max":2.879,"pct_alto":58.2,"n_hexagonos":2,"area_ha":122.78}},{"type":"Feature","geometry":{"type":"Polygon","coordinates":[[[-71.655438,-35.47183],[-71.656063,-35.467699],[-71.661183,-35.466396],[-71.665679,-35.469225],[-71.665054,-35.473357],[-71.659934,-35.474659],[-71.655438,-35.47183]]]},"properties":{"comuna":"Maule","mancha_id":"07105-88b2dd99c3fffff","clase":"Muy Alto","nivel_medio":3.738,"nivel_medio_min":3.738,"nivel_medio_max":3.738,"pct_alto":96.2,"n_hexagonos":1,"area_ha":61.45}}],"bbox":[-71.88293,-35.58679,-71.57024,-35.44402]}