{"type":"FeatureCollection","features":[{"type":"Feature","geometry":{"type":"Polygon","coordinates":[[[-71.645699,-35.438548],[-71.64058,-35.43985],[-71.639956,-35.443983],[-71.634837,-35.445285],[-71.634212,-35.449418],[-71.629093,-35.450719],[-71.624599,-35.447889],[-71.625223,-35.443756],[-71.62073,-35.440925],[-71.621354,-35.436793],[-71.626473,-35.435491],[-71.627098,-35.431358],[-71.622604,-35.428526],[-71.623229,-35.424393],[-71.628347,-35.42309],[-71.628972,-35.418956],[-71.63409,-35.417653],[-71.634715,-35.413518],[-71.639833,-35.412215],[-71.640458,-35.40808],[-71.645576,-35.406776],[-71.646201,-35.40264],[-71.651319,-35.401336],[-71.655814,-35.404167],[-71.660932,-35.402863],[-71.665427,-35.405694],[-71.664803,-35.409829],[-71.659684,-35.411134],[-71.65906,-35.415269],[-71.663555,-35.4181],[-71.668674,-35.416796],[-71.673169,-35.419626],[-71.672545,-35.423761],[-71.677041,-35.426591],[-71.676417,-35.430725],[-71.680913,-35.433555],[-71.686033,-35.43225],[-71.690529,-35.43508],[-71.689905,-35.439214],[-71.694402,-35.442043],[-71.693778,-35.446177],[-71.688657,-35.447482],[-71.684161,-35.444652],[-71.679041,-35.445957],[-71.678416,-35.45009],[-71.679744,-35.450925],[-71.67875,-35.45093],[-71.67726,-35.45109],[-71.67571,-35.45133],[-71.67418,-35.45199],[-71.673157,-35.452313],[-71.673296,-35.451394],[-71.6688,-35.448564],[-71.66368,-35.449868],[-71.659185,-35.447038],[-71.654065,-35.448341],[-71.64957,-35.445511],[-71.650194,-35.441378],[-71.645699,-35.438548]],[[-71.63796,-35.424619],[-71.642454,-35.42745],[-71.647573,-35.426146],[-71.648197,-35.422012],[-71.643703,-35.419181],[-71.638584,-35.420484],[-71.63796,-35.424619]]]},"properties":{"comuna":"Talca","mancha_id":"07101-88b2dd9801fffff","clase":"Muy Bajo","nivel_medio":0.227,"nivel_medio_min":0.023,"nivel_medio_max":0.478,"pct_alto":6.4,"n_hexagonos":33,"area_ha":1972.52}},{"type":"Feature","geometry":{"type":"Polygon","coordinates":[[[-71.65906,-35.415269],[-71.659684,-35.411134],[-71.664803,-35.409829],[-71.669298,-35.41266],[-71.668674,-35.416796],[-71.663555,-35.4181],[-71.65906,-35.415269]]]},"properties":{"comuna":"Talca","mancha_id":"07101-88b2dd9b17fffff","clase":"Bajo","nivel_medio":1.114,"nivel_medio_min":1.114,"nivel_medio_max":1.114,"pct_alto":24.6,"n_hexagonos":1,"area_ha":61.54}},{"type":"Feature","geometry":{"type":"Polygon","coordinates":[[[-71.566823,-35.406937],[-71.567448,-35.402803],[-71.572564,-35.401503],[-71.577055,-35.404336],[-71.582172,-35.403035],[-71.586663,-35.405868],[-71.586038,-35.410003],[-71.580921,-35.411304],[-71.57643,-35.40847],[-71.571314,-35.409771],[-71.570688,-35.413905],[-71.565572,-35.415205],[-71.564946,-35.419338],[-71.55983,-35.420638],[-71.559204,-35.42477],[-71.554088,-35.42607],[-71.549597,-35.423236],[-71.544481,-35.424535],[-71.539991,-35.421701],[-71.540617,-35.417569],[-71.539993,-35.417174],[-71.540403,-35.417271],[-71.541013,-35.417468],[-71.5411,-35.417496],[-71.541603,-35.41782],[-71.542093,-35.418336],[-71.54247,-35.41882],[-71.543186,-35.419429],[-71.544057,-35.419667],[-71.545059,-35.41972],[-71.546141,-35.419588],[-71.54717,-35.419403],[-71.54841,-35.419034],[-71.549283,-35.41851],[-71.549597,-35.418321],[-71.55088,-35.417397],[-71.55243,-35.41642],[-71.553713,-35.415762],[-71.554716,-35.415023],[-71.555198,-35.414526],[-71.555524,-35.414189],[-71.555308,-35.413256],[-71.555965,-35.413671],[-71.561081,-35.412371],[-71.561706,-35.408238],[-71.566823,-35.406937]]]},"properties":{"comuna":"Talca","mancha_id":"07101-88b2dd9ac1fffff","clase":"Bajo","nivel_medio":1.253,"nivel_medio_min":1.038,"nivel_medio_max":1.48,"pct_alto":5.5,"n_hexagonos":8,"area_ha":365.3}},{"type":"Feature","geometry":{"type":"Polygon","coordinates":[[[-71.566935,-35.438701],[-71.567561,-35.434569],[-71.572678,-35.433269],[-71.577169,-35.436102],[-71.576544,-35.440234],[-71.571427,-35.441533],[-71.566935,-35.438701]]]},"properties":{"comuna":"Talca","mancha_id":"07101-88b2dd9ab9fffff","clase":"Bajo","nivel_medio":1.229,"nivel_medio_min":1.229,"nivel_medio_max":1.229,"pct_alto":0.9,"n_hexagonos":1,"area_ha":61.44}},{"type":"Feature","geometry":{"type":"Polygon","coordinates":[[[-71.574554,-35.420871],[-71.575179,-35.416738],[-71.580296,-35.415437],[-71.584788,-35.41827],[-71.584163,-35.422404],[-71.579045,-35.423704],[-71.574554,-35.420871]]]},"properties":{"comuna":"Talca","mancha_id":"07101-88b2dd9a8dfffff","clase":"Bajo","nivel_medio":1.368,"nivel_medio_min":1.368,"nivel_medio_max":1.368,"pct_alto":9.0,"n_hexagonos":1,"area_ha":61.48}},{"type":"Feature","geometry":{"type":"Polygon","coordinates":[[[-71.624358,-35.384343],[-71.624983,-35.380207],[-71.6301,-35.378902],[-71.634593,-35.381735],[-71.633969,-35.385872],[-71.628851,-35.387176],[-71.624358,-35.384343]]]},"properties":{"comuna":"Talca","mancha_id":"07101-88b2dd9a63fffff","clase":"Bajo","nivel_medio":1.496,"nivel_medio_min":1.496,"nivel_medio_max":1.496,"pct_alto":9.2,"n_hexagonos":1,"area_ha":61.56}},{"type":"Feature","geometry":{"type":"Polygon","coordinates":[[[-71.641707,-35.399809],[-71.642331,-35.395673],[-71.647449,-35.394368],[-71.651944,-35.3972],[-71.651319,-35.401336],[-71.646201,-35.40264],[-71.645576,-35.406776],[-71.640458,-35.40808],[-71.635964,-35.405248],[-71.636589,-35.401113],[-71.641707,-35.399809]]]},"properties":{"comuna":"Talca","mancha_id":"07101-88b2dd9a25fffff","clase":"Bajo","nivel_medio":0.965,"nivel_medio_min":0.843,"nivel_medio_max":1.087,"pct_alto":26.8,"n_hexagonos":2,"area_ha":123.09}},{"type":"Feature","geometry":{"type":"Polygon","coordinates":[[[-71.699523,-35.440738],[-71.70402,-35.443567],[-71.703404,-35.447651],[-71.703298,-35.447726],[-71.698275,-35.449006],[-71.698064,-35.450405],[-71.69791,-35.45043],[-71.69742,-35.45061],[-71.69693,-35.45086],[-71.69644,-35.45103],[-71.69578,-35.45119],[-71.69498,-35.45126],[-71.69417,-35.45131],[-71.69334,-35.45135],[-71.6927,-35.45138],[-71.69226,-35.45129],[-71.69053,-35.45122],[-71.68871,-35.45118],[-71.68859,-35.45119],[-71.688098,-35.451185],[-71.68665,-35.45117],[-71.68495,-35.45089],[-71.68261,-35.45091],[-71.679744,-35.450925],[-71.678416,-35.45009],[-71.679041,-35.445957],[-71.684161,-35.444652],[-71.688657,-35.447482],[-71.693778,-35.446177],[-71.694402,-35.442043],[-71.689905,-35.439214],[-71.690529,-35.43508],[-71.69565,-35.433775],[-71.700147,-35.436604],[-71.699523,-35.440738]]]},"properties":{"comuna":"Talca","mancha_id":"07101-88b2dd990bfffff","clase":"Bajo","nivel_medio":0.641,"nivel_medio_min":0.545,"nivel_medio_max":0.682,"pct_alto":17.9,"n_hexagonos":4,"area_ha":214.06}},{"type":"Feature","geometry":{"type":"Polygon","coordinates":[[[-71.63796,-35.424619],[-71.638584,-35.420484],[-71.643703,-35.419181],[-71.648197,-35.422012],[-71.647573,-35.426146],[-71.642454,-35.42745],[-71.63796,-35.424619]]]},"properties":{"comuna":"Talca","mancha_id":"07101-88b2dd9847fffff","clase":"Bajo","nivel_medio":0.687,"nivel_medio_min":0.687,"nivel_medio_max":0.687,"pct_alto":17.2,"n_hexagonos":1,"area_ha":61.51}},{"type":"Feature","geometry":{"type":"Polygon","coordinates":[[[-71.659185,-35.447038],[-71.66368,-35.449868],[-71.6688,-35.448564],[-71.673296,-35.451394],[-71.673157,-35.452313],[-71.67209,-35.45265],[-71.67109,-35.45264],[-71.66747,-35.4526],[-71.66606,-35.45254],[-71.66383,-35.45222],[-71.66333,-35.452185],[-71.66256,-35.45213],[-71.66139,-35.45214],[-71.66009,-35.45163],[-71.65895,-35.45134],[-71.65798,-35.45152],[-71.65651,-35.45234],[-71.65558,-35.45275],[-71.654853,-35.453362],[-71.65344,-35.452473],[-71.654065,-35.448341],[-71.659185,-35.447038]]]},"properties":{"comuna":"Talca","mancha_id":"07101-88b2dd9823fffff","clase":"Bajo","nivel_medio":1.057,"nivel_medio_min":0.849,"nivel_medio_max":1.205,"pct_alto":30.0,"n_hexagonos":2,"area_ha":69.44}},{"type":"Feature","geometry":{"type":"Polygon","coordinates":[[[-71.614986,-35.446359],[-71.615611,-35.442227],[-71.611118,-35.439396],[-71.611743,-35.435263],[-71.60725,-35.432431],[-71.602132,-35.433732],[-71.597639,-35.430901],[-71.598264,-35.426768],[-71.603382,-35.425466],[-71.607875,-35.428298],[-71.612993,-35.426997],[-71.613617,-35.422863],[-71.609125,-35.420031],[-71.604007,-35.421333],[-71.599514,-35.418501],[-71.600139,-35.414367],[-71.605257,-35.413065],[-71.605882,-35.40893],[-71.610999,-35.407628],[-71.615492,-35.410461],[-71.62061,-35.409158],[-71.621235,-35.405023],[-71.626352,-35.40372],[-71.630846,-35.406552],[-71.630221,-35.410687],[-71.625103,-35.41199],[-71.624478,-35.416124],[-71.61936,-35.417427],[-71.618735,-35.421561],[-71.623229,-35.424393],[-71.622604,-35.428526],[-71.627098,-35.431358],[-71.626473,-35.435491],[-71.621354,-35.436793],[-71.62073,-35.440925],[-71.625223,-35.443756],[-71.624599,-35.447889],[-71.61948,-35.44919],[-71.614986,-35.446359]]]},"properties":{"comuna":"Talca","mancha_id":"07101-88b2dd9811fffff","clase":"Bajo","nivel_medio":1.121,"nivel_medio_min":0.806,"nivel_medio_max":1.346,"pct_alto":32.1,"n_hexagonos":11,"area_ha":676.39}},{"type":"Feature","geometry":{"type":"Polygon","coordinates":[[[-71.639956,-35.443983],[-71.64058,-35.43985],[-71.645699,-35.438548],[-71.650194,-35.441378],[-71.64957,-35.445511],[-71.64445,-35.446813],[-71.643826,-35.450946],[-71.638706,-35.452248],[-71.634212,-35.449418],[-71.634837,-35.445285],[-71.639956,-35.443983]]]},"properties":{"comuna":"Talca","mancha_id":"07101-88b2dd9807fffff","clase":"Bajo","nivel_medio":1.004,"nivel_medio_min":0.809,"nivel_medio_max":1.198,"pct_alto":26.7,"n_hexagonos":2,"area_ha":122.95}},{"type":"Feature","geometry":{"type":"Polygon","coordinates":[[[-71.532202,-35.415731],[-71.531012,-35.416033],[-71.529917,-35.415342],[-71.53084,-35.4154],[-71.5321,-35.41566],[-71.532202,-35.415731]]]},"properties":{"comuna":"Talca","mancha_id":"07101-88b2dd91e7fffff","clase":"Bajo","nivel_medio":1.293,"nivel_medio_min":1.293,"nivel_medio_max":1.293,"pct_alto":0.0,"n_hexagonos":1,"area_ha":0.73}},{"type":"Feature","geometry":{"type":"Polygon","coordinates":[[[-71.511116,-35.414391],[-71.511671,-35.413836],[-71.5117,-35.413807],[-71.512329,-35.41356],[-71.513205,-35.413515],[-71.514081,-35.413493],[-71.515429,-35.413605],[-71.51676,-35.41372],[-71.519,-35.41386],[-71.520303,-35.413799],[-71.520338,-35.413797],[-71.521252,-35.413852],[-71.521971,-35.413767],[-71.522654,-35.414041],[-71.522767,-35.414152],[-71.521407,-35.414497],[-71.520781,-35.418629],[-71.52527,-35.421463],[-71.524644,-35.425595],[-71.519529,-35.426893],[-71.51504,-35.424059],[-71.515666,-35.419927],[-71.511177,-35.417092],[-71.50807,-35.41788],[-71.50862,-35.41751],[-71.5097,-35.416772],[-71.509992,-35.416391],[-71.510262,-35.415672],[-71.510779,-35.415043],[-71.511116,-35.414391]]]},"properties":{"comuna":"Talca","mancha_id":"07101-88b2dd9181fffff","clase":"Bajo","nivel_medio":1.359,"nivel_medio_min":1.0,"nivel_medio_max":1.412,"pct_alto":5.7,"n_hexagonos":4,"area_ha":117.39}},{"type":"Feature","geometry":{"type":"Polygon","coordinates":[[[-71.568673,-35.358453],[-71.568762,-35.358326],[-71.569211,-35.358611],[-71.569059,-35.359616],[-71.568825,-35.358966],[-71.568673,-35.358453]]]},"properties":{"comuna":"Talca","mancha_id":"07101-88b2dd9169fffff","clase":"Bajo","nivel_medio":1.029,"nivel_medio_min":1.029,"nivel_medio_max":1.029,"pct_alto":0.0,"n_hexagonos":1,"area_ha":0.34}},{"type":"Feature","geometry":{"type":"Polygon","coordinates":[[[-71.568785,-35.361433],[-71.568586,-35.362748],[-71.563471,-35.36405],[-71.560959,-35.362464],[-71.562055,-35.361909],[-71.562681,-35.36175],[-71.5641,-35.36175],[-71.56641,-35.36202],[-71.56831,-35.36192],[-71.56866,-35.36168],[-71.568785,-35.361433]]]},"properties":{"comuna":"Talca","mancha_id":"07101-88b2dd9169fffff-2","clase":"Bajo","nivel_medio":1.029,"nivel_medio_min":1.029,"nivel_medio_max":1.029,"pct_alto":0.0,"n_hexagonos":1,"area_ha":11.13}},{"type":"Feature","geometry":{"type":"Polygon","coordinates":[[[-71.553977,-35.394301],[-71.553351,-35.398436],[-71.557842,-35.40127],[-71.557216,-35.405404],[-71.553758,-35.406282],[-71.553746,-35.406224],[-71.553642,-35.405698],[-71.553608,-35.405526],[-71.55339,-35.404407],[-71.553335,-35.404129],[-71.55317,-35.403284],[-71.553123,-35.403015],[-71.552975,-35.402173],[-71.552892,-35.401727],[-71.552793,-35.40119],[-71.552603,-35.40017],[-71.552551,-35.399889],[-71.552485,-35.39953],[-71.552466,-35.399429],[-71.552343,-35.398752],[-71.552333,-35.398694],[-71.552271,-35.398352],[-71.552173,-35.397872],[-71.552069,-35.397366],[-71.552037,-35.39721],[-71.551926,-35.396665],[-71.551901,-35.396559],[-71.551885,-35.396492],[-71.551841,-35.396307],[-71.551741,-35.395887],[-71.551674,-35.395603],[-71.551631,-35.395416],[-71.551593,-35.395251],[-71.551235,-35.394992],[-71.55105,-35.394858],[-71.551048,-35.394856],[-71.550962,-35.394778],[-71.550578,-35.394432],[-71.550424,-35.394278],[-71.550398,-35.394274],[-71.550312,-35.394261],[-71.550186,-35.394276],[-71.549297,-35.394488],[-71.549111,-35.394533],[-71.548966,-35.394537],[-71.548899,-35.394513],[-71.548849,-35.394418],[-71.548831,-35.394328],[-71.548783,-35.39409],[-71.548713,-35.393566],[-71.548583,-35.392581],[-71.548469,-35.391725],[-71.549487,-35.391467],[-71.553977,-35.394301]]]},"properties":{"comuna":"Talca","mancha_id":"07101-88b2dd9131fffff","clase":"Bajo","nivel_medio":1.373,"nivel_medio_min":1.325,"nivel_medio_max":1.452,"pct_alto":3.5,"n_hexagonos":2,"area_ha":45.37}},{"type":"Feature","geometry":{"type":"Polygon","coordinates":[[[-71.551989,-35.374925],[-71.551364,-35.379061],[-71.546942,-35.380186],[-71.546914,-35.379979],[-71.546855,-35.379542],[-71.546765,-35.378884],[-71.546437,-35.376483],[-71.546345,-35.375811],[-71.54629,-35.375409],[-71.546248,-35.3751],[-71.546232,-35.374983],[-71.546232,-35.374982],[-71.54612,-35.37421],[-71.545873,-35.372504],[-71.545863,-35.372441],[-71.545732,-35.371535],[-71.545726,-35.37149],[-71.545703,-35.371333],[-71.545577,-35.370538],[-71.545559,-35.370423],[-71.545429,-35.369602],[-71.545417,-35.369516],[-71.54532,-35.368813],[-71.545242,-35.368247],[-71.545227,-35.368139],[-71.545138,-35.367574],[-71.545082,-35.367148],[-71.545081,-35.36714],[-71.544922,-35.36593],[-71.548126,-35.367954],[-71.553241,-35.366653],[-71.55773,-35.369488],[-71.557105,-35.373624],[-71.551989,-35.374925]]]},"properties":{"comuna":"Talca","mancha_id":"07101-88b2dd9101fffff","clase":"Bajo","nivel_medio":1.309,"nivel_medio_min":1.119,"nivel_medio_max":1.358,"pct_alto":1.9,"n_hexagonos":3,"area_ha":108.97}},{"type":"Feature","geometry":{"type":"Polygon","coordinates":[[[-71.55545,-35.44956],[-71.556076,-35.445429],[-71.561193,-35.444131],[-71.565684,-35.446963],[-71.565059,-35.451094],[-71.559941,-35.452393],[-71.55545,-35.44956]]]},"properties":{"comuna":"Talca","mancha_id":"07101-88b2dd836dfffff","clase":"Bajo","nivel_medio":1.301,"nivel_medio_min":1.301,"nivel_medio_max":1.301,"pct_alto":3.9,"n_hexagonos":1,"area_ha":61.42}},{"type":"Feature","geometry":{"type":"Polygon","coordinates":[[[-71.501678,-35.447306],[-71.502305,-35.443176],[-71.50742,-35.44188],[-71.511909,-35.444714],[-71.511283,-35.448844],[-71.506167,-35.45014],[-71.501678,-35.447306]]]},"properties":{"comuna":"Talca","mancha_id":"07101-88b2dd8359fffff","clase":"Bajo","nivel_medio":1.463,"nivel_medio_min":1.463,"nivel_medio_max":1.463,"pct_alto":3.3,"n_hexagonos":1,"area_ha":61.39}},{"type":"Feature","geometry":{"type":"Polygon","coordinates":[[[-71.526737,-35.476693],[-71.527363,-35.472564],[-71.53248,-35.471268],[-71.53697,-35.474101],[-71.536344,-35.478229],[-71.531228,-35.479525],[-71.526737,-35.476693]]]},"properties":{"comuna":"Talca","mancha_id":"07101-88b2dd8339fffff","clase":"Bajo","nivel_medio":1.114,"nivel_medio_min":1.114,"nivel_medio_max":1.114,"pct_alto":0.0,"n_hexagonos":1,"area_ha":61.36}},{"type":"Feature","geometry":{"type":"Polygon","coordinates":[[[-71.513069,-35.463964],[-71.51266,-35.463287],[-71.512276,-35.462653],[-71.511856,-35.461958],[-71.51105,-35.46066],[-71.510536,-35.459826],[-71.510067,-35.459065],[-71.509939,-35.458857],[-71.509799,-35.458629],[-71.51003,-35.457103],[-71.515146,-35.455807],[-71.519635,-35.458641],[-71.519009,-35.46277],[-71.513893,-35.464066],[-71.51374,-35.465074],[-71.513646,-35.464917],[-71.513069,-35.463964]]]},"properties":{"comuna":"Talca","mancha_id":"07101-88b2dd8319fffff","clase":"Bajo","nivel_medio":1.475,"nivel_medio_min":1.412,"nivel_medio_max":1.476,"pct_alto":3.2,"n_hexagonos":2,"area_ha":57.36}},{"type":"Feature","geometry":{"type":"Polygon","coordinates":[[[-71.528615,-35.464307],[-71.529242,-35.460177],[-71.534358,-35.458881],[-71.534984,-35.454751],[-71.5401,-35.453454],[-71.544591,-35.456286],[-71.543965,-35.460416],[-71.538848,-35.461713],[-71.538222,-35.465843],[-71.533106,-35.467139],[-71.528615,-35.464307]]]},"properties":{"comuna":"Talca","mancha_id":"07101-88b2dd8301fffff","clase":"Bajo","nivel_medio":1.189,"nivel_medio_min":1.031,"nivel_medio_max":1.348,"pct_alto":0.3,"n_hexagonos":2,"area_ha":122.77}},{"type":"Feature","geometry":{"type":"Polygon","coordinates":[[[-71.565283,-35.514557],[-71.565909,-35.510431],[-71.571028,-35.509134],[-71.575521,-35.511965],[-71.574895,-35.516091],[-71.579388,-35.518921],[-71.578763,-35.523047],[-71.583256,-35.525877],[-71.58303,-35.527372],[-71.582658,-35.528083],[-71.581885,-35.528511],[-71.580683,-35.528761],[-71.579446,-35.52882],[-71.579172,-35.528832],[-71.578815,-35.528916],[-71.578283,-35.52912],[-71.575654,-35.530129],[-71.575433,-35.530214],[-71.573949,-35.530784],[-71.572846,-35.530875],[-71.572509,-35.530903],[-71.572294,-35.530916],[-71.570979,-35.530994],[-71.570908,-35.530994],[-71.570619,-35.531015],[-71.570597,-35.531003],[-71.570522,-35.530964],[-71.56981,-35.530834],[-71.569634,-35.530801],[-71.569349,-35.530796],[-71.568812,-35.530786],[-71.568711,-35.530746],[-71.568291,-35.530145],[-71.568006,-35.529738],[-71.56797,-35.529685],[-71.567614,-35.529147],[-71.567579,-35.529051],[-71.567583,-35.528982],[-71.567585,-35.528948],[-71.567589,-35.528873],[-71.567727,-35.528334],[-71.567741,-35.528279],[-71.567725,-35.52817],[-71.567713,-35.528092],[-71.567706,-35.528041],[-71.567579,-35.527878],[-71.567439,-35.527731],[-71.566435,-35.526674],[-71.566195,-35.526421],[-71.565367,-35.52555],[-71.564916,-35.525074],[-71.564628,-35.524771],[-71.564321,-35.524448],[-71.564143,-35.524387],[-71.563915,-35.524392],[-71.563783,-35.524449],[-71.56307,-35.52476],[-71.56181,-35.52532],[-71.56146,-35.52534],[-71.56119,-35.525],[-71.56118,-35.52463],[-71.560697,-35.523831],[-71.560676,-35.523796],[-71.56038,-35.523307],[-71.559335,-35.521405],[-71.559227,-35.521208],[-71.558616,-35.520213],[-71.559539,-35.519979],[-71.560165,-35.515853],[-71.565283,-35.514557]]]},"properties":{"comuna":"Talca","mancha_id":"07101-88b2dd8105fffff","clase":"Bajo","nivel_medio":1.302,"nivel_medio_min":1.17,"nivel_medio_max":1.482,"pct_alto":3.7,"n_hexagonos":7,"area_ha":310.54}},{"type":"Feature","geometry":{"type":"Polygon","coordinates":[[[-71.59867,-35.354],[-71.599505,-35.353441],[-71.59928,-35.35493],[-71.597333,-35.355426],[-71.59754,-35.3553],[-71.59867,-35.354]]]},"properties":{"comuna":"Talca","mancha_id":"07101-88b2c364bdfffff","clase":"Bajo","nivel_medio":1.384,"nivel_medio_min":1.384,"nivel_medio_max":1.384,"pct_alto":0.0,"n_hexagonos":1,"area_ha":1.57}},{"type":"Feature","geometry":{"type":"Polygon","coordinates":[[[-71.596108,-35.355738],[-71.594164,-35.356233],[-71.589674,-35.353399],[-71.589718,-35.353106],[-71.589832,-35.353064],[-71.590638,-35.35301],[-71.591996,-35.353077],[-71.592782,-35.353287],[-71.593268,-35.353549],[-71.593661,-35.354087],[-71.594107,-35.355215],[-71.59448,-35.35566],[-71.59505,-35.35588],[-71.596108,-35.355738]]]},"properties":{"comuna":"Talca","mancha_id":"07101-88b2c364bdfffff-2","clase":"Bajo","nivel_medio":1.384,"nivel_medio_min":1.384,"nivel_medio_max":1.384,"pct_alto":0.0,"n_hexagonos":1,"area_ha":7.04}},{"type":"Feature","geometry":{"type":"Polygon","coordinates":[[[-71.61889,-35.355384],[-71.618496,-35.357989],[-71.622989,-35.360823],[-71.622364,-35.364961],[-71.617247,-35.366265],[-71.616622,-35.370403],[-71.611506,-35.371707],[-71.607014,-35.368873],[-71.601897,-35.370177],[-71.597406,-35.367343],[-71.598031,-35.363206],[-71.603147,-35.361902],[-71.603772,-35.357764],[-71.6058,-35.357247],[-71.6063,-35.357642],[-71.607102,-35.358027],[-71.6077,-35.35817],[-71.60985,-35.35777],[-71.610706,-35.357607],[-71.61158,-35.35744],[-71.61344,-35.3566],[-71.615505,-35.355583],[-71.616335,-35.355352],[-71.61703,-35.35527],[-71.61841,-35.35537],[-71.61889,-35.355384]]]},"properties":{"comuna":"Talca","mancha_id":"07101-88b2c364a7fffff","clase":"Bajo","nivel_medio":1.257,"nivel_medio_min":0.831,"nivel_medio_max":1.481,"pct_alto":6.6,"n_hexagonos":5,"area_ha":260.9}},{"type":"Feature","geometry":{"type":"Polygon","coordinates":[[[-71.6235,-35.34882],[-71.624467,-35.348157],[-71.62455,-35.3481],[-71.62532,-35.34733],[-71.62532,-35.34653],[-71.62529,-35.34602],[-71.62571,-35.3455],[-71.62628,-35.34501],[-71.62662,-35.34497],[-71.62716,-35.34544],[-71.62759,-35.34573],[-71.627911,-35.345738],[-71.628282,-35.345548],[-71.62844,-35.34531],[-71.62867,-35.34449],[-71.62882,-35.34343],[-71.629413,-35.342497],[-71.629557,-35.342302],[-71.630604,-35.342962],[-71.629979,-35.347101],[-71.634472,-35.349935],[-71.633847,-35.354074],[-71.62873,-35.355379],[-71.624238,-35.352546],[-71.622563,-35.352973],[-71.62264,-35.35283],[-71.62318,-35.34977],[-71.6235,-35.34882]]]},"properties":{"comuna":"Talca","mancha_id":"07101-88b2c364a5fffff","clase":"Bajo","nivel_medio":1.066,"nivel_medio_min":1.0,"nivel_medio_max":1.125,"pct_alto":3.5,"n_hexagonos":3,"area_ha":84.13}},{"type":"Feature","geometry":{"type":"Polygon","coordinates":[[[-71.676417,-35.430725],[-71.677041,-35.426591],[-71.672545,-35.423761],[-71.673169,-35.419626],[-71.668674,-35.416796],[-71.669298,-35.41266],[-71.664803,-35.409829],[-71.665427,-35.405694],[-71.660932,-35.402863],[-71.655814,-35.404167],[-71.651319,-35.401336],[-71.651944,-35.3972],[-71.647449,-35.394368],[-71.642331,-35.395673],[-71.637838,-35.392841],[-71.638462,-35.388704],[-71.64358,-35.3874],[-71.648074,-35.390232],[-71.653192,-35.388927],[-71.657686,-35.391758],[-71.662805,-35.390453],[-71.6673,-35.393285],[-71.672419,-35.391979],[-71.676914,-35.39481],[-71.682033,-35.393504],[-71.682608,-35.389688],[-71.683236,-35.389738],[-71.684612,-35.3902],[-71.68596,-35.39114],[-71.68656,-35.39187],[-71.68698,-35.39264],[-71.68827,-35.39461],[-71.688644,-35.395795],[-71.688683,-35.395916],[-71.688818,-35.39763],[-71.688908,-35.398622],[-71.689404,-35.399344],[-71.690126,-35.39975],[-71.690667,-35.400516],[-71.690577,-35.401463],[-71.69009,-35.40235],[-71.690674,-35.403232],[-71.692606,-35.406154],[-71.693738,-35.408376],[-71.694652,-35.410172],[-71.694272,-35.410268],[-71.693649,-35.414404],[-71.688529,-35.41571],[-71.687905,-35.419846],[-71.682785,-35.421151],[-71.682161,-35.425286],[-71.686657,-35.428116],[-71.686033,-35.43225],[-71.680913,-35.433555],[-71.676417,-35.430725]],[[-71.680161,-35.405914],[-71.675042,-35.407219],[-71.674417,-35.411355],[-71.678913,-35.414186],[-71.684033,-35.41288],[-71.684657,-35.408744],[-71.680161,-35.405914]]]},"properties":{"comuna":"Talca","mancha_id":"07101-88b2dd9959fffff","clase":"Medio","nivel_medio":2.071,"nivel_medio_min":1.52,"nivel_medio_max":2.436,"pct_alto":44.1,"n_hexagonos":18,"area_ha":981.91}},{"type":"Feature","geometry":{"type":"Polygon","coordinates":[[[-71.699523,-35.440738],[-71.700147,-35.436604],[-71.705267,-35.435298],[-71.709765,-35.438127],[-71.709141,-35.442261],[-71.70402,-35.443567],[-71.699523,-35.440738]]]},"properties":{"comuna":"Talca","mancha_id":"07101-88b2dd9909fffff","clase":"Medio","nivel_medio":2.371,"nivel_medio_min":2.371,"nivel_medio_max":2.371,"pct_alto":65.1,"n_hexagonos":1,"area_ha":61.52}},{"type":"Feature","geometry":{"type":"Polygon","coordinates":[[[-71.713639,-35.44509],[-71.71876,-35.443784],[-71.719383,-35.43965],[-71.720956,-35.439248],[-71.721125,-35.439825],[-71.721144,-35.439888],[-71.7212,-35.44021],[-71.721264,-35.440576],[-71.721367,-35.441007],[-71.721426,-35.441252],[-71.721605,-35.442003],[-71.721669,-35.44227],[-71.721706,-35.442425],[-71.721736,-35.44255],[-71.721749,-35.442602],[-71.721755,-35.442628],[-71.72177,-35.442691],[-71.721782,-35.442739],[-71.721791,-35.442779],[-71.721801,-35.442821],[-71.721837,-35.442954],[-71.721849,-35.442994],[-71.721862,-35.443042],[-71.721928,-35.443418],[-71.72198,-35.443984],[-71.72211,-35.444325],[-71.722175,-35.444583],[-71.722209,-35.444715],[-71.722263,-35.444839],[-71.722416,-35.445191],[-71.722558,-35.445849],[-71.722607,-35.446203],[-71.722615,-35.446257],[-71.722712,-35.446931],[-71.722733,-35.447364],[-71.722745,-35.447554],[-71.72233,-35.44749],[-71.72135,-35.44733],[-71.71921,-35.44753],[-71.71692,-35.4473],[-71.71468,-35.44696],[-71.713399,-35.44668],[-71.713639,-35.44509]]]},"properties":{"comuna":"Talca","mancha_id":"07101-88b2dd9905fffff","clase":"Medio","nivel_medio":1.906,"nivel_medio_min":1.731,"nivel_medio_max":2.192,"pct_alto":18.6,"n_hexagonos":2,"area_ha":38.45}},{"type":"Feature","geometry":{"type":"Polygon","coordinates":[[[-71.584277,-35.45416],[-71.584903,-35.450029],[-71.590021,-35.44873],[-71.594513,-35.451561],[-71.593888,-35.455692],[-71.58877,-35.456992],[-71.584277,-35.45416]]]},"properties":{"comuna":"Talca","mancha_id":"07101-88b2dd98cbfffff","clase":"Medio","nivel_medio":2.015,"nivel_medio_min":2.015,"nivel_medio_max":2.015,"pct_alto":58.2,"n_hexagonos":1,"area_ha":61.43}},{"type":"Feature","geometry":{"type":"Polygon","coordinates":[[[-71.643826,-35.450946],[-71.64445,-35.446813],[-71.64957,-35.445511],[-71.654065,-35.448341],[-71.65344,-35.452473],[-71.648321,-35.453776],[-71.643826,-35.450946]]]},"properties":{"comuna":"Talca","mancha_id":"07101-88b2dd983dfffff","clase":"Medio","nivel_medio":1.839,"nivel_medio_min":1.839,"nivel_medio_max":1.839,"pct_alto":46.0,"n_hexagonos":1,"area_ha":61.47}},{"type":"Feature","geometry":{"type":"Polygon","coordinates":[[[-71.58303,-35.527372],[-71.583256,-35.525877],[-71.584412,-35.525584],[-71.584208,-35.525782],[-71.583468,-35.526501],[-71.583407,-35.52656],[-71.583062,-35.52731],[-71.58303,-35.527372]]]},"properties":{"comuna":"Talca","mancha_id":"07101-88b2dd8127fffff","clase":"Medio","nivel_medio":2.0,"nivel_medio_min":2.0,"nivel_medio_max":2.0,"pct_alto":0.0,"n_hexagonos":1,"area_ha":0.61}},{"type":"Feature","geometry":{"type":"Polygon","coordinates":[[[-71.565283,-35.514557],[-71.560165,-35.515853],[-71.559539,-35.519979],[-71.558616,-35.520213],[-71.558472,-35.519978],[-71.558455,-35.51995],[-71.5584,-35.519861],[-71.557964,-35.519192],[-71.557963,-35.51919],[-71.557934,-35.519146],[-71.557755,-35.51887],[-71.557653,-35.518721],[-71.557564,-35.518589],[-71.557557,-35.518579],[-71.557193,-35.518044],[-71.557186,-35.518033],[-71.55715,-35.51798],[-71.557084,-35.517872],[-71.556969,-35.517682],[-71.556854,-35.517493],[-71.556766,-35.517348],[-71.556545,-35.516985],[-71.556526,-35.516952],[-71.556379,-35.516712],[-71.556363,-35.516684],[-71.556251,-35.516534],[-71.556185,-35.516445],[-71.556042,-35.516252],[-71.555292,-35.515239],[-71.554761,-35.514498],[-71.554382,-35.513969],[-71.554256,-35.513794],[-71.554072,-35.513537],[-71.554036,-35.513437],[-71.555673,-35.513023],[-71.555763,-35.512426],[-71.555792,-35.512413],[-71.556803,-35.511994],[-71.558081,-35.511475],[-71.558394,-35.511349],[-71.558759,-35.511207],[-71.558912,-35.511132],[-71.558943,-35.511054],[-71.558935,-35.510932],[-71.558814,-35.510777],[-71.558655,-35.510574],[-71.558573,-35.510468],[-71.557854,-35.509547],[-71.557503,-35.509097],[-71.557449,-35.509025],[-71.557187,-35.508671],[-71.561417,-35.5076],[-71.562042,-35.503473],[-71.55755,-35.500643],[-71.558176,-35.496515],[-71.553684,-35.493684],[-71.548566,-35.49498],[-71.545461,-35.493023],[-71.544787,-35.492108],[-71.544656,-35.491938],[-71.544198,-35.491339],[-71.543677,-35.490659],[-71.542861,-35.489664],[-71.542314,-35.488997],[-71.541727,-35.48829],[-71.540213,-35.489664],[-71.539922,-35.489929],[-71.538185,-35.491487],[-71.537225,-35.492353],[-71.534466,-35.490613],[-71.530181,-35.491698],[-71.529975,-35.491357],[-71.528932,-35.489664],[-71.528359,-35.488734],[-71.527263,-35.486973],[-71.526854,-35.486311],[-71.525941,-35.484833],[-71.525926,-35.484808],[-71.524875,-35.483013],[-71.523309,-35.480491],[-71.523155,-35.480242],[-71.521842,-35.47812],[-71.521742,-35.477958],[-71.521676,-35.477851],[-71.520557,-35.475978],[-71.520261,-35.475553],[-71.519187,-35.473903],[-71.518278,-35.472418],[-71.517691,-35.47146],[-71.517757,-35.471027],[-71.517218,-35.470687],[-71.516827,-35.47005],[-71.516272,-35.469158],[-71.51486,-35.466894],[-71.514227,-35.465878],[-71.513975,-35.465462],[-71.51374,-35.465074],[-71.513893,-35.464066],[-71.519009,-35.46277],[-71.519635,-35.458641],[-71.515146,-35.455807],[-71.51003,-35.457103],[-71.508094,-35.455881],[-71.507622,-35.455108],[-71.507357,-35.454673],[-71.507241,-35.454484],[-71.507236,-35.454475],[-71.507024,-35.454128],[-71.506857,-35.453855],[-71.50648,-35.453235],[-71.506035,-35.452503],[-71.506022,-35.452481],[-71.505854,-35.452205],[-71.505839,-35.45218],[-71.505626,-35.45183],[-71.505409,-35.451496],[-71.504876,-35.450675],[-71.504859,-35.45065],[-71.504718,-35.450675],[-71.502427,-35.451092],[-71.501585,-35.45125],[-71.50149,-35.451268],[-71.501095,-35.451342],[-71.50005,-35.451539],[-71.499117,-35.451746],[-71.498842,-35.451807],[-71.498431,-35.451883],[-71.49826,-35.451914],[-71.498042,-35.451908],[-71.497953,-35.451824],[-71.497662,-35.450941],[-71.496845,-35.44853],[-71.501678,-35.447306],[-71.506167,-35.45014],[-71.511283,-35.448844],[-71.511909,-35.444714],[-71.50742,-35.44188],[-71.502305,-35.443176],[-71.497816,-35.440341],[-71.494478,-35.441187],[-71.494267,-35.440539],[-71.49392,-35.439491],[-71.493837,-35.439241],[-71.493628,-35.438595],[-71.493574,-35.438427],[-71.493513,-35.438241],[-71.493177,-35.4372],[-71.493063,-35.436845],[-71.492692,-35.435692],[-71.492657,-35.435584],[-71.492608,-35.435423],[-71.492587,-35.435352],[-71.492517,-35.43512],[-71.492523,-35.43482],[-71.492528,-35.434555],[-71.492536,-35.434499],[-71.492584,-35.434163],[-71.492621,-35.434099],[-71.492671,-35.434012],[-71.492785,-35.433811],[-71.492915,-35.43369],[-71.492991,-35.43362],[-71.493228,-35.4334],[-71.493319,-35.433315],[-71.493339,-35.433297],[-71.493371,-35.433273],[-71.493446,-35.433217],[-71.493466,-35.433201],[-71.493503,-35.433174],[-71.493726,-35.433006],[-71.493786,-35.432961],[-71.494032,-35.432863],[-71.494249,-35.432776],[-71.494344,-35.432738],[-71.494821,-35.432547],[-71.495576,-35.432279],[-71.495564,-35.432236],[-71.495523,-35.432095],[-71.495499,-35.432012],[-71.495258,-35.43118],[-71.495229,-35.431081],[-71.495119,-35.430706],[-71.494958,-35.430154],[-71.494934,-35.43007],[-71.494842,-35.42978],[-71.494667,-35.429223],[-71.494437,-35.428492],[-71.49438,-35.428311],[-71.494163,-35.427622],[-71.493976,-35.427019],[-71.493945,-35.426918],[-71.493782,-35.426442],[-71.493433,-35.425418],[-71.493412,-35.425356],[-71.493329,-35.425111],[-71.493157,-35.424605],[-71.492851,-35.423698],[-71.49278,-35.42349],[-71.4929,-35.42344],[-71.493624,-35.423146],[-71.494507,-35.423041],[-71.495242,-35.422915],[-71.496081,-35.422813],[-71.497124,-35.422787],[-71.497974,-35.422747],[-71.49849,-35.422661],[-71.498857,-35.4226],[-71.499971,-35.422515],[-71.5,-35.422509],[-71.500791,-35.422324],[-71.50139,-35.4219],[-71.502057,-35.421558],[-71.502837,-35.421256],[-71.503673,-35.420844],[-71.504947,-35.420111],[-71.50567,-35.41955],[-71.505913,-35.419377],[-71.507056,-35.418563],[-71.50807,-35.41788],[-71.511177,-35.417092],[-71.515666,-35.419927],[-71.51504,-35.424059],[-71.519529,-35.426893],[-71.524644,-35.425595],[-71.52527,-35.421463],[-71.520781,-35.418629],[-71.521407,-35.414497],[-71.522767,-35.414152],[-71.523096,-35.414473],[-71.523561,-35.414912],[-71.52388,-35.415338],[-71.524401,-35.415699],[-71.52496,-35.41592],[-71.526062,-35.416029],[-71.527041,-35.415903],[-71.5277,-35.415553],[-71.5283,-35.41539],[-71.52926,-35.4153],[-71.529917,-35.415342],[-71.531012,-35.416033],[-71.532202,-35.415731],[-71.53259,-35.416],[-71.53295,-35.41652],[-71.533272,-35.417081],[-71.533532,-35.417329],[-71.53412,-35.41737],[-71.53527,-35.41708],[-71.53652,-35.41682],[-71.53726,-35.4168],[-71.538262,-35.416804],[-71.53938,-35.41703],[-71.539993,-35.417174],[-71.540617,-35.417569],[-71.539991,-35.421701],[-71.544481,-35.424535],[-71.549597,-35.423236],[-71.554088,-35.42607],[-71.559204,-35.42477],[-71.55983,-35.420638],[-71.564946,-35.419338],[-71.565572,-35.415205],[-71.570688,-35.413905],[-71.571314,-35.409771],[-71.57643,-35.40847],[-71.580921,-35.411304],[-71.586038,-35.410003],[-71.59053,-35.412835],[-71.595647,-35.411534],[-71.600139,-35.414367],[-71.599514,-35.418501],[-71.604007,-35.421333],[-71.609125,-35.420031],[-71.613617,-35.422863],[-71.612993,-35.426997],[-71.607875,-35.428298],[-71.603382,-35.425466],[-71.598264,-35.426768],[-71.597639,-35.430901],[-71.602132,-35.433732],[-71.60725,-35.432431],[-71.611743,-35.435263],[-71.611118,-35.439396],[-71.615611,-35.442227],[-71.614986,-35.446359],[-71.609868,-35.44766],[-71.605375,-35.444829],[-71.600256,-35.446129],[-71.595764,-35.443298],[-71.590646,-35.444598],[-71.586153,-35.441766],[-71.581036,-35.443066],[-71.580411,-35.447197],[-71.575293,-35.448497],[-71.570801,-35.445665],[-71.565684,-35.446963],[-71.561193,-35.444131],[-71.556076,-35.445429],[-71.55545,-35.44956],[-71.559941,-35.452393],[-71.559316,-35.456523],[-71.554199,-35.457821],[-71.553573,-35.461951],[-71.548456,-35.463249],[-71.54783,-35.467378],[-71.542713,-35.468675],[-71.542087,-35.472804],[-71.546578,-35.475636],[-71.551696,-35.474339],[-71.552321,-35.47021],[-71.557439,-35.468913],[-71.558064,-35.464783],[-71.563182,-35.463486],[-71.567674,-35.466317],[-71.572791,-35.465019],[-71.573417,-35.460889],[-71.578534,-35.45959],[-71.583027,-35.462422],[-71.588145,-35.461123],[-71.592638,-35.463954],[-71.592012,-35.468084],[-71.596505,-35.470915],[-71.59588,-35.475045],[-71.590762,-35.476344],[-71.590136,-35.480473],[-71.59463,-35.483304],[-71.599748,-35.482005],[-71.600374,-35.477875],[-71.605492,-35.476576],[-71.606117,-35.472446],[-71.611236,-35.471146],[-71.611861,-35.467016],[-71.607368,-35.464185],[-71.607993,-35.460055],[-71.613111,-35.458754],[-71.617605,-35.461585],[-71.622724,-35.460284],[-71.623349,-35.456153],[-71.628468,-35.454851],[-71.629093,-35.450719],[-71.634212,-35.449418],[-71.638706,-35.452248],[-71.638082,-35.45638],[-71.632962,-35.457682],[-71.632338,-35.461813],[-71.627218,-35.463114],[-71.626594,-35.467245],[-71.631088,-35.470075],[-71.636208,-35.468774],[-71.640703,-35.471604],[-71.641456,-35.471412],[-71.64113,-35.47214],[-71.64052,-35.472814],[-71.63978,-35.47363],[-71.63922,-35.47462],[-71.638438,-35.476151],[-71.63824,-35.47654],[-71.638,-35.47727],[-71.63784,-35.47902],[-71.63731,-35.48083],[-71.63674,-35.48168],[-71.636255,-35.482375],[-71.63591,-35.48287],[-71.6348,-35.48395],[-71.63348,-35.48462],[-71.63177,-35.48524],[-71.6313,-35.48551],[-71.6306,-35.48619],[-71.629864,-35.487398],[-71.62965,-35.48775],[-71.62922,-35.48871],[-71.62864,-35.48972],[-71.62742,-35.49128],[-71.62561,-35.49296],[-71.625029,-35.4934],[-71.62466,-35.49368],[-71.62381,-35.49478],[-71.62292,-35.49549],[-71.62101,-35.4965],[-71.619316,-35.497659],[-71.619208,-35.497733],[-71.61908,-35.49782],[-71.618356,-35.498244],[-71.617258,-35.498887],[-71.616934,-35.499077],[-71.61565,-35.5],[-71.61565,-35.5],[-71.61552,-35.50011],[-71.615445,-35.500151],[-71.614307,-35.500774],[-71.614192,-35.500836],[-71.6136,-35.50116],[-71.612,-35.50197],[-71.611432,-35.502368],[-71.61123,-35.50251],[-71.61102,-35.502765],[-71.610978,-35.502817],[-71.610812,-35.503018],[-71.61072,-35.50313],[-71.610637,-35.503235],[-71.610608,-35.503272],[-71.610305,-35.503657],[-71.609736,-35.504098],[-71.609716,-35.504126],[-71.609463,-35.504485],[-71.609348,-35.504648],[-71.60862,-35.505679],[-71.608106,-35.506406],[-71.607874,-35.506769],[-71.60765,-35.50712],[-71.607159,-35.507886],[-71.606855,-35.508361],[-71.606774,-35.508488],[-71.606362,-35.50878],[-71.604406,-35.510164],[-71.602611,-35.511435],[-71.601099,-35.512505],[-71.60082,-35.512702],[-71.59999,-35.51329],[-71.599925,-35.513339],[-71.599176,-35.513907],[-71.598938,-35.514088],[-71.597764,-35.514978],[-71.594363,-35.517556],[-71.593925,-35.517888],[-71.5935,-35.51821],[-71.591568,-35.519563],[-71.591029,-35.51994],[-71.588848,-35.521467],[-71.589001,-35.520454],[-71.584507,-35.517624],[-71.579388,-35.518921],[-71.574895,-35.516091],[-71.575521,-35.511965],[-71.571028,-35.509134],[-71.565909,-35.510431],[-71.565283,-35.514557]],[[-71.555561,-35.4813],[-71.560053,-35.484131],[-71.565171,-35.482834],[-71.569663,-35.485665],[-71.574781,-35.484368],[-71.575407,-35.480239],[-71.580525,-35.478941],[-71.58115,-35.474812],[-71.576658,-35.47198],[-71.57154,-35.473279],[-71.567048,-35.470447],[-71.56193,-35.471745],[-71.561305,-35.475874],[-71.556187,-35.477171],[-71.555561,-35.4813]],[[-71.592128,-35.499818],[-71.596622,-35.502648],[-71.601741,-35.50135],[-71.602366,-35.497221],[-71.597873,-35.494392],[-71.592754,-35.49569],[-71.592128,-35.499818]],[[-71.53248,-35.471268],[-71.527363,-35.472564],[-71.526737,-35.476693],[-71.531228,-35.479525],[-71.536344,-35.478229],[-71.53697,-35.474101],[-71.53248,-35.471268]],[[-71.528615,-35.464307],[-71.533106,-35.467139],[-71.538222,-35.465843],[-71.538848,-35.461713],[-71.543965,-35.460416],[-71.544591,-35.456286],[-71.5401,-35.453454],[-71.534984,-35.454751],[-71.534358,-35.458881],[-71.529242,-35.460177],[-71.528615,-35.464307]],[[-71.536862,-35.442359],[-71.536236,-35.44649],[-71.540726,-35.449323],[-71.545843,-35.448026],[-71.546468,-35.443895],[-71.541978,-35.441062],[-71.536862,-35.442359]],[[-71.503557,-35.434915],[-71.508046,-35.437749],[-71.513161,-35.436453],[-71.513788,-35.432321],[-71.509299,-35.429487],[-71.504184,-35.430784],[-71.503557,-35.434915]],[[-71.61573,-35.473977],[-71.615105,-35.478107],[-71.6196,-35.480937],[-71.624719,-35.479637],[-71.625344,-35.475506],[-71.620849,-35.472676],[-71.61573,-35.473977]],[[-71.574554,-35.420871],[-71.579045,-35.423704],[-71.584163,-35.422404],[-71.584788,-35.41827],[-71.580296,-35.415437],[-71.575179,-35.416738],[-71.574554,-35.420871]],[[-71.572678,-35.433269],[-71.567561,-35.434569],[-71.566935,-35.438701],[-71.571427,-35.441533],[-71.576544,-35.440234],[-71.577169,-35.436102],[-71.572678,-35.433269]]]},"properties":{"comuna":"Talca","mancha_id":"07101-88b2dd8101fffff","clase":"Medio","nivel_medio":2.045,"nivel_medio_min":1.507,"nivel_medio_max":2.486,"pct_alto":23.0,"n_hexagonos":135,"area_ha":7471.56}},{"type":"Feature","geometry":{"type":"Polygon","coordinates":[[[-71.649961,-35.3139],[-71.650209,-35.314066],[-71.650261,-35.314101],[-71.650376,-35.314444],[-71.650376,-35.31536],[-71.650219,-35.31579],[-71.649924,-35.316049],[-71.649666,-35.316206],[-71.649369,-35.316387],[-71.649262,-35.316452],[-71.64883,-35.316877],[-71.64853,-35.317264],[-71.648487,-35.317593],[-71.648701,-35.317937],[-71.649003,-35.318122],[-71.649102,-35.318164],[-71.649752,-35.318439],[-71.650205,-35.319048],[-71.650207,-35.319052],[-71.650368,-35.319487],[-71.650673,-35.319792],[-71.651098,-35.319886],[-71.651767,-35.320137],[-71.652312,-35.32038],[-71.65256,-35.32049],[-71.652886,-35.320742],[-71.653555,-35.321259],[-71.65423,-35.32178],[-71.654674,-35.322325],[-71.655394,-35.323074],[-71.655595,-35.324657],[-71.65566,-35.326096],[-71.655653,-35.326873],[-71.655688,-35.327044],[-71.65609,-35.32903],[-71.65671,-35.33187],[-71.656669,-35.332325],[-71.656603,-35.333063],[-71.656373,-35.333811],[-71.656171,-35.33456],[-71.655567,-35.335395],[-71.655423,-35.335999],[-71.655653,-35.336575],[-71.656056,-35.33692],[-71.65673,-35.33743],[-71.65701,-35.33782],[-71.657281,-35.338597],[-71.657412,-35.339165],[-71.657683,-35.339477],[-71.65806,-35.33978],[-71.658189,-35.339899],[-71.65859,-35.34027],[-71.659107,-35.340835],[-71.659482,-35.341555],[-71.659914,-35.34239],[-71.66033,-35.34287],[-71.660948,-35.343247],[-71.661299,-35.343756],[-71.661324,-35.344491],[-71.661668,-35.344984],[-71.66237,-35.345546],[-71.662821,-35.346374],[-71.66292,-35.346653],[-71.663124,-35.34723],[-71.66319,-35.348078],[-71.663282,-35.348582],[-71.663528,-35.349196],[-71.66365,-35.34999],[-71.66388,-35.351118],[-71.664157,-35.352016],[-71.66432,-35.35276],[-71.66458,-35.35309],[-71.664204,-35.354285],[-71.66365,-35.35605],[-71.6641,-35.35795],[-71.663891,-35.359418],[-71.66381,-35.359982],[-71.663866,-35.360941],[-71.66405,-35.36227],[-71.664487,-35.363647],[-71.664148,-35.365282],[-71.664148,-35.366239],[-71.664148,-35.366747],[-71.664376,-35.367723],[-71.66512,-35.36884],[-71.66652,-35.3704],[-71.66753,-35.37307],[-71.667659,-35.373301],[-71.66793,-35.37379],[-71.668,-35.37458],[-71.6682,-35.37747],[-71.66826,-35.3778],[-71.66855,-35.37819],[-71.67044,-35.37971],[-71.671104,-35.38038],[-71.669172,-35.380873],[-71.668548,-35.38501],[-71.663429,-35.386316],[-71.658935,-35.383484],[-71.653816,-35.38479],[-71.649322,-35.381958],[-71.644204,-35.383263],[-71.639711,-35.38043],[-71.634593,-35.381735],[-71.6301,-35.378902],[-71.624983,-35.380207],[-71.624358,-35.384343],[-71.628851,-35.387176],[-71.628226,-35.391312],[-71.63272,-35.394145],[-71.632095,-35.398281],[-71.636589,-35.401113],[-71.635964,-35.405248],[-71.640458,-35.40808],[-71.639833,-35.412215],[-71.634715,-35.413518],[-71.63409,-35.417653],[-71.628972,-35.418956],[-71.628347,-35.42309],[-71.623229,-35.424393],[-71.618735,-35.421561],[-71.61936,-35.417427],[-71.624478,-35.416124],[-71.625103,-35.41199],[-71.630221,-35.410687],[-71.630846,-35.406552],[-71.626352,-35.40372],[-71.621235,-35.405023],[-71.62061,-35.409158],[-71.615492,-35.410461],[-71.610999,-35.407628],[-71.611624,-35.403493],[-71.616742,-35.402191],[-71.617366,-35.398055],[-71.612874,-35.395223],[-71.607757,-35.396525],[-71.607132,-35.400661],[-71.602014,-35.401963],[-71.601389,-35.406098],[-71.596272,-35.4074],[-71.59178,-35.404567],[-71.586663,-35.405868],[-71.582172,-35.403035],[-71.577055,-35.404336],[-71.572564,-35.401503],[-71.567448,-35.402803],[-71.566823,-35.406937],[-71.561706,-35.408238],[-71.561081,-35.412371],[-71.555965,-35.413671],[-71.555308,-35.413256],[-71.55467,-35.410501],[-71.554517,-35.409837],[-71.554409,-35.409372],[-71.554375,-35.409224],[-71.5543,-35.408903],[-71.554271,-35.408777],[-71.554267,-35.408759],[-71.55423,-35.4086],[-71.554182,-35.408391],[-71.554154,-35.40827],[-71.55414,-35.40821],[-71.554007,-35.40754],[-71.553963,-35.407315],[-71.553916,-35.40708],[-71.553766,-35.406323],[-71.553758,-35.406282],[-71.557216,-35.405404],[-71.557842,-35.40127],[-71.553351,-35.398436],[-71.553977,-35.394301],[-71.549487,-35.391467],[-71.548469,-35.391725],[-71.548417,-35.391333],[-71.548284,-35.390329],[-71.548262,-35.390165],[-71.548157,-35.389373],[-71.548121,-35.389098],[-71.547945,-35.387794],[-71.547954,-35.387637],[-71.547894,-35.387175],[-71.547788,-35.386374],[-71.547715,-35.385818],[-71.547584,-35.384824],[-71.547436,-35.383772],[-71.547321,-35.382948],[-71.547247,-35.382424],[-71.54715,-35.381731],[-71.547143,-35.381674],[-71.546972,-35.380409],[-71.546942,-35.380186],[-71.551364,-35.379061],[-71.551989,-35.374925],[-71.557105,-35.373624],[-71.55773,-35.369488],[-71.553241,-35.366653],[-71.548126,-35.367954],[-71.544922,-35.36593],[-71.544908,-35.365829],[-71.54487,-35.365539],[-71.544775,-35.364863],[-71.544683,-35.364215],[-71.544658,-35.364017],[-71.544612,-35.363659],[-71.544562,-35.363265],[-71.544493,-35.362725],[-71.544263,-35.361217],[-71.544245,-35.361098],[-71.544234,-35.361028],[-71.544223,-35.360957],[-71.544167,-35.36059],[-71.544112,-35.360232],[-71.544062,-35.359726],[-71.544056,-35.359686],[-71.543971,-35.359055],[-71.544215,-35.359002],[-71.5449,-35.358854],[-71.546046,-35.358734],[-71.5474,-35.35877],[-71.548383,-35.358951],[-71.549077,-35.359521],[-71.54923,-35.359718],[-71.549457,-35.36001],[-71.5498,-35.36095],[-71.549822,-35.362003],[-71.549716,-35.362903],[-71.549754,-35.363179],[-71.549891,-35.363484],[-71.55017,-35.3636],[-71.550604,-35.363777],[-71.551273,-35.363787],[-71.551756,-35.364029],[-71.55227,-35.36431],[-71.55274,-35.36448],[-71.553552,-35.364595],[-71.55359,-35.3646],[-71.554235,-35.364956],[-71.554798,-35.365196],[-71.55527,-35.36512],[-71.555518,-35.364966],[-71.55568,-35.36468],[-71.555758,-35.3641],[-71.555779,-35.363672],[-71.55637,-35.36298],[-71.557345,-35.362561],[-71.55823,-35.36257],[-71.558846,-35.362807],[-71.55947,-35.36286],[-71.56063,-35.36263],[-71.560959,-35.362464],[-71.563471,-35.36405],[-71.568586,-35.362748],[-71.568785,-35.361433],[-71.568973,-35.361062],[-71.56909,-35.360499],[-71.56909,-35.3597],[-71.569059,-35.359616],[-71.569211,-35.358611],[-71.568762,-35.358326],[-71.56887,-35.35817],[-71.56936,-35.35804],[-71.570133,-35.358006],[-71.57064,-35.35764],[-71.570766,-35.357172],[-71.570898,-35.356681],[-71.57144,-35.355975],[-71.57191,-35.35507],[-71.57258,-35.35395],[-71.57319,-35.35321],[-71.57417,-35.35293],[-71.574584,-35.352938],[-71.574952,-35.35317],[-71.575788,-35.352958],[-71.57752,-35.3528],[-71.578403,-35.353038],[-71.579399,-35.353431],[-71.58048,-35.35401],[-71.58135,-35.35454],[-71.58274,-35.35492],[-71.58406,-35.35521],[-71.584468,-35.3553],[-71.585269,-35.355477],[-71.586488,-35.355385],[-71.587839,-35.354979],[-71.588455,-35.354389],[-71.588822,-35.353694],[-71.588931,-35.353588],[-71.589255,-35.353274],[-71.589718,-35.353106],[-71.589674,-35.353399],[-71.594164,-35.356233],[-71.596108,-35.355738],[-71.596297,-35.355713],[-71.596991,-35.355634],[-71.597333,-35.355426],[-71.59928,-35.35493],[-71.599505,-35.353441],[-71.59991,-35.35317],[-71.60084,-35.35242],[-71.60208,-35.35423],[-71.60363,-35.35548],[-71.60536,-35.3569],[-71.6058,-35.357247],[-71.603772,-35.357764],[-71.603147,-35.361902],[-71.598031,-35.363206],[-71.597406,-35.367343],[-71.601897,-35.370177],[-71.601272,-35.374314],[-71.605764,-35.377148],[-71.605139,-35.381284],[-71.609631,-35.384118],[-71.614748,-35.382814],[-71.615373,-35.378677],[-71.610881,-35.375844],[-71.611506,-35.371707],[-71.616622,-35.370403],[-71.617247,-35.366265],[-71.622364,-35.364961],[-71.622989,-35.360823],[-71.618496,-35.357989],[-71.61889,-35.355384],[-71.619377,-35.355398],[-71.620667,-35.355337],[-71.621174,-35.35529],[-71.62191,-35.35529],[-71.621927,-35.354307],[-71.62225,-35.35355],[-71.622563,-35.352973],[-71.624238,-35.352546],[-71.62873,-35.355379],[-71.633847,-35.354074],[-71.634472,-35.349935],[-71.629979,-35.347101],[-71.630604,-35.342962],[-71.629557,-35.342302],[-71.629793,-35.341983],[-71.63025,-35.34165],[-71.6308,-35.34147],[-71.63151,-35.3411],[-71.63292,-35.34024],[-71.63365,-35.33978],[-71.63418,-35.33942],[-71.63454,-35.33928],[-71.63536,-35.33919],[-71.635915,-35.339122],[-71.636114,-35.339043],[-71.63572,-35.341656],[-71.640213,-35.344489],[-71.64533,-35.343183],[-71.645954,-35.339043],[-71.641462,-35.336209],[-71.641758,-35.334245],[-71.642047,-35.333884],[-71.642256,-35.333513],[-71.642275,-35.33318],[-71.64228,-35.33212],[-71.642281,-35.332019],[-71.642294,-35.330936],[-71.642513,-35.329967],[-71.64272,-35.32928],[-71.64333,-35.3277],[-71.643431,-35.327426],[-71.642687,-35.326872],[-71.64222,-35.32627],[-71.641875,-35.325791],[-71.64151,-35.32524],[-71.64089,-35.32476],[-71.640466,-35.32452],[-71.639621,-35.32404],[-71.63871,-35.32352],[-71.63836,-35.32315],[-71.63819,-35.32266],[-71.638074,-35.321907],[-71.637917,-35.320989],[-71.63775,-35.32016],[-71.63749,-35.31928],[-71.6372,-35.31863],[-71.637269,-35.318064],[-71.637496,-35.317315],[-71.6375,-35.3173],[-71.63745,-35.31659],[-71.6373,-35.31598],[-71.63684,-35.31524],[-71.63617,-35.314466],[-71.635547,-35.314325],[-71.634909,-35.314006],[-71.634778,-35.313668],[-71.634694,-35.312558],[-71.6351,-35.3128],[-71.635667,-35.312877],[-71.636485,-35.31307],[-71.636901,-35.313259],[-71.637365,-35.313588],[-71.63774,-35.31368],[-71.63839,-35.31339],[-71.6394,-35.31299],[-71.640022,-35.312626],[-71.64029,-35.31247],[-71.64123,-35.31199],[-71.64335,-35.311562],[-71.644248,-35.311567],[-71.644324,-35.311587],[-71.64582,-35.31198],[-71.646674,-35.312287],[-71.646729,-35.312307],[-71.646749,-35.312334],[-71.647103,-35.312825],[-71.64755,-35.3132],[-71.648111,-35.313516],[-71.648744,-35.313603],[-71.648768,-35.313609],[-71.649435,-35.313775],[-71.649961,-35.3139]],[[-71.641584,-35.368017],[-71.636467,-35.369323],[-71.635842,-35.37346],[-71.640335,-35.376293],[-71.645453,-35.374988],[-71.646078,-35.37085],[-71.641584,-35.368017]],[[-71.651195,-35.369544],[-71.655689,-35.372377],[-71.660807,-35.371071],[-71.661431,-35.366932],[-71.656937,-35.3641],[-71.65182,-35.365406],[-71.651195,-35.369544]],[[-71.569324,-35.390399],[-71.568699,-35.394534],[-71.57319,-35.397368],[-71.578306,-35.396067],[-71.582797,-35.3989],[-71.587914,-35.397599],[-71.588539,-35.393464],[-71.584048,-35.39063],[-71.578931,-35.391932],[-71.57444,-35.389098],[-71.575066,-35.384962],[-71.570575,-35.382128],[-71.565459,-35.38343],[-71.564834,-35.387565],[-71.569324,-35.390399]]]},"properties":{"comuna":"Talca","mancha_id":"07101-88b2c36421fffff","clase":"Medio","nivel_medio":1.99,"nivel_medio_min":1.501,"nivel_medio_max":2.5,"pct_alto":26.4,"n_hexagonos":100,"area_ha":5144.66}},{"type":"Feature","geometry":{"type":"Polygon","coordinates":[[[-71.674417,-35.411355],[-71.675042,-35.407219],[-71.680161,-35.405914],[-71.684657,-35.408744],[-71.684033,-35.41288],[-71.678913,-35.414186],[-71.674417,-35.411355]]]},"properties":{"comuna":"Talca","mancha_id":"07101-88b2dd9b39fffff","clase":"Alto","nivel_medio":2.544,"nivel_medio_min":2.544,"nivel_medio_max":2.544,"pct_alto":70.7,"n_hexagonos":1,"area_ha":61.55}},{"type":"Feature","geometry":{"type":"Polygon","coordinates":[[[-71.635842,-35.37346],[-71.636467,-35.369323],[-71.641584,-35.368017],[-71.646078,-35.37085],[-71.645453,-35.374988],[-71.640335,-35.376293],[-71.635842,-35.37346]]]},"properties":{"comuna":"Talca","mancha_id":"07101-88b2dd9a6dfffff","clase":"Alto","nivel_medio":2.522,"nivel_medio_min":2.522,"nivel_medio_max":2.522,"pct_alto":53.0,"n_hexagonos":1,"area_ha":61.58}},{"type":"Feature","geometry":{"type":"Polygon","coordinates":[[[-71.607132,-35.400661],[-71.607757,-35.396525],[-71.612874,-35.395223],[-71.617366,-35.398055],[-71.616742,-35.402191],[-71.611624,-35.403493],[-71.610999,-35.407628],[-71.605882,-35.40893],[-71.605257,-35.413065],[-71.600139,-35.414367],[-71.595647,-35.411534],[-71.59053,-35.412835],[-71.586038,-35.410003],[-71.586663,-35.405868],[-71.59178,-35.404567],[-71.596272,-35.4074],[-71.601389,-35.406098],[-71.602014,-35.401963],[-71.607132,-35.400661]]]},"properties":{"comuna":"Talca","mancha_id":"07101-88b2dd9a39fffff","clase":"Alto","nivel_medio":2.74,"nivel_medio_min":2.562,"nivel_medio_max":2.957,"pct_alto":67.6,"n_hexagonos":4,"area_ha":246.04}},{"type":"Feature","geometry":{"type":"Polygon","coordinates":[[[-71.632095,-35.398281],[-71.63272,-35.394145],[-71.628226,-35.391312],[-71.628851,-35.387176],[-71.633969,-35.385872],[-71.634593,-35.381735],[-71.639711,-35.38043],[-71.644204,-35.383263],[-71.649322,-35.381958],[-71.653816,-35.38479],[-71.658935,-35.383484],[-71.663429,-35.386316],[-71.668548,-35.38501],[-71.669172,-35.380873],[-71.671104,-35.38038],[-71.67157,-35.38085],[-71.67222,-35.38198],[-71.67281,-35.38291],[-71.67464,-35.38472],[-71.675254,-35.385802],[-71.675423,-35.386873],[-71.675523,-35.387209],[-71.67572,-35.38787],[-71.676438,-35.388565],[-71.677227,-35.388959],[-71.678637,-35.38941],[-71.679595,-35.389523],[-71.68046,-35.389648],[-71.68209,-35.389648],[-71.682608,-35.389688],[-71.682033,-35.393504],[-71.676914,-35.39481],[-71.672419,-35.391979],[-71.6673,-35.393285],[-71.662805,-35.390453],[-71.657686,-35.391758],[-71.653192,-35.388927],[-71.648074,-35.390232],[-71.64358,-35.3874],[-71.638462,-35.388704],[-71.637838,-35.392841],[-71.642331,-35.395673],[-71.641707,-35.399809],[-71.636589,-35.401113],[-71.632095,-35.398281]]]},"properties":{"comuna":"Talca","mancha_id":"07101-88b2dd9a21fffff","clase":"Alto","nivel_medio":2.747,"nivel_medio_min":2.626,"nivel_medio_max":3.024,"pct_alto":71.2,"n_hexagonos":8,"area_ha":449.04}},{"type":"Feature","geometry":{"type":"Polygon","coordinates":[[[-71.605139,-35.381284],[-71.605764,-35.377148],[-71.601272,-35.374314],[-71.601897,-35.370177],[-71.607014,-35.368873],[-71.611506,-35.371707],[-71.610881,-35.375844],[-71.615373,-35.378677],[-71.614748,-35.382814],[-71.609631,-35.384118],[-71.605139,-35.381284]]]},"properties":{"comuna":"Talca","mancha_id":"07101-88b2dd9a09fffff","clase":"Alto","nivel_medio":2.8,"nivel_medio_min":2.748,"nivel_medio_max":2.852,"pct_alto":76.7,"n_hexagonos":2,"area_ha":123.12}},{"type":"Feature","geometry":{"type":"Polygon","coordinates":[[[-71.698064,-35.450405],[-71.698275,-35.449006],[-71.703298,-35.447726],[-71.70287,-35.44803],[-71.70167,-35.44856],[-71.70111,-35.44876],[-71.70054,-35.44914],[-71.69969,-35.44995],[-71.69885,-35.45028],[-71.698064,-35.450405]]]},"properties":{"comuna":"Talca","mancha_id":"07101-88b2dd9903fffff","clase":"Alto","nivel_medio":2.583,"nivel_medio_min":2.583,"nivel_medio_max":2.583,"pct_alto":64.0,"n_hexagonos":1,"area_ha":3.98}},{"type":"Feature","geometry":{"type":"Polygon","coordinates":[[[-71.70402,-35.443567],[-71.709141,-35.442261],[-71.709765,-35.438127],[-71.705267,-35.435298],[-71.700147,-35.436604],[-71.69565,-35.433775],[-71.690529,-35.43508],[-71.686033,-35.43225],[-71.686657,-35.428116],[-71.682161,-35.425286],[-71.682785,-35.421151],[-71.687905,-35.419846],[-71.688529,-35.41571],[-71.693649,-35.414404],[-71.694272,-35.410268],[-71.694652,-35.410172],[-71.694834,-35.410529],[-71.695132,-35.411115],[-71.695697,-35.412035],[-71.695847,-35.412278],[-71.697209,-35.413579],[-71.69796,-35.414296],[-71.698468,-35.414805],[-71.700206,-35.416542],[-71.70034,-35.416674],[-71.700396,-35.416728],[-71.700572,-35.416901],[-71.701658,-35.417965],[-71.701988,-35.418288],[-71.702417,-35.418712],[-71.702523,-35.418817],[-71.703111,-35.419403],[-71.70397,-35.42026],[-71.70449,-35.420709],[-71.704946,-35.421103],[-71.706185,-35.422179],[-71.706979,-35.422934],[-71.707778,-35.423695],[-71.707999,-35.423904],[-71.708112,-35.424012],[-71.708197,-35.424093],[-71.708244,-35.424138],[-71.70832,-35.42421],[-71.70835,-35.424239],[-71.708367,-35.424255],[-71.708379,-35.424266],[-71.70842,-35.424305],[-71.708469,-35.424351],[-71.708503,-35.424384],[-71.70859,-35.424466],[-71.708651,-35.424525],[-71.708684,-35.424556],[-71.708727,-35.424597],[-71.708794,-35.424651],[-71.708914,-35.424748],[-71.709024,-35.424838],[-71.709083,-35.424886],[-71.709093,-35.424894],[-71.709162,-35.42495],[-71.709194,-35.424976],[-71.70923,-35.425006],[-71.709499,-35.425327],[-71.709534,-35.42537],[-71.709887,-35.425796],[-71.710172,-35.426122],[-71.711143,-35.427232],[-71.71129,-35.4274],[-71.711368,-35.427494],[-71.711744,-35.427941],[-71.713279,-35.429772],[-71.713542,-35.430085],[-71.713833,-35.430432],[-71.71394,-35.43056],[-71.714712,-35.431508],[-71.714822,-35.431661],[-71.715173,-35.432151],[-71.715549,-35.432617],[-71.715588,-35.432666],[-71.716183,-35.433404],[-71.716322,-35.433576],[-71.716654,-35.433989],[-71.717187,-35.434711],[-71.71738,-35.434937],[-71.717758,-35.435378],[-71.718039,-35.435639],[-71.718085,-35.435681],[-71.718151,-35.435741],[-71.718233,-35.435811],[-71.718303,-35.43587],[-71.718498,-35.436036],[-71.718687,-35.436196],[-71.718972,-35.436351],[-71.719294,-35.43672],[-71.719628,-35.437102],[-71.719693,-35.437176],[-71.719729,-35.437216],[-71.719851,-35.437351],[-71.720204,-35.43774],[-71.720347,-35.437897],[-71.7206,-35.438177],[-71.720661,-35.438244],[-71.720848,-35.438883],[-71.720956,-35.439248],[-71.719383,-35.43965],[-71.71876,-35.443784],[-71.713639,-35.44509],[-71.713399,-35.44668],[-71.71171,-35.44631],[-71.7095,-35.44549],[-71.70817,-35.44436],[-71.70747,-35.44402],[-71.70682,-35.44477],[-71.70624,-35.44512],[-71.7061,-35.44575],[-71.70578,-35.44622],[-71.70453,-35.44685],[-71.703404,-35.447651],[-71.70402,-35.443567]]]},"properties":{"comuna":"Talca","mancha_id":"07101-88b2dd9901fffff","clase":"Alto","nivel_medio":2.834,"nivel_medio_min":2.511,"nivel_medio_max":3.1,"pct_alto":76.6,"n_hexagonos":13,"area_ha":594.17}},{"type":"Feature","geometry":{"type":"Polygon","coordinates":[[[-71.592128,-35.499818],[-71.592754,-35.49569],[-71.597873,-35.494392],[-71.602366,-35.497221],[-71.601741,-35.50135],[-71.596622,-35.502648],[-71.592128,-35.499818]]]},"properties":{"comuna":"Talca","mancha_id":"07101-88b2dd98b3fffff","clase":"Alto","nivel_medio":3.17,"nivel_medio_min":3.17,"nivel_medio_max":3.17,"pct_alto":69.1,"n_hexagonos":1,"area_ha":61.37}},{"type":"Feature","geometry":{"type":"Polygon","coordinates":[[[-71.615105,-35.478107],[-71.61573,-35.473977],[-71.620849,-35.472676],[-71.625344,-35.475506],[-71.624719,-35.479637],[-71.6196,-35.480937],[-71.615105,-35.478107]]]},"properties":{"comuna":"Talca","mancha_id":"07101-88b2dd98a9fffff","clase":"Alto","nivel_medio":2.607,"nivel_medio_min":2.607,"nivel_medio_max":2.607,"pct_alto":34.4,"n_hexagonos":1,"area_ha":61.41}},{"type":"Feature","geometry":{"type":"Polygon","coordinates":[[[-71.643826,-35.450946],[-71.648321,-35.453776],[-71.648078,-35.455384],[-71.64799,-35.45538],[-71.64469,-35.45699],[-71.64298,-35.45791],[-71.64235,-35.45871],[-71.642072,-35.458892],[-71.64119,-35.45947],[-71.64065,-35.45994],[-71.6406,-35.46029],[-71.64145,-35.46093],[-71.642161,-35.461957],[-71.64217,-35.46197],[-71.64262,-35.46286],[-71.64304,-35.46371],[-71.643019,-35.464013],[-71.643,-35.46428],[-71.64215,-35.46596],[-71.64229,-35.46629],[-71.64281,-35.46695],[-71.64285,-35.46748],[-71.64207,-35.46943],[-71.64175,-35.47021],[-71.64152,-35.47127],[-71.641456,-35.471412],[-71.640703,-35.471604],[-71.636208,-35.468774],[-71.631088,-35.470075],[-71.626594,-35.467245],[-71.627218,-35.463114],[-71.632338,-35.461813],[-71.632962,-35.457682],[-71.638082,-35.45638],[-71.638706,-35.452248],[-71.643826,-35.450946]]]},"properties":{"comuna":"Talca","mancha_id":"07101-88b2dd9831fffff","clase":"Alto","nivel_medio":2.734,"nivel_medio_min":2.594,"nivel_medio_max":3.0,"pct_alto":72.5,"n_hexagonos":5,"area_ha":211.43}},{"type":"Feature","geometry":{"type":"Polygon","coordinates":[[[-71.503557,-35.434915],[-71.504184,-35.430784],[-71.509299,-35.429487],[-71.513788,-35.432321],[-71.513161,-35.436453],[-71.508046,-35.437749],[-71.503557,-35.434915]]]},"properties":{"comuna":"Talca","mancha_id":"07101-88b2dd91b1fffff","clase":"Alto","nivel_medio":2.639,"nivel_medio_min":2.639,"nivel_medio_max":2.639,"pct_alto":39.8,"n_hexagonos":1,"area_ha":61.41}},{"type":"Feature","geometry":{"type":"Polygon","coordinates":[[[-71.564834,-35.387565],[-71.565459,-35.38343],[-71.570575,-35.382128],[-71.575066,-35.384962],[-71.57444,-35.389098],[-71.578931,-35.391932],[-71.584048,-35.39063],[-71.588539,-35.393464],[-71.587914,-35.397599],[-71.582797,-35.3989],[-71.578306,-35.396067],[-71.57319,-35.397368],[-71.568699,-35.394534],[-71.569324,-35.390399],[-71.564834,-35.387565]]]},"properties":{"comuna":"Talca","mancha_id":"07101-88b2dd9121fffff","clase":"Alto","nivel_medio":2.952,"nivel_medio_min":2.916,"nivel_medio_max":2.997,"pct_alto":82.2,"n_hexagonos":3,"area_ha":184.55}},{"type":"Feature","geometry":{"type":"Polygon","coordinates":[[[-71.508094,-35.455881],[-71.51003,-35.457103],[-71.509799,-35.458629],[-71.509639,-35.45837],[-71.509568,-35.458255],[-71.508427,-35.456427],[-71.508094,-35.455881]]]},"properties":{"comuna":"Talca","mancha_id":"07101-88b2dd8353fffff","clase":"Alto","nivel_medio":2.975,"nivel_medio_min":2.975,"nivel_medio_max":2.975,"pct_alto":65.9,"n_hexagonos":1,"area_ha":1.63}},{"type":"Feature","geometry":{"type":"Polygon","coordinates":[[[-71.536236,-35.44649],[-71.536862,-35.442359],[-71.541978,-35.441062],[-71.546468,-35.443895],[-71.545843,-35.448026],[-71.540726,-35.449323],[-71.536236,-35.44649]]]},"properties":{"comuna":"Talca","mancha_id":"07101-88b2dd8345fffff","clase":"Alto","nivel_medio":2.771,"nivel_medio_min":2.771,"nivel_medio_max":2.771,"pct_alto":66.2,"n_hexagonos":1,"area_ha":61.41}},{"type":"Feature","geometry":{"type":"Polygon","coordinates":[[[-71.54783,-35.467378],[-71.548456,-35.463249],[-71.553573,-35.461951],[-71.554199,-35.457821],[-71.559316,-35.456523],[-71.559941,-35.452393],[-71.565059,-35.451094],[-71.565684,-35.446963],[-71.570801,-35.445665],[-71.575293,-35.448497],[-71.580411,-35.447197],[-71.581036,-35.443066],[-71.586153,-35.441766],[-71.590646,-35.444598],[-71.595764,-35.443298],[-71.600256,-35.446129],[-71.605375,-35.444829],[-71.609868,-35.44766],[-71.614986,-35.446359],[-71.61948,-35.44919],[-71.624599,-35.447889],[-71.629093,-35.450719],[-71.628468,-35.454851],[-71.623349,-35.456153],[-71.622724,-35.460284],[-71.617605,-35.461585],[-71.613111,-35.458754],[-71.607993,-35.460055],[-71.607368,-35.464185],[-71.611861,-35.467016],[-71.611236,-35.471146],[-71.606117,-35.472446],[-71.605492,-35.476576],[-71.600374,-35.477875],[-71.599748,-35.482005],[-71.59463,-35.483304],[-71.590136,-35.480473],[-71.590762,-35.476344],[-71.59588,-35.475045],[-71.596505,-35.470915],[-71.592012,-35.468084],[-71.592638,-35.463954],[-71.588145,-35.461123],[-71.583027,-35.462422],[-71.578534,-35.45959],[-71.573417,-35.460889],[-71.572791,-35.465019],[-71.567674,-35.466317],[-71.563182,-35.463486],[-71.558064,-35.464783],[-71.557439,-35.468913],[-71.552321,-35.47021],[-71.551696,-35.474339],[-71.546578,-35.475636],[-71.542087,-35.472804],[-71.542713,-35.468675],[-71.54783,-35.467378]],[[-71.593888,-35.455692],[-71.594513,-35.451561],[-71.590021,-35.44873],[-71.584903,-35.450029],[-71.584277,-35.45416],[-71.58877,-35.456992],[-71.593888,-35.455692]]]},"properties":{"comuna":"Talca","mancha_id":"07101-88b2dd8329fffff","clase":"Alto","nivel_medio":2.871,"nivel_medio_min":2.542,"nivel_medio_max":3.339,"pct_alto":71.6,"n_hexagonos":23,"area_ha":1412.7}},{"type":"Feature","geometry":{"type":"Polygon","coordinates":[[[-71.561305,-35.475874],[-71.56193,-35.471745],[-71.567048,-35.470447],[-71.57154,-35.473279],[-71.576658,-35.47198],[-71.58115,-35.474812],[-71.580525,-35.478941],[-71.575407,-35.480239],[-71.574781,-35.484368],[-71.569663,-35.485665],[-71.565171,-35.482834],[-71.560053,-35.484131],[-71.555561,-35.4813],[-71.556187,-35.477171],[-71.561305,-35.475874]]]},"properties":{"comuna":"Talca","mancha_id":"07101-88b2dd8325fffff","clase":"Alto","nivel_medio":2.831,"nivel_medio_min":2.508,"nivel_medio_max":3.294,"pct_alto":51.9,"n_hexagonos":4,"area_ha":245.52}},{"type":"Feature","geometry":{"type":"Polygon","coordinates":[[[-71.502305,-35.443176],[-71.501678,-35.447306],[-71.496845,-35.44853],[-71.49684,-35.448514],[-71.496728,-35.448172],[-71.496481,-35.447421],[-71.496263,-35.446757],[-71.496143,-35.446394],[-71.495794,-35.445331],[-71.495318,-35.443851],[-71.495155,-35.443346],[-71.495056,-35.443039],[-71.495021,-35.442926],[-71.494995,-35.442844],[-71.494558,-35.441434],[-71.494478,-35.441187],[-71.497816,-35.440341],[-71.502305,-35.443176]]]},"properties":{"comuna":"Talca","mancha_id":"07101-88b2dd8265fffff","clase":"Alto","nivel_medio":2.612,"nivel_medio_min":2.612,"nivel_medio_max":2.612,"pct_alto":38.8,"n_hexagonos":1,"area_ha":43.01}},{"type":"Feature","geometry":{"type":"Polygon","coordinates":[[[-71.530181,-35.491698],[-71.534466,-35.490613],[-71.537225,-35.492353],[-71.536954,-35.492597],[-71.536137,-35.493328],[-71.534981,-35.494363],[-71.532951,-35.496197],[-71.531373,-35.493672],[-71.530181,-35.491698]]]},"properties":{"comuna":"Talca","mancha_id":"07101-88b2dd8159fffff","clase":"Alto","nivel_medio":3.05,"nivel_medio_min":3.05,"nivel_medio_max":3.05,"pct_alto":81.0,"n_hexagonos":1,"area_ha":20.34}},{"type":"Feature","geometry":{"type":"Polygon","coordinates":[[[-71.584507,-35.517624],[-71.589001,-35.520454],[-71.588848,-35.521467],[-71.588846,-35.521468],[-71.588642,-35.521611],[-71.58756,-35.522515],[-71.58735,-35.522979],[-71.587286,-35.523122],[-71.586615,-35.523805],[-71.586273,-35.524031],[-71.585453,-35.524573],[-71.584412,-35.525584],[-71.583256,-35.525877],[-71.578763,-35.523047],[-71.579388,-35.518921],[-71.584507,-35.517624]]]},"properties":{"comuna":"Talca","mancha_id":"07101-88b2dd8121fffff","clase":"Alto","nivel_medio":3.057,"nivel_medio_min":3.057,"nivel_medio_max":3.057,"pct_alto":62.8,"n_hexagonos":1,"area_ha":55.52}},{"type":"Feature","geometry":{"type":"Polygon","coordinates":[[[-71.555763,-35.512426],[-71.555673,-35.513023],[-71.554036,-35.513437],[-71.553983,-35.51329],[-71.553998,-35.513204],[-71.554087,-35.513127],[-71.554197,-35.513076],[-71.554253,-35.513053],[-71.555763,-35.512426]]]},"properties":{"comuna":"Talca","mancha_id":"07101-88b2dd810bfffff","clase":"Alto","nivel_medio":3.152,"nivel_medio_min":3.152,"nivel_medio_max":3.152,"pct_alto":80.7,"n_hexagonos":1,"area_ha":0.74}},{"type":"Feature","geometry":{"type":"Polygon","coordinates":[[[-71.562042,-35.503473],[-71.561417,-35.5076],[-71.557187,-35.508671],[-71.556567,-35.507836],[-71.55572,-35.506693],[-71.555613,-35.50655],[-71.554846,-35.505526],[-71.553902,-35.504255],[-71.553281,-35.503473],[-71.552384,-35.502255],[-71.552432,-35.501939],[-71.551889,-35.501596],[-71.551429,-35.500988],[-71.551016,-35.500469],[-71.550757,-35.500143],[-71.550601,-35.499918],[-71.54891,-35.497693],[-71.548284,-35.49684],[-71.546696,-35.494679],[-71.546332,-35.494192],[-71.545592,-35.493201],[-71.545461,-35.493023],[-71.548566,-35.49498],[-71.553684,-35.493684],[-71.558176,-35.496515],[-71.55755,-35.500643],[-71.562042,-35.503473]]]},"properties":{"comuna":"Talca","mancha_id":"07101-88b2dd8109fffff","clase":"Alto","nivel_medio":2.549,"nivel_medio_min":2.501,"nivel_medio_max":2.588,"pct_alto":44.3,"n_hexagonos":3,"area_ha":108.07}},{"type":"Feature","geometry":{"type":"Polygon","coordinates":[[[-71.640213,-35.344489],[-71.63572,-35.341656],[-71.636114,-35.339043],[-71.636392,-35.338934],[-71.63666,-35.33877],[-71.63722,-35.33824],[-71.638112,-35.337192],[-71.638213,-35.337039],[-71.63852,-35.336574],[-71.638939,-35.336346],[-71.639414,-35.336213],[-71.640032,-35.335937],[-71.64054,-35.33556],[-71.64125,-35.33488],[-71.641758,-35.334245],[-71.641462,-35.336209],[-71.645954,-35.339043],[-71.64533,-35.343183],[-71.640213,-35.344489]]]},"properties":{"comuna":"Talca","mancha_id":"07101-88b2c365d5fffff","clase":"Alto","nivel_medio":2.585,"nivel_medio_min":2.571,"nivel_medio_max":2.896,"pct_alto":53.5,"n_hexagonos":2,"area_ha":62.5}},{"type":"Feature","geometry":{"type":"Polygon","coordinates":[[[-71.651195,-35.369544],[-71.65182,-35.365406],[-71.656937,-35.3641],[-71.661431,-35.366932],[-71.660807,-35.371071],[-71.655689,-35.372377],[-71.651195,-35.369544]]]},"properties":{"comuna":"Talca","mancha_id":"07101-88b2c365b1fffff","clase":"Alto","nivel_medio":2.505,"nivel_medio_min":2.505,"nivel_medio_max":2.505,"pct_alto":42.1,"n_hexagonos":1,"area_ha":61.6}},{"type":"Feature","geometry":{"type":"Polygon","coordinates":[[[-71.575788,-35.352958],[-71.574952,-35.35317],[-71.574584,-35.352938],[-71.57576,-35.35296],[-71.575788,-35.352958]]]},"properties":{"comuna":"Talca","mancha_id":"07101-88b2c36495fffff","clase":"Alto","nivel_medio":2.734,"nivel_medio_min":2.734,"nivel_medio_max":2.734,"pct_alto":91.1,"n_hexagonos":1,"area_ha":0.14}},{"type":"Feature","geometry":{"type":"Polygon","coordinates":[[[-71.648321,-35.453776],[-71.65344,-35.452473],[-71.654853,-35.453362],[-71.6533,-35.45467],[-71.65253,-35.45508],[-71.65164,-35.45546],[-71.65063,-35.45567],[-71.64922,-35.45544],[-71.648078,-35.455384],[-71.648321,-35.453776]]]},"properties":{"comuna":"Talca","mancha_id":"07101-88b2dd9835fffff","clase":"Muy Alto","nivel_medio":3.7,"nivel_medio_min":3.7,"nivel_medio_max":3.7,"pct_alto":92.7,"n_hexagonos":1,"area_ha":13.18}},{"type":"Feature","geometry":{"type":"Polygon","coordinates":[[[-71.517218,-35.470687],[-71.517757,-35.471027],[-71.517691,-35.47146],[-71.517218,-35.470687]]]},"properties":{"comuna":"Talca","mancha_id":"07101-88b2dd8311fffff","clase":"Muy Alto","nivel_medio":3.575,"nivel_medio_min":3.575,"nivel_medio_max":3.575,"pct_alto":83.8,"n_hexagonos":1,"area_ha":0.13}},{"type":"Feature","geometry":{"type":"Polygon","coordinates":[[[-71.551889,-35.501596],[-71.552432,-35.501939],[-71.552384,-35.502255],[-71.552298,-35.502138],[-71.551889,-35.501596]]]},"properties":{"comuna":"Talca","mancha_id":"07101-88b2dd8155fffff","clase":"Muy Alto","nivel_medio":3.635,"nivel_medio_min":3.635,"nivel_medio_max":3.635,"pct_alto":90.9,"n_hexagonos":1,"area_ha":0.09}}],"bbox":[-71.72275,-35.53102,-71.49251,-35.31156]}