{"type":"FeatureCollection","features":[{"type":"Feature","geometry":{"type":"Polygon","coordinates":[[[-71.258903,-35.039088],[-71.259064,-35.039047],[-71.259718,-35.039465],[-71.258903,-35.039088]]]},"properties":{"comuna":"Sagrada Familia","mancha_id":"07307-88b2c330c5fffff","clase":"Muy Bajo","nivel_medio":0.007,"nivel_medio_min":0.007,"nivel_medio_max":0.007,"pct_alto":0.0,"n_hexagonos":1,"area_ha":0.05}},{"type":"Feature","geometry":{"type":"Polygon","coordinates":[[[-71.558201,-35.138247],[-71.558826,-35.134094],[-71.563936,-35.132783],[-71.568422,-35.135626],[-71.567797,-35.139778],[-71.562686,-35.141089],[-71.558201,-35.138247]]]},"properties":{"comuna":"Sagrada Familia","mancha_id":"07307-88b2c376e9fffff","clase":"Bajo","nivel_medio":1.139,"nivel_medio_min":1.139,"nivel_medio_max":1.139,"pct_alto":0.8,"n_hexagonos":1,"area_ha":61.89}},{"type":"Feature","geometry":{"type":"Polygon","coordinates":[[[-71.523682,-35.139109],[-71.524308,-35.134957],[-71.529417,-35.133648],[-71.533901,-35.136491],[-71.533276,-35.140643],[-71.528167,-35.141952],[-71.523682,-35.139109]]]},"properties":{"comuna":"Sagrada Familia","mancha_id":"07307-88b2c376ddfffff","clase":"Bajo","nivel_medio":1.335,"nivel_medio_min":1.335,"nivel_medio_max":1.335,"pct_alto":0.1,"n_hexagonos":1,"area_ha":61.87}},{"type":"Feature","geometry":{"type":"Polygon","coordinates":[[[-71.533384,-35.172541],[-71.534009,-35.168392],[-71.53912,-35.167083],[-71.543605,-35.169925],[-71.54298,-35.174075],[-71.537869,-35.175383],[-71.533384,-35.172541]]]},"properties":{"comuna":"Sagrada Familia","mancha_id":"07307-88b2c376bbfffff","clase":"Bajo","nivel_medio":1.297,"nivel_medio_min":1.297,"nivel_medio_max":1.297,"pct_alto":2.5,"n_hexagonos":1,"area_ha":61.82}},{"type":"Feature","geometry":{"type":"Polygon","coordinates":[[[-71.540995,-35.154631],[-71.54162,-35.15048],[-71.546731,-35.149171],[-71.547356,-35.145019],[-71.552466,-35.143709],[-71.556951,-35.146551],[-71.562062,-35.145241],[-71.566548,-35.148083],[-71.565923,-35.152235],[-71.560812,-35.153545],[-71.560187,-35.157697],[-71.555076,-35.159006],[-71.550591,-35.156164],[-71.54548,-35.157473],[-71.544855,-35.161624],[-71.539745,-35.162933],[-71.53526,-35.160091],[-71.53015,-35.161399],[-71.525665,-35.158557],[-71.526291,-35.154406],[-71.5314,-35.153098],[-71.535885,-35.15594],[-71.540995,-35.154631]]]},"properties":{"comuna":"Sagrada Familia","mancha_id":"07307-88b2c37681fffff","clase":"Bajo","nivel_medio":1.294,"nivel_medio_min":1.02,"nivel_medio_max":1.474,"pct_alto":7.1,"n_hexagonos":6,"area_ha":371.13}},{"type":"Feature","geometry":{"type":"Polygon","coordinates":[[[-71.602443,-35.17081],[-71.603067,-35.166659],[-71.60818,-35.165347],[-71.612668,-35.168187],[-71.61778,-35.166876],[-71.618404,-35.162724],[-71.623517,-35.161411],[-71.624141,-35.157259],[-71.619653,-35.154419],[-71.620277,-35.150266],[-71.615789,-35.147426],[-71.616413,-35.143273],[-71.611925,-35.140432],[-71.612549,-35.136278],[-71.617661,-35.134965],[-71.618285,-35.130811],[-71.613797,-35.12797],[-71.614422,-35.123816],[-71.619533,-35.122502],[-71.620157,-35.118347],[-71.625269,-35.117033],[-71.625893,-35.112877],[-71.631005,-35.111563],[-71.635493,-35.114404],[-71.640605,-35.113089],[-71.645093,-35.115929],[-71.650206,-35.114614],[-71.650829,-35.110458],[-71.655942,-35.109142],[-71.656565,-35.104985],[-71.661678,-35.103669],[-71.666167,-35.106509],[-71.67128,-35.105193],[-71.67577,-35.108033],[-71.680883,-35.106716],[-71.685373,-35.109556],[-71.685365,-35.109605],[-71.68486,-35.109743],[-71.684651,-35.109905],[-71.684883,-35.110414],[-71.685181,-35.110835],[-71.68475,-35.113712],[-71.679636,-35.115029],[-71.675146,-35.11219],[-71.670033,-35.113506],[-71.66941,-35.117663],[-71.6739,-35.120502],[-71.679013,-35.119186],[-71.683503,-35.122025],[-71.68288,-35.126181],[-71.677767,-35.127498],[-71.673276,-35.124658],[-71.668163,-35.125974],[-71.66754,-35.13013],[-71.662427,-35.131445],[-71.657937,-35.128606],[-71.658561,-35.12445],[-71.654071,-35.12161],[-71.648959,-35.122925],[-71.64447,-35.120085],[-71.639357,-35.1214],[-71.638734,-35.125555],[-71.643222,-35.128396],[-71.642599,-35.13255],[-71.637486,-35.133865],[-71.636862,-35.138019],[-71.641351,-35.140859],[-71.640727,-35.145013],[-71.635614,-35.146327],[-71.634991,-35.15048],[-71.629878,-35.151793],[-71.629254,-35.155946],[-71.633743,-35.158786],[-71.633119,-35.162938],[-71.637608,-35.165778],[-71.636984,-35.16993],[-71.641473,-35.172769],[-71.64085,-35.17692],[-71.645339,-35.179759],[-71.644715,-35.18391],[-71.639602,-35.185223],[-71.635112,-35.182384],[-71.635736,-35.178233],[-71.631247,-35.175394],[-71.631871,-35.171242],[-71.627382,-35.168403],[-71.622269,-35.169715],[-71.621645,-35.173867],[-71.616532,-35.175178],[-71.615908,-35.179329],[-71.620396,-35.182169],[-71.619772,-35.186319],[-71.614659,-35.187631],[-71.614035,-35.191781],[-71.608922,-35.193091],[-71.604433,-35.190252],[-71.605058,-35.186102],[-71.60057,-35.183263],[-71.601194,-35.179112],[-71.606307,-35.177801],[-71.606931,-35.17365],[-71.602443,-35.17081]]]},"properties":{"comuna":"Sagrada Familia","mancha_id":"07307-88b2c37403fffff","clase":"Bajo","nivel_medio":1.237,"nivel_medio_min":0.987,"nivel_medio_max":1.492,"pct_alto":4.3,"n_hexagonos":36,"area_ha":2228.97}},{"type":"Feature","geometry":{"type":"Polygon","coordinates":[[[-71.686619,-35.101241],[-71.681506,-35.102558],[-71.680221,-35.101745],[-71.680929,-35.101241],[-71.683937,-35.099519],[-71.685484,-35.098734],[-71.687014,-35.098608],[-71.687075,-35.098603],[-71.689102,-35.098799],[-71.691761,-35.098189],[-71.69381,-35.097971],[-71.694987,-35.098189],[-71.696813,-35.098822],[-71.697189,-35.098952],[-71.702269,-35.100556],[-71.701329,-35.100672],[-71.700214,-35.100734],[-71.69912,-35.101105],[-71.698253,-35.101828],[-71.697716,-35.102323],[-71.697138,-35.103025],[-71.697109,-35.103323],[-71.697075,-35.103676],[-71.695762,-35.104168],[-71.6949,-35.104722],[-71.694628,-35.104991],[-71.694004,-35.105337],[-71.693104,-35.105591],[-71.692555,-35.105836],[-71.692041,-35.106123],[-71.691642,-35.106456],[-71.690948,-35.107035],[-71.690613,-35.107395],[-71.691109,-35.104081],[-71.686619,-35.101241]]]},"properties":{"comuna":"Sagrada Familia","mancha_id":"07307-88b2c37295fffff","clase":"Bajo","nivel_medio":1.33,"nivel_medio_min":1.276,"nivel_medio_max":1.436,"pct_alto":1.9,"n_hexagonos":4,"area_ha":81.78}},{"type":"Feature","geometry":{"type":"Polygon","coordinates":[[[-71.33996,-34.990407],[-71.335487,-34.987554],[-71.336104,-34.983465],[-71.336795,-34.983492],[-71.337485,-34.983597],[-71.338216,-34.983626],[-71.339146,-34.983663],[-71.340107,-34.983784],[-71.340654,-34.983953],[-71.341661,-34.984415],[-71.343171,-34.985254],[-71.344304,-34.986051],[-71.344781,-34.986644],[-71.345117,-34.987141],[-71.345327,-34.987339],[-71.345061,-34.989101],[-71.33996,-34.990407]]]},"properties":{"comuna":"Sagrada Familia","mancha_id":"07307-88b2c33305fffff","clase":"Bajo","nivel_medio":1.483,"nivel_medio_min":1.483,"nivel_medio_max":1.483,"pct_alto":13.3,"n_hexagonos":1,"area_ha":47.97}},{"type":"Feature","geometry":{"type":"Polygon","coordinates":[[[-71.59823,-35.068039],[-71.598854,-35.063881],[-71.603964,-35.062566],[-71.60448,-35.059125],[-71.60535,-35.059591],[-71.606691,-35.060021],[-71.607788,-35.060182],[-71.608866,-35.060362],[-71.609836,-35.060901],[-71.610519,-35.061619],[-71.610986,-35.063057],[-71.611191,-35.063646],[-71.611568,-35.063949],[-71.611917,-35.064065],[-71.612575,-35.064347],[-71.60845,-35.065409],[-71.607826,-35.069567],[-71.612312,-35.07241],[-71.611688,-35.076569],[-71.606578,-35.077884],[-71.602091,-35.075041],[-71.602716,-35.070883],[-71.59823,-35.068039]]]},"properties":{"comuna":"Sagrada Familia","mancha_id":"07307-88b2c30dd1fffff","clase":"Bajo","nivel_medio":1.384,"nivel_medio_min":1.273,"nivel_medio_max":1.481,"pct_alto":4.3,"n_hexagonos":3,"area_ha":153.52}},{"type":"Feature","geometry":{"type":"Polygon","coordinates":[[[-71.604081,-35.094512],[-71.604705,-35.090355],[-71.609816,-35.089041],[-71.614303,-35.091883],[-71.613679,-35.09604],[-71.608568,-35.097354],[-71.604081,-35.094512]]]},"properties":{"comuna":"Sagrada Familia","mancha_id":"07307-88b2c30d97fffff","clase":"Bajo","nivel_medio":1.31,"nivel_medio_min":1.31,"nivel_medio_max":1.31,"pct_alto":23.1,"n_hexagonos":1,"area_ha":61.98}},{"type":"Feature","geometry":{"type":"Polygon","coordinates":[[[-71.616175,-35.079411],[-71.621286,-35.078096],[-71.623261,-35.079347],[-71.623023,-35.079585],[-71.62252,-35.080304],[-71.62242,-35.08125],[-71.6227,-35.08228],[-71.623008,-35.083104],[-71.623422,-35.083628],[-71.624166,-35.084318],[-71.624801,-35.084704],[-71.625194,-35.084796],[-71.625149,-35.085096],[-71.628527,-35.087235],[-71.628827,-35.0876],[-71.629595,-35.088211],[-71.630041,-35.088565],[-71.630799,-35.089],[-71.631976,-35.088882],[-71.633022,-35.088316],[-71.634003,-35.087662],[-71.634809,-35.08703],[-71.635135,-35.086867],[-71.635856,-35.086507],[-71.636749,-35.08618],[-71.637577,-35.085657],[-71.638406,-35.085264],[-71.639474,-35.085548],[-71.640062,-35.085613],[-71.641697,-35.086463],[-71.64344,-35.087793],[-71.643945,-35.088251],[-71.639235,-35.089464],[-71.638612,-35.093621],[-71.6431,-35.096463],[-71.648212,-35.095146],[-71.6527,-35.097988],[-71.652077,-35.102145],[-71.646964,-35.103461],[-71.646341,-35.107617],[-71.641229,-35.108933],[-71.63674,-35.106092],[-71.631629,-35.107407],[-71.627141,-35.104565],[-71.622029,-35.10588],[-71.617542,-35.103038],[-71.618166,-35.098882],[-71.623277,-35.097567],[-71.623901,-35.09341],[-71.619414,-35.090568],[-71.620038,-35.086411],[-71.615551,-35.083569],[-71.616175,-35.079411]]]},"properties":{"comuna":"Sagrada Familia","mancha_id":"07307-88b2c30d83fffff","clase":"Bajo","nivel_medio":1.374,"nivel_medio_min":1.245,"nivel_medio_max":1.499,"pct_alto":7.0,"n_hexagonos":10,"area_ha":560.07}},{"type":"Feature","geometry":{"type":"Polygon","coordinates":[[[-71.579039,-35.064981],[-71.579664,-35.060823],[-71.584773,-35.059508],[-71.589258,-35.062352],[-71.588634,-35.066511],[-71.583525,-35.067825],[-71.579039,-35.064981]]]},"properties":{"comuna":"Sagrada Familia","mancha_id":"07307-88b2c30ce7fffff","clase":"Bajo","nivel_medio":1.181,"nivel_medio_min":1.181,"nivel_medio_max":1.181,"pct_alto":8.0,"n_hexagonos":1,"area_ha":62.01}},{"type":"Feature","geometry":{"type":"Polygon","coordinates":[[[-71.594992,-35.056879],[-71.590507,-35.054035],[-71.585398,-35.05535],[-71.580913,-35.052505],[-71.581521,-35.048451],[-71.581975,-35.048694],[-71.583108,-35.049104],[-71.584179,-35.049513],[-71.585375,-35.049985],[-71.586383,-35.050363],[-71.587485,-35.050489],[-71.588524,-35.050489],[-71.589154,-35.050867],[-71.589532,-35.05115],[-71.589941,-35.051654],[-71.590382,-35.051875],[-71.590816,-35.051978],[-71.591043,-35.052032],[-71.591453,-35.05241],[-71.591862,-35.05304],[-71.592427,-35.053571],[-71.592923,-35.053963],[-71.593739,-35.054649],[-71.594179,-35.055116],[-71.594583,-35.055819],[-71.595344,-35.056534],[-71.595614,-35.056718],[-71.594992,-35.056879]]]},"properties":{"comuna":"Sagrada Familia","mancha_id":"07307-88b2c30c33fffff","clase":"Bajo","nivel_medio":1.411,"nivel_medio_min":1.304,"nivel_medio_max":1.43,"pct_alto":1.0,"n_hexagonos":2,"area_ha":48.79}},{"type":"Feature","geometry":{"type":"Polygon","coordinates":[[[-71.392943,-34.996824],[-71.39357,-34.992665],[-71.389094,-34.989813],[-71.383992,-34.991122],[-71.383365,-34.995281],[-71.387841,-34.998132],[-71.387214,-35.002291],[-71.382112,-35.003599],[-71.381485,-35.007757],[-71.38596,-35.010608],[-71.385334,-35.014766],[-71.38981,-35.017617],[-71.389183,-35.021774],[-71.38408,-35.023081],[-71.379604,-35.020231],[-71.374502,-35.021537],[-71.373875,-35.025694],[-71.368772,-35.027],[-71.368145,-35.031157],[-71.363043,-35.032462],[-71.362416,-35.036618],[-71.366891,-35.039469],[-71.366264,-35.043625],[-71.361161,-35.044929],[-71.356686,-35.042079],[-71.351584,-35.043383],[-71.347109,-35.040533],[-71.342007,-35.041837],[-71.34138,-35.045992],[-71.336278,-35.047295],[-71.33565,-35.05145],[-71.330548,-35.052753],[-71.329921,-35.056907],[-71.334395,-35.059758],[-71.333768,-35.063912],[-71.328666,-35.065214],[-71.324191,-35.062363],[-71.324819,-35.05821],[-71.320345,-35.055359],[-71.319494,-35.055576],[-71.31806,-35.05496],[-71.317857,-35.055423],[-71.317627,-35.055787],[-71.317441,-35.056094],[-71.31744,-35.0561],[-71.315244,-35.056661],[-71.31077,-35.05381],[-71.305669,-35.055112],[-71.305041,-35.059265],[-71.309514,-35.062116],[-71.308886,-35.066269],[-71.310466,-35.067276],[-71.3103,-35.06755],[-71.310449,-35.067754],[-71.31059,-35.06806],[-71.310538,-35.068453],[-71.31031,-35.06897],[-71.30997,-35.06916],[-71.309485,-35.069255],[-71.30912,-35.06936],[-71.30864,-35.06989],[-71.308326,-35.070367],[-71.30774,-35.07106],[-71.307452,-35.07148],[-71.30711,-35.07215],[-71.30646,-35.07269],[-71.305823,-35.073188],[-71.305669,-35.073324],[-71.304934,-35.073975],[-71.303867,-35.074839],[-71.303639,-35.075084],[-71.302351,-35.073465],[-71.301341,-35.072187],[-71.300514,-35.071142],[-71.29973,-35.070137],[-71.298004,-35.067987],[-71.296054,-35.06555],[-71.295671,-35.065072],[-71.293666,-35.062572],[-71.292338,-35.060932],[-71.29134,-35.0597],[-71.290725,-35.058924],[-71.295467,-35.057715],[-71.296095,-35.053561],[-71.291622,-35.050709],[-71.29225,-35.046556],[-71.287778,-35.043703],[-71.282678,-35.045005],[-71.28205,-35.049158],[-71.286522,-35.052011],[-71.286319,-35.053354],[-71.285807,-35.0527],[-71.28535,-35.052193],[-71.285049,-35.051929],[-71.284463,-35.051466],[-71.284055,-35.051243],[-71.283443,-35.050898],[-71.282437,-35.050406],[-71.281706,-35.05005],[-71.281489,-35.049945],[-71.280618,-35.049523],[-71.279858,-35.049155],[-71.278587,-35.048552],[-71.276841,-35.047729],[-71.275358,-35.047029],[-71.273453,-35.046128],[-71.272751,-35.045797],[-71.272158,-35.045517],[-71.270519,-35.044727],[-71.268663,-35.043814],[-71.267565,-35.043269],[-71.265214,-35.042106],[-71.26436,-35.04169],[-71.26339,-35.041217],[-71.260516,-35.039833],[-71.259718,-35.039465],[-71.259064,-35.039047],[-71.258903,-35.039088],[-71.258824,-35.039051],[-71.25746,-35.03838],[-71.256932,-35.038105],[-71.256621,-35.037821],[-71.255307,-35.036039],[-71.253558,-35.033635],[-71.252844,-35.032646],[-71.25219,-35.031738],[-71.252023,-35.031488],[-71.249822,-35.028514],[-71.24909,-35.02749],[-71.248646,-35.02691],[-71.248843,-35.026746],[-71.249764,-35.025999],[-71.25,-35.025896],[-71.250851,-35.025525],[-71.251429,-35.025261],[-71.251644,-35.0252],[-71.251946,-35.025114],[-71.252625,-35.024999],[-71.253904,-35.024873],[-71.254864,-35.024883],[-71.255454,-35.024769],[-71.256246,-35.024287],[-71.257142,-35.023908],[-71.258073,-35.023908],[-71.258345,-35.023796],[-71.258623,-35.023568],[-71.258814,-35.023213],[-71.258865,-35.022771],[-71.259416,-35.021358],[-71.259631,-35.021187],[-71.259747,-35.021095],[-71.260128,-35.020846],[-71.261621,-35.01998],[-71.262043,-35.019655],[-71.262448,-35.019395],[-71.263068,-35.01874],[-71.264102,-35.017982],[-71.264481,-35.017568],[-71.265101,-35.017052],[-71.26571,-35.016782],[-71.266307,-35.016466],[-71.266375,-35.01638],[-71.266846,-35.015783],[-71.267448,-35.015003],[-71.267858,-35.014388],[-71.268571,-35.013614],[-71.26909,-35.013361],[-71.270499,-35.012688],[-71.27173,-35.012103],[-71.272209,-35.011925],[-71.272993,-35.011776],[-71.272999,-35.011775],[-71.273516,-35.011577],[-71.273919,-35.011289],[-71.27418,-35.011104],[-71.274494,-35.010666],[-71.275069,-35.010242],[-71.27565,-35.009936],[-71.276232,-35.009513],[-71.277009,-35.009213],[-71.277838,-35.008701],[-71.278444,-35.008151],[-71.278614,-35.007996],[-71.278914,-35.00722],[-71.278984,-35.006373],[-71.279063,-35.00598],[-71.283859,-35.004755],[-71.284487,-35.000598],[-71.281755,-34.998854],[-71.28193,-34.998664],[-71.282565,-34.998329],[-71.282964,-34.99827],[-71.283388,-34.998092],[-71.283757,-34.997846],[-71.284083,-34.997552],[-71.28419,-34.996279],[-71.284168,-34.99526],[-71.283921,-34.994781],[-71.28399,-34.994411],[-71.284222,-34.994069],[-71.284759,-34.99372],[-71.286003,-34.993364],[-71.286983,-34.993075],[-71.287567,-34.992902],[-71.289273,-34.992298],[-71.290624,-34.991232],[-71.291477,-34.99045],[-71.29265,-34.989277],[-71.293116,-34.98898],[-71.293745,-34.988815],[-71.294435,-34.988714],[-71.295209,-34.988601],[-71.296844,-34.988317],[-71.298017,-34.987748],[-71.298799,-34.986966],[-71.299382,-34.986708],[-71.300039,-34.986571],[-71.301336,-34.986419],[-71.301042,-34.988372],[-71.305513,-34.991226],[-71.310613,-34.989921],[-71.315086,-34.992775],[-71.320186,-34.99147],[-71.324658,-34.994323],[-71.324031,-34.998481],[-71.328504,-35.001334],[-71.333605,-35.000029],[-71.338078,-35.002881],[-71.343179,-35.001576],[-71.343806,-34.997418],[-71.348908,-34.996112],[-71.353382,-34.998964],[-71.358483,-34.997658],[-71.35911,-34.993499],[-71.354636,-34.990647],[-71.355231,-34.986703],[-71.355726,-34.986577],[-71.356707,-34.986254],[-71.357024,-34.986037],[-71.3572,-34.985915],[-71.35775,-34.98544],[-71.359087,-34.984518],[-71.3606,-34.983618],[-71.361022,-34.983367],[-71.362431,-34.982902],[-71.363454,-34.982636],[-71.36427,-34.982535],[-71.364974,-34.982626],[-71.365937,-34.982578],[-71.367094,-34.981758],[-71.368025,-34.981038],[-71.368139,-34.981018],[-71.369166,-34.980843],[-71.370007,-34.980878],[-71.370974,-34.981132],[-71.372202,-34.980963],[-71.374178,-34.980746],[-71.375197,-34.980737],[-71.375732,-34.980839],[-71.376182,-34.980924],[-71.377022,-34.980891],[-71.377745,-34.980722],[-71.378854,-34.980556],[-71.380647,-34.980629],[-71.381409,-34.98052],[-71.382034,-34.980233],[-71.383172,-34.979475],[-71.383807,-34.978779],[-71.384463,-34.978651],[-71.385019,-34.978637],[-71.385857,-34.978738],[-71.386459,-34.97881],[-71.387438,-34.979329],[-71.388359,-34.98025],[-71.389217,-34.980906],[-71.390057,-34.981379],[-71.391297,-34.981755],[-71.392967,-34.981748],[-71.393655,-34.981852],[-71.39418,-34.982062],[-71.394732,-34.982167],[-71.395151,-34.982167],[-71.394823,-34.984345],[-71.399299,-34.987196],[-71.398672,-34.991356],[-71.403148,-34.994207],[-71.402522,-34.998367],[-71.406998,-35.001218],[-71.412101,-34.999909],[-71.412728,-34.995749],[-71.408251,-34.992898],[-71.408877,-34.988738],[-71.404401,-34.985887],[-71.404864,-34.982813],[-71.405697,-34.983015],[-71.40673,-34.983451],[-71.407252,-34.983879],[-71.407836,-34.984557],[-71.408676,-34.984872],[-71.409613,-34.984916],[-71.410698,-34.984872],[-71.41146,-34.985082],[-71.412032,-34.985664],[-71.412413,-34.986096],[-71.413062,-34.986631],[-71.413718,-34.987104],[-71.414022,-34.987152],[-71.414452,-34.98722],[-71.417044,-34.98745],[-71.418887,-34.987738],[-71.420903,-34.987796],[-71.422285,-34.987796],[-71.423435,-34.987629],[-71.423775,-34.987542],[-71.42356,-34.98897],[-71.428037,-34.991821],[-71.43177,-34.990862],[-71.432133,-34.991207],[-71.432613,-34.991686],[-71.433202,-34.992091],[-71.434198,-34.992644],[-71.435304,-34.993308],[-71.43652,-34.993271],[-71.436944,-34.993357],[-71.437294,-34.993492],[-71.437546,-34.993841],[-71.437773,-34.994156],[-71.438437,-34.99493],[-71.43935,-34.9955],[-71.440428,-34.996073],[-71.441497,-34.99692],[-71.442492,-34.997289],[-71.444261,-34.997731],[-71.445453,-34.997926],[-71.446279,-34.998209],[-71.446663,-34.998465],[-71.446574,-34.99906],[-71.448168,-35.000074],[-71.449468,-35.001751],[-71.450118,-35.002049],[-71.450659,-35.00203],[-71.451032,-35.002045],[-71.451152,-35.002049],[-71.451722,-35.002175],[-71.452363,-35.002475],[-71.452891,-35.003093],[-71.453597,-35.003518],[-71.454851,-35.004013],[-71.455665,-35.004511],[-71.457022,-35.005144],[-71.458379,-35.005868],[-71.459601,-35.006637],[-71.460082,-35.007128],[-71.460132,-35.007179],[-71.460556,-35.007514],[-71.461069,-35.007621],[-71.461682,-35.007677],[-71.462607,-35.008045],[-71.463023,-35.00844],[-71.46331,-35.008808],[-71.464034,-35.009849],[-71.464315,-35.010347],[-71.464465,-35.010613],[-71.465029,-35.011613],[-71.466205,-35.013694],[-71.466975,-35.014644],[-71.468151,-35.016453],[-71.468811,-35.017345],[-71.469157,-35.017813],[-71.469389,-35.019157],[-71.469204,-35.020292],[-71.468746,-35.021475],[-71.468608,-35.022111],[-71.46862,-35.022199],[-71.468691,-35.022718],[-71.469041,-35.023465],[-71.469922,-35.025225],[-71.470871,-35.026985],[-71.471591,-35.027607],[-71.471717,-35.027653],[-71.472668,-35.027994],[-71.473884,-35.028519],[-71.475133,-35.029093],[-71.47636,-35.029232],[-71.476986,-35.029],[-71.477241,-35.02863],[-71.477912,-35.028051],[-71.478792,-35.027958],[-71.479951,-35.028051],[-71.480738,-35.027888],[-71.481548,-35.027563],[-71.481156,-35.030168],[-71.485636,-35.033016],[-71.490742,-35.031705],[-71.490762,-35.031573],[-71.491339,-35.03176],[-71.492264,-35.031895],[-71.49304,-35.032326],[-71.493701,-35.033286],[-71.494106,-35.033843],[-71.494488,-35.034368],[-71.494882,-35.035647],[-71.494984,-35.036141],[-71.495226,-35.03732],[-71.496752,-35.039583],[-71.497748,-35.040712],[-71.498228,-35.041256],[-71.499053,-35.041728],[-71.499939,-35.042236],[-71.5,-35.042263],[-71.501278,-35.042831],[-71.503541,-35.043126],[-71.505755,-35.043421],[-71.507133,-35.04347],[-71.508539,-35.043012],[-71.509249,-35.042781],[-71.509734,-35.042819],[-71.511167,-35.042929],[-71.512594,-35.043323],[-71.513677,-35.043815],[-71.514513,-35.044602],[-71.514872,-35.044983],[-71.515184,-35.045197],[-71.515783,-35.045197],[-71.517072,-35.044799],[-71.517885,-35.044392],[-71.518351,-35.044159],[-71.519433,-35.043569],[-71.521598,-35.042831],[-71.523074,-35.042535],[-71.523486,-35.04249],[-71.523362,-35.043315],[-71.518255,-35.044627],[-71.51763,-35.048786],[-71.512523,-35.050097],[-71.511898,-35.054255],[-71.51638,-35.057101],[-71.515754,-35.061258],[-71.510647,-35.06257],[-71.506165,-35.059724],[-71.50679,-35.055566],[-71.502309,-35.05272],[-71.497202,-35.054031],[-71.492721,-35.051184],[-71.487614,-35.052495],[-71.483134,-35.049648],[-71.478027,-35.050958],[-71.477402,-35.055115],[-71.481882,-35.057962],[-71.486989,-35.056652],[-71.49147,-35.059499],[-71.490844,-35.063655],[-71.495326,-35.066502],[-71.4947,-35.070658],[-71.489593,-35.071968],[-71.488968,-35.076123],[-71.483861,-35.077433],[-71.47938,-35.074586],[-71.480005,-35.070431],[-71.475525,-35.067584],[-71.470418,-35.068893],[-71.469792,-35.073049],[-71.474273,-35.075895],[-71.473647,-35.080051],[-71.478128,-35.082897],[-71.483235,-35.081588],[-71.487716,-35.084434],[-71.492823,-35.083125],[-71.497305,-35.08597],[-71.49668,-35.090125],[-71.501162,-35.092971],[-71.50627,-35.091661],[-71.510752,-35.094506],[-71.510127,-35.098661],[-71.505019,-35.09997],[-71.504393,-35.104124],[-71.499285,-35.105433],[-71.49866,-35.109587],[-71.493552,-35.110895],[-71.48907,-35.108051],[-71.483962,-35.109359],[-71.47948,-35.106513],[-71.474373,-35.107821],[-71.469892,-35.104976],[-71.464785,-35.106283],[-71.460304,-35.103437],[-71.46093,-35.099284],[-71.466037,-35.097976],[-71.470518,-35.100822],[-71.475625,-35.099514],[-71.476251,-35.09536],[-71.47177,-35.092514],[-71.466663,-35.093822],[-71.462182,-35.090976],[-71.462808,-35.086822],[-71.467915,-35.085514],[-71.468541,-35.081359],[-71.46406,-35.078513],[-71.464686,-35.074358],[-71.460206,-35.071511],[-71.460832,-35.067355],[-71.465938,-35.066046],[-71.466564,-35.06189],[-71.462084,-35.059043],[-71.46271,-35.054887],[-71.467815,-35.053577],[-71.468441,-35.04942],[-71.463961,-35.046573],[-71.464587,-35.042416],[-71.460108,-35.039568],[-71.455002,-35.040877],[-71.454376,-35.045034],[-71.449271,-35.046343],[-71.448645,-35.0505],[-71.44354,-35.051809],[-71.439061,-35.04896],[-71.439687,-35.044804],[-71.435209,-35.041955],[-71.430104,-35.043264],[-71.429478,-35.04742],[-71.424373,-35.048728],[-71.423747,-35.052884],[-71.428225,-35.055732],[-71.427599,-35.059888],[-71.422494,-35.061195],[-71.418016,-35.058347],[-71.418642,-35.054191],[-71.414165,-35.051342],[-71.414791,-35.047186],[-71.410313,-35.044337],[-71.41094,-35.040181],[-71.416044,-35.038873],[-71.41667,-35.034716],[-71.421774,-35.033409],[-71.422401,-35.029251],[-71.427505,-35.027943],[-71.428131,-35.023785],[-71.423653,-35.020935],[-71.41855,-35.022244],[-71.414072,-35.019394],[-71.408969,-35.020702],[-71.404492,-35.017852],[-71.405119,-35.013694],[-71.400642,-35.010844],[-71.401269,-35.006685],[-71.396792,-35.003834],[-71.397419,-34.999675],[-71.392943,-34.996824]],[[-71.442818,-35.024016],[-71.437713,-35.025325],[-71.437087,-35.029483],[-71.441566,-35.032332],[-71.44667,-35.031023],[-71.447296,-35.026865],[-71.442818,-35.024016]],[[-71.29029,-35.027085],[-71.289662,-35.03124],[-71.294135,-35.034093],[-71.293507,-35.038247],[-71.297979,-35.0411],[-71.30308,-35.039798],[-71.307553,-35.04265],[-71.312654,-35.041347],[-71.313281,-35.037192],[-71.308808,-35.03434],[-71.309436,-35.030185],[-71.304963,-35.027333],[-71.299863,-35.028635],[-71.295391,-35.025783],[-71.296019,-35.021627],[-71.291546,-35.018774],[-71.286447,-35.020076],[-71.285819,-35.024232],[-71.29029,-35.027085]],[[-71.320265,-35.023423],[-71.324739,-35.026275],[-71.32984,-35.024971],[-71.330467,-35.020815],[-71.325994,-35.017962],[-71.320893,-35.019267],[-71.320265,-35.023423]],[[-71.483759,-35.04549],[-71.488865,-35.04418],[-71.489491,-35.040022],[-71.48501,-35.037174],[-71.479904,-35.038485],[-71.479279,-35.042643],[-71.483759,-35.04549]]]},"properties":{"comuna":"Sagrada Familia","mancha_id":"07307-88b2c30481fffff","clase":"Bajo","nivel_medio":1.199,"nivel_medio_min":0.715,"nivel_medio_max":1.496,"pct_alto":4.2,"n_hexagonos":213,"area_ha":11775.86}},{"type":"Feature","geometry":{"type":"Polygon","coordinates":[[[-71.567684,-35.107859],[-71.568309,-35.103704],[-71.573419,-35.102392],[-71.577905,-35.105235],[-71.57728,-35.10939],[-71.57217,-35.110702],[-71.567684,-35.107859]]]},"properties":{"comuna":"Sagrada Familia","mancha_id":"07307-88b2c37655fffff","clase":"Medio","nivel_medio":2.232,"nivel_medio_min":2.232,"nivel_medio_max":2.232,"pct_alto":23.2,"n_hexagonos":1,"area_ha":61.94}},{"type":"Feature","geometry":{"type":"Polygon","coordinates":[[[-71.686272,-35.114234],[-71.686162,-35.114606],[-71.686156,-35.114627],[-71.686017,-35.115299],[-71.685948,-35.1159],[-71.685948,-35.116433],[-71.686179,-35.116826],[-71.686526,-35.11722],[-71.68685,-35.117822],[-71.686897,-35.118123],[-71.686897,-35.118285],[-71.686665,-35.118771],[-71.685624,-35.120854],[-71.685593,-35.121487],[-71.683503,-35.122025],[-71.679013,-35.119186],[-71.6739,-35.120502],[-71.66941,-35.117663],[-71.670033,-35.113506],[-71.675146,-35.11219],[-71.679636,-35.115029],[-71.68475,-35.113712],[-71.685181,-35.110835],[-71.685276,-35.11097],[-71.6856,-35.111572],[-71.685855,-35.112474],[-71.686133,-35.1131],[-71.686249,-35.113748],[-71.686272,-35.114234]]]},"properties":{"comuna":"Sagrada Familia","mancha_id":"07307-88b2c372b3fffff","clase":"Medio","nivel_medio":1.815,"nivel_medio_min":1.726,"nivel_medio_max":2.263,"pct_alto":20.2,"n_hexagonos":3,"area_ha":112.05}},{"type":"Feature","geometry":{"type":"Polygon","coordinates":[[[-71.485636,-35.033016],[-71.481156,-35.030168],[-71.481548,-35.027563],[-71.481698,-35.027502],[-71.483036,-35.027413],[-71.484776,-35.027234],[-71.486321,-35.027431],[-71.488191,-35.028267],[-71.489125,-35.029448],[-71.489372,-35.030255],[-71.489717,-35.031032],[-71.490306,-35.031426],[-71.490762,-35.031573],[-71.490742,-35.031705],[-71.485636,-35.033016]]]},"properties":{"comuna":"Sagrada Familia","mancha_id":"07307-88b2c33b49fffff","clase":"Medio","nivel_medio":1.63,"nivel_medio_min":1.63,"nivel_medio_max":1.63,"pct_alto":5.8,"n_hexagonos":1,"area_ha":36.15}},{"type":"Feature","geometry":{"type":"Polygon","coordinates":[[[-71.479279,-35.042643],[-71.479904,-35.038485],[-71.48501,-35.037174],[-71.489491,-35.040022],[-71.488865,-35.04418],[-71.483759,-35.04549],[-71.479279,-35.042643]]]},"properties":{"comuna":"Sagrada Familia","mancha_id":"07307-88b2c33b43fffff","clase":"Medio","nivel_medio":1.576,"nivel_medio_min":1.576,"nivel_medio_max":1.576,"pct_alto":0.5,"n_hexagonos":1,"area_ha":61.98}},{"type":"Feature","geometry":{"type":"Polygon","coordinates":[[[-71.437087,-35.029483],[-71.437713,-35.025325],[-71.442818,-35.024016],[-71.447296,-35.026865],[-71.44667,-35.031023],[-71.441566,-35.032332],[-71.437087,-35.029483]]]},"properties":{"comuna":"Sagrada Familia","mancha_id":"07307-88b2c33a69fffff","clase":"Medio","nivel_medio":1.529,"nivel_medio_min":1.529,"nivel_medio_max":1.529,"pct_alto":5.5,"n_hexagonos":1,"area_ha":61.98}},{"type":"Feature","geometry":{"type":"Polygon","coordinates":[[[-71.422401,-35.029251],[-71.417923,-35.026402],[-71.412819,-35.02771],[-71.408342,-35.02486],[-71.408969,-35.020702],[-71.414072,-35.019394],[-71.41855,-35.022244],[-71.423653,-35.020935],[-71.428131,-35.023785],[-71.427505,-35.027943],[-71.422401,-35.029251]]]},"properties":{"comuna":"Sagrada Familia","mancha_id":"07307-88b2c33a41fffff","clase":"Medio","nivel_medio":1.938,"nivel_medio_min":1.55,"nivel_medio_max":2.326,"pct_alto":30.5,"n_hexagonos":2,"area_ha":123.93}},{"type":"Feature","geometry":{"type":"Polygon","coordinates":[[[-71.336104,-34.983465],[-71.335487,-34.987554],[-71.33996,-34.990407],[-71.345061,-34.989101],[-71.345327,-34.987339],[-71.345562,-34.987561],[-71.345851,-34.987768],[-71.346354,-34.987921],[-71.346906,-34.987894],[-71.34739,-34.987693],[-71.347683,-34.987435],[-71.347996,-34.987142],[-71.348751,-34.986806],[-71.349581,-34.986805],[-71.349931,-34.987088],[-71.350093,-34.987603],[-71.350387,-34.987771],[-71.351571,-34.988056],[-71.351877,-34.988059],[-71.352311,-34.987921],[-71.352862,-34.987814],[-71.354018,-34.987375],[-71.355124,-34.98673],[-71.355231,-34.986703],[-71.354636,-34.990647],[-71.35911,-34.993499],[-71.358483,-34.997658],[-71.353382,-34.998964],[-71.348908,-34.996112],[-71.343806,-34.997418],[-71.343179,-35.001576],[-71.338078,-35.002881],[-71.333605,-35.000029],[-71.328504,-35.001334],[-71.324031,-34.998481],[-71.324658,-34.994323],[-71.320186,-34.99147],[-71.315086,-34.992775],[-71.310613,-34.989921],[-71.305513,-34.991226],[-71.301042,-34.988372],[-71.301336,-34.986419],[-71.301821,-34.986362],[-71.303624,-34.986093],[-71.304554,-34.985737],[-71.305252,-34.985381],[-71.306087,-34.985053],[-71.307157,-34.984771],[-71.3086,-34.984425],[-71.309208,-34.984466],[-71.309603,-34.984492],[-71.310326,-34.984457],[-71.310752,-34.984191],[-71.311173,-34.983798],[-71.311724,-34.983589],[-71.312189,-34.983561],[-71.313092,-34.983685],[-71.31406,-34.984206],[-71.314542,-34.984437],[-71.315158,-34.984574],[-71.315651,-34.984588],[-71.316162,-34.984488],[-71.31621,-34.984492],[-71.316389,-34.984505],[-71.316633,-34.984645],[-71.316634,-34.984645],[-71.320813,-34.987312],[-71.325913,-34.986006],[-71.326283,-34.983555],[-71.327282,-34.983601],[-71.328045,-34.983863],[-71.328969,-34.984445],[-71.330418,-34.985338],[-71.331467,-34.985338],[-71.332275,-34.985002],[-71.332809,-34.984583],[-71.333774,-34.983828],[-71.334792,-34.98348],[-71.335704,-34.98345],[-71.336104,-34.983465]]]},"properties":{"comuna":"Sagrada Familia","mancha_id":"07307-88b2c33301fffff","clase":"Medio","nivel_medio":1.803,"nivel_medio_min":1.546,"nivel_medio_max":2.217,"pct_alto":22.5,"n_hexagonos":11,"area_ha":557.8}},{"type":"Feature","geometry":{"type":"Polygon","coordinates":[[[-71.308886,-35.066269],[-71.309514,-35.062116],[-71.305041,-35.059265],[-71.305669,-35.055112],[-71.31077,-35.05381],[-71.315244,-35.056661],[-71.31744,-35.0561],[-71.317366,-35.056495],[-71.317199,-35.056941],[-71.316752,-35.057593],[-71.316659,-35.058114],[-71.31674,-35.05843],[-71.3166,-35.06072],[-71.316104,-35.060924],[-71.31574,-35.06076],[-71.315461,-35.060843],[-71.315328,-35.06101],[-71.31513,-35.06108],[-71.315038,-35.061084],[-71.314918,-35.061088],[-71.314623,-35.061053],[-71.31434,-35.06111],[-71.31407,-35.06125],[-71.313828,-35.061243],[-71.3135,-35.0614],[-71.313295,-35.061724],[-71.31329,-35.06199],[-71.313447,-35.062362],[-71.31352,-35.06296],[-71.31401,-35.0636],[-71.314043,-35.0638],[-71.313985,-35.063938],[-71.31363,-35.06417],[-71.313451,-35.064325],[-71.31335,-35.06453],[-71.313459,-35.064726],[-71.31371,-35.064936],[-71.31383,-35.06514],[-71.31384,-35.06555],[-71.31362,-35.06586],[-71.31333,-35.06603],[-71.312601,-35.066054],[-71.312,-35.06612],[-71.311459,-35.066271],[-71.31099,-35.06643],[-71.310747,-35.066706],[-71.310598,-35.06706],[-71.310466,-35.067276],[-71.308886,-35.066269]]]},"properties":{"comuna":"Sagrada Familia","mancha_id":"07307-88b2c33189fffff","clase":"Medio","nivel_medio":1.77,"nivel_medio_min":1.597,"nivel_medio_max":2.351,"pct_alto":6.1,"n_hexagonos":3,"area_ha":92.05}},{"type":"Feature","geometry":{"type":"Polygon","coordinates":[[[-71.320265,-35.023423],[-71.320893,-35.019267],[-71.325994,-35.017962],[-71.330467,-35.020815],[-71.32984,-35.024971],[-71.324739,-35.026275],[-71.320265,-35.023423]]]},"properties":{"comuna":"Sagrada Familia","mancha_id":"07307-88b2c3315bfffff","clase":"Medio","nivel_medio":1.503,"nivel_medio_min":1.503,"nivel_medio_max":1.503,"pct_alto":17.7,"n_hexagonos":1,"area_ha":61.91}},{"type":"Feature","geometry":{"type":"Polygon","coordinates":[[[-71.284487,-35.000598],[-71.283859,-35.004755],[-71.279063,-35.00598],[-71.279125,-35.005667],[-71.27939,-35.005085],[-71.279514,-35.004573],[-71.279478,-35.004079],[-71.279355,-35.003586],[-71.279284,-35.003074],[-71.279531,-35.002333],[-71.27999,-35.001469],[-71.280501,-35.000534],[-71.280909,-35.0],[-71.281013,-34.999863],[-71.281401,-34.999316],[-71.281636,-34.998981],[-71.281755,-34.998854],[-71.284487,-35.000598]]]},"properties":{"comuna":"Sagrada Familia","mancha_id":"07307-88b2c3304bfffff","clase":"Medio","nivel_medio":1.679,"nivel_medio_min":1.679,"nivel_medio_max":1.679,"pct_alto":21.7,"n_hexagonos":1,"area_ha":25.3}},{"type":"Feature","geometry":{"type":"Polygon","coordinates":[[[-71.28205,-35.049158],[-71.282678,-35.045005],[-71.287778,-35.043703],[-71.29225,-35.046556],[-71.291622,-35.050709],[-71.296095,-35.053561],[-71.295467,-35.057715],[-71.290725,-35.058924],[-71.289477,-35.057348],[-71.288626,-35.056274],[-71.287826,-35.055281],[-71.287056,-35.054299],[-71.286484,-35.053566],[-71.286319,-35.053354],[-71.286522,-35.052011],[-71.28205,-35.049158]]]},"properties":{"comuna":"Sagrada Familia","mancha_id":"07307-88b2c33033fffff","clase":"Medio","nivel_medio":1.555,"nivel_medio_min":1.526,"nivel_medio_max":1.58,"pct_alto":15.0,"n_hexagonos":2,"area_ha":115.53}},{"type":"Feature","geometry":{"type":"Polygon","coordinates":[[[-71.285819,-35.024232],[-71.286447,-35.020076],[-71.291546,-35.018774],[-71.296019,-35.021627],[-71.295391,-35.025783],[-71.299863,-35.028635],[-71.304963,-35.027333],[-71.309436,-35.030185],[-71.308808,-35.03434],[-71.313281,-35.037192],[-71.312654,-35.041347],[-71.307553,-35.04265],[-71.30308,-35.039798],[-71.297979,-35.0411],[-71.293507,-35.038247],[-71.294135,-35.034093],[-71.289662,-35.03124],[-71.29029,-35.027085],[-71.285819,-35.024232]]]},"properties":{"comuna":"Sagrada Familia","mancha_id":"07307-88b2c33001fffff","clase":"Medio","nivel_medio":1.69,"nivel_medio_min":1.546,"nivel_medio_max":1.867,"pct_alto":21.7,"n_hexagonos":5,"area_ha":309.4}},{"type":"Feature","geometry":{"type":"Polygon","coordinates":[[[-71.628527,-35.087235],[-71.625149,-35.085096],[-71.625194,-35.084796],[-71.625646,-35.084903],[-71.626652,-35.08537],[-71.627476,-35.086028],[-71.628055,-35.086662],[-71.628527,-35.087235]]]},"properties":{"comuna":"Sagrada Familia","mancha_id":"07307-88b2c30d87fffff","clase":"Medio","nivel_medio":1.615,"nivel_medio_min":1.615,"nivel_medio_max":1.615,"pct_alto":5.0,"n_hexagonos":1,"area_ha":1.61}},{"type":"Feature","geometry":{"type":"Polygon","coordinates":[[[-71.579865,-35.047025],[-71.580423,-35.04764],[-71.580495,-35.047718],[-71.581093,-35.048222],[-71.581521,-35.048451],[-71.580913,-35.052505],[-71.585398,-35.05535],[-71.590507,-35.054035],[-71.594992,-35.056879],[-71.595614,-35.056718],[-71.595795,-35.056842],[-71.596207,-35.056972],[-71.59726,-35.056912],[-71.598498,-35.056727],[-71.599333,-35.056727],[-71.600354,-35.057175],[-71.601354,-35.057688],[-71.602973,-35.058421],[-71.604202,-35.058975],[-71.60448,-35.059125],[-71.603964,-35.062566],[-71.598854,-35.063881],[-71.59823,-35.068039],[-71.602716,-35.070883],[-71.602091,-35.075041],[-71.606578,-35.077884],[-71.611688,-35.076569],[-71.612312,-35.07241],[-71.607826,-35.069567],[-71.60845,-35.065409],[-71.612575,-35.064347],[-71.612837,-35.064459],[-71.613931,-35.064985],[-71.614719,-35.065707],[-71.615464,-35.066342],[-71.616405,-35.066867],[-71.616711,-35.067217],[-71.616952,-35.067787],[-71.616799,-35.068334],[-71.616317,-35.068837],[-71.615376,-35.06945],[-71.6145,-35.070019],[-71.61426,-35.07061],[-71.614391,-35.071486],[-71.614563,-35.071831],[-71.614676,-35.072055],[-71.615245,-35.072493],[-71.615858,-35.072734],[-71.61623,-35.072909],[-71.616996,-35.072975],[-71.617631,-35.072953],[-71.618397,-35.07304],[-71.619316,-35.073018],[-71.620493,-35.07304],[-71.620759,-35.073045],[-71.622089,-35.073189],[-71.622819,-35.073434],[-71.623191,-35.073608],[-71.623526,-35.073764],[-71.624351,-35.074529],[-71.624701,-35.075251],[-71.624855,-35.075848],[-71.62464,-35.077142],[-71.623921,-35.078687],[-71.623261,-35.079347],[-71.621286,-35.078096],[-71.616175,-35.079411],[-71.615551,-35.083569],[-71.620038,-35.086411],[-71.619414,-35.090568],[-71.623901,-35.09341],[-71.623277,-35.097567],[-71.618166,-35.098882],[-71.617542,-35.103038],[-71.622029,-35.10588],[-71.627141,-35.104565],[-71.631629,-35.107407],[-71.63674,-35.106092],[-71.641229,-35.108933],[-71.646341,-35.107617],[-71.646964,-35.103461],[-71.652077,-35.102145],[-71.6527,-35.097988],[-71.648212,-35.095146],[-71.6431,-35.096463],[-71.638612,-35.093621],[-71.639235,-35.089464],[-71.643945,-35.088251],[-71.644399,-35.088664],[-71.646034,-35.09019],[-71.647473,-35.091106],[-71.648716,-35.091785],[-71.648868,-35.091868],[-71.650611,-35.092631],[-71.65218,-35.093242],[-71.653336,-35.093503],[-71.654752,-35.093743],[-71.656561,-35.093765],[-71.658226,-35.093914],[-71.658501,-35.093939],[-71.660158,-35.094179],[-71.662599,-35.095051],[-71.66443,-35.095901],[-71.665999,-35.097121],[-71.667075,-35.098282],[-71.667655,-35.098908],[-71.669486,-35.100478],[-71.671426,-35.101655],[-71.671797,-35.101747],[-71.672036,-35.101807],[-71.673213,-35.1022],[-71.674543,-35.102396],[-71.677725,-35.102417],[-71.679185,-35.102483],[-71.680221,-35.101745],[-71.681506,-35.102558],[-71.686619,-35.101241],[-71.691109,-35.104081],[-71.690613,-35.107395],[-71.690346,-35.107683],[-71.689837,-35.108285],[-71.689421,-35.108512],[-71.689119,-35.108678],[-71.68861,-35.10884],[-71.687661,-35.109072],[-71.687059,-35.109211],[-71.685971,-35.109442],[-71.685369,-35.109604],[-71.685365,-35.109605],[-71.685373,-35.109556],[-71.680883,-35.106716],[-71.67577,-35.108033],[-71.67128,-35.105193],[-71.666167,-35.106509],[-71.661678,-35.103669],[-71.656565,-35.104985],[-71.655942,-35.109142],[-71.650829,-35.110458],[-71.650206,-35.114614],[-71.645093,-35.115929],[-71.640605,-35.113089],[-71.635493,-35.114404],[-71.631005,-35.111563],[-71.625893,-35.112877],[-71.621405,-35.110036],[-71.616294,-35.11135],[-71.611807,-35.108509],[-71.606695,-35.109822],[-71.602209,-35.10698],[-71.597098,-35.108294],[-71.592611,-35.105452],[-71.593236,-35.101296],[-71.58875,-35.098453],[-71.589374,-35.094297],[-71.594484,-35.092984],[-71.59897,-35.095826],[-71.598346,-35.099982],[-71.602833,-35.102825],[-71.607944,-35.101511],[-71.608568,-35.097354],[-71.613679,-35.09604],[-71.614303,-35.091883],[-71.609816,-35.089041],[-71.604705,-35.090355],[-71.600219,-35.087513],[-71.600843,-35.083356],[-71.596357,-35.080513],[-71.596981,-35.076355],[-71.592495,-35.073512],[-71.587386,-35.074826],[-71.5829,-35.071983],[-71.583525,-35.067825],[-71.588634,-35.066511],[-71.589258,-35.062352],[-71.584773,-35.059508],[-71.579664,-35.060823],[-71.579039,-35.064981],[-71.57393,-35.066295],[-71.573306,-35.070453],[-71.568196,-35.071766],[-71.563712,-35.068922],[-71.564337,-35.064764],[-71.569446,-35.063451],[-71.57007,-35.059293],[-71.565586,-35.056448],[-71.560477,-35.057762],[-71.555993,-35.054917],[-71.550885,-35.05623],[-71.546401,-35.053385],[-71.541293,-35.054698],[-71.53681,-35.051853],[-71.531702,-35.053165],[-71.52722,-35.05032],[-71.522112,-35.051632],[-71.521487,-35.055789],[-71.52597,-35.058635],[-71.525344,-35.062793],[-71.529827,-35.065638],[-71.529202,-35.069795],[-71.533685,-35.07264],[-71.538793,-35.071328],[-71.543277,-35.074173],[-71.542652,-35.07833],[-71.537544,-35.079641],[-71.536919,-35.083798],[-71.53181,-35.085109],[-71.527327,-35.082264],[-71.522219,-35.083575],[-71.517736,-35.08073],[-71.518361,-35.076574],[-71.513879,-35.073729],[-71.508771,-35.075039],[-71.504289,-35.072194],[-71.499182,-35.073504],[-71.498556,-35.07766],[-71.503038,-35.080505],[-71.508146,-35.079195],[-71.512628,-35.08204],[-71.512003,-35.086196],[-71.516485,-35.089041],[-71.521593,-35.087731],[-71.526077,-35.090575],[-71.531185,-35.089264],[-71.535668,-35.092109],[-71.535043,-35.096264],[-71.539527,-35.099108],[-71.544636,-35.097797],[-71.54912,-35.100641],[-71.548496,-35.104796],[-71.543386,-35.106107],[-71.538902,-35.103263],[-71.533793,-35.104574],[-71.533168,-35.108728],[-71.537652,-35.111572],[-71.537027,-35.115726],[-71.541511,-35.118569],[-71.540886,-35.122723],[-71.545371,-35.125566],[-71.55048,-35.124256],[-71.551105,-35.120102],[-71.546621,-35.117259],[-71.547246,-35.113105],[-71.552355,-35.111794],[-71.55298,-35.107639],[-71.55809,-35.106328],[-71.562575,-35.109171],[-71.56195,-35.113326],[-71.566435,-35.116168],[-71.571545,-35.114857],[-71.576031,-35.117699],[-71.581141,-35.116387],[-71.585627,-35.119229],[-71.590738,-35.117917],[-71.591363,-35.113762],[-71.596473,-35.112449],[-71.60096,-35.115291],[-71.606071,-35.113978],[-71.610558,-35.116819],[-71.609934,-35.120974],[-71.614422,-35.123816],[-71.613797,-35.12797],[-71.618285,-35.130811],[-71.617661,-35.134965],[-71.612549,-35.136278],[-71.611925,-35.140432],[-71.606813,-35.141745],[-71.602326,-35.138904],[-71.597214,-35.140216],[-71.59659,-35.144369],[-71.591478,-35.145681],[-71.586991,-35.142839],[-71.58188,-35.144151],[-71.581256,-35.148303],[-71.585742,-35.151145],[-71.585118,-35.155297],[-71.580006,-35.156607],[-71.579382,-35.160759],[-71.574271,-35.162069],[-71.573646,-35.16622],[-71.578132,-35.169061],[-71.583244,-35.167751],[-71.583869,-35.1636],[-71.58898,-35.162289],[-71.589605,-35.158138],[-71.594717,-35.156826],[-71.599204,-35.159667],[-71.604316,-35.158355],[-71.60494,-35.154203],[-71.610052,-35.152891],[-71.610677,-35.148738],[-71.615789,-35.147426],[-71.620277,-35.150266],[-71.619653,-35.154419],[-71.624141,-35.157259],[-71.623517,-35.161411],[-71.618404,-35.162724],[-71.61778,-35.166876],[-71.612668,-35.168187],[-71.60818,-35.165347],[-71.603067,-35.166659],[-71.602443,-35.17081],[-71.606931,-35.17365],[-71.606307,-35.177801],[-71.601194,-35.179112],[-71.60057,-35.183263],[-71.605058,-35.186102],[-71.604433,-35.190252],[-71.608922,-35.193091],[-71.614035,-35.191781],[-71.614659,-35.187631],[-71.619772,-35.186319],[-71.620396,-35.182169],[-71.615908,-35.179329],[-71.616532,-35.175178],[-71.621645,-35.173867],[-71.622269,-35.169715],[-71.627382,-35.168403],[-71.631871,-35.171242],[-71.631247,-35.175394],[-71.635736,-35.178233],[-71.635112,-35.182384],[-71.639602,-35.185223],[-71.644715,-35.18391],[-71.645339,-35.179759],[-71.64085,-35.17692],[-71.641473,-35.172769],[-71.636984,-35.16993],[-71.637608,-35.165778],[-71.633119,-35.162938],[-71.633743,-35.158786],[-71.629254,-35.155946],[-71.629878,-35.151793],[-71.634991,-35.15048],[-71.635614,-35.146327],[-71.640727,-35.145013],[-71.641351,-35.140859],[-71.636862,-35.138019],[-71.637486,-35.133865],[-71.642599,-35.13255],[-71.643222,-35.128396],[-71.638734,-35.125555],[-71.639357,-35.1214],[-71.64447,-35.120085],[-71.648959,-35.122925],[-71.648335,-35.127081],[-71.652824,-35.129921],[-71.657937,-35.128606],[-71.662427,-35.131445],[-71.66754,-35.13013],[-71.668163,-35.125974],[-71.673276,-35.124658],[-71.677767,-35.127498],[-71.677143,-35.131653],[-71.67203,-35.132969],[-71.671406,-35.137124],[-71.666293,-35.13844],[-71.661803,-35.1356],[-71.65669,-35.136915],[-71.6522,-35.134076],[-71.647088,-35.13539],[-71.646464,-35.139545],[-71.650953,-35.142384],[-71.656066,-35.14107],[-71.660556,-35.143909],[-71.659932,-35.148063],[-71.664422,-35.150902],[-71.663799,-35.155056],[-71.668289,-35.157895],[-71.672615,-35.156782],[-71.672621,-35.156788],[-71.673116,-35.157394],[-71.673501,-35.157752],[-71.673997,-35.158192],[-71.67452,-35.15866],[-71.67485,-35.159155],[-71.675208,-35.159705],[-71.675813,-35.160476],[-71.676253,-35.160944],[-71.676859,-35.161054],[-71.677436,-35.161219],[-71.677621,-35.161237],[-71.677987,-35.161274],[-71.678757,-35.161301],[-71.679198,-35.161439],[-71.67906,-35.161742],[-71.678895,-35.162237],[-71.678812,-35.162815],[-71.678785,-35.163338],[-71.678785,-35.163943],[-71.678922,-35.164603],[-71.678926,-35.164618],[-71.67906,-35.165154],[-71.679473,-35.166117],[-71.6795,-35.16697],[-71.679363,-35.167273],[-71.679115,-35.167658],[-71.678675,-35.168126],[-71.678455,-35.168263],[-71.677932,-35.168428],[-71.677354,-35.168593],[-71.676583,-35.169089],[-71.676033,-35.169584],[-71.67584,-35.169887],[-71.675565,-35.17041],[-71.675565,-35.17107],[-71.675565,-35.171588],[-71.675565,-35.171675],[-71.675345,-35.172116],[-71.675125,-35.172336],[-71.674575,-35.172831],[-71.674024,-35.173326],[-71.673281,-35.173877],[-71.672896,-35.17429],[-71.672786,-35.174565],[-71.672538,-35.175033],[-71.672483,-35.175473],[-71.672456,-35.175886],[-71.672346,-35.176463],[-71.672218,-35.176847],[-71.672153,-35.177041],[-71.672098,-35.177372],[-71.672071,-35.177949],[-71.671878,-35.179105],[-71.67185,-35.179738],[-71.67185,-35.180206],[-71.67196,-35.180839],[-71.671933,-35.181417],[-71.671823,-35.181994],[-71.671878,-35.182737],[-71.671871,-35.182891],[-71.67185,-35.183343],[-71.671658,-35.183756],[-71.671328,-35.184361],[-71.671107,-35.184636],[-71.670941,-35.185232],[-71.670824,-35.185606],[-71.670754,-35.185956],[-71.670777,-35.186377],[-71.670917,-35.186822],[-71.671273,-35.188296],[-71.671603,-35.188929],[-71.671617,-35.188976],[-71.671905,-35.189919],[-71.672126,-35.190938],[-71.672263,-35.192038],[-71.672428,-35.192699],[-71.672676,-35.194542],[-71.672869,-35.196606],[-71.672872,-35.196635],[-71.673034,-35.197844],[-71.672951,-35.198257],[-71.672786,-35.198505],[-71.672538,-35.19878],[-71.672153,-35.199165],[-71.671871,-35.199525],[-71.671355,-35.200183],[-71.671218,-35.200404],[-71.67108,-35.200761],[-71.670942,-35.201064],[-71.670932,-35.201124],[-71.670832,-35.201724],[-71.670667,-35.202577],[-71.67042,-35.203458],[-71.670227,-35.203898],[-71.669539,-35.204311],[-71.668824,-35.204916],[-71.668301,-35.205302],[-71.667365,-35.205769],[-71.666319,-35.206485],[-71.666217,-35.206588],[-71.665879,-35.206925],[-71.665797,-35.207476],[-71.665466,-35.208356],[-71.665136,-35.209292],[-71.664806,-35.209787],[-71.664228,-35.2102],[-71.663348,-35.210227],[-71.662715,-35.210062],[-71.661696,-35.210282],[-71.660788,-35.210558],[-71.660323,-35.210925],[-71.660266,-35.21097],[-71.659908,-35.211218],[-71.659413,-35.211383],[-71.658697,-35.211493],[-71.657376,-35.211713],[-71.656578,-35.211988],[-71.65541,-35.212253],[-71.654177,-35.21257],[-71.654128,-35.212581],[-71.653367,-35.212746],[-71.652874,-35.212817],[-71.65261,-35.213028],[-71.652398,-35.213257],[-71.652169,-35.213539],[-71.651976,-35.214049],[-71.651835,-35.214683],[-71.651817,-35.215177],[-71.651588,-35.215476],[-71.651025,-35.215758],[-71.65032,-35.21574],[-71.649598,-35.215899],[-71.649352,-35.215846],[-71.64877,-35.21574],[-71.648489,-35.215617],[-71.648136,-35.215406],[-71.647643,-35.215053],[-71.647256,-35.214772],[-71.646939,-35.214648],[-71.646411,-35.214437],[-71.646217,-35.214138],[-71.645301,-35.213504],[-71.645195,-35.213428],[-71.644702,-35.213081],[-71.644297,-35.212887],[-71.643769,-35.212729],[-71.642818,-35.212693],[-71.641973,-35.212711],[-71.641215,-35.212852],[-71.640705,-35.213063],[-71.640071,-35.213187],[-71.639525,-35.213415],[-71.639155,-35.213574],[-71.638732,-35.21368],[-71.638486,-35.213856],[-71.638274,-35.214261],[-71.637975,-35.21493],[-71.637675,-35.215335],[-71.637294,-35.215574],[-71.637253,-35.215599],[-71.636724,-35.21574],[-71.635967,-35.216198],[-71.635333,-35.216568],[-71.634699,-35.217043],[-71.63403,-35.217484],[-71.63366,-35.217607],[-71.632885,-35.21766],[-71.632392,-35.217959],[-71.631811,-35.21817],[-71.631001,-35.218452],[-71.630613,-35.218681],[-71.630349,-35.219104],[-71.629768,-35.219808],[-71.629702,-35.219861],[-71.629416,-35.22009],[-71.629152,-35.220442],[-71.629116,-35.220654],[-71.629257,-35.221041],[-71.629363,-35.22134],[-71.629521,-35.221675],[-71.629856,-35.222327],[-71.630032,-35.222996],[-71.630191,-35.223489],[-71.630191,-35.223965],[-71.630155,-35.224317],[-71.629909,-35.225162],[-71.629662,-35.225602],[-71.629451,-35.226465],[-71.629275,-35.227311],[-71.629216,-35.227779],[-71.629187,-35.228015],[-71.629028,-35.228086],[-71.628711,-35.228086],[-71.628465,-35.228068],[-71.628286,-35.228017],[-71.628186,-35.227988],[-71.628095,-35.227962],[-71.627496,-35.227804],[-71.627056,-35.227751],[-71.626686,-35.227751],[-71.626281,-35.227751],[-71.625665,-35.227733],[-71.625048,-35.22768],[-71.624802,-35.227522],[-71.624467,-35.227117],[-71.624185,-35.22687],[-71.62378,-35.226818],[-71.62341,-35.2268],[-71.623023,-35.226694],[-71.622741,-35.226606],[-71.622125,-35.22643],[-71.621773,-35.226395],[-71.621139,-35.22636],[-71.62061,-35.226219],[-71.620152,-35.226201],[-71.619899,-35.226178],[-71.623757,-35.225189],[-71.624381,-35.221041],[-71.619892,-35.218203],[-71.620516,-35.214055],[-71.616027,-35.211217],[-71.610913,-35.212527],[-71.610289,-35.216675],[-71.605175,-35.217985],[-71.604551,-35.222132],[-71.60904,-35.224971],[-71.614154,-35.223661],[-71.617163,-35.225563],[-71.61693,-35.225479],[-71.616102,-35.225338],[-71.615556,-35.22518],[-71.614992,-35.225074],[-71.614622,-35.224968],[-71.614129,-35.22488],[-71.613302,-35.224757],[-71.612738,-35.224722],[-71.612227,-35.22481],[-71.611822,-35.224951],[-71.611593,-35.225056],[-71.611259,-35.225039],[-71.610854,-35.225039],[-71.610149,-35.225074],[-71.609656,-35.225092],[-71.609216,-35.225092],[-71.60902,-35.225107],[-71.608987,-35.225109],[-71.608547,-35.225162],[-71.608177,-35.225162],[-71.607965,-35.225162],[-71.607737,-35.225092],[-71.607437,-35.224916],[-71.607191,-35.224845],[-71.606838,-35.224792],[-71.606486,-35.224687],[-71.60594,-35.224687],[-71.605711,-35.224792],[-71.605341,-35.225109],[-71.604936,-35.225215],[-71.604179,-35.22518],[-71.603545,-35.225092],[-71.603228,-35.224863],[-71.602823,-35.224669],[-71.602277,-35.224669],[-71.601819,-35.224669],[-71.600944,-35.224527],[-71.59979,-35.224296],[-71.599333,-35.224136],[-71.598867,-35.223973],[-71.598174,-35.223604],[-71.597389,-35.223004],[-71.596236,-35.222173],[-71.595035,-35.221481],[-71.594501,-35.220717],[-71.594389,-35.220557],[-71.594297,-35.219126],[-71.593904,-35.218088],[-71.592959,-35.217113],[-71.591925,-35.216197],[-71.591604,-35.215581],[-71.591207,-35.214862],[-71.59064,-35.213955],[-71.590489,-35.213769],[-71.589903,-35.213047],[-71.58909,-35.212329],[-71.58805,-35.211705],[-71.587785,-35.211478],[-71.586939,-35.211003],[-71.58642,-35.210466],[-71.585676,-35.209757],[-71.584569,-35.208909],[-71.584085,-35.208511],[-71.583133,-35.207871],[-71.582916,-35.207731],[-71.582597,-35.207525],[-71.58206,-35.207024],[-71.581576,-35.206643],[-71.581178,-35.206262],[-71.580843,-35.206153],[-71.580221,-35.206049],[-71.579466,-35.205946],[-71.578994,-35.205966],[-71.578785,-35.205975],[-71.578134,-35.205975],[-71.577601,-35.206005],[-71.577128,-35.206079],[-71.576905,-35.206124],[-71.57668,-35.206366],[-71.576386,-35.206885],[-71.576074,-35.207508],[-71.576022,-35.208304],[-71.576074,-35.208944],[-71.576143,-35.209446],[-71.576489,-35.20993],[-71.576472,-35.210518],[-71.576022,-35.210847],[-71.575642,-35.211055],[-71.575244,-35.21121],[-71.574604,-35.211193],[-71.574119,-35.211193],[-71.573617,-35.211072],[-71.57315,-35.210916],[-71.572839,-35.210761],[-71.572372,-35.210743],[-71.572243,-35.210782],[-71.571885,-35.210555],[-71.566772,-35.211863],[-71.566732,-35.212132],[-71.566559,-35.212162],[-71.565901,-35.213978],[-71.565469,-35.215051],[-71.564946,-35.216318],[-71.564371,-35.217709],[-71.564172,-35.2189],[-71.563874,-35.220257],[-71.563312,-35.221118],[-71.562385,-35.221217],[-71.561756,-35.221184],[-71.561061,-35.221482],[-71.56082,-35.221724],[-71.560399,-35.222144],[-71.560068,-35.22317],[-71.560101,-35.22403],[-71.559539,-35.224759],[-71.558479,-35.22557],[-71.556754,-35.226842],[-71.556553,-35.227008],[-71.555022,-35.227139],[-71.553201,-35.227295],[-71.55012,-35.227558],[-71.54919,-35.22799],[-71.545075,-35.225385],[-71.539963,-35.226691],[-71.539337,-35.230837],[-71.540976,-35.231875],[-71.540788,-35.231962],[-71.538823,-35.232882],[-71.538078,-35.233222],[-71.536899,-35.233728],[-71.536402,-35.233992],[-71.535848,-35.234339],[-71.535314,-35.234606],[-71.53508,-35.234746],[-71.533949,-35.235354],[-71.533723,-35.235478],[-71.532042,-35.236397],[-71.531103,-35.236926],[-71.531095,-35.236931],[-71.52958,-35.237764],[-71.528356,-35.238474],[-71.527967,-35.238699],[-71.526018,-35.239749],[-71.523156,-35.241162],[-71.521203,-35.242063],[-71.521128,-35.242097],[-71.518737,-35.243182],[-71.51621,-35.244332],[-71.515856,-35.244434],[-71.515813,-35.244264],[-71.515767,-35.244084],[-71.515765,-35.244079],[-71.515795,-35.243344],[-71.515856,-35.242794],[-71.515703,-35.242426],[-71.515428,-35.242396],[-71.514999,-35.242549],[-71.514479,-35.242885],[-71.513622,-35.243344],[-71.512797,-35.24388],[-71.51249,-35.244079],[-71.511449,-35.24463],[-71.510409,-35.244997],[-71.50949,-35.244997],[-71.508634,-35.24512],[-71.507807,-35.245242],[-71.507287,-35.245058],[-71.507134,-35.244691],[-71.507103,-35.244324],[-71.507287,-35.243987],[-71.507624,-35.243681],[-71.508144,-35.243559],[-71.508664,-35.243375],[-71.509246,-35.243253],[-71.509552,-35.242916],[-71.509888,-35.242457],[-71.509888,-35.241967],[-71.509613,-35.241355],[-71.50897,-35.240835],[-71.508297,-35.240621],[-71.507624,-35.240529],[-71.506858,-35.240651],[-71.506001,-35.240865],[-71.505236,-35.241049],[-71.504685,-35.24108],[-71.504196,-35.241018],[-71.503614,-35.241018],[-71.5034,-35.241018],[-71.50291,-35.241018],[-71.502084,-35.241049],[-71.501717,-35.241049],[-71.501288,-35.241049],[-71.500921,-35.241202],[-71.500309,-35.241202],[-71.5,-35.24107],[-71.49988,-35.241018],[-71.499544,-35.240682],[-71.499421,-35.240039],[-71.499482,-35.239427],[-71.499605,-35.238968],[-71.499605,-35.238417],[-71.499666,-35.237958],[-71.499911,-35.237835],[-71.5,-35.237827],[-71.500152,-35.237814],[-71.500248,-35.237805],[-71.500645,-35.237805],[-71.500829,-35.237682],[-71.500921,-35.237376],[-71.500952,-35.236734],[-71.500676,-35.236275],[-71.500278,-35.235907],[-71.5,-35.235714],[-71.499574,-35.235418],[-71.499344,-35.235341],[-71.499115,-35.235265],[-71.498657,-35.235234],[-71.498015,-35.235234],[-71.497556,-35.235387],[-71.497096,-35.235632],[-71.496423,-35.235693],[-71.495536,-35.235693],[-71.495373,-35.235669],[-71.496698,-35.233508],[-71.497519,-35.232223],[-71.497802,-35.231784],[-71.498947,-35.23001],[-71.501367,-35.226224],[-71.501876,-35.225282],[-71.502271,-35.22455],[-71.504255,-35.220752],[-71.503837,-35.219973],[-71.506687,-35.219245],[-71.507313,-35.215099],[-71.502829,-35.212258],[-71.503454,-35.208111],[-71.508565,-35.206806],[-71.513049,-35.209647],[-71.51816,-35.208342],[-71.518785,-35.204195],[-71.514301,-35.201353],[-71.514926,-35.197206],[-71.510442,-35.194364],[-71.505332,-35.19567],[-71.504706,-35.199817],[-71.499596,-35.201123],[-71.49897,-35.20527],[-71.493879,-35.20657],[-71.49377,-35.2065],[-71.49367,-35.206454],[-71.492021,-35.205695],[-71.491016,-35.205025],[-71.490535,-35.204467],[-71.48977,-35.20358],[-71.489476,-35.20307],[-71.48776,-35.20009],[-71.4863,-35.19826],[-71.484151,-35.197266],[-71.483723,-35.197202],[-71.483034,-35.197098],[-71.482085,-35.19654],[-71.481248,-35.195759],[-71.47939,-35.19467],[-71.478289,-35.193358],[-71.47713,-35.19228],[-71.476401,-35.192062],[-71.475868,-35.191904],[-71.474382,-35.19146],[-71.473656,-35.190846],[-71.472987,-35.18973],[-71.471383,-35.18839],[-71.471,-35.18807],[-71.47031,-35.18716],[-71.469372,-35.186528],[-71.468409,-35.185878],[-71.467907,-35.18465],[-71.467628,-35.183925],[-71.46668,-35.18346],[-71.464223,-35.182418],[-71.463754,-35.182363],[-71.462636,-35.182231],[-71.46109,-35.18205],[-71.45857,-35.1821],[-71.45812,-35.182],[-71.456816,-35.181715],[-71.455672,-35.181108],[-71.454851,-35.180894],[-71.45411,-35.180837],[-71.453922,-35.180822],[-71.4526,-35.18023],[-71.45134,-35.17912],[-71.45129,-35.17849],[-71.45184,-35.17802],[-71.45249,-35.17725],[-71.453457,-35.175606],[-71.45367,-35.17443],[-71.4541,-35.17318],[-71.454323,-35.172806],[-71.454422,-35.172641],[-71.454841,-35.172203],[-71.455172,-35.171855],[-71.456208,-35.17182],[-71.457235,-35.171717],[-71.4581,-35.17141],[-71.457601,-35.170212],[-71.457066,-35.169319],[-71.45697,-35.168142],[-71.456958,-35.167997],[-71.456637,-35.166854],[-71.456565,-35.165353],[-71.45607,-35.16436],[-71.45575,-35.16382],[-71.4546,-35.16311],[-71.45215,-35.16161],[-71.451943,-35.161448],[-71.44818,-35.15851],[-71.44814,-35.15848],[-71.447214,-35.157663],[-71.44619,-35.15676],[-71.444412,-35.155059],[-71.441515,-35.153674],[-71.440634,-35.153107],[-71.43987,-35.15273],[-71.43972,-35.152602],[-71.43946,-35.15238],[-71.438493,-35.150336],[-71.437863,-35.149266],[-71.4378,-35.148195],[-71.437911,-35.147243],[-71.437973,-35.146603],[-71.437953,-35.145592],[-71.437809,-35.145111],[-71.437767,-35.144973],[-71.437396,-35.14454],[-71.43648,-35.14344],[-71.43576,-35.14251],[-71.43275,-35.13894],[-71.432171,-35.138572],[-71.43069,-35.13763],[-71.427796,-35.137381],[-71.42778,-35.13738],[-71.42611,-35.13648],[-71.425893,-35.136185],[-71.4219,-35.13076],[-71.421214,-35.129399],[-71.420243,-35.127473],[-71.41884,-35.12543],[-71.41699,-35.12267],[-71.416902,-35.122519],[-71.418201,-35.122188],[-71.422681,-35.125034],[-71.427787,-35.123729],[-71.432267,-35.126576],[-71.437373,-35.12527],[-71.437999,-35.121119],[-71.433519,-35.118273],[-71.428413,-35.119578],[-71.423934,-35.116732],[-71.418828,-35.118036],[-71.414349,-35.11519],[-71.414002,-35.115278],[-71.41372,-35.11434],[-71.412069,-35.10919],[-71.41196,-35.10885],[-71.41193,-35.10874],[-71.41175,-35.10843],[-71.41124,-35.10751],[-71.410734,-35.106623],[-71.408869,-35.103356],[-71.408951,-35.102657],[-71.409091,-35.101461],[-71.409295,-35.100773],[-71.409508,-35.100326],[-71.409725,-35.100097],[-71.409757,-35.099837],[-71.409691,-35.099641],[-71.409548,-35.099505],[-71.409366,-35.099332],[-71.409173,-35.099095],[-71.409073,-35.098818],[-71.409025,-35.09864],[-71.408929,-35.098453],[-71.408885,-35.098242],[-71.408792,-35.098101],[-71.408678,-35.098013],[-71.408513,-35.097923],[-71.408283,-35.097782],[-71.408128,-35.097583],[-71.408025,-35.097293],[-71.407915,-35.096927],[-71.407896,-35.096879],[-71.407826,-35.096698],[-71.407645,-35.096495],[-71.407376,-35.096253],[-71.407184,-35.096038],[-71.407114,-35.09596],[-71.407002,-35.095738],[-71.406987,-35.095578],[-71.406932,-35.095368],[-71.406633,-35.094967],[-71.406455,-35.094583],[-71.406299,-35.094121],[-71.406253,-35.093974],[-71.406182,-35.093649],[-71.40612,-35.093337],[-71.40608,-35.093125],[-71.406067,-35.093035],[-71.405978,-35.092746],[-71.405862,-35.092453],[-71.40584,-35.092157],[-71.405834,-35.092071],[-71.405859,-35.091752],[-71.405869,-35.091638],[-71.405927,-35.091248],[-71.405955,-35.090882],[-71.405957,-35.090615],[-71.405873,-35.090428],[-71.405883,-35.090092],[-71.405781,-35.089969],[-71.405636,-35.089885],[-71.405366,-35.08974],[-71.405329,-35.089721],[-71.405174,-35.08959],[-71.405008,-35.089451],[-71.404658,-35.089051],[-71.40441,-35.08888],[-71.404017,-35.088423],[-71.403648,-35.087612],[-71.40358,-35.087211],[-71.403476,-35.086591],[-71.403394,-35.086105],[-71.403437,-35.085863],[-71.403533,-35.08531],[-71.403637,-35.085109],[-71.404086,-35.084216],[-71.404193,-35.08399],[-71.404186,-35.083791],[-71.404155,-35.083503],[-71.403936,-35.083234],[-71.403254,-35.082798],[-71.402678,-35.082446],[-71.402499,-35.082337],[-71.402453,-35.0823],[-71.402161,-35.08207],[-71.40185,-35.081585],[-71.401314,-35.081049],[-71.40075,-35.080609],[-71.400067,-35.080186],[-71.398882,-35.07971],[-71.397312,-35.079438],[-71.396888,-35.079367],[-71.39523,-35.079269],[-71.394994,-35.079255],[-71.394152,-35.079258],[-71.39384,-35.07925],[-71.3934,-35.079239],[-71.392115,-35.079691],[-71.390059,-35.080412],[-71.388932,-35.080822],[-71.388182,-35.081095],[-71.387192,-35.081459],[-71.386333,-35.081773],[-71.38526,-35.082213],[-71.384872,-35.082368],[-71.38487,-35.082353],[-71.384461,-35.082015],[-71.383713,-35.081413],[-71.382619,-35.080528],[-71.381955,-35.079995],[-71.381554,-35.079656],[-71.381491,-35.079603],[-71.380454,-35.078739],[-71.37953,-35.077968],[-71.378034,-35.076714],[-71.377629,-35.076355],[-71.376363,-35.075308],[-71.376219,-35.075187],[-71.375697,-35.074753],[-71.374862,-35.074059],[-71.373658,-35.073059],[-71.372271,-35.071907],[-71.371516,-35.071829],[-71.369863,-35.07166],[-71.367516,-35.071417],[-71.367088,-35.071373],[-71.366903,-35.071354],[-71.365451,-35.071206],[-71.362962,-35.070951],[-71.362539,-35.070908],[-71.362541,-35.070423],[-71.362605,-35.070273],[-71.360721,-35.070237],[-71.359719,-35.070218],[-71.358489,-35.070213],[-71.357345,-35.070205],[-71.357209,-35.070204],[-71.355588,-35.070192],[-71.354891,-35.07062],[-71.353566,-35.071429],[-71.351888,-35.072448],[-71.349737,-35.073742],[-71.349462,-35.073908],[-71.34908,-35.074139],[-71.347553,-35.073687],[-71.345566,-35.0731],[-71.345166,-35.07298],[-71.344057,-35.07265],[-71.343484,-35.072479],[-71.342249,-35.072486],[-71.340871,-35.072498],[-71.340394,-35.072686],[-71.339941,-35.072864],[-71.338668,-35.073371],[-71.337947,-35.073656],[-71.336681,-35.074154],[-71.33651,-35.074777],[-71.336395,-35.075251],[-71.33625,-35.07585],[-71.335862,-35.076345],[-71.335125,-35.07728],[-71.334944,-35.077373],[-71.334849,-35.077397],[-71.334716,-35.077395],[-71.334604,-35.077513],[-71.333316,-35.076451],[-71.332583,-35.07624],[-71.332122,-35.075919],[-71.33198,-35.075738],[-71.332512,-35.072218],[-71.328038,-35.069367],[-71.327244,-35.06957],[-71.327187,-35.069214],[-71.32679,-35.067984],[-71.326155,-35.067507],[-71.32541,-35.06677],[-71.32475,-35.065541],[-71.32414,-35.06483],[-71.323226,-35.063813],[-71.32259,-35.06317],[-71.322337,-35.062837],[-71.321422,-35.061629],[-71.321295,-35.060841],[-71.321447,-35.060307],[-71.32145,-35.05963],[-71.32119,-35.05832],[-71.320863,-35.05731],[-71.320253,-35.056471],[-71.319567,-35.055608],[-71.319494,-35.055576],[-71.320345,-35.055359],[-71.324819,-35.05821],[-71.324191,-35.062363],[-71.328666,-35.065214],[-71.333768,-35.063912],[-71.334395,-35.059758],[-71.329921,-35.056907],[-71.330548,-35.052753],[-71.33565,-35.05145],[-71.336278,-35.047295],[-71.34138,-35.045992],[-71.342007,-35.041837],[-71.347109,-35.040533],[-71.351584,-35.043383],[-71.350957,-35.047539],[-71.355432,-35.050389],[-71.360534,-35.049085],[-71.36501,-35.051935],[-71.370113,-35.05063],[-71.374589,-35.05348],[-71.379692,-35.052175],[-71.384168,-35.055024],[-71.389272,-35.053719],[-71.389899,-35.049563],[-71.385422,-35.046714],[-71.380319,-35.048019],[-71.375843,-35.04517],[-71.37074,-35.046475],[-71.366264,-35.043625],[-71.366891,-35.039469],[-71.362416,-35.036618],[-71.363043,-35.032462],[-71.368145,-35.031157],[-71.368772,-35.027],[-71.373875,-35.025694],[-71.374502,-35.021537],[-71.379604,-35.020231],[-71.38408,-35.023081],[-71.389183,-35.021774],[-71.393659,-35.024625],[-71.398762,-35.023318],[-71.403239,-35.026168],[-71.402612,-35.030325],[-71.407089,-35.033175],[-71.412193,-35.031867],[-71.41667,-35.034716],[-71.416044,-35.038873],[-71.41094,-35.040181],[-71.410313,-35.044337],[-71.414791,-35.047186],[-71.414165,-35.051342],[-71.418642,-35.054191],[-71.418016,-35.058347],[-71.422494,-35.061195],[-71.427599,-35.059888],[-71.428225,-35.055732],[-71.423747,-35.052884],[-71.424373,-35.048728],[-71.429478,-35.04742],[-71.430104,-35.043264],[-71.435209,-35.041955],[-71.439687,-35.044804],[-71.439061,-35.04896],[-71.44354,-35.051809],[-71.448645,-35.0505],[-71.449271,-35.046343],[-71.454376,-35.045034],[-71.455002,-35.040877],[-71.460108,-35.039568],[-71.464587,-35.042416],[-71.463961,-35.046573],[-71.468441,-35.04942],[-71.467815,-35.053577],[-71.46271,-35.054887],[-71.45823,-35.052039],[-71.453124,-35.053348],[-71.452498,-35.057504],[-71.456978,-35.060352],[-71.462084,-35.059043],[-71.466564,-35.06189],[-71.465938,-35.066046],[-71.460832,-35.067355],[-71.460206,-35.071511],[-71.464686,-35.074358],[-71.46406,-35.078513],[-71.468541,-35.081359],[-71.467915,-35.085514],[-71.462808,-35.086822],[-71.462182,-35.090976],[-71.466663,-35.093822],[-71.47177,-35.092514],[-71.476251,-35.09536],[-71.475625,-35.099514],[-71.470518,-35.100822],[-71.466037,-35.097976],[-71.46093,-35.099284],[-71.460304,-35.103437],[-71.464785,-35.106283],[-71.469892,-35.104976],[-71.474373,-35.107821],[-71.47948,-35.106513],[-71.483962,-35.109359],[-71.48907,-35.108051],[-71.493552,-35.110895],[-71.49866,-35.109587],[-71.499285,-35.105433],[-71.504393,-35.104124],[-71.505019,-35.09997],[-71.510127,-35.098661],[-71.510752,-35.094506],[-71.50627,-35.091661],[-71.501162,-35.092971],[-71.49668,-35.090125],[-71.497305,-35.08597],[-71.492823,-35.083125],[-71.487716,-35.084434],[-71.483235,-35.081588],[-71.478128,-35.082897],[-71.473647,-35.080051],[-71.474273,-35.075895],[-71.469792,-35.073049],[-71.470418,-35.068893],[-71.475525,-35.067584],[-71.480005,-35.070431],[-71.47938,-35.074586],[-71.483861,-35.077433],[-71.488968,-35.076123],[-71.489593,-35.071968],[-71.4947,-35.070658],[-71.495326,-35.066502],[-71.490844,-35.063655],[-71.49147,-35.059499],[-71.486989,-35.056652],[-71.481882,-35.057962],[-71.477402,-35.055115],[-71.478027,-35.050958],[-71.483134,-35.049648],[-71.487614,-35.052495],[-71.492721,-35.051184],[-71.497202,-35.054031],[-71.502309,-35.05272],[-71.50679,-35.055566],[-71.506165,-35.059724],[-71.510647,-35.06257],[-71.515754,-35.061258],[-71.51638,-35.057101],[-71.511898,-35.054255],[-71.512523,-35.050097],[-71.51763,-35.048786],[-71.518255,-35.044627],[-71.523362,-35.043315],[-71.523486,-35.04249],[-71.52396,-35.042437],[-71.52519,-35.042585],[-71.525934,-35.042851],[-71.526452,-35.04296],[-71.527024,-35.042851],[-71.527502,-35.042535],[-71.528634,-35.041847],[-71.529177,-35.041434],[-71.530022,-35.041052],[-71.531143,-35.040715],[-71.532492,-35.040359],[-71.532997,-35.040321],[-71.533152,-35.040309],[-71.533554,-35.040371],[-71.533866,-35.040569],[-71.533931,-35.040599],[-71.534193,-35.04072],[-71.534843,-35.04081],[-71.535663,-35.04092],[-71.536274,-35.04105],[-71.536752,-35.041256],[-71.536964,-35.04149],[-71.537154,-35.04179],[-71.537404,-35.04213],[-71.537687,-35.042437],[-71.538425,-35.042831],[-71.539277,-35.043058],[-71.540312,-35.043097],[-71.540836,-35.042929],[-71.541721,-35.042388],[-71.542906,-35.042056],[-71.542951,-35.042043],[-71.543848,-35.042048],[-71.544409,-35.04205],[-71.545542,-35.04205],[-71.546266,-35.042491],[-71.54677,-35.042995],[-71.547495,-35.043467],[-71.548313,-35.043625],[-71.548912,-35.044034],[-71.549289,-35.044412],[-71.54973,-35.04501],[-71.549919,-35.04586],[-71.549973,-35.046558],[-71.550071,-35.047096],[-71.550423,-35.047561],[-71.551021,-35.047844],[-71.551736,-35.048016],[-71.551808,-35.048033],[-71.552212,-35.047963],[-71.552533,-35.047907],[-71.553194,-35.047844],[-71.553887,-35.048065],[-71.554579,-35.048631],[-71.555209,-35.04923],[-71.556043,-35.049679],[-71.556847,-35.049859],[-71.557823,-35.049733],[-71.558484,-35.049545],[-71.559208,-35.049135],[-71.559775,-35.048726],[-71.560279,-35.048159],[-71.56072,-35.047466],[-71.560972,-35.046774],[-71.561444,-35.046238],[-71.562253,-35.045939],[-71.562294,-35.045923],[-71.563144,-35.045923],[-71.564089,-35.046081],[-71.565223,-35.046553],[-71.566388,-35.047025],[-71.567301,-35.047403],[-71.567899,-35.04797],[-71.56856,-35.048726],[-71.569632,-35.049029],[-71.570891,-35.048946],[-71.571664,-35.048679],[-71.571709,-35.048663],[-71.572559,-35.048128],[-71.573756,-35.047529],[-71.576464,-35.04649],[-71.57744,-35.046301],[-71.578237,-35.046253],[-71.578479,-35.046238],[-71.579172,-35.046459],[-71.579865,-35.047025]],[[-71.468213,-35.181224],[-71.472695,-35.184067],[-71.477804,-35.182763],[-71.47843,-35.178615],[-71.473948,-35.175771],[-71.474574,-35.171623],[-71.470091,-35.168779],[-71.464983,-35.170084],[-71.464357,-35.174233],[-71.468839,-35.177076],[-71.468213,-35.181224]],[[-71.529632,-35.197434],[-71.534118,-35.200276],[-71.539229,-35.198969],[-71.539854,-35.19482],[-71.535368,-35.191979],[-71.530258,-35.193286],[-71.529632,-35.197434]],[[-71.495635,-35.16225],[-71.500744,-35.160944],[-71.501369,-35.156793],[-71.496886,-35.15395],[-71.497512,-35.1498],[-71.502621,-35.148492],[-71.503246,-35.144341],[-71.508355,-35.143034],[-71.508981,-35.138882],[-71.51409,-35.137574],[-71.518573,-35.140417],[-71.517948,-35.144569],[-71.522432,-35.147412],[-71.527541,-35.146104],[-71.528167,-35.141952],[-71.533276,-35.140643],[-71.533901,-35.136491],[-71.529417,-35.133648],[-71.524308,-35.134957],[-71.519824,-35.132113],[-71.514715,-35.133422],[-71.510232,-35.130578],[-71.510857,-35.126426],[-71.506374,-35.123582],[-71.501266,-35.12489],[-71.50064,-35.129043],[-71.495532,-35.130351],[-71.494906,-35.134502],[-71.499389,-35.137346],[-71.498763,-35.141498],[-71.493655,-35.142805],[-71.489172,-35.139961],[-71.484064,-35.141268],[-71.483438,-35.145419],[-71.48792,-35.148263],[-71.487294,-35.152413],[-71.491777,-35.155257],[-71.491152,-35.159407],[-71.495635,-35.16225]],[[-71.54173,-35.182374],[-71.541104,-35.186523],[-71.54559,-35.189364],[-71.550701,-35.188056],[-71.555187,-35.190897],[-71.560299,-35.189589],[-71.560924,-35.18544],[-71.556437,-35.182599],[-71.551326,-35.183907],[-71.54684,-35.181066],[-71.54173,-35.182374]],[[-71.533384,-35.172541],[-71.537869,-35.175383],[-71.54298,-35.174075],[-71.543605,-35.169925],[-71.53912,-35.167083],[-71.534009,-35.168392],[-71.533384,-35.172541]],[[-71.443636,-35.083743],[-71.448742,-35.082436],[-71.449368,-35.078282],[-71.454474,-35.076974],[-71.4551,-35.072819],[-71.45062,-35.069972],[-71.451246,-35.065816],[-71.446767,-35.062969],[-71.441662,-35.064277],[-71.437182,-35.061429],[-71.432077,-35.062736],[-71.431451,-35.066892],[-71.43593,-35.069739],[-71.435304,-35.073894],[-71.439783,-35.076742],[-71.439157,-35.080896],[-71.443636,-35.083743]],[[-71.425813,-35.104276],[-71.430293,-35.107123],[-71.435399,-35.105817],[-71.436025,-35.101664],[-71.431546,-35.098817],[-71.42644,-35.100123],[-71.425813,-35.104276]],[[-71.444985,-35.107357],[-71.439878,-35.108663],[-71.439252,-35.112816],[-71.443732,-35.115662],[-71.448839,-35.114356],[-71.449465,-35.110203],[-71.444985,-35.107357]],[[-71.483336,-35.113512],[-71.478229,-35.114819],[-71.477603,-35.118972],[-71.482085,-35.121817],[-71.487193,-35.120509],[-71.487818,-35.116357],[-71.483336,-35.113512]],[[-71.458426,-35.115895],[-71.453319,-35.117202],[-71.452693,-35.121353],[-71.457174,-35.124199],[-71.456548,-35.128351],[-71.461029,-35.131196],[-71.466136,-35.12989],[-71.466762,-35.125738],[-71.462281,-35.122893],[-71.462907,-35.118741],[-71.458426,-35.115895]],[[-71.418109,-35.090276],[-71.418735,-35.086122],[-71.414257,-35.083274],[-71.414883,-35.079121],[-71.410405,-35.076272],[-71.405301,-35.077578],[-71.404674,-35.081732],[-71.409152,-35.08458],[-71.408525,-35.088733],[-71.413004,-35.091581],[-71.418109,-35.090276]],[[-71.474473,-35.13973],[-71.479581,-35.138424],[-71.480207,-35.134272],[-71.475725,-35.131428],[-71.470618,-35.132734],[-71.469992,-35.136886],[-71.474473,-35.13973]],[[-71.40333,-35.058111],[-71.402703,-35.062266],[-71.407181,-35.065115],[-71.406554,-35.06927],[-71.411032,-35.072118],[-71.416136,-35.070812],[-71.416763,-35.066657],[-71.412285,-35.063809],[-71.412911,-35.059654],[-71.408434,-35.056805],[-71.40906,-35.052649],[-71.404583,-35.0498],[-71.399479,-35.051107],[-71.398852,-35.055262],[-71.40333,-35.058111]],[[-71.587847,-35.20248],[-71.587222,-35.206629],[-71.59171,-35.209468],[-71.596823,-35.208159],[-71.597447,-35.20401],[-71.592959,-35.201171],[-71.593584,-35.197022],[-71.589096,-35.194182],[-71.58972,-35.190033],[-71.585233,-35.187193],[-71.580121,-35.188502],[-71.579496,-35.192652],[-71.583983,-35.195492],[-71.583359,-35.199641],[-71.587847,-35.20248]],[[-71.640972,-35.208811],[-71.645462,-35.211649],[-71.650577,-35.210337],[-71.651201,-35.206188],[-71.64671,-35.20335],[-71.647334,-35.1992],[-71.642844,-35.196362],[-71.643468,-35.192212],[-71.638978,-35.189374],[-71.633864,-35.190685],[-71.63324,-35.194836],[-71.63773,-35.197674],[-71.637106,-35.201824],[-71.641596,-35.204662],[-71.640972,-35.208811]],[[-71.563936,-35.132783],[-71.558826,-35.134094],[-71.558201,-35.138247],[-71.562686,-35.141089],[-71.567797,-35.139778],[-71.568422,-35.135626],[-71.563936,-35.132783]],[[-71.579268,-35.12885],[-71.574157,-35.130161],[-71.573532,-35.134314],[-71.578019,-35.137156],[-71.583129,-35.135845],[-71.583754,-35.131691],[-71.579268,-35.12885]],[[-71.546731,-35.149171],[-71.54162,-35.15048],[-71.540995,-35.154631],[-71.535885,-35.15594],[-71.5314,-35.153098],[-71.526291,-35.154406],[-71.525665,-35.158557],[-71.53015,-35.161399],[-71.53526,-35.160091],[-71.539745,-35.162933],[-71.544855,-35.161624],[-71.549341,-35.164466],[-71.554451,-35.163157],[-71.555076,-35.159006],[-71.560187,-35.157697],[-71.560812,-35.153545],[-71.565923,-35.152235],[-71.566548,-35.148083],[-71.562062,-35.145241],[-71.556951,-35.146551],[-71.552466,-35.143709],[-71.547356,-35.145019],[-71.546731,-35.149171]]]},"properties":{"comuna":"Sagrada Familia","mancha_id":"07307-88b2c30c17fffff","clase":"Medio","nivel_medio":2.117,"nivel_medio_min":1.502,"nivel_medio_max":2.5,"pct_alto":23.1,"n_hexagonos":523,"area_ha":29159.65}},{"type":"Feature","geometry":{"type":"Polygon","coordinates":[[[-71.448168,-35.000074],[-71.446574,-34.99906],[-71.446663,-34.998465],[-71.447298,-34.998888],[-71.447841,-34.999544],[-71.44811,-35.0],[-71.44811,-35.0],[-71.448168,-35.000074]]]},"properties":{"comuna":"Sagrada Familia","mancha_id":"07307-88b2c305d5fffff","clase":"Medio","nivel_medio":1.951,"nivel_medio_min":1.951,"nivel_medio_max":1.951,"pct_alto":0.0,"n_hexagonos":1,"area_ha":0.76}},{"type":"Feature","geometry":{"type":"Polygon","coordinates":[[[-71.428037,-34.991821],[-71.42356,-34.98897],[-71.423775,-34.987542],[-71.424359,-34.987392],[-71.425273,-34.98755],[-71.42613,-34.98789],[-71.429147,-34.990174],[-71.43018,-34.99058],[-71.431285,-34.990617],[-71.431752,-34.990845],[-71.43177,-34.990862],[-71.428037,-34.991821]]]},"properties":{"comuna":"Sagrada Familia","mancha_id":"07307-88b2c304e5fffff","clase":"Medio","nivel_medio":1.682,"nivel_medio_min":1.682,"nivel_medio_max":1.682,"pct_alto":48.0,"n_hexagonos":1,"area_ha":14.6}},{"type":"Feature","geometry":{"type":"Polygon","coordinates":[[[-71.402522,-34.998367],[-71.403148,-34.994207],[-71.398672,-34.991356],[-71.399299,-34.987196],[-71.394823,-34.984345],[-71.395151,-34.982167],[-71.395467,-34.982167],[-71.39615,-34.982219],[-71.396938,-34.982377],[-71.397748,-34.982381],[-71.399303,-34.982036],[-71.400672,-34.98187],[-71.402018,-34.982134],[-71.403511,-34.982485],[-71.404864,-34.982813],[-71.404401,-34.985887],[-71.408877,-34.988738],[-71.408251,-34.992898],[-71.412728,-34.995749],[-71.412101,-34.999909],[-71.406998,-35.001218],[-71.402522,-34.998367]]]},"properties":{"comuna":"Sagrada Familia","mancha_id":"07307-88b2c30485fffff","clase":"Medio","nivel_medio":1.614,"nivel_medio_min":1.545,"nivel_medio_max":1.7,"pct_alto":3.8,"n_hexagonos":3,"area_ha":162.91}},{"type":"Feature","geometry":{"type":"Polygon","coordinates":[[[-71.387214,-35.002291],[-71.387841,-34.998132],[-71.383365,-34.995281],[-71.383992,-34.991122],[-71.389094,-34.989813],[-71.39357,-34.992665],[-71.392943,-34.996824],[-71.397419,-34.999675],[-71.396792,-35.003834],[-71.401269,-35.006685],[-71.400642,-35.010844],[-71.405119,-35.013694],[-71.404492,-35.017852],[-71.399389,-35.01916],[-71.394912,-35.016309],[-71.38981,-35.017617],[-71.385334,-35.014766],[-71.38596,-35.010608],[-71.381485,-35.007757],[-71.382112,-35.003599],[-71.387214,-35.002291]]]},"properties":{"comuna":"Sagrada Familia","mancha_id":"07307-88b2c30483fffff","clase":"Medio","nivel_medio":1.801,"nivel_medio_min":1.53,"nivel_medio_max":2.468,"pct_alto":28.0,"n_hexagonos":6,"area_ha":371.86}},{"type":"Feature","geometry":{"type":"Polygon","coordinates":[[[-71.648335,-35.127081],[-71.648959,-35.122925],[-71.654071,-35.12161],[-71.658561,-35.12445],[-71.657937,-35.128606],[-71.652824,-35.129921],[-71.648335,-35.127081]]]},"properties":{"comuna":"Sagrada Familia","mancha_id":"07307-88b2c37701fffff","clase":"Alto","nivel_medio":2.511,"nivel_medio_min":2.511,"nivel_medio_max":2.511,"pct_alto":74.9,"n_hexagonos":1,"area_ha":61.96}},{"type":"Feature","geometry":{"type":"Polygon","coordinates":[[[-71.544855,-35.161624],[-71.54548,-35.157473],[-71.550591,-35.156164],[-71.555076,-35.159006],[-71.554451,-35.163157],[-71.549341,-35.164466],[-71.544855,-35.161624]]]},"properties":{"comuna":"Sagrada Familia","mancha_id":"07307-88b2c37687fffff","clase":"Alto","nivel_medio":2.536,"nivel_medio_min":2.536,"nivel_medio_max":2.536,"pct_alto":60.1,"n_hexagonos":1,"area_ha":61.85}},{"type":"Feature","geometry":{"type":"Polygon","coordinates":[[[-71.573532,-35.134314],[-71.574157,-35.130161],[-71.579268,-35.12885],[-71.583754,-35.131691],[-71.583129,-35.135845],[-71.578019,-35.137156],[-71.573532,-35.134314]]]},"properties":{"comuna":"Sagrada Familia","mancha_id":"07307-88b2c3763bfffff","clase":"Alto","nivel_medio":2.562,"nivel_medio_min":2.562,"nivel_medio_max":2.562,"pct_alto":56.4,"n_hexagonos":1,"area_ha":61.91}},{"type":"Feature","geometry":{"type":"Polygon","coordinates":[[[-71.624381,-35.221041],[-71.623757,-35.225189],[-71.619899,-35.226178],[-71.619395,-35.226131],[-71.618902,-35.226078],[-71.618374,-35.225937],[-71.617933,-35.225831],[-71.617564,-35.225708],[-71.617163,-35.225563],[-71.614154,-35.223661],[-71.60904,-35.224971],[-71.604551,-35.222132],[-71.605175,-35.217985],[-71.610289,-35.216675],[-71.610913,-35.212527],[-71.616027,-35.211217],[-71.620516,-35.214055],[-71.619892,-35.218203],[-71.624381,-35.221041]]]},"properties":{"comuna":"Sagrada Familia","mancha_id":"07307-88b2c37591fffff","clase":"Alto","nivel_medio":2.575,"nivel_medio_min":2.509,"nivel_medio_max":2.682,"pct_alto":57.5,"n_hexagonos":3,"area_ha":184.77}},{"type":"Feature","geometry":{"type":"Polygon","coordinates":[[[-71.640972,-35.208811],[-71.641596,-35.204662],[-71.637106,-35.201824],[-71.63773,-35.197674],[-71.63324,-35.194836],[-71.633864,-35.190685],[-71.638978,-35.189374],[-71.643468,-35.192212],[-71.642844,-35.196362],[-71.647334,-35.1992],[-71.64671,-35.20335],[-71.651201,-35.206188],[-71.650577,-35.210337],[-71.645462,-35.211649],[-71.640972,-35.208811]]]},"properties":{"comuna":"Sagrada Familia","mancha_id":"07307-88b2c3758dfffff","clase":"Alto","nivel_medio":2.646,"nivel_medio_min":2.639,"nivel_medio_max":2.655,"pct_alto":64.6,"n_hexagonos":3,"area_ha":185.53}},{"type":"Feature","geometry":{"type":"Polygon","coordinates":[[[-71.541104,-35.186523],[-71.54173,-35.182374],[-71.54684,-35.181066],[-71.551326,-35.183907],[-71.556437,-35.182599],[-71.560924,-35.18544],[-71.560299,-35.189589],[-71.555187,-35.190897],[-71.550701,-35.188056],[-71.54559,-35.189364],[-71.541104,-35.186523]]]},"properties":{"comuna":"Sagrada Familia","mancha_id":"07307-88b2c374d9fffff","clase":"Alto","nivel_medio":2.534,"nivel_medio_min":2.505,"nivel_medio_max":2.563,"pct_alto":52.8,"n_hexagonos":2,"area_ha":123.62}},{"type":"Feature","geometry":{"type":"Polygon","coordinates":[[[-71.566772,-35.211863],[-71.571885,-35.210555],[-71.572243,-35.210782],[-71.571853,-35.210899],[-71.571489,-35.211262],[-71.57123,-35.211504],[-71.569863,-35.211626],[-71.569206,-35.211764],[-71.568548,-35.211885],[-71.567458,-35.212006],[-71.566732,-35.212132],[-71.566772,-35.211863]]]},"properties":{"comuna":"Sagrada Familia","mancha_id":"07307-88b2c374b9fffff","clase":"Alto","nivel_medio":2.654,"nivel_medio_min":2.654,"nivel_medio_max":2.654,"pct_alto":65.4,"n_hexagonos":1,"area_ha":2.68}},{"type":"Feature","geometry":{"type":"Polygon","coordinates":[[[-71.587222,-35.206629],[-71.587847,-35.20248],[-71.583359,-35.199641],[-71.583983,-35.195492],[-71.579496,-35.192652],[-71.580121,-35.188502],[-71.585233,-35.187193],[-71.58972,-35.190033],[-71.589096,-35.194182],[-71.593584,-35.197022],[-71.592959,-35.201171],[-71.597447,-35.20401],[-71.596823,-35.208159],[-71.59171,-35.209468],[-71.587222,-35.206629]]]},"properties":{"comuna":"Sagrada Familia","mancha_id":"07307-88b2c374a9fffff","clase":"Alto","nivel_medio":2.615,"nivel_medio_min":2.583,"nivel_medio_max":2.667,"pct_alto":61.5,"n_hexagonos":3,"area_ha":185.44}},{"type":"Feature","geometry":{"type":"Polygon","coordinates":[[[-71.615789,-35.147426],[-71.610677,-35.148738],[-71.610052,-35.152891],[-71.60494,-35.154203],[-71.604316,-35.158355],[-71.599204,-35.159667],[-71.594717,-35.156826],[-71.589605,-35.158138],[-71.58898,-35.162289],[-71.583869,-35.1636],[-71.583244,-35.167751],[-71.578132,-35.169061],[-71.573646,-35.16622],[-71.574271,-35.162069],[-71.579382,-35.160759],[-71.580006,-35.156607],[-71.585118,-35.155297],[-71.585742,-35.151145],[-71.581256,-35.148303],[-71.58188,-35.144151],[-71.586991,-35.142839],[-71.591478,-35.145681],[-71.59659,-35.144369],[-71.597214,-35.140216],[-71.602326,-35.138904],[-71.606813,-35.141745],[-71.611925,-35.140432],[-71.616413,-35.143273],[-71.615789,-35.147426]]]},"properties":{"comuna":"Sagrada Familia","mancha_id":"07307-88b2c37441fffff","clase":"Alto","nivel_medio":2.87,"nivel_medio_min":2.625,"nivel_medio_max":3.106,"pct_alto":85.2,"n_hexagonos":9,"area_ha":556.98}},{"type":"Feature","geometry":{"type":"Polygon","coordinates":[[[-71.68288,-35.126181],[-71.683503,-35.122025],[-71.685593,-35.121487],[-71.685531,-35.122776],[-71.685485,-35.123354],[-71.685415,-35.124373],[-71.685577,-35.125021],[-71.685647,-35.125576],[-71.685693,-35.126201],[-71.685577,-35.126688],[-71.685461,-35.127081],[-71.685276,-35.127498],[-71.685165,-35.127626],[-71.684975,-35.127845],[-71.684605,-35.128215],[-71.684211,-35.128725],[-71.684211,-35.128979],[-71.68398,-35.129512],[-71.683586,-35.130021],[-71.683123,-35.130669],[-71.682684,-35.130924],[-71.682545,-35.131202],[-71.682128,-35.133215],[-71.681872,-35.134431],[-71.681573,-35.135854],[-71.681341,-35.136965],[-71.681179,-35.137799],[-71.681135,-35.137819],[-71.679489,-35.138563],[-71.677985,-35.139211],[-71.677475,-35.139165],[-71.677151,-35.138979],[-71.676565,-35.138724],[-71.675455,-35.138765],[-71.675263,-35.13904],[-71.675235,-35.139397],[-71.675231,-35.139542],[-71.675208,-35.140361],[-71.674299,-35.142424],[-71.673529,-35.144186],[-71.673386,-35.144603],[-71.673171,-35.145231],[-71.672924,-35.145561],[-71.672511,-35.146414],[-71.672236,-35.14691],[-71.67163,-35.148258],[-71.671355,-35.148753],[-71.671218,-35.149056],[-71.671162,-35.149359],[-71.67108,-35.149772],[-71.671384,-35.150756],[-71.671548,-35.151285],[-71.67163,-35.151973],[-71.671685,-35.152881],[-71.671603,-35.153652],[-71.671493,-35.15445],[-71.671493,-35.154807],[-71.671493,-35.155385],[-71.671685,-35.155853],[-71.672153,-35.156266],[-71.672615,-35.156782],[-71.668289,-35.157895],[-71.663799,-35.155056],[-71.664422,-35.150902],[-71.659932,-35.148063],[-71.660556,-35.143909],[-71.656066,-35.14107],[-71.650953,-35.142384],[-71.646464,-35.139545],[-71.647088,-35.13539],[-71.6522,-35.134076],[-71.65669,-35.136915],[-71.661803,-35.1356],[-71.666293,-35.13844],[-71.671406,-35.137124],[-71.67203,-35.132969],[-71.677143,-35.131653],[-71.677767,-35.127498],[-71.68288,-35.126181]]]},"properties":{"comuna":"Sagrada Familia","mancha_id":"07307-88b2c370dbfffff","clase":"Alto","nivel_medio":2.84,"nivel_medio_min":2.602,"nivel_medio_max":3.118,"pct_alto":84.1,"n_hexagonos":10,"area_ha":415.37}},{"type":"Feature","geometry":{"type":"Polygon","coordinates":[[[-71.408525,-35.088733],[-71.409152,-35.08458],[-71.404674,-35.081732],[-71.405301,-35.077578],[-71.410405,-35.076272],[-71.414883,-35.079121],[-71.414257,-35.083274],[-71.418735,-35.086122],[-71.418109,-35.090276],[-71.413004,-35.091581],[-71.408525,-35.088733]]]},"properties":{"comuna":"Sagrada Familia","mancha_id":"07307-88b2c33aadfffff","clase":"Alto","nivel_medio":2.644,"nivel_medio_min":2.606,"nivel_medio_max":2.681,"pct_alto":64.4,"n_hexagonos":2,"area_ha":123.75}},{"type":"Feature","geometry":{"type":"Polygon","coordinates":[[[-71.452498,-35.057504],[-71.453124,-35.053348],[-71.45823,-35.052039],[-71.46271,-35.054887],[-71.462084,-35.059043],[-71.456978,-35.060352],[-71.452498,-35.057504]]]},"properties":{"comuna":"Sagrada Familia","mancha_id":"07307-88b2c33a25fffff","clase":"Alto","nivel_medio":2.555,"nivel_medio_min":2.555,"nivel_medio_max":2.555,"pct_alto":57.8,"n_hexagonos":1,"area_ha":61.94}},{"type":"Feature","geometry":{"type":"Polygon","coordinates":[[[-71.398852,-35.055262],[-71.399479,-35.051107],[-71.404583,-35.0498],[-71.40906,-35.052649],[-71.408434,-35.056805],[-71.412911,-35.059654],[-71.412285,-35.063809],[-71.416763,-35.066657],[-71.416136,-35.070812],[-71.411032,-35.072118],[-71.406554,-35.06927],[-71.407181,-35.065115],[-71.402703,-35.062266],[-71.40333,-35.058111],[-71.398852,-35.055262]]]},"properties":{"comuna":"Sagrada Familia","mancha_id":"07307-88b2c33a11fffff","clase":"Alto","nivel_medio":2.733,"nivel_medio_min":2.597,"nivel_medio_max":2.828,"pct_alto":73.3,"n_hexagonos":3,"area_ha":185.72}},{"type":"Feature","geometry":{"type":"Polygon","coordinates":[[[-71.477603,-35.118972],[-71.478229,-35.114819],[-71.483336,-35.113512],[-71.487818,-35.116357],[-71.487193,-35.120509],[-71.482085,-35.121817],[-71.477603,-35.118972]]]},"properties":{"comuna":"Sagrada Familia","mancha_id":"07307-88b2c339cdfffff","clase":"Alto","nivel_medio":2.766,"nivel_medio_min":2.766,"nivel_medio_max":2.766,"pct_alto":76.6,"n_hexagonos":1,"area_ha":61.87}},{"type":"Feature","geometry":{"type":"Polygon","coordinates":[[[-71.469992,-35.136886],[-71.470618,-35.132734],[-71.475725,-35.131428],[-71.480207,-35.134272],[-71.479581,-35.138424],[-71.474473,-35.13973],[-71.469992,-35.136886]]]},"properties":{"comuna":"Sagrada Familia","mancha_id":"07307-88b2c33989fffff","clase":"Alto","nivel_medio":2.682,"nivel_medio_min":2.682,"nivel_medio_max":2.682,"pct_alto":68.2,"n_hexagonos":1,"area_ha":61.84}},{"type":"Feature","geometry":{"type":"Polygon","coordinates":[[[-71.483438,-35.145419],[-71.484064,-35.141268],[-71.489172,-35.139961],[-71.493655,-35.142805],[-71.498763,-35.141498],[-71.499389,-35.137346],[-71.494906,-35.134502],[-71.495532,-35.130351],[-71.50064,-35.129043],[-71.501266,-35.12489],[-71.506374,-35.123582],[-71.510857,-35.126426],[-71.510232,-35.130578],[-71.514715,-35.133422],[-71.519824,-35.132113],[-71.524308,-35.134957],[-71.523682,-35.139109],[-71.528167,-35.141952],[-71.527541,-35.146104],[-71.522432,-35.147412],[-71.517948,-35.144569],[-71.518573,-35.140417],[-71.51409,-35.137574],[-71.508981,-35.138882],[-71.508355,-35.143034],[-71.503246,-35.144341],[-71.502621,-35.148492],[-71.497512,-35.1498],[-71.496886,-35.15395],[-71.501369,-35.156793],[-71.500744,-35.160944],[-71.495635,-35.16225],[-71.491152,-35.159407],[-71.491777,-35.155257],[-71.487294,-35.152413],[-71.48792,-35.148263],[-71.483438,-35.145419]]]},"properties":{"comuna":"Sagrada Familia","mancha_id":"07307-88b2c33985fffff","clase":"Alto","nivel_medio":2.671,"nivel_medio_min":2.505,"nivel_medio_max":2.941,"pct_alto":67.9,"n_hexagonos":10,"area_ha":618.46}},{"type":"Feature","geometry":{"type":"Polygon","coordinates":[[[-71.414349,-35.11519],[-71.418828,-35.118036],[-71.423934,-35.116732],[-71.428413,-35.119578],[-71.433519,-35.118273],[-71.437999,-35.121119],[-71.437373,-35.12527],[-71.432267,-35.126576],[-71.427787,-35.123729],[-71.422681,-35.125034],[-71.418201,-35.122188],[-71.416902,-35.122519],[-71.416252,-35.121403],[-71.41574,-35.12013],[-71.414679,-35.117525],[-71.414002,-35.115278],[-71.414349,-35.11519]]]},"properties":{"comuna":"Sagrada Familia","mancha_id":"07307-88b2c338c7fffff","clase":"Alto","nivel_medio":2.71,"nivel_medio_min":2.585,"nivel_medio_max":2.811,"pct_alto":71.0,"n_hexagonos":3,"area_ha":141.8}},{"type":"Feature","geometry":{"type":"Polygon","coordinates":[[[-71.454474,-35.076974],[-71.449368,-35.078282],[-71.448742,-35.082436],[-71.443636,-35.083743],[-71.439157,-35.080896],[-71.439783,-35.076742],[-71.435304,-35.073894],[-71.43593,-35.069739],[-71.431451,-35.066892],[-71.432077,-35.062736],[-71.437182,-35.061429],[-71.441662,-35.064277],[-71.446767,-35.062969],[-71.451246,-35.065816],[-71.45062,-35.069972],[-71.4551,-35.072819],[-71.454474,-35.076974]]]},"properties":{"comuna":"Sagrada Familia","mancha_id":"07307-88b2c33841fffff","clase":"Alto","nivel_medio":2.585,"nivel_medio_min":2.502,"nivel_medio_max":2.784,"pct_alto":58.5,"n_hexagonos":5,"area_ha":309.56}},{"type":"Feature","geometry":{"type":"Polygon","coordinates":[[[-71.439252,-35.112816],[-71.439878,-35.108663],[-71.444985,-35.107357],[-71.449465,-35.110203],[-71.448839,-35.114356],[-71.443732,-35.115662],[-71.439252,-35.112816]]]},"properties":{"comuna":"Sagrada Familia","mancha_id":"07307-88b2c3383bfffff","clase":"Alto","nivel_medio":2.508,"nivel_medio_min":2.508,"nivel_medio_max":2.508,"pct_alto":50.8,"n_hexagonos":1,"area_ha":61.85}},{"type":"Feature","geometry":{"type":"Polygon","coordinates":[[[-71.452693,-35.121353],[-71.453319,-35.117202],[-71.458426,-35.115895],[-71.462907,-35.118741],[-71.462281,-35.122893],[-71.466762,-35.125738],[-71.466136,-35.12989],[-71.461029,-35.131196],[-71.456548,-35.128351],[-71.457174,-35.124199],[-71.452693,-35.121353]]]},"properties":{"comuna":"Sagrada Familia","mancha_id":"07307-88b2c33837fffff","clase":"Alto","nivel_medio":2.635,"nivel_medio_min":2.542,"nivel_medio_max":2.729,"pct_alto":63.5,"n_hexagonos":2,"area_ha":123.69}},{"type":"Feature","geometry":{"type":"Polygon","coordinates":[[[-71.425813,-35.104276],[-71.42644,-35.100123],[-71.431546,-35.098817],[-71.436025,-35.101664],[-71.435399,-35.105817],[-71.430293,-35.107123],[-71.425813,-35.104276]]]},"properties":{"comuna":"Sagrada Familia","mancha_id":"07307-88b2c33811fffff","clase":"Alto","nivel_medio":2.542,"nivel_medio_min":2.542,"nivel_medio_max":2.542,"pct_alto":54.2,"n_hexagonos":1,"area_ha":61.86}},{"type":"Feature","geometry":{"type":"Polygon","coordinates":[[[-71.325913,-34.986006],[-71.320813,-34.987312],[-71.316634,-34.984645],[-71.317101,-34.984656],[-71.317574,-34.984551],[-71.318704,-34.984018],[-71.320869,-34.983139],[-71.322155,-34.982731],[-71.323536,-34.982731],[-71.324243,-34.982823],[-71.324859,-34.982973],[-71.325488,-34.983301],[-71.326109,-34.983547],[-71.326283,-34.983555],[-71.325913,-34.986006]]]},"properties":{"comuna":"Sagrada Familia","mancha_id":"07307-88b2c3330bfffff","clase":"Alto","nivel_medio":2.529,"nivel_medio_min":2.529,"nivel_medio_max":2.529,"pct_alto":57.3,"n_hexagonos":1,"area_ha":28.13}},{"type":"Feature","geometry":{"type":"Polygon","coordinates":[[[-71.328038,-35.069367],[-71.332512,-35.072218],[-71.33198,-35.075738],[-71.331855,-35.075578],[-71.330878,-35.074454],[-71.329529,-35.073343],[-71.328377,-35.072668],[-71.32802,-35.072033],[-71.327921,-35.071264],[-71.327385,-35.070445],[-71.327244,-35.06957],[-71.328038,-35.069367]]]},"properties":{"comuna":"Sagrada Familia","mancha_id":"07307-88b2c33185fffff","clase":"Alto","nivel_medio":2.554,"nivel_medio_min":2.554,"nivel_medio_max":2.554,"pct_alto":56.6,"n_hexagonos":1,"area_ha":14.96}},{"type":"Feature","geometry":{"type":"Polygon","coordinates":[[[-71.374589,-35.05348],[-71.370113,-35.05063],[-71.36501,-35.051935],[-71.360534,-35.049085],[-71.355432,-35.050389],[-71.350957,-35.047539],[-71.351584,-35.043383],[-71.356686,-35.042079],[-71.361161,-35.044929],[-71.366264,-35.043625],[-71.37074,-35.046475],[-71.375843,-35.04517],[-71.380319,-35.048019],[-71.385422,-35.046714],[-71.389899,-35.049563],[-71.389272,-35.053719],[-71.384168,-35.055024],[-71.379692,-35.052175],[-71.374589,-35.05348]]]},"properties":{"comuna":"Sagrada Familia","mancha_id":"07307-88b2c33123fffff","clase":"Alto","nivel_medio":2.554,"nivel_medio_min":2.527,"nivel_medio_max":2.564,"pct_alto":57.4,"n_hexagonos":4,"area_ha":247.6}},{"type":"Feature","geometry":{"type":"Polygon","coordinates":[[[-71.529632,-35.197434],[-71.530258,-35.193286],[-71.535368,-35.191979],[-71.539854,-35.19482],[-71.539229,-35.198969],[-71.534118,-35.200276],[-71.529632,-35.197434]]]},"properties":{"comuna":"Sagrada Familia","mancha_id":"07307-88b2c32b2dfffff","clase":"Alto","nivel_medio":2.687,"nivel_medio_min":2.687,"nivel_medio_max":2.687,"pct_alto":71.6,"n_hexagonos":1,"area_ha":61.78}},{"type":"Feature","geometry":{"type":"Polygon","coordinates":[[[-71.504706,-35.199817],[-71.505332,-35.19567],[-71.510442,-35.194364],[-71.514926,-35.197206],[-71.514301,-35.201353],[-71.518785,-35.204195],[-71.51816,-35.208342],[-71.513049,-35.209647],[-71.508565,-35.206806],[-71.503454,-35.208111],[-71.502829,-35.212258],[-71.507313,-35.215099],[-71.506687,-35.219245],[-71.503837,-35.219973],[-71.502813,-35.21807],[-71.502271,-35.216675],[-71.502129,-35.216238],[-71.501604,-35.215171],[-71.501031,-35.214164],[-71.500674,-35.213047],[-71.500543,-35.212842],[-71.500012,-35.212012],[-71.499465,-35.211017],[-71.49931,-35.210443],[-71.499181,-35.210112],[-71.49738,-35.20881],[-71.493879,-35.20657],[-71.49897,-35.20527],[-71.499596,-35.201123],[-71.504706,-35.199817]]]},"properties":{"comuna":"Sagrada Familia","mancha_id":"07307-88b2c32b07fffff","clase":"Alto","nivel_medio":2.643,"nivel_medio_min":2.507,"nivel_medio_max":2.742,"pct_alto":64.3,"n_hexagonos":5,"area_ha":251.75}},{"type":"Feature","geometry":{"type":"Polygon","coordinates":[[[-71.464357,-35.174233],[-71.464983,-35.170084],[-71.470091,-35.168779],[-71.474574,-35.171623],[-71.473948,-35.175771],[-71.47843,-35.178615],[-71.477804,-35.182763],[-71.472695,-35.184067],[-71.468213,-35.181224],[-71.468839,-35.177076],[-71.464357,-35.174233]]]},"properties":{"comuna":"Sagrada Familia","mancha_id":"07307-88b2c32a65fffff","clase":"Alto","nivel_medio":2.59,"nivel_medio_min":2.571,"nivel_medio_max":2.61,"pct_alto":59.1,"n_hexagonos":2,"area_ha":123.55}},{"type":"Feature","geometry":{"type":"Polygon","coordinates":[[[-71.539963,-35.226691],[-71.545075,-35.225385],[-71.54919,-35.22799],[-71.549146,-35.228011],[-71.546861,-35.229075],[-71.543609,-35.23066],[-71.540976,-35.231875],[-71.539337,-35.230837],[-71.539963,-35.226691]]]},"properties":{"comuna":"Sagrada Familia","mancha_id":"07307-88b2c3296bfffff","clase":"Alto","nivel_medio":2.515,"nivel_medio_min":2.515,"nivel_medio_max":2.515,"pct_alto":52.0,"n_hexagonos":1,"area_ha":36.73}},{"type":"Feature","geometry":{"type":"Polygon","coordinates":[[[-71.564337,-35.064764],[-71.563712,-35.068922],[-71.568196,-35.071766],[-71.573306,-35.070453],[-71.57393,-35.066295],[-71.579039,-35.064981],[-71.583525,-35.067825],[-71.5829,-35.071983],[-71.587386,-35.074826],[-71.592495,-35.073512],[-71.596981,-35.076355],[-71.596357,-35.080513],[-71.600843,-35.083356],[-71.600219,-35.087513],[-71.604705,-35.090355],[-71.604081,-35.094512],[-71.608568,-35.097354],[-71.607944,-35.101511],[-71.602833,-35.102825],[-71.598346,-35.099982],[-71.59897,-35.095826],[-71.594484,-35.092984],[-71.589374,-35.094297],[-71.58875,-35.098453],[-71.593236,-35.101296],[-71.592611,-35.105452],[-71.597098,-35.108294],[-71.602209,-35.10698],[-71.606695,-35.109822],[-71.611807,-35.108509],[-71.616294,-35.11135],[-71.621405,-35.110036],[-71.625893,-35.112877],[-71.625269,-35.117033],[-71.620157,-35.118347],[-71.619533,-35.122502],[-71.614422,-35.123816],[-71.609934,-35.120974],[-71.610558,-35.116819],[-71.606071,-35.113978],[-71.60096,-35.115291],[-71.596473,-35.112449],[-71.591363,-35.113762],[-71.590738,-35.117917],[-71.585627,-35.119229],[-71.581141,-35.116387],[-71.576031,-35.117699],[-71.571545,-35.114857],[-71.566435,-35.116168],[-71.56195,-35.113326],[-71.562575,-35.109171],[-71.55809,-35.106328],[-71.55298,-35.107639],[-71.552355,-35.111794],[-71.547246,-35.113105],[-71.546621,-35.117259],[-71.551105,-35.120102],[-71.55048,-35.124256],[-71.545371,-35.125566],[-71.540886,-35.122723],[-71.541511,-35.118569],[-71.537027,-35.115726],[-71.537652,-35.111572],[-71.533168,-35.108728],[-71.533793,-35.104574],[-71.538902,-35.103263],[-71.543386,-35.106107],[-71.548496,-35.104796],[-71.54912,-35.100641],[-71.544636,-35.097797],[-71.539527,-35.099108],[-71.535043,-35.096264],[-71.535668,-35.092109],[-71.531185,-35.089264],[-71.526077,-35.090575],[-71.521593,-35.087731],[-71.516485,-35.089041],[-71.512003,-35.086196],[-71.512628,-35.08204],[-71.508146,-35.079195],[-71.503038,-35.080505],[-71.498556,-35.07766],[-71.499182,-35.073504],[-71.504289,-35.072194],[-71.508771,-35.075039],[-71.513879,-35.073729],[-71.518361,-35.076574],[-71.517736,-35.08073],[-71.522219,-35.083575],[-71.527327,-35.082264],[-71.53181,-35.085109],[-71.536919,-35.083798],[-71.537544,-35.079641],[-71.542652,-35.07833],[-71.543277,-35.074173],[-71.538793,-35.071328],[-71.533685,-35.07264],[-71.529202,-35.069795],[-71.529827,-35.065638],[-71.525344,-35.062793],[-71.52597,-35.058635],[-71.521487,-35.055789],[-71.522112,-35.051632],[-71.52722,-35.05032],[-71.531702,-35.053165],[-71.53681,-35.051853],[-71.541293,-35.054698],[-71.546401,-35.053385],[-71.550885,-35.05623],[-71.555993,-35.054917],[-71.560477,-35.057762],[-71.565586,-35.056448],[-71.57007,-35.059293],[-71.569446,-35.063451],[-71.564337,-35.064764]],[[-71.57728,-35.10939],[-71.577905,-35.105235],[-71.573419,-35.102392],[-71.568309,-35.103704],[-71.567684,-35.107859],[-71.57217,-35.110702],[-71.57728,-35.10939]]]},"properties":{"comuna":"Sagrada Familia","mancha_id":"07307-88b2c30c81fffff","clase":"Alto","nivel_medio":2.769,"nivel_medio_min":2.501,"nivel_medio_max":2.976,"pct_alto":77.5,"n_hexagonos":62,"area_ha":3841.69}},{"type":"Feature","geometry":{"type":"Polygon","coordinates":[[[-71.389183,-35.021774],[-71.38981,-35.017617],[-71.394912,-35.016309],[-71.399389,-35.01916],[-71.404492,-35.017852],[-71.408969,-35.020702],[-71.408342,-35.02486],[-71.412819,-35.02771],[-71.417923,-35.026402],[-71.422401,-35.029251],[-71.421774,-35.033409],[-71.41667,-35.034716],[-71.412193,-35.031867],[-71.407089,-35.033175],[-71.402612,-35.030325],[-71.403239,-35.026168],[-71.398762,-35.023318],[-71.393659,-35.024625],[-71.389183,-35.021774]]]},"properties":{"comuna":"Sagrada Familia","mancha_id":"07307-88b2c304b3fffff","clase":"Alto","nivel_medio":2.646,"nivel_medio_min":2.507,"nivel_medio_max":2.771,"pct_alto":65.1,"n_hexagonos":4,"area_ha":247.83}}],"bbox":[-71.70227,-35.24525,-71.24864,-34.97863]}