{"type":"FeatureCollection","features":[{"type":"Feature","geometry":{"type":"Polygon","coordinates":[[[-71.446529,-35.615866],[-71.441411,-35.617153],[-71.438766,-35.615485],[-71.439682,-35.615638],[-71.441731,-35.614562],[-71.443216,-35.613025],[-71.444241,-35.611796],[-71.445819,-35.610906],[-71.447156,-35.611749],[-71.446529,-35.615866]]]},"properties":{"comuna":"Yerbas Buenas","mancha_id":"07408-88b2dd8ec7fffff","clase":"Bajo","nivel_medio":1.395,"nivel_medio_min":1.395,"nivel_medio_max":1.395,"pct_alto":6.8,"n_hexagonos":1,"area_ha":24.99}},{"type":"Feature","geometry":{"type":"Polygon","coordinates":[[[-71.447253,-35.643392],[-71.446625,-35.647507],[-71.442504,-35.648542],[-71.44185,-35.64809],[-71.44097,-35.6468],[-71.44067,-35.64637],[-71.43996,-35.64504],[-71.43968,-35.64437],[-71.43937,-35.64362],[-71.438622,-35.641603],[-71.43756,-35.63874],[-71.43698,-35.63721],[-71.435947,-35.634359],[-71.438901,-35.633617],[-71.443391,-35.636447],[-71.442763,-35.640562],[-71.447253,-35.643392]]]},"properties":{"comuna":"Yerbas Buenas","mancha_id":"07408-88b2dd8eb1fffff","clase":"Bajo","nivel_medio":1.248,"nivel_medio_min":1.119,"nivel_medio_max":1.356,"pct_alto":3.7,"n_hexagonos":2,"area_ha":84.33}},{"type":"Feature","geometry":{"type":"Polygon","coordinates":[[[-71.463862,-35.631302],[-71.464489,-35.627186],[-71.469607,-35.625899],[-71.474098,-35.628728],[-71.473471,-35.632844],[-71.468353,-35.634131],[-71.463862,-35.631302]]]},"properties":{"comuna":"Yerbas Buenas","mancha_id":"07408-88b2dd8eadfffff","clase":"Bajo","nivel_medio":1.321,"nivel_medio_min":1.321,"nivel_medio_max":1.321,"pct_alto":7.0,"n_hexagonos":1,"area_ha":61.09}},{"type":"Feature","geometry":{"type":"Polygon","coordinates":[[[-71.471489,-35.613547],[-71.472116,-35.609429],[-71.477234,-35.608141],[-71.481725,-35.610971],[-71.481098,-35.615089],[-71.47598,-35.616377],[-71.471489,-35.613547]]]},"properties":{"comuna":"Yerbas Buenas","mancha_id":"07408-88b2dd8e33fffff","clase":"Bajo","nivel_medio":1.433,"nivel_medio_min":1.433,"nivel_medio_max":1.433,"pct_alto":0.0,"n_hexagonos":1,"area_ha":61.12}},{"type":"Feature","geometry":{"type":"Polygon","coordinates":[[[-71.596864,-35.633783],[-71.596463,-35.633531],[-71.596989,-35.63007],[-71.59704,-35.63359],[-71.596864,-35.633783]]]},"properties":{"comuna":"Yerbas Buenas","mancha_id":"07408-88b2dd8d6dfffff","clase":"Bajo","nivel_medio":1.486,"nivel_medio_min":1.486,"nivel_medio_max":1.486,"pct_alto":45.6,"n_hexagonos":1,"area_ha":1.08}},{"type":"Feature","geometry":{"type":"Polygon","coordinates":[[[-71.585594,-35.640234],[-71.590715,-35.638942],[-71.591422,-35.639386],[-71.58921,-35.64158],[-71.58872,-35.64207],[-71.58684,-35.64421],[-71.586078,-35.64505],[-71.584968,-35.644352],[-71.585594,-35.640234]]]},"properties":{"comuna":"Yerbas Buenas","mancha_id":"07408-88b2dd8d63fffff","clase":"Bajo","nivel_medio":1.438,"nivel_medio_min":1.438,"nivel_medio_max":1.438,"pct_alto":7.2,"n_hexagonos":1,"area_ha":17.97}},{"type":"Feature","geometry":{"type":"Polygon","coordinates":[[[-71.568351,-35.65646],[-71.573472,-35.655169],[-71.575248,-35.656285],[-71.57461,-35.65697],[-71.57416,-35.65806],[-71.57336,-35.6623],[-71.5732,-35.663155],[-71.57222,-35.663402],[-71.571594,-35.667518],[-71.566472,-35.668808],[-71.561977,-35.665983],[-71.562603,-35.661867],[-71.567724,-35.660576],[-71.568351,-35.65646]]]},"properties":{"comuna":"Yerbas Buenas","mancha_id":"07408-88b2dd8d39fffff","clase":"Bajo","nivel_medio":1.361,"nivel_medio_min":1.178,"nivel_medio_max":1.48,"pct_alto":4.5,"n_hexagonos":2,"area_ha":100.7}},{"type":"Feature","geometry":{"type":"Polygon","coordinates":[[[-71.479317,-35.659078],[-71.479945,-35.654964],[-71.485064,-35.653677],[-71.489556,-35.656505],[-71.488929,-35.660619],[-71.483809,-35.661906],[-71.479317,-35.659078]]]},"properties":{"comuna":"Yerbas Buenas","mancha_id":"07408-88b2dd8ce9fffff","clase":"Bajo","nivel_medio":1.417,"nivel_medio_min":1.417,"nivel_medio_max":1.417,"pct_alto":3.6,"n_hexagonos":1,"area_ha":61.06}},{"type":"Feature","geometry":{"type":"Polygon","coordinates":[[[-71.463961,-35.662936],[-71.464588,-35.658822],[-71.469707,-35.657536],[-71.474198,-35.660365],[-71.473571,-35.664479],[-71.468452,-35.665765],[-71.463961,-35.662936]]]},"properties":{"comuna":"Yerbas Buenas","mancha_id":"07408-88b2dd8cc7fffff","clase":"Bajo","nivel_medio":1.342,"nivel_medio_min":1.342,"nivel_medio_max":1.342,"pct_alto":3.5,"n_hexagonos":1,"area_ha":61.04}},{"type":"Feature","geometry":{"type":"Polygon","coordinates":[[[-71.479216,-35.62744],[-71.479844,-35.623323],[-71.484962,-35.622035],[-71.489453,-35.624864],[-71.488826,-35.628981],[-71.483708,-35.630269],[-71.479216,-35.62744]]]},"properties":{"comuna":"Yerbas Buenas","mancha_id":"07408-88b2dd8c51fffff","clase":"Bajo","nivel_medio":1.361,"nivel_medio_min":1.361,"nivel_medio_max":1.361,"pct_alto":5.3,"n_hexagonos":1,"area_ha":61.1}},{"type":"Feature","geometry":{"type":"Polygon","coordinates":[[[-71.500318,-35.618169],[-71.500945,-35.614051],[-71.506064,-35.612762],[-71.510556,-35.615591],[-71.515675,-35.614301],[-71.520168,-35.617129],[-71.519541,-35.621247],[-71.514422,-35.622537],[-71.509929,-35.619709],[-71.50481,-35.620998],[-71.500318,-35.618169]]]},"properties":{"comuna":"Yerbas Buenas","mancha_id":"07408-88b2dd8c41fffff","clase":"Bajo","nivel_medio":1.357,"nivel_medio_min":1.311,"nivel_medio_max":1.403,"pct_alto":5.0,"n_hexagonos":2,"area_ha":122.27}},{"type":"Feature","geometry":{"type":"Polygon","coordinates":[[[-71.486945,-35.64133],[-71.487572,-35.637214],[-71.492691,-35.635926],[-71.497183,-35.638755],[-71.496556,-35.642871],[-71.491437,-35.644159],[-71.486945,-35.64133]]]},"properties":{"comuna":"Yerbas Buenas","mancha_id":"07408-88b2dd8c1dfffff","clase":"Bajo","nivel_medio":1.495,"nivel_medio_min":1.495,"nivel_medio_max":1.495,"pct_alto":1.2,"n_hexagonos":1,"area_ha":61.09}},{"type":"Feature","geometry":{"type":"Polygon","coordinates":[[[-71.583486,-35.589265],[-71.578991,-35.586437],[-71.579314,-35.584312],[-71.580382,-35.584383],[-71.581764,-35.584674],[-71.582562,-35.584928],[-71.584777,-35.588939],[-71.583486,-35.589265]]]},"properties":{"comuna":"Yerbas Buenas","mancha_id":"07408-88b2dd8ab3fffff","clase":"Bajo","nivel_medio":1.374,"nivel_medio_min":1.374,"nivel_medio_max":1.374,"pct_alto":13.2,"n_hexagonos":1,"area_ha":15.3}},{"type":"Feature","geometry":{"type":"Polygon","coordinates":[[[-71.59834,-35.621174],[-71.593218,-35.622467],[-71.592593,-35.626586],[-71.587471,-35.627879],[-71.586845,-35.631998],[-71.581724,-35.63329],[-71.577228,-35.630464],[-71.572107,-35.631756],[-71.567612,-35.62893],[-71.568238,-35.624811],[-71.563743,-35.621984],[-71.558622,-35.623276],[-71.554128,-35.620449],[-71.554754,-35.61633],[-71.559874,-35.615038],[-71.5605,-35.610919],[-71.565621,-35.609627],[-71.566247,-35.605507],[-71.561753,-35.60268],[-71.556632,-35.603972],[-71.552138,-35.601144],[-71.552765,-35.597024],[-71.557884,-35.595732],[-71.558511,-35.591611],[-71.556787,-35.590526],[-71.557233,-35.59054],[-71.558463,-35.591205],[-71.56087,-35.590642],[-71.563203,-35.590426],[-71.563636,-35.590386],[-71.563735,-35.590384],[-71.568125,-35.593146],[-71.567499,-35.597267],[-71.571993,-35.600094],[-71.571367,-35.604214],[-71.575862,-35.607041],[-71.575236,-35.611161],[-71.570116,-35.612454],[-71.56949,-35.616573],[-71.573985,-35.6194],[-71.579106,-35.618108],[-71.579731,-35.613988],[-71.584853,-35.612695],[-71.585478,-35.608575],[-71.580983,-35.605748],[-71.581609,-35.601628],[-71.58673,-35.600334],[-71.591225,-35.603161],[-71.592404,-35.602863],[-71.59269,-35.6034],[-71.59483,-35.60747],[-71.596067,-35.609862],[-71.595095,-35.610108],[-71.59472,-35.612579],[-71.59447,-35.61274],[-71.59442,-35.61323],[-71.594579,-35.613509],[-71.59447,-35.614228],[-71.595316,-35.61476],[-71.59545,-35.61498],[-71.59723,-35.61814],[-71.598468,-35.620332],[-71.59834,-35.621174]]]},"properties":{"comuna":"Yerbas Buenas","mancha_id":"07408-88b2dd8891fffff","clase":"Bajo","nivel_medio":1.356,"nivel_medio_min":0.634,"nivel_medio_max":1.496,"pct_alto":4.7,"n_hexagonos":17,"area_ha":931.62}},{"type":"Feature","geometry":{"type":"Polygon","coordinates":[[[-71.550591,-35.708412],[-71.551218,-35.704299],[-71.55634,-35.703011],[-71.560836,-35.705835],[-71.56021,-35.709948],[-71.555087,-35.711236],[-71.550591,-35.708412]]]},"properties":{"comuna":"Yerbas Buenas","mancha_id":"07408-88b2dd1749fffff","clase":"Bajo","nivel_medio":1.355,"nivel_medio_min":1.355,"nivel_medio_max":1.355,"pct_alto":5.6,"n_hexagonos":1,"area_ha":61.03}},{"type":"Feature","geometry":{"type":"Polygon","coordinates":[[[-71.51986,-35.716134],[-71.520487,-35.712022],[-71.525609,-35.710736],[-71.526235,-35.706624],[-71.521741,-35.703799],[-71.522368,-35.699686],[-71.517873,-35.696861],[-71.5185,-35.692748],[-71.514006,-35.689922],[-71.508885,-35.691209],[-71.504392,-35.688383],[-71.499272,-35.689669],[-71.494778,-35.686842],[-71.495406,-35.682729],[-71.500526,-35.681443],[-71.501153,-35.677329],[-71.49666,-35.674502],[-71.49154,-35.675789],[-71.490913,-35.679902],[-71.485793,-35.681189],[-71.485166,-35.685301],[-71.489658,-35.688128],[-71.489031,-35.692241],[-71.483911,-35.693526],[-71.483882,-35.693717],[-71.48349,-35.693261],[-71.48323,-35.69296],[-71.48104,-35.69045],[-71.479687,-35.688938],[-71.47832,-35.68741],[-71.47569,-35.68444],[-71.475156,-35.68386],[-71.47349,-35.68205],[-71.4731,-35.68159],[-71.46984,-35.67768],[-71.469551,-35.677356],[-71.471689,-35.676819],[-71.472316,-35.672706],[-71.477436,-35.67142],[-71.481928,-35.674248],[-71.487047,-35.672962],[-71.487674,-35.668848],[-71.492794,-35.667561],[-71.497287,-35.670389],[-71.502407,-35.669101],[-71.503034,-35.664987],[-71.508154,-35.6637],[-71.50878,-35.659585],[-71.5139,-35.658297],[-71.518394,-35.661124],[-71.523514,-35.659835],[-71.524141,-35.65572],[-71.529261,-35.654431],[-71.529888,-35.650315],[-71.525394,-35.647488],[-71.520274,-35.648777],[-71.515781,-35.64595],[-71.516408,-35.641833],[-71.511915,-35.639006],[-71.512541,-35.634889],[-71.517661,-35.6336],[-71.518288,-35.629483],[-71.523407,-35.628193],[-71.524034,-35.624075],[-71.529154,-35.622785],[-71.533647,-35.625613],[-71.53302,-35.629731],[-71.537514,-35.632558],[-71.542634,-35.631268],[-71.547129,-35.634095],[-71.546502,-35.638212],[-71.550997,-35.641039],[-71.556117,-35.639748],[-71.560612,-35.642574],[-71.559986,-35.646692],[-71.564481,-35.649518],[-71.563855,-35.653634],[-71.558734,-35.654925],[-71.554239,-35.652099],[-71.554865,-35.647982],[-71.55037,-35.645156],[-71.54525,-35.646446],[-71.540755,-35.643619],[-71.535635,-35.644909],[-71.535008,-35.649026],[-71.539502,-35.651852],[-71.538876,-35.655968],[-71.533755,-35.657258],[-71.533129,-35.661373],[-71.528008,-35.662662],[-71.527381,-35.666777],[-71.522261,-35.668065],[-71.521634,-35.67218],[-71.526128,-35.675006],[-71.531249,-35.673718],[-71.535743,-35.676544],[-71.535117,-35.680658],[-71.539612,-35.683484],[-71.544733,-35.682195],[-71.545359,-35.678081],[-71.550481,-35.676792],[-71.554976,-35.679617],[-71.55435,-35.683732],[-71.549228,-35.685021],[-71.548602,-35.689135],[-71.553097,-35.69196],[-71.552471,-35.696073],[-71.547349,-35.697361],[-71.546722,-35.701474],[-71.5416,-35.702762],[-71.540974,-35.706875],[-71.545469,-35.709699],[-71.544843,-35.713811],[-71.549339,-35.716636],[-71.548712,-35.720747],[-71.553208,-35.723571],[-71.558331,-35.722284],[-71.562827,-35.725107],[-71.562201,-35.729219],[-71.566698,-35.732042],[-71.566071,-35.736153],[-71.560948,-35.73744],[-71.556451,-35.734617],[-71.557078,-35.730506],[-71.552582,-35.727683],[-71.547459,-35.72897],[-71.546832,-35.73308],[-71.54171,-35.734367],[-71.537214,-35.731543],[-71.537841,-35.727432],[-71.533345,-35.724608],[-71.533972,-35.720497],[-71.539094,-35.71921],[-71.539721,-35.715099],[-71.535225,-35.712274],[-71.530104,-35.713561],[-71.529477,-35.717672],[-71.524355,-35.718959],[-71.51986,-35.716134]],[[-71.538985,-35.687598],[-71.533864,-35.688886],[-71.533237,-35.692999],[-71.537732,-35.695824],[-71.542853,-35.694536],[-71.54348,-35.690423],[-71.538985,-35.687598]]]},"properties":{"comuna":"Yerbas Buenas","mancha_id":"07408-88b2dd1665fffff","clase":"Bajo","nivel_medio":1.244,"nivel_medio_min":1.001,"nivel_medio_max":1.494,"pct_alto":2.7,"n_hexagonos":55,"area_ha":3198.28}},{"type":"Feature","geometry":{"type":"Polygon","coordinates":[[[-71.516099,-35.740796],[-71.516726,-35.736686],[-71.521848,-35.735401],[-71.526343,-35.738225],[-71.525716,-35.742335],[-71.520594,-35.74362],[-71.516099,-35.740796]]]},"properties":{"comuna":"Yerbas Buenas","mancha_id":"07408-88b2dd1627fffff","clase":"Bajo","nivel_medio":1.473,"nivel_medio_min":1.473,"nivel_medio_max":1.473,"pct_alto":2.8,"n_hexagonos":1,"area_ha":60.96}},{"type":"Feature","geometry":{"type":"Polygon","coordinates":[[[-71.563544,-35.780258],[-71.564305,-35.780067],[-71.564931,-35.775959],[-71.570055,-35.774673],[-71.570682,-35.770565],[-71.575806,-35.769278],[-71.580304,-35.7721],[-71.579678,-35.776208],[-71.574553,-35.777495],[-71.574128,-35.780284],[-71.57376,-35.78024],[-71.5722,-35.78017],[-71.57145,-35.78012],[-71.57077,-35.78001],[-71.57012,-35.77982],[-71.56934,-35.77966],[-71.56861,-35.77967],[-71.56746,-35.7798],[-71.56662,-35.78012],[-71.5657,-35.78037],[-71.564936,-35.780463],[-71.56488,-35.78047],[-71.56423,-35.78046],[-71.56365,-35.78031],[-71.563544,-35.780258]]]},"properties":{"comuna":"Yerbas Buenas","mancha_id":"07408-88b2dd1519fffff","clase":"Bajo","nivel_medio":1.451,"nivel_medio_min":1.08,"nivel_medio_max":1.468,"pct_alto":2.8,"n_hexagonos":3,"area_ha":104.19}},{"type":"Feature","geometry":{"type":"Polygon","coordinates":[[[-71.58996,-35.778156],[-71.5938,-35.780564],[-71.593534,-35.78231],[-71.59334,-35.78195],[-71.59298,-35.78131],[-71.59261,-35.78039],[-71.59244,-35.77986],[-71.59191,-35.77982],[-71.5915,-35.77971],[-71.59107,-35.77933],[-71.5906,-35.77898],[-71.58996,-35.778156]]]},"properties":{"comuna":"Yerbas Buenas","mancha_id":"07408-88b2dd1501fffff","clase":"Bajo","nivel_medio":1.491,"nivel_medio_min":1.491,"nivel_medio_max":1.491,"pct_alto":0.8,"n_hexagonos":1,"area_ha":2.48}},{"type":"Feature","geometry":{"type":"Polygon","coordinates":[[[-71.518713,-35.755947],[-71.514218,-35.753123],[-71.509096,-35.754407],[-71.504601,-35.751583],[-71.499479,-35.752867],[-71.494985,-35.750042],[-71.495612,-35.745934],[-71.492149,-35.743757],[-71.491361,-35.741515],[-71.491745,-35.739],[-71.490351,-35.738123],[-71.49031,-35.73798],[-71.48994,-35.73675],[-71.4896,-35.7356],[-71.48943,-35.73509],[-71.48871,-35.73292],[-71.48851,-35.73234],[-71.48838,-35.73194],[-71.48765,-35.7297],[-71.48734,-35.72884],[-71.48597,-35.72509],[-71.485814,-35.724678],[-71.48444,-35.72105],[-71.48418,-35.72036],[-71.48379,-35.71931],[-71.48364,-35.71891],[-71.483098,-35.717454],[-71.483,-35.71719],[-71.4825,-35.71584],[-71.48236,-35.71539],[-71.4817,-35.71334],[-71.48169,-35.71326],[-71.481348,-35.709986],[-71.48133,-35.70981],[-71.48078,-35.70651],[-71.48064,-35.70565],[-71.480524,-35.704915],[-71.47981,-35.70037],[-71.4795,-35.69902],[-71.479409,-35.698611],[-71.47936,-35.69839],[-71.4793,-35.69821],[-71.48044,-35.69784],[-71.483376,-35.697036],[-71.483284,-35.697638],[-71.487777,-35.700465],[-71.492897,-35.69918],[-71.49739,-35.702006],[-71.496763,-35.706117],[-71.501257,-35.708943],[-71.506378,-35.707658],[-71.510872,-35.710483],[-71.510245,-35.714595],[-71.514739,-35.71742],[-71.514112,-35.721531],[-71.508991,-35.722816],[-71.504496,-35.719991],[-71.499375,-35.721276],[-71.498748,-35.725387],[-71.493627,-35.726671],[-71.493,-35.730781],[-71.497494,-35.733606],[-71.496867,-35.737716],[-71.501361,-35.740541],[-71.500734,-35.74465],[-71.505228,-35.747474],[-71.51035,-35.74619],[-71.514845,-35.749014],[-71.519967,-35.747729],[-71.524462,-35.750553],[-71.523835,-35.754662],[-71.518713,-35.755947]]]},"properties":{"comuna":"Yerbas Buenas","mancha_id":"07408-88b2dd1441fffff","clase":"Bajo","nivel_medio":1.326,"nivel_medio_min":1.054,"nivel_medio_max":1.487,"pct_alto":4.4,"n_hexagonos":19,"area_ha":932.33}},{"type":"Feature","geometry":{"type":"Polygon","coordinates":[[[-71.524569,-35.782131],[-71.529692,-35.780847],[-71.533216,-35.783059],[-71.53305,-35.78318],[-71.53252,-35.78333],[-71.53187,-35.78337],[-71.5312,-35.78314],[-71.5307,-35.78283],[-71.53015,-35.78235],[-71.5294,-35.78203],[-71.5287,-35.78201],[-71.52794,-35.78214],[-71.52749,-35.78244],[-71.52711,-35.78288],[-71.52707,-35.78347],[-71.52701,-35.78395],[-71.52686,-35.78433],[-71.52661,-35.78463],[-71.5258,-35.78511],[-71.52499,-35.78545],[-71.52414,-35.78557],[-71.524047,-35.785551],[-71.524569,-35.782131]]]},"properties":{"comuna":"Yerbas Buenas","mancha_id":"07408-88b2dd143dfffff","clase":"Bajo","nivel_medio":1.453,"nivel_medio_min":1.453,"nivel_medio_max":1.453,"pct_alto":0.0,"n_hexagonos":1,"area_ha":15.24}},{"type":"Feature","geometry":{"type":"Polygon","coordinates":[[[-71.525823,-35.773917],[-71.52645,-35.76981],[-71.531573,-35.768525],[-71.536069,-35.771348],[-71.535442,-35.775456],[-71.530319,-35.77674],[-71.525823,-35.773917]]]},"properties":{"comuna":"Yerbas Buenas","mancha_id":"07408-88b2dd1405fffff","clase":"Bajo","nivel_medio":1.375,"nivel_medio_min":1.375,"nivel_medio_max":1.375,"pct_alto":1.4,"n_hexagonos":1,"area_ha":60.91}},{"type":"Feature","geometry":{"type":"Polygon","coordinates":[[[-71.626697,-35.702116],[-71.625562,-35.701404],[-71.625707,-35.700454],[-71.626697,-35.702116]]]},"properties":{"comuna":"Yerbas Buenas","mancha_id":"07408-88b2dd12adfffff","clase":"Bajo","nivel_medio":1.0,"nivel_medio_min":1.0,"nivel_medio_max":1.0,"pct_alto":0.0,"n_hexagonos":1,"area_ha":0.59}},{"type":"Feature","geometry":{"type":"Polygon","coordinates":[[[-71.579449,-35.713018],[-71.580075,-35.708905],[-71.585198,-35.707616],[-71.589695,-35.710439],[-71.594819,-35.709149],[-71.599317,-35.711973],[-71.598691,-35.716085],[-71.593567,-35.717375],[-71.589069,-35.714552],[-71.583946,-35.715841],[-71.579449,-35.713018]]]},"properties":{"comuna":"Yerbas Buenas","mancha_id":"07408-88b2dd1297fffff","clase":"Bajo","nivel_medio":1.276,"nivel_medio_min":1.123,"nivel_medio_max":1.428,"pct_alto":3.9,"n_hexagonos":2,"area_ha":122.08}},{"type":"Feature","geometry":{"type":"Polygon","coordinates":[[[-71.59818,-35.68521],[-71.599479,-35.685033],[-71.601762,-35.686467],[-71.60187,-35.68671],[-71.602865,-35.688643],[-71.602446,-35.691403],[-71.597322,-35.692694],[-71.596696,-35.696809],[-71.591573,-35.698099],[-71.590947,-35.702213],[-71.585824,-35.703503],[-71.581327,-35.700679],[-71.576204,-35.701968],[-71.571708,-35.699144],[-71.572334,-35.695031],[-71.567837,-35.692206],[-71.568464,-35.688092],[-71.563967,-35.685267],[-71.564594,-35.681153],[-71.569716,-35.679863],[-71.570342,-35.675748],[-71.572467,-35.675213],[-71.57324,-35.67922],[-71.573861,-35.682468],[-71.57398,-35.68309],[-71.574071,-35.683617],[-71.573586,-35.686803],[-71.574744,-35.68753],[-71.57498,-35.6889],[-71.57617,-35.6887],[-71.576514,-35.688642],[-71.578082,-35.689627],[-71.577456,-35.693741],[-71.581953,-35.696565],[-71.587076,-35.695275],[-71.587702,-35.691161],[-71.583205,-35.688337],[-71.583335,-35.687483],[-71.58564,-35.68709],[-71.58816,-35.68673],[-71.59156,-35.68611],[-71.59306,-35.6859],[-71.593436,-35.685852],[-71.595,-35.68565],[-71.5961,-35.6855],[-71.59818,-35.68521]]]},"properties":{"comuna":"Yerbas Buenas","mancha_id":"07408-88b2dd1289fffff","clase":"Bajo","nivel_medio":1.263,"nivel_medio_min":1.0,"nivel_medio_max":1.463,"pct_alto":4.0,"n_hexagonos":8,"area_ha":413.67}},{"type":"Feature","geometry":{"type":"Polygon","coordinates":[[[-71.595561,-35.736645],[-71.591063,-35.733823],[-71.585939,-35.735112],[-71.581442,-35.732289],[-71.582068,-35.728178],[-71.587191,-35.726889],[-71.591689,-35.729712],[-71.596813,-35.728422],[-71.601311,-35.731245],[-71.600686,-35.735356],[-71.595561,-35.736645]]]},"properties":{"comuna":"Yerbas Buenas","mancha_id":"07408-88b2dd10dbfffff","clase":"Bajo","nivel_medio":1.265,"nivel_medio_min":1.192,"nivel_medio_max":1.337,"pct_alto":2.4,"n_hexagonos":2,"area_ha":122.02}},{"type":"Feature","geometry":{"type":"Polygon","coordinates":[[[-71.626308,-35.728907],[-71.621809,-35.726085],[-71.616685,-35.727375],[-71.616059,-35.731487],[-71.610934,-35.732777],[-71.606436,-35.729955],[-71.607061,-35.725843],[-71.612186,-35.724553],[-71.612811,-35.720441],[-71.617936,-35.71915],[-71.622435,-35.721972],[-71.627559,-35.720681],[-71.632059,-35.723503],[-71.631433,-35.727616],[-71.626308,-35.728907]]]},"properties":{"comuna":"Yerbas Buenas","mancha_id":"07408-88b2dd10c1fffff","clase":"Bajo","nivel_medio":1.262,"nivel_medio_min":1.153,"nivel_medio_max":1.435,"pct_alto":2.6,"n_hexagonos":3,"area_ha":183.11}},{"type":"Feature","geometry":{"type":"Polygon","coordinates":[[[-71.623926,-35.776945],[-71.628427,-35.779765],[-71.628061,-35.782166],[-71.6277,-35.78239],[-71.62703,-35.78284],[-71.62653,-35.78306],[-71.62599,-35.78326],[-71.62552,-35.78333],[-71.62506,-35.7833],[-71.62457,-35.78325],[-71.62392,-35.78301],[-71.62332,-35.7825],[-71.62297,-35.78219],[-71.62275,-35.7819],[-71.62279,-35.78154],[-71.62308,-35.78095],[-71.62318,-35.78053],[-71.6231,-35.78004],[-71.62279,-35.77965],[-71.62227,-35.77946],[-71.62157,-35.77945],[-71.62029,-35.77958],[-71.61956,-35.77972],[-71.61855,-35.779882],[-71.618801,-35.778233],[-71.623926,-35.776945]]]},"properties":{"comuna":"Yerbas Buenas","mancha_id":"07408-88b2dd025bfffff","clase":"Bajo","nivel_medio":1.454,"nivel_medio_min":1.454,"nivel_medio_max":1.454,"pct_alto":8.6,"n_hexagonos":1,"area_ha":33.63}},{"type":"Feature","geometry":{"type":"Polygon","coordinates":[[[-71.659172,-35.783887],[-71.662436,-35.783065],[-71.663278,-35.783593],[-71.66279,-35.7837],[-71.66203,-35.78376],[-71.66118,-35.78378],[-71.66071,-35.78376],[-71.66009,-35.7838],[-71.65926,-35.7839],[-71.659172,-35.783887]]]},"properties":{"comuna":"Yerbas Buenas","mancha_id":"07408-88b2dd020dfffff","clase":"Bajo","nivel_medio":1.222,"nivel_medio_min":1.222,"nivel_medio_max":1.222,"pct_alto":23.9,"n_hexagonos":1,"area_ha":1.33}},{"type":"Feature","geometry":{"type":"Polygon","coordinates":[[[-71.647151,-35.786311],[-71.647681,-35.782826],[-71.650178,-35.782198],[-71.65,-35.78248],[-71.64995,-35.78322],[-71.65019,-35.78388],[-71.65039,-35.78427],[-71.65046,-35.78472],[-71.65026,-35.78515],[-71.65005,-35.78549],[-71.64977,-35.78577],[-71.6493,-35.78601],[-71.64883,-35.78622],[-71.64838,-35.7863],[-71.64789,-35.78634],[-71.64737,-35.78635],[-71.647151,-35.786311]]]},"properties":{"comuna":"Yerbas Buenas","mancha_id":"07408-88b2dd0209fffff","clase":"Bajo","nivel_medio":1.499,"nivel_medio_min":1.499,"nivel_medio_max":1.499,"pct_alto":18.7,"n_hexagonos":1,"area_ha":9.84}},{"type":"Feature","geometry":{"type":"Polygon","coordinates":[[[-71.552765,-35.597024],[-71.548271,-35.594196],[-71.548474,-35.592859],[-71.549653,-35.592537],[-71.551855,-35.591871],[-71.553494,-35.591001],[-71.555543,-35.590488],[-71.556787,-35.590526],[-71.558511,-35.591611],[-71.557884,-35.595732],[-71.552765,-35.597024]]]},"properties":{"comuna":"Yerbas Buenas","mancha_id":"07408-88b2dd8f0dfffff","clase":"Medio","nivel_medio":2.16,"nivel_medio_min":2.16,"nivel_medio_max":2.16,"pct_alto":48.2,"n_hexagonos":1,"area_ha":45.31}},{"type":"Feature","geometry":{"type":"Polygon","coordinates":[[[-71.533237,-35.692999],[-71.533864,-35.688886],[-71.538985,-35.687598],[-71.54348,-35.690423],[-71.542853,-35.694536],[-71.537732,-35.695824],[-71.533237,-35.692999]]]},"properties":{"comuna":"Yerbas Buenas","mancha_id":"07408-88b2dd8d87fffff","clase":"Medio","nivel_medio":1.524,"nivel_medio_min":1.524,"nivel_medio_max":1.524,"pct_alto":0.0,"n_hexagonos":1,"area_ha":61.04}},{"type":"Feature","geometry":{"type":"Polygon","coordinates":[[[-71.591225,-35.603161],[-71.58673,-35.600334],[-71.581609,-35.601628],[-71.580983,-35.605748],[-71.585478,-35.608575],[-71.584853,-35.612695],[-71.579731,-35.613988],[-71.579106,-35.618108],[-71.573985,-35.6194],[-71.56949,-35.616573],[-71.570116,-35.612454],[-71.575236,-35.611161],[-71.575862,-35.607041],[-71.571367,-35.604214],[-71.571993,-35.600094],[-71.567499,-35.597267],[-71.568125,-35.593146],[-71.573245,-35.591852],[-71.573871,-35.587731],[-71.572814,-35.587066],[-71.573326,-35.587002],[-71.574952,-35.586996],[-71.575903,-35.586789],[-71.576668,-35.586334],[-71.577618,-35.585619],[-71.578219,-35.584845],[-71.578715,-35.584535],[-71.579291,-35.58431],[-71.579314,-35.584312],[-71.578991,-35.586437],[-71.583486,-35.589265],[-71.58286,-35.593386],[-71.587355,-35.596213],[-71.58862,-35.595894],[-71.58875,-35.59613],[-71.58896,-35.59648],[-71.59052,-35.59934],[-71.59091,-35.60003],[-71.59103,-35.60024],[-71.59147,-35.60108],[-71.59229,-35.60265],[-71.592404,-35.602863],[-71.591225,-35.603161]]]},"properties":{"comuna":"Yerbas Buenas","mancha_id":"07408-88b2dd88d1fffff","clase":"Medio","nivel_medio":1.777,"nivel_medio_min":1.512,"nivel_medio_max":2.176,"pct_alto":19.8,"n_hexagonos":8,"area_ha":392.81}},{"type":"Feature","geometry":{"type":"Polygon","coordinates":[[[-71.59534,-35.61218],[-71.59472,-35.612579],[-71.595095,-35.610108],[-71.596067,-35.609862],[-71.59663,-35.61095],[-71.59693,-35.61152],[-71.59534,-35.61218]]]},"properties":{"comuna":"Yerbas Buenas","mancha_id":"07408-88b2dd889dfffff","clase":"Medio","nivel_medio":2.406,"nivel_medio_min":2.406,"nivel_medio_max":2.406,"pct_alto":57.3,"n_hexagonos":1,"area_ha":3.35}},{"type":"Feature","geometry":{"type":"Polygon","coordinates":[[[-71.59492,-35.61411],[-71.595316,-35.61476],[-71.59447,-35.614228],[-71.594579,-35.613509],[-71.59492,-35.61411]]]},"properties":{"comuna":"Yerbas Buenas","mancha_id":"07408-88b2dd889dfffff-2","clase":"Medio","nivel_medio":2.406,"nivel_medio_min":2.406,"nivel_medio_max":2.406,"pct_alto":57.3,"n_hexagonos":1,"area_ha":0.33}},{"type":"Feature","geometry":{"type":"Polygon","coordinates":[[[-71.490351,-35.738123],[-71.491745,-35.739],[-71.491361,-35.741515],[-71.49117,-35.74097],[-71.49112,-35.74081],[-71.490351,-35.738123]]]},"properties":{"comuna":"Yerbas Buenas","mancha_id":"07408-88b2dd163bfffff","clase":"Medio","nivel_medio":1.989,"nivel_medio_min":1.989,"nivel_medio_max":1.989,"pct_alto":45.9,"n_hexagonos":1,"area_ha":1.98}},{"type":"Feature","geometry":{"type":"Polygon","coordinates":[[[-71.574071,-35.683617],[-71.574744,-35.68753],[-71.573586,-35.686803],[-71.574071,-35.683617]]]},"properties":{"comuna":"Yerbas Buenas","mancha_id":"07408-88b2dd12d1fffff","clase":"Medio","nivel_medio":1.916,"nivel_medio_min":1.916,"nivel_medio_max":1.916,"pct_alto":16.2,"n_hexagonos":1,"area_ha":2.03}},{"type":"Feature","geometry":{"type":"Polygon","coordinates":[[[-71.583335,-35.687483],[-71.583205,-35.688337],[-71.587702,-35.691161],[-71.587076,-35.695275],[-71.581953,-35.696565],[-71.577456,-35.693741],[-71.578082,-35.689627],[-71.576514,-35.688642],[-71.58118,-35.68785],[-71.583335,-35.687483]]]},"properties":{"comuna":"Yerbas Buenas","mancha_id":"07408-88b2dd12d1fffff-2","clase":"Medio","nivel_medio":1.548,"nivel_medio_min":1.509,"nivel_medio_max":1.916,"pct_alto":3.2,"n_hexagonos":2,"area_ha":67.46}},{"type":"Feature","geometry":{"type":"Polygon","coordinates":[[[-71.60111,-35.685],[-71.601762,-35.686467],[-71.599479,-35.685033],[-71.60046,-35.6849],[-71.60086,-35.68492],[-71.60111,-35.685]]]},"properties":{"comuna":"Yerbas Buenas","mancha_id":"07408-88b2dd12c7fffff","clase":"Medio","nivel_medio":1.895,"nivel_medio_min":1.895,"nivel_medio_max":1.895,"pct_alto":49.1,"n_hexagonos":1,"area_ha":1.32}},{"type":"Feature","geometry":{"type":"Polygon","coordinates":[[[-71.65766,-35.7748],[-71.658629,-35.775682],[-71.65877,-35.77581],[-71.659008,-35.776418],[-71.65917,-35.77683],[-71.65899,-35.77844],[-71.65928,-35.77879],[-71.659706,-35.779008],[-71.660165,-35.779008],[-71.66055,-35.778916],[-71.661064,-35.778659],[-71.661376,-35.778219],[-71.661528,-35.777996],[-71.661688,-35.77776],[-71.66186,-35.77731],[-71.662019,-35.777044],[-71.662184,-35.776769],[-71.662441,-35.776603],[-71.66263,-35.77645],[-71.662918,-35.776438],[-71.663175,-35.776438],[-71.663395,-35.776457],[-71.6636,-35.77637],[-71.66383,-35.77623],[-71.66397,-35.77602],[-71.6649,-35.77705],[-71.6658,-35.77826],[-71.665803,-35.778266],[-71.66622,-35.77919],[-71.66646,-35.78],[-71.66653,-35.78067],[-71.66615,-35.78165],[-71.66577,-35.78227],[-71.66523,-35.78273],[-71.66441,-35.78322],[-71.6637,-35.7835],[-71.663278,-35.783593],[-71.662436,-35.783065],[-71.659172,-35.783887],[-71.65867,-35.78381],[-71.65778,-35.78346],[-71.65656,-35.78306],[-71.65565,-35.78286],[-71.65509,-35.7827],[-71.6547,-35.78249],[-71.65411,-35.78198],[-71.6533,-35.78155],[-71.652834,-35.781364],[-71.6526,-35.78127],[-71.65202,-35.7812],[-71.65156,-35.78127],[-71.65093,-35.78158],[-71.65034,-35.78194],[-71.650178,-35.782198],[-71.647681,-35.782826],[-71.647151,-35.786311],[-71.64653,-35.7862],[-71.64578,-35.78594],[-71.64523,-35.7857],[-71.64466,-35.78555],[-71.64411,-35.7855],[-71.64375,-35.78549],[-71.64346,-35.78545],[-71.64331,-35.78531],[-71.6432,-35.78507],[-71.64319,-35.78424],[-71.64306,-35.78369],[-71.64272,-35.78292],[-71.64219,-35.78238],[-71.64153,-35.78195],[-71.64055,-35.78151],[-71.63958,-35.78115],[-71.639127,-35.781026],[-71.63874,-35.78092],[-71.63798,-35.78081],[-71.637232,-35.780781],[-71.63694,-35.78077],[-71.63603,-35.78085],[-71.63528,-35.78092],[-71.63493,-35.78109],[-71.63486,-35.78134],[-71.63454,-35.782],[-71.63413,-35.78257],[-71.63387,-35.7828],[-71.63348,-35.78294],[-71.63317,-35.78293],[-71.63264,-35.78276],[-71.63189,-35.78224],[-71.63136,-35.7819],[-71.63069,-35.78162],[-71.63031,-35.78152],[-71.62975,-35.78155],[-71.62886,-35.78172],[-71.62836,-35.78198],[-71.628061,-35.782166],[-71.628427,-35.779765],[-71.623926,-35.776945],[-71.618801,-35.778233],[-71.61855,-35.779882],[-71.61844,-35.7799],[-71.61764,-35.78021],[-71.61697,-35.78084],[-71.61617,-35.78135],[-71.6156,-35.7817],[-71.61502,-35.78197],[-71.61423,-35.78208],[-71.61281,-35.78204],[-71.61205,-35.7819],[-71.61155,-35.7816],[-71.61097,-35.7812],[-71.61036,-35.78084],[-71.61028,-35.78103],[-71.60994,-35.78126],[-71.6096,-35.78135],[-71.60945,-35.781374],[-71.60923,-35.78141],[-71.60879,-35.78143],[-71.60848,-35.78146],[-71.60826,-35.78155],[-71.60814,-35.78161],[-71.6081,-35.78171],[-71.60809,-35.78182],[-71.60811,-35.78208],[-71.60822,-35.78233],[-71.60865,-35.78276],[-71.60902,-35.78319],[-71.60912,-35.78352],[-71.60931,-35.78408],[-71.60926,-35.78454],[-71.60918,-35.78481],[-71.60904,-35.78514],[-71.60868,-35.78577],[-71.60845,-35.78642],[-71.60813,-35.7872],[-71.60786,-35.78772],[-71.6076,-35.78812],[-71.60721,-35.7884],[-71.606763,-35.78869],[-71.60664,-35.78877],[-71.60594,-35.78908],[-71.60534,-35.78924],[-71.60481,-35.78931],[-71.60453,-35.78933],[-71.60432,-35.78911],[-71.60363,-35.78859],[-71.60311,-35.78788],[-71.60272,-35.78717],[-71.602477,-35.786286],[-71.60242,-35.78608],[-71.60233,-35.78548],[-71.60213,-35.78408],[-71.60289,-35.78322],[-71.60291,-35.78264],[-71.602529,-35.781536],[-71.60252,-35.78151],[-71.60243,-35.78132],[-71.60196,-35.78098],[-71.60144,-35.78082],[-71.601398,-35.780827],[-71.60092,-35.78091],[-71.59979,-35.78123],[-71.59939,-35.78143],[-71.59915,-35.78229],[-71.59891,-35.78293],[-71.59858,-35.78319],[-71.59778,-35.78362],[-71.59706,-35.7837],[-71.59623,-35.78366],[-71.59493,-35.7834],[-71.59429,-35.78306],[-71.59369,-35.7826],[-71.593534,-35.78231],[-71.5938,-35.780564],[-71.58996,-35.778156],[-71.5898,-35.77795],[-71.58938,-35.77723],[-71.589379,-35.777229],[-71.58911,-35.77678],[-71.5888,-35.77649],[-71.58819,-35.77619],[-71.58734,-35.77605],[-71.58611,-35.77597],[-71.58514,-35.77624],[-71.58445,-35.77658],[-71.58359,-35.77705],[-71.58274,-35.77778],[-71.58251,-35.777985],[-71.58218,-35.77828],[-71.5817,-35.77896],[-71.58152,-35.77946],[-71.58122,-35.78026],[-71.58073,-35.78076],[-71.58021,-35.78099],[-71.57969,-35.78117],[-71.5788,-35.78129],[-71.57775,-35.78135],[-71.57667,-35.78115],[-71.57545,-35.78063],[-71.57459,-35.78034],[-71.574128,-35.780284],[-71.574553,-35.777495],[-71.579678,-35.776208],[-71.580304,-35.7721],[-71.575806,-35.769278],[-71.570682,-35.770565],[-71.570055,-35.774673],[-71.564931,-35.775959],[-71.564305,-35.780067],[-71.563544,-35.780258],[-71.56312,-35.78005],[-71.5625,-35.77966],[-71.56107,-35.77873],[-71.55887,-35.77782],[-71.5572,-35.77737],[-71.55572,-35.77711],[-71.554935,-35.776882],[-71.55455,-35.77677],[-71.55287,-35.77664],[-71.55138,-35.77694],[-71.55024,-35.77733],[-71.54908,-35.77766],[-71.54828,-35.77792],[-71.54732,-35.77841],[-71.54732,-35.77841],[-71.54633,-35.77868],[-71.54529,-35.77888],[-71.54419,-35.77901],[-71.54385,-35.77931],[-71.54338,-35.77999],[-71.54307,-35.78069],[-71.54315,-35.7812],[-71.54333,-35.78157],[-71.54377,-35.78191],[-71.54434,-35.78222],[-71.54494,-35.78266],[-71.54535,-35.783],[-71.54556,-35.78332],[-71.54567,-35.7838],[-71.54559,-35.78421],[-71.54533,-35.78456],[-71.54485,-35.78489],[-71.54459,-35.78498],[-71.5442,-35.78509],[-71.543662,-35.785116],[-71.54315,-35.78514],[-71.54272,-35.78502],[-71.54238,-35.78478],[-71.54163,-35.78408],[-71.5409,-35.783382],[-71.54072,-35.78321],[-71.540171,-35.782924],[-71.53924,-35.78244],[-71.539191,-35.782416],[-71.53844,-35.78205],[-71.53808,-35.78198],[-71.53769,-35.78209],[-71.5373,-35.78226],[-71.53681,-35.78235],[-71.53637,-35.78223],[-71.53594,-35.782],[-71.5355,-35.7816],[-71.53519,-35.78126],[-71.53472,-35.78092],[-71.53445,-35.78085],[-71.53422,-35.78082],[-71.5341,-35.78099],[-71.5341,-35.78123],[-71.53418,-35.7815],[-71.53429,-35.78192],[-71.53418,-35.78227],[-71.53385,-35.7826],[-71.533216,-35.783059],[-71.529692,-35.780847],[-71.524569,-35.782131],[-71.524047,-35.785551],[-71.52331,-35.7854],[-71.52281,-35.78517],[-71.52244,-35.78488],[-71.52226,-35.78451],[-71.52202,-35.78375],[-71.52166,-35.78324],[-71.52126,-35.783],[-71.52059,-35.78286],[-71.52003,-35.78281],[-71.51935,-35.78291],[-71.51889,-35.78316],[-71.518363,-35.783354],[-71.51856,-35.78162],[-71.51841,-35.78048],[-71.51826,-35.779763],[-71.51818,-35.77938],[-71.51767,-35.77841],[-71.51732,-35.77743],[-71.51693,-35.776],[-71.51684,-35.77578],[-71.51605,-35.77382],[-71.515534,-35.772546],[-71.51526,-35.77187],[-71.5146,-35.77031],[-71.51426,-35.76945],[-71.51392,-35.76859],[-71.51365,-35.76789],[-71.51325,-35.76698],[-71.51286,-35.76607],[-71.512271,-35.765463],[-71.50927,-35.76237],[-71.50735,-35.76046],[-71.50623,-35.75969],[-71.505565,-35.759243],[-71.50223,-35.757],[-71.50103,-35.75613],[-71.5,-35.75542],[-71.5,-35.75542],[-71.49975,-35.75522],[-71.499169,-35.754901],[-71.49729,-35.75387],[-71.49592,-35.75299],[-71.49551,-35.75254],[-71.49521,-35.75191],[-71.49498,-35.7513],[-71.49486,-35.75099],[-71.49451,-35.75036],[-71.494444,-35.750178],[-71.49438,-35.75],[-71.49438,-35.75],[-71.49378,-35.74838],[-71.4933,-35.74706],[-71.49273,-35.74549],[-71.4926,-35.74504],[-71.492149,-35.743757],[-71.495612,-35.745934],[-71.494985,-35.750042],[-71.499479,-35.752867],[-71.504601,-35.751583],[-71.509096,-35.754407],[-71.514218,-35.753123],[-71.518713,-35.755947],[-71.523835,-35.754662],[-71.524462,-35.750553],[-71.519967,-35.747729],[-71.514845,-35.749014],[-71.51035,-35.74619],[-71.505228,-35.747474],[-71.500734,-35.74465],[-71.501361,-35.740541],[-71.496867,-35.737716],[-71.497494,-35.733606],[-71.493,-35.730781],[-71.493627,-35.726671],[-71.498748,-35.725387],[-71.499375,-35.721276],[-71.504496,-35.719991],[-71.508991,-35.722816],[-71.514112,-35.721531],[-71.514739,-35.71742],[-71.510245,-35.714595],[-71.510872,-35.710483],[-71.506378,-35.707658],[-71.501257,-35.708943],[-71.496763,-35.706117],[-71.49739,-35.702006],[-71.492897,-35.69918],[-71.487777,-35.700465],[-71.483284,-35.697638],[-71.483376,-35.697036],[-71.4861,-35.69629],[-71.483882,-35.693717],[-71.483911,-35.693526],[-71.489031,-35.692241],[-71.489658,-35.688128],[-71.485166,-35.685301],[-71.485793,-35.681189],[-71.490913,-35.679902],[-71.49154,-35.675789],[-71.49666,-35.674502],[-71.501153,-35.677329],[-71.500526,-35.681443],[-71.495406,-35.682729],[-71.494778,-35.686842],[-71.499272,-35.689669],[-71.504392,-35.688383],[-71.508885,-35.691209],[-71.514006,-35.689922],[-71.5185,-35.692748],[-71.517873,-35.696861],[-71.522368,-35.699686],[-71.521741,-35.703799],[-71.526235,-35.706624],[-71.525609,-35.710736],[-71.520487,-35.712022],[-71.51986,-35.716134],[-71.524355,-35.718959],[-71.529477,-35.717672],[-71.530104,-35.713561],[-71.535225,-35.712274],[-71.539721,-35.715099],[-71.539094,-35.71921],[-71.533972,-35.720497],[-71.533345,-35.724608],[-71.537841,-35.727432],[-71.537214,-35.731543],[-71.54171,-35.734367],[-71.546832,-35.73308],[-71.547459,-35.72897],[-71.552582,-35.727683],[-71.557078,-35.730506],[-71.556451,-35.734617],[-71.560948,-35.73744],[-71.566071,-35.736153],[-71.566698,-35.732042],[-71.562201,-35.729219],[-71.562827,-35.725107],[-71.558331,-35.722284],[-71.553208,-35.723571],[-71.548712,-35.720747],[-71.549339,-35.716636],[-71.544843,-35.713811],[-71.545469,-35.709699],[-71.540974,-35.706875],[-71.5416,-35.702762],[-71.546722,-35.701474],[-71.547349,-35.697361],[-71.552471,-35.696073],[-71.553097,-35.69196],[-71.548602,-35.689135],[-71.549228,-35.685021],[-71.55435,-35.683732],[-71.554976,-35.679617],[-71.550481,-35.676792],[-71.545359,-35.678081],[-71.544733,-35.682195],[-71.539612,-35.683484],[-71.535117,-35.680658],[-71.535743,-35.676544],[-71.531249,-35.673718],[-71.526128,-35.675006],[-71.521634,-35.67218],[-71.522261,-35.668065],[-71.527381,-35.666777],[-71.528008,-35.662662],[-71.533129,-35.661373],[-71.533755,-35.657258],[-71.538876,-35.655968],[-71.539502,-35.651852],[-71.535008,-35.649026],[-71.535635,-35.644909],[-71.540755,-35.643619],[-71.54525,-35.646446],[-71.55037,-35.645156],[-71.554865,-35.647982],[-71.554239,-35.652099],[-71.558734,-35.654925],[-71.563855,-35.653634],[-71.564481,-35.649518],[-71.559986,-35.646692],[-71.560612,-35.642574],[-71.556117,-35.639748],[-71.550997,-35.641039],[-71.546502,-35.638212],[-71.547129,-35.634095],[-71.542634,-35.631268],[-71.537514,-35.632558],[-71.53302,-35.629731],[-71.533647,-35.625613],[-71.529154,-35.622785],[-71.524034,-35.624075],[-71.523407,-35.628193],[-71.518288,-35.629483],[-71.517661,-35.6336],[-71.512541,-35.634889],[-71.511915,-35.639006],[-71.516408,-35.641833],[-71.515781,-35.64595],[-71.520274,-35.648777],[-71.525394,-35.647488],[-71.529888,-35.650315],[-71.529261,-35.654431],[-71.524141,-35.65572],[-71.523514,-35.659835],[-71.518394,-35.661124],[-71.5139,-35.658297],[-71.50878,-35.659585],[-71.508154,-35.6637],[-71.503034,-35.664987],[-71.502407,-35.669101],[-71.497287,-35.670389],[-71.492794,-35.667561],[-71.487674,-35.668848],[-71.487047,-35.672962],[-71.481928,-35.674248],[-71.477436,-35.67142],[-71.472316,-35.672706],[-71.471689,-35.676819],[-71.469551,-35.677356],[-71.46836,-35.67602],[-71.46675,-35.67421],[-71.46636,-35.67377],[-71.46531,-35.67258],[-71.46419,-35.67132],[-71.46382,-35.67091],[-71.463801,-35.670889],[-71.46326,-35.6703],[-71.46298,-35.66999],[-71.46159,-35.66847],[-71.46096,-35.66778],[-71.458691,-35.665212],[-71.458842,-35.664222],[-71.456345,-35.662649],[-71.45502,-35.66121],[-71.45448,-35.660549],[-71.45395,-35.6599],[-71.45324,-35.65943],[-71.45279,-35.65864],[-71.45111,-35.65635],[-71.45079,-35.65591],[-71.449686,-35.654652],[-71.44957,-35.65452],[-71.44852,-35.65331],[-71.44831,-35.65285],[-71.44817,-35.65256],[-71.44744,-35.65191],[-71.44672,-35.65106],[-71.44392,-35.64952],[-71.442504,-35.648542],[-71.446625,-35.647507],[-71.447253,-35.643392],[-71.442763,-35.640562],[-71.443391,-35.636447],[-71.438901,-35.633617],[-71.435947,-35.634359],[-71.43581,-35.63398],[-71.43479,-35.63119],[-71.43371,-35.62828],[-71.433279,-35.627114],[-71.43252,-35.62506],[-71.43149,-35.62244],[-71.43136,-35.62199],[-71.430806,-35.621454],[-71.430144,-35.621025],[-71.4303,-35.620325],[-71.430048,-35.620009],[-71.429833,-35.619741],[-71.429872,-35.617989],[-71.42921,-35.616898],[-71.428928,-35.613794],[-71.428539,-35.609498],[-71.428745,-35.609602],[-71.429959,-35.610607],[-71.431225,-35.61174],[-71.432248,-35.612365],[-71.433357,-35.612606],[-71.434509,-35.61323],[-71.435431,-35.613947],[-71.436212,-35.614501],[-71.43666,-35.614818],[-71.438453,-35.615433],[-71.438766,-35.615485],[-71.441411,-35.617153],[-71.446529,-35.615866],[-71.447156,-35.611749],[-71.452273,-35.610462],[-71.452472,-35.60916],[-71.45259,-35.609081],[-71.453512,-35.608108],[-71.45469,-35.607647],[-71.456278,-35.607801],[-71.459141,-35.607209],[-71.460649,-35.606716],[-71.461246,-35.60652],[-71.4635,-35.604728],[-71.464985,-35.604215],[-71.466983,-35.604215],[-71.467965,-35.604374],[-71.468571,-35.604472],[-71.4698,-35.604728],[-71.470876,-35.605189],[-71.472463,-35.605085],[-71.473991,-35.604883],[-71.475731,-35.604411],[-71.476612,-35.603652],[-71.476926,-35.603434],[-71.47779,-35.602833],[-71.478917,-35.602064],[-71.481225,-35.601604],[-71.483293,-35.600673],[-71.483307,-35.600667],[-71.484869,-35.599886],[-71.485805,-35.59973],[-71.487315,-35.600198],[-71.488095,-35.601343],[-71.488408,-35.602905],[-71.48898,-35.603633],[-71.490489,-35.604102],[-71.491716,-35.604494],[-71.491791,-35.604518],[-71.492623,-35.60457],[-71.49334,-35.604748],[-71.493464,-35.604779],[-71.49541,-35.604779],[-71.496947,-35.604574],[-71.498893,-35.605394],[-71.5,-35.60609],[-71.500276,-35.606264],[-71.500355,-35.606279],[-71.503042,-35.606777],[-71.503403,-35.606573],[-71.504681,-35.605855],[-71.506371,-35.605445],[-71.507293,-35.604676],[-71.508267,-35.603754],[-71.509701,-35.603703],[-71.511186,-35.604625],[-71.512148,-35.605127],[-71.512364,-35.60524],[-71.513696,-35.605394],[-71.514772,-35.605189],[-71.516564,-35.604984],[-71.517947,-35.604881],[-71.519074,-35.604011],[-71.520241,-35.603636],[-71.520508,-35.60355],[-71.521225,-35.603601],[-71.522813,-35.603396],[-71.524811,-35.60314],[-71.526808,-35.602781],[-71.527308,-35.602553],[-71.528601,-35.601962],[-71.529779,-35.601245],[-71.530599,-35.60145],[-71.532391,-35.601654],[-71.533877,-35.601501],[-71.535465,-35.60104],[-71.536446,-35.600296],[-71.53695,-35.599913],[-71.537718,-35.599708],[-71.538077,-35.59894],[-71.539665,-35.59812],[-71.541355,-35.59812],[-71.542687,-35.597659],[-71.542842,-35.59752],[-71.542525,-35.599608],[-71.537405,-35.6009],[-71.536779,-35.605019],[-71.531659,-35.606311],[-71.531033,-35.61043],[-71.535526,-35.613258],[-71.540646,-35.611967],[-71.541272,-35.607847],[-71.546392,-35.606556],[-71.547018,-35.602436],[-71.552138,-35.601144],[-71.556632,-35.603972],[-71.561753,-35.60268],[-71.566247,-35.605507],[-71.565621,-35.609627],[-71.5605,-35.610919],[-71.559874,-35.615038],[-71.554754,-35.61633],[-71.554128,-35.620449],[-71.558622,-35.623276],[-71.563743,-35.621984],[-71.568238,-35.624811],[-71.567612,-35.62893],[-71.562491,-35.630221],[-71.557996,-35.627395],[-71.552875,-35.628686],[-71.552249,-35.632804],[-71.556744,-35.635631],[-71.561865,-35.634339],[-71.56636,-35.637166],[-71.571481,-35.635874],[-71.572107,-35.631756],[-71.577228,-35.630464],[-71.581724,-35.63329],[-71.586845,-35.631998],[-71.587471,-35.627879],[-71.592593,-35.626586],[-71.593218,-35.622467],[-71.59834,-35.621174],[-71.598468,-35.620332],[-71.59863,-35.62062],[-71.599209,-35.62172],[-71.60004,-35.6233],[-71.60021,-35.62362],[-71.59986,-35.62395],[-71.59801,-35.62426],[-71.59709,-35.62457],[-71.59675,-35.62518],[-71.59686,-35.62583],[-71.59694,-35.62764],[-71.59697,-35.62916],[-71.596976,-35.629341],[-71.59698,-35.62947],[-71.596989,-35.63007],[-71.596463,-35.633531],[-71.596864,-35.633783],[-71.59612,-35.6346],[-71.59358,-35.63729],[-71.59158,-35.63923],[-71.591422,-35.639386],[-71.590715,-35.638942],[-71.585594,-35.640234],[-71.584968,-35.644352],[-71.586078,-35.64505],[-71.58577,-35.64539],[-71.58526,-35.64592],[-71.58507,-35.64613],[-71.58301,-35.64826],[-71.58246,-35.64884],[-71.5818,-35.64952],[-71.580682,-35.65068],[-71.58022,-35.65116],[-71.5793,-35.65194],[-71.578924,-35.652343],[-71.575248,-35.656285],[-71.573472,-35.655169],[-71.568351,-35.65646],[-71.567724,-35.660576],[-71.562603,-35.661867],[-71.561977,-35.665983],[-71.566472,-35.668808],[-71.571594,-35.667518],[-71.57222,-35.663402],[-71.5732,-35.663155],[-71.5725,-35.6669],[-71.57234,-35.66784],[-71.572318,-35.667972],[-71.57183,-35.67088],[-71.57238,-35.67476],[-71.572467,-35.675213],[-71.570342,-35.675748],[-71.569716,-35.679863],[-71.564594,-35.681153],[-71.563967,-35.685267],[-71.568464,-35.688092],[-71.567837,-35.692206],[-71.572334,-35.695031],[-71.571708,-35.699144],[-71.576204,-35.701968],[-71.581327,-35.700679],[-71.585824,-35.703503],[-71.590947,-35.702213],[-71.591573,-35.698099],[-71.596696,-35.696809],[-71.597322,-35.692694],[-71.602446,-35.691403],[-71.602865,-35.688643],[-71.60358,-35.69003],[-71.60378,-35.69012],[-71.6053,-35.68989],[-71.60544,-35.69001],[-71.60553,-35.69077],[-71.6057,-35.69092],[-71.60668,-35.69125],[-71.60738,-35.69141],[-71.60764,-35.69149],[-71.60782,-35.69155],[-71.608,-35.69189],[-71.60812,-35.69278],[-71.612131,-35.692515],[-71.61387,-35.6924],[-71.61809,-35.69215],[-71.620868,-35.69213],[-71.621799,-35.693742],[-71.622519,-35.694988],[-71.624651,-35.698681],[-71.625707,-35.700454],[-71.625562,-35.701404],[-71.626697,-35.702116],[-71.626879,-35.702422],[-71.628287,-35.704792],[-71.62891,-35.7064],[-71.62909,-35.70798],[-71.629137,-35.708416],[-71.62922,-35.70919],[-71.6298,-35.71031],[-71.63023,-35.71118],[-71.6313,-35.71233],[-71.63246,-35.7133],[-71.633538,-35.713772],[-71.63406,-35.714],[-71.63492,-35.71409],[-71.63581,-35.71407],[-71.6365,-35.71431],[-71.63741,-35.71466],[-71.63815,-35.71534],[-71.63853,-35.71606],[-71.63861,-35.71694],[-71.638638,-35.71789],[-71.63864,-35.71797],[-71.63889,-35.71855],[-71.63922,-35.71921],[-71.63929,-35.71979],[-71.63958,-35.72052],[-71.64024,-35.72128],[-71.64025,-35.72175],[-71.63996,-35.72231],[-71.63947,-35.72265],[-71.638371,-35.722957],[-71.63818,-35.72301],[-71.63711,-35.72333],[-71.63842,-35.72395],[-71.63931,-35.7246],[-71.6397,-35.72508],[-71.64002,-35.72587],[-71.63974,-35.72709],[-71.63979,-35.72926],[-71.639771,-35.729471],[-71.63963,-35.73101],[-71.6402,-35.73216],[-71.64057,-35.73317],[-71.64123,-35.7338],[-71.64206,-35.73423],[-71.64301,-35.73484],[-71.64366,-35.73545],[-71.644373,-35.736221],[-71.6444,-35.73625],[-71.64436,-35.73671],[-71.64396,-35.73736],[-71.64303,-35.73803],[-71.64247,-35.73849],[-71.64214,-35.73893],[-71.642,-35.73945],[-71.64201,-35.73986],[-71.64221,-35.74042],[-71.64276,-35.74101],[-71.64342,-35.74168],[-71.64383,-35.74221],[-71.64441,-35.74287],[-71.64517,-35.74337],[-71.64587,-35.74372],[-71.645925,-35.743739],[-71.64651,-35.74394],[-71.6471,-35.74417],[-71.64729,-35.74432],[-71.6472,-35.74479],[-71.64676,-35.74517],[-71.6451,-35.74611],[-71.64425,-35.74671],[-71.64366,-35.7475],[-71.64349,-35.74785],[-71.64332,-35.7482],[-71.643066,-35.748356],[-71.642909,-35.748452],[-71.64275,-35.74855],[-71.642024,-35.748675],[-71.64188,-35.7487],[-71.63924,-35.74887],[-71.637341,-35.749336],[-71.63708,-35.7494],[-71.63673,-35.74972],[-71.63623,-35.75],[-71.636229,-35.75],[-71.63572,-35.750632],[-71.635939,-35.751125],[-71.636363,-35.751357],[-71.636869,-35.751549],[-71.637006,-35.751658],[-71.637416,-35.751891],[-71.637587,-35.75197],[-71.637799,-35.752068],[-71.638866,-35.752615],[-71.639153,-35.753231],[-71.63901,-35.75377],[-71.63888,-35.75409],[-71.63907,-35.754922],[-71.63912,-35.75514],[-71.63883,-35.75593],[-71.63854,-35.75658],[-71.63715,-35.75727],[-71.63673,-35.7579],[-71.63681,-35.7582],[-71.63741,-35.75838],[-71.63773,-35.75828],[-71.63919,-35.75845],[-71.64043,-35.75886],[-71.64108,-35.7592],[-71.64126,-35.75937],[-71.641379,-35.759442],[-71.641181,-35.760748],[-71.645682,-35.763568],[-71.647541,-35.7631],[-71.64831,-35.76352],[-71.64983,-35.76404],[-71.65047,-35.76475],[-71.65093,-35.76513],[-71.65157,-35.76606],[-71.65263,-35.76789],[-71.6535,-35.76897],[-71.653728,-35.769448],[-71.65422,-35.77048],[-71.65558,-35.772],[-71.6567,-35.77366],[-71.65766,-35.7748]],[[-71.616059,-35.731487],[-71.616685,-35.727375],[-71.621809,-35.726085],[-71.626308,-35.728907],[-71.631433,-35.727616],[-71.632059,-35.723503],[-71.627559,-35.720681],[-71.622435,-35.721972],[-71.617936,-35.71915],[-71.612811,-35.720441],[-71.612186,-35.724553],[-71.607061,-35.725843],[-71.606436,-35.729955],[-71.610934,-35.732777],[-71.616059,-35.731487]],[[-71.600686,-35.735356],[-71.601311,-35.731245],[-71.596813,-35.728422],[-71.591689,-35.729712],[-71.587191,-35.726889],[-71.582068,-35.728178],[-71.581442,-35.732289],[-71.585939,-35.735112],[-71.591063,-35.733823],[-71.595561,-35.736645],[-71.600686,-35.735356]],[[-71.585198,-35.707616],[-71.580075,-35.708905],[-71.579449,-35.713018],[-71.583946,-35.715841],[-71.589069,-35.714552],[-71.593567,-35.717375],[-71.598691,-35.716085],[-71.599317,-35.711973],[-71.594819,-35.709149],[-71.589695,-35.710439],[-71.585198,-35.707616]],[[-71.52645,-35.76981],[-71.525823,-35.773917],[-71.530319,-35.77674],[-71.535442,-35.775456],[-71.536069,-35.771348],[-71.531573,-35.768525],[-71.52645,-35.76981]],[[-71.516099,-35.740796],[-71.520594,-35.74362],[-71.525716,-35.742335],[-71.526343,-35.738225],[-71.521848,-35.735401],[-71.516726,-35.736686],[-71.516099,-35.740796]],[[-71.575692,-35.737688],[-71.570568,-35.738976],[-71.569942,-35.743086],[-71.574439,-35.745909],[-71.579563,-35.744621],[-71.580189,-35.740511],[-71.575692,-35.737688]],[[-71.555087,-35.711236],[-71.56021,-35.709948],[-71.560836,-35.705835],[-71.55634,-35.703011],[-71.551218,-35.704299],[-71.550591,-35.708412],[-71.555087,-35.711236]],[[-71.496556,-35.642871],[-71.497183,-35.638755],[-71.492691,-35.635926],[-71.487572,-35.637214],[-71.486945,-35.64133],[-71.491437,-35.644159],[-71.496556,-35.642871]],[[-71.485064,-35.653677],[-71.479945,-35.654964],[-71.479317,-35.659078],[-71.483809,-35.661906],[-71.488929,-35.660619],[-71.489556,-35.656505],[-71.485064,-35.653677]],[[-71.500318,-35.618169],[-71.50481,-35.620998],[-71.509929,-35.619709],[-71.514422,-35.622537],[-71.519541,-35.621247],[-71.520168,-35.617129],[-71.515675,-35.614301],[-71.510556,-35.615591],[-71.506064,-35.612762],[-71.500945,-35.614051],[-71.500318,-35.618169]],[[-71.473471,-35.632844],[-71.474098,-35.628728],[-71.469607,-35.625899],[-71.464489,-35.627186],[-71.463862,-35.631302],[-71.468353,-35.634131],[-71.473471,-35.632844]],[[-71.479216,-35.62744],[-71.483708,-35.630269],[-71.488826,-35.628981],[-71.489453,-35.624864],[-71.484962,-35.622035],[-71.479844,-35.623323],[-71.479216,-35.62744]],[[-71.47598,-35.616377],[-71.481098,-35.615089],[-71.481725,-35.610971],[-71.477234,-35.608141],[-71.472116,-35.609429],[-71.471489,-35.613547],[-71.47598,-35.616377]],[[-71.463961,-35.662936],[-71.468452,-35.665765],[-71.473571,-35.664479],[-71.474198,-35.660365],[-71.469707,-35.657536],[-71.464588,-35.658822],[-71.463961,-35.662936]]]},"properties":{"comuna":"Yerbas Buenas","mancha_id":"07408-88b2dd0241fffff","clase":"Medio","nivel_medio":1.863,"nivel_medio_min":1.503,"nivel_medio_max":2.481,"pct_alto":14.3,"n_hexagonos":330,"area_ha":17884.03}},{"type":"Feature","geometry":{"type":"Polygon","coordinates":[[[-71.573245,-35.591852],[-71.568125,-35.593146],[-71.563735,-35.590384],[-71.565469,-35.590348],[-71.566286,-35.59016],[-71.567043,-35.589757],[-71.567507,-35.58923],[-71.567941,-35.588733],[-71.568375,-35.58834],[-71.569016,-35.588175],[-71.56947,-35.58802],[-71.570174,-35.587865],[-71.570779,-35.587511],[-71.571374,-35.587182],[-71.572056,-35.587162],[-71.572814,-35.587066],[-71.573871,-35.587731],[-71.573245,-35.591852]]]},"properties":{"comuna":"Yerbas Buenas","mancha_id":"07408-88b2dd8f61fffff","clase":"Alto","nivel_medio":2.65,"nivel_medio_min":2.65,"nivel_medio_max":2.65,"pct_alto":73.0,"n_hexagonos":1,"area_ha":34.38}},{"type":"Feature","geometry":{"type":"Polygon","coordinates":[[[-71.552138,-35.601144],[-71.547018,-35.602436],[-71.546392,-35.606556],[-71.541272,-35.607847],[-71.540646,-35.611967],[-71.535526,-35.613258],[-71.531033,-35.61043],[-71.531659,-35.606311],[-71.536779,-35.605019],[-71.537405,-35.6009],[-71.542525,-35.599608],[-71.542842,-35.59752],[-71.544172,-35.596328],[-71.545425,-35.594914],[-71.54617,-35.594074],[-71.547962,-35.592998],[-71.548474,-35.592859],[-71.548271,-35.594196],[-71.552765,-35.597024],[-71.552138,-35.601144]]]},"properties":{"comuna":"Yerbas Buenas","mancha_id":"07408-88b2dd8f01fffff","clase":"Alto","nivel_medio":2.64,"nivel_medio_min":2.536,"nivel_medio_max":2.72,"pct_alto":79.5,"n_hexagonos":4,"area_ha":183.6}},{"type":"Feature","geometry":{"type":"Polygon","coordinates":[[[-71.452273,-35.610462],[-71.447156,-35.611749],[-71.445819,-35.610906],[-71.446238,-35.610669],[-71.44804,-35.610179],[-71.44967,-35.609901],[-71.451668,-35.609696],[-71.452472,-35.60916],[-71.452273,-35.610462]]]},"properties":{"comuna":"Yerbas Buenas","mancha_id":"07408-88b2dd8ec5fffff","clase":"Alto","nivel_medio":2.513,"nivel_medio_min":2.513,"nivel_medio_max":2.513,"pct_alto":64.6,"n_hexagonos":1,"area_ha":7.14}},{"type":"Feature","geometry":{"type":"Polygon","coordinates":[[[-71.56636,-35.637166],[-71.561865,-35.634339],[-71.556744,-35.635631],[-71.552249,-35.632804],[-71.552875,-35.628686],[-71.557996,-35.627395],[-71.562491,-35.630221],[-71.567612,-35.62893],[-71.572107,-35.631756],[-71.571481,-35.635874],[-71.56636,-35.637166]]]},"properties":{"comuna":"Yerbas Buenas","mancha_id":"07408-88b2dd8d43fffff","clase":"Alto","nivel_medio":2.708,"nivel_medio_min":2.595,"nivel_medio_max":2.821,"pct_alto":73.8,"n_hexagonos":2,"area_ha":122.29}},{"type":"Feature","geometry":{"type":"Polygon","coordinates":[[[-71.456345,-35.662649],[-71.458842,-35.664222],[-71.458691,-35.665212],[-71.45823,-35.66469],[-71.45816,-35.66462],[-71.456345,-35.662649]]]},"properties":{"comuna":"Yerbas Buenas","mancha_id":"07408-88b2dd8cd5fffff","clase":"Alto","nivel_medio":3.094,"nivel_medio_min":3.094,"nivel_medio_max":3.094,"pct_alto":81.4,"n_hexagonos":1,"area_ha":1.34}},{"type":"Feature","geometry":{"type":"Polygon","coordinates":[[[-71.58286,-35.593386],[-71.583486,-35.589265],[-71.584777,-35.588939],[-71.58862,-35.595894],[-71.587355,-35.596213],[-71.58286,-35.593386]]]},"properties":{"comuna":"Yerbas Buenas","mancha_id":"07408-88b2dd88d9fffff","clase":"Alto","nivel_medio":2.515,"nivel_medio_min":2.515,"nivel_medio_max":2.515,"pct_alto":65.7,"n_hexagonos":1,"area_ha":20.39}},{"type":"Feature","geometry":{"type":"Polygon","coordinates":[[[-71.569942,-35.743086],[-71.570568,-35.738976],[-71.575692,-35.737688],[-71.580189,-35.740511],[-71.579563,-35.744621],[-71.574439,-35.745909],[-71.569942,-35.743086]]]},"properties":{"comuna":"Yerbas Buenas","mancha_id":"07408-88b2dd172bfffff","clase":"Alto","nivel_medio":2.788,"nivel_medio_min":2.788,"nivel_medio_max":2.788,"pct_alto":75.3,"n_hexagonos":1,"area_ha":60.99}},{"type":"Feature","geometry":{"type":"Polygon","coordinates":[[[-71.645682,-35.763568],[-71.641181,-35.760748],[-71.641379,-35.759442],[-71.64154,-35.75954],[-71.64194,-35.75972],[-71.64227,-35.75982],[-71.64273,-35.76001],[-71.64315,-35.76028],[-71.64343,-35.76057],[-71.64391,-35.7609],[-71.64447,-35.76114],[-71.64508,-35.76139],[-71.64581,-35.7617],[-71.64613,-35.7621],[-71.64641,-35.76229],[-71.64679,-35.76269],[-71.647541,-35.7631],[-71.645682,-35.763568]]]},"properties":{"comuna":"Yerbas Buenas","mancha_id":"07408-88b2dd10a3fffff","clase":"Alto","nivel_medio":2.701,"nivel_medio_min":2.701,"nivel_medio_max":2.701,"pct_alto":46.3,"n_hexagonos":1,"area_ha":8.92}}],"bbox":[-71.66653,-35.78933,-71.42853,-35.58431]}