{"type":"FeatureCollection","features":[{"type":"Feature","geometry":{"type":"Polygon","coordinates":[[[-71.770073,-35.626022],[-71.770195,-35.625214],[-71.770596,-35.625112],[-71.77059,-35.62517],[-71.770372,-35.625781],[-71.770073,-35.626022]]]},"properties":{"comuna":"Villa Alegre","mancha_id":"07407-88b2ddc6e7fffff","clase":"Muy Bajo","nivel_medio":0.414,"nivel_medio_min":0.414,"nivel_medio_max":0.414,"pct_alto":0.0,"n_hexagonos":1,"area_ha":0.23}},{"type":"Feature","geometry":{"type":"Polygon","coordinates":[[[-71.614825,-35.644737],[-71.61445,-35.644831],[-71.614235,-35.644697],[-71.614825,-35.644737]]]},"properties":{"comuna":"Villa Alegre","mancha_id":"07407-88b2dd1259fffff","clase":"Muy Bajo","nivel_medio":0.0,"nivel_medio_min":0.0,"nivel_medio_max":0.0,"pct_alto":0.0,"n_hexagonos":1,"area_ha":0.04}},{"type":"Feature","geometry":{"type":"Polygon","coordinates":[[[-71.727179,-35.616307],[-71.722054,-35.617607],[-71.72182,-35.61746],[-71.72213,-35.61727],[-71.72236,-35.61675],[-71.72328,-35.61603],[-71.72414,-35.61572],[-71.72459,-35.6155],[-71.7248,-35.6154],[-71.72564,-35.61519],[-71.72621,-35.61505],[-71.72741,-35.614779],[-71.727179,-35.616307]]]},"properties":{"comuna":"Villa Alegre","mancha_id":"07407-88b2ddc6d9fffff","clase":"Bajo","nivel_medio":1.27,"nivel_medio_min":1.27,"nivel_medio_max":1.27,"pct_alto":20.4,"n_hexagonos":1,"area_ha":6.98}},{"type":"Feature","geometry":{"type":"Polygon","coordinates":[[[-71.754192,-35.633239],[-71.754816,-35.629117],[-71.750313,-35.626295],[-71.750937,-35.622173],[-71.746434,-35.619352],[-71.741308,-35.620652],[-71.736806,-35.61783],[-71.73743,-35.613707],[-71.742556,-35.612407],[-71.742727,-35.611272],[-71.746849,-35.610095],[-71.749565,-35.609226],[-71.75,-35.609802],[-71.751112,-35.61127],[-71.75226,-35.61221],[-71.752431,-35.612294],[-71.75398,-35.61306],[-71.75597,-35.61382],[-71.75749,-35.61428],[-71.75907,-35.61436],[-71.76043,-35.61452],[-71.761959,-35.614483],[-71.76247,-35.61447],[-71.76414,-35.61486],[-71.76559,-35.61538],[-71.76613,-35.6158],[-71.76706,-35.6167],[-71.767553,-35.617572],[-71.7677,-35.617919],[-71.767941,-35.618488],[-71.76827,-35.61907],[-71.76845,-35.61987],[-71.76894,-35.6209],[-71.76967,-35.62255],[-71.77023,-35.62346],[-71.77048,-35.62401],[-71.770653,-35.624583],[-71.770596,-35.625112],[-71.770195,-35.625214],[-71.770073,-35.626022],[-71.76973,-35.6263],[-71.76892,-35.62681],[-71.76819,-35.6275],[-71.76723,-35.6282],[-71.76597,-35.6286],[-71.76402,-35.62908],[-71.762534,-35.62944],[-71.76208,-35.62955],[-71.76053,-35.63045],[-71.75958,-35.63139],[-71.75892,-35.63184],[-71.7571,-35.63366],[-71.756374,-35.634605],[-71.75551,-35.63573],[-71.75364,-35.6383],[-71.75242,-35.63986],[-71.75226,-35.64003],[-71.75197,-35.64033],[-71.751762,-35.64074],[-71.75167,-35.64092],[-71.75012,-35.64326],[-71.75,-35.64338],[-71.75,-35.64338],[-71.749538,-35.643919],[-71.749298,-35.644442],[-71.749207,-35.645077],[-71.749164,-35.645555],[-71.749314,-35.646364],[-71.747195,-35.646902],[-71.742692,-35.644081],[-71.743316,-35.63996],[-71.748442,-35.63866],[-71.749066,-35.634539],[-71.754192,-35.633239]]]},"properties":{"comuna":"Villa Alegre","mancha_id":"07407-88b2ddc685fffff","clase":"Bajo","nivel_medio":1.248,"nivel_medio_min":0.665,"nivel_medio_max":1.487,"pct_alto":6.2,"n_hexagonos":12,"area_ha":490.24}},{"type":"Feature","geometry":{"type":"Polygon","coordinates":[[[-71.712068,-35.683521],[-71.712692,-35.679404],[-71.717818,-35.678107],[-71.722321,-35.680928],[-71.721696,-35.685045],[-71.71657,-35.686342],[-71.712068,-35.683521]]]},"properties":{"comuna":"Villa Alegre","mancha_id":"07407-88b2dd133dfffff","clase":"Bajo","nivel_medio":1.494,"nivel_medio_min":1.494,"nivel_medio_max":1.494,"pct_alto":10.6,"n_hexagonos":1,"area_ha":61.16}},{"type":"Feature","geometry":{"type":"Polygon","coordinates":[[[-71.696689,-35.687409],[-71.697314,-35.683292],[-71.70244,-35.681997],[-71.706941,-35.684818],[-71.706317,-35.688934],[-71.701191,-35.69023],[-71.696689,-35.687409]]]},"properties":{"comuna":"Villa Alegre","mancha_id":"07407-88b2dd133bfffff","clase":"Bajo","nivel_medio":1.463,"nivel_medio_min":1.463,"nivel_medio_max":1.463,"pct_alto":0.0,"n_hexagonos":1,"area_ha":61.15}},{"type":"Feature","geometry":{"type":"Polygon","coordinates":[[[-71.683186,-35.678945],[-71.68381,-35.674828],[-71.688936,-35.673532],[-71.693437,-35.676354],[-71.692812,-35.680471],[-71.687687,-35.681767],[-71.683186,-35.678945]]]},"properties":{"comuna":"Villa Alegre","mancha_id":"07407-88b2dd1311fffff","clase":"Bajo","nivel_medio":1.352,"nivel_medio_min":1.352,"nivel_medio_max":1.352,"pct_alto":6.2,"n_hexagonos":1,"area_ha":61.15}},{"type":"Feature","geometry":{"type":"Polygon","coordinates":[[[-71.700436,-35.662704],[-71.70106,-35.658585],[-71.706186,-35.657288],[-71.710687,-35.66011],[-71.710063,-35.664229],[-71.704937,-35.665526],[-71.700436,-35.662704]]]},"properties":{"comuna":"Villa Alegre","mancha_id":"07407-88b2dd1309fffff","clase":"Bajo","nivel_medio":1.134,"nivel_medio_min":1.134,"nivel_medio_max":1.134,"pct_alto":1.9,"n_hexagonos":1,"area_ha":61.19}},{"type":"Feature","geometry":{"type":"Polygon","coordinates":[[[-71.593451,-35.685756],[-71.588954,-35.682932],[-71.583831,-35.684222],[-71.579334,-35.681398],[-71.574212,-35.682688],[-71.573861,-35.682468],[-71.57324,-35.67922],[-71.572467,-35.675213],[-71.575464,-35.674458],[-71.57996,-35.677283],[-71.585083,-35.675992],[-71.58958,-35.678817],[-71.594702,-35.677526],[-71.5992,-35.68035],[-71.598574,-35.684465],[-71.593451,-35.685756]]]},"properties":{"comuna":"Villa Alegre","mancha_id":"07407-88b2dd12c3fffff","clase":"Bajo","nivel_medio":1.408,"nivel_medio_min":1.391,"nivel_medio_max":1.43,"pct_alto":3.6,"n_hexagonos":3,"area_ha":165.74}},{"type":"Feature","geometry":{"type":"Polygon","coordinates":[[[-71.627978,-35.645376],[-71.624071,-35.646363],[-71.62207,-35.645106],[-71.62216,-35.64511],[-71.627978,-35.645376]]]},"properties":{"comuna":"Villa Alegre","mancha_id":"07407-88b2dd125dfffff","clase":"Bajo","nivel_medio":1.356,"nivel_medio_min":1.356,"nivel_medio_max":1.356,"pct_alto":8.2,"n_hexagonos":1,"area_ha":3.46}},{"type":"Feature","geometry":{"type":"Polygon","coordinates":[[[-71.638815,-35.646599],[-71.633692,-35.647893],[-71.629813,-35.645457],[-71.63308,-35.6456],[-71.63682,-35.6458],[-71.63733,-35.64526],[-71.639334,-35.643178],[-71.638815,-35.646599]]]},"properties":{"comuna":"Villa Alegre","mancha_id":"07407-88b2dd1243fffff","clase":"Bajo","nivel_medio":1.375,"nivel_medio_min":1.375,"nivel_medio_max":1.375,"pct_alto":22.3,"n_hexagonos":1,"area_ha":14.97}},{"type":"Feature","geometry":{"type":"Polygon","coordinates":[[[-71.64479,-35.63772],[-71.645151,-35.637042],[-71.64529,-35.63678],[-71.64595,-35.63607],[-71.65007,-35.63177],[-71.650474,-35.63136],[-71.65271,-35.62909],[-71.65446,-35.628],[-71.65566,-35.62754],[-71.656493,-35.627507],[-71.656061,-35.630356],[-71.66056,-35.633179],[-71.665683,-35.631883],[-71.670183,-35.634707],[-71.669558,-35.638827],[-71.674058,-35.64165],[-71.679182,-35.640354],[-71.683682,-35.643177],[-71.688807,-35.64188],[-71.689431,-35.63776],[-71.684931,-35.634937],[-71.685556,-35.630817],[-71.681056,-35.627993],[-71.675931,-35.62929],[-71.671654,-35.626606],[-71.67218,-35.62649],[-71.67272,-35.62631],[-71.67342,-35.62627],[-71.67388,-35.62449],[-71.67412,-35.62398],[-71.67445,-35.62371],[-71.6749,-35.62362],[-71.67574,-35.62352],[-71.67726,-35.62332],[-71.67849,-35.62317],[-71.67952,-35.62305],[-71.680356,-35.623041],[-71.68168,-35.623873],[-71.684642,-35.623123],[-71.68483,-35.62313],[-71.687747,-35.623166],[-71.68803,-35.62317],[-71.68879,-35.62318],[-71.69174,-35.62314],[-71.6931,-35.62311],[-71.69567,-35.62306],[-71.69589,-35.62304],[-71.696599,-35.622978],[-71.70072,-35.62262],[-71.70143,-35.62262],[-71.70272,-35.62237],[-71.7039,-35.62204],[-71.70429,-35.62193],[-71.70474,-35.6217],[-71.70527,-35.62145],[-71.70585,-35.62119],[-71.706147,-35.621171],[-71.70815,-35.62104],[-71.708853,-35.620953],[-71.706679,-35.621504],[-71.706054,-35.625625],[-71.700929,-35.626924],[-71.700305,-35.631044],[-71.69518,-35.632342],[-71.694556,-35.636463],[-71.699057,-35.639285],[-71.698432,-35.643405],[-71.693307,-35.644702],[-71.692683,-35.648822],[-71.697183,-35.651644],[-71.696559,-35.655763],[-71.691434,-35.65706],[-71.686933,-35.654238],[-71.681808,-35.655534],[-71.677308,-35.652711],[-71.672183,-35.654007],[-71.667684,-35.651184],[-71.662559,-35.65248],[-71.65806,-35.649656],[-71.658685,-35.645538],[-71.663809,-35.644242],[-71.664434,-35.640123],[-71.659935,-35.637299],[-71.654811,-35.638595],[-71.654186,-35.642714],[-71.649062,-35.644009],[-71.644564,-35.641185],[-71.640191,-35.64229],[-71.64051,-35.64196],[-71.6414,-35.64103],[-71.64222,-35.64016],[-71.64359,-35.6387],[-71.64443,-35.63801],[-71.64479,-35.63772]]]},"properties":{"comuna":"Villa Alegre","mancha_id":"07407-88b2dd1241fffff","clase":"Bajo","nivel_medio":1.291,"nivel_medio_min":0.914,"nivel_medio_max":1.489,"pct_alto":3.7,"n_hexagonos":21,"area_ha":979.92}},{"type":"Feature","geometry":{"type":"Polygon","coordinates":[[[-71.610697,-35.669535],[-71.6062,-35.666711],[-71.601077,-35.668002],[-71.600451,-35.672119],[-71.595328,-35.67341],[-71.590831,-35.670586],[-71.585709,-35.671877],[-71.581212,-35.669052],[-71.581838,-35.664936],[-71.577342,-35.662111],[-71.577968,-35.657995],[-71.58309,-35.656703],[-71.583669,-35.652895],[-71.588997,-35.653514],[-71.588537,-35.654402],[-71.593094,-35.655701],[-71.597181,-35.656867],[-71.600189,-35.653916],[-71.602954,-35.655652],[-71.602328,-35.659769],[-71.606825,-35.662594],[-71.611948,-35.661301],[-71.616446,-35.664126],[-71.61582,-35.668242],[-71.610697,-35.669535]]]},"properties":{"comuna":"Villa Alegre","mancha_id":"07407-88b2dd121bfffff","clase":"Bajo","nivel_medio":1.222,"nivel_medio_min":1.001,"nivel_medio_max":1.46,"pct_alto":1.7,"n_hexagonos":8,"area_ha":454.47}},{"type":"Feature","geometry":{"type":"Polygon","coordinates":[[[-71.705331,-35.760401],[-71.710458,-35.759107],[-71.71242,-35.760335],[-71.71242,-35.760335],[-71.712203,-35.76075],[-71.712058,-35.760985],[-71.711914,-35.761148],[-71.711697,-35.76122],[-71.711426,-35.761238],[-71.71107,-35.76127],[-71.71056,-35.76141],[-71.70997,-35.76167],[-71.70966,-35.76189],[-71.70949,-35.76211],[-71.709384,-35.762286],[-71.709457,-35.762557],[-71.709691,-35.76281],[-71.710071,-35.763117],[-71.71047,-35.76347],[-71.71087,-35.76406],[-71.71097,-35.76453],[-71.71102,-35.76498],[-71.71092,-35.76523],[-71.71072,-35.76568],[-71.71047,-35.76617],[-71.71025,-35.76643],[-71.71008,-35.76663],[-71.70993,-35.76679],[-71.70975,-35.76683],[-71.70962,-35.76675],[-71.70951,-35.76664],[-71.70942,-35.76657],[-71.70932,-35.76658],[-71.709131,-35.766749],[-71.70886,-35.766894],[-71.708633,-35.76697],[-71.704706,-35.764512],[-71.705331,-35.760401]]]},"properties":{"comuna":"Villa Alegre","mancha_id":"07407-88b2dd11abfffff","clase":"Bajo","nivel_medio":1.465,"nivel_medio_min":1.465,"nivel_medio_max":1.465,"pct_alto":4.4,"n_hexagonos":1,"area_ha":37.04}},{"type":"Feature","geometry":{"type":"Polygon","coordinates":[[[-71.666187,-35.758405],[-71.666812,-35.754293],[-71.671939,-35.753002],[-71.676441,-35.755821],[-71.675816,-35.759933],[-71.670689,-35.761224],[-71.670064,-35.765335],[-71.664937,-35.766626],[-71.660435,-35.763807],[-71.661061,-35.759696],[-71.666187,-35.758405]]]},"properties":{"comuna":"Villa Alegre","mancha_id":"07407-88b2dd1199fffff","clase":"Bajo","nivel_medio":1.317,"nivel_medio_min":1.314,"nivel_medio_max":1.321,"pct_alto":14.2,"n_hexagonos":2,"area_ha":122.03}},{"type":"Feature","geometry":{"type":"Polygon","coordinates":[[[-71.679693,-35.766863],[-71.680318,-35.762752],[-71.685445,-35.76146],[-71.689948,-35.764279],[-71.689323,-35.76839],[-71.693826,-35.771208],[-71.693379,-35.774146],[-71.693123,-35.774229],[-71.692635,-35.774139],[-71.692111,-35.77376],[-71.69158,-35.77307],[-71.69104,-35.77258],[-71.69065,-35.77233],[-71.690196,-35.772206],[-71.689708,-35.772152],[-71.689148,-35.77226],[-71.688786,-35.772441],[-71.687991,-35.772712],[-71.68754,-35.772838],[-71.68707,-35.772874],[-71.686383,-35.772911],[-71.68595,-35.772748],[-71.685787,-35.772567],[-71.68559,-35.77225],[-71.68541,-35.77187],[-71.68527,-35.77161],[-71.68507,-35.77135],[-71.68478,-35.77111],[-71.68425,-35.7708],[-71.684041,-35.770696],[-71.68361,-35.77048],[-71.68292,-35.77032],[-71.68223,-35.77032],[-71.68161,-35.77032],[-71.68118,-35.77045],[-71.680665,-35.770751],[-71.680213,-35.771],[-71.679851,-35.771248],[-71.679377,-35.771587],[-71.678858,-35.771745],[-71.677706,-35.771881],[-71.676486,-35.772242],[-71.67556,-35.772468],[-71.674745,-35.772768],[-71.673941,-35.772264],[-71.674566,-35.768154],[-71.679693,-35.766863]]]},"properties":{"comuna":"Villa Alegre","mancha_id":"07407-88b2dd1195fffff","clase":"Bajo","nivel_medio":1.377,"nivel_medio_min":1.158,"nivel_medio_max":1.471,"pct_alto":3.1,"n_hexagonos":3,"area_ha":127.76}},{"type":"Feature","geometry":{"type":"Polygon","coordinates":[[[-71.691197,-35.756056],[-71.691822,-35.751944],[-71.696949,-35.750651],[-71.697574,-35.746539],[-71.702701,-35.745245],[-71.707204,-35.748064],[-71.70658,-35.752177],[-71.701452,-35.75347],[-71.700827,-35.757582],[-71.6957,-35.758875],[-71.691197,-35.756056]]]},"properties":{"comuna":"Villa Alegre","mancha_id":"07407-88b2dd1181fffff","clase":"Bajo","nivel_medio":1.371,"nivel_medio_min":1.288,"nivel_medio_max":1.454,"pct_alto":2.2,"n_hexagonos":2,"area_ha":122.09}},{"type":"Feature","geometry":{"type":"Polygon","coordinates":[[[-71.681312,-35.691295],[-71.681936,-35.687178],[-71.687062,-35.685883],[-71.691563,-35.688705],[-71.690939,-35.692821],[-71.685813,-35.694116],[-71.681312,-35.691295]]]},"properties":{"comuna":"Villa Alegre","mancha_id":"07407-88b2dd1069fffff","clase":"Bajo","nivel_medio":1.374,"nivel_medio_min":1.374,"nivel_medio_max":1.374,"pct_alto":7.4,"n_hexagonos":1,"area_ha":61.13}},{"type":"Feature","geometry":{"type":"Polygon","coordinates":[[[-71.658185,-35.681301],[-71.65881,-35.677185],[-71.65431,-35.674362],[-71.649186,-35.675656],[-71.648561,-35.679773],[-71.65306,-35.682595],[-71.652435,-35.686711],[-71.647311,-35.688005],[-71.642811,-35.685182],[-71.643436,-35.681066],[-71.638937,-35.678243],[-71.639563,-35.674127],[-71.644687,-35.672833],[-71.645312,-35.668717],[-71.650436,-35.667423],[-71.651061,-35.663305],[-71.646562,-35.660482],[-71.647187,-35.656364],[-71.652311,-35.65507],[-71.65681,-35.657893],[-71.656185,-35.662011],[-71.660685,-35.664834],[-71.665809,-35.663539],[-71.670309,-35.666361],[-71.669684,-35.670479],[-71.66456,-35.671774],[-71.663935,-35.675891],[-71.668435,-35.678713],[-71.66781,-35.682829],[-71.662685,-35.684124],[-71.658185,-35.681301]]]},"properties":{"comuna":"Villa Alegre","mancha_id":"07407-88b2dd1049fffff","clase":"Bajo","nivel_medio":1.252,"nivel_medio_min":0.988,"nivel_medio_max":1.399,"pct_alto":2.2,"n_hexagonos":8,"area_ha":489.11}},{"type":"Feature","geometry":{"type":"Polygon","coordinates":[[[-71.696819,-35.719039],[-71.697444,-35.714924],[-71.692942,-35.712104],[-71.693566,-35.707989],[-71.698693,-35.706694],[-71.699317,-35.702578],[-71.704444,-35.701283],[-71.705068,-35.697167],[-71.710195,-35.695872],[-71.710819,-35.691755],[-71.715946,-35.690459],[-71.720448,-35.693279],[-71.725575,-35.691983],[-71.726199,-35.687866],[-71.731326,-35.686569],[-71.73195,-35.682451],[-71.727447,-35.679631],[-71.728071,-35.675513],[-71.733198,-35.674215],[-71.733822,-35.670097],[-71.738949,-35.668799],[-71.743452,-35.671619],[-71.748579,-35.67032],[-71.753082,-35.673141],[-71.752459,-35.677259],[-71.756962,-35.680079],[-71.76209,-35.67878],[-71.762714,-35.674661],[-71.75821,-35.671842],[-71.758833,-35.667723],[-71.75433,-35.664903],[-71.749203,-35.666201],[-71.744699,-35.663381],[-71.739573,-35.66468],[-71.73507,-35.661859],[-71.735694,-35.65774],[-71.74082,-35.656441],[-71.745323,-35.659262],[-71.75045,-35.657963],[-71.751074,-35.653843],[-71.751344,-35.653774],[-71.75136,-35.65392],[-71.75186,-35.65466],[-71.75226,-35.65489],[-71.75292,-35.65483],[-71.75375,-35.65473],[-71.75415,-35.65475],[-71.75435,-35.6547],[-71.75461,-35.65459],[-71.75471,-35.65452],[-71.75493,-35.6545],[-71.7551,-35.65455],[-71.7552,-35.65457],[-71.75531,-35.65459],[-71.75554,-35.65451],[-71.75576,-35.65435],[-71.75628,-35.65398],[-71.75686,-35.65333],[-71.757102,-35.653108],[-71.760704,-35.655364],[-71.761922,-35.655055],[-71.761931,-35.655072],[-71.76213,-35.65578],[-71.76235,-35.6577],[-71.762267,-35.658551],[-71.762136,-35.659073],[-71.761889,-35.659683],[-71.761614,-35.660176],[-71.761506,-35.660376],[-71.76139,-35.66059],[-71.76127,-35.66104],[-71.76123,-35.6613],[-71.76134,-35.66185],[-71.76158,-35.66236],[-71.76281,-35.66612],[-71.763164,-35.666625],[-71.76391,-35.66769],[-71.76468,-35.66969],[-71.7661,-35.67299],[-71.766334,-35.673744],[-71.76717,-35.67644],[-71.76745,-35.67821],[-71.76759,-35.68],[-71.76759,-35.681347],[-71.766594,-35.6816],[-71.765971,-35.685718],[-71.770475,-35.688537],[-71.769852,-35.692655],[-71.764723,-35.693953],[-71.7641,-35.698071],[-71.768604,-35.700889],[-71.770398,-35.700435],[-71.7704,-35.70045],[-71.77031,-35.70076],[-71.77019,-35.70107],[-71.769963,-35.70241],[-71.770133,-35.704111],[-71.770096,-35.705013],[-71.769889,-35.705788],[-71.769586,-35.706011],[-71.769085,-35.706379],[-71.767412,-35.707541],[-71.765315,-35.708647],[-71.764739,-35.708995],[-71.764366,-35.709275],[-71.764273,-35.709834],[-71.76382,-35.70772],[-71.76384,-35.70715],[-71.76373,-35.70687],[-71.76354,-35.70675],[-71.76321,-35.7066],[-71.76283,-35.70658],[-71.762809,-35.706589],[-71.76208,-35.70691],[-71.76115,-35.70742],[-71.7599,-35.70812],[-71.75879,-35.70885],[-71.75796,-35.70956],[-71.75708,-35.71],[-71.7563,-35.71025],[-71.75554,-35.71027],[-71.754535,-35.710113],[-71.75439,-35.71009],[-71.75336,-35.70972],[-71.75258,-35.70912],[-71.752388,-35.708952],[-71.75227,-35.70885],[-71.75188,-35.70811],[-71.75127,-35.70653],[-71.75089,-35.70592],[-71.75049,-35.70564],[-71.75011,-35.7055],[-71.75,-35.70548],[-71.75,-35.70548],[-71.74983,-35.70546],[-71.74951,-35.70559],[-71.74882,-35.70575],[-71.74798,-35.70589],[-71.74714,-35.70579],[-71.74578,-35.7054],[-71.74432,-35.70479],[-71.743456,-35.704134],[-71.743588,-35.703261],[-71.739084,-35.700442],[-71.739708,-35.696325],[-71.744836,-35.695028],[-71.74546,-35.690911],[-71.740956,-35.688091],[-71.735829,-35.689389],[-71.735205,-35.693506],[-71.730078,-35.694803],[-71.729454,-35.698919],[-71.724327,-35.700216],[-71.723702,-35.704332],[-71.718575,-35.705628],[-71.717951,-35.709744],[-71.712824,-35.711039],[-71.7122,-35.715154],[-71.707073,-35.716449],[-71.706448,-35.720564],[-71.710951,-35.723384],[-71.710327,-35.727498],[-71.71483,-35.730317],[-71.714205,-35.734431],[-71.718708,-35.73725],[-71.718296,-35.739969],[-71.71725,-35.740343],[-71.716483,-35.740966],[-71.715237,-35.741781],[-71.714273,-35.742325],[-71.714134,-35.742404],[-71.713914,-35.743307],[-71.713586,-35.744651],[-71.713176,-35.745423],[-71.712697,-35.746285],[-71.712395,-35.746355],[-71.712956,-35.742658],[-71.708453,-35.739839],[-71.709078,-35.735725],[-71.704575,-35.732906],[-71.699448,-35.7342],[-71.698823,-35.738313],[-71.693696,-35.739607],[-71.689194,-35.736787],[-71.684067,-35.73808],[-71.679565,-35.73526],[-71.68019,-35.731147],[-71.685317,-35.729854],[-71.685941,-35.72574],[-71.691068,-35.724447],[-71.691693,-35.720333],[-71.696819,-35.719039]]]},"properties":{"comuna":"Villa Alegre","mancha_id":"07407-88b2dd1025fffff","clase":"Bajo","nivel_medio":1.25,"nivel_medio_min":0.721,"nivel_medio_max":1.478,"pct_alto":6.3,"n_hexagonos":46,"area_ha":2421.3}},{"type":"Feature","geometry":{"type":"Polygon","coordinates":[[[-71.65917,-35.77683],[-71.659008,-35.776418],[-71.661528,-35.777996],[-71.661376,-35.778219],[-71.661064,-35.778659],[-71.66055,-35.778916],[-71.660165,-35.779008],[-71.659706,-35.779008],[-71.65928,-35.77879],[-71.65899,-35.77844],[-71.65917,-35.77683]]]},"properties":{"comuna":"Villa Alegre","mancha_id":"07407-88b2dd0247fffff","clase":"Bajo","nivel_medio":1.472,"nivel_medio_min":1.472,"nivel_medio_max":1.472,"pct_alto":23.6,"n_hexagonos":1,"area_ha":3.81}},{"type":"Feature","geometry":{"type":"Polygon","coordinates":[[[-71.761922,-35.655055],[-71.760704,-35.655364],[-71.757102,-35.653108],[-71.75736,-35.65287],[-71.75786,-35.65263],[-71.75814,-35.65262],[-71.75866,-35.65267],[-71.75928,-35.65275],[-71.75982,-35.65289],[-71.7603,-35.65311],[-71.760575,-35.653307],[-71.760872,-35.653623],[-71.761095,-35.653948],[-71.761383,-35.654217],[-71.761615,-35.654496],[-71.761745,-35.65471],[-71.761922,-35.655055]]]},"properties":{"comuna":"Villa Alegre","mancha_id":"07407-88b2ddc6b5fffff","clase":"Medio","nivel_medio":1.886,"nivel_medio_min":1.886,"nivel_medio_max":1.886,"pct_alto":1.3,"n_hexagonos":1,"area_ha":6.33}},{"type":"Feature","geometry":{"type":"Polygon","coordinates":[[[-71.765971,-35.685718],[-71.766594,-35.6816],[-71.76759,-35.681347],[-71.76759,-35.68169],[-71.76761,-35.6823],[-71.7677,-35.68326],[-71.76783,-35.68364],[-71.76808,-35.68426],[-71.76898,-35.68501],[-71.77023,-35.68612],[-71.77125,-35.68715],[-71.771893,-35.688178],[-71.77217,-35.68862],[-71.7731,-35.69036],[-71.77352,-35.69161],[-71.77363,-35.69257],[-71.77365,-35.69313],[-71.77352,-35.69359],[-71.77309,-35.69431],[-71.772922,-35.694576],[-71.77233,-35.69551],[-71.77175,-35.69623],[-71.77116,-35.69674],[-71.77051,-35.69747],[-71.77026,-35.69794],[-71.77009,-35.69847],[-71.77018,-35.69902],[-71.77033,-35.69991],[-71.770398,-35.700435],[-71.768604,-35.700889],[-71.7641,-35.698071],[-71.764723,-35.693953],[-71.769852,-35.692655],[-71.770475,-35.688537],[-71.765971,-35.685718]]]},"properties":{"comuna":"Villa Alegre","mancha_id":"07407-88b2ddc483fffff","clase":"Medio","nivel_medio":1.685,"nivel_medio_min":1.58,"nivel_medio_max":1.742,"pct_alto":42.2,"n_hexagonos":3,"area_ha":77.43}},{"type":"Feature","geometry":{"type":"Polygon","coordinates":[[[-71.66056,-35.633179],[-71.656061,-35.630356],[-71.656493,-35.627507],[-71.65869,-35.62742],[-71.66016,-35.62741],[-71.66193,-35.62739],[-71.66512,-35.62735],[-71.66563,-35.62735],[-71.665645,-35.627347],[-71.666308,-35.627763],[-71.669421,-35.626975],[-71.66953,-35.62697],[-71.6707,-35.62689],[-71.67141,-35.62666],[-71.671654,-35.626606],[-71.675931,-35.62929],[-71.681056,-35.627993],[-71.685556,-35.630817],[-71.684931,-35.634937],[-71.689431,-35.63776],[-71.688807,-35.64188],[-71.683682,-35.643177],[-71.679182,-35.640354],[-71.674058,-35.64165],[-71.669558,-35.638827],[-71.670183,-35.634707],[-71.665683,-35.631883],[-71.66056,-35.633179]]]},"properties":{"comuna":"Villa Alegre","mancha_id":"07407-88b2dd8991fffff","clase":"Medio","nivel_medio":1.784,"nivel_medio_min":1.574,"nivel_medio_max":1.931,"pct_alto":10.8,"n_hexagonos":5,"area_ha":291.4}},{"type":"Feature","geometry":{"type":"Polygon","coordinates":[[[-71.684642,-35.623123],[-71.68168,-35.623873],[-71.680356,-35.623041],[-71.68048,-35.62304],[-71.68225,-35.62303],[-71.684642,-35.623123]]]},"properties":{"comuna":"Villa Alegre","mancha_id":"07407-88b2dd8981fffff","clase":"Medio","nivel_medio":2.327,"nivel_medio_min":2.327,"nivel_medio_max":2.327,"pct_alto":16.8,"n_hexagonos":1,"area_ha":1.84}},{"type":"Feature","geometry":{"type":"Polygon","coordinates":[[[-71.732668,-35.718386],[-71.732764,-35.719018],[-71.732801,-35.719259],[-71.733199,-35.719942],[-71.733528,-35.720406],[-71.733731,-35.720947],[-71.733825,-35.721801],[-71.73391,-35.72232],[-71.7339,-35.72265],[-71.73353,-35.72297],[-71.73307,-35.72335],[-71.73249,-35.72367],[-71.73202,-35.72405],[-71.7318,-35.72429],[-71.73164,-35.72462],[-71.73175,-35.725],[-71.732,-35.72538],[-71.732472,-35.725861],[-71.73254,-35.72593],[-71.73303,-35.72646],[-71.73328,-35.72688],[-71.73331,-35.72711],[-71.73323,-35.72743],[-71.73296,-35.72776],[-71.73268,-35.72808],[-71.731435,-35.728409],[-71.72971,-35.730039],[-71.729657,-35.730092],[-71.729073,-35.730676],[-71.728847,-35.730902],[-71.728847,-35.73162],[-71.729183,-35.732291],[-71.729183,-35.732962],[-71.728608,-35.73349],[-71.727505,-35.733921],[-71.726307,-35.734304],[-71.725588,-35.735263],[-71.725167,-35.735875],[-71.724606,-35.736437],[-71.724342,-35.7367],[-71.72348,-35.737419],[-71.722713,-35.737132],[-71.721707,-35.737467],[-71.720317,-35.738282],[-71.719694,-35.739288],[-71.718591,-35.739864],[-71.718296,-35.739969],[-71.718708,-35.73725],[-71.714205,-35.734431],[-71.71483,-35.730317],[-71.710327,-35.727498],[-71.710951,-35.723384],[-71.706448,-35.720564],[-71.707073,-35.716449],[-71.7122,-35.715154],[-71.712824,-35.711039],[-71.717951,-35.709744],[-71.718575,-35.705628],[-71.723702,-35.704332],[-71.724327,-35.700216],[-71.729454,-35.698919],[-71.730078,-35.694803],[-71.735205,-35.693506],[-71.735829,-35.689389],[-71.740956,-35.688091],[-71.74546,-35.690911],[-71.744836,-35.695028],[-71.739708,-35.696325],[-71.739084,-35.700442],[-71.743588,-35.703261],[-71.743456,-35.704134],[-71.74345,-35.70413],[-71.74308,-35.70395],[-71.7427,-35.70396],[-71.74196,-35.70405],[-71.74141,-35.70421],[-71.7408,-35.70423],[-71.74038,-35.70424],[-71.73969,-35.70437],[-71.73919,-35.70457],[-71.73863,-35.70462],[-71.73807,-35.70463],[-71.73751,-35.70461],[-71.73681,-35.70458],[-71.73625,-35.70463],[-71.73589,-35.70483],[-71.73553,-35.70518],[-71.73508,-35.70565],[-71.73509,-35.70599],[-71.7353,-35.70663],[-71.735404,-35.707152],[-71.73546,-35.70743],[-71.73568,-35.70814],[-71.7357,-35.70894],[-71.73595,-35.7095],[-71.73579,-35.71004],[-71.73544,-35.71069],[-71.7352,-35.71106],[-71.73475,-35.71171],[-71.73433,-35.71214],[-71.73393,-35.71238],[-71.73344,-35.71253],[-71.73298,-35.71251],[-71.73247,-35.71252],[-71.73199,-35.71251],[-71.73078,-35.71257],[-71.73012,-35.71285],[-71.730114,-35.712853],[-71.72953,-35.71318],[-71.72907,-35.71365],[-71.72878,-35.71406],[-71.72852,-35.71456],[-71.72853,-35.71506],[-71.72859,-35.71553],[-71.72875,-35.71627],[-71.72908,-35.71661],[-71.73095,-35.71719],[-71.731557,-35.717568],[-71.73193,-35.7178],[-71.732668,-35.718386]]]},"properties":{"comuna":"Villa Alegre","mancha_id":"07407-88b2dd1101fffff","clase":"Medio","nivel_medio":1.801,"nivel_medio_min":1.532,"nivel_medio_max":2.075,"pct_alto":13.9,"n_hexagonos":18,"area_ha":817.89}},{"type":"Feature","geometry":{"type":"Polygon","coordinates":[[[-71.653728,-35.769448],[-71.654684,-35.769208],[-71.655309,-35.765097],[-71.650808,-35.762277],[-71.647541,-35.7631],[-71.64679,-35.76269],[-71.64641,-35.76229],[-71.64613,-35.7621],[-71.64581,-35.7617],[-71.64508,-35.76139],[-71.64447,-35.76114],[-71.64391,-35.7609],[-71.64343,-35.76057],[-71.64315,-35.76028],[-71.64273,-35.76001],[-71.64227,-35.75982],[-71.64194,-35.75972],[-71.64154,-35.75954],[-71.641379,-35.759442],[-71.641806,-35.756637],[-71.63907,-35.754922],[-71.63888,-35.75409],[-71.63901,-35.75377],[-71.639153,-35.753231],[-71.638866,-35.752615],[-71.637799,-35.752068],[-71.637587,-35.75197],[-71.637416,-35.751891],[-71.637006,-35.751658],[-71.636869,-35.751549],[-71.636363,-35.751357],[-71.635939,-35.751125],[-71.63572,-35.750632],[-71.636229,-35.75],[-71.63623,-35.75],[-71.63673,-35.74972],[-71.63708,-35.7494],[-71.637341,-35.749336],[-71.63924,-35.74887],[-71.64188,-35.7487],[-71.642024,-35.748675],[-71.64275,-35.74855],[-71.642909,-35.748452],[-71.643066,-35.748356],[-71.64332,-35.7482],[-71.64349,-35.74785],[-71.64366,-35.7475],[-71.64425,-35.74671],[-71.6451,-35.74611],[-71.64676,-35.74517],[-71.6472,-35.74479],[-71.64729,-35.74432],[-71.6471,-35.74417],[-71.64651,-35.74394],[-71.645925,-35.743739],[-71.648808,-35.743013],[-71.649433,-35.738901],[-71.644933,-35.73608],[-71.645558,-35.731967],[-71.641058,-35.729146],[-71.639771,-35.729471],[-71.63979,-35.72926],[-71.63974,-35.72709],[-71.64002,-35.72587],[-71.6397,-35.72508],[-71.63931,-35.7246],[-71.63842,-35.72395],[-71.63711,-35.72333],[-71.63818,-35.72301],[-71.638371,-35.722957],[-71.63947,-35.72265],[-71.63996,-35.72231],[-71.64025,-35.72175],[-71.64024,-35.72128],[-71.63958,-35.72052],[-71.63929,-35.71979],[-71.63922,-35.71921],[-71.63889,-35.71855],[-71.63864,-35.71797],[-71.638638,-35.71789],[-71.63861,-35.71694],[-71.63853,-35.71606],[-71.63815,-35.71534],[-71.63741,-35.71466],[-71.6365,-35.71431],[-71.63581,-35.71407],[-71.63492,-35.71409],[-71.63406,-35.714],[-71.633538,-35.713772],[-71.633935,-35.711163],[-71.629436,-35.708341],[-71.630061,-35.704227],[-71.626697,-35.702116],[-71.625707,-35.700454],[-71.624651,-35.698681],[-71.622519,-35.694988],[-71.621799,-35.693742],[-71.620868,-35.69213],[-71.61809,-35.69215],[-71.61387,-35.6924],[-71.612131,-35.692515],[-71.60812,-35.69278],[-71.608,-35.69189],[-71.60782,-35.69155],[-71.60764,-35.69149],[-71.60738,-35.69141],[-71.60668,-35.69125],[-71.6057,-35.69092],[-71.60553,-35.69077],[-71.60544,-35.69001],[-71.6053,-35.68989],[-71.60378,-35.69012],[-71.60358,-35.69003],[-71.602865,-35.688643],[-71.60187,-35.68671],[-71.601762,-35.686467],[-71.60111,-35.685],[-71.60086,-35.68492],[-71.60046,-35.6849],[-71.599479,-35.685033],[-71.59818,-35.68521],[-71.5961,-35.6855],[-71.595,-35.68565],[-71.593436,-35.685852],[-71.59306,-35.6859],[-71.59156,-35.68611],[-71.58816,-35.68673],[-71.58564,-35.68709],[-71.583335,-35.687483],[-71.58118,-35.68785],[-71.576514,-35.688642],[-71.57617,-35.6887],[-71.57498,-35.6889],[-71.574744,-35.68753],[-71.574071,-35.683617],[-71.57398,-35.68309],[-71.573861,-35.682468],[-71.574212,-35.682688],[-71.579334,-35.681398],[-71.583831,-35.684222],[-71.588954,-35.682932],[-71.593451,-35.685756],[-71.598574,-35.684465],[-71.5992,-35.68035],[-71.594702,-35.677526],[-71.58958,-35.678817],[-71.585083,-35.675992],[-71.57996,-35.677283],[-71.575464,-35.674458],[-71.572467,-35.675213],[-71.57238,-35.67476],[-71.57183,-35.67088],[-71.572318,-35.667972],[-71.57234,-35.66784],[-71.5725,-35.6669],[-71.5732,-35.663155],[-71.57336,-35.6623],[-71.57416,-35.65806],[-71.57461,-35.65697],[-71.575248,-35.656285],[-71.578924,-35.652343],[-71.583669,-35.652895],[-71.58309,-35.656703],[-71.577968,-35.657995],[-71.577342,-35.662111],[-71.581838,-35.664936],[-71.581212,-35.669052],[-71.585709,-35.671877],[-71.590831,-35.670586],[-71.595328,-35.67341],[-71.600451,-35.672119],[-71.601077,-35.668002],[-71.6062,-35.666711],[-71.610697,-35.669535],[-71.61582,-35.668242],[-71.616446,-35.664126],[-71.611948,-35.661301],[-71.606825,-35.662594],[-71.602328,-35.659769],[-71.602954,-35.655652],[-71.600189,-35.653916],[-71.601726,-35.652408],[-71.6059,-35.648483],[-71.605986,-35.648402],[-71.60693,-35.64757],[-71.6092,-35.64534],[-71.60967,-35.64486],[-71.61023,-35.6445],[-71.61133,-35.64449],[-71.61355,-35.64465],[-71.614235,-35.644697],[-71.61445,-35.644831],[-71.614825,-35.644737],[-71.61899,-35.64502],[-71.61971,-35.64501],[-71.62207,-35.645106],[-71.624071,-35.646363],[-71.627978,-35.645376],[-71.62873,-35.64541],[-71.629813,-35.645457],[-71.633692,-35.647893],[-71.638815,-35.646599],[-71.639334,-35.643178],[-71.6394,-35.64311],[-71.640191,-35.64229],[-71.644564,-35.641185],[-71.649062,-35.644009],[-71.654186,-35.642714],[-71.654811,-35.638595],[-71.659935,-35.637299],[-71.664434,-35.640123],[-71.663809,-35.644242],[-71.658685,-35.645538],[-71.65806,-35.649656],[-71.662559,-35.65248],[-71.667684,-35.651184],[-71.672183,-35.654007],[-71.677308,-35.652711],[-71.681808,-35.655534],[-71.686933,-35.654238],[-71.691434,-35.65706],[-71.696559,-35.655763],[-71.697183,-35.651644],[-71.692683,-35.648822],[-71.693307,-35.644702],[-71.698432,-35.643405],[-71.699057,-35.639285],[-71.694556,-35.636463],[-71.69518,-35.632342],[-71.700305,-35.631044],[-71.700929,-35.626924],[-71.706054,-35.625625],[-71.706679,-35.621504],[-71.708853,-35.620953],[-71.71009,-35.6208],[-71.711952,-35.620298],[-71.71265,-35.62011],[-71.71528,-35.61938],[-71.71569,-35.61929],[-71.71693,-35.61902],[-71.71961,-35.61832],[-71.72164,-35.61757],[-71.72182,-35.61746],[-71.722054,-35.617607],[-71.727179,-35.616307],[-71.72741,-35.614779],[-71.7351,-35.61304],[-71.736023,-35.612825],[-71.741393,-35.611573],[-71.742583,-35.611314],[-71.742727,-35.611272],[-71.742556,-35.612407],[-71.73743,-35.613707],[-71.736806,-35.61783],[-71.741308,-35.620652],[-71.746434,-35.619352],[-71.750937,-35.622173],[-71.750313,-35.626295],[-71.754816,-35.629117],[-71.754192,-35.633239],[-71.749066,-35.634539],[-71.748442,-35.63866],[-71.743316,-35.63996],[-71.742692,-35.644081],[-71.747195,-35.646902],[-71.749314,-35.646364],[-71.749344,-35.646527],[-71.75,-35.647948],[-71.750018,-35.647986],[-71.75006,-35.64809],[-71.75041,-35.64834],[-71.750728,-35.648583],[-71.750927,-35.648947],[-71.75116,-35.65027],[-71.75129,-35.65175],[-71.75125,-35.65289],[-71.751344,-35.653774],[-71.751074,-35.653843],[-71.75045,-35.657963],[-71.745323,-35.659262],[-71.74082,-35.656441],[-71.735694,-35.65774],[-71.73507,-35.661859],[-71.739573,-35.66468],[-71.744699,-35.663381],[-71.749203,-35.666201],[-71.75433,-35.664903],[-71.758833,-35.667723],[-71.75821,-35.671842],[-71.762714,-35.674661],[-71.76209,-35.67878],[-71.756962,-35.680079],[-71.752459,-35.677259],[-71.753082,-35.673141],[-71.748579,-35.67032],[-71.743452,-35.671619],[-71.738949,-35.668799],[-71.733822,-35.670097],[-71.733198,-35.674215],[-71.728071,-35.675513],[-71.727447,-35.679631],[-71.73195,-35.682451],[-71.731326,-35.686569],[-71.726199,-35.687866],[-71.725575,-35.691983],[-71.720448,-35.693279],[-71.715946,-35.690459],[-71.710819,-35.691755],[-71.710195,-35.695872],[-71.705068,-35.697167],[-71.704444,-35.701283],[-71.699317,-35.702578],[-71.698693,-35.706694],[-71.693566,-35.707989],[-71.692942,-35.712104],[-71.697444,-35.714924],[-71.696819,-35.719039],[-71.691693,-35.720333],[-71.691068,-35.724447],[-71.685941,-35.72574],[-71.685317,-35.729854],[-71.68019,-35.731147],[-71.679565,-35.73526],[-71.684067,-35.73808],[-71.689194,-35.736787],[-71.693696,-35.739607],[-71.698823,-35.738313],[-71.699448,-35.7342],[-71.704575,-35.732906],[-71.709078,-35.735725],[-71.708453,-35.739839],[-71.712956,-35.742658],[-71.712395,-35.746355],[-71.711451,-35.746573],[-71.71121,-35.747053],[-71.711019,-35.747436],[-71.710828,-35.748921],[-71.710157,-35.749592],[-71.709854,-35.75],[-71.70972,-35.75018],[-71.70982,-35.75041],[-71.71012,-35.75091],[-71.71057,-35.75148],[-71.71198,-35.75237],[-71.71324,-35.75312],[-71.71385,-35.75334],[-71.71431,-35.75376],[-71.71469,-35.75396],[-71.714885,-35.754036],[-71.71528,-35.75419],[-71.71589,-35.75448],[-71.71643,-35.75487],[-71.71712,-35.75548],[-71.71781,-35.75622],[-71.71816,-35.7567],[-71.71824,-35.75708],[-71.71819,-35.75741],[-71.71816,-35.75784],[-71.71798,-35.75833],[-71.717786,-35.758709],[-71.717515,-35.758926],[-71.717244,-35.759142],[-71.716937,-35.759395],[-71.716612,-35.759486],[-71.716196,-35.759504],[-71.715762,-35.759413],[-71.71522,-35.759341],[-71.714877,-35.759305],[-71.714281,-35.759251],[-71.713793,-35.759287],[-71.71339,-35.75936],[-71.71298,-35.759594],[-71.712637,-35.759937],[-71.71242,-35.760335],[-71.710458,-35.759107],[-71.705331,-35.760401],[-71.704706,-35.764512],[-71.708633,-35.76697],[-71.708373,-35.767056],[-71.707957,-35.767201],[-71.70774,-35.767436],[-71.707433,-35.767725],[-71.707216,-35.767996],[-71.706999,-35.76843],[-71.706945,-35.768755],[-71.706819,-35.769098],[-71.70674,-35.76957],[-71.70661,-35.77014],[-71.706421,-35.770724],[-71.705843,-35.771158],[-71.705265,-35.77161],[-71.704759,-35.771808],[-71.7044,-35.77166],[-71.70413,-35.77138],[-71.70391,-35.77098],[-71.70346,-35.77059],[-71.70295,-35.77027],[-71.702302,-35.770056],[-71.701615,-35.770001],[-71.700983,-35.77002],[-71.700278,-35.77011],[-71.69979,-35.770254],[-71.699676,-35.770368],[-71.699483,-35.770562],[-71.699284,-35.770941],[-71.69926,-35.7714],[-71.69933,-35.77194],[-71.69943,-35.77237],[-71.6995,-35.7727],[-71.69944,-35.77301],[-71.69938,-35.77322],[-71.699121,-35.773543],[-71.69867,-35.773633],[-71.698073,-35.773651],[-71.697495,-35.773543],[-71.696592,-35.773398],[-71.696014,-35.773344],[-71.695381,-35.773507],[-71.694695,-35.77376],[-71.693791,-35.774013],[-71.693379,-35.774146],[-71.693826,-35.771208],[-71.689323,-35.76839],[-71.689948,-35.764279],[-71.685445,-35.76146],[-71.680318,-35.762752],[-71.679693,-35.766863],[-71.674566,-35.768154],[-71.673941,-35.772264],[-71.674745,-35.772768],[-71.674702,-35.772784],[-71.67355,-35.773394],[-71.672782,-35.773597],[-71.67213,-35.7736],[-71.6714,-35.77362],[-71.67075,-35.77348],[-71.66981,-35.77336],[-71.669295,-35.773457],[-71.669125,-35.773477],[-71.668796,-35.773516],[-71.668764,-35.773524],[-71.668341,-35.773633],[-71.667753,-35.773971],[-71.667371,-35.774265],[-71.66674,-35.774573],[-71.666226,-35.774647],[-71.6658,-35.77472],[-71.665492,-35.77472],[-71.665183,-35.774808],[-71.664934,-35.774955],[-71.664684,-35.775161],[-71.66447,-35.77528],[-71.66426,-35.77553],[-71.66412,-35.77582],[-71.66397,-35.77602],[-71.66383,-35.77623],[-71.6636,-35.77637],[-71.663395,-35.776457],[-71.663175,-35.776438],[-71.662918,-35.776438],[-71.66263,-35.77645],[-71.662441,-35.776603],[-71.662184,-35.776769],[-71.662019,-35.777044],[-71.66186,-35.77731],[-71.661688,-35.77776],[-71.661528,-35.777996],[-71.659008,-35.776418],[-71.65877,-35.77581],[-71.658629,-35.775682],[-71.65766,-35.7748],[-71.6567,-35.77366],[-71.65558,-35.772],[-71.65422,-35.77048],[-71.653728,-35.769448]],[[-71.660435,-35.763807],[-71.664937,-35.766626],[-71.670064,-35.765335],[-71.670689,-35.761224],[-71.675816,-35.759933],[-71.676441,-35.755821],[-71.671939,-35.753002],[-71.666812,-35.754293],[-71.666187,-35.758405],[-71.661061,-35.759696],[-71.660435,-35.763807]],[[-71.662685,-35.684124],[-71.66781,-35.682829],[-71.668435,-35.678713],[-71.663935,-35.675891],[-71.66456,-35.671774],[-71.669684,-35.670479],[-71.670309,-35.666361],[-71.665809,-35.663539],[-71.660685,-35.664834],[-71.656185,-35.662011],[-71.65681,-35.657893],[-71.652311,-35.65507],[-71.647187,-35.656364],[-71.646562,-35.660482],[-71.651061,-35.663305],[-71.650436,-35.667423],[-71.645312,-35.668717],[-71.644687,-35.672833],[-71.639563,-35.674127],[-71.638937,-35.678243],[-71.643436,-35.681066],[-71.642811,-35.685182],[-71.647311,-35.688005],[-71.652435,-35.686711],[-71.65306,-35.682595],[-71.648561,-35.679773],[-71.649186,-35.675656],[-71.65431,-35.674362],[-71.65881,-35.677185],[-71.658185,-35.681301],[-71.662685,-35.684124]],[[-71.681936,-35.687178],[-71.681312,-35.691295],[-71.685813,-35.694116],[-71.690939,-35.692821],[-71.691563,-35.688705],[-71.687062,-35.685883],[-71.681936,-35.687178]],[[-71.696689,-35.687409],[-71.701191,-35.69023],[-71.706317,-35.688934],[-71.706941,-35.684818],[-71.70244,-35.681997],[-71.697314,-35.683292],[-71.696689,-35.687409]],[[-71.691197,-35.756056],[-71.6957,-35.758875],[-71.700827,-35.757582],[-71.701452,-35.75347],[-71.70658,-35.752177],[-71.707204,-35.748064],[-71.702701,-35.745245],[-71.697574,-35.746539],[-71.696949,-35.750651],[-71.691822,-35.751944],[-71.691197,-35.756056]],[[-71.704937,-35.665526],[-71.710063,-35.664229],[-71.710687,-35.66011],[-71.706186,-35.657288],[-71.70106,-35.658585],[-71.700436,-35.662704],[-71.704937,-35.665526]],[[-71.717818,-35.678107],[-71.712692,-35.679404],[-71.712068,-35.683521],[-71.71657,-35.686342],[-71.721696,-35.685045],[-71.722321,-35.680928],[-71.717818,-35.678107]],[[-71.683186,-35.678945],[-71.687687,-35.681767],[-71.692812,-35.680471],[-71.693437,-35.676354],[-71.688936,-35.673532],[-71.68381,-35.674828],[-71.683186,-35.678945]],[[-71.744563,-35.631717],[-71.745187,-35.627596],[-71.740684,-35.624774],[-71.735559,-35.626074],[-71.734935,-35.630195],[-71.739437,-35.633017],[-71.744563,-35.631717]]]},"properties":{"comuna":"Villa Alegre","mancha_id":"07407-88b2dd0241fffff","clase":"Medio","nivel_medio":1.871,"nivel_medio_min":1.504,"nivel_medio_max":2.439,"pct_alto":13.3,"n_hexagonos":210,"area_ha":11744.52}},{"type":"Feature","geometry":{"type":"Polygon","coordinates":[[[-71.734935,-35.630195],[-71.735559,-35.626074],[-71.740684,-35.624774],[-71.745187,-35.627596],[-71.744563,-35.631717],[-71.739437,-35.633017],[-71.734935,-35.630195]]]},"properties":{"comuna":"Villa Alegre","mancha_id":"07407-88b2ddc68bfffff","clase":"Alto","nivel_medio":2.798,"nivel_medio_min":2.798,"nivel_medio_max":2.798,"pct_alto":66.1,"n_hexagonos":1,"area_ha":61.26}},{"type":"Feature","geometry":{"type":"Polygon","coordinates":[[[-71.669421,-35.626975],[-71.666308,-35.627763],[-71.665645,-35.627347],[-71.66691,-35.6271],[-71.6674,-35.62708],[-71.66767,-35.62707],[-71.66836,-35.62705],[-71.66933,-35.62698],[-71.669421,-35.626975]]]},"properties":{"comuna":"Villa Alegre","mancha_id":"07407-88b2dd899dfffff","clase":"Alto","nivel_medio":2.653,"nivel_medio_min":2.653,"nivel_medio_max":2.653,"pct_alto":54.0,"n_hexagonos":1,"area_ha":1.12}},{"type":"Feature","geometry":{"type":"Polygon","coordinates":[[[-71.630061,-35.704227],[-71.629436,-35.708341],[-71.633935,-35.711163],[-71.633538,-35.713772],[-71.63246,-35.7133],[-71.6313,-35.71233],[-71.63023,-35.71118],[-71.6298,-35.71031],[-71.62922,-35.70919],[-71.629137,-35.708416],[-71.62909,-35.70798],[-71.62891,-35.7064],[-71.628287,-35.704792],[-71.626879,-35.702422],[-71.626697,-35.702116],[-71.630061,-35.704227]]]},"properties":{"comuna":"Villa Alegre","mancha_id":"07407-88b2dd12a1fffff","clase":"Alto","nivel_medio":2.71,"nivel_medio_min":2.674,"nivel_medio_max":2.729,"pct_alto":71.5,"n_hexagonos":2,"area_ha":18.1}},{"type":"Feature","geometry":{"type":"Polygon","coordinates":[[[-71.649433,-35.738901],[-71.648808,-35.743013],[-71.645925,-35.743739],[-71.64587,-35.74372],[-71.64517,-35.74337],[-71.64441,-35.74287],[-71.64383,-35.74221],[-71.64342,-35.74168],[-71.64276,-35.74101],[-71.64221,-35.74042],[-71.64201,-35.73986],[-71.642,-35.73945],[-71.64214,-35.73893],[-71.64247,-35.73849],[-71.64303,-35.73803],[-71.64396,-35.73736],[-71.64436,-35.73671],[-71.6444,-35.73625],[-71.644373,-35.736221],[-71.64366,-35.73545],[-71.64301,-35.73484],[-71.64206,-35.73423],[-71.64123,-35.7338],[-71.64057,-35.73317],[-71.6402,-35.73216],[-71.63963,-35.73101],[-71.639771,-35.729471],[-71.641058,-35.729146],[-71.645558,-35.731967],[-71.644933,-35.73608],[-71.649433,-35.738901]]]},"properties":{"comuna":"Villa Alegre","mancha_id":"07407-88b2dd10e3fffff","clase":"Alto","nivel_medio":2.89,"nivel_medio_min":2.722,"nivel_medio_max":2.996,"pct_alto":85.1,"n_hexagonos":2,"area_ha":61.17}},{"type":"Feature","geometry":{"type":"Polygon","coordinates":[[[-71.63907,-35.754922],[-71.641806,-35.756637],[-71.641379,-35.759442],[-71.64126,-35.75937],[-71.64108,-35.7592],[-71.64043,-35.75886],[-71.63919,-35.75845],[-71.63773,-35.75828],[-71.63741,-35.75838],[-71.63681,-35.7582],[-71.63673,-35.7579],[-71.63715,-35.75727],[-71.63854,-35.75658],[-71.63883,-35.75593],[-71.63912,-35.75514],[-71.63907,-35.754922]]]},"properties":{"comuna":"Villa Alegre","mancha_id":"07407-88b2dd10bdfffff","clase":"Alto","nivel_medio":2.837,"nivel_medio_min":2.837,"nivel_medio_max":2.837,"pct_alto":84.4,"n_hexagonos":1,"area_ha":11.57}},{"type":"Feature","geometry":{"type":"Polygon","coordinates":[[[-71.655309,-35.765097],[-71.654684,-35.769208],[-71.653728,-35.769448],[-71.6535,-35.76897],[-71.65263,-35.76789],[-71.65157,-35.76606],[-71.65093,-35.76513],[-71.65047,-35.76475],[-71.64983,-35.76404],[-71.64831,-35.76352],[-71.647541,-35.7631],[-71.650808,-35.762277],[-71.655309,-35.765097]]]},"properties":{"comuna":"Villa Alegre","mancha_id":"07407-88b2dd0249fffff","clase":"Alto","nivel_medio":2.508,"nivel_medio_min":2.508,"nivel_medio_max":2.508,"pct_alto":50.8,"n_hexagonos":1,"area_ha":21.86}}],"bbox":[-71.77365,-35.77901,-71.57183,-35.60922]}