{"type":"FeatureCollection","features":[{"type":"Feature","geometry":{"type":"Polygon","coordinates":[[[-73.037398,-36.799003],[-73.035655,-36.803408],[-73.030432,-36.804732],[-73.026951,-36.801653],[-73.028694,-36.797249],[-73.033917,-36.795924],[-73.037398,-36.799003]]]},"properties":{"comuna":"Concepción","mancha_id":"08101-88b2d869d9fffff","clase":"Muy Bajo","nivel_medio":0.455,"nivel_medio_min":0.455,"nivel_medio_max":0.455,"pct_alto":11.2,"n_hexagonos":1,"area_ha":61.49}},{"type":"Feature","geometry":{"type":"Polygon","coordinates":[[[-73.054809,-36.8144],[-73.058293,-36.81748],[-73.063519,-36.816154],[-73.06526,-36.811748],[-73.070486,-36.810422],[-73.072227,-36.806016],[-73.07661,-36.804903],[-73.076771,-36.805015],[-73.077166,-36.80528],[-73.077688,-36.805603],[-73.078132,-36.805922],[-73.078618,-36.806243],[-73.0787,-36.80629],[-73.079017,-36.806505],[-73.07989,-36.807153],[-73.080164,-36.807417],[-73.08057,-36.807919],[-73.080759,-36.80822],[-73.080787,-36.808265],[-73.081013,-36.80876],[-73.081114,-36.809026],[-73.081198,-36.809308],[-73.081263,-36.809654],[-73.081309,-36.810293],[-73.08133,-36.811021],[-73.081366,-36.811759],[-73.081425,-36.812151],[-73.081465,-36.812421],[-73.081607,-36.81291],[-73.081745,-36.813275],[-73.081952,-36.813711],[-73.082288,-36.814186],[-73.082624,-36.814582],[-73.082854,-36.814845],[-73.082926,-36.814922],[-73.083124,-36.815134],[-73.08313,-36.81514],[-73.083276,-36.815314],[-73.083359,-36.815412],[-73.083855,-36.815918],[-73.084514,-36.816589],[-73.0852,-36.817289],[-73.085444,-36.817538],[-73.08545,-36.817544],[-73.08582,-36.817921],[-73.085986,-36.818091],[-73.086112,-36.818218],[-73.087415,-36.819546],[-73.089328,-36.821497],[-73.08443,-36.82274],[-73.082689,-36.827147],[-73.084294,-36.828565],[-73.083601,-36.829038],[-73.080435,-36.831223],[-73.076734,-36.833777],[-73.07357,-36.83596],[-73.072147,-36.838071],[-73.071095,-36.839632],[-73.070992,-36.839785],[-73.070544,-36.840198],[-73.067309,-36.843181],[-73.064896,-36.847101],[-73.06345,-36.84945],[-73.062104,-36.852194],[-73.059867,-36.856755],[-73.057004,-36.856423],[-73.058294,-36.85316],[-73.054808,-36.850078],[-73.056551,-36.845672],[-73.053066,-36.84259],[-73.054808,-36.838184],[-73.060036,-36.836859],[-73.061778,-36.832452],[-73.058293,-36.829372],[-73.053066,-36.830697],[-73.049582,-36.827617],[-73.044356,-36.828942],[-73.040873,-36.825862],[-73.042616,-36.821456],[-73.039133,-36.818376],[-73.033908,-36.819701],[-73.030426,-36.816621],[-73.03217,-36.812216],[-73.037394,-36.810892],[-73.039137,-36.806487],[-73.044361,-36.805162],[-73.046103,-36.800757],[-73.051327,-36.799431],[-73.054809,-36.80251],[-73.053068,-36.806916],[-73.056551,-36.809995],[-73.054809,-36.8144]],[[-73.067004,-36.819234],[-73.065262,-36.82364],[-73.068748,-36.82672],[-73.073975,-36.825394],[-73.075716,-36.820987],[-73.080943,-36.81966],[-73.082683,-36.815254],[-73.079197,-36.812174],[-73.073971,-36.813501],[-73.07223,-36.817907],[-73.067004,-36.819234]]]},"properties":{"comuna":"Concepción","mancha_id":"08101-88b2d86981fffff","clase":"Muy Bajo","nivel_medio":0.18,"nivel_medio_min":0.0,"nivel_medio_max":0.496,"pct_alto":4.9,"n_hexagonos":23,"area_ha":1177.29}},{"type":"Feature","geometry":{"type":"Polygon","coordinates":[[[-73.025202,-36.817945],[-73.023458,-36.822349],[-73.018233,-36.823673],[-73.014753,-36.820593],[-73.016497,-36.816189],[-73.021721,-36.814865],[-73.025202,-36.817945]]]},"properties":{"comuna":"Concepción","mancha_id":"08101-88b2d868a5fffff","clase":"Muy Bajo","nivel_medio":0.412,"nivel_medio_min":0.412,"nivel_medio_max":0.412,"pct_alto":10.7,"n_hexagonos":1,"area_ha":61.49}},{"type":"Feature","geometry":{"type":"Polygon","coordinates":[[[-73.051328,-36.787543],[-73.049586,-36.791948],[-73.044363,-36.793274],[-73.040882,-36.790195],[-73.042624,-36.785791],[-73.039144,-36.782713],[-73.040885,-36.778309],[-73.046107,-36.776983],[-73.049588,-36.780061],[-73.047846,-36.784465],[-73.051328,-36.787543]]]},"properties":{"comuna":"Concepción","mancha_id":"08101-88b2d86835fffff","clase":"Muy Bajo","nivel_medio":0.399,"nivel_medio_min":0.387,"nivel_medio_max":0.41,"pct_alto":11.9,"n_hexagonos":2,"area_ha":122.98}},{"type":"Feature","geometry":{"type":"Polygon","coordinates":[[[-73.054808,-36.850078],[-73.058294,-36.85316],[-73.057004,-36.856423],[-73.049483,-36.855549],[-73.047997,-36.855462],[-73.047973,-36.855463],[-73.04958,-36.851403],[-73.054808,-36.850078]]]},"properties":{"comuna":"Concepción","mancha_id":"08101-88b2dbd35dfffff","clase":"Bajo","nivel_medio":0.832,"nivel_medio_min":0.832,"nivel_medio_max":0.832,"pct_alto":23.0,"n_hexagonos":1,"area_ha":44.02}},{"type":"Feature","geometry":{"type":"Polygon","coordinates":[[[-73.082689,-36.827147],[-73.08443,-36.82274],[-73.089328,-36.821497],[-73.091463,-36.823673],[-73.089576,-36.824961],[-73.084294,-36.828565],[-73.082689,-36.827147]]]},"properties":{"comuna":"Concepción","mancha_id":"08101-88b2daa6d3fffff","clase":"Bajo","nivel_medio":0.663,"nivel_medio_min":0.663,"nivel_medio_max":0.663,"pct_alto":10.9,"n_hexagonos":1,"area_ha":31.66}},{"type":"Feature","geometry":{"type":"Polygon","coordinates":[[[-72.877088,-36.894954],[-72.875334,-36.899354],[-72.870108,-36.900669],[-72.866638,-36.897583],[-72.868393,-36.893183],[-72.873618,-36.891869],[-72.877088,-36.894954]]]},"properties":{"comuna":"Concepción","mancha_id":"08101-88b2d86d91fffff","clase":"Bajo","nivel_medio":1.35,"nivel_medio_min":1.35,"nivel_medio_max":1.35,"pct_alto":10.8,"n_hexagonos":1,"area_ha":61.38}},{"type":"Feature","geometry":{"type":"Polygon","coordinates":[[[-72.864964,-36.878214],[-72.863209,-36.882613],[-72.859376,-36.883578],[-72.85951,-36.88289],[-72.8599,-36.88228],[-72.860229,-36.881858],[-72.86063,-36.88158],[-72.86098,-36.881214],[-72.86112,-36.88082],[-72.861088,-36.880463],[-72.86083,-36.8798],[-72.86075,-36.87934],[-72.860819,-36.878935],[-72.86108,-36.8784],[-72.86115,-36.87739],[-72.86139,-36.87645],[-72.86147,-36.87595],[-72.861446,-36.875142],[-72.861495,-36.875129],[-72.864964,-36.878214]]]},"properties":{"comuna":"Concepción","mancha_id":"08101-88b2d86cadfffff","clase":"Bajo","nivel_medio":1.309,"nivel_medio_min":1.309,"nivel_medio_max":1.309,"pct_alto":1.8,"n_hexagonos":1,"area_ha":22.2}},{"type":"Feature","geometry":{"type":"Polygon","coordinates":[[[-72.965371,-36.769744],[-72.964359,-36.77],[-72.96213,-36.768024],[-72.962337,-36.767987],[-72.963504,-36.767911],[-72.964803,-36.768368],[-72.965592,-36.769244],[-72.965371,-36.769744]]]},"properties":{"comuna":"Concepción","mancha_id":"08101-88b2d86a95fffff","clase":"Bajo","nivel_medio":1.361,"nivel_medio_min":1.361,"nivel_medio_max":1.361,"pct_alto":0.3,"n_hexagonos":1,"area_ha":3.69}},{"type":"Feature","geometry":{"type":"Polygon","coordinates":[[[-73.082683,-36.815254],[-73.080943,-36.81966],[-73.075716,-36.820987],[-73.07223,-36.817907],[-73.073971,-36.813501],[-73.079197,-36.812174],[-73.082683,-36.815254]]]},"properties":{"comuna":"Concepción","mancha_id":"08101-88b2d869e7fffff","clase":"Bajo","nivel_medio":0.57,"nivel_medio_min":0.57,"nivel_medio_max":0.57,"pct_alto":10.3,"n_hexagonos":1,"area_ha":61.55}},{"type":"Feature","geometry":{"type":"Polygon","coordinates":[[[-73.061778,-36.832452],[-73.060036,-36.836859],[-73.054808,-36.838184],[-73.051324,-36.835103],[-73.053066,-36.830697],[-73.058293,-36.829372],[-73.061778,-36.832452]]]},"properties":{"comuna":"Concepción","mancha_id":"08101-88b2d869bdfffff","clase":"Bajo","nivel_medio":0.801,"nivel_medio_min":0.801,"nivel_medio_max":0.801,"pct_alto":22.0,"n_hexagonos":1,"area_ha":61.54}},{"type":"Feature","geometry":{"type":"Polygon","coordinates":[[[-73.044356,-36.828942],[-73.042613,-36.833347],[-73.037386,-36.834672],[-73.033903,-36.831591],[-73.035647,-36.827186],[-73.032165,-36.824106],[-73.033908,-36.819701],[-73.039133,-36.818376],[-73.042616,-36.821456],[-73.040873,-36.825862],[-73.044356,-36.828942]]]},"properties":{"comuna":"Concepción","mancha_id":"08101-88b2d86995fffff","clase":"Bajo","nivel_medio":0.869,"nivel_medio_min":0.585,"nivel_medio_max":1.153,"pct_alto":24.5,"n_hexagonos":2,"area_ha":123.03}},{"type":"Feature","geometry":{"type":"Polygon","coordinates":[[[-73.006049,-36.818836],[-73.009529,-36.821916],[-73.014753,-36.820593],[-73.018233,-36.823673],[-73.016489,-36.828077],[-73.011264,-36.829401],[-73.009519,-36.833805],[-73.004293,-36.835128],[-73.000814,-36.832046],[-73.002559,-36.827643],[-72.99908,-36.824562],[-72.993856,-36.825884],[-72.990378,-36.822804],[-72.992124,-36.818401],[-72.997347,-36.817078],[-73.000826,-36.820159],[-73.006049,-36.818836]]]},"properties":{"comuna":"Concepción","mancha_id":"08101-88b2d868a3fffff","clase":"Bajo","nivel_medio":1.044,"nivel_medio_min":0.614,"nivel_medio_max":1.409,"pct_alto":29.9,"n_hexagonos":4,"area_ha":245.9}},{"type":"Feature","geometry":{"type":"Polygon","coordinates":[[[-73.018257,-36.788013],[-73.014779,-36.784934],[-73.015436,-36.783275],[-73.015839,-36.783279],[-73.015888,-36.783215],[-73.01592,-36.783025],[-73.015898,-36.782825],[-73.015955,-36.782692],[-73.016048,-36.782603],[-73.016178,-36.782509],[-73.016353,-36.782452],[-73.016576,-36.782419],[-73.016921,-36.782406],[-73.017251,-36.782423],[-73.017424,-36.782503],[-73.01759,-36.782633],[-73.017717,-36.782836],[-73.017753,-36.783014],[-73.01778,-36.783202],[-73.017769,-36.783671],[-73.017752,-36.784081],[-73.017862,-36.784452],[-73.018135,-36.784697],[-73.018708,-36.784697],[-73.019308,-36.784861],[-73.019907,-36.785215],[-73.020235,-36.785461],[-73.020562,-36.785679],[-73.021162,-36.785897],[-73.021789,-36.78617],[-73.02205,-36.786327],[-73.022343,-36.786481],[-73.022631,-36.786629],[-73.022866,-36.786748],[-73.023058,-36.786795],[-73.018257,-36.788013]]]},"properties":{"comuna":"Concepción","mancha_id":"08101-88b2d86817fffff","clase":"Bajo","nivel_medio":1.061,"nivel_medio_min":1.061,"nivel_medio_max":1.061,"pct_alto":31.4,"n_hexagonos":1,"area_ha":19.64}},{"type":"Feature","geometry":{"type":"Polygon","coordinates":[[[-73.046107,-36.776983],[-73.040885,-36.778309],[-73.040037,-36.777558],[-73.040073,-36.777529],[-73.040205,-36.777341],[-73.04031,-36.777189],[-73.040544,-36.776935],[-73.040745,-36.776764],[-73.040881,-36.776671],[-73.041007,-36.776558],[-73.041162,-36.77647],[-73.041288,-36.776445],[-73.041413,-36.776468],[-73.041575,-36.776491],[-73.041656,-36.776455],[-73.04177,-36.77637],[-73.041876,-36.776274],[-73.042065,-36.776106],[-73.042265,-36.775913],[-73.042389,-36.775766],[-73.042454,-36.775591],[-73.042436,-36.775468],[-73.042354,-36.775208],[-73.042231,-36.774942],[-73.042177,-36.774785],[-73.042165,-36.774623],[-73.042193,-36.774459],[-73.04227,-36.77433],[-73.042421,-36.774211],[-73.042598,-36.774087],[-73.044635,-36.774669],[-73.0462,-36.77498],[-73.04644,-36.77515],[-73.046793,-36.775247],[-73.052439,-36.776793],[-73.05286,-36.77691],[-73.05527,-36.777571],[-73.05481,-36.778735],[-73.058291,-36.781813],[-73.058583,-36.781738],[-73.058605,-36.781804],[-73.05878,-36.782354],[-73.059038,-36.782985],[-73.059383,-36.78399],[-73.059527,-36.784486],[-73.05977,-36.785252],[-73.059982,-36.785919],[-73.060236,-36.786633],[-73.060616,-36.787563],[-73.060956,-36.788313],[-73.061069,-36.788509],[-73.061314,-36.78897],[-73.061326,-36.788992],[-73.06164,-36.78953],[-73.061804,-36.789807],[-73.062133,-36.79028],[-73.062524,-36.790936],[-73.062698,-36.791199],[-73.063528,-36.792267],[-73.063917,-36.792786],[-73.064005,-36.792907],[-73.06414,-36.793072],[-73.06437,-36.793353],[-73.064582,-36.793625],[-73.064864,-36.793916],[-73.065245,-36.794428],[-73.065657,-36.794975],[-73.066118,-36.795537],[-73.066151,-36.795578],[-73.066212,-36.795652],[-73.061775,-36.796779],[-73.060034,-36.801184],[-73.063517,-36.804263],[-73.068742,-36.802937],[-73.072227,-36.806016],[-73.070486,-36.810422],[-73.06526,-36.811748],[-73.063519,-36.816154],[-73.058293,-36.81748],[-73.054809,-36.8144],[-73.056551,-36.809995],[-73.053068,-36.806916],[-73.054809,-36.80251],[-73.051327,-36.799431],[-73.046103,-36.800757],[-73.044361,-36.805162],[-73.039137,-36.806487],[-73.037394,-36.810892],[-73.03217,-36.812216],[-73.030426,-36.816621],[-73.025202,-36.817945],[-73.021721,-36.814865],[-73.023465,-36.810461],[-73.019985,-36.807381],[-73.021728,-36.802977],[-73.026951,-36.801653],[-73.030432,-36.804732],[-73.035655,-36.803408],[-73.037398,-36.799003],[-73.033917,-36.795924],[-73.03566,-36.79152],[-73.03218,-36.788442],[-73.033922,-36.784038],[-73.039144,-36.782713],[-73.042624,-36.785791],[-73.040882,-36.790195],[-73.044363,-36.793274],[-73.049586,-36.791948],[-73.051328,-36.787543],[-73.047846,-36.784465],[-73.049588,-36.780061],[-73.046107,-36.776983]]]},"properties":{"comuna":"Concepción","mancha_id":"08101-88b2d86807fffff","clase":"Bajo","nivel_medio":0.899,"nivel_medio_min":0.502,"nivel_medio_max":1.292,"pct_alto":23.6,"n_hexagonos":17,"area_ha":885.74}},{"type":"Feature","geometry":{"type":"Polygon","coordinates":[[[-73.021699,-36.850535],[-73.025182,-36.853617],[-73.02401,-36.856578],[-73.023944,-36.856658],[-73.023551,-36.85723],[-73.023515,-36.857802],[-73.02352,-36.857815],[-73.023437,-36.858023],[-73.018209,-36.859346],[-73.014727,-36.856263],[-73.016472,-36.851858],[-73.021699,-36.850535]]]},"properties":{"comuna":"Concepción","mancha_id":"08101-88b2dbd263fffff","clase":"Medio","nivel_medio":2.343,"nivel_medio_min":2.343,"nivel_medio_max":2.343,"pct_alto":49.2,"n_hexagonos":1,"area_ha":61.39}},{"type":"Feature","geometry":{"type":"Polygon","coordinates":[[[-72.851266,-36.818363],[-72.849512,-36.82276],[-72.846236,-36.823585],[-72.84713,-36.815451],[-72.847802,-36.815281],[-72.851266,-36.818363]]]},"properties":{"comuna":"Concepción","mancha_id":"08101-88b2d86ee7fffff","clase":"Medio","nivel_medio":2.452,"nivel_medio_min":2.452,"nivel_medio_max":2.452,"pct_alto":65.0,"n_hexagonos":1,"area_ha":25.68}},{"type":"Feature","geometry":{"type":"Polygon","coordinates":[[[-72.882424,-36.857986],[-72.885893,-36.86107],[-72.891116,-36.859754],[-72.892868,-36.855354],[-72.89809,-36.854037],[-72.901561,-36.857121],[-72.906784,-36.855804],[-72.910256,-36.858887],[-72.908504,-36.863288],[-72.911977,-36.866371],[-72.910225,-36.870772],[-72.913698,-36.873856],[-72.918923,-36.872539],[-72.920674,-36.868138],[-72.925899,-36.86682],[-72.929373,-36.869903],[-72.927623,-36.874305],[-72.931098,-36.877389],[-72.929347,-36.881791],[-72.92412,-36.883109],[-72.922369,-36.887511],[-72.925844,-36.890596],[-72.924614,-36.893687],[-72.923909,-36.894321],[-72.923239,-36.894724],[-72.922756,-36.894831],[-72.922058,-36.89475],[-72.921119,-36.894563],[-72.920314,-36.894697],[-72.919724,-36.894804],[-72.919375,-36.895314],[-72.918758,-36.896012],[-72.91863,-36.896106],[-72.918248,-36.896387],[-72.917362,-36.897031],[-72.916048,-36.897917],[-72.915055,-36.898534],[-72.914438,-36.899258],[-72.91366,-36.900144],[-72.912747,-36.900949],[-72.912211,-36.90178],[-72.912092,-36.901982],[-72.911886,-36.902034],[-72.908411,-36.898948],[-72.903184,-36.900264],[-72.901431,-36.904666],[-72.903575,-36.906571],[-72.903437,-36.90661],[-72.902605,-36.906798],[-72.902175,-36.906771],[-72.901558,-36.906583],[-72.900673,-36.906369],[-72.900753,-36.907013],[-72.900753,-36.907549],[-72.9007,-36.907871],[-72.900431,-36.908113],[-72.899653,-36.908784],[-72.898687,-36.909669],[-72.898446,-36.909964],[-72.898446,-36.910286],[-72.898446,-36.910581],[-72.898741,-36.911333],[-72.899117,-36.911977],[-72.899492,-36.912755],[-72.899748,-36.91301],[-72.899868,-36.91313],[-72.900726,-36.91356],[-72.901585,-36.914123],[-72.901317,-36.914687],[-72.901183,-36.91525],[-72.901209,-36.915921],[-72.901317,-36.916645],[-72.900753,-36.916592],[-72.900029,-36.916699],[-72.899492,-36.91678],[-72.898902,-36.917128],[-72.898312,-36.91745],[-72.89799,-36.91745],[-72.897399,-36.917585],[-72.89705,-36.917772],[-72.896568,-36.918041],[-72.896433,-36.918105],[-72.896058,-36.918282],[-72.895548,-36.918524],[-72.895092,-36.918631],[-72.894609,-36.918658],[-72.89401,-36.91855],[-72.89351,-36.9194],[-72.89359,-36.91986],[-72.89354,-36.92023],[-72.892681,-36.920812],[-72.89208,-36.92116],[-72.891651,-36.921435],[-72.89111,-36.92191],[-72.89082,-36.92277],[-72.89081,-36.9236],[-72.89097,-36.92451],[-72.89044,-36.924701],[-72.889187,-36.923588],[-72.883959,-36.924903],[-72.883401,-36.926301],[-72.88316,-36.92626],[-72.88267,-36.92581],[-72.88236,-36.92486],[-72.88227,-36.92445],[-72.88196,-36.92398],[-72.88146,-36.92344],[-72.880996,-36.922971],[-72.88053,-36.9225],[-72.879872,-36.92197],[-72.880486,-36.921816],[-72.88224,-36.917414],[-72.878768,-36.914328],[-72.873541,-36.915642],[-72.871785,-36.920043],[-72.867877,-36.921025],[-72.86712,-36.92077],[-72.86644,-36.92076],[-72.86598,-36.92066],[-72.86557,-36.9204],[-72.86516,-36.92009],[-72.865112,-36.920071],[-72.863087,-36.91827],[-72.860727,-36.918863],[-72.86014,-36.91839],[-72.85957,-36.91792],[-72.859088,-36.917504],[-72.85868,-36.91715],[-72.85794,-36.9169],[-72.85762,-36.91683],[-72.85643,-36.91682],[-72.85543,-36.91703],[-72.855128,-36.917153],[-72.85439,-36.916496],[-72.856146,-36.912097],[-72.852676,-36.90901],[-72.847451,-36.910323],[-72.847085,-36.911239],[-72.8471,-36.910456],[-72.847199,-36.910099],[-72.847477,-36.90909],[-72.847818,-36.907854],[-72.847006,-36.906707],[-72.847024,-36.906535],[-72.84724,-36.906399],[-72.84771,-36.906183],[-72.847886,-36.90562],[-72.847949,-36.905164],[-72.848382,-36.904681],[-72.848685,-36.904514],[-72.84933,-36.904408],[-72.849661,-36.904268],[-72.85001,-36.904386],[-72.850354,-36.904403],[-72.85133,-36.90378],[-72.85197,-36.90298],[-72.852148,-36.902578],[-72.85256,-36.90165],[-72.85182,-36.90115],[-72.851262,-36.900776],[-72.8509,-36.900534],[-72.850603,-36.900354],[-72.850165,-36.900161],[-72.84949,-36.89988],[-72.84879,-36.8997],[-72.84895,-36.89958],[-72.84901,-36.89929],[-72.848831,-36.899085],[-72.84869,-36.898951],[-72.848494,-36.898796],[-72.84838,-36.89862],[-72.84837,-36.89835],[-72.84845,-36.89807],[-72.84883,-36.897554],[-72.84923,-36.89701],[-72.850033,-36.896921],[-72.85049,-36.896875],[-72.850946,-36.896748],[-72.851582,-36.896534],[-72.851904,-36.8964],[-72.852207,-36.896273],[-72.852933,-36.89597],[-72.854042,-36.895415],[-72.855019,-36.894938],[-72.855515,-36.894713],[-72.85589,-36.89426],[-72.856023,-36.893836],[-72.85617,-36.89337],[-72.856233,-36.892769],[-72.8563,-36.89213],[-72.856228,-36.891777],[-72.85613,-36.8913],[-72.85585,-36.89091],[-72.855592,-36.890443],[-72.85548,-36.89002],[-72.85557,-36.88971],[-72.85601,-36.88906],[-72.856449,-36.888521],[-72.85662,-36.88831],[-72.85728,-36.88763],[-72.858,-36.88737],[-72.858358,-36.887118],[-72.858629,-36.886926],[-72.85876,-36.88663],[-72.8588,-36.88615],[-72.8587,-36.88552],[-72.85872,-36.88506],[-72.859,-36.88441],[-72.85935,-36.88371],[-72.859376,-36.883578],[-72.863209,-36.882613],[-72.864964,-36.878214],[-72.861495,-36.875129],[-72.861446,-36.875142],[-72.86144,-36.87494],[-72.86174,-36.87373],[-72.86193,-36.87334],[-72.86229,-36.87301],[-72.862351,-36.872984],[-72.863206,-36.872614],[-72.8635,-36.87239],[-72.86445,-36.87111],[-72.865119,-36.870639],[-72.86544,-36.87029],[-72.865491,-36.870166],[-72.868472,-36.869415],[-72.870226,-36.865016],[-72.875448,-36.863701],[-72.877202,-36.859302],[-72.882424,-36.857986]],[[-72.88414,-36.86547],[-72.878917,-36.866785],[-72.877164,-36.871185],[-72.880634,-36.874269],[-72.885857,-36.872953],[-72.88761,-36.868554],[-72.88414,-36.86547]],[[-72.866638,-36.897583],[-72.870108,-36.900669],[-72.875334,-36.899354],[-72.877088,-36.894954],[-72.873618,-36.891869],[-72.868393,-36.893183],[-72.866638,-36.897583]]]},"properties":{"comuna":"Concepción","mancha_id":"08101-88b2d86c37fffff","clase":"Medio","nivel_medio":2.138,"nivel_medio_min":1.62,"nivel_medio_max":2.489,"pct_alto":30.2,"n_hexagonos":60,"area_ha":3228.85}},{"type":"Feature","geometry":{"type":"Polygon","coordinates":[[[-73.060034,-36.801184],[-73.061775,-36.796779],[-73.066212,-36.795652],[-73.066432,-36.795924],[-73.066573,-36.796095],[-73.067493,-36.797288],[-73.068071,-36.798023],[-73.068264,-36.798285],[-73.068654,-36.798787],[-73.069021,-36.799254],[-73.06936,-36.7996],[-73.069773,-36.800002],[-73.069859,-36.800076],[-73.069869,-36.800084],[-73.070212,-36.800374],[-73.070727,-36.800801],[-73.071223,-36.801158],[-73.072095,-36.801769],[-73.072748,-36.802229],[-73.073467,-36.802737],[-73.07426,-36.803276],[-73.074796,-36.803656],[-73.075885,-36.8044],[-73.076277,-36.804674],[-73.07654,-36.804854],[-73.07661,-36.804903],[-73.072227,-36.806016],[-73.068742,-36.802937],[-73.063517,-36.804263],[-73.060034,-36.801184]]]},"properties":{"comuna":"Concepción","mancha_id":"08101-88b2d869c5fffff","clase":"Medio","nivel_medio":1.963,"nivel_medio_min":1.96,"nivel_medio_max":1.972,"pct_alto":38.9,"n_hexagonos":2,"area_ha":75.87}},{"type":"Feature","geometry":{"type":"Polygon","coordinates":[[[-73.053066,-36.830697],[-73.051324,-36.835103],[-73.046097,-36.836428],[-73.042613,-36.833347],[-73.044356,-36.828942],[-73.049582,-36.827617],[-73.053066,-36.830697]]]},"properties":{"comuna":"Concepción","mancha_id":"08101-88b2d869b9fffff","clase":"Medio","nivel_medio":1.546,"nivel_medio_min":1.546,"nivel_medio_max":1.546,"pct_alto":41.7,"n_hexagonos":1,"area_ha":61.53}},{"type":"Feature","geometry":{"type":"Polygon","coordinates":[[[-73.056551,-36.845672],[-73.054808,-36.850078],[-73.04958,-36.851403],[-73.047973,-36.855463],[-73.047645,-36.855476],[-73.047155,-36.855361],[-73.046532,-36.855255],[-73.046364,-36.855268],[-73.040285,-36.854628],[-73.04024,-36.85466],[-73.04004,-36.85477],[-73.03997,-36.854801],[-73.039122,-36.854052],[-73.040866,-36.849646],[-73.046094,-36.848321],[-73.047838,-36.843915],[-73.053066,-36.84259],[-73.056551,-36.845672]]]},"properties":{"comuna":"Concepción","mancha_id":"08101-88b2d869b7fffff","clase":"Medio","nivel_medio":1.91,"nivel_medio_min":1.503,"nivel_medio_max":2.397,"pct_alto":52.1,"n_hexagonos":2,"area_ha":113.06}},{"type":"Feature","geometry":{"type":"Polygon","coordinates":[[[-73.075716,-36.820987],[-73.073975,-36.825394],[-73.068748,-36.82672],[-73.065262,-36.82364],[-73.067004,-36.819234],[-73.07223,-36.817907],[-73.075716,-36.820987]]]},"properties":{"comuna":"Concepción","mancha_id":"08101-88b2d869a9fffff","clase":"Medio","nivel_medio":1.633,"nivel_medio_min":1.633,"nivel_medio_max":1.633,"pct_alto":41.4,"n_hexagonos":1,"area_ha":61.55}},{"type":"Feature","geometry":{"type":"Polygon","coordinates":[[[-72.998594,-36.777862],[-72.998598,-36.777633],[-72.998851,-36.777721],[-72.998712,-36.778074],[-72.998594,-36.777862]]]},"properties":{"comuna":"Concepción","mancha_id":"08101-88b2d868c9fffff","clase":"Medio","nivel_medio":2.135,"nivel_medio_min":2.135,"nivel_medio_max":2.135,"pct_alto":20.0,"n_hexagonos":1,"area_ha":0.06}},{"type":"Feature","geometry":{"type":"Polygon","coordinates":[[[-73.002559,-36.827643],[-73.000814,-36.832046],[-73.004293,-36.835128],[-73.009519,-36.833805],[-73.011264,-36.829401],[-73.016489,-36.828077],[-73.018233,-36.823673],[-73.023458,-36.822349],[-73.026939,-36.82543],[-73.025195,-36.829834],[-73.01997,-36.831158],[-73.018225,-36.835563],[-73.012999,-36.836886],[-73.011254,-36.84129],[-73.006028,-36.842613],[-73.002548,-36.839531],[-72.997322,-36.840854],[-72.993843,-36.837772],[-72.995589,-36.833369],[-72.992111,-36.830288],[-72.993856,-36.825884],[-72.99908,-36.824562],[-73.002559,-36.827643]]]},"properties":{"comuna":"Concepción","mancha_id":"08101-88b2d868b5fffff","clase":"Medio","nivel_medio":2.102,"nivel_medio_min":1.591,"nivel_medio_max":2.303,"pct_alto":55.1,"n_hexagonos":5,"area_ha":307.43}},{"type":"Feature","geometry":{"type":"Polygon","coordinates":[[[-73.016497,-36.816189],[-73.014753,-36.820593],[-73.009529,-36.821916],[-73.006049,-36.818836],[-73.000826,-36.820159],[-72.997347,-36.817078],[-72.999092,-36.812675],[-73.004315,-36.811352],[-73.007794,-36.814432],[-73.013017,-36.813109],[-73.016497,-36.816189]]]},"properties":{"comuna":"Concepción","mancha_id":"08101-88b2d868a1fffff","clase":"Medio","nivel_medio":1.981,"nivel_medio_min":1.764,"nivel_medio_max":2.198,"pct_alto":52.9,"n_hexagonos":2,"area_ha":122.94}},{"type":"Feature","geometry":{"type":"Polygon","coordinates":[[[-73.03566,-36.79152],[-73.033917,-36.795924],[-73.028694,-36.797249],[-73.025215,-36.79417],[-73.019992,-36.795495],[-73.016514,-36.792416],[-73.018257,-36.788013],[-73.023058,-36.786795],[-73.023279,-36.786848],[-73.023432,-36.786874],[-73.02371,-36.786893],[-73.026958,-36.789767],[-73.03218,-36.788442],[-73.03566,-36.79152]]]},"properties":{"comuna":"Concepción","mancha_id":"08101-88b2d86833fffff","clase":"Medio","nivel_medio":2.228,"nivel_medio_min":2.133,"nivel_medio_max":2.324,"pct_alto":63.2,"n_hexagonos":2,"area_ha":122.88}},{"type":"Feature","geometry":{"type":"Polygon","coordinates":[[[-73.058291,-36.781813],[-73.05481,-36.778735],[-73.05527,-36.777571],[-73.056535,-36.777918],[-73.057703,-36.779666],[-73.057978,-36.780158],[-73.05825,-36.780769],[-73.058583,-36.781738],[-73.058291,-36.781813]]]},"properties":{"comuna":"Concepción","mancha_id":"08101-88b2d86821fffff","clase":"Medio","nivel_medio":2.06,"nivel_medio_min":2.06,"nivel_medio_max":2.06,"pct_alto":64.7,"n_hexagonos":1,"area_ha":6.01}},{"type":"Feature","geometry":{"type":"Polygon","coordinates":[[[-73.031826,-36.77708],[-73.031927,-36.777208],[-73.032043,-36.777354],[-73.032265,-36.777499],[-73.0325,-36.777573],[-73.032728,-36.777651],[-73.032968,-36.777754],[-73.033165,-36.777868],[-73.033402,-36.777976],[-73.033969,-36.778128],[-73.034483,-36.77821],[-73.034764,-36.778278],[-73.035175,-36.778399],[-73.035604,-36.778671],[-73.035928,-36.77884],[-73.036169,-36.779003],[-73.036416,-36.77916],[-73.036599,-36.779226],[-73.036776,-36.779295],[-73.037154,-36.779344],[-73.037389,-36.77935],[-73.037676,-36.77934],[-73.037823,-36.779335],[-73.037936,-36.779324],[-73.038167,-36.779216],[-73.038271,-36.779152],[-73.038345,-36.779048],[-73.038461,-36.778914],[-73.038539,-36.778812],[-73.038713,-36.77865],[-73.038918,-36.778443],[-73.039347,-36.778045],[-73.039657,-36.777791],[-73.039936,-36.777639],[-73.040037,-36.777558],[-73.040885,-36.778309],[-73.039144,-36.782713],[-73.033922,-36.784038],[-73.030442,-36.78096],[-73.028387,-36.781481],[-73.028378,-36.781468],[-73.028286,-36.781314],[-73.028226,-36.781148],[-73.0282,-36.780968],[-73.028197,-36.780824],[-73.02821,-36.780661],[-73.028216,-36.780526],[-73.028216,-36.780351],[-73.028214,-36.780262],[-73.028209,-36.780189],[-73.028198,-36.780067],[-73.028162,-36.779903],[-73.028123,-36.779822],[-73.028073,-36.779733],[-73.028009,-36.779642],[-73.027965,-36.77956],[-73.027905,-36.779489],[-73.027812,-36.779429],[-73.027619,-36.779305],[-73.027567,-36.779249],[-73.027492,-36.779118],[-73.027338,-36.778991],[-73.02727,-36.778859],[-73.027199,-36.778685],[-73.027138,-36.778486],[-73.027062,-36.778282],[-73.027003,-36.778141],[-73.026975,-36.778034],[-73.026955,-36.777876],[-73.027019,-36.777799],[-73.027144,-36.777612],[-73.027129,-36.777412],[-73.027118,-36.777206],[-73.027025,-36.776974],[-73.027,-36.776866],[-73.026967,-36.776617],[-73.027008,-36.776383],[-73.027047,-36.776265],[-73.027194,-36.7761],[-73.027341,-36.776025],[-73.027492,-36.775996],[-73.027707,-36.775999],[-73.027864,-36.776086],[-73.02798,-36.776171],[-73.028087,-36.776308],[-73.028377,-36.77668],[-73.028572,-36.776928],[-73.028788,-36.77707],[-73.028989,-36.777147],[-73.029268,-36.777201],[-73.029441,-36.77718],[-73.029575,-36.77713],[-73.029916,-36.776994],[-73.030074,-36.776814],[-73.030174,-36.776719],[-73.030294,-36.77664],[-73.030541,-36.776655],[-73.030902,-36.776706],[-73.031307,-36.776791],[-73.031565,-36.776889],[-73.031826,-36.77708]]]},"properties":{"comuna":"Concepción","mancha_id":"08101-88b2d86815fffff","clase":"Medio","nivel_medio":2.102,"nivel_medio_min":1.959,"nivel_medio_max":2.472,"pct_alto":58.6,"n_hexagonos":2,"area_ha":58.92}},{"type":"Feature","geometry":{"type":"Polygon","coordinates":[[[-73.014779,-36.784934],[-73.009558,-36.786258],[-73.007814,-36.790661],[-73.002593,-36.791984],[-73.000849,-36.796387],[-72.995627,-36.79771],[-72.992151,-36.794631],[-72.98693,-36.795953],[-72.983455,-36.792874],[-72.978234,-36.794196],[-72.976489,-36.798598],[-72.979964,-36.801678],[-72.985185,-36.800355],[-72.988661,-36.803435],[-72.986915,-36.807837],[-72.990392,-36.810918],[-72.988647,-36.81532],[-72.992124,-36.818401],[-72.990378,-36.822804],[-72.985155,-36.824126],[-72.981678,-36.821045],[-72.983424,-36.816642],[-72.979948,-36.813562],[-72.981694,-36.80916],[-72.978218,-36.80608],[-72.972996,-36.807401],[-72.969522,-36.804321],[-72.971268,-36.79992],[-72.967794,-36.79684],[-72.962574,-36.798162],[-72.960827,-36.802563],[-72.955607,-36.803884],[-72.952134,-36.800803],[-72.946914,-36.802124],[-72.945166,-36.806524],[-72.939947,-36.807844],[-72.938198,-36.812245],[-72.932978,-36.813564],[-72.929507,-36.810484],[-72.931256,-36.806084],[-72.927785,-36.803003],[-72.922566,-36.804323],[-72.919096,-36.801242],[-72.913878,-36.802561],[-72.912129,-36.80696],[-72.90691,-36.808278],[-72.90516,-36.812677],[-72.908629,-36.815758],[-72.913848,-36.81444],[-72.917318,-36.817521],[-72.915568,-36.821921],[-72.919039,-36.825002],[-72.924259,-36.823684],[-72.926009,-36.819284],[-72.931229,-36.817965],[-72.934701,-36.821046],[-72.932952,-36.825446],[-72.936425,-36.828528],[-72.941646,-36.827208],[-72.943395,-36.822807],[-72.948616,-36.821488],[-72.950364,-36.817086],[-72.955586,-36.815766],[-72.95906,-36.818847],[-72.957312,-36.823248],[-72.95209,-36.824569],[-72.950342,-36.82897],[-72.94512,-36.83029],[-72.943371,-36.834691],[-72.938149,-36.836011],[-72.936399,-36.840412],[-72.939873,-36.843494],[-72.938124,-36.847895],[-72.9329,-36.849214],[-72.929427,-36.846132],[-72.931177,-36.841731],[-72.927704,-36.838648],[-72.929453,-36.834248],[-72.925981,-36.831166],[-72.92076,-36.832484],[-72.917289,-36.829402],[-72.912068,-36.830721],[-72.910317,-36.83512],[-72.905096,-36.836438],[-72.903345,-36.840838],[-72.898124,-36.842155],[-72.896372,-36.846555],[-72.891151,-36.847871],[-72.889398,-36.852271],[-72.884177,-36.853587],[-72.880708,-36.850504],[-72.875486,-36.851819],[-72.872019,-36.848736],[-72.866798,-36.850051],[-72.863331,-36.846968],[-72.858111,-36.848283],[-72.85734,-36.850217],[-72.852667,-36.845698],[-72.847175,-36.840387],[-72.847715,-36.839034],[-72.852934,-36.837719],[-72.854687,-36.833322],[-72.859906,-36.832007],[-72.863372,-36.835089],[-72.868591,-36.833774],[-72.870344,-36.829376],[-72.875563,-36.82806],[-72.877315,-36.823662],[-72.873848,-36.82058],[-72.875601,-36.816182],[-72.880819,-36.814865],[-72.88257,-36.810467],[-72.887788,-36.80915],[-72.889539,-36.804752],[-72.886072,-36.801672],[-72.880855,-36.802989],[-72.87739,-36.799908],[-72.872174,-36.801224],[-72.870422,-36.805622],[-72.873887,-36.808703],[-72.872135,-36.8131],[-72.866917,-36.814416],[-72.863453,-36.811335],[-72.858236,-36.812651],[-72.85553,-36.810243],[-72.85558,-36.81002],[-72.855492,-36.809565],[-72.8554,-36.80935],[-72.855135,-36.809117],[-72.855,-36.808999],[-72.856525,-36.805173],[-72.853062,-36.802092],[-72.854815,-36.797695],[-72.851352,-36.794614],[-72.848175,-36.795416],[-72.848165,-36.795239],[-72.84817,-36.794819],[-72.848098,-36.794534],[-72.84786,-36.79419],[-72.847432,-36.793829],[-72.84716,-36.7936],[-72.84691,-36.79324],[-72.84682,-36.79288],[-72.846806,-36.792515],[-72.848068,-36.793052],[-72.848461,-36.793143],[-72.849022,-36.793272],[-72.849725,-36.793434],[-72.849908,-36.793514],[-72.850229,-36.793618],[-72.850687,-36.793711],[-72.851101,-36.793812],[-72.851643,-36.793884],[-72.851661,-36.793886],[-72.852234,-36.794022],[-72.852591,-36.794167],[-72.852983,-36.794197],[-72.854279,-36.794195],[-72.85482,-36.79399],[-72.855138,-36.793806],[-72.855871,-36.794147],[-72.856244,-36.794231],[-72.856652,-36.794345],[-72.857088,-36.794486],[-72.857341,-36.794396],[-72.857713,-36.79418],[-72.85867,-36.793938],[-72.85915,-36.79376],[-72.85982,-36.794004],[-72.860625,-36.794281],[-72.860837,-36.794354],[-72.861174,-36.794469],[-72.861869,-36.794515],[-72.862557,-36.794561],[-72.862934,-36.794499],[-72.863274,-36.794443],[-72.86366,-36.79438],[-72.86426,-36.7942],[-72.86467,-36.79396],[-72.86505,-36.79363],[-72.86589,-36.7926],[-72.86594,-36.79246],[-72.8663,-36.79253],[-72.86675,-36.79253],[-72.86696,-36.7926],[-72.86716,-36.7927],[-72.86734,-36.79281],[-72.86751,-36.79292],[-72.8677,-36.79302],[-72.86793,-36.79305],[-72.86813,-36.79303],[-72.86846,-36.79281],[-72.86866,-36.79281],[-72.86888,-36.79285],[-72.86911,-36.79286],[-72.86932,-36.79279],[-72.869366,-36.792773],[-72.86953,-36.79271],[-72.86975,-36.79267],[-72.86998,-36.79268],[-72.87038,-36.79283],[-72.87041,-36.79301],[-72.87041,-36.7932],[-72.87068,-36.79351],[-72.870771,-36.793668],[-72.87087,-36.79384],[-72.87112,-36.79374],[-72.87294,-36.79315],[-72.873323,-36.793151],[-72.8741,-36.793071],[-72.875237,-36.792792],[-72.875817,-36.792555],[-72.876637,-36.792219],[-72.877424,-36.792153],[-72.878803,-36.792088],[-72.879591,-36.791956],[-72.880102,-36.791915],[-72.88062,-36.791935],[-72.881101,-36.792416],[-72.881823,-36.792941],[-72.882155,-36.793171],[-72.882479,-36.793269],[-72.883032,-36.793051],[-72.88353,-36.793007],[-72.884752,-36.793202],[-72.885171,-36.793269],[-72.887,-36.79339],[-72.887994,-36.793466],[-72.888165,-36.793487],[-72.88844,-36.79352],[-72.888705,-36.793224],[-72.889,-36.79296],[-72.889515,-36.792729],[-72.890031,-36.792607],[-72.890588,-36.792516],[-72.890977,-36.79246],[-72.89147,-36.79239],[-72.89176,-36.7923],[-72.892141,-36.792088],[-72.892492,-36.791841],[-72.89305,-36.791477],[-72.893459,-36.79124],[-72.893627,-36.791144],[-72.89395,-36.79086],[-72.893984,-36.790842],[-72.89479,-36.791558],[-72.895808,-36.791301],[-72.896136,-36.791426],[-72.896355,-36.791537],[-72.896563,-36.791688],[-72.896964,-36.792064],[-72.897133,-36.79233],[-72.897357,-36.792623],[-72.897615,-36.792797],[-72.897881,-36.792953],[-72.898252,-36.79308],[-72.898563,-36.793181],[-72.89881,-36.793305],[-72.899207,-36.793517],[-72.899523,-36.79369],[-72.899764,-36.79397],[-72.90004,-36.79429],[-72.900442,-36.794747],[-72.900704,-36.795103],[-72.900888,-36.795526],[-72.900963,-36.795976],[-72.901046,-36.796307],[-72.901148,-36.796697],[-72.901226,-36.796932],[-72.90173,-36.797698],[-72.901732,-36.797699],[-72.902095,-36.797901],[-72.902987,-36.797941],[-72.903899,-36.797921],[-72.904528,-36.797941],[-72.905014,-36.798124],[-72.905602,-36.798225],[-72.906149,-36.798042],[-72.906676,-36.79784],[-72.907203,-36.797556],[-72.907751,-36.797009],[-72.908014,-36.796441],[-72.908116,-36.795813],[-72.908278,-36.795103],[-72.908481,-36.794657],[-72.908906,-36.794211],[-72.909433,-36.793806],[-72.910021,-36.7934],[-72.910143,-36.793292],[-72.910252,-36.793195],[-72.910386,-36.793076],[-72.91069,-36.792731],[-72.910731,-36.792265],[-72.910826,-36.791716],[-72.916247,-36.786808],[-72.922885,-36.7808],[-72.929413,-36.774892],[-72.929657,-36.774671],[-72.934044,-36.770699],[-72.935481,-36.769399],[-72.936983,-36.76804],[-72.937728,-36.767365],[-72.938209,-36.766895],[-72.939057,-36.766096],[-72.940617,-36.765238],[-72.941707,-36.76478],[-72.942997,-36.764363],[-72.944088,-36.764512],[-72.94488,-36.764621],[-72.946983,-36.766487],[-72.947923,-36.766249],[-72.948937,-36.767046],[-72.949614,-36.767911],[-72.950254,-36.768627],[-72.950631,-36.769304],[-72.951233,-36.769982],[-72.952212,-36.770471],[-72.953642,-36.771073],[-72.954395,-36.771261],[-72.954471,-36.771266],[-72.953924,-36.772644],[-72.948707,-36.773965],[-72.94696,-36.778365],[-72.950431,-36.781443],[-72.955649,-36.780122],[-72.959121,-36.783201],[-72.96434,-36.78188],[-72.967812,-36.784959],[-72.966066,-36.78936],[-72.96954,-36.792439],[-72.97476,-36.791117],[-72.976505,-36.786716],[-72.973031,-36.783637],[-72.974777,-36.779236],[-72.971304,-36.776157],[-72.966085,-36.777479],[-72.962613,-36.774401],[-72.964359,-36.77],[-72.965371,-36.769744],[-72.96504,-36.770492],[-72.965361,-36.772344],[-72.965871,-36.772437],[-72.966752,-36.772576],[-72.967864,-36.772715],[-72.969023,-36.772761],[-72.970275,-36.772854],[-72.970759,-36.772965],[-72.970878,-36.772993],[-72.971758,-36.773178],[-72.972517,-36.773099],[-72.972639,-36.773086],[-72.973798,-36.772854],[-72.975096,-36.772808],[-72.975792,-36.772576],[-72.976765,-36.772483],[-72.977414,-36.772993],[-72.978944,-36.773457],[-72.981007,-36.773419],[-72.981664,-36.773445],[-72.981741,-36.773512],[-72.981961,-36.773456],[-72.981986,-36.773457],[-72.982917,-36.773569],[-72.983825,-36.774111],[-72.98954,-36.777522],[-72.996467,-36.781657],[-72.997041,-36.781999],[-72.998446,-36.782365],[-73.00086,-36.784503],[-73.006081,-36.783179],[-73.007372,-36.779918],[-73.009405,-36.780201],[-73.009102,-36.781969],[-73.009092,-36.782037],[-73.009565,-36.782189],[-73.010293,-36.782275],[-73.010593,-36.782313],[-73.010848,-36.782375],[-73.011363,-36.782575],[-73.011965,-36.782817],[-73.012226,-36.782822],[-73.0126,-36.782686],[-73.012911,-36.782704],[-73.013204,-36.782788],[-73.014078,-36.783251],[-73.014244,-36.783315],[-73.014429,-36.783324],[-73.014536,-36.783301],[-73.015194,-36.783285],[-73.015409,-36.783275],[-73.015436,-36.783275],[-73.014779,-36.784934]]]},"properties":{"comuna":"Concepción","mancha_id":"08101-88b2d86813fffff","clase":"Medio","nivel_medio":2.164,"nivel_medio_min":1.646,"nivel_medio_max":2.491,"pct_alto":35.8,"n_hexagonos":100,"area_ha":5428.47}},{"type":"Feature","geometry":{"type":"Polygon","coordinates":[[[-72.883959,-36.924903],[-72.889187,-36.923588],[-72.89044,-36.924701],[-72.889708,-36.924965],[-72.888501,-36.925561],[-72.88712,-36.92634],[-72.88615,-36.92711],[-72.88583,-36.92686],[-72.8853,-36.92653],[-72.88465,-36.92633],[-72.88375,-36.92636],[-72.883401,-36.926301],[-72.883959,-36.924903]]]},"properties":{"comuna":"Concepción","mancha_id":"08101-88b2dbd751fffff","clase":"Alto","nivel_medio":2.576,"nivel_medio_min":2.576,"nivel_medio_max":2.576,"pct_alto":58.6,"n_hexagonos":1,"area_ha":11.87}},{"type":"Feature","geometry":{"type":"Polygon","coordinates":[[[-72.88224,-36.917414],[-72.880486,-36.921816],[-72.879872,-36.92197],[-72.87971,-36.92184],[-72.878667,-36.921398],[-72.877533,-36.921314],[-72.87525,-36.9215],[-72.873651,-36.921702],[-72.873607,-36.921707],[-72.87181,-36.9219],[-72.87042,-36.92147],[-72.86901,-36.92142],[-72.86854,-36.92129],[-72.86789,-36.92103],[-72.867877,-36.921025],[-72.871785,-36.920043],[-72.873541,-36.915642],[-72.878768,-36.914328],[-72.88224,-36.917414]]]},"properties":{"comuna":"Concepción","mancha_id":"08101-88b2dbd665fffff","clase":"Alto","nivel_medio":3.038,"nivel_medio_min":2.732,"nivel_medio_max":3.068,"pct_alto":65.4,"n_hexagonos":2,"area_ha":60.46}},{"type":"Feature","geometry":{"type":"Polygon","coordinates":[[[-72.860727,-36.918863],[-72.863087,-36.91827],[-72.865112,-36.920071],[-72.86483,-36.91996],[-72.864223,-36.919871],[-72.862968,-36.919631],[-72.86186,-36.91935],[-72.86081,-36.91893],[-72.860727,-36.918863]]]},"properties":{"comuna":"Concepción","mancha_id":"08101-88b2dbd663fffff","clase":"Alto","nivel_medio":2.988,"nivel_medio_min":2.988,"nivel_medio_max":2.988,"pct_alto":82.2,"n_hexagonos":1,"area_ha":3.11}},{"type":"Feature","geometry":{"type":"Polygon","coordinates":[[[-72.85089,-36.91739],[-72.850871,-36.917381],[-72.849632,-36.916764],[-72.84878,-36.91612],[-72.84821,-36.91526],[-72.84774,-36.91482],[-72.847406,-36.91465],[-72.84702,-36.91461],[-72.847085,-36.911239],[-72.847451,-36.910323],[-72.852676,-36.90901],[-72.856146,-36.912097],[-72.85439,-36.916496],[-72.855128,-36.917153],[-72.85403,-36.9176],[-72.852844,-36.917682],[-72.851748,-36.917597],[-72.85089,-36.91739]]]},"properties":{"comuna":"Concepción","mancha_id":"08101-88b2dbd60dfffff","clase":"Alto","nivel_medio":2.544,"nivel_medio_min":2.506,"nivel_medio_max":3.33,"pct_alto":42.0,"n_hexagonos":2,"area_ha":56.56}},{"type":"Feature","geometry":{"type":"Polygon","coordinates":[[[-72.944746,-36.901166],[-72.944635,-36.901312],[-72.944439,-36.901567],[-72.94409,-36.90201],[-72.943845,-36.902407],[-72.94357,-36.90284],[-72.943355,-36.903061],[-72.94294,-36.90354],[-72.94267,-36.90412],[-72.94247,-36.90409],[-72.94225,-36.90403],[-72.94203,-36.90399],[-72.9418,-36.90396],[-72.94136,-36.90386],[-72.94113,-36.90382],[-72.94094,-36.90393],[-72.94072,-36.90399],[-72.940552,-36.903982],[-72.940566,-36.903964],[-72.940826,-36.903789],[-72.941043,-36.90356],[-72.94115,-36.90322],[-72.941145,-36.902666],[-72.94114,-36.90219],[-72.941307,-36.901694],[-72.941646,-36.901244],[-72.9418,-36.90109],[-72.94189,-36.90085],[-72.94192,-36.90048],[-72.94198,-36.89997],[-72.942082,-36.899724],[-72.942286,-36.899229],[-72.94229,-36.89922],[-72.94226,-36.89881],[-72.94225,-36.89804],[-72.942236,-36.897407],[-72.941983,-36.897323],[-72.943252,-36.89413],[-72.947351,-36.893096],[-72.94735,-36.8931],[-72.94717,-36.89361],[-72.94696,-36.89393],[-72.94616,-36.89425],[-72.94564,-36.89492],[-72.94534,-36.89527],[-72.94484,-36.89583],[-72.94459,-36.89629],[-72.94453,-36.89663],[-72.94448,-36.89705],[-72.94465,-36.8977],[-72.944744,-36.898351],[-72.94484,-36.899],[-72.94493,-36.89989],[-72.94491,-36.90059],[-72.94486,-36.90095],[-72.944746,-36.901166]]]},"properties":{"comuna":"Concepción","mancha_id":"08101-88b2dbd28bfffff","clase":"Alto","nivel_medio":3.423,"nivel_medio_min":3.376,"nivel_medio_max":3.449,"pct_alto":97.1,"n_hexagonos":2,"area_ha":26.97}},{"type":"Feature","geometry":{"type":"Polygon","coordinates":[[[-72.895808,-36.791301],[-72.89479,-36.791558],[-72.893984,-36.790842],[-72.89417,-36.79074],[-72.894388,-36.790701],[-72.894491,-36.790712],[-72.894635,-36.79075],[-72.894784,-36.790806],[-72.895084,-36.790935],[-72.895277,-36.791058],[-72.895569,-36.791209],[-72.895783,-36.791291],[-72.895808,-36.791301]]]},"properties":{"comuna":"Concepción","mancha_id":"08101-88b2d86e2dfffff","clase":"Alto","nivel_medio":3.0,"nivel_medio_min":3.0,"nivel_medio_max":3.0,"pct_alto":100.0,"n_hexagonos":1,"area_ha":0.73}},{"type":"Feature","geometry":{"type":"Polygon","coordinates":[[[-72.854815,-36.797695],[-72.853062,-36.802092],[-72.856525,-36.805173],[-72.855,-36.808999],[-72.85483,-36.80885],[-72.85468,-36.808668],[-72.8545,-36.80845],[-72.85431,-36.80802],[-72.854053,-36.807329],[-72.85391,-36.80698],[-72.85369,-36.8068],[-72.85336,-36.80674],[-72.85282,-36.8067],[-72.85249,-36.80653],[-72.85232,-36.806119],[-72.85232,-36.80585],[-72.852126,-36.805617],[-72.8517,-36.8054],[-72.8516,-36.80515],[-72.851734,-36.804909],[-72.851974,-36.804431],[-72.852,-36.80411],[-72.85195,-36.80397],[-72.851635,-36.803902],[-72.85133,-36.80387],[-72.85109,-36.8037],[-72.85068,-36.803274],[-72.85041,-36.80302],[-72.849882,-36.803052],[-72.849641,-36.802993],[-72.849622,-36.802959],[-72.8495,-36.80274],[-72.84946,-36.80222],[-72.84936,-36.80193],[-72.849087,-36.801671],[-72.848862,-36.801379],[-72.848661,-36.801042],[-72.84854,-36.8007],[-72.848556,-36.800357],[-72.84858,-36.800175],[-72.84864,-36.79988],[-72.84863,-36.79947],[-72.848399,-36.799117],[-72.84808,-36.7987],[-72.84779,-36.79796],[-72.847715,-36.797469],[-72.84771,-36.7973],[-72.84789,-36.79692],[-72.84817,-36.79651],[-72.84826,-36.79618],[-72.848223,-36.795877],[-72.848182,-36.795531],[-72.848175,-36.795416],[-72.851352,-36.794614],[-72.854815,-36.797695]]]},"properties":{"comuna":"Concepción","mancha_id":"08101-88b2d86e17fffff","clase":"Alto","nivel_medio":2.56,"nivel_medio_min":2.511,"nivel_medio_max":2.584,"pct_alto":59.2,"n_hexagonos":2,"area_ha":58.53}},{"type":"Feature","geometry":{"type":"Polygon","coordinates":[[[-72.88761,-36.868554],[-72.885857,-36.872953],[-72.880634,-36.874269],[-72.877164,-36.871185],[-72.878917,-36.866785],[-72.88414,-36.86547],[-72.88761,-36.868554]]]},"properties":{"comuna":"Concepción","mancha_id":"08101-88b2d86dddfffff","clase":"Alto","nivel_medio":2.532,"nivel_medio_min":2.532,"nivel_medio_max":2.532,"pct_alto":49.0,"n_hexagonos":1,"area_ha":61.37}},{"type":"Feature","geometry":{"type":"Polygon","coordinates":[[[-72.908411,-36.898948],[-72.911886,-36.902034],[-72.912092,-36.901982],[-72.911942,-36.902237],[-72.911915,-36.902585],[-72.911915,-36.902961],[-72.91185,-36.90338],[-72.911808,-36.904061],[-72.911647,-36.904544],[-72.91132,-36.90494],[-72.910869,-36.905108],[-72.910679,-36.905064],[-72.91052,-36.905027],[-72.910091,-36.90492],[-72.90942,-36.905081],[-72.909125,-36.905295],[-72.908561,-36.905644],[-72.907864,-36.905859],[-72.907139,-36.905939],[-72.906522,-36.905886],[-72.905878,-36.905698],[-72.905234,-36.905752],[-72.904671,-36.906261],[-72.903575,-36.906571],[-72.901431,-36.904666],[-72.903184,-36.900264],[-72.908411,-36.898948]]]},"properties":{"comuna":"Concepción","mancha_id":"08101-88b2d86da3fffff","clase":"Alto","nivel_medio":2.696,"nivel_medio_min":2.648,"nivel_medio_max":2.697,"pct_alto":67.0,"n_hexagonos":2,"area_ha":53.96}},{"type":"Feature","geometry":{"type":"Polygon","coordinates":[[[-72.889539,-36.804752],[-72.887788,-36.80915],[-72.88257,-36.810467],[-72.880819,-36.814865],[-72.875601,-36.816182],[-72.873848,-36.82058],[-72.877315,-36.823662],[-72.875563,-36.82806],[-72.870344,-36.829376],[-72.868591,-36.833774],[-72.863372,-36.835089],[-72.859906,-36.832007],[-72.854687,-36.833322],[-72.852934,-36.837719],[-72.847715,-36.839034],[-72.847175,-36.840387],[-72.844658,-36.837954],[-72.844822,-36.83646],[-72.845116,-36.83378],[-72.845418,-36.831032],[-72.846236,-36.823585],[-72.849512,-36.82276],[-72.851266,-36.818363],[-72.847802,-36.815281],[-72.84713,-36.815451],[-72.847531,-36.8118],[-72.849182,-36.811821],[-72.854809,-36.811894],[-72.85477,-36.81161],[-72.854955,-36.81135],[-72.855209,-36.810951],[-72.85549,-36.81042],[-72.85553,-36.810243],[-72.858236,-36.812651],[-72.863453,-36.811335],[-72.866917,-36.814416],[-72.872135,-36.8131],[-72.873887,-36.808703],[-72.870422,-36.805622],[-72.872174,-36.801224],[-72.87739,-36.799908],[-72.880855,-36.802989],[-72.886072,-36.801672],[-72.889539,-36.804752]]]},"properties":{"comuna":"Concepción","mancha_id":"08101-88b2d86c49fffff","clase":"Alto","nivel_medio":2.692,"nivel_medio_min":2.505,"nivel_medio_max":2.964,"pct_alto":62.1,"n_hexagonos":16,"area_ha":780.84}},{"type":"Feature","geometry":{"type":"Polygon","coordinates":[[[-72.863331,-36.846968],[-72.866798,-36.850051],[-72.872019,-36.848736],[-72.875486,-36.851819],[-72.880708,-36.850504],[-72.884177,-36.853587],[-72.889398,-36.852271],[-72.891151,-36.847871],[-72.896372,-36.846555],[-72.898124,-36.842155],[-72.903345,-36.840838],[-72.905096,-36.836438],[-72.910317,-36.83512],[-72.912068,-36.830721],[-72.917289,-36.829402],[-72.92076,-36.832484],[-72.925981,-36.831166],[-72.929453,-36.834248],[-72.927704,-36.838648],[-72.931177,-36.841731],[-72.929427,-36.846132],[-72.9329,-36.849214],[-72.93115,-36.853615],[-72.934624,-36.856698],[-72.939849,-36.85538],[-72.943324,-36.858463],[-72.941574,-36.862865],[-72.94505,-36.865948],[-72.94576,-36.865769],[-72.945797,-36.865794],[-72.94596,-36.866006],[-72.946005,-36.866273],[-72.946065,-36.866657],[-72.946286,-36.866879],[-72.946656,-36.86719],[-72.946848,-36.867441],[-72.946878,-36.867707],[-72.946878,-36.868062],[-72.946863,-36.868416],[-72.946981,-36.868845],[-72.947203,-36.869348],[-72.947385,-36.869662],[-72.947736,-36.87016],[-72.948087,-36.870657],[-72.947941,-36.87133],[-72.947941,-36.871681],[-72.948029,-36.87215],[-72.947912,-36.872618],[-72.947824,-36.873145],[-72.947811,-36.873173],[-72.947502,-36.873818],[-72.947034,-36.874344],[-72.946946,-36.874696],[-72.946975,-36.875017],[-72.947122,-36.875691],[-72.947063,-36.876305],[-72.947063,-36.876949],[-72.947122,-36.877827],[-72.947092,-36.878734],[-72.947092,-36.87967],[-72.947092,-36.880022],[-72.947327,-36.880958],[-72.947502,-36.881748],[-72.947649,-36.882187],[-72.947649,-36.882538],[-72.947502,-36.883182],[-72.94697,-36.88476],[-72.946728,-36.88533],[-72.941526,-36.886642],[-72.939775,-36.891045],[-72.934547,-36.892363],[-72.934136,-36.893397],[-72.933703,-36.893328],[-72.932549,-36.893006],[-72.93153,-36.892631],[-72.930483,-36.892631],[-72.930027,-36.892416],[-72.929383,-36.891853],[-72.928605,-36.891155],[-72.928149,-36.890833],[-72.927666,-36.890833],[-72.9267,-36.891289],[-72.926056,-36.891557],[-72.925573,-36.891826],[-72.925412,-36.892255],[-72.925063,-36.893033],[-72.924714,-36.893597],[-72.924614,-36.893687],[-72.925844,-36.890596],[-72.922369,-36.887511],[-72.92412,-36.883109],[-72.929347,-36.881791],[-72.931098,-36.877389],[-72.927623,-36.874305],[-72.929373,-36.869903],[-72.925899,-36.86682],[-72.920674,-36.868138],[-72.918923,-36.872539],[-72.913698,-36.873856],[-72.910225,-36.870772],[-72.911977,-36.866371],[-72.908504,-36.863288],[-72.910256,-36.858887],[-72.906784,-36.855804],[-72.901561,-36.857121],[-72.89809,-36.854037],[-72.892868,-36.855354],[-72.891116,-36.859754],[-72.885893,-36.86107],[-72.882424,-36.857986],[-72.877202,-36.859302],[-72.875448,-36.863701],[-72.870226,-36.865016],[-72.868472,-36.869415],[-72.865491,-36.870166],[-72.86573,-36.86958],[-72.866441,-36.868656],[-72.86708,-36.86787],[-72.86733,-36.86685],[-72.867569,-36.866267],[-72.86788,-36.86583],[-72.86824,-36.86549],[-72.868704,-36.86507],[-72.86908,-36.86454],[-72.869181,-36.864087],[-72.86922,-36.86391],[-72.869598,-36.86271],[-72.86966,-36.86213],[-72.867509,-36.86005],[-72.864851,-36.85748],[-72.863769,-36.856434],[-72.862405,-36.855115],[-72.85734,-36.850217],[-72.858111,-36.848283],[-72.863331,-36.846968]]]},"properties":{"comuna":"Concepción","mancha_id":"08101-88b2d86c17fffff","clase":"Alto","nivel_medio":2.903,"nivel_medio_min":2.531,"nivel_medio_max":3.425,"pct_alto":76.9,"n_hexagonos":36,"area_ha":1951.25}},{"type":"Feature","geometry":{"type":"Polygon","coordinates":[[[-72.981961,-36.773456],[-72.981741,-36.773512],[-72.981664,-36.773445],[-72.981961,-36.773456]]]},"properties":{"comuna":"Concepción","mancha_id":"08101-88b2d86abdfffff","clase":"Alto","nivel_medio":3.0,"nivel_medio_min":3.0,"nivel_medio_max":3.0,"pct_alto":100.0,"n_hexagonos":1,"area_ha":0.01}},{"type":"Feature","geometry":{"type":"Polygon","coordinates":[[[-72.947923,-36.766249],[-72.946983,-36.766487],[-72.94488,-36.764621],[-72.944906,-36.764624],[-72.945745,-36.764806],[-72.946415,-36.765126],[-72.947883,-36.766217],[-72.947923,-36.766249]]]},"properties":{"comuna":"Concepción","mancha_id":"08101-88b2d86a9bfffff","clase":"Alto","nivel_medio":2.978,"nivel_medio_min":2.978,"nivel_medio_max":2.978,"pct_alto":97.8,"n_hexagonos":1,"area_ha":1.67}},{"type":"Feature","geometry":{"type":"Polygon","coordinates":[[[-72.976505,-36.786716],[-72.97476,-36.791117],[-72.96954,-36.792439],[-72.966066,-36.78936],[-72.967812,-36.784959],[-72.96434,-36.78188],[-72.959121,-36.783201],[-72.955649,-36.780122],[-72.950431,-36.781443],[-72.94696,-36.778365],[-72.948707,-36.773965],[-72.953924,-36.772644],[-72.954471,-36.771266],[-72.955073,-36.771299],[-72.9556,-36.771374],[-72.956239,-36.771224],[-72.956578,-36.770734],[-72.957143,-36.770132],[-72.958084,-36.769793],[-72.9591,-36.769718],[-72.959891,-36.769455],[-72.960493,-36.768777],[-72.961095,-36.768212],[-72.96213,-36.768024],[-72.964359,-36.77],[-72.962613,-36.774401],[-72.966085,-36.777479],[-72.971304,-36.776157],[-72.974777,-36.779236],[-72.973031,-36.783637],[-72.976505,-36.786716]]]},"properties":{"comuna":"Concepción","mancha_id":"08101-88b2d868d9fffff","clase":"Alto","nivel_medio":2.707,"nivel_medio_min":2.633,"nivel_medio_max":2.777,"pct_alto":72.5,"n_hexagonos":5,"area_ha":292.13}},{"type":"Feature","geometry":{"type":"Polygon","coordinates":[[[-73.006081,-36.783179],[-73.00086,-36.784503],[-72.998446,-36.782365],[-73.0011,-36.783056],[-73.000674,-36.782603],[-73.000478,-36.782356],[-73.000242,-36.781984],[-73.000112,-36.781662],[-73.000024,-36.78121],[-73.000005,-36.781063],[-72.999954,-36.780867],[-72.99987,-36.780576],[-72.999748,-36.780224],[-72.999669,-36.77998],[-72.99937,-36.77929],[-72.999263,-36.779065],[-72.998983,-36.778562],[-72.998803,-36.778238],[-72.998712,-36.778074],[-72.998851,-36.777721],[-73.001803,-36.778753],[-73.005122,-36.779606],[-73.007372,-36.779918],[-73.006081,-36.783179]]]},"properties":{"comuna":"Concepción","mancha_id":"08101-88b2d868cdfffff","clase":"Alto","nivel_medio":2.672,"nivel_medio_min":2.672,"nivel_medio_max":2.672,"pct_alto":67.6,"n_hexagonos":1,"area_ha":33.36}},{"type":"Feature","geometry":{"type":"Polygon","coordinates":[[[-72.957312,-36.823248],[-72.95906,-36.818847],[-72.955586,-36.815766],[-72.950364,-36.817086],[-72.948616,-36.821488],[-72.943395,-36.822807],[-72.941646,-36.827208],[-72.936425,-36.828528],[-72.932952,-36.825446],[-72.934701,-36.821046],[-72.931229,-36.817965],[-72.926009,-36.819284],[-72.924259,-36.823684],[-72.919039,-36.825002],[-72.915568,-36.821921],[-72.917318,-36.817521],[-72.913848,-36.81444],[-72.908629,-36.815758],[-72.90516,-36.812677],[-72.90691,-36.808278],[-72.912129,-36.80696],[-72.913878,-36.802561],[-72.919096,-36.801242],[-72.922566,-36.804323],[-72.927785,-36.803003],[-72.931256,-36.806084],[-72.929507,-36.810484],[-72.932978,-36.813564],[-72.938198,-36.812245],[-72.939947,-36.807844],[-72.945166,-36.806524],[-72.946914,-36.802124],[-72.952134,-36.800803],[-72.955607,-36.803884],[-72.960827,-36.802563],[-72.962574,-36.798162],[-72.967794,-36.79684],[-72.971268,-36.79992],[-72.969522,-36.804321],[-72.972996,-36.807401],[-72.978218,-36.80608],[-72.981694,-36.80916],[-72.979948,-36.813562],[-72.983424,-36.816642],[-72.981678,-36.821045],[-72.985155,-36.824126],[-72.990378,-36.822804],[-72.993856,-36.825884],[-72.992111,-36.830288],[-72.995589,-36.833369],[-72.993843,-36.837772],[-72.997322,-36.840854],[-73.002548,-36.839531],[-73.006028,-36.842613],[-73.011254,-36.84129],[-73.012999,-36.836886],[-73.018225,-36.835563],[-73.01997,-36.831158],[-73.025195,-36.829834],[-73.026939,-36.82543],[-73.023458,-36.822349],[-73.025202,-36.817945],[-73.030426,-36.816621],[-73.033908,-36.819701],[-73.032165,-36.824106],[-73.035647,-36.827186],[-73.033903,-36.831591],[-73.037386,-36.834672],[-73.042613,-36.833347],[-73.046097,-36.836428],[-73.044353,-36.840834],[-73.047838,-36.843915],[-73.046094,-36.848321],[-73.040866,-36.849646],[-73.039122,-36.854052],[-73.03997,-36.854801],[-73.03984,-36.85486],[-73.03952,-36.85495],[-73.03929,-36.85498],[-73.03903,-36.85501],[-73.03878,-36.85505],[-73.03856,-36.85511],[-73.03834,-36.85518],[-73.03811,-36.85528],[-73.03791,-36.85538],[-73.0377,-36.8555],[-73.0375,-36.85563],[-73.03733,-36.85576],[-73.0372,-36.85592],[-73.0371,-36.85609],[-73.03703,-36.85627],[-73.03693,-36.85649],[-73.03684,-36.85666],[-73.03678,-36.85679],[-73.03659,-36.856994],[-73.036235,-36.856997],[-73.03548,-36.85686],[-73.034564,-36.856815],[-73.033742,-36.856529],[-73.033491,-36.856394],[-73.033288,-36.856285],[-73.032625,-36.856036],[-73.032048,-36.8559],[-73.031563,-36.855692],[-73.030991,-36.855334],[-73.030776,-36.854726],[-73.030132,-36.854476],[-73.029381,-36.854583],[-73.029059,-36.855013],[-73.02888,-36.85537],[-73.028666,-36.855764],[-73.028237,-36.855692],[-73.027414,-36.855549],[-73.026591,-36.855549],[-73.026055,-36.855406],[-73.025089,-36.855621],[-73.024409,-36.856086],[-73.02401,-36.856578],[-73.025182,-36.853617],[-73.021699,-36.850535],[-73.016472,-36.851858],[-73.014727,-36.856263],[-73.018209,-36.859346],[-73.023437,-36.858023],[-73.02352,-36.857815],[-73.023662,-36.858221],[-73.023766,-36.858518],[-73.023801,-36.859484],[-73.023658,-36.860414],[-73.02305,-36.861415],[-73.022406,-36.861737],[-73.021655,-36.861916],[-73.021119,-36.862023],[-73.02001,-36.862273],[-73.019044,-36.862595],[-73.01815,-36.862631],[-73.017935,-36.863203],[-73.01815,-36.86399],[-73.017971,-36.864241],[-73.017149,-36.864205],[-73.017105,-36.864318],[-73.01696,-36.86469],[-73.016947,-36.864702],[-73.01682,-36.86482],[-73.01674,-36.86495],[-73.01671,-36.86515],[-73.0167,-36.86534],[-73.01669,-36.86553],[-73.0167,-36.86572],[-73.01672,-36.8659],[-73.01676,-36.86609],[-73.01676,-36.86628],[-73.01673,-36.86647],[-73.01663,-36.86662],[-73.01658,-36.86659],[-73.01617,-36.86637],[-73.01588,-36.86634],[-73.01557,-36.86638],[-73.01541,-36.86639],[-73.01517,-36.86637],[-73.01494,-36.8663],[-73.01471,-36.86624],[-73.01448,-36.86623],[-73.01423,-36.86623],[-73.01398,-36.86623],[-73.01375,-36.86624],[-73.0135,-36.86625],[-73.01327,-36.86625],[-73.01305,-36.8662],[-73.0127,-36.86596],[-73.0125,-36.86588],[-73.01227,-36.86589],[-73.01203,-36.86589],[-73.01178,-36.86586],[-73.01156,-36.86582],[-73.01132,-36.86576],[-73.01108,-36.86574],[-73.010973,-36.865735],[-73.01085,-36.86573],[-73.01072,-36.86554],[-73.01071,-36.86534],[-73.01068,-36.86514],[-73.01066,-36.86497],[-73.01062,-36.86479],[-73.01053,-36.86459],[-73.01038,-36.86441],[-73.01019,-36.8643],[-73.00989,-36.8642],[-73.00964,-36.86415],[-73.00951,-36.86414],[-73.00938,-36.86414],[-73.00912,-36.86416],[-73.00888,-36.8642],[-73.00865,-36.86425],[-73.00842,-36.86428],[-73.00818,-36.86426],[-73.00794,-36.86422],[-73.00781,-36.86419],[-73.00771,-36.86417],[-73.00742,-36.86414],[-73.00718,-36.86412],[-73.00695,-36.86412],[-73.00673,-36.86412],[-73.00627,-36.86406],[-73.00605,-36.8641],[-73.00599,-36.86392],[-73.00597,-36.86373],[-73.00596,-36.86355],[-73.00594,-36.86335],[-73.0059,-36.86297],[-73.00583,-36.86278],[-73.00568,-36.86263],[-73.005504,-36.86256],[-73.00548,-36.86255],[-73.00522,-36.86251],[-73.00498,-36.86252],[-73.00473,-36.86254],[-73.00448,-36.86259],[-73.00422,-36.86269],[-73.00404,-36.86281],[-73.00388,-36.86296],[-73.003868,-36.862973],[-73.00375,-36.86311],[-73.00362,-36.86326],[-73.00347,-36.86341],[-73.00327,-36.86353],[-73.00304,-36.86357],[-73.00281,-36.86356],[-73.002427,-36.86356],[-73.002525,-36.863313],[-72.999044,-36.86023],[-72.993817,-36.861552],[-72.99207,-36.865956],[-72.995551,-36.869039],[-72.995648,-36.869015],[-72.995589,-36.869206],[-72.995509,-36.869686],[-72.995482,-36.870219],[-72.995456,-36.870645],[-72.995376,-36.871045],[-72.995136,-36.871445],[-72.994816,-36.871764],[-72.994603,-36.872058],[-72.994443,-36.872564],[-72.994256,-36.873337],[-72.994075,-36.873684],[-72.993963,-36.873896],[-72.993617,-36.87419],[-72.99319,-36.874296],[-72.992684,-36.874376],[-72.992311,-36.874563],[-72.991986,-36.874765],[-72.991351,-36.875207],[-72.990661,-36.875262],[-72.989611,-36.875234],[-72.988376,-36.875269],[-72.988576,-36.874765],[-72.985095,-36.871682],[-72.982576,-36.872318],[-72.982182,-36.872114],[-72.981823,-36.871727],[-72.981547,-36.871423],[-72.981078,-36.870954],[-72.980746,-36.870788],[-72.980111,-36.870622],[-72.979366,-36.870153],[-72.979004,-36.870008],[-72.978537,-36.869822],[-72.977515,-36.869628],[-72.976742,-36.869463],[-72.976602,-36.86938],[-72.976272,-36.869186],[-72.97561,-36.869048],[-72.974871,-36.868894],[-72.974132,-36.868871],[-72.972769,-36.868917],[-72.971707,-36.868894],[-72.97136,-36.869009],[-72.971222,-36.869287],[-72.971175,-36.869864],[-72.971014,-36.870372],[-72.970743,-36.870869],[-72.970737,-36.87088],[-72.97019,-36.871467],[-72.970113,-36.87155],[-72.969536,-36.872058],[-72.969074,-36.872728],[-72.969051,-36.873236],[-72.96852,-36.873467],[-72.967665,-36.873421],[-72.966926,-36.873213],[-72.966303,-36.872682],[-72.965633,-36.872474],[-72.964986,-36.872381],[-72.963393,-36.872081],[-72.962654,-36.871781],[-72.961799,-36.871434],[-72.961727,-36.87131],[-72.961545,-36.870996],[-72.96136,-36.870672],[-72.961799,-36.870072],[-72.961915,-36.869518],[-72.961637,-36.869287],[-72.96106,-36.868917],[-72.960852,-36.868478],[-72.960798,-36.868006],[-72.960714,-36.867277],[-72.960714,-36.866839],[-72.960714,-36.8664],[-72.960506,-36.865822],[-72.960316,-36.865626],[-72.959813,-36.865106],[-72.959584,-36.864867],[-72.959305,-36.864575],[-72.958589,-36.864552],[-72.958266,-36.864783],[-72.957688,-36.864968],[-72.956559,-36.864825],[-72.95582,-36.864692],[-72.955317,-36.864337],[-72.954948,-36.864056],[-72.954401,-36.863642],[-72.954214,-36.863495],[-72.95388,-36.86301],[-72.953748,-36.862748],[-72.953658,-36.862141],[-72.953625,-36.861741],[-72.953602,-36.861303],[-72.953612,-36.861027],[-72.953637,-36.860715],[-72.953,-36.860737],[-72.95207,-36.860812],[-72.951771,-36.860865],[-72.952024,-36.860226],[-72.95725,-36.858907],[-72.958998,-36.854504],[-72.964223,-36.853184],[-72.967701,-36.856267],[-72.972926,-36.854946],[-72.974674,-36.850543],[-72.979899,-36.849222],[-72.981647,-36.844819],[-72.986872,-36.843498],[-72.988618,-36.839094],[-72.98514,-36.836013],[-72.979916,-36.837334],[-72.976438,-36.834253],[-72.971214,-36.835574],[-72.967738,-36.832492],[-72.962515,-36.833813],[-72.960767,-36.838215],[-72.955543,-36.839535],[-72.952068,-36.836453],[-72.946845,-36.837773],[-72.945096,-36.842175],[-72.948571,-36.845257],[-72.953795,-36.843937],[-72.957271,-36.847019],[-72.955522,-36.851422],[-72.950297,-36.852741],[-72.946822,-36.849659],[-72.941598,-36.850978],[-72.938124,-36.847895],[-72.939873,-36.843494],[-72.936399,-36.840412],[-72.938149,-36.836011],[-72.943371,-36.834691],[-72.94512,-36.83029],[-72.950342,-36.82897],[-72.95209,-36.824569],[-72.957312,-36.823248]],[[-72.990337,-36.858469],[-72.992084,-36.854065],[-72.988604,-36.850983],[-72.983378,-36.852305],[-72.981631,-36.856708],[-72.98511,-36.859791],[-72.990337,-36.858469]]]},"properties":{"comuna":"Concepción","mancha_id":"08101-88b2d86891fffff","clase":"Alto","nivel_medio":2.957,"nivel_medio_min":2.526,"nivel_medio_max":3.493,"pct_alto":79.5,"n_hexagonos":74,"area_ha":4047.93}},{"type":"Feature","geometry":{"type":"Polygon","coordinates":[[[-72.986915,-36.807837],[-72.988661,-36.803435],[-72.985185,-36.800355],[-72.979964,-36.801678],[-72.976489,-36.798598],[-72.978234,-36.794196],[-72.983455,-36.792874],[-72.98693,-36.795953],[-72.992151,-36.794631],[-72.995627,-36.79771],[-73.000849,-36.796387],[-73.002593,-36.791984],[-73.007814,-36.790661],[-73.009558,-36.786258],[-73.014779,-36.784934],[-73.018257,-36.788013],[-73.016514,-36.792416],[-73.019992,-36.795495],[-73.025215,-36.79417],[-73.028694,-36.797249],[-73.026951,-36.801653],[-73.021728,-36.802977],[-73.018249,-36.799898],[-73.013027,-36.801222],[-73.011283,-36.805625],[-73.014762,-36.808705],[-73.019985,-36.807381],[-73.023465,-36.810461],[-73.021721,-36.814865],[-73.016497,-36.816189],[-73.013017,-36.813109],[-73.007794,-36.814432],[-73.004315,-36.811352],[-72.999092,-36.812675],[-72.997347,-36.817078],[-72.992124,-36.818401],[-72.988647,-36.81532],[-72.990392,-36.810918],[-72.986915,-36.807837]]]},"properties":{"comuna":"Concepción","mancha_id":"08101-88b2d86881fffff","clase":"Alto","nivel_medio":2.871,"nivel_medio_min":2.529,"nivel_medio_max":3.431,"pct_alto":76.7,"n_hexagonos":13,"area_ha":798.9}},{"type":"Feature","geometry":{"type":"Polygon","coordinates":[[[-73.03218,-36.788442],[-73.026958,-36.789767],[-73.02371,-36.786893],[-73.02437,-36.786937],[-73.025333,-36.786907],[-73.025535,-36.786765],[-73.025673,-36.786548],[-73.025981,-36.786476],[-73.02656,-36.786411],[-73.026694,-36.786396],[-73.026919,-36.786362],[-73.027299,-36.786303],[-73.027886,-36.786211],[-73.028969,-36.785954],[-73.029058,-36.785931],[-73.029142,-36.78591],[-73.029081,-36.785428],[-73.029044,-36.785066],[-73.02902,-36.78468],[-73.028856,-36.784377],[-73.02878,-36.784115],[-73.028639,-36.78371],[-73.028583,-36.783514],[-73.02855,-36.783191],[-73.028536,-36.783003],[-73.028516,-36.782588],[-73.028507,-36.782339],[-73.028527,-36.78195],[-73.02853,-36.781789],[-73.028474,-36.781625],[-73.028387,-36.781481],[-73.030442,-36.78096],[-73.033922,-36.784038],[-73.03218,-36.788442]]]},"properties":{"comuna":"Concepción","mancha_id":"08101-88b2d8683bfffff","clase":"Alto","nivel_medio":2.824,"nivel_medio_min":2.824,"nivel_medio_max":2.824,"pct_alto":86.1,"n_hexagonos":1,"area_ha":41.51}},{"type":"Feature","geometry":{"type":"Polygon","coordinates":[[[-72.939775,-36.891045],[-72.941526,-36.886642],[-72.946728,-36.88533],[-72.94618,-36.88662],[-72.946063,-36.887366],[-72.94605,-36.88771],[-72.94607,-36.88833],[-72.94629,-36.88885],[-72.946774,-36.889427],[-72.94755,-36.89038],[-72.94774,-36.89081],[-72.94773,-36.89147],[-72.94765,-36.89203],[-72.947351,-36.893096],[-72.943252,-36.89413],[-72.941983,-36.897323],[-72.941592,-36.897192],[-72.940867,-36.896656],[-72.940626,-36.896441],[-72.939928,-36.896065],[-72.939606,-36.895797],[-72.939257,-36.895368],[-72.93923,-36.894804],[-72.939123,-36.894563],[-72.938908,-36.894455],[-72.938425,-36.894697],[-72.938103,-36.894777],[-72.937647,-36.894643],[-72.93703,-36.894268],[-72.93614,-36.89393],[-72.935608,-36.893194],[-72.935206,-36.89298],[-72.934642,-36.893302],[-72.934213,-36.893409],[-72.934136,-36.893397],[-72.934547,-36.892363],[-72.939775,-36.891045]]]},"properties":{"comuna":"Concepción","mancha_id":"08101-88b2dbd2d5fffff","clase":"Muy Alto","nivel_medio":3.711,"nivel_medio_min":3.569,"nivel_medio_max":3.794,"pct_alto":98.9,"n_hexagonos":2,"area_ha":71.32}},{"type":"Feature","geometry":{"type":"Polygon","coordinates":[[[-72.992084,-36.854065],[-72.990337,-36.858469],[-72.98511,-36.859791],[-72.981631,-36.856708],[-72.983378,-36.852305],[-72.988604,-36.850983],[-72.992084,-36.854065]]]},"properties":{"comuna":"Concepción","mancha_id":"08101-88b2dbd257fffff","clase":"Muy Alto","nivel_medio":3.614,"nivel_medio_min":3.614,"nivel_medio_max":3.614,"pct_alto":94.6,"n_hexagonos":1,"area_ha":61.48}},{"type":"Feature","geometry":{"type":"Polygon","coordinates":[[[-72.985095,-36.871682],[-72.988576,-36.874765],[-72.988376,-36.875269],[-72.987623,-36.87529],[-72.986325,-36.874793],[-72.985773,-36.874655],[-72.985303,-36.87424],[-72.984917,-36.873936],[-72.984447,-36.87355],[-72.983729,-36.872859],[-72.982873,-36.872473],[-72.982576,-36.872318],[-72.985095,-36.871682]]]},"properties":{"comuna":"Concepción","mancha_id":"08101-88b2dbd217fffff","clase":"Muy Alto","nivel_medio":3.596,"nivel_medio_min":3.596,"nivel_medio_max":3.596,"pct_alto":99.2,"n_hexagonos":1,"area_ha":8.5}},{"type":"Feature","geometry":{"type":"Polygon","coordinates":[[[-72.999044,-36.86023],[-73.002525,-36.863313],[-73.002427,-36.86356],[-73.0024,-36.86356],[-73.00142,-36.86359],[-73.00128,-36.86355],[-73.00114,-36.86345],[-73.0009,-36.86311],[-73.00071,-36.86282],[-73.00005,-36.86238],[-72.99991,-36.8622],[-72.99971,-36.86179],[-72.99947,-36.86156],[-72.99909,-36.86139],[-72.99874,-36.86138],[-72.99811,-36.86154],[-72.997969,-36.861581],[-72.998005,-36.861688],[-72.998174,-36.861962],[-72.998422,-36.862457],[-72.998761,-36.863082],[-72.9988,-36.863355],[-72.9988,-36.863655],[-72.998761,-36.864046],[-72.998735,-36.864319],[-72.998787,-36.864619],[-72.998865,-36.864906],[-72.99893,-36.86527],[-72.998982,-36.865752],[-72.999099,-36.865961],[-72.999191,-36.866143],[-72.999334,-36.866299],[-72.99949,-36.866443],[-72.999516,-36.866586],[-72.999308,-36.866781],[-72.998982,-36.866781],[-72.99837,-36.866781],[-72.998109,-36.86686],[-72.997888,-36.867029],[-72.99781,-36.867237],[-72.997745,-36.86742],[-72.997549,-36.86755],[-72.997289,-36.867654],[-72.996898,-36.867745],[-72.996507,-36.867941],[-72.996255,-36.868087],[-72.995989,-36.86838],[-72.995749,-36.86862],[-72.995695,-36.86886],[-72.995648,-36.869015],[-72.995551,-36.869039],[-72.99207,-36.865956],[-72.993817,-36.861552],[-72.999044,-36.86023]]]},"properties":{"comuna":"Concepción","mancha_id":"08101-88b2dbd203fffff","clase":"Muy Alto","nivel_medio":3.528,"nivel_medio_min":3.528,"nivel_medio_max":3.528,"pct_alto":92.7,"n_hexagonos":1,"area_ha":42.96}},{"type":"Feature","geometry":{"type":"Polygon","coordinates":[[[-72.938124,-36.847895],[-72.941598,-36.850978],[-72.946822,-36.849659],[-72.950297,-36.852741],[-72.955522,-36.851422],[-72.957271,-36.847019],[-72.953795,-36.843937],[-72.948571,-36.845257],[-72.945096,-36.842175],[-72.946845,-36.837773],[-72.952068,-36.836453],[-72.955543,-36.839535],[-72.960767,-36.838215],[-72.962515,-36.833813],[-72.967738,-36.832492],[-72.971214,-36.835574],[-72.976438,-36.834253],[-72.979916,-36.837334],[-72.98514,-36.836013],[-72.988618,-36.839094],[-72.986872,-36.843498],[-72.981647,-36.844819],[-72.979899,-36.849222],[-72.974674,-36.850543],[-72.972926,-36.854946],[-72.967701,-36.856267],[-72.964223,-36.853184],[-72.958998,-36.854504],[-72.95725,-36.858907],[-72.952024,-36.860226],[-72.951771,-36.860865],[-72.950743,-36.861044],[-72.949562,-36.861289],[-72.948464,-36.861424],[-72.946808,-36.861461],[-72.944944,-36.861472],[-72.94458,-36.861389],[-72.944474,-36.86136],[-72.944329,-36.86149],[-72.944135,-36.861687],[-72.943994,-36.861891],[-72.943843,-36.862054],[-72.943708,-36.862327],[-72.943665,-36.862498],[-72.943647,-36.862573],[-72.943601,-36.862754],[-72.943605,-36.862914],[-72.943746,-36.863121],[-72.943978,-36.863382],[-72.944143,-36.863573],[-72.944222,-36.863728],[-72.944269,-36.863855],[-72.944275,-36.863968],[-72.944242,-36.864124],[-72.9442,-36.86431],[-72.944134,-36.864404],[-72.944118,-36.864596],[-72.944156,-36.864746],[-72.944226,-36.864887],[-72.944358,-36.865073],[-72.944584,-36.865149],[-72.944961,-36.865342],[-72.945298,-36.865483],[-72.945539,-36.865615],[-72.94576,-36.865769],[-72.94505,-36.865948],[-72.941574,-36.862865],[-72.943324,-36.858463],[-72.939849,-36.85538],[-72.934624,-36.856698],[-72.93115,-36.853615],[-72.9329,-36.849214],[-72.938124,-36.847895]]]},"properties":{"comuna":"Concepción","mancha_id":"08101-88b2d86d03fffff","clase":"Muy Alto","nivel_medio":3.714,"nivel_medio_min":3.54,"nivel_medio_max":3.936,"pct_alto":98.4,"n_hexagonos":13,"area_ha":772.42}},{"type":"Feature","geometry":{"type":"Polygon","coordinates":[[[-73.054808,-36.838184],[-73.053066,-36.84259],[-73.047838,-36.843915],[-73.044353,-36.840834],[-73.046097,-36.836428],[-73.051324,-36.835103],[-73.054808,-36.838184]]]},"properties":{"comuna":"Concepción","mancha_id":"08101-88b2d869b1fffff","clase":"Muy Alto","nivel_medio":3.681,"nivel_medio_min":3.681,"nivel_medio_max":3.681,"pct_alto":93.3,"n_hexagonos":1,"area_ha":61.54}},{"type":"Feature","geometry":{"type":"Polygon","coordinates":[[[-73.021728,-36.802977],[-73.019985,-36.807381],[-73.014762,-36.808705],[-73.011283,-36.805625],[-73.013027,-36.801222],[-73.018249,-36.799898],[-73.021728,-36.802977]]]},"properties":{"comuna":"Concepción","mancha_id":"08101-88b2d868e7fffff","clase":"Muy Alto","nivel_medio":3.544,"nivel_medio_min":3.544,"nivel_medio_max":3.544,"pct_alto":90.0,"n_hexagonos":1,"area_ha":61.47}}],"bbox":[-73.09147,-36.92711,-72.84465,-36.76436]}