{"type":"FeatureCollection","features":[{"type":"Feature","geometry":{"type":"Polygon","coordinates":[[[-73.032124,-36.919268],[-73.037359,-36.917945],[-73.039105,-36.913537],[-73.035617,-36.910452],[-73.037362,-36.906045],[-73.042596,-36.904722],[-73.044341,-36.900314],[-73.040853,-36.89723],[-73.042599,-36.892823],[-73.039112,-36.889739],[-73.040857,-36.885332],[-73.03737,-36.882249],[-73.039115,-36.877842],[-73.044346,-36.876518],[-73.04609,-36.872111],[-73.051321,-36.870787],[-73.053064,-36.86638],[-73.049578,-36.863298],[-73.051322,-36.858891],[-73.056551,-36.857566],[-73.057004,-36.856423],[-73.059867,-36.856755],[-73.05985,-36.85679],[-73.058466,-36.859259],[-73.05628,-36.86316],[-73.055249,-36.865827],[-73.05282,-36.872113],[-73.05274,-36.87232],[-73.050459,-36.878937],[-73.04953,-36.88163],[-73.048562,-36.886196],[-73.04749,-36.89125],[-73.047448,-36.891596],[-73.046464,-36.899777],[-73.04637,-36.90056],[-73.04577,-36.90709],[-73.045713,-36.907478],[-73.045415,-36.909496],[-73.044936,-36.912742],[-73.043823,-36.920278],[-73.043801,-36.920429],[-73.041818,-36.927841],[-73.04086,-36.93142],[-73.040438,-36.933035],[-73.039688,-36.935905],[-73.035245,-36.939887],[-73.033861,-36.938663],[-73.035608,-36.934255],[-73.032119,-36.931169],[-73.026884,-36.932491],[-73.025137,-36.936899],[-73.028625,-36.939985],[-73.026878,-36.944393],[-73.029227,-36.946472],[-73.028028,-36.949163],[-73.027626,-36.951102],[-73.026459,-36.952433],[-73.026089,-36.952856],[-73.025823,-36.953275],[-73.024901,-36.954731],[-73.023525,-36.956207],[-73.021946,-36.957375],[-73.021676,-36.957513],[-73.021312,-36.957699],[-73.020586,-36.95807],[-73.017382,-36.9606],[-73.016575,-36.961021],[-73.015766,-36.961483],[-73.015291,-36.961726],[-73.016397,-36.958939],[-73.012908,-36.955851],[-73.014657,-36.951443],[-73.011169,-36.948356],[-73.012918,-36.943949],[-73.00943,-36.940862],[-73.011179,-36.936455],[-73.016414,-36.935134],[-73.018161,-36.930726],[-73.023396,-36.929405],[-73.025143,-36.924997],[-73.021656,-36.921912],[-73.023403,-36.917505],[-73.028637,-36.916182],[-73.032124,-36.919268]]]},"properties":{"comuna":"Chiguayante","mancha_id":"08103-88b2dbd021fffff","clase":"Muy Bajo","nivel_medio":0.208,"nivel_medio_min":0.0,"nivel_medio_max":0.491,"pct_alto":5.7,"n_hexagonos":26,"area_ha":1066.84}},{"type":"Feature","geometry":{"type":"Polygon","coordinates":[[[-73.051322,-36.858891],[-73.047836,-36.855809],[-73.047973,-36.855463],[-73.047997,-36.855462],[-73.049483,-36.855549],[-73.057004,-36.856423],[-73.056551,-36.857566],[-73.051322,-36.858891]]]},"properties":{"comuna":"Chiguayante","mancha_id":"08103-88b2dbd35dfffff","clase":"Bajo","nivel_medio":0.65,"nivel_medio_min":0.65,"nivel_medio_max":0.65,"pct_alto":18.3,"n_hexagonos":1,"area_ha":17.53}},{"type":"Feature","geometry":{"type":"Polygon","coordinates":[[[-73.053064,-36.86638],[-73.051321,-36.870787],[-73.04609,-36.872111],[-73.042604,-36.869029],[-73.044348,-36.864622],[-73.049578,-36.863298],[-73.053064,-36.86638]]]},"properties":{"comuna":"Chiguayante","mancha_id":"08103-88b2dbd357fffff","clase":"Bajo","nivel_medio":0.735,"nivel_medio_min":0.735,"nivel_medio_max":0.735,"pct_alto":21.6,"n_hexagonos":1,"area_ha":61.56}},{"type":"Feature","geometry":{"type":"Polygon","coordinates":[[[-73.006766,-36.962326],[-73.005923,-36.961579],[-73.006781,-36.959415],[-73.006804,-36.959398],[-73.007155,-36.958862],[-73.007654,-36.958437],[-73.007931,-36.958123],[-73.008851,-36.956874],[-73.012908,-36.955851],[-73.016397,-36.958939],[-73.015291,-36.961726],[-73.014889,-36.961931],[-73.01326,-36.960773],[-73.013115,-36.960695],[-73.012881,-36.960643],[-73.012742,-36.960624],[-73.01249,-36.960672],[-73.012211,-36.960643],[-73.012051,-36.96062],[-73.011869,-36.960552],[-73.011629,-36.960404],[-73.011493,-36.960267],[-73.011409,-36.960211],[-73.011342,-36.960212],[-73.011249,-36.960258],[-73.011173,-36.960381],[-73.011132,-36.960495],[-73.011093,-36.960584],[-73.011001,-36.96069],[-73.010861,-36.960809],[-73.010615,-36.960951],[-73.010478,-36.960985],[-73.01025,-36.960997],[-73.010068,-36.960962],[-73.009908,-36.960985],[-73.009714,-36.961076],[-73.009407,-36.961293],[-73.009144,-36.961487],[-73.008951,-36.961612],[-73.008768,-36.961669],[-73.008403,-36.961681],[-73.008096,-36.961703],[-73.007936,-36.961772],[-73.007811,-36.961886],[-73.007674,-36.962023],[-73.007564,-36.962138],[-73.007419,-36.962239],[-73.007218,-36.962308],[-73.006933,-36.962319],[-73.006766,-36.962326]]]},"properties":{"comuna":"Chiguayante","mancha_id":"08103-88b2dbd1d7fffff","clase":"Bajo","nivel_medio":1.396,"nivel_medio_min":1.396,"nivel_medio_max":1.396,"pct_alto":39.3,"n_hexagonos":1,"area_ha":39.42}},{"type":"Feature","geometry":{"type":"Polygon","coordinates":[[[-73.026878,-36.944393],[-73.028625,-36.939985],[-73.025137,-36.936899],[-73.026884,-36.932491],[-73.032119,-36.931169],[-73.035608,-36.934255],[-73.033861,-36.938663],[-73.035245,-36.939887],[-73.03464,-36.940429],[-73.030443,-36.943744],[-73.029227,-36.946472],[-73.026878,-36.944393]]]},"properties":{"comuna":"Chiguayante","mancha_id":"08103-88b2dbd1c1fffff","clase":"Bajo","nivel_medio":0.552,"nivel_medio_min":0.535,"nivel_medio_max":0.587,"pct_alto":11.3,"n_hexagonos":2,"area_ha":89.82}},{"type":"Feature","geometry":{"type":"Polygon","coordinates":[[[-73.044341,-36.900314],[-73.042596,-36.904722],[-73.037362,-36.906045],[-73.033875,-36.902961],[-73.035621,-36.898553],[-73.032134,-36.895469],[-73.03388,-36.891062],[-73.039112,-36.889739],[-73.042599,-36.892823],[-73.040853,-36.89723],[-73.044341,-36.900314]]]},"properties":{"comuna":"Chiguayante","mancha_id":"08103-88b2dbd061fffff","clase":"Bajo","nivel_medio":0.893,"nivel_medio_min":0.671,"nivel_medio_max":1.116,"pct_alto":25.3,"n_hexagonos":2,"area_ha":123.16}},{"type":"Feature","geometry":{"type":"Polygon","coordinates":[[[-73.025143,-36.924997],[-73.023396,-36.929405],[-73.018161,-36.930726],[-73.014674,-36.92764],[-73.016422,-36.923233],[-73.021656,-36.921912],[-73.025143,-36.924997]]]},"properties":{"comuna":"Chiguayante","mancha_id":"08103-88b2dbd03dfffff","clase":"Bajo","nivel_medio":0.971,"nivel_medio_min":0.971,"nivel_medio_max":0.971,"pct_alto":26.1,"n_hexagonos":1,"area_ha":61.58}},{"type":"Feature","geometry":{"type":"Polygon","coordinates":[[[-73.026896,-36.90869],[-73.030383,-36.911775],[-73.035617,-36.910452],[-73.039105,-36.913537],[-73.037359,-36.917945],[-73.032124,-36.919268],[-73.028637,-36.916182],[-73.023403,-36.917505],[-73.019916,-36.914419],[-73.021663,-36.910012],[-73.026896,-36.90869]]]},"properties":{"comuna":"Chiguayante","mancha_id":"08103-88b2dbd005fffff","clase":"Bajo","nivel_medio":1.137,"nivel_medio_min":1.1,"nivel_medio_max":1.174,"pct_alto":31.8,"n_hexagonos":2,"area_ha":123.16}},{"type":"Feature","geometry":{"type":"Polygon","coordinates":[[[-73.04609,-36.872111],[-73.044346,-36.876518],[-73.039115,-36.877842],[-73.03563,-36.874759],[-73.037374,-36.870353],[-73.033889,-36.86727],[-73.035634,-36.862864],[-73.040863,-36.86154],[-73.044348,-36.864622],[-73.042604,-36.869029],[-73.04609,-36.872111]]]},"properties":{"comuna":"Chiguayante","mancha_id":"08103-88b2dbd319fffff","clase":"Medio","nivel_medio":1.812,"nivel_medio_min":1.787,"nivel_medio_max":1.837,"pct_alto":51.0,"n_hexagonos":2,"area_ha":123.11}},{"type":"Feature","geometry":{"type":"Polygon","coordinates":[[[-73.014657,-36.951443],[-73.012908,-36.955851],[-73.008851,-36.956874],[-73.008991,-36.956684],[-73.007192,-36.955351],[-73.004863,-36.953632],[-73.004479,-36.953341],[-73.005933,-36.949677],[-73.002446,-36.94659],[-73.004195,-36.942183],[-73.00943,-36.940862],[-73.012918,-36.943949],[-73.011169,-36.948356],[-73.014657,-36.951443]]]},"properties":{"comuna":"Chiguayante","mancha_id":"08103-88b2dbd1d1fffff","clase":"Medio","nivel_medio":2.238,"nivel_medio_min":2.174,"nivel_medio_max":2.296,"pct_alto":58.7,"n_hexagonos":2,"area_ha":118.1}},{"type":"Feature","geometry":{"type":"Polygon","coordinates":[[[-72.965693,-36.932064],[-72.965838,-36.932028],[-72.966777,-36.93286],[-72.966244,-36.932825],[-72.965719,-36.932239],[-72.965693,-36.932064]]]},"properties":{"comuna":"Chiguayante","mancha_id":"08103-88b2dbd0c3fffff","clase":"Medio","nivel_medio":2.37,"nivel_medio_min":2.37,"nivel_medio_max":2.37,"pct_alto":37.0,"n_hexagonos":1,"area_ha":0.31}},{"type":"Feature","geometry":{"type":"Polygon","coordinates":[[[-73.037362,-36.906045],[-73.035617,-36.910452],[-73.030383,-36.911775],[-73.026896,-36.90869],[-73.028642,-36.904283],[-73.025156,-36.901199],[-73.026902,-36.896792],[-73.032134,-36.895469],[-73.035621,-36.898553],[-73.033875,-36.902961],[-73.037362,-36.906045]]]},"properties":{"comuna":"Chiguayante","mancha_id":"08103-88b2dbd063fffff","clase":"Medio","nivel_medio":1.741,"nivel_medio_min":1.521,"nivel_medio_max":1.962,"pct_alto":47.1,"n_hexagonos":2,"area_ha":123.15}},{"type":"Feature","geometry":{"type":"Polygon","coordinates":[[[-73.018161,-36.930726],[-73.016414,-36.935134],[-73.011179,-36.936455],[-73.007692,-36.933369],[-73.00944,-36.928962],[-73.014674,-36.92764],[-73.018161,-36.930726]]]},"properties":{"comuna":"Chiguayante","mancha_id":"08103-88b2dbd031fffff","clase":"Medio","nivel_medio":2.135,"nivel_medio_min":2.135,"nivel_medio_max":2.135,"pct_alto":58.1,"n_hexagonos":1,"area_ha":61.58}},{"type":"Feature","geometry":{"type":"Polygon","coordinates":[[[-73.006781,-36.959415],[-73.005923,-36.961579],[-73.005906,-36.961583],[-73.00593,-36.961396],[-73.006021,-36.961019],[-73.006101,-36.960632],[-73.006158,-36.960347],[-73.006226,-36.960062],[-73.006238,-36.959845],[-73.006306,-36.959663],[-73.006466,-36.95956],[-73.006694,-36.959481],[-73.006781,-36.959415]]]},"properties":{"comuna":"Chiguayante","mancha_id":"08103-88b2dbd1d3fffff","clase":"Alto","nivel_medio":3.399,"nivel_medio_min":3.399,"nivel_medio_max":3.399,"pct_alto":95.6,"n_hexagonos":1,"area_ha":0.43}},{"type":"Feature","geometry":{"type":"Polygon","coordinates":[[[-73.023424,-36.881811],[-73.021678,-36.886218],[-73.016447,-36.88754],[-73.012963,-36.884456],[-73.014709,-36.88005],[-73.019939,-36.878728],[-73.021685,-36.874322],[-73.018201,-36.871239],[-73.019947,-36.866834],[-73.017105,-36.864318],[-73.017149,-36.864205],[-73.017971,-36.864241],[-73.01815,-36.86399],[-73.017935,-36.863203],[-73.01815,-36.862631],[-73.019044,-36.862595],[-73.02001,-36.862273],[-73.021119,-36.862023],[-73.021655,-36.861916],[-73.022406,-36.861737],[-73.02305,-36.861415],[-73.023658,-36.860414],[-73.023801,-36.859484],[-73.023766,-36.858518],[-73.023662,-36.858221],[-73.02352,-36.857815],[-73.023515,-36.857802],[-73.023551,-36.85723],[-73.023944,-36.856658],[-73.02401,-36.856578],[-73.024409,-36.856086],[-73.025089,-36.855621],[-73.026055,-36.855406],[-73.026591,-36.855549],[-73.027414,-36.855549],[-73.028237,-36.855692],[-73.028666,-36.855764],[-73.02888,-36.85537],[-73.029059,-36.855013],[-73.029381,-36.854583],[-73.030132,-36.854476],[-73.030776,-36.854726],[-73.030991,-36.855334],[-73.031563,-36.855692],[-73.032048,-36.8559],[-73.032625,-36.856036],[-73.033288,-36.856285],[-73.033491,-36.856394],[-73.033742,-36.856529],[-73.034564,-36.856815],[-73.03548,-36.85686],[-73.036235,-36.856997],[-73.03659,-36.856994],[-73.03678,-36.85679],[-73.03684,-36.85666],[-73.03693,-36.85649],[-73.03703,-36.85627],[-73.0371,-36.85609],[-73.0372,-36.85592],[-73.03733,-36.85576],[-73.0375,-36.85563],[-73.0377,-36.8555],[-73.03791,-36.85538],[-73.03811,-36.85528],[-73.03834,-36.85518],[-73.03856,-36.85511],[-73.03878,-36.85505],[-73.03903,-36.85501],[-73.03929,-36.85498],[-73.03952,-36.85495],[-73.03984,-36.85486],[-73.03997,-36.854801],[-73.04004,-36.85477],[-73.04024,-36.85466],[-73.040285,-36.854628],[-73.046364,-36.855268],[-73.046532,-36.855255],[-73.047155,-36.855361],[-73.047645,-36.855476],[-73.047973,-36.855463],[-73.047836,-36.855809],[-73.051322,-36.858891],[-73.049578,-36.863298],[-73.044348,-36.864622],[-73.040863,-36.86154],[-73.035634,-36.862864],[-73.033889,-36.86727],[-73.037374,-36.870353],[-73.03563,-36.874759],[-73.039115,-36.877842],[-73.03737,-36.882249],[-73.040857,-36.885332],[-73.039112,-36.889739],[-73.03388,-36.891062],[-73.030394,-36.887979],[-73.032139,-36.883572],[-73.028654,-36.880489],[-73.023424,-36.881811]]]},"properties":{"comuna":"Chiguayante","mancha_id":"08103-88b2dbd049fffff","clase":"Alto","nivel_medio":3.138,"nivel_medio_min":2.653,"nivel_medio_max":3.461,"pct_alto":86.7,"n_hexagonos":13,"area_ha":636.37}},{"type":"Feature","geometry":{"type":"Polygon","coordinates":[[[-72.959305,-36.864575],[-72.959584,-36.864867],[-72.959813,-36.865106],[-72.960316,-36.865626],[-72.960506,-36.865822],[-72.960714,-36.8664],[-72.960714,-36.866839],[-72.960714,-36.867277],[-72.960798,-36.868006],[-72.960852,-36.868478],[-72.96106,-36.868917],[-72.961637,-36.869287],[-72.961915,-36.869518],[-72.961799,-36.870072],[-72.96136,-36.870672],[-72.961545,-36.870996],[-72.961727,-36.87131],[-72.961799,-36.871434],[-72.962654,-36.871781],[-72.963393,-36.872081],[-72.964986,-36.872381],[-72.965633,-36.872474],[-72.966303,-36.872682],[-72.966926,-36.873213],[-72.967665,-36.873421],[-72.96852,-36.873467],[-72.969051,-36.873236],[-72.969074,-36.872728],[-72.969536,-36.872058],[-72.970113,-36.87155],[-72.97019,-36.871467],[-72.970737,-36.87088],[-72.970743,-36.870869],[-72.971014,-36.870372],[-72.971175,-36.869864],[-72.971222,-36.869287],[-72.97136,-36.869009],[-72.971707,-36.868894],[-72.972769,-36.868917],[-72.974132,-36.868871],[-72.974871,-36.868894],[-72.97561,-36.869048],[-72.976272,-36.869186],[-72.976602,-36.86938],[-72.976742,-36.869463],[-72.977515,-36.869628],[-72.978537,-36.869822],[-72.979004,-36.870008],[-72.979366,-36.870153],[-72.980111,-36.870622],[-72.980746,-36.870788],[-72.981078,-36.870954],[-72.981547,-36.871423],[-72.981823,-36.871727],[-72.982182,-36.872114],[-72.982576,-36.872318],[-72.982873,-36.872473],[-72.983729,-36.872859],[-72.984447,-36.87355],[-72.984917,-36.873936],[-72.985303,-36.87424],[-72.985773,-36.874655],[-72.986325,-36.874793],[-72.987623,-36.87529],[-72.988376,-36.875269],[-72.989611,-36.875234],[-72.990661,-36.875262],[-72.991351,-36.875207],[-72.991986,-36.874765],[-72.992311,-36.874563],[-72.992684,-36.874376],[-72.99319,-36.874296],[-72.993617,-36.87419],[-72.993963,-36.873896],[-72.994075,-36.873684],[-72.997285,-36.876527],[-73.002514,-36.875206],[-73.004261,-36.870801],[-73.000779,-36.867718],[-72.995648,-36.869015],[-72.995695,-36.86886],[-72.995749,-36.86862],[-72.995989,-36.86838],[-72.996255,-36.868087],[-72.996507,-36.867941],[-72.996898,-36.867745],[-72.997289,-36.867654],[-72.997549,-36.86755],[-72.997745,-36.86742],[-72.99781,-36.867237],[-72.997888,-36.867029],[-72.998109,-36.86686],[-72.99837,-36.866781],[-72.998982,-36.866781],[-72.999308,-36.866781],[-72.999516,-36.866586],[-72.99949,-36.866443],[-72.999334,-36.866299],[-72.999191,-36.866143],[-72.999099,-36.865961],[-72.998982,-36.865752],[-72.99893,-36.86527],[-72.998865,-36.864906],[-72.998787,-36.864619],[-72.998735,-36.864319],[-72.998761,-36.864046],[-72.9988,-36.863655],[-72.9988,-36.863355],[-72.998761,-36.863082],[-72.998422,-36.862457],[-72.998174,-36.861962],[-72.998005,-36.861688],[-72.997969,-36.861581],[-72.99811,-36.86154],[-72.99874,-36.86138],[-72.99909,-36.86139],[-72.99947,-36.86156],[-72.99971,-36.86179],[-72.99991,-36.8622],[-73.00005,-36.86238],[-73.00071,-36.86282],[-73.0009,-36.86311],[-73.00114,-36.86345],[-73.00128,-36.86355],[-73.00142,-36.86359],[-73.0024,-36.86356],[-73.002427,-36.86356],[-73.00281,-36.86356],[-73.00304,-36.86357],[-73.00327,-36.86353],[-73.00347,-36.86341],[-73.00362,-36.86326],[-73.00375,-36.86311],[-73.003868,-36.862973],[-73.00388,-36.86296],[-73.00404,-36.86281],[-73.00422,-36.86269],[-73.00448,-36.86259],[-73.00473,-36.86254],[-73.00498,-36.86252],[-73.00522,-36.86251],[-73.00548,-36.86255],[-73.005504,-36.86256],[-73.00568,-36.86263],[-73.00583,-36.86278],[-73.0059,-36.86297],[-73.00594,-36.86335],[-73.00596,-36.86355],[-73.00597,-36.86373],[-73.00599,-36.86392],[-73.00605,-36.8641],[-73.00627,-36.86406],[-73.00673,-36.86412],[-73.00695,-36.86412],[-73.00718,-36.86412],[-73.00742,-36.86414],[-73.00771,-36.86417],[-73.00781,-36.86419],[-73.00794,-36.86422],[-73.00818,-36.86426],[-73.00842,-36.86428],[-73.00865,-36.86425],[-73.00888,-36.8642],[-73.00912,-36.86416],[-73.00938,-36.86414],[-73.00951,-36.86414],[-73.00964,-36.86415],[-73.00989,-36.8642],[-73.01019,-36.8643],[-73.01038,-36.86441],[-73.01053,-36.86459],[-73.01062,-36.86479],[-73.01066,-36.86497],[-73.01068,-36.86514],[-73.01071,-36.86534],[-73.01072,-36.86554],[-73.01085,-36.86573],[-73.010973,-36.865735],[-73.009489,-36.869479],[-73.012972,-36.872562],[-73.011226,-36.876967],[-73.005997,-36.878289],[-73.00425,-36.882694],[-73.007733,-36.885778],[-73.005986,-36.890184],[-73.00947,-36.893268],[-73.014701,-36.891946],[-73.018185,-36.89503],[-73.016439,-36.899436],[-73.019924,-36.902521],[-73.025156,-36.901199],[-73.028642,-36.904283],[-73.026896,-36.90869],[-73.021663,-36.910012],[-73.018177,-36.906928],[-73.012945,-36.908249],[-73.00946,-36.905164],[-73.004228,-36.906486],[-73.00248,-36.910892],[-72.997248,-36.912213],[-72.9955,-36.916619],[-72.998984,-36.919704],[-72.997236,-36.92411],[-72.996759,-36.924231],[-72.996764,-36.924124],[-72.99661,-36.92333],[-72.99638,-36.92286],[-72.99625,-36.92227],[-72.99589,-36.92207],[-72.995517,-36.921659],[-72.9952,-36.921316],[-72.99498,-36.92114],[-72.99465,-36.92102],[-72.994699,-36.920417],[-72.994743,-36.919972],[-72.994959,-36.918879],[-72.9952,-36.91801],[-72.995239,-36.917037],[-72.9953,-36.91668],[-72.995306,-36.916668],[-72.99548,-36.91631],[-72.99548,-36.916],[-72.995344,-36.9157],[-72.994884,-36.91521],[-72.994136,-36.915146],[-72.99284,-36.91564],[-72.991945,-36.915825],[-72.991297,-36.915825],[-72.990279,-36.915732],[-72.989292,-36.91567],[-72.988582,-36.915856],[-72.988156,-36.916069],[-72.987595,-36.916349],[-72.986731,-36.916627],[-72.985219,-36.917121],[-72.98454,-36.917337],[-72.984016,-36.91746],[-72.982596,-36.917984],[-72.981702,-36.918447],[-72.981085,-36.91891],[-72.980344,-36.919496],[-72.980201,-36.919576],[-72.979573,-36.919928],[-72.979017,-36.92036],[-72.97874,-36.920823],[-72.978739,-36.920847],[-72.978709,-36.921533],[-72.978771,-36.922088],[-72.979141,-36.922705],[-72.979573,-36.923446],[-72.97982,-36.923754],[-72.979974,-36.924371],[-72.978863,-36.925019],[-72.978524,-36.925451],[-72.978038,-36.926453],[-72.978184,-36.92721],[-72.978478,-36.928731],[-72.978434,-36.928853],[-72.978246,-36.92937],[-72.977876,-36.930388],[-72.977854,-36.931651],[-72.977567,-36.932455],[-72.977302,-36.9332],[-72.97695,-36.933381],[-72.977236,-36.933938],[-72.977166,-36.934769],[-72.977118,-36.935339],[-72.977356,-36.936053],[-72.977171,-36.936115],[-72.976918,-36.936199],[-72.97621,-36.936435],[-72.975469,-36.936682],[-72.975006,-36.936836],[-72.97435,-36.936615],[-72.974204,-36.936096],[-72.97395,-36.935193],[-72.973457,-36.934873],[-72.972569,-36.934296],[-72.972552,-36.934285],[-72.9718,-36.933796],[-72.970903,-36.933213],[-72.97007,-36.932671],[-72.969453,-36.93227],[-72.968805,-36.932239],[-72.968064,-36.932671],[-72.9672,-36.932887],[-72.966777,-36.93286],[-72.965838,-36.932028],[-72.965693,-36.932064],[-72.965596,-36.931406],[-72.965195,-36.930727],[-72.964423,-36.93045],[-72.963578,-36.929328],[-72.962774,-36.928938],[-72.962202,-36.92866],[-72.961436,-36.928288],[-72.960968,-36.927796],[-72.960351,-36.927148],[-72.959973,-36.926177],[-72.960196,-36.925667],[-72.96037,-36.925478],[-72.961217,-36.924554],[-72.961492,-36.92333],[-72.961049,-36.922687],[-72.959734,-36.921735],[-72.958993,-36.921255],[-72.957493,-36.920283],[-72.956621,-36.919683],[-72.956402,-36.919532],[-72.95597,-36.918641],[-72.956339,-36.917649],[-72.956345,-36.917634],[-72.956155,-36.916719],[-72.955942,-36.916236],[-72.955414,-36.915825],[-72.954581,-36.915507],[-72.95384,-36.915433],[-72.953652,-36.915414],[-72.953276,-36.915376],[-72.952739,-36.915323],[-72.951814,-36.91523],[-72.950971,-36.915146],[-72.950045,-36.915053],[-72.949318,-36.915156],[-72.948163,-36.914899],[-72.94729,-36.914704],[-72.946775,-36.914189],[-72.946405,-36.913819],[-72.946373,-36.913194],[-72.945788,-36.912523],[-72.945486,-36.912178],[-72.945263,-36.911923],[-72.945078,-36.911104],[-72.944916,-36.910389],[-72.945023,-36.90973],[-72.945134,-36.909042],[-72.945221,-36.908507],[-72.945322,-36.907879],[-72.945325,-36.907864],[-72.945434,-36.907192],[-72.945887,-36.906512],[-72.946158,-36.906106],[-72.946405,-36.905735],[-72.946405,-36.905211],[-72.94611,-36.90501],[-72.9459,-36.90493],[-72.945647,-36.904858],[-72.94526,-36.90475],[-72.94504,-36.90472],[-72.94482,-36.90467],[-72.9446,-36.90461],[-72.9444,-36.90452],[-72.94418,-36.90445],[-72.94397,-36.90438],[-72.943889,-36.904361],[-72.94376,-36.90433],[-72.94353,-36.90434],[-72.94331,-36.90428],[-72.94314,-36.90416],[-72.943008,-36.904136],[-72.94292,-36.90412],[-72.94269,-36.90413],[-72.94267,-36.90412],[-72.94294,-36.90354],[-72.943355,-36.903061],[-72.94357,-36.90284],[-72.943845,-36.902407],[-72.94409,-36.90201],[-72.944439,-36.901567],[-72.944635,-36.901312],[-72.944746,-36.901166],[-72.94486,-36.90095],[-72.94491,-36.90059],[-72.94493,-36.89989],[-72.94484,-36.899],[-72.944744,-36.898351],[-72.94465,-36.8977],[-72.94448,-36.89705],[-72.94453,-36.89663],[-72.94459,-36.89629],[-72.94484,-36.89583],[-72.94534,-36.89527],[-72.94564,-36.89492],[-72.94616,-36.89425],[-72.94696,-36.89393],[-72.94717,-36.89361],[-72.94735,-36.8931],[-72.947351,-36.893096],[-72.94765,-36.89203],[-72.94773,-36.89147],[-72.94774,-36.89081],[-72.94755,-36.89038],[-72.946774,-36.889427],[-72.94629,-36.88885],[-72.94607,-36.88833],[-72.94605,-36.88771],[-72.946063,-36.887366],[-72.94618,-36.88662],[-72.946728,-36.88533],[-72.94697,-36.88476],[-72.947502,-36.883182],[-72.947649,-36.882538],[-72.947649,-36.882187],[-72.947502,-36.881748],[-72.947327,-36.880958],[-72.947092,-36.880022],[-72.947092,-36.87967],[-72.947092,-36.878734],[-72.947122,-36.877827],[-72.947063,-36.876949],[-72.947063,-36.876305],[-72.947122,-36.875691],[-72.946975,-36.875017],[-72.946946,-36.874696],[-72.947034,-36.874344],[-72.947502,-36.873818],[-72.947811,-36.873173],[-72.947824,-36.873145],[-72.947912,-36.872618],[-72.948029,-36.87215],[-72.947941,-36.871681],[-72.947941,-36.87133],[-72.948087,-36.870657],[-72.947736,-36.87016],[-72.947385,-36.869662],[-72.947203,-36.869348],[-72.946981,-36.868845],[-72.946863,-36.868416],[-72.946878,-36.868062],[-72.946878,-36.867707],[-72.946848,-36.867441],[-72.946656,-36.86719],[-72.946286,-36.866879],[-72.946065,-36.866657],[-72.946005,-36.866273],[-72.94596,-36.866006],[-72.945797,-36.865794],[-72.94576,-36.865769],[-72.950275,-36.864629],[-72.951771,-36.860865],[-72.95207,-36.860812],[-72.953,-36.860737],[-72.953637,-36.860715],[-72.953612,-36.861027],[-72.953602,-36.861303],[-72.953625,-36.861741],[-72.953658,-36.862141],[-72.953748,-36.862748],[-72.95388,-36.86301],[-72.954214,-36.863495],[-72.954401,-36.863642],[-72.954948,-36.864056],[-72.955317,-36.864337],[-72.95582,-36.864692],[-72.956559,-36.864825],[-72.957688,-36.864968],[-72.958266,-36.864783],[-72.958589,-36.864552],[-72.959305,-36.864575]]]},"properties":{"comuna":"Chiguayante","mancha_id":"08103-88b2d86d23fffff","clase":"Alto","nivel_medio":2.985,"nivel_medio_min":2.538,"nivel_medio_max":3.481,"pct_alto":86.5,"n_hexagonos":70,"area_ha":3316.94}},{"type":"Feature","geometry":{"type":"Polygon","coordinates":[[[-73.002514,-36.875206],[-72.997285,-36.876527],[-72.994075,-36.873684],[-72.994256,-36.873337],[-72.994443,-36.872564],[-72.994603,-36.872058],[-72.994816,-36.871764],[-72.995136,-36.871445],[-72.995376,-36.871045],[-72.995456,-36.870645],[-72.995482,-36.870219],[-72.995509,-36.869686],[-72.995589,-36.869206],[-72.995648,-36.869015],[-73.000779,-36.867718],[-73.004261,-36.870801],[-73.002514,-36.875206]]]},"properties":{"comuna":"Chiguayante","mancha_id":"08103-88b2dbd239fffff","clase":"Muy Alto","nivel_medio":3.574,"nivel_medio_min":3.574,"nivel_medio_max":3.574,"pct_alto":97.7,"n_hexagonos":1,"area_ha":59.88}},{"type":"Feature","geometry":{"type":"Polygon","coordinates":[[[-73.005906,-36.961583],[-73.005923,-36.961579],[-73.006766,-36.962326],[-73.006571,-36.962334],[-73.006386,-36.962296],[-73.006192,-36.962205],[-73.005975,-36.96208],[-73.005907,-36.961954],[-73.005896,-36.961669],[-73.005906,-36.961583]]]},"properties":{"comuna":"Chiguayante","mancha_id":"08103-88b2dbd199fffff","clase":"Muy Alto","nivel_medio":3.945,"nivel_medio_min":3.945,"nivel_medio_max":3.945,"pct_alto":97.3,"n_hexagonos":1,"area_ha":0.25}},{"type":"Feature","geometry":{"type":"Polygon","coordinates":[[[-73.016447,-36.88754],[-73.021678,-36.886218],[-73.023424,-36.881811],[-73.028654,-36.880489],[-73.032139,-36.883572],[-73.030394,-36.887979],[-73.03388,-36.891062],[-73.032134,-36.895469],[-73.026902,-36.896792],[-73.025156,-36.901199],[-73.019924,-36.902521],[-73.016439,-36.899436],[-73.018185,-36.89503],[-73.014701,-36.891946],[-73.00947,-36.893268],[-73.005986,-36.890184],[-73.007733,-36.885778],[-73.00425,-36.882694],[-73.005997,-36.878289],[-73.011226,-36.876967],[-73.012972,-36.872562],[-73.009489,-36.869479],[-73.010973,-36.865735],[-73.01108,-36.86574],[-73.01132,-36.86576],[-73.01156,-36.86582],[-73.01178,-36.86586],[-73.01203,-36.86589],[-73.01227,-36.86589],[-73.0125,-36.86588],[-73.0127,-36.86596],[-73.01305,-36.8662],[-73.01327,-36.86625],[-73.0135,-36.86625],[-73.01375,-36.86624],[-73.01398,-36.86623],[-73.01423,-36.86623],[-73.01448,-36.86623],[-73.01471,-36.86624],[-73.01494,-36.8663],[-73.01517,-36.86637],[-73.01541,-36.86639],[-73.01557,-36.86638],[-73.01588,-36.86634],[-73.01617,-36.86637],[-73.01658,-36.86659],[-73.01663,-36.86662],[-73.01673,-36.86647],[-73.01676,-36.86628],[-73.01676,-36.86609],[-73.01672,-36.8659],[-73.0167,-36.86572],[-73.01669,-36.86553],[-73.0167,-36.86534],[-73.01671,-36.86515],[-73.01674,-36.86495],[-73.01682,-36.86482],[-73.016947,-36.864702],[-73.01696,-36.86469],[-73.017105,-36.864318],[-73.019947,-36.866834],[-73.018201,-36.871239],[-73.021685,-36.874322],[-73.019939,-36.878728],[-73.014709,-36.88005],[-73.012963,-36.884456],[-73.016447,-36.88754]]]},"properties":{"comuna":"Chiguayante","mancha_id":"08103-88b2dbd041fffff","clase":"Muy Alto","nivel_medio":3.655,"nivel_medio_min":3.512,"nivel_medio_max":3.952,"pct_alto":96.3,"n_hexagonos":8,"area_ha":482.31}},{"type":"Feature","geometry":{"type":"Polygon","coordinates":[[[-73.021663,-36.910012],[-73.019916,-36.914419],[-73.023403,-36.917505],[-73.021656,-36.921912],[-73.016422,-36.923233],[-73.014674,-36.92764],[-73.00944,-36.928962],[-73.007692,-36.933369],[-73.011179,-36.936455],[-73.00943,-36.940862],[-73.004195,-36.942183],[-73.002446,-36.94659],[-73.005933,-36.949677],[-73.004479,-36.953341],[-73.003644,-36.952708],[-73.00296,-36.952117],[-73.002424,-36.951636],[-73.00211,-36.951507],[-73.001648,-36.951304],[-73.001389,-36.950989],[-73.001093,-36.950657],[-73.000945,-36.950139],[-73.000964,-36.949566],[-73.001056,-36.949252],[-73.00113,-36.948827],[-73.001149,-36.948328],[-73.001112,-36.947903],[-73.001112,-36.947423],[-73.00089,-36.947034],[-73.000867,-36.946988],[-73.00065,-36.946554],[-73.000557,-36.946073],[-73.000576,-36.945648],[-73.000594,-36.945186],[-73.000391,-36.944595],[-73.000188,-36.944207],[-73.0,-36.943946],[-72.999763,-36.943616],[-72.999411,-36.942969],[-72.999208,-36.942359],[-72.999208,-36.942008],[-72.999338,-36.941786],[-72.999596,-36.941564],[-73.0,-36.941564],[-73.00004,-36.941564],[-73.000724,-36.941527],[-73.001297,-36.941453],[-73.001574,-36.941324],[-73.001869,-36.941195],[-73.001962,-36.94088],[-73.001999,-36.940437],[-73.001795,-36.94016],[-73.001748,-36.940016],[-73.001685,-36.939827],[-73.001759,-36.93955],[-73.002073,-36.939217],[-73.002073,-36.938921],[-73.002036,-36.93857],[-73.001869,-36.938293],[-73.001629,-36.938034],[-73.001389,-36.937997],[-73.001145,-36.937997],[-73.001112,-36.937997],[-73.000631,-36.938201],[-73.000169,-36.93833],[-73.0,-36.938321],[-72.999818,-36.938311],[-72.999504,-36.938311],[-72.999264,-36.938219],[-72.998931,-36.938293],[-72.998598,-36.938552],[-72.998173,-36.938607],[-72.997804,-36.938626],[-72.997489,-36.938552],[-72.997342,-36.938385],[-72.997231,-36.93796],[-72.99699,-36.937443],[-72.99688,-36.937055],[-72.996917,-36.936685],[-72.997138,-36.936149],[-72.997563,-36.93589],[-72.998247,-36.935724],[-72.998894,-36.935669],[-72.999374,-36.935669],[-72.9998,-36.935613],[-73.0,-36.93557],[-73.000225,-36.935521],[-73.000705,-36.935373],[-73.001019,-36.935096],[-73.001315,-36.934874],[-73.001611,-36.934615],[-73.001685,-36.934338],[-73.001592,-36.93395],[-73.001584,-36.933916],[-73.001481,-36.933469],[-73.001537,-36.933248],[-73.001814,-36.932897],[-73.002073,-36.932619],[-73.00211,-36.932324],[-73.001925,-36.932028],[-73.001685,-36.931677],[-73.001426,-36.931418],[-73.001112,-36.931122],[-73.000927,-36.930919],[-73.000705,-36.930494],[-73.000502,-36.930106],[-73.000225,-36.92957],[-73.000066,-36.929246],[-73.0,-36.929193],[-72.999945,-36.92915],[-72.999603,-36.928876],[-72.99879,-36.928231],[-72.998357,-36.92803],[-72.997914,-36.927687],[-72.99679,-36.92685],[-72.99662,-36.9267],[-72.996443,-36.926532],[-72.99634,-36.92637],[-72.99634,-36.92617],[-72.99668,-36.9255],[-72.99673,-36.92486],[-72.996759,-36.924231],[-72.997236,-36.92411],[-72.998984,-36.919704],[-72.9955,-36.916619],[-72.997248,-36.912213],[-73.00248,-36.910892],[-73.004228,-36.906486],[-73.00946,-36.905164],[-73.012945,-36.908249],[-73.018177,-36.906928],[-73.021663,-36.910012]]]},"properties":{"comuna":"Chiguayante","mancha_id":"08103-88b2dbd001fffff","clase":"Muy Alto","nivel_medio":3.764,"nivel_medio_min":3.518,"nivel_medio_max":3.936,"pct_alto":97.5,"n_hexagonos":13,"area_ha":608.08}},{"type":"Feature","geometry":{"type":"Polygon","coordinates":[[[-72.951771,-36.860865],[-72.950275,-36.864629],[-72.94576,-36.865769],[-72.945539,-36.865615],[-72.945298,-36.865483],[-72.944961,-36.865342],[-72.944584,-36.865149],[-72.944358,-36.865073],[-72.944226,-36.864887],[-72.944156,-36.864746],[-72.944118,-36.864596],[-72.944134,-36.864404],[-72.9442,-36.86431],[-72.944242,-36.864124],[-72.944275,-36.863968],[-72.944269,-36.863855],[-72.944222,-36.863728],[-72.944143,-36.863573],[-72.943978,-36.863382],[-72.943746,-36.863121],[-72.943605,-36.862914],[-72.943601,-36.862754],[-72.943647,-36.862573],[-72.943665,-36.862498],[-72.943708,-36.862327],[-72.943843,-36.862054],[-72.943994,-36.861891],[-72.944135,-36.861687],[-72.944329,-36.86149],[-72.944474,-36.86136],[-72.94458,-36.861389],[-72.944944,-36.861472],[-72.946808,-36.861461],[-72.948464,-36.861424],[-72.949562,-36.861289],[-72.950743,-36.861044],[-72.951771,-36.860865]]]},"properties":{"comuna":"Chiguayante","mancha_id":"08103-88b2d86d3dfffff","clase":"Muy Alto","nivel_medio":3.578,"nivel_medio_min":3.578,"nivel_medio_max":3.578,"pct_alto":99.4,"n_hexagonos":1,"area_ha":26.34}}],"bbox":[-73.05987,-36.96234,-72.94267,-36.85447]}