{"type":"FeatureCollection","features":[{"type":"Feature","geometry":{"type":"Polygon","coordinates":[[[-73.049571,-36.922793],[-73.047826,-36.927201],[-73.051316,-36.930287],[-73.04957,-36.934695],[-73.044334,-36.936018],[-73.042587,-36.940427],[-73.046078,-36.943513],[-73.044331,-36.947922],[-73.039094,-36.949244],[-73.037347,-36.953653],[-73.034912,-36.954268],[-73.028739,-36.951585],[-73.027626,-36.951102],[-73.028028,-36.949163],[-73.029227,-36.946472],[-73.030443,-36.943744],[-73.03464,-36.940429],[-73.035245,-36.939887],[-73.039688,-36.935905],[-73.040438,-36.933035],[-73.04086,-36.93142],[-73.041818,-36.927841],[-73.043801,-36.920429],[-73.043823,-36.920278],[-73.044936,-36.912742],[-73.045415,-36.909496],[-73.045713,-36.907478],[-73.04577,-36.90709],[-73.04637,-36.90056],[-73.046464,-36.899777],[-73.047448,-36.891596],[-73.04749,-36.89125],[-73.048562,-36.886196],[-73.04953,-36.88163],[-73.050459,-36.878937],[-73.05274,-36.87232],[-73.05282,-36.872113],[-73.055249,-36.865827],[-73.05628,-36.86316],[-73.058466,-36.859259],[-73.05985,-36.85679],[-73.059867,-36.856755],[-73.062104,-36.852194],[-73.06345,-36.84945],[-73.064896,-36.847101],[-73.067309,-36.843181],[-73.070544,-36.840198],[-73.072237,-36.841695],[-73.070495,-36.846102],[-73.065266,-36.847428],[-73.063524,-36.851834],[-73.067011,-36.854916],[-73.065268,-36.859323],[-73.060038,-36.860648],[-73.058295,-36.865056],[-73.061782,-36.868138],[-73.060039,-36.872545],[-73.063527,-36.875628],[-73.061783,-36.880036],[-73.056551,-36.88136],[-73.054807,-36.885768],[-73.058296,-36.888851],[-73.056552,-36.893259],[-73.060041,-36.896343],[-73.058296,-36.900751],[-73.053063,-36.902075],[-73.051318,-36.906483],[-73.054807,-36.909567],[-73.053062,-36.913976],[-73.047827,-36.915299],[-73.046082,-36.919707],[-73.049571,-36.922793]]]},"properties":{"comuna":"San Pedro de la Paz","mancha_id":"08108-88b2dbd025fffff","clase":"Muy Bajo","nivel_medio":0.084,"nivel_medio_min":0.0,"nivel_medio_max":0.408,"pct_alto":1.7,"n_hexagonos":24,"area_ha":838.18}},{"type":"Feature","geometry":{"type":"Polygon","coordinates":[[[-73.1193,-36.829748],[-73.117561,-36.834157],[-73.121052,-36.837237],[-73.119313,-36.841646],[-73.114083,-36.842974],[-73.110592,-36.839894],[-73.105361,-36.841222],[-73.103621,-36.84563],[-73.098391,-36.846957],[-73.094901,-36.843877],[-73.096642,-36.839469],[-73.101871,-36.838141],[-73.103611,-36.833733],[-73.108841,-36.832405],[-73.11058,-36.827997],[-73.115809,-36.826668],[-73.1193,-36.829748]]]},"properties":{"comuna":"San Pedro de la Paz","mancha_id":"08108-88b2daa681fffff","clase":"Muy Bajo","nivel_medio":0.304,"nivel_medio_min":0.196,"nivel_medio_max":0.414,"pct_alto":8.2,"n_hexagonos":4,"area_ha":246.43}},{"type":"Feature","geometry":{"type":"Polygon","coordinates":[[[-73.157984,-36.815895],[-73.158099,-36.815914],[-73.159773,-36.81619],[-73.165674,-36.817162],[-73.165699,-36.817185],[-73.16218,-36.81973],[-73.16028,-36.82106],[-73.16042,-36.82121],[-73.16043,-36.82139],[-73.16035,-36.82157],[-73.16022,-36.82171],[-73.16012,-36.82188],[-73.1602,-36.82206],[-73.16034,-36.82221],[-73.16037,-36.82239],[-73.16038,-36.82258],[-73.1603,-36.82275],[-73.1602,-36.82292],[-73.16008,-36.82308],[-73.15991,-36.82326],[-73.15977,-36.82341],[-73.159748,-36.823431],[-73.159404,-36.823518],[-73.15591,-36.820439],[-73.15068,-36.82177],[-73.147186,-36.818691],[-73.141957,-36.820021],[-73.138464,-36.816942],[-73.133235,-36.818272],[-73.129744,-36.815193],[-73.124515,-36.816522],[-73.121025,-36.813443],[-73.115797,-36.814772],[-73.113894,-36.813093],[-73.117122,-36.812597],[-73.118726,-36.812473],[-73.121492,-36.812259],[-73.123972,-36.812068],[-73.128023,-36.812316],[-73.13081,-36.812487],[-73.135025,-36.812746],[-73.137594,-36.812904],[-73.139913,-36.813266],[-73.144478,-36.813981],[-73.146723,-36.814332],[-73.148796,-36.814604],[-73.151342,-36.814939],[-73.155474,-36.815481],[-73.157381,-36.815796],[-73.157984,-36.815895]]]},"properties":{"comuna":"San Pedro de la Paz","mancha_id":"08108-88b2daa631fffff","clase":"Muy Bajo","nivel_medio":0.004,"nivel_medio_min":0.0,"nivel_medio_max":0.022,"pct_alto":0.0,"n_hexagonos":7,"area_ha":213.9}},{"type":"Feature","geometry":{"type":"Polygon","coordinates":[[[-73.149061,-36.897597],[-73.152559,-36.90068],[-73.150936,-36.904799],[-73.15046,-36.90484],[-73.14618,-36.90545],[-73.1448,-36.9057],[-73.144769,-36.905705],[-73.142084,-36.903338],[-73.143824,-36.898926],[-73.149061,-36.897597]]]},"properties":{"comuna":"San Pedro de la Paz","mancha_id":"08108-88b2daa4a7fffff","clase":"Muy Bajo","nivel_medio":0.413,"nivel_medio_min":0.413,"nivel_medio_max":0.413,"pct_alto":10.4,"n_hexagonos":1,"area_ha":58.27}},{"type":"Feature","geometry":{"type":"Polygon","coordinates":[[[-73.136812,-36.880855],[-73.140308,-36.883938],[-73.145544,-36.882609],[-73.149041,-36.885691],[-73.147302,-36.890103],[-73.142066,-36.891432],[-73.140326,-36.895843],[-73.13509,-36.897171],[-73.131593,-36.894088],[-73.133333,-36.889677],[-73.129837,-36.886595],[-73.131577,-36.882184],[-73.136812,-36.880855]]]},"properties":{"comuna":"San Pedro de la Paz","mancha_id":"08108-88b2daa485fffff","clase":"Muy Bajo","nivel_medio":0.189,"nivel_medio_min":0.105,"nivel_medio_max":0.347,"pct_alto":5.4,"n_hexagonos":3,"area_ha":185.06}},{"type":"Feature","geometry":{"type":"Polygon","coordinates":[[[-73.148982,-36.84998],[-73.147244,-36.854391],[-73.142011,-36.85572],[-73.138517,-36.852639],[-73.140255,-36.848229],[-73.136761,-36.845149],[-73.138499,-36.840739],[-73.143731,-36.839409],[-73.147225,-36.842489],[-73.145487,-36.8469],[-73.148982,-36.84998]]]},"properties":{"comuna":"San Pedro de la Paz","mancha_id":"08108-88b2daa41bfffff","clase":"Muy Bajo","nivel_medio":0.15,"nivel_medio_min":0.072,"nivel_medio_max":0.228,"pct_alto":3.3,"n_hexagonos":2,"area_ha":123.31}},{"type":"Feature","geometry":{"type":"Polygon","coordinates":[[[-73.073982,-36.849183],[-73.07224,-36.85359],[-73.067011,-36.854916],[-73.063524,-36.851834],[-73.065266,-36.847428],[-73.070495,-36.846102],[-73.073982,-36.849183]]]},"properties":{"comuna":"San Pedro de la Paz","mancha_id":"08108-88b2dbd341fffff","clase":"Bajo","nivel_medio":0.756,"nivel_medio_min":0.756,"nivel_medio_max":0.756,"pct_alto":22.3,"n_hexagonos":1,"area_ha":61.57}},{"type":"Feature","geometry":{"type":"Polygon","coordinates":[[[-73.068756,-36.862405],[-73.067013,-36.866813],[-73.061782,-36.868138],[-73.058295,-36.865056],[-73.060038,-36.860648],[-73.065268,-36.859323],[-73.068756,-36.862405]]]},"properties":{"comuna":"San Pedro de la Paz","mancha_id":"08108-88b2dbd309fffff","clase":"Bajo","nivel_medio":0.805,"nivel_medio_min":0.805,"nivel_medio_max":0.805,"pct_alto":19.6,"n_hexagonos":1,"area_ha":61.58}},{"type":"Feature","geometry":{"type":"Polygon","coordinates":[[[-73.047483,-36.956662],[-73.047357,-36.956602],[-73.047368,-36.956561],[-73.047483,-36.956662]]]},"properties":{"comuna":"San Pedro de la Paz","mancha_id":"08108-88b2dbd1e3fffff","clase":"Bajo","nivel_medio":1.423,"nivel_medio_min":1.423,"nivel_medio_max":1.423,"pct_alto":2.5,"n_hexagonos":1,"area_ha":0.0}},{"type":"Feature","geometry":{"type":"Polygon","coordinates":[[[-73.034912,-36.954268],[-73.037347,-36.953653],[-73.039094,-36.949244],[-73.044331,-36.947922],[-73.047822,-36.951009],[-73.046076,-36.955418],[-73.046155,-36.955489],[-73.045254,-36.957431],[-73.044656,-36.958503],[-73.040803,-36.956828],[-73.034912,-36.954268]]]},"properties":{"comuna":"San Pedro de la Paz","mancha_id":"08108-88b2dbd18dfffff","clase":"Bajo","nivel_medio":1.097,"nivel_medio_min":0.599,"nivel_medio_max":1.423,"pct_alto":0.3,"n_hexagonos":3,"area_ha":74.22}},{"type":"Feature","geometry":{"type":"Polygon","coordinates":[[[-73.056552,-36.917061],[-73.054807,-36.921469],[-73.049571,-36.922793],[-73.046082,-36.919707],[-73.047827,-36.915299],[-73.053062,-36.913976],[-73.056552,-36.917061]]]},"properties":{"comuna":"San Pedro de la Paz","mancha_id":"08108-88b2dbd153fffff","clase":"Bajo","nivel_medio":1.001,"nivel_medio_min":1.001,"nivel_medio_max":1.001,"pct_alto":18.8,"n_hexagonos":1,"area_ha":61.61}},{"type":"Feature","geometry":{"type":"Polygon","coordinates":[[[-73.053061,-36.937781],[-73.051315,-36.942191],[-73.046078,-36.943513],[-73.042587,-36.940427],[-73.044334,-36.936018],[-73.04957,-36.934695],[-73.053061,-36.937781]]]},"properties":{"comuna":"San Pedro de la Paz","mancha_id":"08108-88b2dbd113fffff","clase":"Bajo","nivel_medio":1.074,"nivel_medio_min":1.074,"nivel_medio_max":1.074,"pct_alto":21.6,"n_hexagonos":1,"area_ha":61.63}},{"type":"Feature","geometry":{"type":"Polygon","coordinates":[[[-73.115835,-36.850464],[-73.114095,-36.854873],[-73.117587,-36.857954],[-73.115847,-36.862364],[-73.110615,-36.863691],[-73.107123,-36.86061],[-73.101891,-36.861937],[-73.0984,-36.858856],[-73.100141,-36.854447],[-73.09665,-36.851366],[-73.098391,-36.846957],[-73.103621,-36.84563],[-73.105361,-36.841222],[-73.110592,-36.839894],[-73.114083,-36.842974],[-73.112343,-36.847383],[-73.115835,-36.850464]]]},"properties":{"comuna":"San Pedro de la Paz","mancha_id":"08108-88b2daa6b1fffff","clase":"Bajo","nivel_medio":1.347,"nivel_medio_min":1.171,"nivel_medio_max":1.443,"pct_alto":35.2,"n_hexagonos":5,"area_ha":308.1}},{"type":"Feature","geometry":{"type":"Polygon","coordinates":[[[-73.11058,-36.827997],[-73.108841,-36.832405],[-73.103611,-36.833733],[-73.101871,-36.838141],[-73.096642,-36.839469],[-73.094901,-36.843877],[-73.089671,-36.845204],[-73.08793,-36.849611],[-73.0827,-36.850938],[-73.079212,-36.847857],[-73.080953,-36.843449],[-73.086183,-36.842123],[-73.087924,-36.837715],[-73.093153,-36.836388],[-73.094893,-36.83198],[-73.100122,-36.830653],[-73.101862,-36.826245],[-73.098373,-36.823165],[-73.100113,-36.818758],[-73.100053,-36.818704],[-73.102703,-36.817171],[-73.104948,-36.81619],[-73.106014,-36.815724],[-73.109919,-36.814016],[-73.111017,-36.813536],[-73.113894,-36.813093],[-73.115797,-36.814772],[-73.121025,-36.813443],[-73.124515,-36.816522],[-73.122777,-36.820931],[-73.117548,-36.82226],[-73.114058,-36.81918],[-73.10883,-36.820509],[-73.10709,-36.824917],[-73.11058,-36.827997]]]},"properties":{"comuna":"San Pedro de la Paz","mancha_id":"08108-88b2daa68bfffff","clase":"Bajo","nivel_medio":1.191,"nivel_medio_min":0.806,"nivel_medio_max":1.448,"pct_alto":22.4,"n_hexagonos":8,"area_ha":424.18}},{"type":"Feature","geometry":{"type":"Polygon","coordinates":[[[-73.128021,-36.831499],[-73.126283,-36.835908],[-73.121052,-36.837237],[-73.117561,-36.834157],[-73.1193,-36.829748],[-73.12453,-36.828419],[-73.128021,-36.831499]]]},"properties":{"comuna":"San Pedro de la Paz","mancha_id":"08108-88b2daa685fffff","clase":"Bajo","nivel_medio":1.171,"nivel_medio_min":1.171,"nivel_medio_max":1.171,"pct_alto":32.9,"n_hexagonos":1,"area_ha":61.62}},{"type":"Feature","geometry":{"type":"Polygon","coordinates":[[[-73.150936,-36.904799],[-73.152559,-36.90068],[-73.153384,-36.900471],[-73.15339,-36.90053],[-73.15341,-36.90094],[-73.15344,-36.90131],[-73.15346,-36.9015],[-73.15347,-36.90171],[-73.15348,-36.90191],[-73.1535,-36.90209],[-73.1536,-36.90226],[-73.1536,-36.90244],[-73.1536,-36.90264],[-73.15361,-36.90283],[-73.15362,-36.90302],[-73.15364,-36.90348],[-73.15366,-36.90368],[-73.15367,-36.90388],[-73.15369,-36.90408],[-73.15372,-36.90428],[-73.153732,-36.904356],[-73.15265,-36.90465],[-73.150936,-36.904799]]]},"properties":{"comuna":"San Pedro de la Paz","mancha_id":"08108-88b2daa59bfffff","clase":"Bajo","nivel_medio":1.118,"nivel_medio_min":1.118,"nivel_medio_max":1.118,"pct_alto":29.3,"n_hexagonos":1,"area_ha":7.11}},{"type":"Feature","geometry":{"type":"Polygon","coordinates":[[[-73.15217,-36.870618],[-73.15076,-36.869375],[-73.152402,-36.865207],[-73.1524,-36.86525],[-73.15238,-36.86543],[-73.15235,-36.86561],[-73.15234,-36.8658],[-73.15235,-36.86599],[-73.15235,-36.86618],[-73.15233,-36.86659],[-73.15231,-36.86677],[-73.1523,-36.86696],[-73.15231,-36.8672],[-73.1523,-36.86738],[-73.1523,-36.86748],[-73.1523,-36.86758],[-73.15229,-36.86777],[-73.15227,-36.86795],[-73.15226,-36.86815],[-73.15225,-36.86835],[-73.15225,-36.86854],[-73.15224,-36.86873],[-73.15222,-36.86896],[-73.15221,-36.86917],[-73.1522,-36.86935],[-73.15218,-36.86955],[-73.15215,-36.86979],[-73.15214,-36.86997],[-73.15217,-36.87052],[-73.15217,-36.870618]]]},"properties":{"comuna":"San Pedro de la Paz","mancha_id":"08108-88b2daa4edfffff","clase":"Bajo","nivel_medio":0.896,"nivel_medio_min":0.896,"nivel_medio_max":0.896,"pct_alto":25.9,"n_hexagonos":1,"area_ha":3.81}},{"type":"Feature","geometry":{"type":"Polygon","coordinates":[[[-73.129822,-36.874691],[-73.135056,-36.873362],[-73.136795,-36.868952],[-73.142029,-36.867623],[-73.145525,-36.870704],[-73.143786,-36.875115],[-73.147283,-36.878197],[-73.152072,-36.876981],[-73.15208,-36.87704],[-73.1521,-36.87725],[-73.1521,-36.87743],[-73.15212,-36.87783],[-73.15213,-36.87822],[-73.15212,-36.8784],[-73.1521,-36.87859],[-73.15208,-36.87879],[-73.15207,-36.87897],[-73.15207,-36.87915],[-73.15209,-36.87954],[-73.1521,-36.87984],[-73.1521,-36.88006],[-73.15211,-36.88033],[-73.15212,-36.88072],[-73.15211,-36.88091],[-73.15211,-36.88109],[-73.15212,-36.88136],[-73.15213,-36.88157],[-73.15214,-36.88197],[-73.15214,-36.88218],[-73.15214,-36.88236],[-73.15215,-36.88257],[-73.15214,-36.88277],[-73.15214,-36.88297],[-73.15214,-36.88337],[-73.15214,-36.88357],[-73.15214,-36.88378],[-73.15215,-36.88399],[-73.15216,-36.8843],[-73.152189,-36.884892],[-73.149041,-36.885691],[-73.145544,-36.882609],[-73.140308,-36.883938],[-73.136812,-36.880855],[-73.131577,-36.882184],[-73.128082,-36.879101],[-73.129822,-36.874691]]]},"properties":{"comuna":"San Pedro de la Paz","mancha_id":"08108-88b2daa48dfffff","clase":"Bajo","nivel_medio":0.968,"nivel_medio_min":0.535,"nivel_medio_max":1.324,"pct_alto":27.0,"n_hexagonos":4,"area_ha":226.42}},{"type":"Feature","geometry":{"type":"Polygon","coordinates":[[[-73.15591,-36.820439],[-73.159404,-36.823518],[-73.15928,-36.823832],[-73.1592,-36.8239],[-73.15904,-36.82405],[-73.15888,-36.8242],[-73.15874,-36.82435],[-73.15858,-36.82449],[-73.15841,-36.82465],[-73.15823,-36.82478],[-73.15806,-36.82491],[-73.15792,-36.82506],[-73.15777,-36.82521],[-73.15763,-36.82538],[-73.15751,-36.82555],[-73.15741,-36.82571],[-73.15729,-36.82587],[-73.15717,-36.82604],[-73.15707,-36.8262],[-73.15697,-36.82636],[-73.15687,-36.82654],[-73.15678,-36.82671],[-73.1567,-36.82688],[-73.1566,-36.82705],[-73.15655,-36.82714],[-73.1565,-36.82723],[-73.15641,-36.82739],[-73.15628,-36.82757],[-73.15614,-36.82773],[-73.15599,-36.82788],[-73.1557,-36.82818],[-73.15557,-36.82834],[-73.155465,-36.828489],[-73.152437,-36.829259],[-73.148943,-36.82618],[-73.143712,-36.82751],[-73.140219,-36.82443],[-73.134989,-36.82576],[-73.131497,-36.822681],[-73.133235,-36.818272],[-73.138464,-36.816942],[-73.141957,-36.820021],[-73.147186,-36.818691],[-73.15068,-36.82177],[-73.15591,-36.820439]]]},"properties":{"comuna":"San Pedro de la Paz","mancha_id":"08108-88b2daa459fffff","clase":"Bajo","nivel_medio":0.96,"nivel_medio_min":0.52,"nivel_medio_max":1.277,"pct_alto":24.5,"n_hexagonos":3,"area_ha":180.19}},{"type":"Feature","geometry":{"type":"Polygon","coordinates":[[[-73.1507,-36.833669],[-73.154194,-36.836749],[-73.154436,-36.836687],[-73.15444,-36.83676],[-73.15445,-36.83695],[-73.15448,-36.83733],[-73.15447,-36.83758],[-73.15443,-36.83777],[-73.15439,-36.83797],[-73.15436,-36.83815],[-73.15435,-36.83834],[-73.15434,-36.83854],[-73.15433,-36.83874],[-73.15431,-36.83898],[-73.15429,-36.83917],[-73.15426,-36.83937],[-73.15422,-36.83957],[-73.15418,-36.83976],[-73.15415,-36.83995],[-73.15411,-36.84015],[-73.15409,-36.84035],[-73.15407,-36.84054],[-73.15408,-36.84073],[-73.15408,-36.84092],[-73.15404,-36.84113],[-73.15398,-36.84131],[-73.1539,-36.84151],[-73.15381,-36.84177],[-73.15376,-36.84197],[-73.15372,-36.84216],[-73.1537,-36.842255],[-73.152457,-36.841159],[-73.147225,-36.842489],[-73.143731,-36.839409],[-73.138499,-36.840739],[-73.135006,-36.837659],[-73.136744,-36.833249],[-73.141975,-36.831919],[-73.145468,-36.834999],[-73.1507,-36.833669]]]},"properties":{"comuna":"San Pedro de la Paz","mancha_id":"08108-88b2daa453fffff","clase":"Bajo","nivel_medio":0.851,"nivel_medio_min":0.65,"nivel_medio_max":1.051,"pct_alto":23.1,"n_hexagonos":3,"area_ha":128.3}},{"type":"Feature","geometry":{"type":"Polygon","coordinates":[[[-73.15074,-36.857472],[-73.149002,-36.861882],[-73.143768,-36.863212],[-73.140273,-36.860131],[-73.135039,-36.86146],[-73.131545,-36.858379],[-73.133284,-36.853969],[-73.129791,-36.850888],[-73.131529,-36.846478],[-73.136761,-36.845149],[-73.140255,-36.848229],[-73.138517,-36.852639],[-73.142011,-36.85572],[-73.147244,-36.854391],[-73.15074,-36.857472]]]},"properties":{"comuna":"San Pedro de la Paz","mancha_id":"08108-88b2daa413fffff","clase":"Bajo","nivel_medio":1.125,"nivel_medio_min":0.809,"nivel_medio_max":1.331,"pct_alto":29.4,"n_hexagonos":3,"area_ha":184.98}},{"type":"Feature","geometry":{"type":"Polygon","coordinates":[[[-73.084436,-36.834635],[-73.079207,-36.835961],[-73.077466,-36.840369],[-73.072237,-36.841695],[-73.070544,-36.840198],[-73.070992,-36.839785],[-73.071095,-36.839632],[-73.072147,-36.838071],[-73.07357,-36.83596],[-73.076734,-36.833777],[-73.080435,-36.831223],[-73.083601,-36.829038],[-73.084294,-36.828565],[-73.086176,-36.830227],[-73.084436,-36.834635]]]},"properties":{"comuna":"San Pedro de la Paz","mancha_id":"08108-88b2d869a5fffff","clase":"Bajo","nivel_medio":1.137,"nivel_medio_min":0.925,"nivel_medio_max":1.359,"pct_alto":31.8,"n_hexagonos":2,"area_ha":73.74}},{"type":"Feature","geometry":{"type":"Polygon","coordinates":[[[-73.065442,-36.977034],[-73.064641,-36.974546],[-73.064335,-36.973594],[-73.062467,-36.967156],[-73.065286,-36.966444],[-73.068372,-36.969171],[-73.068362,-36.969287],[-73.0683,-36.96949],[-73.06831,-36.96967],[-73.06828,-36.96986],[-73.06817,-36.97002],[-73.06808,-36.97019],[-73.06805,-36.97037],[-73.06807,-36.97055],[-73.06811,-36.97073],[-73.06819,-36.97091],[-73.068199,-36.970998],[-73.06821,-36.9711],[-73.06822,-36.97129],[-73.0682,-36.97147],[-73.06813,-36.97166],[-73.06807,-36.97183],[-73.06799,-36.97205],[-73.06792,-36.97222],[-73.06784,-36.9724],[-73.06774,-36.97257],[-73.06765,-36.97274],[-73.06757,-36.97292],[-73.06746,-36.97308],[-73.06732,-36.97324],[-73.067307,-36.973252],[-73.06717,-36.97338],[-73.06701,-36.97352],[-73.06681,-36.97363],[-73.06661,-36.97373],[-73.06643,-36.97385],[-73.06629,-36.97401],[-73.066241,-36.974142],[-73.06622,-36.9742],[-73.06622,-36.97439],[-73.0662,-36.97457],[-73.06618,-36.97476],[-73.06618,-36.97494],[-73.06622,-36.97516],[-73.066267,-36.975516],[-73.066328,-36.975824],[-73.066269,-36.9761],[-73.06622,-36.976304],[-73.066066,-36.976477],[-73.065937,-36.976576],[-73.065741,-36.976786],[-73.065442,-36.977034]]]},"properties":{"comuna":"San Pedro de la Paz","mancha_id":"08108-88b2dbda99fffff","clase":"Medio","nivel_medio":2.196,"nivel_medio_min":2.042,"nivel_medio_max":2.199,"pct_alto":20.8,"n_hexagonos":3,"area_ha":33.28}},{"type":"Feature","geometry":{"type":"Polygon","coordinates":[[[-73.080953,-36.843449],[-73.079212,-36.847857],[-73.073982,-36.849183],[-73.070495,-36.846102],[-73.072237,-36.841695],[-73.077466,-36.840369],[-73.080953,-36.843449]]]},"properties":{"comuna":"San Pedro de la Paz","mancha_id":"08108-88b2dbd34dfffff","clase":"Medio","nivel_medio":2.265,"nivel_medio_min":2.265,"nivel_medio_max":2.265,"pct_alto":61.0,"n_hexagonos":1,"area_ha":61.58}},{"type":"Feature","geometry":{"type":"Polygon","coordinates":[[[-73.075728,-36.856672],[-73.073986,-36.86108],[-73.068756,-36.862405],[-73.065268,-36.859323],[-73.067011,-36.854916],[-73.07224,-36.85359],[-73.075728,-36.856672]]]},"properties":{"comuna":"San Pedro de la Paz","mancha_id":"08108-88b2dbd347fffff","clase":"Medio","nivel_medio":2.496,"nivel_medio_min":2.496,"nivel_medio_max":2.496,"pct_alto":71.4,"n_hexagonos":1,"area_ha":61.58}},{"type":"Feature","geometry":{"type":"Polygon","coordinates":[[[-73.070501,-36.869895],[-73.068758,-36.874303],[-73.063527,-36.875628],[-73.060039,-36.872545],[-73.061782,-36.868138],[-73.067013,-36.866813],[-73.070501,-36.869895]]]},"properties":{"comuna":"San Pedro de la Paz","mancha_id":"08108-88b2dbd301fffff","clase":"Medio","nivel_medio":1.833,"nivel_medio_min":1.833,"nivel_medio_max":1.833,"pct_alto":51.7,"n_hexagonos":1,"area_ha":61.59}},{"type":"Feature","geometry":{"type":"Polygon","coordinates":[[[-73.082734,-36.922342],[-73.08099,-36.926752],[-73.075753,-36.928077],[-73.074009,-36.932487],[-73.077502,-36.935572],[-73.075758,-36.939982],[-73.07052,-36.941306],[-73.068775,-36.945716],[-73.072268,-36.948803],[-73.070523,-36.953213],[-73.074017,-36.9563],[-73.072271,-36.96071],[-73.067032,-36.962034],[-73.063538,-36.958947],[-73.058299,-36.96027],[-73.054806,-36.957183],[-73.050703,-36.958218],[-73.047483,-36.956662],[-73.047368,-36.956561],[-73.047578,-36.955813],[-73.046157,-36.955484],[-73.046155,-36.955489],[-73.046076,-36.955418],[-73.047822,-36.951009],[-73.044331,-36.947922],[-73.046078,-36.943513],[-73.051315,-36.942191],[-73.053061,-36.937781],[-73.04957,-36.934695],[-73.051316,-36.930287],[-73.047826,-36.927201],[-73.049571,-36.922793],[-73.054807,-36.921469],[-73.056552,-36.917061],[-73.053062,-36.913976],[-73.054807,-36.909567],[-73.051318,-36.906483],[-73.053063,-36.902075],[-73.058296,-36.900751],[-73.060041,-36.896343],[-73.056552,-36.893259],[-73.058296,-36.888851],[-73.054807,-36.885768],[-73.056551,-36.88136],[-73.061783,-36.880036],[-73.065272,-36.883119],[-73.063528,-36.887527],[-73.067018,-36.89061],[-73.072251,-36.889285],[-73.073994,-36.884877],[-73.070504,-36.881794],[-73.072247,-36.877386],[-73.077479,-36.87606],[-73.079222,-36.871652],[-73.084454,-36.870326],[-73.087944,-36.873408],[-73.086202,-36.877817],[-73.089693,-36.8809],[-73.094926,-36.879573],[-73.098418,-36.882656],[-73.096676,-36.887065],[-73.091442,-36.888392],[-73.0897,-36.892801],[-73.084466,-36.894127],[-73.082723,-36.898536],[-73.077488,-36.899861],[-73.073998,-36.896777],[-73.068764,-36.898102],[-73.06702,-36.902511],[-73.07051,-36.905595],[-73.068766,-36.910004],[-73.072258,-36.913088],[-73.070513,-36.917497],[-73.074005,-36.920582],[-73.079241,-36.919258],[-73.082734,-36.922342]],[[-73.06528,-36.930725],[-73.067025,-36.926316],[-73.063533,-36.923231],[-73.058297,-36.924554],[-73.056552,-36.928963],[-73.060043,-36.932049],[-73.058298,-36.936458],[-73.061789,-36.939544],[-73.067027,-36.938221],[-73.068772,-36.933811],[-73.06528,-36.930725]]]},"properties":{"comuna":"San Pedro de la Paz","mancha_id":"08108-88b2dbd101fffff","clase":"Medio","nivel_medio":2.224,"nivel_medio_min":1.569,"nivel_medio_max":2.492,"pct_alto":37.0,"n_hexagonos":30,"area_ha":1846.96}},{"type":"Feature","geometry":{"type":"Polygon","coordinates":[[[-73.100113,-36.818758],[-73.098373,-36.823165],[-73.101862,-36.826245],[-73.100122,-36.830653],[-73.094893,-36.83198],[-73.091405,-36.8289],[-73.086176,-36.830227],[-73.084294,-36.828565],[-73.089576,-36.824961],[-73.091463,-36.823673],[-73.091918,-36.823409],[-73.100053,-36.818704],[-73.100113,-36.818758]]]},"properties":{"comuna":"San Pedro de la Paz","mancha_id":"08108-88b2daa6d1fffff","clase":"Medio","nivel_medio":2.282,"nivel_medio_min":1.925,"nivel_medio_max":2.489,"pct_alto":47.4,"n_hexagonos":3,"area_ha":108.15}},{"type":"Feature","geometry":{"type":"Polygon","coordinates":[[[-73.122805,-36.844726],[-73.121066,-36.849136],[-73.115835,-36.850464],[-73.112343,-36.847383],[-73.114083,-36.842974],[-73.119313,-36.841646],[-73.122805,-36.844726]]]},"properties":{"comuna":"San Pedro de la Paz","mancha_id":"08108-88b2daa6bdfffff","clase":"Medio","nivel_medio":1.885,"nivel_medio_min":1.885,"nivel_medio_max":1.885,"pct_alto":47.5,"n_hexagonos":1,"area_ha":61.63}},{"type":"Feature","geometry":{"type":"Polygon","coordinates":[[[-73.138499,-36.840739],[-73.136761,-36.845149],[-73.131529,-36.846478],[-73.128036,-36.843397],[-73.129775,-36.838988],[-73.135006,-36.837659],[-73.138499,-36.840739]]]},"properties":{"comuna":"San Pedro de la Paz","mancha_id":"08108-88b2daa6a1fffff","clase":"Medio","nivel_medio":2.405,"nivel_medio_min":2.405,"nivel_medio_max":2.405,"pct_alto":62.1,"n_hexagonos":1,"area_ha":61.64}},{"type":"Feature","geometry":{"type":"Polygon","coordinates":[[[-73.098391,-36.846957],[-73.09665,-36.851366],[-73.100141,-36.854447],[-73.0984,-36.858856],[-73.093169,-36.860183],[-73.089679,-36.857101],[-73.084448,-36.858427],[-73.080959,-36.855346],[-73.0827,-36.850938],[-73.08793,-36.849611],[-73.089671,-36.845204],[-73.094901,-36.843877],[-73.098391,-36.846957]]]},"properties":{"comuna":"San Pedro de la Paz","mancha_id":"08108-88b2daa697fffff","clase":"Medio","nivel_medio":1.753,"nivel_medio_min":1.547,"nivel_medio_max":2.027,"pct_alto":44.9,"n_hexagonos":3,"area_ha":184.8}},{"type":"Feature","geometry":{"type":"Polygon","coordinates":[[[-73.114058,-36.81918],[-73.117548,-36.82226],[-73.122777,-36.820931],[-73.124515,-36.816522],[-73.129744,-36.815193],[-73.133235,-36.818272],[-73.131497,-36.822681],[-73.134989,-36.82576],[-73.133251,-36.830169],[-73.128021,-36.831499],[-73.12453,-36.828419],[-73.1193,-36.829748],[-73.115809,-36.826668],[-73.11058,-36.827997],[-73.10709,-36.824917],[-73.10883,-36.820509],[-73.114058,-36.81918]]]},"properties":{"comuna":"San Pedro de la Paz","mancha_id":"08108-88b2daa689fffff","clase":"Medio","nivel_medio":1.798,"nivel_medio_min":1.615,"nivel_medio_max":1.966,"pct_alto":39.3,"n_hexagonos":4,"area_ha":246.45}},{"type":"Feature","geometry":{"type":"Polygon","coordinates":[[[-73.11934,-36.865445],[-73.1176,-36.869855],[-73.112367,-36.871183],[-73.108874,-36.868101],[-73.110615,-36.863691],[-73.115847,-36.862364],[-73.11934,-36.865445]]]},"properties":{"comuna":"San Pedro de la Paz","mancha_id":"08108-88b2daa4ddfffff","clase":"Medio","nivel_medio":1.629,"nivel_medio_min":1.629,"nivel_medio_max":1.629,"pct_alto":41.2,"n_hexagonos":1,"area_ha":61.64}},{"type":"Feature","geometry":{"type":"Polygon","coordinates":[[[-73.143768,-36.863212],[-73.142029,-36.867623],[-73.136795,-36.868952],[-73.1333,-36.86587],[-73.135039,-36.86146],[-73.140273,-36.860131],[-73.143768,-36.863212]]]},"properties":{"comuna":"San Pedro de la Paz","mancha_id":"08108-88b2daa4c5fffff","clase":"Medio","nivel_medio":2.127,"nivel_medio_min":2.127,"nivel_medio_max":2.127,"pct_alto":54.0,"n_hexagonos":1,"area_ha":61.67}},{"type":"Feature","geometry":{"type":"Polygon","coordinates":[[[-73.142066,-36.891432],[-73.147302,-36.890103],[-73.149041,-36.885691],[-73.152189,-36.884892],[-73.1522,-36.88511],[-73.15221,-36.88531],[-73.15225,-36.8861],[-73.15228,-36.88648],[-73.1523,-36.88709],[-73.15235,-36.88765],[-73.15236,-36.88786],[-73.15237,-36.88807],[-73.15238,-36.88827],[-73.1524,-36.88847],[-73.15243,-36.88865],[-73.15246,-36.88885],[-73.1525,-36.88904],[-73.15255,-36.88924],[-73.15257,-36.88943],[-73.15257,-36.88961],[-73.1526,-36.89018],[-73.1526,-36.89037],[-73.15262,-36.89056],[-73.15262,-36.89075],[-73.15265,-36.89133],[-73.15265,-36.89153],[-73.15267,-36.89177],[-73.15268,-36.89198],[-73.15269,-36.89216],[-73.1527,-36.89236],[-73.152725,-36.892697],[-73.15273,-36.89276],[-73.15274,-36.89297],[-73.15275,-36.89319],[-73.15275,-36.89338],[-73.15278,-36.89398],[-73.1528,-36.89421],[-73.15281,-36.89442],[-73.15282,-36.89463],[-73.15284,-36.89482],[-73.15287,-36.89502],[-73.1529,-36.89522],[-73.15292,-36.89569],[-73.15295,-36.89608],[-73.15296,-36.89628],[-73.15298,-36.89649],[-73.15301,-36.89709],[-73.15303,-36.89729],[-73.15304,-36.89748],[-73.15307,-36.89767],[-73.15309,-36.89787],[-73.1531,-36.89806],[-73.15313,-36.89828],[-73.15316,-36.89869],[-73.15317,-36.8989],[-73.1532,-36.89931],[-73.15322,-36.89956],[-73.15324,-36.89976],[-73.15328,-36.89996],[-73.15337,-36.90034],[-73.153384,-36.900471],[-73.152559,-36.90068],[-73.149061,-36.897597],[-73.143824,-36.898926],[-73.140326,-36.895843],[-73.142066,-36.891432]]]},"properties":{"comuna":"San Pedro de la Paz","mancha_id":"08108-88b2daa4a1fffff","clase":"Medio","nivel_medio":2.172,"nivel_medio_min":2.089,"nivel_medio_max":2.387,"pct_alto":61.3,"n_hexagonos":3,"area_ha":112.55}},{"type":"Feature","geometry":{"type":"Polygon","coordinates":[[[-73.152437,-36.829259],[-73.1507,-36.833669],[-73.145468,-36.834999],[-73.141975,-36.831919],[-73.143712,-36.82751],[-73.148943,-36.82618],[-73.152437,-36.829259]]]},"properties":{"comuna":"San Pedro de la Paz","mancha_id":"08108-88b2daa45bfffff","clase":"Medio","nivel_medio":2.082,"nivel_medio_min":2.082,"nivel_medio_max":2.082,"pct_alto":52.2,"n_hexagonos":1,"area_ha":61.65}},{"type":"Feature","geometry":{"type":"Polygon","coordinates":[[[-73.147244,-36.854391],[-73.148982,-36.84998],[-73.145487,-36.8469],[-73.147225,-36.842489],[-73.152457,-36.841159],[-73.1537,-36.842255],[-73.15368,-36.84235],[-73.15366,-36.84253],[-73.15365,-36.84273],[-73.15362,-36.84292],[-73.15357,-36.84318],[-73.15351,-36.84335],[-73.15346,-36.84355],[-73.1534,-36.84374],[-73.15333,-36.84397],[-73.1533,-36.84415],[-73.15329,-36.84435],[-73.15326,-36.84472],[-73.15326,-36.84491],[-73.15326,-36.8451],[-73.15326,-36.84528],[-73.15325,-36.84547],[-73.15324,-36.84565],[-73.15323,-36.84584],[-73.15321,-36.84603],[-73.1532,-36.84621],[-73.15319,-36.84641],[-73.15319,-36.8466],[-73.1532,-36.84678],[-73.15321,-36.84698],[-73.15322,-36.84716],[-73.1532,-36.84735],[-73.15318,-36.84756],[-73.15318,-36.84774],[-73.15318,-36.84793],[-73.15316,-36.84813],[-73.15314,-36.84832],[-73.15312,-36.84851],[-73.15312,-36.84872],[-73.15313,-36.8489],[-73.15313,-36.848926],[-73.15313,-36.84909],[-73.15306,-36.8493],[-73.15306,-36.84949],[-73.15308,-36.84969],[-73.15304,-36.84987],[-73.15303,-36.85005],[-73.15305,-36.85025],[-73.15304,-36.85044],[-73.15302,-36.85064],[-73.15299,-36.85083],[-73.15297,-36.85102],[-73.15299,-36.85121],[-73.15301,-36.8514],[-73.15296,-36.85159],[-73.15292,-36.85178],[-73.1529,-36.85205],[-73.15289,-36.85225],[-73.15289,-36.85244],[-73.15291,-36.85263],[-73.15292,-36.85282],[-73.15291,-36.85301],[-73.15293,-36.8532],[-73.15293,-36.8534],[-73.15291,-36.85359],[-73.15289,-36.85377],[-73.15288,-36.85396],[-73.15288,-36.85414],[-73.15289,-36.85432],[-73.15289,-36.8545],[-73.15289,-36.85471],[-73.15289,-36.8549],[-73.15288,-36.8551],[-73.15287,-36.8553],[-73.15287,-36.85548],[-73.15287,-36.85566],[-73.15288,-36.85585],[-73.15289,-36.85606],[-73.15289,-36.85626],[-73.15285,-36.85651],[-73.15282,-36.8567],[-73.15281,-36.85688],[-73.152817,-36.856944],[-73.15283,-36.85707],[-73.15284,-36.85726],[-73.15282,-36.85749],[-73.15279,-36.85768],[-73.15276,-36.85787],[-73.15275,-36.85806],[-73.15274,-36.85826],[-73.15274,-36.85846],[-73.15274,-36.85865],[-73.15277,-36.85909],[-73.15278,-36.85927],[-73.15276,-36.85947],[-73.15273,-36.85966],[-73.15268,-36.85985],[-73.15264,-36.86009],[-73.15263,-36.86028],[-73.15263,-36.86046],[-73.15261,-36.86066],[-73.15258,-36.86085],[-73.15259,-36.86103],[-73.15263,-36.86123],[-73.15263,-36.86143],[-73.1526,-36.86162],[-73.15257,-36.86181],[-73.1526,-36.862],[-73.1526,-36.86218],[-73.15249,-36.86235],[-73.15247,-36.8639],[-73.15247,-36.8641],[-73.15246,-36.86429],[-73.15244,-36.86447],[-73.15242,-36.86466],[-73.15241,-36.86485],[-73.15241,-36.864886],[-73.149002,-36.861882],[-73.15074,-36.857472],[-73.147244,-36.854391]]]},"properties":{"comuna":"San Pedro de la Paz","mancha_id":"08108-88b2daa411fffff","clase":"Medio","nivel_medio":1.779,"nivel_medio_min":1.614,"nivel_medio_max":1.963,"pct_alto":46.6,"n_hexagonos":3,"area_ha":103.38}},{"type":"Feature","geometry":{"type":"Polygon","coordinates":[[[-73.068772,-36.933811],[-73.067027,-36.938221],[-73.061789,-36.939544],[-73.058298,-36.936458],[-73.060043,-36.932049],[-73.056552,-36.928963],[-73.058297,-36.924554],[-73.063533,-36.923231],[-73.067025,-36.926316],[-73.06528,-36.930725],[-73.068772,-36.933811]]]},"properties":{"comuna":"San Pedro de la Paz","mancha_id":"08108-88b2dbd115fffff","clase":"Alto","nivel_medio":2.544,"nivel_medio_min":2.511,"nivel_medio_max":2.576,"pct_alto":60.8,"n_hexagonos":2,"area_ha":123.27}},{"type":"Feature","geometry":{"type":"Polygon","coordinates":[[[-73.094893,-36.83198],[-73.093153,-36.836388],[-73.087924,-36.837715],[-73.086183,-36.842123],[-73.080953,-36.843449],[-73.077466,-36.840369],[-73.079207,-36.835961],[-73.084436,-36.834635],[-73.086176,-36.830227],[-73.091405,-36.8289],[-73.094893,-36.83198]]]},"properties":{"comuna":"San Pedro de la Paz","mancha_id":"08108-88b2daa699fffff","clase":"Alto","nivel_medio":2.611,"nivel_medio_min":2.535,"nivel_medio_max":2.687,"pct_alto":73.2,"n_hexagonos":2,"area_ha":123.16}},{"type":"Feature","geometry":{"type":"Polygon","coordinates":[[[-73.143786,-36.875115],[-73.145525,-36.870704],[-73.142029,-36.867623],[-73.143768,-36.863212],[-73.149002,-36.861882],[-73.15241,-36.864886],[-73.15241,-36.86505],[-73.152402,-36.865207],[-73.15076,-36.869375],[-73.15217,-36.870618],[-73.15217,-36.87072],[-73.15219,-36.87112],[-73.15219,-36.87132],[-73.15219,-36.8715],[-73.15218,-36.8717],[-73.15216,-36.87188],[-73.15216,-36.87207],[-73.15218,-36.87246],[-73.15218,-36.87266],[-73.15218,-36.87285],[-73.15218,-36.87306],[-73.15218,-36.87324],[-73.15217,-36.87344],[-73.15215,-36.87369],[-73.15211,-36.87387],[-73.15207,-36.87405],[-73.15202,-36.87425],[-73.15198,-36.87449],[-73.15197,-36.87468],[-73.15198,-36.87506],[-73.15198,-36.87525],[-73.15196,-36.87544],[-73.15194,-36.87564],[-73.15193,-36.87582],[-73.15194,-36.87602],[-73.15196,-36.87621],[-73.15198,-36.8764],[-73.15201,-36.8766],[-73.15205,-36.87683],[-73.152072,-36.876981],[-73.147283,-36.878197],[-73.143786,-36.875115]]]},"properties":{"comuna":"San Pedro de la Paz","mancha_id":"08108-88b2daa4e1fffff","clase":"Alto","nivel_medio":2.691,"nivel_medio_min":2.563,"nivel_medio_max":2.803,"pct_alto":69.4,"n_hexagonos":2,"area_ha":115.58}},{"type":"Feature","geometry":{"type":"Polygon","coordinates":[[[-73.135039,-36.86146],[-73.1333,-36.86587],[-73.128067,-36.867199],[-73.124573,-36.864117],[-73.126312,-36.859707],[-73.122819,-36.856626],[-73.124559,-36.852216],[-73.121066,-36.849136],[-73.122805,-36.844726],[-73.119313,-36.841646],[-73.121052,-36.837237],[-73.126283,-36.835908],[-73.128021,-36.831499],[-73.133251,-36.830169],[-73.134989,-36.82576],[-73.140219,-36.82443],[-73.143712,-36.82751],[-73.141975,-36.831919],[-73.136744,-36.833249],[-73.135006,-36.837659],[-73.129775,-36.838988],[-73.128036,-36.843397],[-73.131529,-36.846478],[-73.129791,-36.850888],[-73.133284,-36.853969],[-73.131545,-36.858379],[-73.135039,-36.86146]]]},"properties":{"comuna":"San Pedro de la Paz","mancha_id":"08108-88b2daa4c1fffff","clase":"Alto","nivel_medio":3.193,"nivel_medio_min":2.839,"nivel_medio_max":3.499,"pct_alto":80.0,"n_hexagonos":6,"area_ha":369.84}},{"type":"Feature","geometry":{"type":"Polygon","coordinates":[[[-73.131577,-36.882184],[-73.129837,-36.886595],[-73.133333,-36.889677],[-73.131593,-36.894088],[-73.13509,-36.897171],[-73.140326,-36.895843],[-73.143824,-36.898926],[-73.142084,-36.903338],[-73.144769,-36.905705],[-73.142595,-36.906029],[-73.140817,-36.906294],[-73.13997,-36.90642],[-73.135913,-36.907033],[-73.13514,-36.90715],[-73.133834,-36.907435],[-73.13097,-36.90806],[-73.128366,-36.909081],[-73.12722,-36.90953],[-73.12794,-36.91011],[-73.1286,-36.91134],[-73.12824,-36.91205],[-73.12801,-36.91194],[-73.127601,-36.911798],[-73.12736,-36.91176],[-73.126107,-36.911766],[-73.12496,-36.91182],[-73.124229,-36.911826],[-73.12374,-36.91188],[-73.12315,-36.91193],[-73.12282,-36.91198],[-73.12226,-36.91218],[-73.12148,-36.91234],[-73.12105,-36.91249],[-73.120304,-36.912908],[-73.120131,-36.913051],[-73.119859,-36.913276],[-73.119776,-36.913334],[-73.119736,-36.913362],[-73.119583,-36.913469],[-73.11932,-36.913644],[-73.119007,-36.913851],[-73.1187,-36.91409],[-73.118065,-36.91466],[-73.11781,-36.914841],[-73.117606,-36.914951],[-73.117406,-36.915034],[-73.11717,-36.91509],[-73.116904,-36.915129],[-73.11644,-36.91515],[-73.11622,-36.91518],[-73.11572,-36.91538],[-73.11531,-36.91558],[-73.11483,-36.91587],[-73.114379,-36.916163],[-73.11357,-36.91669],[-73.113237,-36.916954],[-73.1131,-36.917062],[-73.11256,-36.91749],[-73.11183,-36.91798],[-73.11046,-36.91852],[-73.10954,-36.91871],[-73.10785,-36.9188],[-73.10705,-36.91888],[-73.106929,-36.918869],[-73.106197,-36.918798],[-73.10598,-36.91877],[-73.105824,-36.918931],[-73.10564,-36.91912],[-73.10542,-36.91918],[-73.10513,-36.9191],[-73.10467,-36.91882],[-73.10435,-36.91873],[-73.104127,-36.918747],[-73.10395,-36.91885],[-73.103532,-36.919025],[-73.103249,-36.919043],[-73.10237,-36.91906],[-73.10156,-36.91888],[-73.10125,-36.91889],[-73.10088,-36.91903],[-73.10027,-36.91948],[-73.09855,-36.92036],[-73.09769,-36.92065],[-73.097533,-36.920673],[-73.097294,-36.920707],[-73.09672,-36.92079],[-73.09512,-36.92085],[-73.09464,-36.92094],[-73.09333,-36.92148],[-73.09217,-36.92175],[-73.09172,-36.92193],[-73.09014,-36.92286],[-73.09009,-36.922888],[-73.08963,-36.92315],[-73.089178,-36.923447],[-73.08884,-36.92376],[-73.08854,-36.92391],[-73.0881,-36.92394],[-73.087087,-36.923941],[-73.08681,-36.924],[-73.08652,-36.92419],[-73.08612,-36.92459],[-73.08432,-36.92477],[-73.08283,-36.92479],[-73.08242,-36.92491],[-73.08243,-36.92513],[-73.0829,-36.92571],[-73.08371,-36.926123],[-73.08428,-36.92713],[-73.0848,-36.92729],[-73.08516,-36.9273],[-73.08547,-36.92745],[-73.08498,-36.9289],[-73.085691,-36.929532],[-73.08669,-36.93042],[-73.086759,-36.931625],[-73.08634,-36.93259],[-73.0855,-36.93426],[-73.08641,-36.93508],[-73.08826,-36.93668],[-73.088319,-36.936806],[-73.088709,-36.937633],[-73.088624,-36.939435],[-73.088386,-36.940525],[-73.087902,-36.941979],[-73.08763,-36.94313],[-73.08673,-36.943722],[-73.08617,-36.944091],[-73.085236,-36.944738],[-73.084915,-36.945562],[-73.084383,-36.947077],[-73.084024,-36.94811],[-73.083854,-36.948783],[-73.082997,-36.948792],[-73.081757,-36.949113],[-73.080371,-36.949583],[-73.080221,-36.949876],[-73.079881,-36.95054],[-73.07848,-36.95166],[-73.077911,-36.952649],[-73.07706,-36.95413],[-73.07645,-36.95519],[-73.076263,-36.955732],[-73.075955,-36.956627],[-73.07603,-36.95794],[-73.0769,-36.95924],[-73.07704,-36.95983],[-73.07653,-36.96264],[-73.07604,-36.96367],[-73.075681,-36.963722],[-73.0726,-36.96417],[-73.0705,-36.96442],[-73.07049,-36.96443],[-73.0703,-36.96453],[-73.07013,-36.96467],[-73.06998,-36.96481],[-73.06981,-36.96494],[-73.069315,-36.965593],[-73.068766,-36.966341],[-73.068684,-36.966459],[-73.068643,-36.966703],[-73.068555,-36.967064],[-73.068499,-36.967352],[-73.068409,-36.967655],[-73.068382,-36.967828],[-73.068357,-36.968014],[-73.068373,-36.968314],[-73.068392,-36.968671],[-73.068405,-36.968914],[-73.068379,-36.9691],[-73.068372,-36.969171],[-73.065286,-36.966444],[-73.062467,-36.967156],[-73.06137,-36.963373],[-73.057761,-36.961629],[-73.050703,-36.958218],[-73.054806,-36.957183],[-73.058299,-36.96027],[-73.063538,-36.958947],[-73.067032,-36.962034],[-73.072271,-36.96071],[-73.074017,-36.9563],[-73.070523,-36.953213],[-73.072268,-36.948803],[-73.068775,-36.945716],[-73.07052,-36.941306],[-73.075758,-36.939982],[-73.077502,-36.935572],[-73.074009,-36.932487],[-73.075753,-36.928077],[-73.08099,-36.926752],[-73.082734,-36.922342],[-73.079241,-36.919258],[-73.074005,-36.920582],[-73.070513,-36.917497],[-73.072258,-36.913088],[-73.068766,-36.910004],[-73.07051,-36.905595],[-73.06702,-36.902511],[-73.068764,-36.898102],[-73.073998,-36.896777],[-73.077488,-36.899861],[-73.082723,-36.898536],[-73.084466,-36.894127],[-73.0897,-36.892801],[-73.091442,-36.888392],[-73.096676,-36.887065],[-73.098418,-36.882656],[-73.094926,-36.879573],[-73.089693,-36.8809],[-73.086202,-36.877817],[-73.087944,-36.873408],[-73.084454,-36.870326],[-73.079222,-36.871652],[-73.077479,-36.87606],[-73.072247,-36.877386],[-73.070504,-36.881794],[-73.073994,-36.884877],[-73.072251,-36.889285],[-73.067018,-36.89061],[-73.063528,-36.887527],[-73.065272,-36.883119],[-73.061783,-36.880036],[-73.063527,-36.875628],[-73.068758,-36.874303],[-73.070501,-36.869895],[-73.067013,-36.866813],[-73.068756,-36.862405],[-73.073986,-36.86108],[-73.075728,-36.856672],[-73.07224,-36.85359],[-73.073982,-36.849183],[-73.079212,-36.847857],[-73.0827,-36.850938],[-73.080959,-36.855346],[-73.084448,-36.858427],[-73.089679,-36.857101],[-73.093169,-36.860183],[-73.0984,-36.858856],[-73.101891,-36.861937],[-73.107123,-36.86061],[-73.110615,-36.863691],[-73.108874,-36.868101],[-73.103642,-36.869428],[-73.101901,-36.873837],[-73.105393,-36.87692],[-73.110626,-36.875592],[-73.114119,-36.878675],[-73.119353,-36.877347],[-73.122848,-36.880429],[-73.128082,-36.879101],[-73.131577,-36.882184]],[[-73.122862,-36.892333],[-73.117626,-36.893661],[-73.115885,-36.898071],[-73.11938,-36.901155],[-73.124617,-36.899827],[-73.126357,-36.895416],[-73.122862,-36.892333]]]},"properties":{"comuna":"San Pedro de la Paz","mancha_id":"08108-88b2daa481fffff","clase":"Alto","nivel_medio":2.875,"nivel_medio_min":2.505,"nivel_medio_max":3.441,"pct_alto":81.5,"n_hexagonos":62,"area_ha":3329.4}},{"type":"Feature","geometry":{"type":"Polygon","coordinates":[[[-73.1507,-36.833669],[-73.152437,-36.829259],[-73.155465,-36.828489],[-73.15545,-36.82851],[-73.15535,-36.82867],[-73.15522,-36.82884],[-73.1551,-36.82901],[-73.15499,-36.82923],[-73.15492,-36.82942],[-73.15482,-36.8296],[-73.15473,-36.82977],[-73.15462,-36.82995],[-73.15453,-36.83017],[-73.15448,-36.83036],[-73.15444,-36.83057],[-73.15442,-36.83075],[-73.1544,-36.83094],[-73.15439,-36.83113],[-73.15438,-36.83131],[-73.15438,-36.83153],[-73.15439,-36.83172],[-73.15439,-36.83191],[-73.15438,-36.8321],[-73.15438,-36.83228],[-73.15438,-36.83247],[-73.15441,-36.83285],[-73.15441,-36.83304],[-73.15441,-36.83324],[-73.15441,-36.83345],[-73.15441,-36.83365],[-73.1544,-36.83385],[-73.15438,-36.83406],[-73.15438,-36.83424],[-73.15437,-36.83442],[-73.15436,-36.83461],[-73.15435,-36.8348],[-73.15435,-36.83498],[-73.15436,-36.83519],[-73.15437,-36.83539],[-73.15438,-36.83561],[-73.15438,-36.83579],[-73.1544,-36.836],[-73.1544,-36.83619],[-73.15442,-36.83638],[-73.15443,-36.83657],[-73.154436,-36.836687],[-73.154194,-36.836749],[-73.1507,-36.833669]]]},"properties":{"comuna":"San Pedro de la Paz","mancha_id":"08108-88b2daa451fffff","clase":"Alto","nivel_medio":2.526,"nivel_medio_min":2.526,"nivel_medio_max":2.526,"pct_alto":64.2,"n_hexagonos":1,"area_ha":19.56}},{"type":"Feature","geometry":{"type":"Polygon","coordinates":[[[-73.126357,-36.895416],[-73.124617,-36.899827],[-73.11938,-36.901155],[-73.115885,-36.898071],[-73.117626,-36.893661],[-73.122862,-36.892333],[-73.126357,-36.895416]]]},"properties":{"comuna":"San Pedro de la Paz","mancha_id":"08108-88b2daa4b9fffff","clase":"Muy Alto","nivel_medio":3.661,"nivel_medio_min":3.661,"nivel_medio_max":3.661,"pct_alto":98.9,"n_hexagonos":1,"area_ha":61.67}},{"type":"Feature","geometry":{"type":"Polygon","coordinates":[[[-73.129822,-36.874691],[-73.128082,-36.879101],[-73.122848,-36.880429],[-73.119353,-36.877347],[-73.114119,-36.878675],[-73.110626,-36.875592],[-73.105393,-36.87692],[-73.101901,-36.873837],[-73.103642,-36.869428],[-73.108874,-36.868101],[-73.112367,-36.871183],[-73.1176,-36.869855],[-73.11934,-36.865445],[-73.115847,-36.862364],[-73.117587,-36.857954],[-73.114095,-36.854873],[-73.115835,-36.850464],[-73.121066,-36.849136],[-73.124559,-36.852216],[-73.122819,-36.856626],[-73.126312,-36.859707],[-73.124573,-36.864117],[-73.128067,-36.867199],[-73.1333,-36.86587],[-73.136795,-36.868952],[-73.135056,-36.873362],[-73.129822,-36.874691]]]},"properties":{"comuna":"San Pedro de la Paz","mancha_id":"08108-88b2daa489fffff","clase":"Muy Alto","nivel_medio":3.71,"nivel_medio_min":3.514,"nivel_medio_max":3.809,"pct_alto":97.5,"n_hexagonos":7,"area_ha":431.54}}],"bbox":[-73.1657,-36.97704,-73.02762,-36.81206]}