{"type":"FeatureCollection","features":[{"type":"Feature","geometry":{"type":"Polygon","coordinates":[[[-73.152866,-37.079442],[-73.149357,-37.07635],[-73.151101,-37.071935],[-73.15146,-37.07203],[-73.15238,-37.07223],[-73.15364,-37.07254],[-73.15393,-37.0726],[-73.15421,-37.07266],[-73.15441,-37.07266],[-73.15488,-37.07256],[-73.15501,-37.07232],[-73.15567,-37.07175],[-73.15617,-37.07176],[-73.15676,-37.07251],[-73.15733,-37.07258],[-73.15772,-37.07259],[-73.15807,-37.07251],[-73.15834,-37.07245],[-73.158433,-37.072437],[-73.159865,-37.073699],[-73.158121,-37.078116],[-73.152866,-37.079442]]]},"properties":{"comuna":"Lota","mancha_id":"08106-88b2dbcb59fffff","clase":"Muy Bajo","nivel_medio":0.319,"nivel_medio_min":0.319,"nivel_medio_max":0.319,"pct_alto":8.7,"n_hexagonos":1,"area_ha":54.83}},{"type":"Feature","geometry":{"type":"Polygon","coordinates":[[[-73.156398,-37.094462],[-73.161654,-37.093137],[-73.164621,-37.09575],[-73.16443,-37.09585],[-73.16341,-37.09632],[-73.16293,-37.0965],[-73.1626,-37.09677],[-73.16225,-37.09693],[-73.16212,-37.09692],[-73.16198,-37.09692],[-73.16173,-37.09698],[-73.16148,-37.09701],[-73.16105,-37.09697],[-73.16067,-37.09711],[-73.16024,-37.09724],[-73.16008,-37.09727],[-73.15961,-37.09743],[-73.16021,-37.09834],[-73.16065,-37.09848],[-73.1605,-37.09874],[-73.15984,-37.09852],[-73.15976,-37.09831],[-73.15925,-37.09771],[-73.15882,-37.0982],[-73.1586,-37.09842],[-73.15826,-37.09909],[-73.15819,-37.09928],[-73.15811,-37.09947],[-73.15799,-37.10108],[-73.15811,-37.10191],[-73.158118,-37.101933],[-73.154653,-37.098881],[-73.156398,-37.094462]]]},"properties":{"comuna":"Lota","mancha_id":"08106-88b2dbcb1dfffff","clase":"Muy Bajo","nivel_medio":0.465,"nivel_medio_min":0.465,"nivel_medio_max":0.465,"pct_alto":9.4,"n_hexagonos":1,"area_ha":37.16}},{"type":"Feature","geometry":{"type":"Polygon","coordinates":[[[-73.156398,-37.094462],[-73.154653,-37.098881],[-73.149397,-37.100205],[-73.145886,-37.097112],[-73.147632,-37.092695],[-73.144122,-37.089602],[-73.145867,-37.085184],[-73.142358,-37.082092],[-73.144103,-37.077675],[-73.149357,-37.07635],[-73.152866,-37.079442],[-73.158121,-37.078116],[-73.159865,-37.073699],[-73.163989,-37.072658],[-73.16418,-37.07276],[-73.16434,-37.073],[-73.16438,-37.07323],[-73.16462,-37.07383],[-73.16469,-37.07416],[-73.16453,-37.07433],[-73.16394,-37.07444],[-73.16334,-37.07454],[-73.16304,-37.07479],[-73.16288,-37.07497],[-73.16286,-37.07518],[-73.16312,-37.07541],[-73.16336,-37.07554],[-73.16354,-37.07553],[-73.16385,-37.0754],[-73.16409,-37.0753],[-73.16437,-37.0753],[-73.16462,-37.07535],[-73.16481,-37.07552],[-73.16493,-37.07572],[-73.16493,-37.07599],[-73.16501,-37.07626],[-73.16522,-37.07638],[-73.16543,-37.07635],[-73.16562,-37.07629],[-73.16588,-37.07632],[-73.16606,-37.07646],[-73.16616,-37.07673],[-73.16622,-37.07713],[-73.16611,-37.07744],[-73.16589,-37.07756],[-73.16515,-37.07776],[-73.16492,-37.07769],[-73.16466,-37.07752],[-73.16437,-37.07735],[-73.16394,-37.07734],[-73.16366,-37.0774],[-73.16358,-37.07757],[-73.16363,-37.07774],[-73.16383,-37.07789],[-73.16406,-37.07811],[-73.16425,-37.07841],[-73.16428,-37.07865],[-73.16429,-37.07902],[-73.16476,-37.07934],[-73.16499,-37.07951],[-73.16514,-37.07982],[-73.16545,-37.08007],[-73.165739,-37.080172],[-73.161631,-37.081208],[-73.159887,-37.085626],[-73.163398,-37.088719],[-73.161654,-37.093137],[-73.156398,-37.094462]]]},"properties":{"comuna":"Lota","mancha_id":"08106-88b2dbcb19fffff","clase":"Bajo","nivel_medio":0.806,"nivel_medio_min":0.592,"nivel_medio_max":1.239,"pct_alto":21.1,"n_hexagonos":6,"area_ha":350.08}},{"type":"Feature","geometry":{"type":"Polygon","coordinates":[[[-73.050358,-37.137042],[-73.054802,-37.135926],[-73.058306,-37.139023],[-73.057833,-37.140214],[-73.05777,-37.13989],[-73.05758,-37.1395],[-73.05732,-37.13936],[-73.05691,-37.13932],[-73.05646,-37.13939],[-73.05563,-37.13963],[-73.05529,-37.13961],[-73.05488,-37.13941],[-73.05469,-37.13908],[-73.05477,-37.13855],[-73.0547,-37.13821],[-73.05445,-37.13791],[-73.05399,-37.13762],[-73.05363,-37.13751],[-73.05331,-37.13752],[-73.05279,-37.1377],[-73.05249,-37.13777],[-73.05225,-37.13777],[-73.05204,-37.13774],[-73.05166,-37.13764],[-73.05096,-37.1374],[-73.05038,-37.13706],[-73.050358,-37.137042]]]},"properties":{"comuna":"Lota","mancha_id":"08106-88b2dbcabbfffff","clase":"Bajo","nivel_medio":1.471,"nivel_medio_min":1.471,"nivel_medio_max":1.471,"pct_alto":6.6,"n_hexagonos":1,"area_ha":12.06}},{"type":"Feature","geometry":{"type":"Polygon","coordinates":[[[-73.05707,-37.14176],[-73.057283,-37.141602],[-73.056554,-37.143438],[-73.051786,-37.144634],[-73.05184,-37.14444],[-73.05213,-37.1441],[-73.05247,-37.14384],[-73.0539,-37.14345],[-73.05454,-37.14317],[-73.05488,-37.14294],[-73.05482,-37.1428],[-73.05472,-37.14259],[-73.05474,-37.14235],[-73.05494,-37.14222],[-73.05547,-37.14217],[-73.05606,-37.14213],[-73.05654,-37.14196],[-73.05707,-37.14176]]]},"properties":{"comuna":"Lota","mancha_id":"08106-88b2dbcabbfffff-2","clase":"Bajo","nivel_medio":1.471,"nivel_medio_min":1.471,"nivel_medio_max":1.471,"pct_alto":6.6,"n_hexagonos":1,"area_ha":4.99}},{"type":"Feature","geometry":{"type":"Polygon","coordinates":[[[-73.0468,-37.13146],[-73.047187,-37.131269],[-73.0461,-37.134009],[-73.04595,-37.1338],[-73.04584,-37.13342],[-73.04577,-37.13311],[-73.04582,-37.13294],[-73.04588,-37.13267],[-73.0462,-37.13218],[-73.04652,-37.13172],[-73.0468,-37.13146]]]},"properties":{"comuna":"Lota","mancha_id":"08106-88b2dbca91fffff","clase":"Bajo","nivel_medio":1.197,"nivel_medio_min":1.197,"nivel_medio_max":1.197,"pct_alto":0.0,"n_hexagonos":1,"area_ha":1.37}},{"type":"Feature","geometry":{"type":"Polygon","coordinates":[[[-73.14712,-37.0686],[-73.147356,-37.0689],[-73.143967,-37.069755],[-73.144638,-37.068756],[-73.14582,-37.06831],[-73.14664,-37.06801],[-73.14712,-37.0686]]]},"properties":{"comuna":"Lota","mancha_id":"08106-88b2dbca6dfffff","clase":"Bajo","nivel_medio":1.385,"nivel_medio_min":1.385,"nivel_medio_max":1.385,"pct_alto":39.7,"n_hexagonos":1,"area_ha":2.54}},{"type":"Feature","geometry":{"type":"Polygon","coordinates":[[[-73.079355,-37.193398],[-73.077603,-37.197816],[-73.077168,-37.197925],[-73.07704,-37.19782],[-73.07603,-37.19726],[-73.07379,-37.19678],[-73.07233,-37.19654],[-73.07133,-37.19631],[-73.07115,-37.19616],[-73.070078,-37.197137],[-73.068832,-37.196036],[-73.070584,-37.191618],[-73.075846,-37.1903],[-73.079355,-37.193398]]]},"properties":{"comuna":"Lota","mancha_id":"08106-88b2dbc8b1fffff","clase":"Bajo","nivel_medio":1.318,"nivel_medio_min":1.318,"nivel_medio_max":1.318,"pct_alto":6.1,"n_hexagonos":1,"area_ha":51.2}},{"type":"Feature","geometry":{"type":"Polygon","coordinates":[[[-73.12962,-37.152927],[-73.133695,-37.151903],[-73.136513,-37.154387],[-73.13596,-37.154423],[-73.135249,-37.154458],[-73.13452,-37.154475],[-73.133618,-37.154371],[-73.132681,-37.154232],[-73.131813,-37.154145],[-73.131414,-37.154024],[-73.130738,-37.153712],[-73.130183,-37.153538],[-73.129853,-37.153208],[-73.129662,-37.152948],[-73.12962,-37.152927]]]},"properties":{"comuna":"Lota","mancha_id":"08106-88b2dbc835fffff","clase":"Bajo","nivel_medio":1.104,"nivel_medio_min":1.104,"nivel_medio_max":1.104,"pct_alto":0.0,"n_hexagonos":1,"area_ha":9.74}},{"type":"Feature","geometry":{"type":"Polygon","coordinates":[[[-73.147651,-37.104623],[-73.151162,-37.107717],[-73.156419,-37.106392],[-73.158892,-37.10857],[-73.15845,-37.10889],[-73.15805,-37.10903],[-73.15747,-37.10901],[-73.15717,-37.10894],[-73.15675,-37.10865],[-73.15644,-37.10858],[-73.15561,-37.10856],[-73.1552,-37.10857],[-73.15485,-37.10852],[-73.15455,-37.10848],[-73.15366,-37.10885],[-73.15293,-37.11012],[-73.15276,-37.1107],[-73.15227,-37.11275],[-73.15242,-37.11394],[-73.152579,-37.114922],[-73.149416,-37.112135],[-73.144159,-37.11346],[-73.140648,-37.110366],[-73.142395,-37.105948],[-73.147651,-37.104623]]]},"properties":{"comuna":"Lota","mancha_id":"08106-88b2dbcb13fffff","clase":"Medio","nivel_medio":2.337,"nivel_medio_min":2.308,"nivel_medio_max":2.42,"pct_alto":57.8,"n_hexagonos":2,"area_ha":87.16}},{"type":"Feature","geometry":{"type":"Polygon","coordinates":[[[-73.174042,-37.090012],[-73.172166,-37.090485],[-73.170443,-37.094851],[-73.17017,-37.09462],[-73.16956,-37.0945],[-73.16777,-37.09445],[-73.16688,-37.09478],[-73.167573,-37.095623],[-73.167152,-37.095729],[-73.16652,-37.09492],[-73.16544,-37.09532],[-73.164621,-37.09575],[-73.161654,-37.093137],[-73.163398,-37.088719],[-73.159887,-37.085626],[-73.161631,-37.081208],[-73.165739,-37.080172],[-73.16579,-37.08019],[-73.16605,-37.08022],[-73.16638,-37.08016],[-73.1666,-37.0802],[-73.16713,-37.08028],[-73.167275,-37.080225],[-73.170398,-37.082975],[-73.170684,-37.082902],[-73.17097,-37.08357],[-73.17122,-37.08382],[-73.17123,-37.08405],[-73.17127,-37.08438],[-73.17187,-37.0853],[-73.17215,-37.08599],[-73.17259,-37.08673],[-73.17268,-37.08695],[-73.17277,-37.08717],[-73.17317,-37.08796],[-73.1734,-37.0883],[-73.1741,-37.08852],[-73.17435,-37.08874],[-73.17452,-37.08901],[-73.17451,-37.08922],[-73.17428,-37.08961],[-73.17404,-37.08999],[-73.174042,-37.090012]]]},"properties":{"comuna":"Lota","mancha_id":"08106-88b2dbcb09fffff","clase":"Medio","nivel_medio":1.979,"nivel_medio_min":1.662,"nivel_medio_max":2.362,"pct_alto":54.9,"n_hexagonos":3,"area_ha":139.37}},{"type":"Feature","geometry":{"type":"Polygon","coordinates":[[[-73.144103,-37.077675],[-73.140595,-37.074582],[-73.141063,-37.073396],[-73.141383,-37.073262],[-73.142656,-37.072864],[-73.143179,-37.072494],[-73.14362,-37.072118],[-73.143688,-37.0717],[-73.143524,-37.07132],[-73.143426,-37.070645],[-73.143966,-37.069758],[-73.143967,-37.069755],[-73.147356,-37.0689],[-73.14764,-37.06926],[-73.14784,-37.06995],[-73.14798,-37.07058],[-73.14884,-37.07113],[-73.15029,-37.07165],[-73.15078,-37.07185],[-73.151101,-37.071935],[-73.149357,-37.07635],[-73.144103,-37.077675]]]},"properties":{"comuna":"Lota","mancha_id":"08106-88b2dbca65fffff","clase":"Medio","nivel_medio":2.223,"nivel_medio_min":2.223,"nivel_medio_max":2.223,"pct_alto":56.7,"n_hexagonos":1,"area_ha":54.07}},{"type":"Feature","geometry":{"type":"Polygon","coordinates":[[[-73.167004,-37.139541],[-73.172265,-37.138216],[-73.174227,-37.139943],[-73.17423,-37.1401],[-73.17393,-37.14055],[-73.17384,-37.14069],[-73.17272,-37.14137],[-73.17207,-37.14153],[-73.1719,-37.14159],[-73.17177,-37.14163],[-73.17172,-37.14173],[-73.17168,-37.14188],[-73.17163,-37.14239],[-73.17162,-37.14263],[-73.17161,-37.14286],[-73.17172,-37.14302],[-73.17195,-37.14319],[-73.17208,-37.14341],[-73.1721,-37.1438],[-73.17226,-37.14413],[-73.17333,-37.14577],[-73.173432,-37.145883],[-73.168774,-37.147056],[-73.165258,-37.14396],[-73.167004,-37.139541]]]},"properties":{"comuna":"Lota","mancha_id":"08106-88b2dbc957fffff","clase":"Medio","nivel_medio":2.444,"nivel_medio_min":2.444,"nivel_medio_max":2.444,"pct_alto":63.1,"n_hexagonos":1,"area_ha":48.44}},{"type":"Feature","geometry":{"type":"Polygon","coordinates":[[[-73.073809,-37.075601],[-73.074115,-37.075496],[-73.074882,-37.075232],[-73.075687,-37.07483],[-73.075985,-37.074259],[-73.075653,-37.073757],[-73.075419,-37.073086],[-73.075159,-37.072656],[-73.07492,-37.07226],[-73.07469,-37.07186],[-73.074044,-37.071075],[-73.073608,-37.070538],[-73.07363,-37.069796],[-73.073575,-37.06906],[-73.073575,-37.069056],[-73.073072,-37.068527],[-73.072636,-37.06799],[-73.072378,-37.067746],[-73.071999,-37.067387],[-73.071228,-37.067119],[-73.070423,-37.066716],[-73.069552,-37.066381],[-73.069116,-37.066012],[-73.068512,-37.06561],[-73.068445,-37.064939],[-73.068881,-37.064068],[-73.069626,-37.063305],[-73.069786,-37.062471],[-73.069149,-37.062023],[-73.068713,-37.061486],[-73.068918,-37.060956],[-73.069009,-37.060819],[-73.07055,-37.060431],[-73.070825,-37.059737],[-73.07122,-37.05957],[-73.071764,-37.059106],[-73.072167,-37.058569],[-73.07256,-37.05807],[-73.073809,-37.056926],[-73.074446,-37.056055],[-73.074648,-37.055426],[-73.074715,-37.055217],[-73.07541,-37.05455],[-73.07619,-37.053507],[-73.076324,-37.052669],[-73.076458,-37.051897],[-73.07619,-37.051193],[-73.076089,-37.050623],[-73.076503,-37.050215],[-73.076777,-37.049999],[-73.077553,-37.050493],[-73.077875,-37.050739],[-73.078381,-37.051532],[-73.078678,-37.051842],[-73.077548,-37.054696],[-73.081049,-37.057787],[-73.079301,-37.062201],[-73.082802,-37.065293],[-73.088052,-37.063971],[-73.0898,-37.059557],[-73.093454,-37.058636],[-73.094211,-37.059293],[-73.095491,-37.061126],[-73.095896,-37.062423],[-73.096261,-37.063384],[-73.096771,-37.063929],[-73.097388,-37.064268],[-73.097463,-37.06431],[-73.098512,-37.064509],[-73.09947,-37.064552],[-73.100301,-37.064725],[-73.10114,-37.064991],[-73.101788,-37.065625],[-73.102653,-37.066282],[-73.103207,-37.066455],[-73.10421,-37.066282],[-73.105594,-37.066351],[-73.105956,-37.066509],[-73.10556,-37.06751],[-73.100309,-37.068833],[-73.098562,-37.073248],[-73.102066,-37.07634],[-73.107318,-37.075018],[-73.110823,-37.07811],[-73.116076,-37.076787],[-73.119582,-37.079879],[-73.117835,-37.084295],[-73.121342,-37.087388],[-73.119595,-37.091805],[-73.114341,-37.093128],[-73.112594,-37.097544],[-73.10734,-37.098867],[-73.105592,-37.103283],[-73.109099,-37.106377],[-73.107351,-37.110793],[-73.110858,-37.113888],[-73.116114,-37.112565],[-73.119622,-37.115659],[-73.124879,-37.114337],[-73.128388,-37.117431],[-73.133645,-37.116107],[-73.137156,-37.119202],[-73.135409,-37.12362],[-73.13892,-37.126714],[-73.144178,-37.125391],[-73.14769,-37.128485],[-73.152949,-37.127161],[-73.156462,-37.130256],[-73.154716,-37.134675],[-73.149456,-37.135999],[-73.147709,-37.140418],[-73.151223,-37.143514],[-73.149476,-37.147933],[-73.15299,-37.151029],[-73.158251,-37.149705],[-73.161766,-37.152801],[-73.160989,-37.154767],[-73.160526,-37.154492],[-73.159988,-37.154145],[-73.159502,-37.154128],[-73.158843,-37.153972],[-73.158357,-37.153937],[-73.157837,-37.153989],[-73.157126,-37.154145],[-73.156484,-37.15444],[-73.155896,-37.154569],[-73.155258,-37.154615],[-73.154712,-37.154478],[-73.15412,-37.154205],[-73.153619,-37.154068],[-73.153163,-37.153932],[-73.152754,-37.153886],[-73.152146,-37.153868],[-73.151899,-37.153789],[-73.151487,-37.153659],[-73.150915,-37.153399],[-73.150411,-37.153174],[-73.15003,-37.152861],[-73.149353,-37.152497],[-73.149162,-37.152306],[-73.148781,-37.151925],[-73.148607,-37.151647],[-73.148468,-37.151421],[-73.148052,-37.151144],[-73.147653,-37.151005],[-73.147202,-37.150988],[-73.146369,-37.150988],[-73.146005,-37.151022],[-73.145467,-37.151179],[-73.144738,-37.151387],[-73.144166,-37.151803],[-73.143871,-37.152272],[-73.143368,-37.153035],[-73.142899,-37.153399],[-73.142473,-37.153664],[-73.142444,-37.153682],[-73.142396,-37.153712],[-73.141911,-37.153972],[-73.141407,-37.154128],[-73.140835,-37.154267],[-73.140158,-37.154301],[-73.139956,-37.154307],[-73.139586,-37.154319],[-73.138805,-37.154371],[-73.138094,-37.154371],[-73.137608,-37.154284],[-73.136758,-37.154371],[-73.136513,-37.154387],[-73.133695,-37.151903],[-73.12962,-37.152927],[-73.129246,-37.15274],[-73.128725,-37.15274],[-73.128257,-37.152723],[-73.127864,-37.152723],[-73.127337,-37.152723],[-73.126817,-37.15274],[-73.126262,-37.152792],[-73.125672,-37.152757],[-73.125047,-37.152601],[-73.124197,-37.152601],[-73.123521,-37.152653],[-73.12307,-37.152653],[-73.122011,-37.152913],[-73.121265,-37.153018],[-73.120485,-37.153399],[-73.119843,-37.153816],[-73.119652,-37.154145],[-73.119149,-37.154197],[-73.118854,-37.154215],[-73.118595,-37.15415],[-73.118368,-37.154093],[-73.118056,-37.153885],[-73.117466,-37.153885],[-73.117084,-37.153642],[-73.11665,-37.153521],[-73.116356,-37.153746],[-73.115922,-37.154249],[-73.11561,-37.154614],[-73.115488,-37.155082],[-73.115245,-37.155412],[-73.114933,-37.155793],[-73.114152,-37.156279],[-73.113771,-37.156383],[-73.11325,-37.156869],[-73.112678,-37.157181],[-73.112649,-37.157187],[-73.112088,-37.157303],[-73.111394,-37.157337],[-73.111064,-37.157407],[-73.110839,-37.157754],[-73.110561,-37.158135],[-73.110353,-37.1585],[-73.109936,-37.158934],[-73.109659,-37.159176],[-73.109173,-37.159506],[-73.108774,-37.159801],[-73.108167,-37.160304],[-73.107681,-37.160998],[-73.107421,-37.161328],[-73.107213,-37.161813],[-73.107004,-37.16223],[-73.106779,-37.162507],[-73.106293,-37.162559],[-73.105669,-37.162577],[-73.105265,-37.162596],[-73.104923,-37.162612],[-73.104281,-37.162612],[-73.103274,-37.162386],[-73.102685,-37.162247],[-73.102303,-37.162091],[-73.101887,-37.161987],[-73.101349,-37.161918],[-73.100846,-37.1619],[-73.100377,-37.161935],[-73.100048,-37.161952],[-73.099614,-37.162351],[-73.099319,-37.162802],[-73.098694,-37.163566],[-73.098104,-37.164364],[-73.098018,-37.16563],[-73.098,-37.166255],[-73.097792,-37.167157],[-73.097619,-37.167712],[-73.097603,-37.16776],[-73.097463,-37.168181],[-73.097168,-37.168597],[-73.096543,-37.168788],[-73.095866,-37.168979],[-73.095467,-37.168996],[-73.094964,-37.169117],[-73.094531,-37.169447],[-73.094236,-37.170505],[-73.094114,-37.17172],[-73.094132,-37.172813],[-73.093993,-37.17375],[-73.093984,-37.173815],[-73.093871,-37.174617],[-73.093819,-37.175328],[-73.093906,-37.176178],[-73.094045,-37.177445],[-73.094132,-37.178104],[-73.094166,-37.178694],[-73.093958,-37.179665],[-73.093542,-37.180325],[-73.093299,-37.180741],[-73.092969,-37.181331],[-73.092857,-37.181461],[-73.09264,-37.181713],[-73.092466,-37.182042],[-73.09231,-37.182407],[-73.092379,-37.182615],[-73.092379,-37.182927],[-73.092414,-37.183396],[-73.092501,-37.184037],[-73.09251,-37.184122],[-73.092553,-37.184488],[-73.092865,-37.185182],[-73.093073,-37.185634],[-73.093177,-37.185824],[-73.093177,-37.186033],[-73.09316,-37.186432],[-73.093039,-37.186709],[-73.092605,-37.18716],[-73.092578,-37.187178],[-73.092362,-37.187316],[-73.092067,-37.187646],[-73.091928,-37.188271],[-73.091789,-37.189034],[-73.09167,-37.189541],[-73.091344,-37.190246],[-73.090938,-37.190625],[-73.090612,-37.191303],[-73.090477,-37.191845],[-73.09026,-37.192468],[-73.089799,-37.192929],[-73.088959,-37.19339],[-73.088037,-37.19377],[-73.087414,-37.194014],[-73.087061,-37.194236],[-73.086682,-37.194474],[-73.085787,-37.195179],[-73.08473,-37.196128],[-73.08389,-37.196724],[-73.082561,-37.1977],[-73.081613,-37.198541],[-73.081152,-37.198893],[-73.080854,-37.199625],[-73.080772,-37.200167],[-73.080693,-37.200544],[-73.080664,-37.200682],[-73.080637,-37.201034],[-73.080501,-37.20155],[-73.080176,-37.20201],[-73.07898,-37.20136],[-73.0779,-37.2008],[-73.07775,-37.20037],[-73.07802,-37.19948],[-73.07814,-37.19872],[-73.0781,-37.19869],[-73.077168,-37.197925],[-73.077603,-37.197816],[-73.079355,-37.193398],[-73.075846,-37.1903],[-73.070584,-37.191618],[-73.068832,-37.196036],[-73.070078,-37.197137],[-73.06991,-37.19729],[-73.06977,-37.19742],[-73.06917,-37.19755],[-73.06803,-37.19752],[-73.06784,-37.19749],[-73.06722,-37.19737],[-73.066738,-37.197385],[-73.066784,-37.196549],[-73.066914,-37.19421],[-73.0668,-37.19405],[-73.06636,-37.1928],[-73.06604,-37.19138],[-73.06496,-37.19045],[-73.064603,-37.18914],[-73.0645,-37.18876],[-73.06448,-37.18785],[-73.064987,-37.18664],[-73.065556,-37.185867],[-73.066044,-37.185054],[-73.06673,-37.184276],[-73.067224,-37.183549],[-73.067183,-37.182695],[-73.067171,-37.182638],[-73.067061,-37.182126],[-73.065928,-37.179475],[-73.06339,-37.173534],[-73.060321,-37.16635],[-73.05787,-37.160612],[-73.05691,-37.159252],[-73.060059,-37.158463],[-73.061812,-37.154047],[-73.058307,-37.15095],[-73.05305,-37.152269],[-73.052666,-37.153236],[-73.05221,-37.15259],[-73.05143,-37.15161],[-73.05114,-37.15112],[-73.051206,-37.150639],[-73.05121,-37.15061],[-73.05151,-37.14999],[-73.05161,-37.14961],[-73.05144,-37.14935],[-73.05085,-37.14887],[-73.05078,-37.14858],[-73.05074,-37.14823],[-73.05095,-37.14778],[-73.05123,-37.14731],[-73.05139,-37.14677],[-73.05167,-37.14621],[-73.05176,-37.14558],[-73.05176,-37.14505],[-73.05176,-37.14473],[-73.051786,-37.144634],[-73.056554,-37.143438],[-73.057283,-37.141602],[-73.05742,-37.1415],[-73.05769,-37.14118],[-73.05782,-37.14093],[-73.05787,-37.1404],[-73.057833,-37.140214],[-73.058306,-37.139023],[-73.054802,-37.135926],[-73.050358,-37.137042],[-73.04975,-37.13653],[-73.04936,-37.13619],[-73.04873,-37.13554],[-73.04842,-37.13532],[-73.04794,-37.13516],[-73.04722,-37.13512],[-73.047019,-37.135011],[-73.04696,-37.134959],[-73.04671,-37.13457],[-73.04653,-37.13434],[-73.04618,-37.13412],[-73.0461,-37.134009],[-73.047187,-37.131269],[-73.04751,-37.13111],[-73.04774,-37.13094],[-73.04825,-37.13052],[-73.0488,-37.13017],[-73.05033,-37.12916],[-73.050419,-37.129076],[-73.05081,-37.12871],[-73.051,-37.12833],[-73.05095,-37.12814],[-73.05071,-37.12793],[-73.05023,-37.12768],[-73.04986,-37.12741],[-73.04941,-37.12701],[-73.04902,-37.12647],[-73.04887,-37.12593],[-73.04851,-37.12524],[-73.04812,-37.12468],[-73.04782,-37.12411],[-73.04764,-37.12375],[-73.04751,-37.12365],[-73.04666,-37.12317],[-73.04619,-37.12293],[-73.045856,-37.122704],[-73.04579,-37.12266],[-73.04542,-37.12217],[-73.04509,-37.12186],[-73.04473,-37.12165],[-73.04433,-37.12153],[-73.04403,-37.12136],[-73.04338,-37.12084],[-73.04286,-37.12038],[-73.04211,-37.1198],[-73.04174,-37.11951],[-73.041688,-37.119344],[-73.04162,-37.11913],[-73.04183,-37.11859],[-73.0423,-37.11815],[-73.04266,-37.11755],[-73.04286,-37.11677],[-73.04316,-37.11565],[-73.04361,-37.11512],[-73.04426,-37.11476],[-73.044291,-37.11471],[-73.04462,-37.11417],[-73.04523,-37.11366],[-73.04601,-37.11307],[-73.04601,-37.1124],[-73.04593,-37.11145],[-73.046483,-37.110713],[-73.046971,-37.110022],[-73.04738,-37.10935],[-73.04644,-37.10876],[-73.0458,-37.10829],[-73.045309,-37.107928],[-73.044751,-37.107778],[-73.044419,-37.107793],[-73.044045,-37.107343],[-73.044203,-37.106791],[-73.044223,-37.106722],[-73.044163,-37.106133],[-73.043982,-37.105364],[-73.043801,-37.1047],[-73.043424,-37.104173],[-73.04307,-37.10271],[-73.042794,-37.102174],[-73.042618,-37.101806],[-73.042512,-37.101264],[-73.04254,-37.10067],[-73.0428,-37.09982],[-73.042918,-37.099166],[-73.04605,-37.098379],[-73.0471,-37.095733],[-73.04878,-37.09534],[-73.05201,-37.09358],[-73.053402,-37.092955],[-73.05417,-37.09261],[-73.05564,-37.09202],[-73.0561,-37.09124],[-73.056174,-37.09052],[-73.05715,-37.08844],[-73.057414,-37.087576],[-73.05774,-37.08651],[-73.058186,-37.085491],[-73.058387,-37.084653],[-73.05821,-37.08302],[-73.05808,-37.0818],[-73.05819,-37.081095],[-73.058689,-37.080496],[-73.0591,-37.08016],[-73.059132,-37.080137],[-73.05942,-37.07993],[-73.059829,-37.079557],[-73.059896,-37.07892],[-73.059862,-37.078384],[-73.059929,-37.07778],[-73.060365,-37.077311],[-73.06087,-37.0768],[-73.06167,-37.0765],[-73.062477,-37.076271],[-73.063651,-37.076271],[-73.064623,-37.076473],[-73.065977,-37.076635],[-73.067573,-37.076305],[-73.068129,-37.076167],[-73.068916,-37.075972],[-73.06973,-37.0756],[-73.07084,-37.07536],[-73.072167,-37.075601],[-73.07298,-37.075476],[-73.073571,-37.075565],[-73.073809,-37.075601]],[[-73.095075,-37.094002],[-73.089822,-37.095324],[-73.088073,-37.099739],[-73.091578,-37.102833],[-73.096832,-37.101511],[-73.09858,-37.097096],[-73.095075,-37.094002]],[[-73.067062,-37.116947],[-73.070566,-37.120042],[-73.075821,-37.118722],[-73.077571,-37.114306],[-73.074066,-37.111212],[-73.075816,-37.106797],[-73.072313,-37.103702],[-73.06706,-37.105023],[-73.065309,-37.109437],[-73.068813,-37.112532],[-73.067062,-37.116947]]]},"properties":{"comuna":"Lota","mancha_id":"08106-88b2dbc121fffff","clase":"Medio","nivel_medio":2.129,"nivel_medio_min":1.533,"nivel_medio_max":2.495,"pct_alto":28.8,"n_hexagonos":146,"area_ha":7747.26}},{"type":"Feature","geometry":{"type":"Polygon","coordinates":[[[-73.04698,-37.13499],[-73.04696,-37.134959],[-73.047019,-37.135011],[-73.04698,-37.13499]]]},"properties":{"comuna":"Lota","mancha_id":"08106-88b2dbca97fffff","clase":"Alto","nivel_medio":3.0,"nivel_medio_min":3.0,"nivel_medio_max":3.0,"pct_alto":100.0,"n_hexagonos":1,"area_ha":0.0}},{"type":"Feature","geometry":{"type":"Polygon","coordinates":[[[-73.077571,-37.114306],[-73.075821,-37.118722],[-73.070566,-37.120042],[-73.067062,-37.116947],[-73.068813,-37.112532],[-73.065309,-37.109437],[-73.06706,-37.105023],[-73.072313,-37.103702],[-73.075816,-37.106797],[-73.074066,-37.111212],[-73.077571,-37.114306]]]},"properties":{"comuna":"Lota","mancha_id":"08106-88b2dbca8dfffff","clase":"Alto","nivel_medio":2.654,"nivel_medio_min":2.565,"nivel_medio_max":2.742,"pct_alto":70.7,"n_hexagonos":2,"area_ha":123.61}},{"type":"Feature","geometry":{"type":"Polygon","coordinates":[[[-73.147632,-37.092695],[-73.145886,-37.097112],[-73.149397,-37.100205],[-73.154653,-37.098881],[-73.158118,-37.101933],[-73.158147,-37.102017],[-73.15833,-37.10254],[-73.15873,-37.1028],[-73.15964,-37.10343],[-73.16021,-37.10384],[-73.1614,-37.10406],[-73.1615,-37.10429],[-73.16139,-37.10485],[-73.16141,-37.10551],[-73.16187,-37.10592],[-73.16233,-37.10609],[-73.16256,-37.10621],[-73.16265,-37.10654],[-73.16234,-37.10672],[-73.1622,-37.10696],[-73.16201,-37.10744],[-73.16186,-37.10787],[-73.16161,-37.10796],[-73.1605,-37.10775],[-73.15992,-37.1078],[-73.15918,-37.10827],[-73.15892,-37.10855],[-73.158892,-37.10857],[-73.156419,-37.106392],[-73.151162,-37.107717],[-73.147651,-37.104623],[-73.142395,-37.105948],[-73.138885,-37.102854],[-73.140631,-37.098437],[-73.137121,-37.095343],[-73.138867,-37.090926],[-73.144122,-37.089602],[-73.147632,-37.092695]]]},"properties":{"comuna":"Lota","mancha_id":"08106-88b2dbca25fffff","clase":"Alto","nivel_medio":3.094,"nivel_medio_min":2.701,"nivel_medio_max":3.444,"pct_alto":77.6,"n_hexagonos":4,"area_ha":207.2}},{"type":"Feature","geometry":{"type":"Polygon","coordinates":[[[-73.09858,-37.097096],[-73.096832,-37.101511],[-73.091578,-37.102833],[-73.088073,-37.099739],[-73.089822,-37.095324],[-73.095075,-37.094002],[-73.09858,-37.097096]]]},"properties":{"comuna":"Lota","mancha_id":"08106-88b2dbca17fffff","clase":"Alto","nivel_medio":2.646,"nivel_medio_min":2.646,"nivel_medio_max":2.646,"pct_alto":70.6,"n_hexagonos":1,"area_ha":61.82}},{"type":"Feature","geometry":{"type":"Polygon","coordinates":[[[-73.061812,-37.154047],[-73.060059,-37.158463],[-73.05691,-37.159252],[-73.052666,-37.153236],[-73.05305,-37.152269],[-73.058307,-37.15095],[-73.061812,-37.154047]]]},"properties":{"comuna":"Lota","mancha_id":"08106-88b2dbc8d9fffff","clase":"Alto","nivel_medio":2.525,"nivel_medio_min":2.525,"nivel_medio_max":2.525,"pct_alto":58.1,"n_hexagonos":1,"area_ha":46.42}},{"type":"Feature","geometry":{"type":"Polygon","coordinates":[[[-73.149476,-37.147933],[-73.151223,-37.143514],[-73.147709,-37.140418],[-73.149456,-37.135999],[-73.154716,-37.134675],[-73.156462,-37.130256],[-73.152949,-37.127161],[-73.14769,-37.128485],[-73.144178,-37.125391],[-73.13892,-37.126714],[-73.135409,-37.12362],[-73.137156,-37.119202],[-73.133645,-37.116107],[-73.128388,-37.117431],[-73.124879,-37.114337],[-73.119622,-37.115659],[-73.116114,-37.112565],[-73.110858,-37.113888],[-73.107351,-37.110793],[-73.109099,-37.106377],[-73.105592,-37.103283],[-73.10734,-37.098867],[-73.112594,-37.097544],[-73.114341,-37.093128],[-73.119595,-37.091805],[-73.121342,-37.087388],[-73.117835,-37.084295],[-73.119582,-37.079879],[-73.116076,-37.076787],[-73.110823,-37.07811],[-73.107318,-37.075018],[-73.102066,-37.07634],[-73.098562,-37.073248],[-73.100309,-37.068833],[-73.10556,-37.06751],[-73.105956,-37.066509],[-73.10653,-37.06676],[-73.107111,-37.066809],[-73.10823,-37.066783],[-73.108705,-37.066663],[-73.109516,-37.066857],[-73.110058,-37.067044],[-73.111045,-37.067124],[-73.111873,-37.067264],[-73.112636,-37.067631],[-73.113788,-37.067959],[-73.114161,-37.068332],[-73.114301,-37.069283],[-73.114354,-37.069644],[-73.114728,-37.069642],[-73.11663,-37.06963],[-73.118067,-37.069252],[-73.118662,-37.069196],[-73.119039,-37.06917],[-73.119532,-37.069193],[-73.120652,-37.069699],[-73.121635,-37.06972],[-73.1221,-37.06987],[-73.122409,-37.070087],[-73.12318,-37.070779],[-73.123431,-37.071004],[-73.124276,-37.07179],[-73.124958,-37.072112],[-73.126851,-37.072225],[-73.127947,-37.072481],[-73.128389,-37.072525],[-73.128928,-37.072427],[-73.129254,-37.072425],[-73.130815,-37.072714],[-73.131662,-37.072858],[-73.131935,-37.072905],[-73.132698,-37.073034],[-73.133592,-37.073218],[-73.134472,-37.073271],[-73.136954,-37.073828],[-73.139267,-37.073952],[-73.139868,-37.073901],[-73.141063,-37.073396],[-73.140595,-37.074582],[-73.135341,-37.075907],[-73.133596,-37.080324],[-73.128342,-37.081648],[-73.126596,-37.086065],[-73.130104,-37.089157],[-73.128357,-37.093574],[-73.131866,-37.096667],[-73.13012,-37.101085],[-73.124864,-37.102408],[-73.123117,-37.106825],[-73.126626,-37.109919],[-73.131882,-37.108596],[-73.135392,-37.11169],[-73.140648,-37.110366],[-73.144159,-37.11346],[-73.149416,-37.112135],[-73.152579,-37.114922],[-73.15267,-37.11548],[-73.152747,-37.115687],[-73.15308,-37.11658],[-73.15336,-37.11711],[-73.15367,-37.11804],[-73.15418,-37.11865],[-73.15426,-37.11876],[-73.15579,-37.11917],[-73.15602,-37.11942],[-73.15613,-37.1198],[-73.15645,-37.11993],[-73.15723,-37.12001],[-73.15741,-37.12002],[-73.15853,-37.11982],[-73.160762,-37.119369],[-73.16125,-37.11927],[-73.16159,-37.11918],[-73.16211,-37.11895],[-73.16221,-37.11896],[-73.1623,-37.11897],[-73.16238,-37.11909],[-73.16237,-37.11926],[-73.16244,-37.11936],[-73.16259,-37.11938],[-73.16287,-37.1195],[-73.16297,-37.11967],[-73.16296,-37.11979],[-73.16307,-37.11995],[-73.1633,-37.11999],[-73.16353,-37.11997],[-73.16368,-37.12001],[-73.16379,-37.12011],[-73.16394,-37.12043],[-73.16412,-37.1206],[-73.1644,-37.12062],[-73.16459,-37.12059],[-73.1648,-37.12078],[-73.16482,-37.12092],[-73.1648,-37.1211],[-73.16481,-37.12134],[-73.16482,-37.12178],[-73.16509,-37.12199],[-73.16524,-37.12206],[-73.16542,-37.12205],[-73.16561,-37.12206],[-73.16572,-37.12213],[-73.16576,-37.1223],[-73.16599,-37.12283],[-73.16627,-37.12297],[-73.16705,-37.12327],[-73.16722,-37.1235],[-73.167267,-37.123554],[-73.16742,-37.12373],[-73.16751,-37.12378],[-73.1676,-37.12384],[-73.16777,-37.1238],[-73.16801,-37.12368],[-73.1684,-37.12377],[-73.1688,-37.12392],[-73.16913,-37.12398],[-73.16924,-37.12414],[-73.1692,-37.12422],[-73.16903,-37.12432],[-73.16894,-37.1244],[-73.16898,-37.12455],[-73.16915,-37.12456],[-73.16948,-37.12463],[-73.16968,-37.12457],[-73.16996,-37.12448],[-73.17022,-37.12454],[-73.170329,-37.124599],[-73.170837,-37.125046],[-73.1708,-37.12509],[-73.17075,-37.12524],[-73.1708,-37.12533],[-73.17084,-37.12548],[-73.17082,-37.1256],[-73.17093,-37.12574],[-73.17128,-37.12586],[-73.17154,-37.1261],[-73.17168,-37.12626],[-73.1718,-37.1264],[-73.17199,-37.12643],[-73.172164,-37.126473],[-73.17219,-37.12648],[-73.1722,-37.12665],[-73.17211,-37.12687],[-73.1721,-37.12699],[-73.17223,-37.12706],[-73.1726,-37.12718],[-73.17274,-37.12731],[-73.17277,-37.12746],[-73.17283,-37.12759],[-73.17302,-37.12765],[-73.17309,-37.12766],[-73.1732,-37.12777],[-73.17323,-37.12793],[-73.17326,-37.12804],[-73.17332,-37.12809],[-73.17337,-37.12815],[-73.17352,-37.12817],[-73.17373,-37.12812],[-73.17383,-37.12817],[-73.17387,-37.12833],[-73.17391,-37.12867],[-73.17392,-37.12912],[-73.1741,-37.12958],[-73.17426,-37.1297],[-73.17403,-37.13038],[-73.17391,-37.13047],[-73.17391,-37.1308],[-73.17401,-37.13087],[-73.1741,-37.13101],[-73.17412,-37.13128],[-73.17426,-37.13165],[-73.17451,-37.13175],[-73.17475,-37.13168],[-73.17501,-37.13161],[-73.17518,-37.13171],[-73.17516,-37.13187],[-73.17511,-37.13206],[-73.17485,-37.1327],[-73.17478,-37.13322],[-73.17495,-37.13334],[-73.17515,-37.13334],[-73.17528,-37.13327],[-73.17546,-37.13324],[-73.17556,-37.13329],[-73.175667,-37.133378],[-73.17567,-37.13338],[-73.17567,-37.13358],[-73.17554,-37.13374],[-73.17551,-37.13388],[-73.17556,-37.13399],[-73.17562,-37.13404],[-73.1756,-37.13432],[-73.17566,-37.1345],[-73.17577,-37.13456],[-73.17585,-37.13462],[-73.17592,-37.1347],[-73.1759,-37.1348],[-73.17583,-37.13502],[-73.17593,-37.13511],[-73.17606,-37.13525],[-73.17602,-37.13535],[-73.17581,-37.13537],[-73.17555,-37.13533],[-73.17532,-37.13541],[-73.17503,-37.1355],[-73.17488,-37.13555],[-73.17481,-37.13557],[-73.17451,-37.13585],[-73.17417,-37.13639],[-73.17409,-37.13719],[-73.17418,-37.13793],[-73.17388,-37.13865],[-73.17422,-37.1396],[-73.174227,-37.139943],[-73.172265,-37.138216],[-73.167004,-37.139541],[-73.165258,-37.14396],[-73.168774,-37.147056],[-73.173432,-37.145883],[-73.17468,-37.14727],[-73.17612,-37.1487],[-73.177226,-37.14965],[-73.17747,-37.14986],[-73.17768,-37.15003],[-73.17923,-37.15131],[-73.18023,-37.15211],[-73.18123,-37.15262],[-73.18238,-37.1532],[-73.18308,-37.1533],[-73.18344,-37.15316],[-73.18375,-37.15284],[-73.18395,-37.15251],[-73.18441,-37.15234],[-73.18514,-37.15232],[-73.185633,-37.152363],[-73.185514,-37.152665],[-73.183902,-37.15519],[-73.181744,-37.158569],[-73.181518,-37.158552],[-73.18098,-37.158413],[-73.180633,-37.158292],[-73.180269,-37.15817],[-73.179887,-37.15817],[-73.179384,-37.158292],[-73.178898,-37.158448],[-73.178482,-37.158472],[-73.178309,-37.158482],[-73.177771,-37.158604],[-73.177354,-37.158656],[-73.177059,-37.158691],[-73.176435,-37.15876],[-73.176192,-37.158639],[-73.175689,-37.158378],[-73.17529,-37.158344],[-73.174648,-37.158378],[-73.174266,-37.158482],[-73.174058,-37.158517],[-73.173624,-37.158795],[-73.173381,-37.159003],[-73.173173,-37.159281],[-73.173034,-37.159419],[-73.172462,-37.159575],[-73.171889,-37.159471],[-73.171595,-37.159298],[-73.171143,-37.159003],[-73.170502,-37.158691],[-73.170033,-37.1585],[-73.169651,-37.158257],[-73.169154,-37.158091],[-73.169027,-37.158049],[-73.168489,-37.157979],[-73.168125,-37.157927],[-73.167656,-37.157823],[-73.166858,-37.15758],[-73.16639,-37.157372],[-73.165904,-37.157181],[-73.165453,-37.156973],[-73.164429,-37.156661],[-73.163978,-37.156331],[-73.163475,-37.155984],[-73.163059,-37.155672],[-73.162729,-37.155394],[-73.162174,-37.155204],[-73.161602,-37.154995],[-73.161081,-37.154822],[-73.160989,-37.154767],[-73.161766,-37.152801],[-73.158251,-37.149705],[-73.15299,-37.151029],[-73.149476,-37.147933]]]},"properties":{"comuna":"Lota","mancha_id":"08106-88b2dbc825fffff","clase":"Alto","nivel_medio":2.875,"nivel_medio_min":2.515,"nivel_medio_max":3.477,"pct_alto":79.8,"n_hexagonos":38,"area_ha":1847.87}},{"type":"Feature","geometry":{"type":"Polygon","coordinates":[[[-73.070825,-37.059737],[-73.07055,-37.060431],[-73.069009,-37.060819],[-73.069321,-37.060349],[-73.070256,-37.059977],[-73.070825,-37.059737]]]},"properties":{"comuna":"Lota","mancha_id":"08106-88b2dbc16bfffff","clase":"Alto","nivel_medio":2.682,"nivel_medio_min":2.682,"nivel_medio_max":2.682,"pct_alto":77.2,"n_hexagonos":1,"area_ha":0.72}},{"type":"Feature","geometry":{"type":"Polygon","coordinates":[[[-73.0898,-37.059557],[-73.088052,-37.063971],[-73.082802,-37.065293],[-73.079301,-37.062201],[-73.081049,-37.057787],[-73.077548,-37.054696],[-73.078678,-37.051842],[-73.078709,-37.051874],[-73.0795,-37.051989],[-73.080315,-37.052037],[-73.080968,-37.052157],[-73.081214,-37.052202],[-73.082744,-37.052583],[-73.084074,-37.052952],[-73.084415,-37.053076],[-73.084803,-37.053217],[-73.085564,-37.053582],[-73.086856,-37.053714],[-73.087416,-37.053641],[-73.088379,-37.053515],[-73.089406,-37.053615],[-73.090035,-37.054244],[-73.090399,-37.055105],[-73.090995,-37.056032],[-73.091927,-37.057286],[-73.093173,-37.058393],[-73.093454,-37.058636],[-73.0898,-37.059557]]]},"properties":{"comuna":"Lota","mancha_id":"08106-88b2dbc165fffff","clase":"Alto","nivel_medio":2.565,"nivel_medio_min":2.509,"nivel_medio_max":2.739,"pct_alto":59.3,"n_hexagonos":3,"area_ha":120.81}},{"type":"Feature","geometry":{"type":"Polygon","coordinates":[[[-73.0471,-37.095733],[-73.04605,-37.098379],[-73.042918,-37.099166],[-73.043,-37.09871],[-73.04331,-37.09781],[-73.043679,-37.097212],[-73.04443,-37.096569],[-73.04562,-37.09608],[-73.0471,-37.095733]]]},"properties":{"comuna":"Lota","mancha_id":"08106-88b2dbc133fffff","clase":"Alto","nivel_medio":2.736,"nivel_medio_min":2.736,"nivel_medio_max":2.736,"pct_alto":76.9,"n_hexagonos":1,"area_ha":7.28}},{"type":"Feature","geometry":{"type":"Polygon","coordinates":[[[-73.124864,-37.102408],[-73.13012,-37.101085],[-73.131866,-37.096667],[-73.128357,-37.093574],[-73.130104,-37.089157],[-73.126596,-37.086065],[-73.128342,-37.081648],[-73.133596,-37.080324],[-73.135341,-37.075907],[-73.140595,-37.074582],[-73.144103,-37.077675],[-73.142358,-37.082092],[-73.145867,-37.085184],[-73.144122,-37.089602],[-73.138867,-37.090926],[-73.137121,-37.095343],[-73.140631,-37.098437],[-73.138885,-37.102854],[-73.142395,-37.105948],[-73.140648,-37.110366],[-73.135392,-37.11169],[-73.131882,-37.108596],[-73.126626,-37.109919],[-73.123117,-37.106825],[-73.124864,-37.102408]]]},"properties":{"comuna":"Lota","mancha_id":"08106-88b2dbc849fffff","clase":"Muy Alto","nivel_medio":3.695,"nivel_medio_min":3.538,"nivel_medio_max":3.863,"pct_alto":96.2,"n_hexagonos":7,"area_ha":433.03}}],"bbox":[-73.18564,-37.20201,-73.04161,-37.04999]}