{"type":"FeatureCollection","features":[{"type":"Feature","geometry":{"type":"Polygon","coordinates":[[[-72.639123,-37.60443],[-72.638987,-37.604463],[-72.638694,-37.6042],[-72.638846,-37.604254],[-72.639123,-37.60443]]]},"properties":{"comuna":"Negrete","mancha_id":"08307-88b2db7739fffff","clase":"Muy Bajo","nivel_medio":0.0,"nivel_medio_min":0.0,"nivel_medio_max":0.0,"pct_alto":0.0,"n_hexagonos":1,"area_ha":0.03}},{"type":"Feature","geometry":{"type":"Polygon","coordinates":[[[-72.591962,-37.544319],[-72.592053,-37.544401],[-72.591505,-37.54575],[-72.591539,-37.544743],[-72.591962,-37.544319]]]},"properties":{"comuna":"Negrete","mancha_id":"08307-88b2db7649fffff","clase":"Muy Bajo","nivel_medio":0.0,"nivel_medio_min":0.0,"nivel_medio_max":0.0,"pct_alto":0.0,"n_hexagonos":1,"area_ha":0.28}},{"type":"Feature","geometry":{"type":"Polygon","coordinates":[[[-72.584982,-37.561797],[-72.584888,-37.562029],[-72.58374,-37.562308],[-72.583744,-37.562307],[-72.584982,-37.561797]]]},"properties":{"comuna":"Negrete","mancha_id":"08307-88b2db7643fffff","clase":"Muy Bajo","nivel_medio":0.0,"nivel_medio_min":0.0,"nivel_medio_max":0.0,"pct_alto":0.0,"n_hexagonos":1,"area_ha":0.12}},{"type":"Feature","geometry":{"type":"Polygon","coordinates":[[[-72.607574,-37.660661],[-72.607536,-37.660516],[-72.607837,-37.660786],[-72.607574,-37.660661]]]},"properties":{"comuna":"Negrete","mancha_id":"08307-88b2db75c3fffff","clase":"Muy Bajo","nivel_medio":0.029,"nivel_medio_min":0.029,"nivel_medio_max":0.029,"pct_alto":0.0,"n_hexagonos":1,"area_ha":0.02}},{"type":"Feature","geometry":{"type":"Polygon","coordinates":[[[-72.646194,-37.646989],[-72.645708,-37.646554],[-72.645784,-37.646367],[-72.645792,-37.64638],[-72.646173,-37.646951],[-72.646194,-37.646989]]]},"properties":{"comuna":"Negrete","mancha_id":"08307-88b2db7503fffff","clase":"Muy Bajo","nivel_medio":0.168,"nivel_medio_min":0.168,"nivel_medio_max":0.168,"pct_alto":0.0,"n_hexagonos":1,"area_ha":0.06}},{"type":"Feature","geometry":{"type":"Polygon","coordinates":[[[-72.648575,-37.546925],[-72.648196,-37.546586],[-72.648963,-37.544693],[-72.64896,-37.54557],[-72.648575,-37.546925]]]},"properties":{"comuna":"Negrete","mancha_id":"08307-88b2db0da1fffff","clase":"Muy Bajo","nivel_medio":0.335,"nivel_medio_min":0.335,"nivel_medio_max":0.335,"pct_alto":1.2,"n_hexagonos":1,"area_ha":0.64}},{"type":"Feature","geometry":{"type":"Polygon","coordinates":[[[-72.63863,-37.57137],[-72.638509,-37.573977],[-72.637465,-37.573043],[-72.638701,-37.569996],[-72.63863,-37.57137]]]},"properties":{"comuna":"Negrete","mancha_id":"08307-88b2db7743fffff","clase":"Bajo","nivel_medio":1.0,"nivel_medio_min":1.0,"nivel_medio_max":1.0,"pct_alto":2.2,"n_hexagonos":1,"area_ha":2.12}},{"type":"Feature","geometry":{"type":"Polygon","coordinates":[[[-72.644532,-37.567345],[-72.646321,-37.562936],[-72.648772,-37.562337],[-72.64996,-37.56422],[-72.64997,-37.56563],[-72.649574,-37.566589],[-72.648811,-37.567227],[-72.64793,-37.56769],[-72.644983,-37.567748],[-72.64489,-37.56775],[-72.643979,-37.56748],[-72.644532,-37.567345]]]},"properties":{"comuna":"Negrete","mancha_id":"08307-88b2db7741fffff","clase":"Bajo","nivel_medio":0.967,"nivel_medio_min":0.966,"nivel_medio_max":1.0,"pct_alto":0.3,"n_hexagonos":2,"area_ha":20.56}},{"type":"Feature","geometry":{"type":"Polygon","coordinates":[[[-72.633796,-37.593805],[-72.635586,-37.589395],[-72.636827,-37.589093],[-72.63672,-37.58924],[-72.636386,-37.591337],[-72.636631,-37.592269],[-72.636901,-37.593054],[-72.636852,-37.593888],[-72.636484,-37.594526],[-72.635615,-37.595398],[-72.635602,-37.595422],[-72.635159,-37.596267],[-72.634546,-37.597077],[-72.633884,-37.597715],[-72.633465,-37.59899],[-72.633295,-37.600021],[-72.63328,-37.60123],[-72.633598,-37.601801],[-72.630215,-37.602626],[-72.626725,-37.599502],[-72.628516,-37.595092],[-72.633796,-37.593805]]]},"properties":{"comuna":"Negrete","mancha_id":"08307-88b2db7703fffff","clase":"Bajo","nivel_medio":1.316,"nivel_medio_min":1.278,"nivel_medio_max":1.48,"pct_alto":2.1,"n_hexagonos":2,"area_ha":58.4}},{"type":"Feature","geometry":{"type":"Polygon","coordinates":[[[-72.554713,-37.601137],[-72.552918,-37.605544],[-72.54764,-37.606826],[-72.544158,-37.603701],[-72.545953,-37.599295],[-72.55123,-37.598012],[-72.554713,-37.601137]]]},"properties":{"comuna":"Negrete","mancha_id":"08307-88b2db76ebfffff","clase":"Bajo","nivel_medio":1.34,"nivel_medio_min":1.34,"nivel_medio_max":1.34,"pct_alto":3.6,"n_hexagonos":1,"area_ha":61.61}},{"type":"Feature","geometry":{"type":"Polygon","coordinates":[[[-72.61296,-37.563129],[-72.611169,-37.567538],[-72.605893,-37.568824],[-72.602407,-37.565702],[-72.604198,-37.561294],[-72.609474,-37.560008],[-72.61296,-37.563129]]]},"properties":{"comuna":"Negrete","mancha_id":"08307-88b2db7661fffff","clase":"Bajo","nivel_medio":1.313,"nivel_medio_min":1.313,"nivel_medio_max":1.313,"pct_alto":0.0,"n_hexagonos":1,"area_ha":61.65}},{"type":"Feature","geometry":{"type":"Polygon","coordinates":[[[-72.563684,-37.579103],[-72.558408,-37.580386],[-72.556523,-37.578695],[-72.556559,-37.578686],[-72.55873,-37.577848],[-72.561493,-37.576565],[-72.563516,-37.575924],[-72.564885,-37.576152],[-72.563684,-37.579103]]]},"properties":{"comuna":"Negrete","mancha_id":"08307-88b2db7619fffff","clase":"Bajo","nivel_medio":1.098,"nivel_medio_min":1.098,"nivel_medio_max":1.098,"pct_alto":0.3,"n_hexagonos":1,"area_ha":19.1}},{"type":"Feature","geometry":{"type":"Polygon","coordinates":[[[-72.586579,-37.569558],[-72.581304,-37.570843],[-72.579511,-37.57525],[-72.576237,-37.576048],[-72.57659,-37.575628],[-72.577232,-37.57469],[-72.577725,-37.573802],[-72.578514,-37.572618],[-72.579304,-37.571533],[-72.579699,-37.570052],[-72.579721,-37.569424],[-72.579748,-37.568671],[-72.579945,-37.567142],[-72.579896,-37.565513],[-72.579995,-37.564576],[-72.580439,-37.56428],[-72.581228,-37.563441],[-72.582363,-37.562899],[-72.58374,-37.562308],[-72.584888,-37.562029],[-72.588371,-37.565151],[-72.586579,-37.569558]]]},"properties":{"comuna":"Negrete","mancha_id":"08307-88b2db7609fffff","clase":"Bajo","nivel_medio":0.982,"nivel_medio_min":0.95,"nivel_medio_max":1.133,"pct_alto":5.7,"n_hexagonos":2,"area_ha":64.37}},{"type":"Feature","geometry":{"type":"Polygon","coordinates":[[[-72.628258,-37.666703],[-72.633255,-37.665489],[-72.633799,-37.665976],[-72.633638,-37.666053],[-72.633023,-37.666207],[-72.632281,-37.666334],[-72.631547,-37.666391],[-72.631091,-37.666393],[-72.630634,-37.666584],[-72.630101,-37.666698],[-72.629606,-37.666812],[-72.629035,-37.666812],[-72.628463,-37.666755],[-72.628258,-37.666703]]]},"properties":{"comuna":"Negrete","mancha_id":"08307-88b2db75e1fffff","clase":"Bajo","nivel_medio":1.052,"nivel_medio_min":1.052,"nivel_medio_max":1.052,"pct_alto":0.0,"n_hexagonos":1,"area_ha":2.34}},{"type":"Feature","geometry":{"type":"Polygon","coordinates":[[[-72.613752,-37.662277],[-72.615695,-37.661805],[-72.617364,-37.663299],[-72.617,-37.663175],[-72.6162,-37.662946],[-72.615286,-37.662699],[-72.614448,-37.662451],[-72.613752,-37.662277]]]},"properties":{"comuna":"Negrete","mancha_id":"08307-88b2db75c7fffff","clase":"Bajo","nivel_medio":1.116,"nivel_medio_min":1.116,"nivel_medio_max":1.116,"pct_alto":1.8,"n_hexagonos":1,"area_ha":1.75}},{"type":"Feature","geometry":{"type":"Polygon","coordinates":[[[-72.650727,-37.622635],[-72.65061,-37.622743],[-72.651167,-37.62137],[-72.652939,-37.620938],[-72.652743,-37.621282],[-72.652438,-37.621701],[-72.651943,-37.622101],[-72.651733,-37.622248],[-72.651459,-37.6223],[-72.651183,-37.622384],[-72.650727,-37.622635]]]},"properties":{"comuna":"Negrete","mancha_id":"08307-88b2db7543fffff","clase":"Bajo","nivel_medio":1.193,"nivel_medio_min":1.193,"nivel_medio_max":1.193,"pct_alto":0.0,"n_hexagonos":1,"area_ha":1.58}},{"type":"Feature","geometry":{"type":"Polygon","coordinates":[[[-72.652457,-37.630651],[-72.651962,-37.631145],[-72.651828,-37.631279],[-72.650781,-37.632136],[-72.649905,-37.632974],[-72.648763,-37.633869],[-72.648732,-37.63389],[-72.647525,-37.634726],[-72.646554,-37.63543],[-72.64543,-37.636078],[-72.645119,-37.636272],[-72.645796,-37.634605],[-72.642302,-37.63148],[-72.644093,-37.627068],[-72.649377,-37.625781],[-72.650235,-37.623667],[-72.650293,-37.624004],[-72.650591,-37.624519],[-72.650743,-37.625281],[-72.651029,-37.62589],[-72.651333,-37.626366],[-72.651771,-37.626975],[-72.652362,-37.627661],[-72.6528,-37.628042],[-72.652895,-37.628404],[-72.653021,-37.62887],[-72.653085,-37.629108],[-72.653142,-37.62947],[-72.653123,-37.629832],[-72.652838,-37.630289],[-72.652457,-37.630651]]]},"properties":{"comuna":"Negrete","mancha_id":"08307-88b2db7509fffff","clase":"Bajo","nivel_medio":1.438,"nivel_medio_min":0.585,"nivel_medio_max":1.486,"pct_alto":1.2,"n_hexagonos":4,"area_ha":67.35}},{"type":"Feature","geometry":{"type":"Polygon","coordinates":[[[-72.536357,-37.661191],[-72.540126,-37.660278],[-72.541154,-37.661199],[-72.540895,-37.661372],[-72.540726,-37.66188],[-72.540535,-37.662451],[-72.540307,-37.663175],[-72.540059,-37.663689],[-72.539793,-37.66407],[-72.539336,-37.664508],[-72.539088,-37.664679],[-72.538726,-37.664832],[-72.538422,-37.66487],[-72.538098,-37.664775],[-72.537519,-37.664585],[-72.536955,-37.664451],[-72.536651,-37.664203],[-72.536479,-37.66388],[-72.536365,-37.663613],[-72.536289,-37.663327],[-72.536232,-37.662946],[-72.536251,-37.66247],[-72.536327,-37.661804],[-72.536355,-37.661209],[-72.536357,-37.661191]]]},"properties":{"comuna":"Negrete","mancha_id":"08307-88b2db748bfffff","clase":"Bajo","nivel_medio":1.052,"nivel_medio_min":1.052,"nivel_medio_max":1.052,"pct_alto":0.9,"n_hexagonos":1,"area_ha":15.43}},{"type":"Feature","geometry":{"type":"Polygon","coordinates":[[[-72.533827,-37.582393],[-72.532031,-37.586799],[-72.526756,-37.58808],[-72.523278,-37.584956],[-72.525074,-37.580551],[-72.523407,-37.579055],[-72.523454,-37.579032],[-72.524836,-37.578588],[-72.525526,-37.577848],[-72.526513,-37.57765],[-72.527697,-37.57765],[-72.528635,-37.577798],[-72.529868,-37.578094],[-72.53065,-37.578529],[-72.530348,-37.57927],[-72.533827,-37.582393]]]},"properties":{"comuna":"Negrete","mancha_id":"08307-88b2db3935fffff","clase":"Bajo","nivel_medio":1.372,"nivel_medio_min":0.746,"nivel_medio_max":1.5,"pct_alto":42.9,"n_hexagonos":2,"area_ha":74.1}},{"type":"Feature","geometry":{"type":"Polygon","coordinates":[[[-72.506458,-37.579431],[-72.506507,-37.579476],[-72.506828,-37.579772],[-72.507273,-37.580261],[-72.507716,-37.580561],[-72.508736,-37.580879],[-72.509393,-37.580857],[-72.510331,-37.580857],[-72.51186,-37.580857],[-72.51334,-37.581153],[-72.514722,-37.581203],[-72.515318,-37.58117],[-72.514525,-37.583114],[-72.509252,-37.584395],[-72.505775,-37.581271],[-72.501832,-37.582228],[-72.501817,-37.582135],[-72.501795,-37.581548],[-72.502091,-37.58066],[-72.502634,-37.580117],[-72.503466,-37.579702],[-72.504364,-37.579441],[-72.505375,-37.5794],[-72.506458,-37.579431]]]},"properties":{"comuna":"Negrete","mancha_id":"08307-88b2db3917fffff","clase":"Bajo","nivel_medio":0.954,"nivel_medio_min":0.945,"nivel_medio_max":0.957,"pct_alto":0.1,"n_hexagonos":2,"area_ha":31.54}},{"type":"Feature","geometry":{"type":"Polygon","coordinates":[[[-72.496163,-37.579637],[-72.491753,-37.580707],[-72.488339,-37.577638],[-72.488626,-37.577596],[-72.48972,-37.577596],[-72.490928,-37.577645],[-72.492218,-37.577727],[-72.49341,-37.577776],[-72.494161,-37.577955],[-72.494863,-37.578363],[-72.495516,-37.578853],[-72.496054,-37.579473],[-72.496163,-37.579637]]]},"properties":{"comuna":"Negrete","mancha_id":"08307-88b2db3913fffff","clase":"Bajo","nivel_medio":1.487,"nivel_medio_min":1.487,"nivel_medio_max":1.487,"pct_alto":0.0,"n_hexagonos":1,"area_ha":13.81}},{"type":"Feature","geometry":{"type":"Polygon","coordinates":[[[-72.611454,-37.531727],[-72.613243,-37.527319],[-72.614587,-37.526991],[-72.61428,-37.52771],[-72.61385,-37.5296],[-72.613563,-37.531099],[-72.619298,-37.533701],[-72.6204,-37.532894],[-72.620472,-37.532919],[-72.620212,-37.53356],[-72.614938,-37.534847],[-72.611454,-37.531727]]]},"properties":{"comuna":"Negrete","mancha_id":"08307-88b2db0dd7fffff","clase":"Bajo","nivel_medio":1.352,"nivel_medio_min":1.352,"nivel_medio_max":1.352,"pct_alto":10.6,"n_hexagonos":1,"area_ha":19.86}},{"type":"Feature","geometry":{"type":"Polygon","coordinates":[[[-72.597425,-37.53118],[-72.595634,-37.535587],[-72.599117,-37.538708],[-72.597327,-37.543115],[-72.60081,-37.546236],[-72.59902,-37.550643],[-72.593745,-37.551929],[-72.591954,-37.556336],[-72.589083,-37.557036],[-72.589615,-37.556238],[-72.590207,-37.555103],[-72.59075,-37.553377],[-72.591046,-37.55165],[-72.591145,-37.55012],[-72.59118,-37.54963],[-72.591293,-37.548048],[-72.59149,-37.546173],[-72.591505,-37.54575],[-72.592053,-37.544401],[-72.591962,-37.544319],[-72.592378,-37.543904],[-72.593168,-37.542818],[-72.593266,-37.54119],[-72.593168,-37.540055],[-72.592872,-37.538822],[-72.591934,-37.537737],[-72.591589,-37.536799],[-72.591488,-37.536598],[-72.591046,-37.535714],[-72.590997,-37.534579],[-72.590997,-37.533148],[-72.591539,-37.532014],[-72.59228,-37.531273],[-72.593217,-37.530681],[-72.594746,-37.530188],[-72.595948,-37.529857],[-72.596177,-37.529793],[-72.597559,-37.529744],[-72.598545,-37.529349],[-72.599137,-37.528757],[-72.600272,-37.527771],[-72.601111,-37.526833],[-72.601752,-37.525896],[-72.602295,-37.524761],[-72.602498,-37.523705],[-72.602542,-37.523478],[-72.601802,-37.521751],[-72.601398,-37.521397],[-72.6005,-37.52061],[-72.601692,-37.520674],[-72.60483,-37.520844],[-72.606549,-37.518846],[-72.609523,-37.518893],[-72.610791,-37.519114],[-72.611549,-37.519792],[-72.609759,-37.524199],[-72.604487,-37.525487],[-72.602697,-37.529893],[-72.597425,-37.53118]]]},"properties":{"comuna":"Negrete","mancha_id":"08307-88b2db0ca1fffff","clase":"Bajo","nivel_medio":1.147,"nivel_medio_min":0.546,"nivel_medio_max":1.469,"pct_alto":7.1,"n_hexagonos":7,"area_ha":206.78}},{"type":"Feature","geometry":{"type":"Polygon","coordinates":[[[-72.483525,-37.621478],[-72.484317,-37.62219],[-72.484118,-37.622676],[-72.483866,-37.622081],[-72.483586,-37.621585],[-72.483525,-37.621478]]]},"properties":{"comuna":"Negrete","mancha_id":"08307-88b2db39b5fffff","clase":"Medio","nivel_medio":2.079,"nivel_medio_min":2.079,"nivel_medio_max":2.079,"pct_alto":7.9,"n_hexagonos":1,"area_ha":0.23}},{"type":"Feature","geometry":{"type":"Polygon","coordinates":[[[-72.597425,-37.53118],[-72.602697,-37.529893],[-72.604487,-37.525487],[-72.609759,-37.524199],[-72.611549,-37.519792],[-72.610791,-37.519114],[-72.612854,-37.519474],[-72.613519,-37.51959],[-72.614611,-37.520222],[-72.618682,-37.522078],[-72.61664,-37.52413],[-72.61535,-37.52563],[-72.61489,-37.52628],[-72.614587,-37.526991],[-72.613243,-37.527319],[-72.611454,-37.531727],[-72.614938,-37.534847],[-72.620212,-37.53356],[-72.620472,-37.532919],[-72.62312,-37.533822],[-72.625236,-37.531789],[-72.62642,-37.53249],[-72.62693,-37.53279],[-72.62785,-37.53326],[-72.629813,-37.533319],[-72.63386,-37.53344],[-72.63589,-37.53359],[-72.63779,-37.53377],[-72.6384,-37.53224],[-72.639007,-37.532356],[-72.63992,-37.53253],[-72.640438,-37.532591],[-72.646832,-37.533348],[-72.6498,-37.5337],[-72.6514,-37.533885],[-72.65248,-37.53401],[-72.65026,-37.53569],[-72.64899,-37.53738],[-72.648976,-37.541275],[-72.648963,-37.544693],[-72.648196,-37.546586],[-72.648575,-37.546925],[-72.64821,-37.54821],[-72.64647,-37.5509],[-72.64602,-37.55377],[-72.646171,-37.555026],[-72.64641,-37.55701],[-72.6476,-37.56048],[-72.648772,-37.562337],[-72.646321,-37.562936],[-72.644532,-37.567345],[-72.643979,-37.56748],[-72.64276,-37.56712],[-72.64096,-37.56702],[-72.63978,-37.56703],[-72.639166,-37.567226],[-72.638809,-37.567923],[-72.638794,-37.568221],[-72.638701,-37.569996],[-72.637465,-37.573043],[-72.638509,-37.573977],[-72.638464,-37.574926],[-72.638197,-37.575507],[-72.63804,-37.5759],[-72.637993,-37.576245],[-72.63804,-37.576559],[-72.638182,-37.576873],[-72.638433,-37.577109],[-72.638916,-37.57729],[-72.639281,-37.577564],[-72.6395,-37.577988],[-72.639626,-37.578522],[-72.639867,-37.578846],[-72.639987,-37.579008],[-72.640364,-37.579432],[-72.640772,-37.579746],[-72.641306,-37.58006],[-72.641683,-37.580405],[-72.641902,-37.580876],[-72.642075,-37.58141],[-72.642441,-37.583459],[-72.642441,-37.583506],[-72.642445,-37.584002],[-72.642199,-37.584346],[-72.64103,-37.58535],[-72.63838,-37.58696],[-72.636827,-37.589093],[-72.635586,-37.589395],[-72.633796,-37.593805],[-72.628516,-37.595092],[-72.626725,-37.599502],[-72.630215,-37.602626],[-72.633598,-37.601801],[-72.63377,-37.60211],[-72.63506,-37.60291],[-72.638694,-37.6042],[-72.638987,-37.604463],[-72.639123,-37.60443],[-72.63945,-37.604637],[-72.639879,-37.604934],[-72.640212,-37.605417],[-72.640433,-37.605883],[-72.640458,-37.606447],[-72.640335,-37.606791],[-72.640335,-37.607163],[-72.640546,-37.607619],[-72.640801,-37.607968],[-72.641327,-37.608252],[-72.642028,-37.608631],[-72.642794,-37.60903],[-72.64372,-37.609514],[-72.64453,-37.60998],[-72.645512,-37.610822],[-72.645679,-37.610965],[-72.646811,-37.61204],[-72.647613,-37.612681],[-72.648332,-37.61334],[-72.649221,-37.614433],[-72.64965,-37.61496],[-72.651089,-37.616408],[-72.65119,-37.61651],[-72.651264,-37.616627],[-72.651294,-37.617051],[-72.65146,-37.61749],[-72.65231,-37.61853],[-72.653261,-37.619533],[-72.653391,-37.619741],[-72.65335,-37.620002],[-72.653239,-37.620718],[-72.653104,-37.620768],[-72.652971,-37.620882],[-72.652939,-37.620938],[-72.651167,-37.62137],[-72.65061,-37.622743],[-72.65043,-37.622909],[-72.650179,-37.623342],[-72.650235,-37.623667],[-72.649377,-37.625781],[-72.644093,-37.627068],[-72.642302,-37.63148],[-72.645796,-37.634605],[-72.645119,-37.636272],[-72.644516,-37.636649],[-72.644002,-37.63703],[-72.643278,-37.63762],[-72.642612,-37.638172],[-72.641831,-37.638991],[-72.64122,-37.639695],[-72.641203,-37.639715],[-72.640593,-37.640267],[-72.640308,-37.640743],[-72.640232,-37.641238],[-72.64027,-37.641638],[-72.640403,-37.641981],[-72.64067,-37.642343],[-72.641431,-37.6432],[-72.642174,-37.643904],[-72.642993,-37.644552],[-72.643431,-37.644837],[-72.643735,-37.644932],[-72.643964,-37.644951],[-72.644231,-37.644932],[-72.64444,-37.644894],[-72.644802,-37.644913],[-72.64503,-37.645142],[-72.645259,-37.645466],[-72.645784,-37.646367],[-72.645708,-37.646554],[-72.646194,-37.646989],[-72.646459,-37.647465],[-72.64663,-37.64817],[-72.64682,-37.648798],[-72.647068,-37.649674],[-72.647144,-37.650512],[-72.647258,-37.651254],[-72.647563,-37.652245],[-72.647734,-37.653159],[-72.647755,-37.653248],[-72.647412,-37.654092],[-72.647736,-37.654382],[-72.647591,-37.654554],[-72.647261,-37.654833],[-72.64688,-37.655138],[-72.646423,-37.655544],[-72.645839,-37.656102],[-72.64561,-37.656686],[-72.645509,-37.657194],[-72.645661,-37.657753],[-72.645941,-37.658057],[-72.646144,-37.658489],[-72.646401,-37.65889],[-72.646763,-37.659785],[-72.647049,-37.660433],[-72.647354,-37.66108],[-72.647811,-37.661747],[-72.648011,-37.6619],[-72.648382,-37.662185],[-72.648934,-37.66247],[-72.649505,-37.662718],[-72.649829,-37.663004],[-72.650134,-37.663365],[-72.650343,-37.663651],[-72.650476,-37.663918],[-72.650496,-37.664146],[-72.650343,-37.664356],[-72.649962,-37.664451],[-72.649562,-37.664508],[-72.64922,-37.664489],[-72.64802,-37.664527],[-72.646858,-37.664527],[-72.645678,-37.664508],[-72.644783,-37.664413],[-72.644231,-37.664279],[-72.643412,-37.664089],[-72.643356,-37.664081],[-72.642783,-37.663994],[-72.642307,-37.663994],[-72.642098,-37.664165],[-72.641679,-37.664298],[-72.641374,-37.664241],[-72.641165,-37.664089],[-72.640955,-37.663746],[-72.640708,-37.663308],[-72.64046,-37.662946],[-72.640041,-37.662661],[-72.639527,-37.662547],[-72.638937,-37.662528],[-72.638594,-37.662604],[-72.638327,-37.662851],[-72.638125,-37.663225],[-72.638008,-37.663638],[-72.638033,-37.663963],[-72.638187,-37.664332],[-72.638187,-37.6647],[-72.637972,-37.665069],[-72.637449,-37.665162],[-72.636902,-37.664861],[-72.63642,-37.664608],[-72.635912,-37.66476],[-72.635277,-37.665065],[-72.634836,-37.665346],[-72.634283,-37.665746],[-72.633799,-37.665976],[-72.633255,-37.665489],[-72.628258,-37.666703],[-72.62793,-37.666622],[-72.627755,-37.666584],[-72.627492,-37.666526],[-72.626997,-37.666374],[-72.626331,-37.666241],[-72.625912,-37.666127],[-72.625455,-37.666031],[-72.624941,-37.665955],[-72.624274,-37.665917],[-72.623551,-37.665803],[-72.623036,-37.665727],[-72.622579,-37.665708],[-72.622332,-37.665517],[-72.622103,-37.665079],[-72.621856,-37.664603],[-72.621458,-37.66438],[-72.624474,-37.663647],[-72.626267,-37.659235],[-72.622774,-37.656109],[-72.617488,-37.657394],[-72.615695,-37.661805],[-72.613752,-37.662277],[-72.61361,-37.662242],[-72.613211,-37.662109],[-72.612989,-37.661866],[-72.612736,-37.661442],[-72.612354,-37.661183],[-72.611814,-37.660897],[-72.611242,-37.660897],[-72.610543,-37.661056],[-72.610278,-37.66129],[-72.609821,-37.661309],[-72.609421,-37.661271],[-72.608983,-37.661176],[-72.608393,-37.661042],[-72.607936,-37.660833],[-72.607837,-37.660786],[-72.607536,-37.660516],[-72.60748,-37.660305],[-72.607097,-37.65996],[-72.60696,-37.659859],[-72.606773,-37.659721],[-72.606303,-37.659626],[-72.605605,-37.65969],[-72.605198,-37.659915],[-72.604865,-37.660145],[-72.60462,-37.660438],[-72.604302,-37.660529],[-72.603721,-37.660627],[-72.602963,-37.660816],[-72.602159,-37.661006],[-72.601579,-37.661199],[-72.601307,-37.66129],[-72.600105,-37.661579],[-72.599234,-37.661911],[-72.598595,-37.662244],[-72.598167,-37.662413],[-72.597729,-37.662604],[-72.597291,-37.662908],[-72.596758,-37.663442],[-72.596263,-37.66388],[-72.595673,-37.664337],[-72.595063,-37.66487],[-72.594625,-37.665422],[-72.594473,-37.665784],[-72.594416,-37.666165],[-72.594568,-37.666584],[-72.594816,-37.666793],[-72.594958,-37.666842],[-72.594552,-37.666941],[-72.591062,-37.663814],[-72.592857,-37.659403],[-72.589367,-37.656277],[-72.584083,-37.65756],[-72.582288,-37.661969],[-72.579595,-37.662623],[-72.579448,-37.662604],[-72.579144,-37.66247],[-72.578915,-37.662242],[-72.578439,-37.662166],[-72.57783,-37.662147],[-72.577335,-37.662242],[-72.577011,-37.662356],[-72.576573,-37.662718],[-72.576493,-37.662795],[-72.576097,-37.663175],[-72.575488,-37.663689],[-72.574935,-37.664127],[-72.574326,-37.664508],[-72.573488,-37.664775],[-72.572917,-37.664813],[-72.57225,-37.664755],[-72.57147,-37.664527],[-72.570784,-37.66426],[-72.570356,-37.663975],[-72.569918,-37.66367],[-72.569575,-37.66327],[-72.569099,-37.662832],[-72.568775,-37.662699],[-72.568413,-37.662737],[-72.567994,-37.662927],[-72.567728,-37.663194],[-72.567423,-37.663575],[-72.567176,-37.664032],[-72.567064,-37.664272],[-72.568231,-37.661407],[-72.564744,-37.65828],[-72.56121,-37.659137],[-72.56112,-37.659112],[-72.560627,-37.659104],[-72.560152,-37.659212],[-72.559784,-37.659354],[-72.559436,-37.65954],[-72.559392,-37.659563],[-72.55895,-37.659813],[-72.558624,-37.659997],[-72.558316,-37.659988],[-72.558032,-37.65998],[-72.557757,-37.659872],[-72.557407,-37.659747],[-72.556893,-37.659443],[-72.556264,-37.659043],[-72.555598,-37.658605],[-72.554684,-37.658281],[-72.553998,-37.658186],[-72.553313,-37.658148],[-72.552747,-37.658135],[-72.552258,-37.657972],[-72.551723,-37.658019],[-72.551164,-37.658019],[-72.550605,-37.658065],[-72.550543,-37.658079],[-72.550185,-37.658161],[-72.549838,-37.658246],[-72.549541,-37.658441],[-72.549401,-37.658767],[-72.549143,-37.659371],[-72.548571,-37.659862],[-72.548021,-37.660068],[-72.547345,-37.660207],[-72.546414,-37.66037],[-72.545436,-37.660557],[-72.544435,-37.660696],[-72.54369,-37.660696],[-72.543247,-37.660696],[-72.542642,-37.660789],[-72.54199,-37.660906],[-72.541384,-37.661046],[-72.541154,-37.661199],[-72.540126,-37.660278],[-72.536357,-37.661191],[-72.536425,-37.660626],[-72.536401,-37.660114],[-72.536355,-37.659625],[-72.536213,-37.659214],[-72.536022,-37.658681],[-72.535832,-37.658414],[-72.53561,-37.658065],[-72.535284,-37.657646],[-72.534956,-37.65731],[-72.534423,-37.656758],[-72.53389,-37.656225],[-72.533351,-37.655737],[-72.532979,-37.655131],[-72.532769,-37.654977],[-72.532629,-37.654875],[-72.531954,-37.654572],[-72.531378,-37.654038],[-72.53057,-37.653715],[-72.529709,-37.653446],[-72.528924,-37.653581],[-72.52814,-37.653777],[-72.526815,-37.654007],[-72.525755,-37.654007],[-72.524937,-37.653772],[-72.524084,-37.653338],[-72.523962,-37.653233],[-72.523572,-37.652896],[-72.523339,-37.652384],[-72.523404,-37.65201],[-72.523613,-37.651475],[-72.523622,-37.651453],[-72.524107,-37.650645],[-72.524442,-37.650214],[-72.524781,-37.649875],[-72.524969,-37.649147],[-72.525201,-37.648635],[-72.525318,-37.648239],[-72.525351,-37.647902],[-72.525197,-37.647594],[-72.524807,-37.647359],[-72.524029,-37.647121],[-72.522733,-37.647121],[-72.521918,-37.647494],[-72.521461,-37.6477],[-72.521144,-37.647844],[-72.519744,-37.648382],[-72.518074,-37.648867],[-72.517494,-37.648961],[-72.516781,-37.648975],[-72.515542,-37.649029],[-72.51468,-37.64919],[-72.51448,-37.649295],[-72.512149,-37.647202],[-72.509766,-37.647779],[-72.509767,-37.64777],[-72.509601,-37.647005],[-72.509395,-37.646179],[-72.509106,-37.645683],[-72.508651,-37.645187],[-72.508362,-37.644919],[-72.507887,-37.644629],[-72.507267,-37.64434],[-72.506606,-37.644051],[-72.505821,-37.643741],[-72.505036,-37.643638],[-72.504416,-37.643555],[-72.50412,-37.643563],[-72.503672,-37.643576],[-72.50297,-37.643638],[-72.502536,-37.643741],[-72.50202,-37.643948],[-72.501648,-37.644299],[-72.501317,-37.644671],[-72.501028,-37.645063],[-72.500656,-37.645373],[-72.500325,-37.6456],[-72.5,-37.645709],[-72.499892,-37.645745],[-72.499293,-37.645972],[-72.498508,-37.646138],[-72.497846,-37.646241],[-72.497687,-37.646253],[-72.497041,-37.646303],[-72.496338,-37.646262],[-72.495739,-37.646138],[-72.495119,-37.645828],[-72.4945,-37.64558],[-72.494148,-37.645497],[-72.493839,-37.645518],[-72.493591,-37.645621],[-72.493239,-37.645848],[-72.492992,-37.646179],[-72.492888,-37.646716],[-72.492826,-37.64748],[-72.492702,-37.648389],[-72.49262,-37.649071],[-72.492558,-37.649898],[-72.492516,-37.650786],[-72.492516,-37.65155],[-72.492508,-37.651959],[-72.492496,-37.652501],[-72.492434,-37.65341],[-72.492227,-37.654215],[-72.492021,-37.65467],[-72.49169,-37.655124],[-72.491556,-37.655252],[-72.49138,-37.65497],[-72.490513,-37.653583],[-72.488044,-37.649632],[-72.487637,-37.648981],[-72.483429,-37.642249],[-72.48023,-37.63713],[-72.479124,-37.635353],[-72.484195,-37.634125],[-72.485994,-37.62972],[-72.491272,-37.628442],[-72.49475,-37.631568],[-72.500027,-37.630289],[-72.503507,-37.633416],[-72.508785,-37.632136],[-72.510583,-37.62773],[-72.507104,-37.624604],[-72.508902,-37.620199],[-72.514179,-37.618919],[-72.515976,-37.614513],[-72.512497,-37.611388],[-72.507221,-37.612668],[-72.505423,-37.617073],[-72.500146,-37.618353],[-72.498348,-37.622758],[-72.493071,-37.624037],[-72.492858,-37.623846],[-72.49473,-37.62172],[-72.49456,-37.62125],[-72.494132,-37.619643],[-72.49366,-37.61787],[-72.489602,-37.620919],[-72.489593,-37.620911],[-72.491392,-37.616506],[-72.487915,-37.613381],[-72.48264,-37.614659],[-72.481376,-37.617752],[-72.481343,-37.617663],[-72.481302,-37.617524],[-72.48124,-37.61719],[-72.48124,-37.61708],[-72.48118,-37.61703],[-72.48115,-37.61696],[-72.481014,-37.616817],[-72.48088,-37.61665],[-72.48083,-37.61665],[-72.480764,-37.616508],[-72.48069,-37.61635],[-72.48066,-37.61618],[-72.48066,-37.61608],[-72.480664,-37.615937],[-72.48069,-37.61582],[-72.48069,-37.61562],[-72.480647,-37.615524],[-72.4806,-37.61542],[-72.48056,-37.61524],[-72.480579,-37.615126],[-72.48059,-37.61506],[-72.48068,-37.61496],[-72.480817,-37.614851],[-72.48092,-37.61477],[-72.48096,-37.61463],[-72.4809,-37.61443],[-72.48087,-37.61434],[-72.48079,-37.61423],[-72.48078,-37.61405],[-72.4808,-37.61389],[-72.48083,-37.61374],[-72.48093,-37.613653],[-72.481053,-37.613545],[-72.48114,-37.61347],[-72.48121,-37.613374],[-72.48122,-37.61336],[-72.4813,-37.61326],[-72.4813,-37.61315],[-72.48127,-37.61301],[-72.48124,-37.61295],[-72.48118,-37.61289],[-72.48116,-37.61279],[-72.48111,-37.61275],[-72.4811,-37.61257],[-72.48115,-37.61237],[-72.481135,-37.612294],[-72.48111,-37.61217],[-72.48106,-37.61209],[-72.48102,-37.61198],[-72.48099,-37.61187],[-72.48098,-37.61182],[-72.48104,-37.61174],[-72.48105,-37.6117],[-72.4811,-37.61165],[-72.481106,-37.611548],[-72.48111,-37.61149],[-72.48103,-37.61144],[-72.48095,-37.61136],[-72.4809,-37.61131],[-72.480933,-37.61121],[-72.48096,-37.61113],[-72.48096,-37.61095],[-72.481065,-37.610768],[-72.481137,-37.610645],[-72.48123,-37.61051],[-72.48123,-37.610425],[-72.48123,-37.6102],[-72.481168,-37.610089],[-72.48113,-37.61002],[-72.481036,-37.609951],[-72.480909,-37.609863],[-72.4808,-37.60979],[-72.48079,-37.60976],[-72.48075,-37.609703],[-72.480697,-37.609627],[-72.48065,-37.60956],[-72.48058,-37.60944],[-72.48058,-37.60938],[-72.48061,-37.609272],[-72.48069,-37.60908],[-72.48069,-37.609],[-72.480657,-37.608883],[-72.48058,-37.60867],[-72.480432,-37.608596],[-72.480375,-37.608568],[-72.48028,-37.60852],[-72.48006,-37.60843],[-72.47989,-37.60838],[-72.47979,-37.60832],[-72.47975,-37.608263],[-72.479664,-37.608108],[-72.479593,-37.607919],[-72.47956,-37.6078],[-72.479523,-37.607747],[-72.47949,-37.6077],[-72.47941,-37.60766],[-72.4792,-37.60755],[-72.47897,-37.60747],[-72.47892,-37.60741],[-72.478886,-37.607328],[-72.47885,-37.60719],[-72.47883,-37.60701],[-72.47878,-37.60692],[-72.478735,-37.606879],[-72.478588,-37.606762],[-72.47849,-37.60669],[-72.478391,-37.606584],[-72.47834,-37.60653],[-72.478325,-37.606376],[-72.47835,-37.60626],[-72.47846,-37.60618],[-72.47846,-37.60604],[-72.47846,-37.60595],[-72.47838,-37.6059],[-72.47837,-37.60585],[-72.478303,-37.60577],[-72.47822,-37.60567],[-72.478123,-37.605583],[-72.477969,-37.605428],[-72.47787,-37.6053],[-72.477827,-37.605189],[-72.4778,-37.60512],[-72.477744,-37.604993],[-72.477691,-37.604882],[-72.47762,-37.60474],[-72.47751,-37.60452],[-72.47721,-37.60434],[-72.477248,-37.604063],[-72.477294,-37.603729],[-72.477457,-37.603178],[-72.477498,-37.602587],[-72.477559,-37.602158],[-72.477641,-37.601444],[-72.477743,-37.600893],[-72.477763,-37.600444],[-72.477702,-37.599954],[-72.477865,-37.599505],[-72.478212,-37.599015],[-72.47843,-37.598831],[-72.479287,-37.599601],[-72.484561,-37.598322],[-72.486359,-37.593918],[-72.482884,-37.590794],[-72.480024,-37.591487],[-72.480008,-37.590954],[-72.48009,-37.590281],[-72.480233,-37.589506],[-72.480375,-37.588587],[-72.480559,-37.587587],[-72.480824,-37.586322],[-72.480986,-37.585677],[-72.481296,-37.584926],[-72.481639,-37.584273],[-72.48182,-37.583816],[-72.481949,-37.58349],[-72.482504,-37.582445],[-72.48301,-37.581514],[-72.4835,-37.580633],[-72.484022,-37.580077],[-72.484757,-37.579278],[-72.485492,-37.578722],[-72.486569,-37.578102],[-72.487745,-37.577727],[-72.488339,-37.577638],[-72.491753,-37.580707],[-72.496163,-37.579637],[-72.496348,-37.579914],[-72.496397,-37.580371],[-72.496462,-37.581155],[-72.496511,-37.582053],[-72.496511,-37.582575],[-72.49656,-37.583081],[-72.496773,-37.583555],[-72.497066,-37.584012],[-72.497556,-37.58442],[-72.498095,-37.58473],[-72.498568,-37.584828],[-72.499173,-37.584828],[-72.499593,-37.584777],[-72.499842,-37.584747],[-72.5,-37.58469],[-72.500528,-37.584502],[-72.501099,-37.584241],[-72.50154,-37.58393],[-72.501817,-37.583587],[-72.501899,-37.583212],[-72.501899,-37.582657],[-72.501832,-37.582228],[-72.505775,-37.581271],[-72.509252,-37.584395],[-72.514525,-37.583114],[-72.515318,-37.58117],[-72.516498,-37.581104],[-72.518027,-37.580907],[-72.520346,-37.580315],[-72.522023,-37.579723],[-72.523407,-37.579055],[-72.525074,-37.580551],[-72.523278,-37.584956],[-72.526756,-37.58808],[-72.52496,-37.592486],[-72.519685,-37.593767],[-72.517888,-37.598172],[-72.521367,-37.601297],[-72.526643,-37.600016],[-72.52844,-37.59561],[-72.533715,-37.594328],[-72.537196,-37.597453],[-72.542472,-37.596171],[-72.544267,-37.591764],[-72.549543,-37.590482],[-72.551338,-37.586076],[-72.547857,-37.582952],[-72.542582,-37.584235],[-72.540787,-37.588641],[-72.535511,-37.589923],[-72.532031,-37.586799],[-72.533827,-37.582393],[-72.530348,-37.57927],[-72.53065,-37.578529],[-72.5312,-37.578834],[-72.532779,-37.579131],[-72.534506,-37.579624],[-72.535591,-37.580167],[-72.536183,-37.580808],[-72.537318,-37.581301],[-72.538319,-37.581301],[-72.539314,-37.581301],[-72.539735,-37.581301],[-72.542005,-37.581203],[-72.54309,-37.581055],[-72.544472,-37.581005],[-72.546347,-37.580808],[-72.548616,-37.580611],[-72.548827,-37.580571],[-72.550984,-37.580167],[-72.553797,-37.579377],[-72.556523,-37.578695],[-72.558408,-37.580386],[-72.563684,-37.579103],[-72.564885,-37.576152],[-72.564996,-37.57617],[-72.566032,-37.576762],[-72.567167,-37.578045],[-72.568006,-37.578884],[-72.569091,-37.579081],[-72.570226,-37.579229],[-72.571706,-37.579427],[-72.57289,-37.579525],[-72.573023,-37.579515],[-72.572442,-37.580942],[-72.567166,-37.582226],[-72.565372,-37.586633],[-72.568855,-37.589756],[-72.574132,-37.588472],[-72.577616,-37.591596],[-72.582894,-37.590312],[-72.584687,-37.585904],[-72.581202,-37.582781],[-72.582995,-37.578373],[-72.579511,-37.57525],[-72.581304,-37.570843],[-72.586579,-37.569558],[-72.588371,-37.565151],[-72.584888,-37.562029],[-72.584982,-37.561797],[-72.585422,-37.561616],[-72.586951,-37.560974],[-72.58779,-37.560136],[-72.588333,-37.558557],[-72.588925,-37.557274],[-72.589083,-37.557036],[-72.591954,-37.556336],[-72.593745,-37.551929],[-72.59902,-37.550643],[-72.60081,-37.546236],[-72.597327,-37.543115],[-72.599117,-37.538708],[-72.595634,-37.535587],[-72.597425,-37.53118]],[[-72.607779,-37.552478],[-72.602504,-37.553764],[-72.600713,-37.558172],[-72.604198,-37.561294],[-72.602407,-37.565702],[-72.605893,-37.568824],[-72.611169,-37.567538],[-72.61296,-37.563129],[-72.609474,-37.560008],[-72.611264,-37.5556],[-72.607779,-37.552478]],[[-72.601923,-37.625408],[-72.60013,-37.629818],[-72.603619,-37.632943],[-72.608902,-37.631658],[-72.610695,-37.627248],[-72.615977,-37.625963],[-72.617769,-37.621553],[-72.614279,-37.618428],[-72.608997,-37.619713],[-72.607205,-37.624123],[-72.601923,-37.625408]],[[-72.621167,-37.636624],[-72.619374,-37.641035],[-72.622866,-37.64416],[-72.628151,-37.642875],[-72.631644,-37.646001],[-72.636929,-37.644715],[-72.63872,-37.640303],[-72.635227,-37.637178],[-72.629943,-37.638464],[-72.62645,-37.635338],[-72.621167,-37.636624]],[[-72.572133,-37.61676],[-72.575618,-37.619885],[-72.580898,-37.618601],[-72.582692,-37.614193],[-72.579206,-37.611068],[-72.573927,-37.612352],[-72.572133,-37.61676]],[[-72.614562,-37.5826],[-72.618049,-37.585723],[-72.623328,-37.584436],[-72.626817,-37.587559],[-72.632096,-37.586272],[-72.633886,-37.581863],[-72.630397,-37.57874],[-72.632187,-37.574331],[-72.628698,-37.571208],[-72.623421,-37.572495],[-72.619933,-37.569373],[-72.614656,-37.57066],[-72.612865,-37.575069],[-72.616352,-37.578191],[-72.614562,-37.5826]],[[-72.530011,-37.615077],[-72.531808,-37.610671],[-72.528327,-37.607546],[-72.52305,-37.608827],[-72.521253,-37.613233],[-72.524734,-37.616358],[-72.530011,-37.615077]],[[-72.544158,-37.603701],[-72.54764,-37.606826],[-72.552918,-37.605544],[-72.554713,-37.601137],[-72.55123,-37.598012],[-72.545953,-37.599295],[-72.544158,-37.603701]]]},"properties":{"comuna":"Negrete","mancha_id":"08307-88b2db0ca5fffff","clase":"Medio","nivel_medio":2.126,"nivel_medio_min":1.531,"nivel_medio_max":2.498,"pct_alto":19.5,"n_hexagonos":239,"area_ha":13064.98}},{"type":"Feature","geometry":{"type":"Polygon","coordinates":[[[-72.632187,-37.574331],[-72.630397,-37.57874],[-72.633886,-37.581863],[-72.632096,-37.586272],[-72.626817,-37.587559],[-72.623328,-37.584436],[-72.618049,-37.585723],[-72.614562,-37.5826],[-72.616352,-37.578191],[-72.612865,-37.575069],[-72.614656,-37.57066],[-72.619933,-37.569373],[-72.623421,-37.572495],[-72.628698,-37.571208],[-72.632187,-37.574331]]]},"properties":{"comuna":"Negrete","mancha_id":"08307-88b2db7751fffff","clase":"Alto","nivel_medio":2.781,"nivel_medio_min":2.676,"nivel_medio_max":2.848,"pct_alto":67.6,"n_hexagonos":4,"area_ha":246.7}},{"type":"Feature","geometry":{"type":"Polygon","coordinates":[[[-72.544267,-37.591764],[-72.542472,-37.596171],[-72.537196,-37.597453],[-72.533715,-37.594328],[-72.52844,-37.59561],[-72.526643,-37.600016],[-72.521367,-37.601297],[-72.517888,-37.598172],[-72.519685,-37.593767],[-72.52496,-37.592486],[-72.526756,-37.58808],[-72.532031,-37.586799],[-72.535511,-37.589923],[-72.540787,-37.588641],[-72.542582,-37.584235],[-72.547857,-37.582952],[-72.551338,-37.586076],[-72.549543,-37.590482],[-72.544267,-37.591764]]]},"properties":{"comuna":"Negrete","mancha_id":"08307-88b2db76c1fffff","clase":"Alto","nivel_medio":2.933,"nivel_medio_min":2.768,"nivel_medio_max":3.103,"pct_alto":76.9,"n_hexagonos":4,"area_ha":246.33}},{"type":"Feature","geometry":{"type":"Polygon","coordinates":[[[-72.531808,-37.610671],[-72.530011,-37.615077],[-72.524734,-37.616358],[-72.521253,-37.613233],[-72.52305,-37.608827],[-72.528327,-37.607546],[-72.531808,-37.610671]]]},"properties":{"comuna":"Negrete","mancha_id":"08307-88b2db768bfffff","clase":"Alto","nivel_medio":2.622,"nivel_medio_min":2.622,"nivel_medio_max":2.622,"pct_alto":67.0,"n_hexagonos":1,"area_ha":61.59}},{"type":"Feature","geometry":{"type":"Polygon","coordinates":[[[-72.611264,-37.5556],[-72.609474,-37.560008],[-72.604198,-37.561294],[-72.600713,-37.558172],[-72.602504,-37.553764],[-72.607779,-37.552478],[-72.611264,-37.5556]]]},"properties":{"comuna":"Negrete","mancha_id":"08307-88b2db7669fffff","clase":"Alto","nivel_medio":2.602,"nivel_medio_min":2.602,"nivel_medio_max":2.602,"pct_alto":57.7,"n_hexagonos":1,"area_ha":61.64}},{"type":"Feature","geometry":{"type":"Polygon","coordinates":[[[-72.582995,-37.578373],[-72.581202,-37.582781],[-72.584687,-37.585904],[-72.582894,-37.590312],[-72.577616,-37.591596],[-72.574132,-37.588472],[-72.568855,-37.589756],[-72.565372,-37.586633],[-72.567166,-37.582226],[-72.572442,-37.580942],[-72.573023,-37.579515],[-72.574173,-37.579427],[-72.574814,-37.578834],[-72.57511,-37.578144],[-72.575406,-37.577305],[-72.575801,-37.576565],[-72.576237,-37.576048],[-72.579511,-37.57525],[-72.582995,-37.578373]]]},"properties":{"comuna":"Negrete","mancha_id":"08307-88b2db7603fffff","clase":"Alto","nivel_medio":2.768,"nivel_medio_min":2.746,"nivel_medio_max":2.779,"pct_alto":75.9,"n_hexagonos":3,"area_ha":180.25}},{"type":"Feature","geometry":{"type":"Polygon","coordinates":[[[-72.591062,-37.663814],[-72.594552,-37.666941],[-72.594958,-37.666842],[-72.595311,-37.666964],[-72.59592,-37.667022],[-72.596587,-37.667002],[-72.597482,-37.66685],[-72.598148,-37.666679],[-72.598929,-37.666622],[-72.599367,-37.666698],[-72.5999,-37.666812],[-72.600281,-37.666983],[-72.60049,-37.667231],[-72.600681,-37.667555],[-72.600757,-37.667936],[-72.600719,-37.668393],[-72.600547,-37.668964],[-72.600262,-37.669364],[-72.599843,-37.669821],[-72.599138,-37.670373],[-72.598643,-37.670659],[-72.597748,-37.67102],[-72.596701,-37.671306],[-72.595996,-37.671382],[-72.595482,-37.671306],[-72.594797,-37.671039],[-72.594225,-37.670773],[-72.593673,-37.670487],[-72.59322,-37.670215],[-72.593007,-37.670087],[-72.592607,-37.669783],[-72.591864,-37.669288],[-72.591369,-37.669116],[-72.59076,-37.668983],[-72.58996,-37.668888],[-72.589179,-37.668716],[-72.588627,-37.668545],[-72.588017,-37.668335],[-72.587389,-37.667993],[-72.586799,-37.667783],[-72.586266,-37.667593],[-72.585466,-37.667345],[-72.584913,-37.66722],[-72.584285,-37.667079],[-72.583695,-37.66685],[-72.583409,-37.666545],[-72.583314,-37.666127],[-72.583383,-37.665675],[-72.58353,-37.665242],[-72.583655,-37.664999],[-72.583723,-37.664753],[-72.583628,-37.664548],[-72.583368,-37.664233],[-72.583067,-37.663905],[-72.582821,-37.663467],[-72.582548,-37.663112],[-72.582248,-37.662832],[-72.581581,-37.662737],[-72.58101,-37.66268],[-72.580172,-37.662699],[-72.579595,-37.662623],[-72.582288,-37.661969],[-72.584083,-37.65756],[-72.589367,-37.656277],[-72.592857,-37.659403],[-72.591062,-37.663814]]]},"properties":{"comuna":"Negrete","mancha_id":"08307-88b2db75d1fffff","clase":"Alto","nivel_medio":2.864,"nivel_medio_min":2.553,"nivel_medio_max":3.375,"pct_alto":70.7,"n_hexagonos":4,"area_ha":129.9}},{"type":"Feature","geometry":{"type":"Polygon","coordinates":[[[-72.626267,-37.659235],[-72.624474,-37.663647],[-72.621458,-37.66438],[-72.62138,-37.664337],[-72.620847,-37.664222],[-72.619818,-37.663975],[-72.619171,-37.663746],[-72.618523,-37.663613],[-72.617781,-37.663442],[-72.617364,-37.663299],[-72.615695,-37.661805],[-72.617488,-37.657394],[-72.622774,-37.656109],[-72.626267,-37.659235]]]},"properties":{"comuna":"Negrete","mancha_id":"08307-88b2db75c5fffff","clase":"Alto","nivel_medio":2.527,"nivel_medio_min":2.527,"nivel_medio_max":2.527,"pct_alto":49.1,"n_hexagonos":1,"area_ha":59.46}},{"type":"Feature","geometry":{"type":"Polygon","coordinates":[[[-72.564744,-37.65828],[-72.568231,-37.661407],[-72.567064,-37.664272],[-72.566928,-37.664565],[-72.566528,-37.665022],[-72.5663,-37.665232],[-72.565747,-37.665498],[-72.565367,-37.665593],[-72.564948,-37.665574],[-72.5647,-37.665441],[-72.564472,-37.665232],[-72.564072,-37.664755],[-72.563862,-37.664337],[-72.563786,-37.663784],[-72.56371,-37.663023],[-72.5635,-37.662185],[-72.563253,-37.661575],[-72.562986,-37.660776],[-72.562567,-37.660033],[-72.562225,-37.659576],[-72.56192,-37.659366],[-72.561558,-37.659233],[-72.56121,-37.659137],[-72.564744,-37.65828]]]},"properties":{"comuna":"Negrete","mancha_id":"08307-88b2db74e3fffff","clase":"Alto","nivel_medio":2.576,"nivel_medio_min":2.576,"nivel_medio_max":2.576,"pct_alto":61.8,"n_hexagonos":1,"area_ha":25.81}},{"type":"Feature","geometry":{"type":"Polygon","coordinates":[[[-72.582692,-37.614193],[-72.580898,-37.618601],[-72.575618,-37.619885],[-72.572133,-37.61676],[-72.573927,-37.612352],[-72.579206,-37.611068],[-72.582692,-37.614193]]]},"properties":{"comuna":"Negrete","mancha_id":"08307-88b2db7451fffff","clase":"Alto","nivel_medio":2.527,"nivel_medio_min":2.527,"nivel_medio_max":2.527,"pct_alto":36.6,"n_hexagonos":1,"area_ha":61.65}},{"type":"Feature","geometry":{"type":"Polygon","coordinates":[[[-72.62645,-37.635338],[-72.629943,-37.638464],[-72.635227,-37.637178],[-72.63872,-37.640303],[-72.636929,-37.644715],[-72.631644,-37.646001],[-72.628151,-37.642875],[-72.622866,-37.64416],[-72.619374,-37.641035],[-72.621167,-37.636624],[-72.62645,-37.635338]]]},"properties":{"comuna":"Negrete","mancha_id":"08307-88b2db7425fffff","clase":"Alto","nivel_medio":2.57,"nivel_medio_min":2.502,"nivel_medio_max":2.638,"pct_alto":63.7,"n_hexagonos":2,"area_ha":123.47}},{"type":"Feature","geometry":{"type":"Polygon","coordinates":[[[-72.610695,-37.627248],[-72.608902,-37.631658],[-72.603619,-37.632943],[-72.60013,-37.629818],[-72.601923,-37.625408],[-72.607205,-37.624123],[-72.608997,-37.619713],[-72.614279,-37.618428],[-72.617769,-37.621553],[-72.615977,-37.625963],[-72.610695,-37.627248]]]},"properties":{"comuna":"Negrete","mancha_id":"08307-88b2db7405fffff","clase":"Alto","nivel_medio":2.559,"nivel_medio_min":2.513,"nivel_medio_max":2.605,"pct_alto":32.6,"n_hexagonos":2,"area_ha":123.4}},{"type":"Feature","geometry":{"type":"Polygon","coordinates":[[[-72.484561,-37.598322],[-72.479287,-37.599601],[-72.47843,-37.598831],[-72.478743,-37.598566],[-72.479518,-37.59824],[-72.479804,-37.597913],[-72.479906,-37.597464],[-72.479988,-37.596811],[-72.480069,-37.595852],[-72.48011,-37.595179],[-72.480151,-37.594179],[-72.48009,-37.593301],[-72.48009,-37.592567],[-72.480029,-37.591628],[-72.480024,-37.591487],[-72.482884,-37.590794],[-72.486359,-37.593918],[-72.484561,-37.598322]]]},"properties":{"comuna":"Negrete","mancha_id":"08307-88b2db398dfffff","clase":"Alto","nivel_medio":2.817,"nivel_medio_min":2.817,"nivel_medio_max":2.817,"pct_alto":83.9,"n_hexagonos":1,"area_ha":40.42}},{"type":"Feature","geometry":{"type":"Polygon","coordinates":[[[-72.484118,-37.622676],[-72.484317,-37.62219],[-72.483525,-37.621478],[-72.483279,-37.621042],[-72.48297,-37.620495],[-72.48269,-37.62],[-72.482607,-37.6199],[-72.482419,-37.619649],[-72.482176,-37.619294],[-72.48199,-37.61899],[-72.48186,-37.61879],[-72.481779,-37.618654],[-72.48168,-37.6185],[-72.4816,-37.61838],[-72.48153,-37.61818],[-72.48144,-37.61798],[-72.481399,-37.617814],[-72.481376,-37.617752],[-72.48264,-37.614659],[-72.487915,-37.613381],[-72.491392,-37.616506],[-72.489593,-37.620911],[-72.489602,-37.620919],[-72.4853,-37.62415],[-72.484809,-37.624293],[-72.484184,-37.622831],[-72.484118,-37.622676]]]},"properties":{"comuna":"Negrete","mancha_id":"08307-88b2db2b49fffff","clase":"Alto","nivel_medio":2.675,"nivel_medio_min":2.671,"nivel_medio_max":2.704,"pct_alto":70.1,"n_hexagonos":2,"area_ha":65.93}},{"type":"Feature","geometry":{"type":"Polygon","coordinates":[[[-72.492858,-37.623846],[-72.493071,-37.624037],[-72.498348,-37.622758],[-72.500146,-37.618353],[-72.505423,-37.617073],[-72.507221,-37.612668],[-72.512497,-37.611388],[-72.515976,-37.614513],[-72.514179,-37.618919],[-72.508902,-37.620199],[-72.507104,-37.624604],[-72.510583,-37.62773],[-72.508785,-37.632136],[-72.503507,-37.633416],[-72.500027,-37.630289],[-72.49475,-37.631568],[-72.491272,-37.628442],[-72.485994,-37.62972],[-72.484195,-37.634125],[-72.479124,-37.635353],[-72.476364,-37.630916],[-72.477337,-37.630568],[-72.478611,-37.630112],[-72.480816,-37.629323],[-72.48249,-37.62894],[-72.484055,-37.62832],[-72.484324,-37.628219],[-72.484529,-37.628142],[-72.48539,-37.62782],[-72.48578,-37.62766],[-72.4865,-37.62746],[-72.48766,-37.62732],[-72.488546,-37.627051],[-72.48935,-37.62677],[-72.4899,-37.62655],[-72.49015,-37.62636],[-72.490361,-37.626192],[-72.490626,-37.625956],[-72.49107,-37.625558],[-72.491364,-37.625312],[-72.49186,-37.6249],[-72.49224,-37.62452],[-72.492838,-37.623869],[-72.492858,-37.623846]]]},"properties":{"comuna":"Negrete","mancha_id":"08307-88b2db2b49fffff-2","clase":"Alto","nivel_medio":2.82,"nivel_medio_min":2.704,"nivel_medio_max":2.899,"pct_alto":83.1,"n_hexagonos":6,"area_ha":303.03}}],"bbox":[-72.6534,-37.67139,-72.47636,-37.51884]}