{"type":"FeatureCollection","features":[{"type":"Feature","geometry":{"type":"Polygon","coordinates":[[[-72.737757,-37.242748],[-72.73953,-37.238344],[-72.743391,-37.237388],[-72.742526,-37.240175],[-72.741726,-37.243],[-72.741129,-37.245758],[-72.737757,-37.242748]]]},"properties":{"comuna":"San Rosendo","mancha_id":"08310-88b2db1ac3fffff","clase":"Muy Bajo","nivel_medio":0.0,"nivel_medio_min":0.0,"nivel_medio_max":0.0,"pct_alto":0.0,"n_hexagonos":1,"area_ha":24.07}},{"type":"Feature","geometry":{"type":"Polygon","coordinates":[[[-72.741118,-37.251735],[-72.739463,-37.250258],[-72.741033,-37.246356],[-72.741033,-37.248384],[-72.741033,-37.25],[-72.741033,-37.25025],[-72.741118,-37.251735]]]},"properties":{"comuna":"San Rosendo","mancha_id":"08310-88b2db1a89fffff","clase":"Muy Bajo","nivel_medio":0.0,"nivel_medio_min":0.0,"nivel_medio_max":0.0,"pct_alto":0.0,"n_hexagonos":1,"area_ha":4.16}},{"type":"Feature","geometry":{"type":"Polygon","coordinates":[[[-72.734142,-37.263473],[-72.735916,-37.259068],[-72.739657,-37.258142],[-72.739594,-37.258298],[-72.738795,-37.259578],[-72.738315,-37.260697],[-72.737569,-37.262563],[-72.736876,-37.264322],[-72.736356,-37.265448],[-72.735916,-37.266401],[-72.73453,-37.26784],[-72.733358,-37.269066],[-72.732398,-37.271145],[-72.731767,-37.271992],[-72.730693,-37.273437],[-72.730246,-37.273146],[-72.72899,-37.27233],[-72.72714,-37.27141],[-72.72487,-37.27029],[-72.724102,-37.269921],[-72.727114,-37.269177],[-72.728889,-37.264772],[-72.734142,-37.263473]]]},"properties":{"comuna":"San Rosendo","mancha_id":"08310-88b2db1a83fffff","clase":"Muy Bajo","nivel_medio":0.299,"nivel_medio_min":0.0,"nivel_medio_max":0.462,"pct_alto":7.6,"n_hexagonos":4,"area_ha":73.58}},{"type":"Feature","geometry":{"type":"Polygon","coordinates":[[[-72.795643,-37.204599],[-72.799125,-37.207701],[-72.804376,-37.206397],[-72.806144,-37.20199],[-72.811395,-37.200686],[-72.814879,-37.203787],[-72.8157,-37.203583],[-72.815231,-37.204942],[-72.814606,-37.206536],[-72.81359,-37.207851],[-72.813207,-37.20828],[-72.81262,-37.20894],[-72.81118,-37.209633],[-72.809155,-37.210326],[-72.807419,-37.210597],[-72.807015,-37.21066],[-72.804266,-37.210421],[-72.802533,-37.209763],[-72.80068,-37.20878],[-72.799241,-37.20798],[-72.799031,-37.207934],[-72.797034,-37.207492],[-72.794644,-37.207851],[-72.792134,-37.207911],[-72.79046,-37.207134],[-72.790113,-37.206596],[-72.789265,-37.205281],[-72.787532,-37.204145],[-72.785081,-37.203309],[-72.784846,-37.203313],[-72.786911,-37.2028],[-72.790392,-37.205902],[-72.795643,-37.204599]]]},"properties":{"comuna":"San Rosendo","mancha_id":"08310-88b2db1a09fffff","clase":"Muy Bajo","nivel_medio":0.272,"nivel_medio_min":0.0,"nivel_medio_max":0.494,"pct_alto":1.7,"n_hexagonos":6,"area_ha":111.66}},{"type":"Feature","geometry":{"type":"Polygon","coordinates":[[[-72.706249,-37.250543],[-72.709725,-37.253649],[-72.70864,-37.256341],[-72.70652,-37.25394],[-72.70463,-37.25286],[-72.70387,-37.25235],[-72.70311,-37.25207],[-72.70213,-37.25168],[-72.701772,-37.25165],[-72.706249,-37.250543]]]},"properties":{"comuna":"San Rosendo","mancha_id":"08310-88b2db11a1fffff","clase":"Muy Bajo","nivel_medio":0.213,"nivel_medio_min":0.213,"nivel_medio_max":0.213,"pct_alto":0.7,"n_hexagonos":1,"area_ha":16.38}},{"type":"Feature","geometry":{"type":"Polygon","coordinates":[[[-72.758891,-37.213719],[-72.764141,-37.212417],[-72.765911,-37.208012],[-72.771161,-37.20671],[-72.772931,-37.202305],[-72.77818,-37.201002],[-72.781003,-37.203517],[-72.778208,-37.204086],[-72.775519,-37.204982],[-72.774081,-37.206435],[-72.772962,-37.207607],[-72.772709,-37.20809],[-72.772112,-37.209225],[-72.771216,-37.212094],[-72.770319,-37.213768],[-72.769986,-37.214933],[-72.769841,-37.215441],[-72.768467,-37.216935],[-72.766674,-37.21825],[-72.766473,-37.218374],[-72.765418,-37.219027],[-72.764104,-37.220163],[-72.763606,-37.220481],[-72.76261,-37.221119],[-72.761773,-37.222912],[-72.760876,-37.224167],[-72.759502,-37.225183],[-72.758955,-37.225316],[-72.75729,-37.225721],[-72.755557,-37.225721],[-72.753226,-37.22584],[-72.752352,-37.22584],[-72.750098,-37.223829],[-72.751869,-37.219425],[-72.75712,-37.218123],[-72.758891,-37.213719]]]},"properties":{"comuna":"San Rosendo","mancha_id":"08310-88b2db1125fffff","clase":"Muy Bajo","nivel_medio":0.078,"nivel_medio_min":0.0,"nivel_medio_max":0.215,"pct_alto":0.7,"n_hexagonos":6,"area_ha":204.38}},{"type":"Feature","geometry":{"type":"Polygon","coordinates":[[[-72.653914,-37.239694],[-72.657385,-37.2428],[-72.657014,-37.243718],[-72.656385,-37.243389],[-72.654378,-37.242242],[-72.652085,-37.241453],[-72.650378,-37.240567],[-72.653914,-37.239694]]]},"properties":{"comuna":"San Rosendo","mancha_id":"08310-88b2db10a5fffff","clase":"Muy Bajo","nivel_medio":0.077,"nivel_medio_min":0.077,"nivel_medio_max":0.077,"pct_alto":0.0,"n_hexagonos":1,"area_ha":10.11}},{"type":"Feature","geometry":{"type":"Polygon","coordinates":[[[-72.643756,-37.238241],[-72.645197,-37.237885],[-72.646447,-37.239003],[-72.64405,-37.23837],[-72.643756,-37.238241]]]},"properties":{"comuna":"San Rosendo","mancha_id":"08310-88b2db10a1fffff","clase":"Muy Bajo","nivel_medio":0.026,"nivel_medio_min":0.026,"nivel_medio_max":0.026,"pct_alto":0.0,"n_hexagonos":1,"area_ha":1.07}},{"type":"Feature","geometry":{"type":"Polygon","coordinates":[[[-72.737824,-37.230835],[-72.743075,-37.229535],[-72.746002,-37.232146],[-72.744711,-37.234312],[-72.743485,-37.237084],[-72.743391,-37.237388],[-72.73953,-37.238344],[-72.736052,-37.23524],[-72.737824,-37.230835]]]},"properties":{"comuna":"San Rosendo","mancha_id":"08310-88b2db1acbfffff","clase":"Bajo","nivel_medio":1.347,"nivel_medio_min":1.347,"nivel_medio_max":1.347,"pct_alto":26.3,"n_hexagonos":1,"area_ha":56.15}},{"type":"Feature","geometry":{"type":"Polygon","coordinates":[[[-72.732437,-37.255962],[-72.73421,-37.251558],[-72.730732,-37.248453],[-72.732505,-37.244048],[-72.737757,-37.242748],[-72.741129,-37.245758],[-72.741033,-37.246199],[-72.741033,-37.246356],[-72.739463,-37.250258],[-72.741118,-37.251735],[-72.74114,-37.252115],[-72.741087,-37.254301],[-72.740767,-37.255687],[-72.740021,-37.257232],[-72.739657,-37.258142],[-72.735916,-37.259068],[-72.732437,-37.255962]]]},"properties":{"comuna":"San Rosendo","mancha_id":"08310-88b2db1a8bfffff","clase":"Bajo","nivel_medio":1.444,"nivel_medio_min":1.387,"nivel_medio_max":1.493,"pct_alto":38.4,"n_hexagonos":2,"area_ha":115.23}},{"type":"Feature","geometry":{"type":"Polygon","coordinates":[[[-72.813162,-37.196279],[-72.818413,-37.194974],[-72.82018,-37.190567],[-72.821091,-37.190341],[-72.821245,-37.190551],[-72.82164,-37.190739],[-72.821903,-37.190757],[-72.822156,-37.190803],[-72.822377,-37.190889],[-72.822579,-37.191093],[-72.822719,-37.191448],[-72.822801,-37.191776],[-72.822694,-37.192149],[-72.822374,-37.192576],[-72.822001,-37.193002],[-72.822001,-37.193215],[-72.822108,-37.193642],[-72.822267,-37.194015],[-72.822196,-37.19787],[-72.821716,-37.197914],[-72.820881,-37.19799],[-72.819028,-37.198527],[-72.817534,-37.199484],[-72.816298,-37.201531],[-72.815764,-37.203396],[-72.8157,-37.203583],[-72.814879,-37.203787],[-72.811395,-37.200686],[-72.813162,-37.196279]]]},"properties":{"comuna":"San Rosendo","mancha_id":"08310-88b2db1a69fffff","clase":"Bajo","nivel_medio":0.696,"nivel_medio_min":0.523,"nivel_medio_max":1.079,"pct_alto":6.4,"n_hexagonos":2,"area_ha":62.82}},{"type":"Feature","geometry":{"type":"Polygon","coordinates":[[[-72.793929,-37.197091],[-72.797411,-37.200193],[-72.802661,-37.198888],[-72.806144,-37.20199],[-72.804376,-37.206397],[-72.799125,-37.207701],[-72.795643,-37.204599],[-72.790392,-37.205902],[-72.786911,-37.2028],[-72.784846,-37.203313],[-72.781734,-37.203368],[-72.781003,-37.203517],[-72.77818,-37.201002],[-72.77995,-37.196597],[-72.785199,-37.195293],[-72.78868,-37.198395],[-72.793929,-37.197091]]]},"properties":{"comuna":"San Rosendo","mancha_id":"08310-88b2db1a43fffff","clase":"Bajo","nivel_medio":1.28,"nivel_medio_min":1.141,"nivel_medio_max":1.411,"pct_alto":14.8,"n_hexagonos":3,"area_ha":183.27}},{"type":"Feature","geometry":{"type":"Polygon","coordinates":[[[-72.692272,-37.250034],[-72.697523,-37.248736],[-72.700645,-37.251526],[-72.69961,-37.25133],[-72.69812,-37.25124],[-72.69638,-37.25131],[-72.69371,-37.25146],[-72.691453,-37.252065],[-72.692272,-37.250034]]]},"properties":{"comuna":"San Rosendo","mancha_id":"08310-88b2db11abfffff","clase":"Bajo","nivel_medio":0.977,"nivel_medio_min":0.977,"nivel_medio_max":0.977,"pct_alto":2.6,"n_hexagonos":1,"area_ha":15.01}},{"type":"Feature","geometry":{"type":"Polygon","coordinates":[[[-72.680075,-37.245121],[-72.683548,-37.248226],[-72.682195,-37.251578],[-72.681417,-37.251364],[-72.679987,-37.250563],[-72.678916,-37.25],[-72.678675,-37.249873],[-72.677814,-37.249076],[-72.676555,-37.248504],[-72.675125,-37.24839],[-72.674029,-37.24839],[-72.673924,-37.24839],[-72.672436,-37.248275],[-72.670778,-37.248161],[-72.667917,-37.247818],[-72.665515,-37.247188],[-72.665121,-37.247045],[-72.663627,-37.246502],[-72.66154,-37.24544],[-72.65983,-37.24475],[-72.65789,-37.244177],[-72.657014,-37.243718],[-72.657385,-37.2428],[-72.662633,-37.241504],[-72.666104,-37.244609],[-72.671353,-37.243312],[-72.674825,-37.246418],[-72.680075,-37.245121]]]},"properties":{"comuna":"San Rosendo","mancha_id":"08310-88b2db1183fffff","clase":"Bajo","nivel_medio":0.873,"nivel_medio_min":0.522,"nivel_medio_max":1.173,"pct_alto":8.5,"n_hexagonos":3,"area_ha":90.25}},{"type":"Feature","geometry":{"type":"Polygon","coordinates":[[[-72.718454,-37.255455],[-72.716679,-37.259859],[-72.720157,-37.262965],[-72.72541,-37.261666],[-72.727184,-37.257262],[-72.732437,-37.255962],[-72.735916,-37.259068],[-72.734142,-37.263473],[-72.728889,-37.264772],[-72.727114,-37.269177],[-72.724102,-37.269921],[-72.72262,-37.26921],[-72.72229,-37.26906],[-72.7213,-37.26858],[-72.718488,-37.267108],[-72.71769,-37.26669],[-72.71457,-37.26491],[-72.71289,-37.26252],[-72.711996,-37.261017],[-72.71072,-37.25887],[-72.70878,-37.2565],[-72.70864,-37.256341],[-72.709725,-37.253649],[-72.714977,-37.25235],[-72.718454,-37.255455]]]},"properties":{"comuna":"San Rosendo","mancha_id":"08310-88b2db11a5fffff","clase":"Medio","nivel_medio":1.905,"nivel_medio_min":1.675,"nivel_medio_max":2.052,"pct_alto":51.0,"n_hexagonos":4,"area_ha":205.7}},{"type":"Feature","geometry":{"type":"Polygon","coordinates":[[[-72.75988,-37.18716],[-72.760112,-37.187172],[-72.759501,-37.188693],[-72.7595,-37.18869],[-72.75929,-37.18805],[-72.75918,-37.1875],[-72.75908,-37.1871],[-72.75921,-37.18707],[-72.75988,-37.18716]]]},"properties":{"comuna":"San Rosendo","mancha_id":"08310-88b2db1169fffff","clase":"Medio","nivel_medio":1.614,"nivel_medio_min":1.614,"nivel_medio_max":1.614,"pct_alto":0.0,"n_hexagonos":1,"area_ha":0.84}},{"type":"Feature","geometry":{"type":"Polygon","coordinates":[[[-72.66297,-37.19396],[-72.662948,-37.193928],[-72.662839,-37.193769],[-72.66262,-37.19345],[-72.6625,-37.19318],[-72.6626,-37.19282],[-72.66286,-37.19214],[-72.6628,-37.19188],[-72.66248,-37.19137],[-72.66212,-37.19105],[-72.66203,-37.19057],[-72.66205,-37.19017],[-72.66186,-37.18952],[-72.66184,-37.18932],[-72.66205,-37.18901],[-72.66203,-37.18883],[-72.66169,-37.18852],[-72.66152,-37.18832],[-72.66146,-37.18813],[-72.66154,-37.18767],[-72.66173,-37.18707],[-72.66168,-37.18684],[-72.66173,-37.18633],[-72.661711,-37.186273],[-72.66163,-37.18603],[-72.66146,-37.18552],[-72.66112,-37.18483],[-72.66122,-37.18452],[-72.66168,-37.18415],[-72.66228,-37.18394],[-72.66235,-37.18358],[-72.66269,-37.18312],[-72.66293,-37.18286],[-72.66332,-37.18245],[-72.66355,-37.1822],[-72.66481,-37.18215],[-72.66552,-37.18224],[-72.66614,-37.18218],[-72.66674,-37.18193],[-72.66698,-37.18154],[-72.66687,-37.18114],[-72.66675,-37.18034],[-72.667049,-37.179571],[-72.66712,-37.17939],[-72.66774,-37.17884],[-72.66802,-37.1785],[-72.66818,-37.17802],[-72.66815,-37.17675],[-72.66858,-37.17611],[-72.66877,-37.17598],[-72.66904,-37.1758],[-72.66932,-37.17538],[-72.66957,-37.17462],[-72.66954,-37.17438],[-72.670088,-37.173321],[-72.670421,-37.172834],[-72.670501,-37.172216],[-72.670543,-37.171896],[-72.670998,-37.170967],[-72.67159,-37.170523],[-72.672481,-37.170299],[-72.672931,-37.170186],[-72.674409,-37.169498],[-72.675264,-37.169298],[-72.676247,-37.169218],[-72.676984,-37.169146],[-72.678364,-37.169556],[-72.67938,-37.17084],[-72.67948,-37.171924],[-72.679523,-37.1728],[-72.67974,-37.173346],[-72.68021,-37.173713],[-72.680302,-37.173749],[-72.680884,-37.173983],[-72.680936,-37.17403],[-72.681252,-37.174557],[-72.681365,-37.175412],[-72.68097,-37.177083],[-72.68081,-37.177718],[-72.68068,-37.17875],[-72.68027,-37.17989],[-72.67971,-37.18074],[-72.679014,-37.18199],[-72.67878,-37.18241],[-72.67833,-37.18298],[-72.67754,-37.18345],[-72.67726,-37.18373],[-72.67764,-37.18398],[-72.67818,-37.18467],[-72.67835,-37.18612],[-72.67843,-37.18659],[-72.67835,-37.18711],[-72.67815,-37.18767],[-72.67811,-37.18788],[-72.68252,-37.18752],[-72.68387,-37.18739],[-72.684494,-37.187325],[-72.683943,-37.188692],[-72.687413,-37.191794],[-72.692658,-37.190495],[-72.694324,-37.18636],[-72.69532,-37.18627],[-72.69731,-37.18609],[-72.69964,-37.18593],[-72.70029,-37.1858],[-72.70075,-37.185755],[-72.70191,-37.18564],[-72.70306,-37.18565],[-72.70714,-37.1853],[-72.708974,-37.185154],[-72.71129,-37.18497],[-72.71417,-37.18473],[-72.71666,-37.18457],[-72.71795,-37.18446],[-72.718724,-37.184393],[-72.72026,-37.18426],[-72.72083,-37.1842],[-72.72191,-37.1841],[-72.7228,-37.18403],[-72.72518,-37.18384],[-72.72525,-37.18383],[-72.725386,-37.183819],[-72.727602,-37.185798],[-72.732848,-37.184498],[-72.736323,-37.187599],[-72.734551,-37.192002],[-72.738027,-37.195104],[-72.743274,-37.193803],[-72.745045,-37.1894],[-72.746122,-37.189132],[-72.74634,-37.1893],[-72.7469,-37.18958],[-72.74699,-37.18964],[-72.7476,-37.19011],[-72.74942,-37.1915],[-72.75,-37.19208],[-72.75,-37.19208],[-72.75023,-37.19231],[-72.7509,-37.19302],[-72.75108,-37.19354],[-72.75115,-37.19427],[-72.75122,-37.19454],[-72.75132,-37.19492],[-72.75152,-37.19503],[-72.75174,-37.19512],[-72.75185,-37.19507],[-72.75198,-37.19494],[-72.75218,-37.19479],[-72.752365,-37.19469],[-72.751998,-37.195603],[-72.746751,-37.196905],[-72.744979,-37.201309],[-72.739731,-37.20261],[-72.737959,-37.207013],[-72.741436,-37.210116],[-72.746685,-37.208815],[-72.748456,-37.204411],[-72.753705,-37.203109],[-72.757183,-37.206212],[-72.762432,-37.20491],[-72.764202,-37.200505],[-72.769451,-37.199203],[-72.771221,-37.194798],[-72.767743,-37.191696],[-72.768202,-37.190553],[-72.76835,-37.19052],[-72.76896,-37.18994],[-72.76963,-37.18866],[-72.76964,-37.18803],[-72.76956,-37.18747],[-72.769622,-37.187265],[-72.76966,-37.18714],[-72.770044,-37.18716],[-72.77024,-37.18717],[-72.77131,-37.18709],[-72.77151,-37.18703],[-72.77177,-37.18695],[-72.7723,-37.18661],[-72.772309,-37.186597],[-72.7732,-37.1854],[-72.77354,-37.18447],[-72.77369,-37.18392],[-72.77358,-37.18341],[-72.77334,-37.18288],[-72.77319,-37.18255],[-72.77318,-37.18213],[-72.77329,-37.18166],[-72.77363,-37.18101],[-72.77393,-37.18064],[-72.7743,-37.18024],[-72.77426,-37.17984],[-72.770801,-37.179042],[-72.76975,-37.1788],[-72.774672,-37.173947],[-72.7769,-37.17175],[-72.77735,-37.16792],[-72.77984,-37.16788],[-72.781131,-37.167744],[-72.781835,-37.168371],[-72.78672,-37.167157],[-72.78694,-37.16732],[-72.787545,-37.16748],[-72.790561,-37.170167],[-72.795808,-37.168863],[-72.796745,-37.166527],[-72.796924,-37.166549],[-72.7973,-37.166531],[-72.797714,-37.166568],[-72.798146,-37.166531],[-72.79871,-37.166455],[-72.799048,-37.166399],[-72.799311,-37.166418],[-72.799631,-37.166437],[-72.799932,-37.166437],[-72.800101,-37.166437],[-72.80042,-37.166531],[-72.800646,-37.166606],[-72.800909,-37.166775],[-72.80121,-37.166944],[-72.801642,-37.167282],[-72.801943,-37.167658],[-72.802375,-37.168072],[-72.80277,-37.168448],[-72.803033,-37.168692],[-72.803183,-37.16888],[-72.803258,-37.169124],[-72.803409,-37.169275],[-72.804236,-37.169914],[-72.804704,-37.170238],[-72.804724,-37.170252],[-72.805138,-37.170534],[-72.805589,-37.170853],[-72.805814,-37.171079],[-72.805927,-37.171305],[-72.80604,-37.171812],[-72.806302,-37.172231],[-72.806322,-37.172263],[-72.806604,-37.172507],[-72.806717,-37.172658],[-72.806717,-37.172771],[-72.806566,-37.173071],[-72.806378,-37.173353],[-72.806284,-37.173635],[-72.806359,-37.173973],[-72.806566,-37.174161],[-72.806754,-37.174293],[-72.807093,-37.174406],[-72.807638,-37.174443],[-72.807745,-37.174436],[-72.808164,-37.174406],[-72.808671,-37.174312],[-72.809949,-37.173898],[-72.810438,-37.173673],[-72.811096,-37.173466],[-72.811528,-37.173391],[-72.811904,-37.17341],[-72.812242,-37.173485],[-72.812693,-37.173673],[-72.812938,-37.173879],[-72.813126,-37.174086],[-72.813126,-37.174406],[-72.813069,-37.174744],[-72.812938,-37.17512],[-72.812938,-37.175383],[-72.813032,-37.175684],[-72.813163,-37.175947],[-72.813295,-37.176229],[-72.813295,-37.17653],[-72.813389,-37.176868],[-72.813727,-37.177263],[-72.814084,-37.177469],[-72.814686,-37.177826],[-72.814949,-37.177996],[-72.815156,-37.178108],[-72.815344,-37.178183],[-72.815531,-37.178202],[-72.815685,-37.178202],[-72.815719,-37.178202],[-72.815926,-37.178202],[-72.81634,-37.178183],[-72.816904,-37.178127],[-72.817336,-37.178127],[-72.817674,-37.178221],[-72.8179,-37.178296],[-72.818163,-37.178371],[-72.818407,-37.178541],[-72.818614,-37.178747],[-72.818839,-37.179086],[-72.81899,-37.179443],[-72.819065,-37.179894],[-72.819027,-37.180232],[-72.818952,-37.180533],[-72.818464,-37.181059],[-72.818144,-37.181529],[-72.817618,-37.182243],[-72.817593,-37.182285],[-72.817317,-37.182751],[-72.817129,-37.183051],[-72.817091,-37.183315],[-72.817204,-37.183596],[-72.817543,-37.183916],[-72.8179,-37.184179],[-72.817994,-37.184232],[-72.8182,-37.184348],[-72.818576,-37.184555],[-72.818952,-37.184743],[-72.819253,-37.185025],[-72.819685,-37.18542],[-72.820117,-37.18572],[-72.820719,-37.186115],[-72.821208,-37.186416],[-72.821527,-37.186585],[-72.821865,-37.186735],[-72.822298,-37.186867],[-72.822711,-37.186942],[-72.82305,-37.186998],[-72.823294,-37.187074],[-72.823444,-37.187318],[-72.823501,-37.187581],[-72.823331,-37.187901],[-72.822805,-37.188427],[-72.822072,-37.189009],[-72.821696,-37.189348],[-72.821264,-37.189686],[-72.821114,-37.189987],[-72.821038,-37.190269],[-72.821091,-37.190341],[-72.82018,-37.190567],[-72.818413,-37.194974],[-72.813162,-37.196279],[-72.811395,-37.200686],[-72.806144,-37.20199],[-72.802661,-37.198888],[-72.797411,-37.200193],[-72.793929,-37.197091],[-72.78868,-37.198395],[-72.785199,-37.195293],[-72.77995,-37.196597],[-72.77818,-37.201002],[-72.772931,-37.202305],[-72.771161,-37.20671],[-72.765911,-37.208012],[-72.764141,-37.212417],[-72.758891,-37.213719],[-72.75712,-37.218123],[-72.751869,-37.219425],[-72.750098,-37.223829],[-72.752352,-37.22584],[-72.751075,-37.22584],[-72.75,-37.226092],[-72.749722,-37.226157],[-72.748816,-37.22701],[-72.748027,-37.228231],[-72.74743,-37.229302],[-72.746204,-37.231807],[-72.746002,-37.232146],[-72.743075,-37.229535],[-72.737824,-37.230835],[-72.734347,-37.227732],[-72.729097,-37.229032],[-72.727324,-37.233435],[-72.722073,-37.234735],[-72.718597,-37.231631],[-72.720371,-37.227227],[-72.716895,-37.224124],[-72.711646,-37.225423],[-72.709872,-37.229826],[-72.713347,-37.23293],[-72.711573,-37.237333],[-72.715049,-37.240438],[-72.720299,-37.239139],[-72.723776,-37.242243],[-72.729027,-37.240944],[-72.730801,-37.23654],[-72.736052,-37.23524],[-72.73953,-37.238344],[-72.737757,-37.242748],[-72.732505,-37.244048],[-72.730732,-37.248453],[-72.72548,-37.249752],[-72.722002,-37.246647],[-72.716751,-37.247946],[-72.713274,-37.244841],[-72.708024,-37.24614],[-72.706249,-37.250543],[-72.701772,-37.25165],[-72.70093,-37.25158],[-72.700645,-37.251526],[-72.697523,-37.248736],[-72.692272,-37.250034],[-72.691453,-37.252065],[-72.690227,-37.252394],[-72.687252,-37.252566],[-72.685422,-37.252451],[-72.683706,-37.251993],[-72.682195,-37.251578],[-72.683548,-37.248226],[-72.688798,-37.246929],[-72.690574,-37.242526],[-72.6871,-37.239421],[-72.688876,-37.235019],[-72.685403,-37.231915],[-72.680154,-37.233212],[-72.678378,-37.237614],[-72.67313,-37.238911],[-72.671353,-37.243312],[-72.666104,-37.244609],[-72.662633,-37.241504],[-72.657385,-37.2428],[-72.653914,-37.239694],[-72.650378,-37.240567],[-72.64942,-37.24007],[-72.64723,-37.23921],[-72.646447,-37.239003],[-72.645197,-37.237885],[-72.643756,-37.238241],[-72.64151,-37.23725],[-72.64086,-37.23685],[-72.64147,-37.23611],[-72.64194,-37.23496],[-72.64212,-37.23366],[-72.64206,-37.2327],[-72.64199,-37.23189],[-72.64176,-37.23101],[-72.641755,-37.230812],[-72.64174,-37.23023],[-72.64181,-37.22942],[-72.64175,-37.22857],[-72.64139,-37.2273],[-72.6409,-37.22602],[-72.64024,-37.22445],[-72.639552,-37.223434],[-72.63915,-37.22284],[-72.63826,-37.22141],[-72.63689,-37.22008],[-72.63534,-37.21885],[-72.634314,-37.218071],[-72.63401,-37.21784],[-72.6338,-37.21762],[-72.63378,-37.21748],[-72.63406,-37.21716],[-72.63436,-37.21669],[-72.634545,-37.216365],[-72.63468,-37.21613],[-72.63513,-37.21556],[-72.63537,-37.21517],[-72.63607,-37.21434],[-72.63648,-37.21376],[-72.63659,-37.21322],[-72.63724,-37.21216],[-72.63746,-37.2119],[-72.63793,-37.21152],[-72.63858,-37.21129],[-72.63911,-37.21113],[-72.63961,-37.21096],[-72.63997,-37.21064],[-72.64041,-37.21009],[-72.640693,-37.209887],[-72.6408,-37.20981],[-72.64134,-37.20965],[-72.64198,-37.2092],[-72.64237,-37.20909],[-72.64319,-37.209],[-72.64389,-37.20855],[-72.64414,-37.20852],[-72.64445,-37.20858],[-72.64495,-37.20879],[-72.64555,-37.20875],[-72.64607,-37.20852],[-72.6463,-37.20829],[-72.64626,-37.20812],[-72.6459,-37.20782],[-72.64547,-37.20748],[-72.64541,-37.20718],[-72.64541,-37.20599],[-72.64548,-37.20568],[-72.64589,-37.20527],[-72.64634,-37.20483],[-72.64651,-37.20465],[-72.64661,-37.2042],[-72.64633,-37.20378],[-72.64597,-37.20335],[-72.64574,-37.20311],[-72.64577,-37.20283],[-72.645974,-37.202634],[-72.648926,-37.205276],[-72.65417,-37.20398],[-72.655946,-37.19958],[-72.653449,-37.197345],[-72.65355,-37.19726],[-72.65415,-37.19699],[-72.65461,-37.19692],[-72.65511,-37.19709],[-72.6556,-37.19739],[-72.65615,-37.19768],[-72.65676,-37.19757],[-72.65714,-37.19751],[-72.65732,-37.19754],[-72.65757,-37.19769],[-72.65782,-37.19766],[-72.65799,-37.19744],[-72.65836,-37.19701],[-72.65868,-37.19678],[-72.65889,-37.19671],[-72.65917,-37.19677],[-72.65947,-37.19693],[-72.6599,-37.19693],[-72.66039,-37.19696],[-72.66067,-37.19696],[-72.66087,-37.19678],[-72.66088,-37.19646],[-72.66088,-37.19624],[-72.66122,-37.19612],[-72.66172,-37.19606],[-72.662091,-37.196051],[-72.66215,-37.19605],[-72.66233,-37.19596],[-72.6624,-37.19549],[-72.66251,-37.19526],[-72.66285,-37.19494],[-72.66317,-37.19471],[-72.66322,-37.19455],[-72.66297,-37.19396]],[[-72.647149,-37.209676],[-72.641904,-37.210972],[-72.640127,-37.215371],[-72.643594,-37.218475],[-72.648839,-37.217179],[-72.652308,-37.220284],[-72.657554,-37.218987],[-72.661023,-37.222091],[-72.66627,-37.220795],[-72.668046,-37.216394],[-72.664576,-37.21329],[-72.65933,-37.214587],[-72.655862,-37.211483],[-72.650617,-37.212779],[-72.647149,-37.209676]],[[-72.697826,-37.201102],[-72.696052,-37.205503],[-72.699525,-37.208606],[-72.704772,-37.207308],[-72.708245,-37.210411],[-72.713492,-37.209111],[-72.715266,-37.204709],[-72.711792,-37.201606],[-72.713565,-37.197204],[-72.710092,-37.194101],[-72.704846,-37.195401],[-72.701374,-37.192299],[-72.696129,-37.193598],[-72.694355,-37.197999],[-72.697826,-37.201102]],[[-72.690806,-37.206802],[-72.687335,-37.203699],[-72.682089,-37.204997],[-72.680314,-37.209398],[-72.683785,-37.212502],[-72.689031,-37.211203],[-72.690806,-37.206802]],[[-72.643507,-37.23038],[-72.646975,-37.233484],[-72.652222,-37.232189],[-72.654,-37.227788],[-72.650531,-37.224684],[-72.645284,-37.22598],[-72.643507,-37.23038]],[[-72.709945,-37.217916],[-72.706471,-37.214813],[-72.701224,-37.216112],[-72.699449,-37.220514],[-72.694201,-37.221812],[-72.692426,-37.226215],[-72.6959,-37.229319],[-72.701148,-37.22802],[-72.702923,-37.223618],[-72.708171,-37.222319],[-72.709945,-37.217916]],[[-72.660939,-37.233998],[-72.66441,-37.237102],[-72.669658,-37.235806],[-72.671435,-37.231404],[-72.667964,-37.2283],[-72.662716,-37.229597],[-72.660939,-37.233998]],[[-72.780067,-37.172776],[-72.77482,-37.174079],[-72.773051,-37.178483],[-72.776529,-37.181584],[-72.77476,-37.185989],[-72.778239,-37.18909],[-72.783488,-37.187787],[-72.785256,-37.183382],[-72.790505,-37.182078],[-72.792273,-37.177673],[-72.788793,-37.174572],[-72.783545,-37.175876],[-72.780067,-37.172776]]]},"properties":{"comuna":"San Rosendo","mancha_id":"08310-88b2db1001fffff","clase":"Medio","nivel_medio":2.167,"nivel_medio_min":1.523,"nivel_medio_max":2.499,"pct_alto":29.3,"n_hexagonos":116,"area_ha":6135.14}},{"type":"Feature","geometry":{"type":"Polygon","coordinates":[[[-72.785256,-37.183382],[-72.783488,-37.187787],[-72.778239,-37.18909],[-72.77476,-37.185989],[-72.776529,-37.181584],[-72.773051,-37.178483],[-72.77482,-37.174079],[-72.780067,-37.172776],[-72.783545,-37.175876],[-72.788793,-37.174572],[-72.792273,-37.177673],[-72.790505,-37.182078],[-72.785256,-37.183382]]]},"properties":{"comuna":"San Rosendo","mancha_id":"08310-88b2dbc4b1fffff","clase":"Alto","nivel_medio":2.598,"nivel_medio_min":2.508,"nivel_medio_max":2.706,"pct_alto":60.2,"n_hexagonos":3,"area_ha":184.57}},{"type":"Feature","geometry":{"type":"Polygon","coordinates":[[[-72.795808,-37.168863],[-72.790561,-37.170167],[-72.787545,-37.16748],[-72.78762,-37.1675],[-72.78877,-37.16747],[-72.78928,-37.16735],[-72.79013,-37.16719],[-72.79067,-37.16674],[-72.79117,-37.16634],[-72.791788,-37.165751],[-72.791812,-37.165779],[-72.792094,-37.165854],[-72.792602,-37.16591],[-72.793147,-37.165986],[-72.793654,-37.165986],[-72.794105,-37.165986],[-72.794556,-37.16591],[-72.794913,-37.165873],[-72.795195,-37.165929],[-72.795534,-37.166136],[-72.795909,-37.166286],[-72.796285,-37.166418],[-72.796624,-37.166512],[-72.796745,-37.166527],[-72.795808,-37.168863]]]},"properties":{"comuna":"San Rosendo","mancha_id":"08310-88b2dbc485fffff","clase":"Alto","nivel_medio":2.577,"nivel_medio_min":2.577,"nivel_medio_max":2.577,"pct_alto":59.4,"n_hexagonos":1,"area_ha":23.58}},{"type":"Feature","geometry":{"type":"Polygon","coordinates":[[[-72.78672,-37.167157],[-72.781835,-37.168371],[-72.781131,-37.167744],[-72.78136,-37.16772],[-72.78208,-37.16754],[-72.7823,-37.16733],[-72.7826,-37.16689],[-72.78336,-37.16651],[-72.78434,-37.16612],[-72.78506,-37.16616],[-72.78565,-37.16624],[-72.78593,-37.16645],[-72.78644,-37.16695],[-72.78672,-37.167157]]]},"properties":{"comuna":"San Rosendo","mancha_id":"08310-88b2dbc481fffff","clase":"Alto","nivel_medio":2.622,"nivel_medio_min":2.622,"nivel_medio_max":2.622,"pct_alto":62.2,"n_hexagonos":1,"area_ha":5.95}},{"type":"Feature","geometry":{"type":"Polygon","coordinates":[[[-72.671435,-37.231404],[-72.669658,-37.235806],[-72.66441,-37.237102],[-72.660939,-37.233998],[-72.662716,-37.229597],[-72.667964,-37.2283],[-72.671435,-37.231404]]]},"properties":{"comuna":"San Rosendo","mancha_id":"08310-88b2db11d1fffff","clase":"Alto","nivel_medio":2.836,"nivel_medio_min":2.836,"nivel_medio_max":2.836,"pct_alto":69.0,"n_hexagonos":1,"area_ha":61.43}},{"type":"Feature","geometry":{"type":"Polygon","coordinates":[[[-72.713274,-37.244841],[-72.716751,-37.247946],[-72.722002,-37.246647],[-72.72548,-37.249752],[-72.723706,-37.254156],[-72.727184,-37.257262],[-72.72541,-37.261666],[-72.720157,-37.262965],[-72.716679,-37.259859],[-72.718454,-37.255455],[-72.714977,-37.25235],[-72.709725,-37.253649],[-72.706249,-37.250543],[-72.708024,-37.24614],[-72.713274,-37.244841]]]},"properties":{"comuna":"San Rosendo","mancha_id":"08310-88b2db11adfffff","clase":"Alto","nivel_medio":2.816,"nivel_medio_min":2.523,"nivel_medio_max":3.024,"pct_alto":73.0,"n_hexagonos":3,"area_ha":184.53}},{"type":"Feature","geometry":{"type":"Polygon","coordinates":[[[-72.690574,-37.242526],[-72.688798,-37.246929],[-72.683548,-37.248226],[-72.680075,-37.245121],[-72.674825,-37.246418],[-72.671353,-37.243312],[-72.67313,-37.238911],[-72.678378,-37.237614],[-72.680154,-37.233212],[-72.685403,-37.231915],[-72.688876,-37.235019],[-72.6871,-37.239421],[-72.690574,-37.242526]]]},"properties":{"comuna":"San Rosendo","mancha_id":"08310-88b2db1181fffff","clase":"Alto","nivel_medio":2.556,"nivel_medio_min":2.533,"nivel_medio_max":2.591,"pct_alto":54.2,"n_hexagonos":3,"area_ha":184.37}},{"type":"Feature","geometry":{"type":"Polygon","coordinates":[[[-72.736323,-37.187599],[-72.732848,-37.184498],[-72.727602,-37.185798],[-72.725386,-37.183819],[-72.72692,-37.1837],[-72.72801,-37.18361],[-72.73007,-37.18345],[-72.733367,-37.183209],[-72.73404,-37.18316],[-72.73415,-37.18315],[-72.73417,-37.18312],[-72.73418,-37.18291],[-72.73411,-37.18265],[-72.73404,-37.18248],[-72.73394,-37.18224],[-72.7342,-37.18234],[-72.73484,-37.18245],[-72.7351,-37.1826],[-72.73511,-37.18262],[-72.73556,-37.18347],[-72.73596,-37.18395],[-72.73658,-37.18403],[-72.73663,-37.18403],[-72.73719,-37.18402],[-72.73768,-37.184],[-72.74051,-37.18404],[-72.7405,-37.1843],[-72.7402,-37.18482],[-72.7402,-37.18485],[-72.74021,-37.18591],[-72.740347,-37.186601],[-72.74041,-37.18692],[-72.74107,-37.1875],[-72.74148,-37.18803],[-72.74166,-37.1886],[-72.74191,-37.18879],[-72.74234,-37.18881],[-72.74259,-37.18855],[-72.74285,-37.18794],[-72.7432,-37.18792],[-72.74365,-37.188155],[-72.74391,-37.18829],[-72.74443,-37.18837],[-72.74508,-37.18836],[-72.74582,-37.1889],[-72.746122,-37.189132],[-72.745045,-37.1894],[-72.743274,-37.193803],[-72.738027,-37.195104],[-72.734551,-37.192002],[-72.736323,-37.187599]]]},"properties":{"comuna":"San Rosendo","mancha_id":"08310-88b2db1141fffff","clase":"Alto","nivel_medio":2.754,"nivel_medio_min":2.523,"nivel_medio_max":2.915,"pct_alto":66.3,"n_hexagonos":4,"area_ha":92.46}},{"type":"Feature","geometry":{"type":"Polygon","coordinates":[[[-72.737824,-37.230835],[-72.736052,-37.23524],[-72.730801,-37.23654],[-72.729027,-37.240944],[-72.723776,-37.242243],[-72.720299,-37.239139],[-72.715049,-37.240438],[-72.711573,-37.237333],[-72.713347,-37.23293],[-72.709872,-37.229826],[-72.711646,-37.225423],[-72.716895,-37.224124],[-72.720371,-37.227227],[-72.718597,-37.231631],[-72.722073,-37.234735],[-72.727324,-37.233435],[-72.729097,-37.229032],[-72.734347,-37.227732],[-72.737824,-37.230835]]]},"properties":{"comuna":"San Rosendo","mancha_id":"08310-88b2db1137fffff","clase":"Alto","nivel_medio":2.588,"nivel_medio_min":2.527,"nivel_medio_max":2.618,"pct_alto":63.9,"n_hexagonos":4,"area_ha":245.99}},{"type":"Feature","geometry":{"type":"Polygon","coordinates":[[[-72.709945,-37.217916],[-72.708171,-37.222319],[-72.702923,-37.223618],[-72.701148,-37.22802],[-72.6959,-37.229319],[-72.692426,-37.226215],[-72.694201,-37.221812],[-72.699449,-37.220514],[-72.701224,-37.216112],[-72.706471,-37.214813],[-72.709945,-37.217916]]]},"properties":{"comuna":"San Rosendo","mancha_id":"08310-88b2db1113fffff","clase":"Alto","nivel_medio":2.571,"nivel_medio_min":2.569,"nivel_medio_max":2.573,"pct_alto":57.1,"n_hexagonos":2,"area_ha":122.93}},{"type":"Feature","geometry":{"type":"Polygon","coordinates":[[[-72.748456,-37.204411],[-72.746685,-37.208815],[-72.741436,-37.210116],[-72.737959,-37.207013],[-72.739731,-37.20261],[-72.744979,-37.201309],[-72.746751,-37.196905],[-72.751998,-37.195603],[-72.752365,-37.19469],[-72.75244,-37.19465],[-72.75306,-37.19445],[-72.75343,-37.19399],[-72.75382,-37.19304],[-72.75443,-37.19238],[-72.75509,-37.19149],[-72.75538,-37.19098],[-72.75576,-37.19072],[-72.75633,-37.19063],[-72.75824,-37.19113],[-72.75908,-37.19171],[-72.75937,-37.19174],[-72.75957,-37.1914],[-72.75965,-37.19095],[-72.75963,-37.19048],[-72.759633,-37.190447],[-72.75968,-37.18995],[-72.75965,-37.18936],[-72.759501,-37.188693],[-72.760112,-37.187172],[-72.76195,-37.18727],[-72.76271,-37.18747],[-72.76333,-37.18799],[-72.76378,-37.18857],[-72.76461,-37.18904],[-72.76526,-37.18946],[-72.76564,-37.18989],[-72.76621,-37.19005],[-72.76664,-37.1901],[-72.76709,-37.1907],[-72.76746,-37.19072],[-72.768202,-37.190553],[-72.767743,-37.191696],[-72.771221,-37.194798],[-72.769451,-37.199203],[-72.764202,-37.200505],[-72.762432,-37.20491],[-72.757183,-37.206212],[-72.753705,-37.203109],[-72.748456,-37.204411]]]},"properties":{"comuna":"San Rosendo","mancha_id":"08310-88b2db1105fffff","clase":"Alto","nivel_medio":2.665,"nivel_medio_min":2.524,"nivel_medio_max":2.755,"pct_alto":67.5,"n_hexagonos":6,"area_ha":329.29}},{"type":"Feature","geometry":{"type":"Polygon","coordinates":[[[-72.654,-37.227788],[-72.652222,-37.232189],[-72.646975,-37.233484],[-72.643507,-37.23038],[-72.645284,-37.22598],[-72.650531,-37.224684],[-72.654,-37.227788]]]},"properties":{"comuna":"San Rosendo","mancha_id":"08310-88b2db10e7fffff","clase":"Alto","nivel_medio":2.759,"nivel_medio_min":2.759,"nivel_medio_max":2.759,"pct_alto":69.2,"n_hexagonos":1,"area_ha":61.41}},{"type":"Feature","geometry":{"type":"Polygon","coordinates":[[[-72.687413,-37.191794],[-72.683943,-37.188692],[-72.684494,-37.187325],[-72.68645,-37.18712],[-72.68884,-37.18691],[-72.69057,-37.18675],[-72.69266,-37.18651],[-72.694324,-37.18636],[-72.692658,-37.190495],[-72.687413,-37.191794]]]},"properties":{"comuna":"San Rosendo","mancha_id":"08310-88b2db1063fffff","clase":"Alto","nivel_medio":2.525,"nivel_medio_min":2.525,"nivel_medio_max":2.525,"pct_alto":52.7,"n_hexagonos":1,"area_ha":35.82}},{"type":"Feature","geometry":{"type":"Polygon","coordinates":[[[-72.680915,-37.173996],[-72.680936,-37.17403],[-72.680884,-37.173983],[-72.680915,-37.173996]]]},"properties":{"comuna":"San Rosendo","mancha_id":"08310-88b2db1045fffff","clase":"Alto","nivel_medio":3.0,"nivel_medio_min":3.0,"nivel_medio_max":3.0,"pct_alto":100.0,"n_hexagonos":1,"area_ha":0.0}},{"type":"Feature","geometry":{"type":"Polygon","coordinates":[[[-72.668046,-37.216394],[-72.66627,-37.220795],[-72.661023,-37.222091],[-72.657554,-37.218987],[-72.652308,-37.220284],[-72.648839,-37.217179],[-72.643594,-37.218475],[-72.640127,-37.215371],[-72.641904,-37.210972],[-72.647149,-37.209676],[-72.650617,-37.212779],[-72.655862,-37.211483],[-72.65933,-37.214587],[-72.664576,-37.21329],[-72.668046,-37.216394]]]},"properties":{"comuna":"San Rosendo","mancha_id":"08310-88b2db1033fffff","clase":"Alto","nivel_medio":2.755,"nivel_medio_min":2.573,"nivel_medio_max":2.937,"pct_alto":75.7,"n_hexagonos":3,"area_ha":184.21}},{"type":"Feature","geometry":{"type":"Polygon","coordinates":[[[-72.696052,-37.205503],[-72.697826,-37.201102],[-72.694355,-37.197999],[-72.696129,-37.193598],[-72.701374,-37.192299],[-72.704846,-37.195401],[-72.710092,-37.194101],[-72.713565,-37.197204],[-72.711792,-37.201606],[-72.715266,-37.204709],[-72.713492,-37.209111],[-72.708245,-37.210411],[-72.704772,-37.207308],[-72.699525,-37.208606],[-72.696052,-37.205503]]]},"properties":{"comuna":"San Rosendo","mancha_id":"08310-88b2db1025fffff","clase":"Alto","nivel_medio":2.667,"nivel_medio_min":2.615,"nivel_medio_max":2.747,"pct_alto":67.7,"n_hexagonos":4,"area_ha":245.8}},{"type":"Feature","geometry":{"type":"Polygon","coordinates":[[[-72.690806,-37.206802],[-72.689031,-37.211203],[-72.683785,-37.212502],[-72.680314,-37.209398],[-72.682089,-37.204997],[-72.687335,-37.203699],[-72.690806,-37.206802]]]},"properties":{"comuna":"San Rosendo","mancha_id":"08310-88b2db1023fffff","clase":"Alto","nivel_medio":2.57,"nivel_medio_min":2.57,"nivel_medio_max":2.57,"pct_alto":38.6,"n_hexagonos":1,"area_ha":61.43}},{"type":"Feature","geometry":{"type":"Polygon","coordinates":[[[-72.65417,-37.20398],[-72.648926,-37.205276],[-72.645974,-37.202634],[-72.64603,-37.20258],[-72.64625,-37.2025],[-72.64694,-37.20243],[-72.64744,-37.2023],[-72.64768,-37.20215],[-72.64779,-37.20182],[-72.6479,-37.2015],[-72.64807,-37.20048],[-72.64826,-37.19955],[-72.64852,-37.19907],[-72.64897,-37.19866],[-72.64957,-37.19839],[-72.64987,-37.19827],[-72.65005,-37.19812],[-72.65018,-37.19774],[-72.65041,-37.19747],[-72.65095,-37.1973],[-72.65161,-37.19723],[-72.65191,-37.1972],[-72.65206,-37.19728],[-72.6521,-37.19745],[-72.65207,-37.19775],[-72.65214,-37.19799],[-72.65263,-37.19798],[-72.65296,-37.19776],[-72.653449,-37.197345],[-72.655946,-37.19958],[-72.65417,-37.20398]]]},"properties":{"comuna":"San Rosendo","mancha_id":"08310-88b2db1011fffff","clase":"Alto","nivel_medio":2.629,"nivel_medio_min":2.629,"nivel_medio_max":2.629,"pct_alto":69.1,"n_hexagonos":1,"area_ha":48.29}},{"type":"Feature","geometry":{"type":"Polygon","coordinates":[[[-72.73421,-37.251558],[-72.732437,-37.255962],[-72.727184,-37.257262],[-72.723706,-37.254156],[-72.72548,-37.249752],[-72.730732,-37.248453],[-72.73421,-37.251558]]]},"properties":{"comuna":"San Rosendo","mancha_id":"08310-88b2db1ad7fffff","clase":"Muy Alto","nivel_medio":3.65,"nivel_medio_min":3.65,"nivel_medio_max":3.65,"pct_alto":94.3,"n_hexagonos":1,"area_ha":61.52}}],"bbox":[-72.82351,-37.27344,-72.63378,-37.16575]}