{"type":"FeatureCollection","features":[{"type":"Feature","geometry":{"type":"Polygon","coordinates":[[[-73.354483,-38.718261],[-73.356268,-38.71379],[-73.357577,-38.713476],[-73.35639,-38.71869],[-73.35598,-38.719567],[-73.354483,-38.718261]]]},"properties":{"comuna":"Saavedra","mancha_id":"09116-88ce8872e9fffff","clase":"Muy Bajo","nivel_medio":0.0,"nivel_medio_min":0.0,"nivel_medio_max":0.0,"pct_alto":0.0,"n_hexagonos":1,"area_ha":8.49}},{"type":"Feature","geometry":{"type":"Polygon","coordinates":[[[-73.354614,-38.742489],[-73.350978,-38.739317],[-73.352001,-38.736754],[-73.353027,-38.738991],[-73.354424,-38.741412],[-73.354972,-38.742403],[-73.354614,-38.742489]]]},"properties":{"comuna":"Saavedra","mancha_id":"09116-88ce887219fffff","clase":"Muy Bajo","nivel_medio":0.0,"nivel_medio_min":0.0,"nivel_medio_max":0.0,"pct_alto":0.0,"n_hexagonos":1,"area_ha":6.78}},{"type":"Feature","geometry":{"type":"Polygon","coordinates":[[[-73.349128,-38.731674],[-73.350913,-38.727203],[-73.352663,-38.726784],[-73.352363,-38.727751],[-73.3521,-38.73071],[-73.35163,-38.733681],[-73.351647,-38.733872],[-73.349128,-38.731674]]]},"properties":{"comuna":"Saavedra","mancha_id":"09116-88ce887211fffff","clase":"Muy Bajo","nivel_medio":0.092,"nivel_medio_min":0.092,"nivel_medio_max":0.092,"pct_alto":3.1,"n_hexagonos":1,"area_ha":12.74}},{"type":"Feature","geometry":{"type":"Polygon","coordinates":[[[-73.287405,-38.697976],[-73.283889,-38.698818],[-73.283221,-38.698234],[-73.28541,-38.69801],[-73.287405,-38.697976]]]},"properties":{"comuna":"Saavedra","mancha_id":"09116-88ce887065fffff","clase":"Muy Bajo","nivel_medio":0.0,"nivel_medio_min":0.0,"nivel_medio_max":0.0,"pct_alto":0.0,"n_hexagonos":1,"area_ha":1.44}},{"type":"Feature","geometry":{"type":"Polygon","coordinates":[[[-73.345868,-38.696076],[-73.343519,-38.69664],[-73.342279,-38.695559],[-73.34274,-38.695582],[-73.345868,-38.696076]]]},"properties":{"comuna":"Saavedra","mancha_id":"09116-88ce887053fffff","clase":"Muy Bajo","nivel_medio":0.0,"nivel_medio_min":0.0,"nivel_medio_max":0.0,"pct_alto":0.0,"n_hexagonos":1,"area_ha":1.64}},{"type":"Feature","geometry":{"type":"Polygon","coordinates":[[[-73.314592,-38.695499],[-73.309177,-38.696798],[-73.307262,-38.695124],[-73.31071,-38.69442],[-73.315094,-38.694243],[-73.314592,-38.695499]]]},"properties":{"comuna":"Saavedra","mancha_id":"09116-88ce88700dfffff","clase":"Muy Bajo","nivel_medio":0.153,"nivel_medio_min":0.153,"nivel_medio_max":0.153,"pct_alto":1.6,"n_hexagonos":1,"area_ha":11.31}},{"type":"Feature","geometry":{"type":"Polygon","coordinates":[[[-73.328977,-38.966227],[-73.330374,-38.962743],[-73.333267,-38.962055],[-73.33299,-38.96264],[-73.33284,-38.96314],[-73.33279,-38.96356],[-73.33262,-38.96405],[-73.33191,-38.96497],[-73.33143,-38.9657],[-73.33131,-38.96608],[-73.331216,-38.966249],[-73.328977,-38.966227]]]},"properties":{"comuna":"Saavedra","mancha_id":"09116-88ce881ab7fffff","clase":"Muy Bajo","nivel_medio":0.493,"nivel_medio_min":0.493,"nivel_medio_max":0.493,"pct_alto":0.0,"n_hexagonos":1,"area_ha":9.34}},{"type":"Feature","geometry":{"type":"Polygon","coordinates":[[[-73.263092,-38.9342],[-73.268529,-38.932909],[-73.270779,-38.934875],[-73.26984,-38.93534],[-73.26856,-38.9363],[-73.26737,-38.93695],[-73.2666,-38.93727],[-73.26524,-38.93731],[-73.26505,-38.93735],[-73.26474,-38.93732],[-73.261863,-38.937257],[-73.263092,-38.9342]]]},"properties":{"comuna":"Saavedra","mancha_id":"09116-88ce8819d5fffff","clase":"Muy Bajo","nivel_medio":0.332,"nivel_medio_min":0.332,"nivel_medio_max":0.332,"pct_alto":0.6,"n_hexagonos":1,"area_ha":24.1}},{"type":"Feature","geometry":{"type":"Polygon","coordinates":[[[-73.278838,-38.931732],[-73.279403,-38.930326],[-73.282661,-38.929552],[-73.28155,-38.93008],[-73.28033,-38.93071],[-73.278838,-38.931732]]]},"properties":{"comuna":"Saavedra","mancha_id":"09116-88ce8819d3fffff","clase":"Muy Bajo","nivel_medio":0.0,"nivel_medio_min":0.0,"nivel_medio_max":0.0,"pct_alto":0.0,"n_hexagonos":1,"area_ha":1.65}},{"type":"Feature","geometry":{"type":"Polygon","coordinates":[[[-73.407363,-38.782428],[-73.405579,-38.786903],[-73.409224,-38.790076],[-73.40744,-38.794551],[-73.402011,-38.795852],[-73.398367,-38.792679],[-73.400151,-38.788204],[-73.396507,-38.785031],[-73.398292,-38.780557],[-73.403719,-38.779255],[-73.407363,-38.782428]]]},"properties":{"comuna":"Saavedra","mancha_id":"09116-88ce880f35fffff","clase":"Muy Bajo","nivel_medio":0.359,"nivel_medio_min":0.227,"nivel_medio_max":0.491,"pct_alto":6.5,"n_hexagonos":2,"area_ha":127.13}},{"type":"Feature","geometry":{"type":"Polygon","coordinates":[[[-73.366394,-38.751796],[-73.365525,-38.752004],[-73.364946,-38.751499],[-73.366394,-38.751796]]]},"properties":{"comuna":"Saavedra","mancha_id":"09116-88ce880d2dfffff","clase":"Muy Bajo","nivel_medio":0.0,"nivel_medio_min":0.0,"nivel_medio_max":0.0,"pct_alto":0.0,"n_hexagonos":1,"area_ha":0.27}},{"type":"Feature","geometry":{"type":"Polygon","coordinates":[[[-73.377999,-38.753057],[-73.374588,-38.753876],[-73.373294,-38.752748],[-73.377999,-38.753057]]]},"properties":{"comuna":"Saavedra","mancha_id":"09116-88ce880d29fffff","clase":"Muy Bajo","nivel_medio":0.0,"nivel_medio_min":0.0,"nivel_medio_max":0.0,"pct_alto":0.0,"n_hexagonos":1,"area_ha":2.37}},{"type":"Feature","geometry":{"type":"Polygon","coordinates":[[[-73.389076,-38.754445],[-73.383651,-38.755747],[-73.380774,-38.75324],[-73.38154,-38.75329],[-73.38582,-38.75243],[-73.390545,-38.75076],[-73.389076,-38.754445]]]},"properties":{"comuna":"Saavedra","mancha_id":"09116-88ce880d05fffff","clase":"Muy Bajo","nivel_medio":0.34,"nivel_medio_min":0.34,"nivel_medio_max":0.34,"pct_alto":0.0,"n_hexagonos":1,"area_ha":21.34}},{"type":"Feature","geometry":{"type":"Polygon","coordinates":[[[-73.399925,-38.751842],[-73.396284,-38.74867],[-73.395325,-38.7489],[-73.396353,-38.748496],[-73.39652,-38.74843],[-73.40034,-38.74727],[-73.406605,-38.747388],[-73.40535,-38.750539],[-73.399925,-38.751842]]]},"properties":{"comuna":"Saavedra","mancha_id":"09116-88ce880d03fffff","clase":"Muy Bajo","nivel_medio":0.428,"nivel_medio_min":0.0,"nivel_medio_max":0.429,"pct_alto":0.0,"n_hexagonos":2,"area_ha":30.37}},{"type":"Feature","geometry":{"type":"Polygon","coordinates":[[[-73.42369,-38.75396],[-73.423747,-38.754503],[-73.42379,-38.75491],[-73.42386,-38.75637],[-73.4237,-38.75755],[-73.4234,-38.75907],[-73.423449,-38.759775],[-73.424434,-38.762143],[-73.419922,-38.763226],[-73.416278,-38.760054],[-73.418061,-38.75558],[-73.414417,-38.752408],[-73.41598,-38.748484],[-73.41632,-38.74856],[-73.41915,-38.75],[-73.42004,-38.75045],[-73.42288,-38.75254],[-73.423644,-38.75388],[-73.42369,-38.75396]]]},"properties":{"comuna":"Saavedra","mancha_id":"09116-88ce880c25fffff","clase":"Muy Bajo","nivel_medio":0.232,"nivel_medio_min":0.0,"nivel_medio_max":0.299,"pct_alto":0.5,"n_hexagonos":3,"area_ha":83.51}},{"type":"Feature","geometry":{"type":"Polygon","coordinates":[[[-73.304304,-38.819223],[-73.302513,-38.823694],[-73.297086,-38.824989],[-73.29345,-38.821813],[-73.295242,-38.817342],[-73.300668,-38.816047],[-73.304304,-38.819223]]]},"properties":{"comuna":"Saavedra","mancha_id":"09116-88ce880839fffff","clase":"Muy Bajo","nivel_medio":0.468,"nivel_medio_min":0.468,"nivel_medio_max":0.468,"pct_alto":8.2,"n_hexagonos":1,"area_ha":63.47}},{"type":"Feature","geometry":{"type":"Polygon","coordinates":[[[-73.280804,-38.828873],[-73.279011,-38.833343],[-73.273583,-38.834637],[-73.27179,-38.839107],[-73.275425,-38.842285],[-73.273631,-38.846755],[-73.277266,-38.849933],[-73.282696,-38.848639],[-73.286332,-38.851817],[-73.284539,-38.856288],[-73.279109,-38.857582],[-73.277315,-38.862053],[-73.280952,-38.865231],[-73.286382,-38.863938],[-73.29002,-38.867116],[-73.295451,-38.865823],[-73.297244,-38.861351],[-73.293606,-38.858173],[-73.295399,-38.853701],[-73.300829,-38.852406],[-73.302621,-38.847934],[-73.308051,-38.84664],[-73.309843,-38.842167],[-73.315272,-38.840872],[-73.318912,-38.844049],[-73.317121,-38.848521],[-73.32076,-38.851699],[-73.326191,-38.850403],[-73.329832,-38.85358],[-73.335264,-38.852284],[-73.338906,-38.855461],[-73.337116,-38.859935],[-73.340758,-38.863112],[-73.338968,-38.867586],[-73.342611,-38.870764],[-73.340821,-38.875239],[-73.344465,-38.878417],[-73.342674,-38.882891],[-73.337239,-38.884187],[-73.333595,-38.881009],[-73.328161,-38.882304],[-73.326369,-38.886778],[-73.320935,-38.888073],[-73.319142,-38.892547],[-73.313707,-38.893841],[-73.310065,-38.890662],[-73.304631,-38.891956],[-73.30099,-38.888777],[-73.295556,-38.89007],[-73.293763,-38.894543],[-73.288328,-38.895836],[-73.284689,-38.892656],[-73.279256,-38.893949],[-73.277461,-38.898421],[-73.2811,-38.901601],[-73.279305,-38.906073],[-73.282944,-38.909254],[-73.288379,-38.907961],[-73.29202,-38.911142],[-73.290225,-38.915615],[-73.293867,-38.918796],[-73.292072,-38.923269],[-73.295714,-38.92645],[-73.301152,-38.925157],[-73.304795,-38.928338],[-73.303,-38.932813],[-73.306644,-38.935994],[-73.312083,-38.934701],[-73.315728,-38.937882],[-73.313934,-38.942357],[-73.317579,-38.945539],[-73.315785,-38.950014],[-73.313922,-38.950456],[-73.31368,-38.95015],[-73.31326,-38.94974],[-73.31227,-38.94944],[-73.3109,-38.94909],[-73.30886,-38.94801],[-73.30775,-38.94713],[-73.307344,-38.946516],[-73.30541,-38.94359],[-73.30384,-38.9424],[-73.30283,-38.94154],[-73.302023,-38.94114],[-73.30039,-38.94033],[-73.29918,-38.93976],[-73.29781,-38.93906],[-73.29691,-38.93842],[-73.29644,-38.93781],[-73.296232,-38.93742],[-73.29597,-38.93693],[-73.29516,-38.93507],[-73.29448,-38.93361],[-73.293212,-38.931092],[-73.29308,-38.93083],[-73.2922,-38.93006],[-73.29132,-38.9294],[-73.28949,-38.9286],[-73.28885,-38.92841],[-73.28798,-38.92829],[-73.28564,-38.92833],[-73.285053,-38.928504],[-73.286635,-38.924561],[-73.282994,-38.92138],[-73.284789,-38.916907],[-73.281149,-38.913727],[-73.275714,-38.915018],[-73.272074,-38.911838],[-73.266639,-38.913129],[-73.263001,-38.909948],[-73.264797,-38.905476],[-73.26116,-38.902296],[-73.262956,-38.897824],[-73.259319,-38.894644],[-73.261115,-38.890173],[-73.266547,-38.888881],[-73.268342,-38.88441],[-73.264706,-38.881231],[-73.266501,-38.876759],[-73.271932,-38.875467],[-73.273727,-38.870996],[-73.27009,-38.867817],[-73.271885,-38.863346],[-73.268249,-38.860168],[-73.270043,-38.855697],[-73.266408,-38.852519],[-73.26098,-38.853811],[-73.257346,-38.850633],[-73.25914,-38.846163],[-73.264568,-38.844871],[-73.266362,-38.8404],[-73.262729,-38.837223],[-73.257302,-38.838516],[-73.253669,-38.835338],[-73.255464,-38.830869],[-73.26089,-38.829576],[-73.264523,-38.832753],[-73.26995,-38.83146],[-73.271743,-38.82699],[-73.277169,-38.825696],[-73.278962,-38.821226],[-73.284388,-38.819931],[-73.288023,-38.823108],[-73.286231,-38.827578],[-73.280804,-38.828873]],[[-73.32446,-38.867],[-73.329892,-38.865705],[-73.331683,-38.861231],[-73.328042,-38.858053],[-73.32261,-38.859349],[-73.320818,-38.863822],[-73.32446,-38.867]]]},"properties":{"comuna":"Saavedra","mancha_id":"09116-88ce880829fffff","clase":"Muy Bajo","nivel_medio":0.137,"nivel_medio_min":0.0,"nivel_medio_max":0.493,"pct_alto":2.2,"n_hexagonos":61,"area_ha":3733.14}},{"type":"Feature","geometry":{"type":"Polygon","coordinates":[[[-73.329652,-38.817214],[-73.327863,-38.821686],[-73.322434,-38.822983],[-73.318796,-38.819807],[-73.313369,-38.821103],[-73.309731,-38.817927],[-73.311522,-38.813456],[-73.316949,-38.81216],[-73.320586,-38.815335],[-73.326014,-38.814038],[-73.329652,-38.817214]]]},"properties":{"comuna":"Saavedra","mancha_id":"09116-88ce880813fffff","clase":"Muy Bajo","nivel_medio":0.396,"nivel_medio_min":0.385,"nivel_medio_max":0.407,"pct_alto":2.6,"n_hexagonos":2,"area_ha":126.99}},{"type":"Feature","geometry":{"type":"Polygon","coordinates":[[[-73.386013,-38.848255],[-73.3878,-38.84378],[-73.390444,-38.843147],[-73.39008,-38.84425],[-73.38999,-38.84442],[-73.38974,-38.84473],[-73.38969,-38.84479],[-73.3895,-38.84518],[-73.38922,-38.84593],[-73.38867,-38.84718],[-73.38844,-38.84792],[-73.3879,-38.84918],[-73.38773,-38.84941],[-73.387611,-38.849647],[-73.386013,-38.848255]]]},"properties":{"comuna":"Saavedra","mancha_id":"09116-88ce8801a5fffff","clase":"Muy Bajo","nivel_medio":0.487,"nivel_medio_min":0.487,"nivel_medio_max":0.487,"pct_alto":0.0,"n_hexagonos":1,"area_ha":12.23}},{"type":"Feature","geometry":{"type":"Polygon","coordinates":[[[-73.352828,-38.74696],[-73.354614,-38.742489],[-73.354972,-38.742403],[-73.35718,-38.7464],[-73.359594,-38.748958],[-73.36,-38.749285],[-73.356465,-38.750132],[-73.352828,-38.74696]]]},"properties":{"comuna":"Saavedra","mancha_id":"09116-88ce887253fffff","clase":"Bajo","nivel_medio":1.257,"nivel_medio_min":1.257,"nivel_medio_max":1.257,"pct_alto":35.2,"n_hexagonos":1,"area_ha":23.29}},{"type":"Feature","geometry":{"type":"Polygon","coordinates":[[[-73.347278,-38.724032],[-73.349064,-38.719562],[-73.34543,-38.716391],[-73.347215,-38.711921],[-73.343581,-38.70875],[-73.345366,-38.70428],[-73.350784,-38.70298],[-73.352429,-38.698858],[-73.354142,-38.700298],[-73.357159,-38.702743],[-73.358125,-38.704191],[-73.358327,-38.705211],[-73.35842,-38.70568],[-73.35797,-38.71175],[-73.357577,-38.713476],[-73.356268,-38.71379],[-73.354483,-38.718261],[-73.35598,-38.719567],[-73.35463,-38.72245],[-73.35306,-38.7255],[-73.352663,-38.726784],[-73.350913,-38.727203],[-73.347278,-38.724032]]]},"properties":{"comuna":"Saavedra","mancha_id":"09116-88ce887217fffff","clase":"Bajo","nivel_medio":0.999,"nivel_medio_min":0.724,"nivel_medio_max":1.117,"pct_alto":0.6,"n_hexagonos":5,"area_ha":232.66}},{"type":"Feature","geometry":{"type":"Polygon","coordinates":[[[-73.298346,-38.699394],[-73.292931,-38.700691],[-73.289778,-38.697936],[-73.29012,-38.69793],[-73.299439,-38.696661],[-73.298346,-38.699394]]]},"properties":{"comuna":"Saavedra","mancha_id":"09116-88ce887061fffff","clase":"Bajo","nivel_medio":0.965,"nivel_medio_min":0.965,"nivel_medio_max":0.965,"pct_alto":27.6,"n_hexagonos":1,"area_ha":21.07}},{"type":"Feature","geometry":{"type":"Polygon","coordinates":[[[-73.318222,-38.698669],[-73.314592,-38.695499],[-73.315094,-38.694243],[-73.31938,-38.69407],[-73.324803,-38.694455],[-73.334326,-38.695131],[-73.332685,-38.69924],[-73.327268,-38.70054],[-73.323638,-38.69737],[-73.318222,-38.698669]]]},"properties":{"comuna":"Saavedra","mancha_id":"09116-88ce887009fffff","clase":"Bajo","nivel_medio":1.446,"nivel_medio_min":1.434,"nivel_medio_max":1.454,"pct_alto":20.6,"n_hexagonos":2,"area_ha":75.32}},{"type":"Feature","geometry":{"type":"Polygon","coordinates":[[[-73.184007,-38.895195],[-73.185044,-38.896104],[-73.184731,-38.896881],[-73.18405,-38.89621],[-73.18391,-38.89598],[-73.18381,-38.89545],[-73.18396,-38.89528],[-73.184007,-38.895195]]]},"properties":{"comuna":"Saavedra","mancha_id":"09116-88ce8856a3fffff","clase":"Bajo","nivel_medio":1.331,"nivel_medio_min":1.331,"nivel_medio_max":1.331,"pct_alto":0.0,"n_hexagonos":1,"area_ha":0.97}},{"type":"Feature","geometry":{"type":"Polygon","coordinates":[[[-73.183076,-38.827888],[-73.177654,-38.829176],[-73.17692,-38.828533],[-73.17829,-38.82816],[-73.17843,-38.82811],[-73.17806,-38.82798],[-73.17745,-38.8279],[-73.17682,-38.82773],[-73.17655,-38.8274],[-73.17603,-38.82727],[-73.17546,-38.82692],[-73.17463,-38.82599],[-73.174237,-38.825485],[-73.175828,-38.821533],[-73.17923,-38.820724],[-73.181298,-38.820286],[-73.184875,-38.823421],[-73.183076,-38.827888]]]},"properties":{"comuna":"Saavedra","mancha_id":"09116-88ce88465dfffff","clase":"Bajo","nivel_medio":1.339,"nivel_medio_min":1.339,"nivel_medio_max":1.339,"pct_alto":2.6,"n_hexagonos":1,"area_ha":61.24}},{"type":"Feature","geometry":{"type":"Polygon","coordinates":[[[-73.284789,-38.916907],[-73.282994,-38.92138],[-73.286635,-38.924561],[-73.285053,-38.928504],[-73.28456,-38.92865],[-73.282661,-38.929552],[-73.279403,-38.930326],[-73.278838,-38.931732],[-73.27868,-38.93184],[-73.27756,-38.93238],[-73.276,-38.93307],[-73.2751,-38.93324],[-73.27341,-38.93362],[-73.27274,-38.93385],[-73.27202,-38.93419],[-73.27087,-38.93483],[-73.270779,-38.934875],[-73.268529,-38.932909],[-73.270325,-38.928436],[-73.275762,-38.927145],[-73.277558,-38.922672],[-73.273918,-38.919491],[-73.275714,-38.915018],[-73.281149,-38.913727],[-73.284789,-38.916907]]]},"properties":{"comuna":"Saavedra","mancha_id":"09116-88ce881991fffff","clase":"Bajo","nivel_medio":0.86,"nivel_medio_min":0.58,"nivel_medio_max":1.115,"pct_alto":15.8,"n_hexagonos":3,"area_ha":175.86}},{"type":"Feature","geometry":{"type":"Polygon","coordinates":[[[-73.225074,-38.955351],[-73.230512,-38.954063],[-73.230736,-38.954259],[-73.22919,-38.95529],[-73.22758,-38.95642],[-73.22688,-38.95669],[-73.22619,-38.95686],[-73.22573,-38.95697],[-73.22522,-38.95708],[-73.22484,-38.95728],[-73.22438,-38.95781],[-73.22411,-38.95853],[-73.22369,-38.95913],[-73.223469,-38.959338],[-73.225074,-38.955351]]]},"properties":{"comuna":"Saavedra","mancha_id":"09116-88ce881911fffff","clase":"Bajo","nivel_medio":1.491,"nivel_medio_min":1.491,"nivel_medio_max":1.491,"pct_alto":6.9,"n_hexagonos":1,"area_ha":8.34}},{"type":"Feature","geometry":{"type":"Polygon","coordinates":[[[-73.2142,-38.957927],[-73.217837,-38.96111],[-73.222676,-38.959964],[-73.22162,-38.96055],[-73.21944,-38.96104],[-73.21845,-38.96148],[-73.21808,-38.96148],[-73.217754,-38.961315],[-73.21719,-38.96103],[-73.21639,-38.96082],[-73.21552,-38.96054],[-73.21492,-38.96026],[-73.21275,-38.95972],[-73.21193,-38.95934],[-73.21166,-38.95923],[-73.21067,-38.95917],[-73.2098,-38.9592],[-73.209305,-38.959086],[-73.2142,-38.957927]]]},"properties":{"comuna":"Saavedra","mancha_id":"09116-88ce881903fffff","clase":"Bajo","nivel_medio":1.141,"nivel_medio_min":1.0,"nivel_medio_max":1.166,"pct_alto":0.0,"n_hexagonos":2,"area_ha":10.03}},{"type":"Feature","geometry":{"type":"Polygon","coordinates":[[[-73.333267,-38.962055],[-73.330374,-38.962743],[-73.327873,-38.960561],[-73.32787,-38.96053],[-73.32791,-38.9602],[-73.3281,-38.95997],[-73.32852,-38.95968],[-73.32868,-38.95951],[-73.32873,-38.9593],[-73.32897,-38.95906],[-73.3292,-38.95844],[-73.32958,-38.95767],[-73.32963,-38.95719],[-73.32937,-38.95658],[-73.32907,-38.95561],[-73.3289,-38.954994],[-73.333961,-38.953791],[-73.336338,-38.955864],[-73.33618,-38.95616],[-73.33586,-38.9569],[-73.33562,-38.95784],[-73.33549,-38.95821],[-73.33479,-38.9593],[-73.33405,-38.96056],[-73.33386,-38.96095],[-73.3336,-38.96135],[-73.333267,-38.962055]]]},"properties":{"comuna":"Saavedra","mancha_id":"09116-88ce8818ddfffff","clase":"Bajo","nivel_medio":1.465,"nivel_medio_min":1.465,"nivel_medio_max":1.465,"pct_alto":4.6,"n_hexagonos":1,"area_ha":46.11}},{"type":"Feature","geometry":{"type":"Polygon","coordinates":[[[-73.324813,-38.93977],[-73.32302,-38.944245],[-73.326666,-38.947427],[-73.324965,-38.951672],[-73.32387,-38.95134],[-73.32263,-38.95103],[-73.32182,-38.95093],[-73.32159,-38.95097],[-73.32133,-38.95112],[-73.32101,-38.95114],[-73.32046,-38.95106],[-73.32004,-38.95089],[-73.31955,-38.95093],[-73.31879,-38.95105],[-73.31791,-38.95122],[-73.31726,-38.951301],[-73.31695,-38.95134],[-73.31615,-38.95123],[-73.31547,-38.95114],[-73.31471,-38.95107],[-73.31421,-38.95082],[-73.313922,-38.950456],[-73.315785,-38.950014],[-73.317579,-38.945539],[-73.313934,-38.942357],[-73.315728,-38.937882],[-73.321167,-38.936589],[-73.324813,-38.93977]]]},"properties":{"comuna":"Saavedra","mancha_id":"09116-88ce881881fffff","clase":"Bajo","nivel_medio":1.077,"nivel_medio_min":0.585,"nivel_medio_max":1.1,"pct_alto":4.0,"n_hexagonos":3,"area_ha":119.69}},{"type":"Feature","geometry":{"type":"Polygon","coordinates":[[[-73.402011,-38.795852],[-73.40744,-38.794551],[-73.409224,-38.790076],[-73.414653,-38.788774],[-73.414852,-38.788948],[-73.41467,-38.78957],[-73.41449,-38.78994],[-73.41402,-38.79072],[-73.41388,-38.79118],[-73.41382,-38.79154],[-73.41367,-38.79194],[-73.41355,-38.7921],[-73.41293,-38.79245],[-73.41282,-38.7926],[-73.41273,-38.79335],[-73.41259,-38.79375],[-73.41226,-38.79417],[-73.4115,-38.79501],[-73.41103,-38.79566],[-73.41064,-38.7963],[-73.410171,-38.796929],[-73.41017,-38.79693],[-73.40974,-38.79774],[-73.4096,-38.79808],[-73.40912,-38.79886],[-73.40883,-38.79968],[-73.40788,-38.80127],[-73.4073,-38.80205],[-73.407,-38.80241],[-73.406519,-38.802867],[-73.403871,-38.803501],[-73.400226,-38.800327],[-73.402011,-38.795852]]]},"properties":{"comuna":"Saavedra","mancha_id":"09116-88ce880f07fffff","clase":"Bajo","nivel_medio":1.001,"nivel_medio_min":0.808,"nivel_medio_max":1.083,"pct_alto":23.3,"n_hexagonos":2,"area_ha":85.1}},{"type":"Feature","geometry":{"type":"Polygon","coordinates":[[[-73.36374,-38.756476],[-73.365525,-38.752004],[-73.366394,-38.751796],[-73.36997,-38.75253],[-73.373294,-38.752748],[-73.374588,-38.753876],[-73.372803,-38.758348],[-73.367379,-38.759649],[-73.36374,-38.756476]]]},"properties":{"comuna":"Saavedra","mancha_id":"09116-88ce880d67fffff","clase":"Bajo","nivel_medio":1.402,"nivel_medio_min":1.402,"nivel_medio_max":1.402,"pct_alto":12.1,"n_hexagonos":1,"area_ha":56.97}},{"type":"Feature","geometry":{"type":"Polygon","coordinates":[[[-73.392717,-38.757617],[-73.389076,-38.754445],[-73.390545,-38.75076],[-73.39111,-38.75056],[-73.39253,-38.75],[-73.395325,-38.7489],[-73.396284,-38.74867],[-73.399925,-38.751842],[-73.398142,-38.756315],[-73.392717,-38.757617]]]},"properties":{"comuna":"Saavedra","mancha_id":"09116-88ce880d01fffff","clase":"Bajo","nivel_medio":1.389,"nivel_medio_min":1.389,"nivel_medio_max":1.389,"pct_alto":0.0,"n_hexagonos":1,"area_ha":61.95}},{"type":"Feature","geometry":{"type":"Polygon","coordinates":[[[-73.42149,-38.77584],[-73.42133,-38.776504],[-73.42118,-38.77713],[-73.42107,-38.77728],[-73.42071,-38.77755],[-73.42047,-38.77784],[-73.42047,-38.77832],[-73.42021,-38.77866],[-73.42012,-38.7787],[-73.41953,-38.77927],[-73.41889,-38.78009],[-73.41855,-38.78059],[-73.41841,-38.78091],[-73.4183,-38.78153],[-73.41822,-38.78182],[-73.41795,-38.78235],[-73.41778,-38.78281],[-73.41772,-38.78315],[-73.41767,-38.78332],[-73.41756,-38.78364],[-73.417354,-38.784078],[-73.416436,-38.784299],[-73.412791,-38.781126],[-73.407363,-38.782428],[-73.403719,-38.779255],[-73.405503,-38.77478],[-73.41093,-38.773478],[-73.412713,-38.769004],[-73.409069,-38.765831],[-73.410852,-38.761357],[-73.407209,-38.758185],[-73.408992,-38.753711],[-73.40535,-38.750539],[-73.406605,-38.747388],[-73.41151,-38.74748],[-73.41598,-38.748484],[-73.414417,-38.752408],[-73.418061,-38.75558],[-73.416278,-38.760054],[-73.419922,-38.763226],[-73.424434,-38.762143],[-73.425251,-38.764107],[-73.424911,-38.764927],[-73.422517,-38.770697],[-73.42162,-38.77286],[-73.42163,-38.7736],[-73.42156,-38.77403],[-73.42156,-38.77532],[-73.42153,-38.77553],[-73.42149,-38.77584]]]},"properties":{"comuna":"Saavedra","mancha_id":"09116-88ce880c65fffff","clase":"Bajo","nivel_medio":0.998,"nivel_medio_min":0.513,"nivel_medio_max":1.38,"pct_alto":9.7,"n_hexagonos":8,"area_ha":382.33}},{"type":"Feature","geometry":{"type":"Polygon","coordinates":[[[-73.268342,-38.88441],[-73.266547,-38.888881],[-73.261115,-38.890173],[-73.259319,-38.894644],[-73.262956,-38.897824],[-73.26116,-38.902296],[-73.255726,-38.903587],[-73.25209,-38.900407],[-73.253886,-38.895936],[-73.25025,-38.892755],[-73.252046,-38.888285],[-73.257478,-38.886993],[-73.259274,-38.882522],[-73.264706,-38.881231],[-73.268342,-38.88441]]]},"properties":{"comuna":"Saavedra","mancha_id":"09116-88ce880b51fffff","clase":"Bajo","nivel_medio":1.098,"nivel_medio_min":0.847,"nivel_medio_max":1.388,"pct_alto":22.9,"n_hexagonos":3,"area_ha":190.44}},{"type":"Feature","geometry":{"type":"Polygon","coordinates":[[[-73.271885,-38.863346],[-73.27009,-38.867817],[-73.273727,-38.870996],[-73.271932,-38.875467],[-73.266501,-38.876759],[-73.262865,-38.87358],[-73.26466,-38.869109],[-73.261025,-38.865931],[-73.262819,-38.86146],[-73.259185,-38.858282],[-73.26098,-38.853811],[-73.266408,-38.852519],[-73.270043,-38.855697],[-73.268249,-38.860168],[-73.271885,-38.863346]]]},"properties":{"comuna":"Saavedra","mancha_id":"09116-88ce880b11fffff","clase":"Bajo","nivel_medio":0.97,"nivel_medio_min":0.643,"nivel_medio_max":1.254,"pct_alto":16.0,"n_hexagonos":3,"area_ha":190.41}},{"type":"Feature","geometry":{"type":"Polygon","coordinates":[[[-73.250208,-38.880634],[-73.248411,-38.885105],[-73.24298,-38.886396],[-73.239346,-38.883216],[-73.241143,-38.878746],[-73.246573,-38.877455],[-73.250208,-38.880634]]]},"properties":{"comuna":"Saavedra","mancha_id":"09116-88ce880b09fffff","clase":"Bajo","nivel_medio":1.414,"nivel_medio_min":1.414,"nivel_medio_max":1.414,"pct_alto":21.7,"n_hexagonos":1,"area_ha":63.46}},{"type":"Feature","geometry":{"type":"Polygon","coordinates":[[[-73.331683,-38.861231],[-73.329892,-38.865705],[-73.32446,-38.867],[-73.320818,-38.863822],[-73.32261,-38.859349],[-73.328042,-38.858053],[-73.331683,-38.861231]]]},"properties":{"comuna":"Saavedra","mancha_id":"09116-88ce880aedfffff","clase":"Bajo","nivel_medio":0.543,"nivel_medio_min":0.543,"nivel_medio_max":0.543,"pct_alto":10.2,"n_hexagonos":1,"area_ha":63.54}},{"type":"Feature","geometry":{"type":"Polygon","coordinates":[[[-73.375217,-38.86298],[-73.380651,-38.861682],[-73.381528,-38.862446],[-73.38145,-38.86251],[-73.38125,-38.86286],[-73.38119,-38.86306],[-73.38105,-38.86412],[-73.38079,-38.86466],[-73.3807,-38.86485],[-73.38058,-38.8653],[-73.38049,-38.86543],[-73.38002,-38.86636],[-73.37996,-38.86654],[-73.37999,-38.86698],[-73.37984,-38.86728],[-73.37948,-38.86783],[-73.37931,-38.86823],[-73.37897,-38.86874],[-73.37849,-38.8692],[-73.37833,-38.86955],[-73.37818,-38.87024],[-73.378096,-38.870389],[-73.377075,-38.870633],[-73.373428,-38.867456],[-73.375217,-38.86298]]]},"properties":{"comuna":"Saavedra","mancha_id":"09116-88ce880ad9fffff","clase":"Bajo","nivel_medio":1.447,"nivel_medio_min":1.447,"nivel_medio_max":1.447,"pct_alto":30.2,"n_hexagonos":1,"area_ha":41.55}},{"type":"Feature","geometry":{"type":"Polygon","coordinates":[[[-73.38058,-38.849554],[-73.386013,-38.848255],[-73.387611,-38.849647],[-73.38746,-38.84995],[-73.38726,-38.85051],[-73.38714,-38.8507],[-73.3867,-38.85139],[-73.38653,-38.85213],[-73.38646,-38.85231],[-73.38629,-38.85255],[-73.38605,-38.85309],[-73.38564,-38.85364],[-73.38548,-38.85397],[-73.3853,-38.85453],[-73.38486,-38.85526],[-73.38461,-38.85622],[-73.38444,-38.85652],[-73.384225,-38.856779],[-73.382439,-38.857206],[-73.378792,-38.85403],[-73.38058,-38.849554]]]},"properties":{"comuna":"Saavedra","mancha_id":"09116-88ce880ad3fffff","clase":"Bajo","nivel_medio":1.192,"nivel_medio_min":1.192,"nivel_medio_max":1.192,"pct_alto":0.4,"n_hexagonos":1,"area_ha":46.59}},{"type":"Feature","geometry":{"type":"Polygon","coordinates":[[[-73.39316,-38.830353],[-73.391373,-38.834829],[-73.393036,-38.836276],[-73.39296,-38.83649],[-73.39258,-38.83743],[-73.39243,-38.83834],[-73.39224,-38.83871],[-73.39199,-38.83911],[-73.39169,-38.84001],[-73.39146,-38.84108],[-73.39134,-38.84131],[-73.39095,-38.84186],[-73.39074,-38.84225],[-73.390444,-38.843147],[-73.3878,-38.84378],[-73.384154,-38.840604],[-73.385941,-38.836128],[-73.382296,-38.832953],[-73.384082,-38.828478],[-73.389514,-38.827178],[-73.3913,-38.822703],[-73.396731,-38.821402],[-73.399149,-38.823508],[-73.39888,-38.8239],[-73.39859,-38.82415],[-73.39614,-38.82895],[-73.39585,-38.829709],[-73.39316,-38.830353]]]},"properties":{"comuna":"Saavedra","mancha_id":"09116-88ce880a93fffff","clase":"Bajo","nivel_medio":1.032,"nivel_medio_min":0.824,"nivel_medio_max":1.209,"pct_alto":11.7,"n_hexagonos":3,"area_ha":165.43}},{"type":"Feature","geometry":{"type":"Polygon","coordinates":[[[-73.330013,-38.889957],[-73.328221,-38.894431],[-73.322785,-38.895726],[-73.319142,-38.892547],[-73.320935,-38.888073],[-73.326369,-38.886778],[-73.330013,-38.889957]]]},"properties":{"comuna":"Saavedra","mancha_id":"09116-88ce880a57fffff","clase":"Bajo","nivel_medio":1.375,"nivel_medio_min":1.375,"nivel_medio_max":1.375,"pct_alto":18.1,"n_hexagonos":1,"area_ha":63.56}},{"type":"Feature","geometry":{"type":"Polygon","coordinates":[[[-73.29925,-38.905376],[-73.297456,-38.909849],[-73.301098,-38.913029],[-73.299303,-38.917503],[-73.302946,-38.920684],[-73.308383,-38.91939],[-73.312027,-38.922571],[-73.317464,-38.921277],[-73.321109,-38.924458],[-73.319316,-38.928933],[-73.313877,-38.930226],[-73.312083,-38.934701],[-73.306644,-38.935994],[-73.303,-38.932813],[-73.304795,-38.928338],[-73.301152,-38.925157],[-73.295714,-38.92645],[-73.292072,-38.923269],[-73.293867,-38.918796],[-73.290225,-38.915615],[-73.29202,-38.911142],[-73.288379,-38.907961],[-73.282944,-38.909254],[-73.279305,-38.906073],[-73.2811,-38.901601],[-73.277461,-38.898421],[-73.279256,-38.893949],[-73.284689,-38.892656],[-73.288328,-38.895836],[-73.286534,-38.900308],[-73.290174,-38.903489],[-73.295609,-38.902196],[-73.29925,-38.905376]]]},"properties":{"comuna":"Saavedra","mancha_id":"09116-88ce880a45fffff","clase":"Bajo","nivel_medio":1.01,"nivel_medio_min":0.62,"nivel_medio_max":1.481,"pct_alto":17.3,"n_hexagonos":8,"area_ha":508.36}},{"type":"Feature","geometry":{"type":"Polygon","coordinates":[[[-73.304631,-38.891956],[-73.302838,-38.896429],[-73.297403,-38.897723],[-73.293763,-38.894543],[-73.295556,-38.89007],[-73.30099,-38.888777],[-73.304631,-38.891956]]]},"properties":{"comuna":"Saavedra","mancha_id":"09116-88ce880a0dfffff","clase":"Bajo","nivel_medio":0.627,"nivel_medio_min":0.627,"nivel_medio_max":0.627,"pct_alto":16.2,"n_hexagonos":1,"area_ha":63.53}},{"type":"Feature","geometry":{"type":"Polygon","coordinates":[[[-73.222835,-38.814391],[-73.217412,-38.815682],[-73.214196,-38.812866],[-73.21724,-38.81221],[-73.224215,-38.810957],[-73.222835,-38.814391]]]},"properties":{"comuna":"Saavedra","mancha_id":"09116-88ce88092bfffff","clase":"Bajo","nivel_medio":1.374,"nivel_medio_min":1.374,"nivel_medio_max":1.374,"pct_alto":3.2,"n_hexagonos":1,"area_ha":25.05}},{"type":"Feature","geometry":{"type":"Polygon","coordinates":[[[-73.251789,-38.815577],[-73.249995,-38.820046],[-73.253626,-38.823222],[-73.259051,-38.82193],[-73.262684,-38.825106],[-73.26089,-38.829576],[-73.255464,-38.830869],[-73.253669,-38.835338],[-73.248243,-38.83663],[-73.244611,-38.833453],[-73.246406,-38.828984],[-73.242775,-38.825807],[-73.24457,-38.821338],[-73.24094,-38.818161],[-73.242734,-38.813693],[-73.248158,-38.8124],[-73.251789,-38.815577]]]},"properties":{"comuna":"Saavedra","mancha_id":"09116-88ce88091dfffff","clase":"Bajo","nivel_medio":1.114,"nivel_medio_min":0.643,"nivel_medio_max":1.447,"pct_alto":18.5,"n_hexagonos":4,"area_ha":253.68}},{"type":"Feature","geometry":{"type":"Polygon","coordinates":[[[-73.327803,-38.809566],[-73.326014,-38.814038],[-73.320586,-38.815335],[-73.316949,-38.81216],[-73.318739,-38.807688],[-73.324166,-38.806391],[-73.327803,-38.809566]]]},"properties":{"comuna":"Saavedra","mancha_id":"09116-88ce8808e9fffff","clase":"Bajo","nivel_medio":1.496,"nivel_medio_min":1.496,"nivel_medio_max":1.496,"pct_alto":14.3,"n_hexagonos":1,"area_ha":63.49}},{"type":"Feature","geometry":{"type":"Polygon","coordinates":[[[-73.344149,-38.817795],[-73.347789,-38.82097],[-73.353218,-38.819672],[-73.35686,-38.822848],[-73.36229,-38.821549],[-73.365932,-38.824725],[-73.364145,-38.829199],[-73.358714,-38.830497],[-73.356926,-38.834971],[-73.351495,-38.836269],[-73.347853,-38.833093],[-73.342423,-38.83439],[-73.338782,-38.831214],[-73.340571,-38.826741],[-73.336931,-38.823565],[-73.331502,-38.824862],[-73.327863,-38.821686],[-73.329652,-38.817214],[-73.33508,-38.815917],[-73.33872,-38.819092],[-73.344149,-38.817795]]]},"properties":{"comuna":"Saavedra","mancha_id":"09116-88ce8808c9fffff","clase":"Bajo","nivel_medio":0.942,"nivel_medio_min":0.551,"nivel_medio_max":1.389,"pct_alto":13.0,"n_hexagonos":6,"area_ha":381.19}},{"type":"Feature","geometry":{"type":"Polygon","coordinates":[[[-73.266362,-38.8404],[-73.264568,-38.844871],[-73.25914,-38.846163],[-73.255507,-38.842985],[-73.257302,-38.838516],[-73.262729,-38.837223],[-73.266362,-38.8404]]]},"properties":{"comuna":"Saavedra","mancha_id":"09116-88ce880865fffff","clase":"Bajo","nivel_medio":1.012,"nivel_medio_min":1.012,"nivel_medio_max":1.012,"pct_alto":15.7,"n_hexagonos":1,"area_ha":63.44}},{"type":"Feature","geometry":{"type":"Polygon","coordinates":[[[-73.317063,-38.8364],[-73.322493,-38.835104],[-73.324283,-38.830631],[-73.329712,-38.829335],[-73.333352,-38.832511],[-73.331562,-38.836984],[-73.335203,-38.84016],[-73.333413,-38.844634],[-73.327982,-38.84593],[-73.326191,-38.850403],[-73.32076,-38.851699],[-73.317121,-38.848521],[-73.318912,-38.844049],[-73.315272,-38.840872],[-73.317063,-38.8364]]]},"properties":{"comuna":"Saavedra","mancha_id":"09116-88ce880853fffff","clase":"Bajo","nivel_medio":1.184,"nivel_medio_min":0.937,"nivel_medio_max":1.465,"pct_alto":17.8,"n_hexagonos":4,"area_ha":254.07}},{"type":"Feature","geometry":{"type":"Polygon","coordinates":[[[-73.313369,-38.821103],[-73.311578,-38.825575],[-73.30615,-38.82687],[-73.302513,-38.823694],[-73.304304,-38.819223],[-73.300668,-38.816047],[-73.302459,-38.811576],[-73.307886,-38.81028],[-73.311522,-38.813456],[-73.309731,-38.817927],[-73.313369,-38.821103]]]},"properties":{"comuna":"Saavedra","mancha_id":"09116-88ce880815fffff","clase":"Bajo","nivel_medio":1.227,"nivel_medio_min":1.151,"nivel_medio_max":1.302,"pct_alto":19.8,"n_hexagonos":2,"area_ha":126.96}},{"type":"Feature","geometry":{"type":"Polygon","coordinates":[[[-73.29893,-38.832637],[-73.297138,-38.837109],[-73.300775,-38.840285],[-73.298984,-38.844757],[-73.293554,-38.846052],[-73.291762,-38.850523],[-73.295399,-38.853701],[-73.293606,-38.858173],[-73.297244,-38.861351],[-73.295451,-38.865823],[-73.29002,-38.867116],[-73.286382,-38.863938],[-73.280952,-38.865231],[-73.277315,-38.862053],[-73.279109,-38.857582],[-73.284539,-38.856288],[-73.286332,-38.851817],[-73.282696,-38.848639],[-73.277266,-38.849933],[-73.273631,-38.846755],[-73.275425,-38.842285],[-73.27179,-38.839107],[-73.273583,-38.834637],[-73.279011,-38.833343],[-73.282646,-38.83652],[-73.280853,-38.840991],[-73.284489,-38.844168],[-73.289917,-38.842874],[-73.29171,-38.838403],[-73.288074,-38.835226],[-73.289866,-38.830755],[-73.286231,-38.827578],[-73.288023,-38.823108],[-73.284388,-38.819931],[-73.28618,-38.815461],[-73.291607,-38.814166],[-73.295242,-38.817342],[-73.29345,-38.821813],[-73.297086,-38.824989],[-73.295294,-38.82946],[-73.29893,-38.832637]]]},"properties":{"comuna":"Saavedra","mancha_id":"09116-88ce880801fffff","clase":"Bajo","nivel_medio":0.992,"nivel_medio_min":0.62,"nivel_medio_max":1.345,"pct_alto":17.1,"n_hexagonos":10,"area_ha":634.77}},{"type":"Feature","geometry":{"type":"Polygon","coordinates":[[[-73.351949,-38.921164],[-73.35374,-38.916688],[-73.356867,-38.915943],[-73.35685,-38.91602],[-73.35669,-38.9164],[-73.35653,-38.91663],[-73.35595,-38.91714],[-73.35574,-38.91759],[-73.35571,-38.91787],[-73.35554,-38.91845],[-73.35523,-38.91919],[-73.35505,-38.91949],[-73.35461,-38.92024],[-73.35449,-38.9207],[-73.35409,-38.92121],[-73.35374,-38.92192],[-73.35353,-38.922543],[-73.351949,-38.921164]]]},"properties":{"comuna":"Saavedra","mancha_id":"09116-88ce880145fffff","clase":"Bajo","nivel_medio":0.547,"nivel_medio_min":0.547,"nivel_medio_max":0.547,"pct_alto":0.0,"n_hexagonos":1,"area_ha":12.81}},{"type":"Feature","geometry":{"type":"Polygon","coordinates":[[[-73.353545,-38.880299],[-73.351754,-38.884774],[-73.346319,-38.88607],[-73.342674,-38.882891],[-73.344465,-38.878417],[-73.340821,-38.875239],[-73.342611,-38.870764],[-73.338968,-38.867586],[-73.340758,-38.863112],[-73.337116,-38.859935],[-73.338906,-38.855461],[-73.344338,-38.854164],[-73.347981,-38.857342],[-73.346191,-38.861816],[-73.349835,-38.864993],[-73.348045,-38.869468],[-73.35169,-38.872646],[-73.3499,-38.87712],[-73.353545,-38.880299]]]},"properties":{"comuna":"Saavedra","mancha_id":"09116-88ce880127fffff","clase":"Bajo","nivel_medio":1.192,"nivel_medio_min":0.833,"nivel_medio_max":1.442,"pct_alto":13.8,"n_hexagonos":4,"area_ha":254.26}},{"type":"Feature","geometry":{"type":"Polygon","coordinates":[[[-73.357322,-38.907737],[-73.359113,-38.903261],[-73.362949,-38.902346],[-73.36284,-38.90289],[-73.36255,-38.90328],[-73.36248,-38.90337],[-73.36215,-38.90388],[-73.36206,-38.90427],[-73.36165,-38.9052],[-73.36139,-38.90593],[-73.36078,-38.90702],[-73.36034,-38.90814],[-73.35957,-38.909696],[-73.357322,-38.907737]]]},"properties":{"comuna":"Saavedra","mancha_id":"09116-88ce88010dfffff","clase":"Bajo","nivel_medio":1.117,"nivel_medio_min":1.117,"nivel_medio_max":1.117,"pct_alto":4.4,"n_hexagonos":1,"area_ha":18.78}},{"type":"Feature","geometry":{"type":"Polygon","coordinates":[[[-73.17147,-38.82237],[-73.175749,-38.821463],[-73.17923,-38.820724],[-73.175828,-38.821533],[-73.174237,-38.825485],[-73.17403,-38.82522],[-73.17337,-38.82467],[-73.17262,-38.82429],[-73.17202,-38.82377],[-73.17164,-38.82318],[-73.17147,-38.82254],[-73.17147,-38.82237]]]},"properties":{"comuna":"Saavedra","mancha_id":"09116-88ce884643fffff","clase":"Medio","nivel_medio":2.01,"nivel_medio_min":1.552,"nivel_medio_max":2.018,"pct_alto":15.1,"n_hexagonos":2,"area_ha":9.04}},{"type":"Feature","geometry":{"type":"Polygon","coordinates":[[[-73.327873,-38.960561],[-73.330374,-38.962743],[-73.328977,-38.966227],[-73.324547,-38.966183],[-73.324892,-38.965949],[-73.32508,-38.96577],[-73.3252,-38.96547],[-73.32523,-38.96513],[-73.32517,-38.96468],[-73.3249,-38.96444],[-73.32469,-38.96419],[-73.32468,-38.96395],[-73.32479,-38.96366],[-73.32516,-38.9634],[-73.3257,-38.96314],[-73.32596,-38.96293],[-73.32622,-38.96255],[-73.32682,-38.96179],[-73.32757,-38.96125],[-73.3279,-38.96084],[-73.327873,-38.960561]]]},"properties":{"comuna":"Saavedra","mancha_id":"09116-88ce8818cbfffff","clase":"Medio","nivel_medio":1.652,"nivel_medio_min":1.652,"nivel_medio_max":1.652,"pct_alto":2.3,"n_hexagonos":1,"area_ha":19.54}},{"type":"Feature","geometry":{"type":"Polygon","coordinates":[[[-73.40455,-38.8085],[-73.404387,-38.809979],[-73.40437,-38.81013],[-73.40375,-38.81222],[-73.40304,-38.81354],[-73.40304,-38.81411],[-73.40279,-38.81473],[-73.40249,-38.8152],[-73.40235,-38.81543],[-73.40202,-38.81605],[-73.402019,-38.816088],[-73.40201,-38.81665],[-73.40191,-38.81732],[-73.40167,-38.81789],[-73.40164,-38.81826],[-73.40156,-38.81857],[-73.40101,-38.81938],[-73.40013,-38.82113],[-73.39988,-38.8215],[-73.39925,-38.82336],[-73.399149,-38.823508],[-73.396731,-38.821402],[-73.398517,-38.816927],[-73.394871,-38.813752],[-73.396657,-38.809277],[-73.393012,-38.806103],[-73.394797,-38.801628],[-73.391153,-38.798454],[-73.392938,-38.79398],[-73.389295,-38.790806],[-73.39108,-38.786332],[-73.396507,-38.785031],[-73.400151,-38.788204],[-73.398367,-38.792679],[-73.402011,-38.795852],[-73.400226,-38.800327],[-73.403871,-38.803501],[-73.406519,-38.802867],[-73.406,-38.80336],[-73.40566,-38.80385],[-73.40544,-38.80428],[-73.40529,-38.80476],[-73.40523,-38.80544],[-73.40504,-38.80623],[-73.40493,-38.80706],[-73.40455,-38.8085]]]},"properties":{"comuna":"Saavedra","mancha_id":"09116-88ce880f01fffff","clase":"Medio","nivel_medio":2.158,"nivel_medio_min":1.514,"nivel_medio_max":2.489,"pct_alto":58.2,"n_hexagonos":6,"area_ha":278.25}},{"type":"Feature","geometry":{"type":"Polygon","coordinates":[[[-73.289866,-38.830755],[-73.288074,-38.835226],[-73.29171,-38.838403],[-73.289917,-38.842874],[-73.284489,-38.844168],[-73.280853,-38.840991],[-73.282646,-38.83652],[-73.279011,-38.833343],[-73.280804,-38.828873],[-73.286231,-38.827578],[-73.289866,-38.830755]]]},"properties":{"comuna":"Saavedra","mancha_id":"09116-88ce880805fffff","clase":"Medio","nivel_medio":2.265,"nivel_medio_min":2.051,"nivel_medio_max":2.478,"pct_alto":39.1,"n_hexagonos":2,"area_ha":126.94}},{"type":"Feature","geometry":{"type":"Polygon","coordinates":[[[-73.362949,-38.902346],[-73.359113,-38.903261],[-73.357322,-38.907737],[-73.35957,-38.909696],[-73.35937,-38.9101],[-73.35921,-38.91055],[-73.35906,-38.91124],[-73.35856,-38.91234],[-73.35824,-38.91292],[-73.35796,-38.91329],[-73.35761,-38.91365],[-73.35741,-38.91398],[-73.35727,-38.91453],[-73.35717,-38.91491],[-73.35697,-38.91547],[-73.356867,-38.915943],[-73.35374,-38.916688],[-73.351949,-38.921164],[-73.35353,-38.922543],[-73.35341,-38.9229],[-73.35323,-38.92318],[-73.35292,-38.92352],[-73.3529,-38.92361],[-73.35272,-38.92393],[-73.35257,-38.92449],[-73.35226,-38.92522],[-73.35175,-38.92599],[-73.35143,-38.92676],[-73.35103,-38.92731],[-73.35079,-38.928],[-73.35031,-38.9289],[-73.35015,-38.92926],[-73.349838,-38.929766],[-73.348366,-38.930116],[-73.346574,-38.934592],[-73.347127,-38.935074],[-73.34679,-38.93558],[-73.346,-38.93678],[-73.34591,-38.937],[-73.34586,-38.93751],[-73.3458,-38.93764],[-73.34551,-38.93793],[-73.34513,-38.93851],[-73.34463,-38.93911],[-73.34448,-38.9398],[-73.34434,-38.94019],[-73.34353,-38.94141],[-73.34298,-38.94253],[-73.34272,-38.94329],[-73.342713,-38.943303],[-73.34223,-38.94416],[-73.34173,-38.94493],[-73.34156,-38.94527],[-73.34145,-38.94565],[-73.34139,-38.94619],[-73.34132,-38.94639],[-73.34081,-38.94697],[-73.34014,-38.94807],[-73.340039,-38.948296],[-73.33922,-38.95013],[-73.339,-38.95034],[-73.33897,-38.95042],[-73.33863,-38.95071],[-73.33842,-38.95103],[-73.3383,-38.9514],[-73.33819,-38.95195],[-73.33776,-38.95286],[-73.33751,-38.95323],[-73.33734,-38.95358],[-73.33656,-38.95545],[-73.336338,-38.955864],[-73.333961,-38.953791],[-73.3289,-38.954994],[-73.32877,-38.95452],[-73.3281,-38.95322],[-73.32737,-38.95242],[-73.32621,-38.95205],[-73.324965,-38.951672],[-73.326666,-38.947427],[-73.332107,-38.946133],[-73.3339,-38.941657],[-73.330253,-38.938476],[-73.332046,-38.934001],[-73.337486,-38.932706],[-73.339279,-38.928231],[-73.335632,-38.92505],[-73.337424,-38.920575],[-73.333778,-38.917394],[-73.32834,-38.918689],[-73.326547,-38.923164],[-73.330193,-38.926345],[-73.3284,-38.93082],[-73.322961,-38.932114],[-73.321167,-38.936589],[-73.315728,-38.937882],[-73.312083,-38.934701],[-73.313877,-38.930226],[-73.319316,-38.928933],[-73.321109,-38.924458],[-73.317464,-38.921277],[-73.319258,-38.916803],[-73.315614,-38.913623],[-73.310177,-38.914916],[-73.306534,-38.911736],[-73.301098,-38.913029],[-73.297456,-38.909849],[-73.29925,-38.905376],[-73.295609,-38.902196],[-73.290174,-38.903489],[-73.286534,-38.900308],[-73.288328,-38.895836],[-73.293763,-38.894543],[-73.297403,-38.897723],[-73.302838,-38.896429],[-73.304631,-38.891956],[-73.310065,-38.890662],[-73.313707,-38.893841],[-73.311914,-38.898315],[-73.306479,-38.899609],[-73.304686,-38.904082],[-73.308328,-38.907262],[-73.313764,-38.905968],[-73.317407,-38.909148],[-73.322844,-38.907854],[-73.324636,-38.90338],[-73.330073,-38.902085],[-73.331865,-38.897611],[-73.328221,-38.894431],[-73.330013,-38.889957],[-73.326369,-38.886778],[-73.328161,-38.882304],[-73.333595,-38.881009],[-73.337239,-38.884187],[-73.342674,-38.882891],[-73.346319,-38.88607],[-73.351754,-38.884774],[-73.353545,-38.880299],[-73.3499,-38.87712],[-73.35169,-38.872646],[-73.348045,-38.869468],[-73.349835,-38.864993],[-73.346191,-38.861816],[-73.347981,-38.857342],[-73.344338,-38.854164],[-73.338906,-38.855461],[-73.335264,-38.852284],[-73.329832,-38.85358],[-73.326191,-38.850403],[-73.327982,-38.84593],[-73.333413,-38.844634],[-73.335203,-38.84016],[-73.331562,-38.836984],[-73.333352,-38.832511],[-73.329712,-38.829335],[-73.324283,-38.830631],[-73.322493,-38.835104],[-73.317063,-38.8364],[-73.315272,-38.840872],[-73.309843,-38.842167],[-73.308051,-38.84664],[-73.302621,-38.847934],[-73.300829,-38.852406],[-73.295399,-38.853701],[-73.291762,-38.850523],[-73.293554,-38.846052],[-73.298984,-38.844757],[-73.300775,-38.840285],[-73.297138,-38.837109],[-73.29893,-38.832637],[-73.295294,-38.82946],[-73.297086,-38.824989],[-73.302513,-38.823694],[-73.30615,-38.82687],[-73.304359,-38.831342],[-73.307996,-38.834519],[-73.313425,-38.833223],[-73.315216,-38.828751],[-73.311578,-38.825575],[-73.313369,-38.821103],[-73.318796,-38.819807],[-73.322434,-38.822983],[-73.327863,-38.821686],[-73.331502,-38.824862],[-73.336931,-38.823565],[-73.340571,-38.826741],[-73.338782,-38.831214],[-73.342423,-38.83439],[-73.347853,-38.833093],[-73.351495,-38.836269],[-73.356926,-38.834971],[-73.360569,-38.838147],[-73.358781,-38.842622],[-73.362424,-38.845798],[-73.367857,-38.8445],[-73.371501,-38.847676],[-73.376934,-38.846378],[-73.378722,-38.841903],[-73.375077,-38.838727],[-73.369644,-38.840025],[-73.366,-38.836849],[-73.367788,-38.832375],[-73.364145,-38.829199],[-73.365932,-38.824725],[-73.36229,-38.821549],[-73.35686,-38.822848],[-73.353218,-38.819672],[-73.347789,-38.82097],[-73.344149,-38.817795],[-73.33872,-38.819092],[-73.33508,-38.815917],[-73.329652,-38.817214],[-73.326014,-38.814038],[-73.327803,-38.809566],[-73.324166,-38.806391],[-73.318739,-38.807688],[-73.316949,-38.81216],[-73.311522,-38.813456],[-73.307886,-38.81028],[-73.302459,-38.811576],[-73.300668,-38.816047],[-73.295242,-38.817342],[-73.291607,-38.814166],[-73.293398,-38.809696],[-73.289764,-38.80652],[-73.284338,-38.807815],[-73.282547,-38.812285],[-73.28618,-38.815461],[-73.284388,-38.819931],[-73.278962,-38.821226],[-73.277169,-38.825696],[-73.271743,-38.82699],[-73.26995,-38.83146],[-73.264523,-38.832753],[-73.26089,-38.829576],[-73.262684,-38.825106],[-73.259051,-38.82193],[-73.253626,-38.823222],[-73.249995,-38.820046],[-73.251789,-38.815577],[-73.248158,-38.8124],[-73.242734,-38.813693],[-73.24094,-38.818161],[-73.24457,-38.821338],[-73.242775,-38.825807],[-73.246406,-38.828984],[-73.244611,-38.833453],[-73.248243,-38.83663],[-73.253669,-38.835338],[-73.257302,-38.838516],[-73.255507,-38.842985],[-73.25914,-38.846163],[-73.257346,-38.850633],[-73.26098,-38.853811],[-73.259185,-38.858282],[-73.262819,-38.86146],[-73.261025,-38.865931],[-73.26466,-38.869109],[-73.262865,-38.87358],[-73.266501,-38.876759],[-73.264706,-38.881231],[-73.259274,-38.882522],[-73.257478,-38.886993],[-73.252046,-38.888285],[-73.25025,-38.892755],[-73.244818,-38.894046],[-73.243021,-38.898517],[-73.246657,-38.901697],[-73.244859,-38.906168],[-73.248496,-38.909349],[-73.253929,-38.908058],[-73.255726,-38.903587],[-73.26116,-38.902296],[-73.264797,-38.905476],[-73.263001,-38.909948],[-73.266639,-38.913129],[-73.272074,-38.911838],[-73.275714,-38.915018],[-73.273918,-38.919491],[-73.277558,-38.922672],[-73.275762,-38.927145],[-73.270325,-38.928436],[-73.268529,-38.932909],[-73.263092,-38.9342],[-73.261863,-38.937257],[-73.26062,-38.93723],[-73.25836,-38.93749],[-73.25829,-38.9375],[-73.25822,-38.93755],[-73.25777,-38.93769],[-73.25721,-38.93774],[-73.25666,-38.93824],[-73.25664,-38.93826],[-73.25654,-38.93862],[-73.25646,-38.93872],[-73.2559,-38.93918],[-73.25555,-38.93948],[-73.255506,-38.939655],[-73.25544,-38.93992],[-73.25526,-38.94016],[-73.25523,-38.94022],[-73.25485,-38.94043],[-73.25455,-38.9407],[-73.25443,-38.94097],[-73.25462,-38.9412],[-73.2546,-38.9414],[-73.25418,-38.94152],[-73.25371,-38.94165],[-73.25359,-38.94177],[-73.25356,-38.94192],[-73.25371,-38.94208],[-73.25378,-38.94219],[-73.25366,-38.94241],[-73.25372,-38.94259],[-73.2536,-38.94278],[-73.25352,-38.94296],[-73.25359,-38.94312],[-73.25357,-38.94337],[-73.25349,-38.94365],[-73.25334,-38.94391],[-73.25321,-38.94418],[-73.25318,-38.94445],[-73.25294,-38.94467],[-73.25255,-38.94466],[-73.25189,-38.94487],[-73.25168,-38.94497],[-73.251698,-38.944995],[-73.25176,-38.94508],[-73.25193,-38.94521],[-73.25191,-38.94536],[-73.25174,-38.94555],[-73.2515,-38.94579],[-73.2513,-38.94609],[-73.25107,-38.94635],[-73.25075,-38.94676],[-73.25056,-38.94714],[-73.25037,-38.94754],[-73.25023,-38.9479],[-73.25,-38.94814],[-73.25,-38.94814],[-73.24986,-38.94829],[-73.24946,-38.94864],[-73.24889,-38.94895],[-73.24833,-38.94923],[-73.24762,-38.94938],[-73.24715,-38.949386],[-73.24683,-38.94939],[-73.24595,-38.94928],[-73.24533,-38.94927],[-73.24465,-38.94978],[-73.24375,-38.95035],[-73.2425,-38.951],[-73.242112,-38.951313],[-73.241464,-38.951467],[-73.24134,-38.95142],[-73.241304,-38.951413],[-73.24107,-38.95137],[-73.24083,-38.95144],[-73.24005,-38.95194],[-73.2388,-38.95232],[-73.23729,-38.95268],[-73.23685,-38.95264],[-73.23622,-38.95221],[-73.23599,-38.95212],[-73.23539,-38.95213],[-73.2351,-38.95211],[-73.23495,-38.95196],[-73.23466,-38.95189],[-73.23426,-38.95195],[-73.23379,-38.9523],[-73.23357,-38.95252],[-73.23289,-38.95286],[-73.23184,-38.95363],[-73.23081,-38.95421],[-73.230736,-38.954259],[-73.230512,-38.954063],[-73.225074,-38.955351],[-73.223469,-38.959338],[-73.22299,-38.95979],[-73.222676,-38.959964],[-73.217837,-38.96111],[-73.2142,-38.957927],[-73.209305,-38.959086],[-73.20928,-38.95908],[-73.20873,-38.95861],[-73.20739,-38.95727],[-73.20699,-38.95685],[-73.20679,-38.95607],[-73.20669,-38.95585],[-73.20649,-38.95566],[-73.20614,-38.95552],[-73.20565,-38.95536],[-73.20547,-38.95518],[-73.2054,-38.95511],[-73.20529,-38.95461],[-73.20508,-38.95434],[-73.20431,-38.95392],[-73.20332,-38.9532],[-73.20295,-38.95291],[-73.20272,-38.95252],[-73.20256,-38.95223],[-73.20219,-38.95191],[-73.20115,-38.95141],[-73.20025,-38.95077],[-73.19992,-38.95047],[-73.198889,-38.949419],[-73.19885,-38.94938],[-73.197227,-38.94911],[-73.196886,-38.949053],[-73.196899,-38.948822],[-73.196922,-38.948407],[-73.19673,-38.94805],[-73.1966,-38.9478],[-73.19635,-38.94722],[-73.19596,-38.94663],[-73.19557,-38.94575],[-73.19554,-38.94546],[-73.19537,-38.94484],[-73.19522,-38.94464],[-73.19503,-38.944483],[-73.19493,-38.9444],[-73.19464,-38.94425],[-73.1945,-38.94415],[-73.19398,-38.9438],[-73.19368,-38.94363],[-73.19307,-38.94292],[-73.19183,-38.94173],[-73.19106,-38.94111],[-73.18989,-38.94042],[-73.18941,-38.9401],[-73.18912,-38.93971],[-73.189078,-38.939612],[-73.18891,-38.93922],[-73.18874,-38.93889],[-73.18875,-38.93843],[-73.18874,-38.93838],[-73.18861,-38.93784],[-73.18832,-38.9375],[-73.18785,-38.93716],[-73.18731,-38.93695],[-73.18749,-38.93675],[-73.18753,-38.93663],[-73.18746,-38.93649],[-73.18716,-38.93631],[-73.18646,-38.93601],[-73.18602,-38.93565],[-73.18588,-38.93544],[-73.18555,-38.93512],[-73.18518,-38.93503],[-73.184103,-38.935006],[-73.18384,-38.935],[-73.18322,-38.93486],[-73.18284,-38.93468],[-73.18284,-38.93467],[-73.18241,-38.93405],[-73.18219,-38.93384],[-73.18195,-38.93326],[-73.18192,-38.93288],[-73.18197,-38.93256],[-73.18197,-38.93183],[-73.18221,-38.93107],[-73.18222,-38.93093],[-73.182563,-38.93078],[-73.182798,-38.930418],[-73.182813,-38.930396],[-73.18352,-38.92919],[-73.18396,-38.92847],[-73.18412,-38.92779],[-73.18393,-38.92626],[-73.18389,-38.925721],[-73.183905,-38.92547],[-73.184053,-38.92519],[-73.184488,-38.924529],[-73.18452,-38.92448],[-73.18546,-38.9231],[-73.18585,-38.92217],[-73.1861,-38.92124],[-73.18607,-38.92065],[-73.18589,-38.91977],[-73.18575,-38.919426],[-73.18555,-38.9191],[-73.18529,-38.91844],[-73.18522,-38.91784],[-73.18528,-38.91727],[-73.185384,-38.916618],[-73.185455,-38.916275],[-73.185442,-38.916219],[-73.18536,-38.91588],[-73.18499,-38.91503],[-73.18483,-38.91438],[-73.18487,-38.9135],[-73.18506,-38.91113],[-73.18522,-38.91052],[-73.185466,-38.910133],[-73.18568,-38.9099],[-73.185916,-38.909499],[-73.18601,-38.90934],[-73.186039,-38.90907],[-73.186042,-38.909047],[-73.185935,-38.908753],[-73.185372,-38.90748],[-73.18496,-38.90655],[-73.184653,-38.905847],[-73.184417,-38.905438],[-73.184118,-38.905008],[-73.1839,-38.90449],[-73.183778,-38.903428],[-73.183848,-38.902945],[-73.183984,-38.902438],[-73.184073,-38.901891],[-73.184082,-38.901308],[-73.18409,-38.90081],[-73.184136,-38.900533],[-73.18426,-38.90032],[-73.18434,-38.90022],[-73.18444,-38.90011],[-73.1842,-38.8997],[-73.18413,-38.89935],[-73.18416,-38.8991],[-73.18455,-38.89832],[-73.18458,-38.89733],[-73.18475,-38.8969],[-73.184731,-38.896881],[-73.185044,-38.896104],[-73.184007,-38.895195],[-73.18412,-38.89499],[-73.18421,-38.89444],[-73.18377,-38.89394],[-73.18349,-38.89335],[-73.18349,-38.89305],[-73.182454,-38.890345],[-73.18228,-38.88989],[-73.182651,-38.889857],[-73.18329,-38.8898],[-73.18443,-38.88997],[-73.18661,-38.89024],[-73.18668,-38.89022],[-73.18571,-38.88818],[-73.185524,-38.887908],[-73.18545,-38.8878],[-73.18496,-38.88674],[-73.18453,-38.88604],[-73.18415,-38.88498],[-73.18383,-38.88428],[-73.18365,-38.8841],[-73.18354,-38.88393],[-73.18347,-38.88321],[-73.18339,-38.88253],[-73.18297,-38.88147],[-73.1829,-38.88118],[-73.18309,-38.88095],[-73.18352,-38.88043],[-73.183614,-38.880279],[-73.18395,-38.87974],[-73.18417,-38.87924],[-73.1847,-38.87801],[-73.18481,-38.87731],[-73.18492,-38.87661],[-73.18512,-38.87609],[-73.18531,-38.87586],[-73.1854,-38.87556],[-73.18546,-38.87486],[-73.18527,-38.87424],[-73.18552,-38.8736],[-73.18565,-38.8729],[-73.185637,-38.872441],[-73.18563,-38.8722],[-73.18538,-38.8715],[-73.185326,-38.871031],[-73.186141,-38.869008],[-73.18642,-38.86872],[-73.18701,-38.86825],[-73.18703,-38.86823],[-73.18856,-38.86725],[-73.18919,-38.86684],[-73.189209,-38.866829],[-73.19074,-38.86599],[-73.19123,-38.86554],[-73.19154,-38.86519],[-73.19235,-38.86388],[-73.1924,-38.86346],[-73.19237,-38.86311],[-73.19211,-38.86231],[-73.19219,-38.86189],[-73.19253,-38.86136],[-73.19276,-38.8609],[-73.19292,-38.86069],[-73.19311,-38.86044],[-73.19334,-38.86021],[-73.19395,-38.85944],[-73.19423,-38.85919],[-73.19478,-38.85888],[-73.191141,-38.856592],[-73.1909,-38.85644],[-73.18696,-38.85628],[-73.18595,-38.8562],[-73.18517,-38.85573],[-73.18387,-38.85508],[-73.18262,-38.85441],[-73.182248,-38.854307],[-73.18204,-38.85425],[-73.1812,-38.85413],[-73.18031,-38.85427],[-73.17904,-38.85468],[-73.17893,-38.85461],[-73.1787,-38.85443],[-73.17784,-38.8538],[-73.17736,-38.85345],[-73.176012,-38.849762],[-73.17422,-38.84486],[-73.173233,-38.842343],[-73.17156,-38.83808],[-73.178904,-38.836316],[-73.18072,-38.83588],[-73.17998,-38.83538],[-73.17969,-38.83528],[-73.17945,-38.83522],[-73.17821,-38.83533],[-73.177664,-38.835229],[-73.17756,-38.83521],[-73.17721,-38.83496],[-73.177089,-38.834725],[-73.17665,-38.83387],[-73.176178,-38.832841],[-73.177654,-38.829176],[-73.183076,-38.827888],[-73.184875,-38.823421],[-73.181298,-38.820286],[-73.18453,-38.8196],[-73.1916,-38.81791],[-73.19122,-38.816899],[-73.19086,-38.81594],[-73.198481,-38.813981],[-73.20432,-38.81248],[-73.20465,-38.81332],[-73.207158,-38.812741],[-73.20924,-38.81226],[-73.209728,-38.813471],[-73.20986,-38.8138],[-73.214196,-38.812866],[-73.217412,-38.815682],[-73.222835,-38.814391],[-73.224215,-38.810957],[-73.22542,-38.81074],[-73.225082,-38.809816],[-73.22255,-38.802898],[-73.22232,-38.80227],[-73.222085,-38.801655],[-73.22162,-38.80044],[-73.22178,-38.8002],[-73.22224,-38.79989],[-73.2241,-38.79889],[-73.22615,-38.79794],[-73.22706,-38.79749],[-73.2275,-38.79744],[-73.22776,-38.79747],[-73.22841,-38.79782],[-73.22912,-38.79825],[-73.229295,-38.798314],[-73.22978,-38.79849],[-73.23008,-38.79858],[-73.2306,-38.79859],[-73.23105,-38.79845],[-73.23146,-38.7982],[-73.23211,-38.79768],[-73.23263,-38.79769],[-73.23293,-38.79775],[-73.23411,-38.79783],[-73.23471,-38.79778],[-73.23561,-38.79768],[-73.23635,-38.79757],[-73.2368,-38.79752],[-73.23725,-38.7975],[-73.23754,-38.79753],[-73.23784,-38.79762],[-73.238521,-38.797928],[-73.23857,-38.79795],[-73.23879,-38.7981],[-73.23905,-38.79819],[-73.23931,-38.79834],[-73.23932,-38.798343],[-73.24012,-38.79862],[-73.24027,-38.79868],[-73.24049,-38.79874],[-73.2416,-38.79876],[-73.24288,-38.79843],[-73.24318,-38.79837],[-73.24344,-38.79832],[-73.2437,-38.79832],[-73.24408,-38.79842],[-73.24528,-38.79873],[-73.2459,-38.79897],[-73.246,-38.79866],[-73.24606,-38.798488],[-73.24614,-38.79826],[-73.24621,-38.7978],[-73.24602,-38.7974],[-73.24601,-38.79719],[-73.24615,-38.79655],[-73.24644,-38.79548],[-73.24706,-38.79413],[-73.24707,-38.79378],[-73.2469,-38.79313],[-73.246595,-38.792568],[-73.24615,-38.79175],[-73.24576,-38.79107],[-73.24572,-38.7905],[-73.24609,-38.78998],[-73.24667,-38.78975],[-73.24743,-38.78964],[-73.24817,-38.78938],[-73.24863,-38.78868],[-73.24877,-38.78804],[-73.2483,-38.78722],[-73.24835,-38.78687],[-73.24935,-38.7857],[-73.25,-38.7854],[-73.25,-38.7854],[-73.25038,-38.78522],[-73.251244,-38.784911],[-73.25147,-38.78483],[-73.25254,-38.78463],[-73.25288,-38.78468],[-73.25312,-38.78464],[-73.25396,-38.78424],[-73.25461,-38.78367],[-73.25511,-38.78323],[-73.25526,-38.78315],[-73.25541,-38.78312],[-73.25562,-38.78314],[-73.256,-38.78327],[-73.25689,-38.78367],[-73.25715,-38.78366],[-73.25738,-38.78357],[-73.25767,-38.78311],[-73.25819,-38.78239],[-73.25839,-38.78223],[-73.25878,-38.7821],[-73.25932,-38.78206],[-73.25972,-38.78198],[-73.26047,-38.78136],[-73.260654,-38.781259],[-73.2608,-38.78118],[-73.26147,-38.78097],[-73.26189,-38.78092],[-73.26286,-38.78094],[-73.262718,-38.78064],[-73.26248,-38.78014],[-73.26258,-38.77975],[-73.26187,-38.77782],[-73.26162,-38.77714],[-73.261,-38.77542],[-73.2608,-38.7746],[-73.2608,-38.77372],[-73.260486,-38.773092],[-73.26048,-38.77308],[-73.2603,-38.7726],[-73.2603,-38.77201],[-73.26026,-38.77183],[-73.25994,-38.77106],[-73.25975,-38.77033],[-73.25946,-38.7698],[-73.25892,-38.76901],[-73.2585,-38.76783],[-73.25791,-38.76671],[-73.25771,-38.76628],[-73.257464,-38.765733],[-73.25696,-38.76461],[-73.25528,-38.76086],[-73.25468,-38.76064],[-73.25499,-38.76004],[-73.25498,-38.75926],[-73.254889,-38.758972],[-73.25452,-38.7578],[-73.25431,-38.75745],[-73.254332,-38.757432],[-73.25458,-38.75723],[-73.25487,-38.75686],[-73.25491,-38.7567],[-73.25502,-38.75623],[-73.25503,-38.75569],[-73.252854,-38.751829],[-73.252436,-38.751086],[-73.25196,-38.75],[-73.25196,-38.75],[-73.251407,-38.748837],[-73.25049,-38.74691],[-73.250216,-38.746193],[-73.25,-38.74563],[-73.2493,-38.7438],[-73.24804,-38.7406],[-73.247741,-38.739778],[-73.24745,-38.73898],[-73.24716,-38.73849],[-73.24712,-38.7383],[-73.24684,-38.73779],[-73.24671,-38.73737],[-73.24655,-38.73714],[-73.24638,-38.73691],[-73.24606,-38.73637],[-73.24513,-38.73367],[-73.24443,-38.73256],[-73.244387,-38.732502],[-73.24386,-38.7318],[-73.24353,-38.73099],[-73.24346,-38.73],[-73.24342,-38.72918],[-73.24363,-38.72862],[-73.24365,-38.72788],[-73.24332,-38.72742],[-73.24294,-38.72694],[-73.24281,-38.72634],[-73.24279,-38.72562],[-73.24314,-38.72479],[-73.243185,-38.724713],[-73.24424,-38.72446],[-73.245308,-38.721797],[-73.24544,-38.7218],[-73.24584,-38.72194],[-73.24609,-38.72197],[-73.24638,-38.72185],[-73.24694,-38.72179],[-73.24723,-38.7218],[-73.24773,-38.72192],[-73.24807,-38.7221],[-73.24882,-38.72212],[-73.24936,-38.72227],[-73.24997,-38.72241],[-73.25,-38.72241],[-73.25,-38.72241],[-73.25067,-38.72245],[-73.25149,-38.72234],[-73.25226,-38.72221],[-73.25254,-38.72212],[-73.25293,-38.72217],[-73.25322,-38.72228],[-73.25386,-38.72236],[-73.2542,-38.72234],[-73.25466,-38.72218],[-73.255052,-38.721855],[-73.25507,-38.72184],[-73.25539,-38.72162],[-73.25568,-38.72148],[-73.25758,-38.72108],[-73.25799,-38.72082],[-73.25818,-38.72056],[-73.25849,-38.72009],[-73.25887,-38.7197],[-73.2592,-38.71944],[-73.25957,-38.71927],[-73.25986,-38.71928],[-73.2606,-38.71937],[-73.26077,-38.71939],[-73.26099,-38.71932],[-73.26165,-38.71911],[-73.26242,-38.71895],[-73.26279,-38.71877],[-73.26365,-38.71819],[-73.26399,-38.71772],[-73.26441,-38.71694],[-73.26448,-38.71661],[-73.26456,-38.7163],[-73.26478,-38.71606],[-73.26529,-38.71575],[-73.266447,-38.715111],[-73.26663,-38.71501],[-73.26736,-38.71451],[-73.26774,-38.71403],[-73.26819,-38.71328],[-73.26864,-38.712446],[-73.26886,-38.71204],[-73.26915,-38.71131],[-73.26923,-38.71099],[-73.269228,-38.710979],[-73.26919,-38.71074],[-73.26898,-38.7103],[-73.26887,-38.709811],[-73.26887,-38.70981],[-73.26876,-38.70948],[-73.26829,-38.70865],[-73.26829,-38.70753],[-73.2683,-38.70728],[-73.26865,-38.70652],[-73.26866,-38.70599],[-73.26858,-38.70557],[-73.26846,-38.70503],[-73.26842,-38.70475],[-73.26853,-38.70414],[-73.26893,-38.70359],[-73.26911,-38.70328],[-73.26922,-38.70278],[-73.26934,-38.70239],[-73.269478,-38.70227],[-73.26958,-38.70218],[-73.26981,-38.70205],[-73.27078,-38.70178],[-73.27146,-38.7016],[-73.273112,-38.701282],[-73.27364,-38.70118],[-73.27448,-38.70089],[-73.27479,-38.7008],[-73.27537,-38.70067],[-73.27569,-38.70062],[-73.27585,-38.70056],[-73.27659,-38.70032],[-73.27807,-38.6998],[-73.27843,-38.69962],[-73.27857,-38.6995],[-73.27953,-38.69864],[-73.280984,-38.698307],[-73.282805,-38.698276],[-73.283221,-38.698234],[-73.283889,-38.698818],[-73.287405,-38.697976],[-73.289778,-38.697936],[-73.292931,-38.700691],[-73.298346,-38.699394],[-73.299439,-38.696661],[-73.30033,-38.69654],[-73.307262,-38.695124],[-73.309177,-38.696798],[-73.314592,-38.695499],[-73.318222,-38.698669],[-73.323638,-38.69737],[-73.327268,-38.70054],[-73.332685,-38.69924],[-73.334326,-38.695131],[-73.33586,-38.69524],[-73.342279,-38.695559],[-73.343519,-38.69664],[-73.345868,-38.696076],[-73.347016,-38.696258],[-73.349434,-38.69725],[-73.35224,-38.698699],[-73.352429,-38.698858],[-73.350784,-38.70298],[-73.345366,-38.70428],[-73.343581,-38.70875],[-73.347215,-38.711921],[-73.34543,-38.716391],[-73.349064,-38.719562],[-73.347278,-38.724032],[-73.341859,-38.725332],[-73.340073,-38.729803],[-73.343707,-38.732974],[-73.341921,-38.737445],[-73.345556,-38.740617],[-73.34377,-38.745088],[-73.347406,-38.74826],[-73.352828,-38.74696],[-73.356465,-38.750132],[-73.36,-38.749285],[-73.360888,-38.75],[-73.361271,-38.750308],[-73.36315,-38.75113],[-73.364946,-38.751499],[-73.365525,-38.752004],[-73.36374,-38.756476],[-73.367379,-38.759649],[-73.372803,-38.758348],[-73.374588,-38.753876],[-73.377999,-38.753057],[-73.380774,-38.75324],[-73.383651,-38.755747],[-73.389076,-38.754445],[-73.392717,-38.757617],[-73.398142,-38.756315],[-73.399925,-38.751842],[-73.40535,-38.750539],[-73.408992,-38.753711],[-73.407209,-38.758185],[-73.410852,-38.761357],[-73.409069,-38.765831],[-73.412713,-38.769004],[-73.41093,-38.773478],[-73.405503,-38.77478],[-73.401859,-38.771608],[-73.396433,-38.772909],[-73.394649,-38.777384],[-73.389222,-38.778685],[-73.387437,-38.783159],[-73.38201,-38.784459],[-73.380224,-38.788933],[-73.383867,-38.792107],[-73.382081,-38.796581],[-73.376653,-38.797881],[-73.374867,-38.802355],[-73.378509,-38.805529],[-73.376723,-38.810003],[-73.371294,-38.811303],[-73.367652,-38.808128],[-73.362223,-38.809427],[-73.360435,-38.813901],[-73.364077,-38.817076],[-73.369507,-38.815777],[-73.37315,-38.818952],[-73.37858,-38.817652],[-73.382224,-38.820827],[-73.387655,-38.819528],[-73.3913,-38.822703],[-73.389514,-38.827178],[-73.384082,-38.828478],[-73.382296,-38.832953],[-73.385941,-38.836128],[-73.384154,-38.840604],[-73.3878,-38.84378],[-73.386013,-38.848255],[-73.38058,-38.849554],[-73.378792,-38.85403],[-73.382439,-38.857206],[-73.380651,-38.861682],[-73.375217,-38.86298],[-73.373428,-38.867456],[-73.377075,-38.870633],[-73.375287,-38.875109],[-73.3759,-38.875643],[-73.37571,-38.87596],[-73.37485,-38.87711],[-73.37482,-38.8774],[-73.37474,-38.87759],[-73.37438,-38.87794],[-73.37423,-38.87816],[-73.37415,-38.8787],[-73.37404,-38.87883],[-73.37401,-38.8789],[-73.37391,-38.87909],[-73.37383,-38.87978],[-73.37373,-38.87993],[-73.37362,-38.88002],[-73.37357,-38.88011],[-73.37333,-38.88036],[-73.37309,-38.88076],[-73.3722,-38.88271],[-73.37188,-38.88319],[-73.3718,-38.88332],[-73.371502,-38.88388],[-73.368062,-38.880882],[-73.369851,-38.876407],[-73.366204,-38.873229],[-73.360769,-38.874526],[-73.35898,-38.879002],[-73.362626,-38.88218],[-73.360836,-38.886655],[-73.364483,-38.889834],[-73.368848,-38.888792],[-73.36856,-38.88954],[-73.368,-38.89033],[-73.36785,-38.89066],[-73.36778,-38.89123],[-73.36759,-38.89191],[-73.3674,-38.89231],[-73.36734,-38.89251],[-73.36705,-38.89305],[-73.36682,-38.89397],[-73.36642,-38.89472],[-73.36627,-38.89509],[-73.365569,-38.896816],[-73.36545,-38.89711],[-73.36524,-38.89799],[-73.36501,-38.89851],[-73.36461,-38.89894],[-73.36433,-38.89934],[-73.36408,-38.89987],[-73.36381,-38.90058],[-73.36365,-38.90118],[-73.36351,-38.90142],[-73.36347,-38.9015],[-73.363,-38.90209],[-73.362949,-38.902346]],[[-73.341008,-38.911624],[-73.3428,-38.907149],[-73.339154,-38.903969],[-73.333717,-38.905265],[-73.331925,-38.909739],[-73.335571,-38.912919],[-73.341008,-38.911624]],[[-73.269903,-38.819343],[-73.275329,-38.818049],[-73.277121,-38.813579],[-73.273488,-38.810403],[-73.275281,-38.805934],[-73.271648,-38.802758],[-73.266224,-38.804052],[-73.264431,-38.808521],[-73.259007,-38.809815],[-73.257214,-38.814284],[-73.260845,-38.81746],[-73.26627,-38.816167],[-73.269903,-38.819343]],[[-73.33317,-38.79615],[-73.329532,-38.792976],[-73.324107,-38.794273],[-73.322318,-38.798745],[-73.325955,-38.801919],[-73.331381,-38.800622],[-73.33317,-38.79615]],[[-73.235516,-38.819453],[-73.231887,-38.816277],[-73.226463,-38.817568],[-73.224667,-38.822036],[-73.228296,-38.825213],[-73.23372,-38.823922],[-73.235516,-38.819453]],[[-73.232002,-38.852621],[-73.226575,-38.853912],[-73.224778,-38.858381],[-73.228409,-38.861559],[-73.233837,-38.860269],[-73.235634,-38.855799],[-73.232002,-38.852621]],[[-73.248369,-38.872984],[-73.246573,-38.877455],[-73.241143,-38.878746],[-73.239346,-38.883216],[-73.24298,-38.886396],[-73.248411,-38.885105],[-73.250208,-38.880634],[-73.255639,-38.879343],[-73.257434,-38.874872],[-73.253799,-38.871693],[-73.248369,-38.872984]],[[-73.251918,-38.851925],[-73.248285,-38.848747],[-73.242857,-38.850039],[-73.241061,-38.854508],[-73.244694,-38.857687],[-73.250122,-38.856395],[-73.251918,-38.851925]],[[-73.241264,-38.91511],[-73.237629,-38.911929],[-73.232195,-38.913219],[-73.230397,-38.917689],[-73.234032,-38.920871],[-73.239467,-38.919581],[-73.241264,-38.91511]],[[-73.204899,-38.871187],[-73.20127,-38.868007],[-73.195842,-38.869296],[-73.194043,-38.873764],[-73.197672,-38.876944],[-73.203101,-38.875655],[-73.204899,-38.871187]],[[-73.314705,-38.719716],[-73.311075,-38.716545],[-73.305657,-38.717843],[-73.30387,-38.722312],[-73.298452,-38.723609],[-73.294823,-38.720438],[-73.289406,-38.721735],[-73.287617,-38.726203],[-73.291246,-38.729375],[-73.296664,-38.728078],[-73.300294,-38.73125],[-73.305712,-38.729952],[-73.3075,-38.725483],[-73.312918,-38.724185],[-73.314705,-38.719716]],[[-73.271365,-38.730092],[-73.265948,-38.731387],[-73.264158,-38.735855],[-73.267785,-38.739027],[-73.273203,-38.737732],[-73.274993,-38.733264],[-73.271365,-38.730092]]]},"properties":{"comuna":"Saavedra","mancha_id":"09116-88ce880105fffff","clase":"Medio","nivel_medio":2.098,"nivel_medio_min":1.508,"nivel_medio_max":2.498,"pct_alto":24.7,"n_hexagonos":459,"area_ha":27073.05}},{"type":"Feature","geometry":{"type":"Polygon","coordinates":[[[-73.245308,-38.721797],[-73.24424,-38.72446],[-73.243185,-38.724713],[-73.24344,-38.72427],[-73.2434,-38.72386],[-73.24336,-38.72368],[-73.24331,-38.7235],[-73.24328,-38.72305],[-73.24343,-38.72273],[-73.24361,-38.72226],[-73.24366,-38.72188],[-73.24426,-38.72183],[-73.24497,-38.72179],[-73.245308,-38.721797]]]},"properties":{"comuna":"Saavedra","mancha_id":"09116-88ce88732dfffff","clase":"Alto","nivel_medio":2.95,"nivel_medio_min":2.95,"nivel_medio_max":2.95,"pct_alto":70.6,"n_hexagonos":1,"area_ha":3.51}},{"type":"Feature","geometry":{"type":"Polygon","coordinates":[[[-73.274993,-38.733264],[-73.273203,-38.737732],[-73.267785,-38.739027],[-73.264158,-38.735855],[-73.265948,-38.731387],[-73.271365,-38.730092],[-73.274993,-38.733264]]]},"properties":{"comuna":"Saavedra","mancha_id":"09116-88ce887309fffff","clase":"Alto","nivel_medio":2.559,"nivel_medio_min":2.559,"nivel_medio_max":2.559,"pct_alto":45.5,"n_hexagonos":1,"area_ha":63.37}},{"type":"Feature","geometry":{"type":"Polygon","coordinates":[[[-73.3075,-38.725483],[-73.305712,-38.729952],[-73.300294,-38.73125],[-73.296664,-38.728078],[-73.291246,-38.729375],[-73.287617,-38.726203],[-73.289406,-38.721735],[-73.294823,-38.720438],[-73.298452,-38.723609],[-73.30387,-38.722312],[-73.305657,-38.717843],[-73.311075,-38.716545],[-73.314705,-38.719716],[-73.312918,-38.724185],[-73.3075,-38.725483]]]},"properties":{"comuna":"Saavedra","mancha_id":"09116-88ce887225fffff","clase":"Alto","nivel_medio":2.561,"nivel_medio_min":2.543,"nivel_medio_max":2.577,"pct_alto":43.8,"n_hexagonos":3,"area_ha":190.2}},{"type":"Feature","geometry":{"type":"Polygon","coordinates":[[[-73.350913,-38.727203],[-73.349128,-38.731674],[-73.351647,-38.733872],[-73.35188,-38.73649],[-73.352001,-38.736754],[-73.350978,-38.739317],[-73.354614,-38.742489],[-73.352828,-38.74696],[-73.347406,-38.74826],[-73.34377,-38.745088],[-73.345556,-38.740617],[-73.341921,-38.737445],[-73.343707,-38.732974],[-73.340073,-38.729803],[-73.341859,-38.725332],[-73.347278,-38.724032],[-73.350913,-38.727203]]]},"properties":{"comuna":"Saavedra","mancha_id":"09116-88ce887215fffff","clase":"Alto","nivel_medio":2.642,"nivel_medio_min":2.517,"nivel_medio_max":2.829,"pct_alto":68.6,"n_hexagonos":3,"area_ha":188.88}},{"type":"Feature","geometry":{"type":"Polygon","coordinates":[[[-73.204899,-38.871187],[-73.203101,-38.875655],[-73.197672,-38.876944],[-73.194043,-38.873764],[-73.195842,-38.869296],[-73.20127,-38.868007],[-73.204899,-38.871187]]]},"properties":{"comuna":"Saavedra","mancha_id":"09116-88ce8854d1fffff","clase":"Alto","nivel_medio":2.507,"nivel_medio_min":2.507,"nivel_medio_max":2.507,"pct_alto":41.2,"n_hexagonos":1,"area_ha":63.4}},{"type":"Feature","geometry":{"type":"Polygon","coordinates":[[[-73.18581,-38.86935],[-73.186141,-38.869008],[-73.185326,-38.871031],[-73.18526,-38.87045],[-73.18534,-38.87016],[-73.18542,-38.86993],[-73.18581,-38.86935]]]},"properties":{"comuna":"Saavedra","mancha_id":"09116-88ce885489fffff","clase":"Alto","nivel_medio":2.762,"nivel_medio_min":2.762,"nivel_medio_max":2.762,"pct_alto":76.2,"n_hexagonos":1,"area_ha":0.43}},{"type":"Feature","geometry":{"type":"Polygon","coordinates":[[[-73.17692,-38.828533],[-73.177654,-38.829176],[-73.176178,-38.832841],[-73.17497,-38.83021],[-73.174592,-38.829851],[-73.174257,-38.829686],[-73.173514,-38.829459],[-73.17692,-38.828533]]]},"properties":{"comuna":"Saavedra","mancha_id":"09116-88ce88464bfffff","clase":"Alto","nivel_medio":2.921,"nivel_medio_min":2.921,"nivel_medio_max":2.921,"pct_alto":55.8,"n_hexagonos":1,"area_ha":6.95}},{"type":"Feature","geometry":{"type":"Polygon","coordinates":[[[-73.24163,-38.95153],[-73.241464,-38.951467],[-73.242112,-38.951313],[-73.24203,-38.95138],[-73.24163,-38.95153]]]},"properties":{"comuna":"Saavedra","mancha_id":"09116-88ce8819cdfffff","clase":"Alto","nivel_medio":3.28,"nivel_medio_min":3.28,"nivel_medio_max":3.28,"pct_alto":84.8,"n_hexagonos":1,"area_ha":0.04}},{"type":"Feature","geometry":{"type":"Polygon","coordinates":[[[-73.241264,-38.91511],[-73.239467,-38.919581],[-73.234032,-38.920871],[-73.230397,-38.917689],[-73.232195,-38.913219],[-73.237629,-38.911929],[-73.241264,-38.91511]]]},"properties":{"comuna":"Saavedra","mancha_id":"09116-88ce8819a1fffff","clase":"Alto","nivel_medio":2.7,"nivel_medio_min":2.7,"nivel_medio_max":2.7,"pct_alto":52.9,"n_hexagonos":1,"area_ha":63.47}},{"type":"Feature","geometry":{"type":"Polygon","coordinates":[[[-73.332046,-38.934001],[-73.330253,-38.938476],[-73.3339,-38.941657],[-73.332107,-38.946133],[-73.326666,-38.947427],[-73.32302,-38.944245],[-73.324813,-38.93977],[-73.321167,-38.936589],[-73.322961,-38.932114],[-73.3284,-38.93082],[-73.330193,-38.926345],[-73.326547,-38.923164],[-73.32834,-38.918689],[-73.333778,-38.917394],[-73.337424,-38.920575],[-73.335632,-38.92505],[-73.339279,-38.928231],[-73.337486,-38.932706],[-73.332046,-38.934001]]]},"properties":{"comuna":"Saavedra","mancha_id":"09116-88ce881883fffff","clase":"Alto","nivel_medio":2.625,"nivel_medio_min":2.513,"nivel_medio_max":2.703,"pct_alto":49.1,"n_hexagonos":4,"area_ha":254.38}},{"type":"Feature","geometry":{"type":"Polygon","coordinates":[[[-73.253886,-38.895936],[-73.25209,-38.900407],[-73.255726,-38.903587],[-73.253929,-38.908058],[-73.248496,-38.909349],[-73.244859,-38.906168],[-73.246657,-38.901697],[-73.243021,-38.898517],[-73.244818,-38.894046],[-73.25025,-38.892755],[-73.253886,-38.895936]]]},"properties":{"comuna":"Saavedra","mancha_id":"09116-88ce880b4bfffff","clase":"Alto","nivel_medio":2.646,"nivel_medio_min":2.59,"nivel_medio_max":2.703,"pct_alto":57.7,"n_hexagonos":2,"area_ha":126.95}},{"type":"Feature","geometry":{"type":"Polygon","coordinates":[[[-73.251918,-38.851925],[-73.250122,-38.856395],[-73.244694,-38.857687],[-73.241061,-38.854508],[-73.242857,-38.850039],[-73.248285,-38.848747],[-73.251918,-38.851925]]]},"properties":{"comuna":"Saavedra","mancha_id":"09116-88ce880b31fffff","clase":"Alto","nivel_medio":2.558,"nivel_medio_min":2.558,"nivel_medio_max":2.558,"pct_alto":51.5,"n_hexagonos":1,"area_ha":63.44}},{"type":"Feature","geometry":{"type":"Polygon","coordinates":[[[-73.235634,-38.855799],[-73.233837,-38.860269],[-73.228409,-38.861559],[-73.224778,-38.858381],[-73.226575,-38.853912],[-73.232002,-38.852621],[-73.235634,-38.855799]]]},"properties":{"comuna":"Saavedra","mancha_id":"09116-88ce880b23fffff","clase":"Alto","nivel_medio":2.515,"nivel_medio_min":2.515,"nivel_medio_max":2.515,"pct_alto":43.1,"n_hexagonos":1,"area_ha":63.42}},{"type":"Feature","geometry":{"type":"Polygon","coordinates":[[[-73.257434,-38.874872],[-73.255639,-38.879343],[-73.250208,-38.880634],[-73.246573,-38.877455],[-73.248369,-38.872984],[-73.253799,-38.871693],[-73.257434,-38.874872]]]},"properties":{"comuna":"Saavedra","mancha_id":"09116-88ce880b0bfffff","clase":"Alto","nivel_medio":2.698,"nivel_medio_min":2.698,"nivel_medio_max":2.698,"pct_alto":57.8,"n_hexagonos":1,"area_ha":63.46}},{"type":"Feature","geometry":{"type":"Polygon","coordinates":[[[-73.366,-38.836849],[-73.369644,-38.840025],[-73.375077,-38.838727],[-73.378722,-38.841903],[-73.376934,-38.846378],[-73.371501,-38.847676],[-73.367857,-38.8445],[-73.362424,-38.845798],[-73.358781,-38.842622],[-73.360569,-38.838147],[-73.356926,-38.834971],[-73.358714,-38.830497],[-73.364145,-38.829199],[-73.367788,-38.832375],[-73.366,-38.836849]]]},"properties":{"comuna":"Saavedra","mancha_id":"09116-88ce880a83fffff","clase":"Alto","nivel_medio":2.586,"nivel_medio_min":2.523,"nivel_medio_max":2.62,"pct_alto":43.8,"n_hexagonos":3,"area_ha":190.7}},{"type":"Feature","geometry":{"type":"Polygon","coordinates":[[[-73.306534,-38.911736],[-73.310177,-38.914916],[-73.315614,-38.913623],[-73.319258,-38.916803],[-73.317464,-38.921277],[-73.312027,-38.922571],[-73.308383,-38.91939],[-73.302946,-38.920684],[-73.299303,-38.917503],[-73.301098,-38.913029],[-73.306534,-38.911736]]]},"properties":{"comuna":"Saavedra","mancha_id":"09116-88ce880a49fffff","clase":"Alto","nivel_medio":2.616,"nivel_medio_min":2.539,"nivel_medio_max":2.693,"pct_alto":47.4,"n_hexagonos":2,"area_ha":127.12}},{"type":"Feature","geometry":{"type":"Polygon","coordinates":[[[-73.306479,-38.899609],[-73.311914,-38.898315],[-73.313707,-38.893841],[-73.319142,-38.892547],[-73.322785,-38.895726],[-73.328221,-38.894431],[-73.331865,-38.897611],[-73.330073,-38.902085],[-73.324636,-38.90338],[-73.322844,-38.907854],[-73.317407,-38.909148],[-73.313764,-38.905968],[-73.308328,-38.907262],[-73.304686,-38.904082],[-73.306479,-38.899609]]]},"properties":{"comuna":"Saavedra","mancha_id":"09116-88ce880a43fffff","clase":"Alto","nivel_medio":2.694,"nivel_medio_min":2.515,"nivel_medio_max":2.859,"pct_alto":54.0,"n_hexagonos":4,"area_ha":254.23}},{"type":"Feature","geometry":{"type":"Polygon","coordinates":[[[-73.235516,-38.819453],[-73.23372,-38.823922],[-73.228296,-38.825213],[-73.224667,-38.822036],[-73.226463,-38.817568],[-73.231887,-38.816277],[-73.235516,-38.819453]]]},"properties":{"comuna":"Saavedra","mancha_id":"09116-88ce880901fffff","clase":"Alto","nivel_medio":2.697,"nivel_medio_min":2.697,"nivel_medio_max":2.697,"pct_alto":54.1,"n_hexagonos":1,"area_ha":63.39}},{"type":"Feature","geometry":{"type":"Polygon","coordinates":[[[-73.33317,-38.79615],[-73.331381,-38.800622],[-73.325955,-38.801919],[-73.322318,-38.798745],[-73.324107,-38.794273],[-73.329532,-38.792976],[-73.33317,-38.79615]]]},"properties":{"comuna":"Saavedra","mancha_id":"09116-88ce8808e3fffff","clase":"Alto","nivel_medio":2.565,"nivel_medio_min":2.565,"nivel_medio_max":2.565,"pct_alto":52.7,"n_hexagonos":1,"area_ha":63.49}},{"type":"Feature","geometry":{"type":"Polygon","coordinates":[[[-73.367652,-38.808128],[-73.371294,-38.811303],[-73.376723,-38.810003],[-73.378509,-38.805529],[-73.374867,-38.802355],[-73.376653,-38.797881],[-73.382081,-38.796581],[-73.383867,-38.792107],[-73.380224,-38.788933],[-73.38201,-38.784459],[-73.387437,-38.783159],[-73.389222,-38.778685],[-73.394649,-38.777384],[-73.396433,-38.772909],[-73.401859,-38.771608],[-73.405503,-38.77478],[-73.403719,-38.779255],[-73.398292,-38.780557],[-73.396507,-38.785031],[-73.39108,-38.786332],[-73.389295,-38.790806],[-73.392938,-38.79398],[-73.391153,-38.798454],[-73.394797,-38.801628],[-73.393012,-38.806103],[-73.396657,-38.809277],[-73.394871,-38.813752],[-73.398517,-38.816927],[-73.396731,-38.821402],[-73.3913,-38.822703],[-73.387655,-38.819528],[-73.382224,-38.820827],[-73.37858,-38.817652],[-73.37315,-38.818952],[-73.369507,-38.815777],[-73.364077,-38.817076],[-73.360435,-38.813901],[-73.362223,-38.809427],[-73.367652,-38.808128]]]},"properties":{"comuna":"Saavedra","mancha_id":"09116-88ce8808d9fffff","clase":"Alto","nivel_medio":2.786,"nivel_medio_min":2.539,"nivel_medio_max":3.231,"pct_alto":64.6,"n_hexagonos":12,"area_ha":762.7}},{"type":"Feature","geometry":{"type":"Polygon","coordinates":[[[-73.293398,-38.809696],[-73.291607,-38.814166],[-73.28618,-38.815461],[-73.282547,-38.812285],[-73.284338,-38.807815],[-73.289764,-38.80652],[-73.293398,-38.809696]]]},"properties":{"comuna":"Saavedra","mancha_id":"09116-88ce880835fffff","clase":"Alto","nivel_medio":2.685,"nivel_medio_min":2.685,"nivel_medio_max":2.685,"pct_alto":52.8,"n_hexagonos":1,"area_ha":63.45}},{"type":"Feature","geometry":{"type":"Polygon","coordinates":[[[-73.277121,-38.813579],[-73.275329,-38.818049],[-73.269903,-38.819343],[-73.26627,-38.816167],[-73.260845,-38.81746],[-73.257214,-38.814284],[-73.259007,-38.809815],[-73.264431,-38.808521],[-73.266224,-38.804052],[-73.271648,-38.802758],[-73.275281,-38.805934],[-73.273488,-38.810403],[-73.277121,-38.813579]]]},"properties":{"comuna":"Saavedra","mancha_id":"09116-88ce880827fffff","clase":"Alto","nivel_medio":2.636,"nivel_medio_min":2.577,"nivel_medio_max":2.72,"pct_alto":52.3,"n_hexagonos":3,"area_ha":190.29}},{"type":"Feature","geometry":{"type":"Polygon","coordinates":[[[-73.315216,-38.828751],[-73.313425,-38.833223],[-73.307996,-38.834519],[-73.304359,-38.831342],[-73.30615,-38.82687],[-73.311578,-38.825575],[-73.315216,-38.828751]]]},"properties":{"comuna":"Saavedra","mancha_id":"09116-88ce88081dfffff","clase":"Alto","nivel_medio":2.538,"nivel_medio_min":2.538,"nivel_medio_max":2.538,"pct_alto":48.1,"n_hexagonos":1,"area_ha":63.49}},{"type":"Feature","geometry":{"type":"Polygon","coordinates":[[[-73.3428,-38.907149],[-73.341008,-38.911624],[-73.335571,-38.912919],[-73.331925,-38.909739],[-73.333717,-38.905265],[-73.339154,-38.903969],[-73.3428,-38.907149]]]},"properties":{"comuna":"Saavedra","mancha_id":"09116-88ce880165fffff","clase":"Alto","nivel_medio":2.667,"nivel_medio_min":2.667,"nivel_medio_max":2.667,"pct_alto":46.8,"n_hexagonos":1,"area_ha":63.58}},{"type":"Feature","geometry":{"type":"Polygon","coordinates":[[[-73.369851,-38.876407],[-73.368062,-38.880882],[-73.371502,-38.88388],[-73.37121,-38.88443],[-73.37023,-38.88642],[-73.36976,-38.88719],[-73.36971,-38.88726],[-73.36928,-38.88806],[-73.36891,-38.88863],[-73.368848,-38.888792],[-73.364483,-38.889834],[-73.360836,-38.886655],[-73.362626,-38.88218],[-73.35898,-38.879002],[-73.360769,-38.874526],[-73.366204,-38.873229],[-73.369851,-38.876407]]]},"properties":{"comuna":"Saavedra","mancha_id":"09116-88ce880135fffff","clase":"Alto","nivel_medio":2.588,"nivel_medio_min":2.553,"nivel_medio_max":2.62,"pct_alto":76.5,"n_hexagonos":2,"area_ha":124.57}}],"bbox":[-73.42526,-38.96625,-73.17147,-38.69407]}