{"type":"FeatureCollection","features":[{"type":"Feature","geometry":{"type":"Polygon","coordinates":[[[-72.273317,-38.44838],[-72.27294,-38.448518],[-72.27305,-38.448254],[-72.274159,-38.447995],[-72.273317,-38.44838]]]},"properties":{"comuna":"Perquenco","mancha_id":"09113-88ce8a1b11fffff","clase":"Bajo","nivel_medio":1.317,"nivel_medio_min":1.317,"nivel_medio_max":1.317,"pct_alto":0.1,"n_hexagonos":1,"area_ha":0.14}},{"type":"Feature","geometry":{"type":"Polygon","coordinates":[[[-72.385339,-38.421966],[-72.383508,-38.426388],[-72.37816,-38.427643],[-72.374643,-38.424476],[-72.376475,-38.420054],[-72.381823,-38.4188],[-72.385339,-38.421966]]]},"properties":{"comuna":"Perquenco","mancha_id":"09113-88ce8a1a95fffff","clase":"Bajo","nivel_medio":0.617,"nivel_medio_min":0.617,"nivel_medio_max":0.617,"pct_alto":10.5,"n_hexagonos":1,"area_ha":62.09}},{"type":"Feature","geometry":{"type":"Polygon","coordinates":[[[-72.304965,-38.452764],[-72.308476,-38.455933],[-72.308168,-38.456675],[-72.30814,-38.456667],[-72.307629,-38.456177],[-72.307117,-38.455666],[-72.306541,-38.455434],[-72.30412,-38.45471],[-72.302845,-38.454553],[-72.302156,-38.454642],[-72.301666,-38.454753],[-72.301243,-38.454998],[-72.300865,-38.455287],[-72.30026,-38.45567],[-72.29917,-38.45584],[-72.298879,-38.455789],[-72.29804,-38.45564],[-72.2967,-38.45475],[-72.295668,-38.453937],[-72.294926,-38.453653],[-72.29405,-38.453473],[-72.293244,-38.453621],[-72.292072,-38.453645],[-72.29116,-38.453559],[-72.290243,-38.453337],[-72.290162,-38.453318],[-72.289221,-38.453165],[-72.288372,-38.453111],[-72.287237,-38.453077],[-72.286153,-38.452939],[-72.285051,-38.452561],[-72.283471,-38.451789],[-72.282385,-38.450746],[-72.281876,-38.450241],[-72.281404,-38.449771],[-72.280429,-38.449095],[-72.2782,-38.44837],[-72.277085,-38.447881],[-72.2765,-38.447485],[-72.276409,-38.44747],[-72.278396,-38.447006],[-72.281904,-38.450175],[-72.28725,-38.448926],[-72.29076,-38.452095],[-72.296107,-38.450845],[-72.299617,-38.454014],[-72.304965,-38.452764]]]},"properties":{"comuna":"Perquenco","mancha_id":"09113-88ce8a1a23fffff","clase":"Bajo","nivel_medio":1.037,"nivel_medio_min":0.773,"nivel_medio_max":1.317,"pct_alto":2.9,"n_hexagonos":4,"area_ha":59.48}},{"type":"Feature","geometry":{"type":"Polygon","coordinates":[[[-72.342248,-38.456015],[-72.340413,-38.460436],[-72.335063,-38.461688],[-72.331548,-38.458519],[-72.333384,-38.454098],[-72.338733,-38.452847],[-72.342248,-38.456015]]]},"properties":{"comuna":"Perquenco","mancha_id":"09113-88ce8a1a17fffff","clase":"Bajo","nivel_medio":1.303,"nivel_medio_min":1.303,"nivel_medio_max":1.303,"pct_alto":3.9,"n_hexagonos":1,"area_ha":62.06}},{"type":"Feature","geometry":{"type":"Polygon","coordinates":[[[-72.326041,-38.47178],[-72.329556,-38.47495],[-72.329223,-38.47575],[-72.32645,-38.47511],[-72.323559,-38.474177],[-72.322558,-38.474043],[-72.321579,-38.473554],[-72.321134,-38.473153],[-72.320985,-38.472962],[-72.326041,-38.47178]]]},"properties":{"comuna":"Perquenco","mancha_id":"09113-88ce8a1a0bfffff","clase":"Bajo","nivel_medio":1.318,"nivel_medio_min":1.318,"nivel_medio_max":1.318,"pct_alto":19.4,"n_hexagonos":1,"area_ha":15.72}},{"type":"Feature","geometry":{"type":"Polygon","coordinates":[[[-72.3155,-38.462272],[-72.319013,-38.465441],[-72.317467,-38.469163],[-72.317374,-38.468993],[-72.31704,-38.46837],[-72.31673,-38.467943],[-72.316496,-38.467544],[-72.316417,-38.467102],[-72.31641,-38.46658],[-72.316395,-38.465878],[-72.316106,-38.465299],[-72.31578,-38.464832],[-72.315106,-38.464323],[-72.31439,-38.463924],[-72.31338,-38.46359],[-72.312279,-38.463475],[-72.311589,-38.463342],[-72.311397,-38.463231],[-72.3155,-38.462272]]]},"properties":{"comuna":"Perquenco","mancha_id":"09113-88ce8a1a07fffff","clase":"Bajo","nivel_medio":1.009,"nivel_medio_min":1.009,"nivel_medio_max":1.009,"pct_alto":0.0,"n_hexagonos":1,"area_ha":14.76}},{"type":"Feature","geometry":{"type":"Polygon","coordinates":[[[-72.241946,-38.383515],[-72.241995,-38.383713],[-72.24147,-38.383238],[-72.241605,-38.38326],[-72.241829,-38.383367],[-72.241946,-38.383515]]]},"properties":{"comuna":"Perquenco","mancha_id":"09113-88ce8a1937fffff","clase":"Bajo","nivel_medio":1.0,"nivel_medio_min":1.0,"nivel_medio_max":1.0,"pct_alto":0.0,"n_hexagonos":1,"area_ha":0.06}},{"type":"Feature","geometry":{"type":"Polygon","coordinates":[[[-72.269314,-38.402221],[-72.269256,-38.402284],[-72.268385,-38.401497],[-72.26906,-38.399874],[-72.269323,-38.40001],[-72.269652,-38.400265],[-72.269931,-38.400503],[-72.269996,-38.400765],[-72.269983,-38.401014],[-72.269944,-38.401368],[-72.269839,-38.401604],[-72.269721,-38.401827],[-72.269485,-38.402011],[-72.269314,-38.402221]]]},"properties":{"comuna":"Perquenco","mancha_id":"09113-88ce8a191bfffff","clase":"Bajo","nivel_medio":1.333,"nivel_medio_min":1.333,"nivel_medio_max":1.333,"pct_alto":0.0,"n_hexagonos":1,"area_ha":2.3}},{"type":"Feature","geometry":{"type":"Polygon","coordinates":[[[-72.261572,-38.395118],[-72.261378,-38.395163],[-72.260298,-38.394187],[-72.260345,-38.394182],[-72.260673,-38.394287],[-72.261079,-38.394602],[-72.261381,-38.394903],[-72.261572,-38.395118]]]},"properties":{"comuna":"Perquenco","mancha_id":"09113-88ce8a1917fffff","clase":"Bajo","nivel_medio":1.238,"nivel_medio_min":1.238,"nivel_medio_max":1.238,"pct_alto":0.0,"n_hexagonos":1,"area_ha":0.26}},{"type":"Feature","geometry":{"type":"Polygon","coordinates":[[[-72.280736,-38.406581],[-72.2789,-38.410998],[-72.273557,-38.412247],[-72.270052,-38.40908],[-72.271889,-38.404664],[-72.270746,-38.40363],[-72.270812,-38.403636],[-72.272628,-38.403198],[-72.277813,-38.402015],[-72.277231,-38.403414],[-72.280736,-38.406581]]]},"properties":{"comuna":"Perquenco","mancha_id":"09113-88ce8a1825fffff","clase":"Bajo","nivel_medio":1.475,"nivel_medio_min":1.333,"nivel_medio_max":1.493,"pct_alto":0.0,"n_hexagonos":2,"area_ha":69.64}},{"type":"Feature","geometry":{"type":"Polygon","coordinates":[[[-72.57608,-38.424919],[-72.576468,-38.424923],[-72.573801,-38.425553],[-72.573893,-38.425464],[-72.574183,-38.425242],[-72.5745,-38.425069],[-72.574801,-38.424971],[-72.575154,-38.424926],[-72.575576,-38.424911],[-72.57608,-38.424919]]]},"properties":{"comuna":"Perquenco","mancha_id":"09113-88ce8a1425fffff","clase":"Bajo","nivel_medio":1.004,"nivel_medio_min":1.004,"nivel_medio_max":1.004,"pct_alto":0.0,"n_hexagonos":1,"area_ha":0.54}},{"type":"Feature","geometry":{"type":"Polygon","coordinates":[[[-72.510417,-38.497929],[-72.512676,-38.499954],[-72.512211,-38.501083],[-72.51216,-38.50091],[-72.51178,-38.5005],[-72.51126,-38.5],[-72.51126,-38.5],[-72.51096,-38.49971],[-72.510608,-38.499219],[-72.510532,-38.498839],[-72.51054,-38.49849],[-72.510417,-38.497929]]]},"properties":{"comuna":"Perquenco","mancha_id":"09113-88ce8a12b9fffff","clase":"Bajo","nivel_medio":1.477,"nivel_medio_min":1.477,"nivel_medio_max":1.477,"pct_alto":0.0,"n_hexagonos":1,"area_ha":2.49}},{"type":"Feature","geometry":{"type":"Polygon","coordinates":[[[-72.438562,-38.433428],[-72.436733,-38.437852],[-72.431381,-38.439109],[-72.427859,-38.435942],[-72.429688,-38.431519],[-72.435039,-38.430261],[-72.438562,-38.433428]]]},"properties":{"comuna":"Perquenco","mancha_id":"09113-88ce8a11b9fffff","clase":"Bajo","nivel_medio":1.394,"nivel_medio_min":1.394,"nivel_medio_max":1.394,"pct_alto":1.3,"n_hexagonos":1,"area_ha":62.16}},{"type":"Feature","geometry":{"type":"Polygon","coordinates":[[[-72.458014,-38.444837],[-72.456186,-38.449263],[-72.450832,-38.450521],[-72.447306,-38.447353],[-72.449135,-38.442928],[-72.454488,-38.44167],[-72.458014,-38.444837]]]},"properties":{"comuna":"Perquenco","mancha_id":"09113-88ce8a1199fffff","clase":"Bajo","nivel_medio":1.449,"nivel_medio_min":1.449,"nivel_medio_max":1.449,"pct_alto":1.4,"n_hexagonos":1,"area_ha":62.19}},{"type":"Feature","geometry":{"type":"Polygon","coordinates":[[[-72.495251,-38.460063],[-72.493424,-38.46449],[-72.488067,-38.46575],[-72.484537,-38.462582],[-72.486364,-38.458155],[-72.49172,-38.456895],[-72.495251,-38.460063]]]},"properties":{"comuna":"Perquenco","mancha_id":"09113-88ce8a1081fffff","clase":"Bajo","nivel_medio":1.349,"nivel_medio_min":1.349,"nivel_medio_max":1.349,"pct_alto":0.5,"n_hexagonos":1,"area_ha":62.25}},{"type":"Feature","geometry":{"type":"Polygon","coordinates":[[[-72.44212,-38.476542],[-72.44166,-38.4767],[-72.441424,-38.476706],[-72.44212,-38.476542]]]},"properties":{"comuna":"Perquenco","mancha_id":"09113-88ce8a1031fffff","clase":"Bajo","nivel_medio":1.397,"nivel_medio_min":1.397,"nivel_medio_max":1.397,"pct_alto":0.8,"n_hexagonos":1,"area_ha":0.02}},{"type":"Feature","geometry":{"type":"Polygon","coordinates":[[[-72.443105,-38.476311],[-72.445213,-38.475817],[-72.44874,-38.478985],[-72.454097,-38.477728],[-72.457349,-38.480648],[-72.456882,-38.480921],[-72.456475,-38.481033],[-72.456208,-38.481047],[-72.4558,-38.480894],[-72.454939,-38.480408],[-72.45474,-38.480338],[-72.454388,-38.480344],[-72.453867,-38.480363],[-72.453283,-38.480408],[-72.452718,-38.480402],[-72.452333,-38.480466],[-72.451608,-38.480781],[-72.451227,-38.481048],[-72.450362,-38.481259],[-72.449805,-38.481201],[-72.448767,-38.481105],[-72.44791,-38.480993],[-72.447883,-38.48099],[-72.447134,-38.480913],[-72.446692,-38.480683],[-72.446231,-38.480183],[-72.445885,-38.479607],[-72.445704,-38.479075],[-72.44564,-38.478657],[-72.445533,-38.478085],[-72.4452,-38.47752],[-72.44452,-38.47694],[-72.44346,-38.47635],[-72.443105,-38.476311]]]},"properties":{"comuna":"Perquenco","mancha_id":"09113-88ce8a1031fffff-2","clase":"Bajo","nivel_medio":1.301,"nivel_medio_min":1.246,"nivel_medio_max":1.397,"pct_alto":0.3,"n_hexagonos":2,"area_ha":28.96}},{"type":"Feature","geometry":{"type":"Polygon","coordinates":[[[-72.459716,-38.480406],[-72.462983,-38.479639],[-72.463767,-38.480344],[-72.463187,-38.480445],[-72.462747,-38.48049],[-72.462467,-38.48051],[-72.461622,-38.480452],[-72.46032,-38.480373],[-72.459716,-38.480406]]]},"properties":{"comuna":"Perquenco","mancha_id":"09113-88ce8a1017fffff","clase":"Bajo","nivel_medio":1.265,"nivel_medio_min":1.265,"nivel_medio_max":1.265,"pct_alto":0.0,"n_hexagonos":1,"area_ha":1.63}},{"type":"Feature","geometry":{"type":"Polygon","coordinates":[[[-72.505214,-38.36553],[-72.505094,-38.365821],[-72.50481,-38.365888],[-72.504933,-38.365751],[-72.505118,-38.365623],[-72.505214,-38.36553]]]},"properties":{"comuna":"Perquenco","mancha_id":"09113-88ce8a02adfffff","clase":"Bajo","nivel_medio":1.031,"nivel_medio_min":1.031,"nivel_medio_max":1.031,"pct_alto":0.0,"n_hexagonos":1,"area_ha":0.04}},{"type":"Feature","geometry":{"type":"Polygon","coordinates":[[[-72.497681,-38.395539],[-72.503032,-38.394277],[-72.504856,-38.389851],[-72.510206,-38.388589],[-72.513734,-38.391753],[-72.511911,-38.396179],[-72.51544,-38.399343],[-72.513617,-38.40377],[-72.508265,-38.405032],[-72.504736,-38.401868],[-72.499385,-38.40313],[-72.495857,-38.399965],[-72.497681,-38.395539]]]},"properties":{"comuna":"Perquenco","mancha_id":"09113-88ce8a0211fffff","clase":"Bajo","nivel_medio":1.401,"nivel_medio_min":1.387,"nivel_medio_max":1.41,"pct_alto":3.0,"n_hexagonos":3,"area_ha":186.64}},{"type":"Feature","geometry":{"type":"Polygon","coordinates":[[[-72.490506,-38.401227],[-72.488682,-38.405652],[-72.48333,-38.406913],[-72.479804,-38.403748],[-72.474453,-38.405009],[-72.470929,-38.401844],[-72.465578,-38.403104],[-72.462054,-38.399939],[-72.46388,-38.395515],[-72.46923,-38.394254],[-72.472754,-38.397419],[-72.478104,-38.396158],[-72.481629,-38.399323],[-72.48698,-38.398062],[-72.490506,-38.401227]]]},"properties":{"comuna":"Perquenco","mancha_id":"09113-88ce8a0203fffff","clase":"Bajo","nivel_medio":1.227,"nivel_medio_min":1.092,"nivel_medio_max":1.297,"pct_alto":0.6,"n_hexagonos":3,"area_ha":186.54}},{"type":"Feature","geometry":{"type":"Polygon","coordinates":[[[-72.405607,-38.361323],[-72.402092,-38.358159],[-72.403905,-38.353776],[-72.404048,-38.353818],[-72.404313,-38.353865],[-72.404507,-38.353911],[-72.404693,-38.353989],[-72.404857,-38.354121],[-72.405012,-38.354253],[-72.405237,-38.354487],[-72.405471,-38.354743],[-72.405735,-38.354867],[-72.405913,-38.354984],[-72.406074,-38.354978],[-72.40623,-38.355054],[-72.40634,-38.355158],[-72.406503,-38.355303],[-72.406566,-38.355418],[-72.40663,-38.355552],[-72.406636,-38.355708],[-72.406659,-38.355853],[-72.406746,-38.35598],[-72.40685,-38.356056],[-72.406995,-38.356102],[-72.40714,-38.356131],[-72.407308,-38.356154],[-72.407644,-38.35616],[-72.407887,-38.356171],[-72.40809,-38.356177],[-72.408263,-38.356206],[-72.408379,-38.356264],[-72.408431,-38.356339],[-72.408437,-38.356449],[-72.408414,-38.356588],[-72.408454,-38.356716],[-72.408478,-38.35688],[-72.408587,-38.356981],[-72.40875,-38.357066],[-72.40896,-38.357152],[-72.409263,-38.357253],[-72.409496,-38.357362],[-72.409721,-38.357439],[-72.409861,-38.357478],[-72.410001,-38.357455],[-72.41018,-38.357377],[-72.410312,-38.357292],[-72.410514,-38.357167],[-72.4107,-38.357066],[-72.410941,-38.356942],[-72.41126,-38.356841],[-72.411602,-38.356771],[-72.41192,-38.356725],[-72.412169,-38.356709],[-72.412328,-38.356733],[-72.410951,-38.360065],[-72.405607,-38.361323]]]},"properties":{"comuna":"Perquenco","mancha_id":"09113-88ce8a0143fffff","clase":"Bajo","nivel_medio":1.294,"nivel_medio_min":1.294,"nivel_medio_max":1.294,"pct_alto":2.9,"n_hexagonos":1,"area_ha":40.06}},{"type":"Feature","geometry":{"type":"Polygon","coordinates":[[[-72.471499,-38.365148],[-72.471574,-38.36516],[-72.47195,-38.365218],[-72.472408,-38.36528],[-72.472867,-38.36542],[-72.47331,-38.36556],[-72.473683,-38.36563],[-72.474079,-38.365731],[-72.474522,-38.365816],[-72.474833,-38.365933],[-72.475198,-38.366057],[-72.475555,-38.366236],[-72.475905,-38.366422],[-72.476317,-38.366671],[-72.476768,-38.366928],[-72.477117,-38.367168],[-72.477498,-38.367316],[-72.477856,-38.367456],[-72.478182,-38.367565],[-72.478516,-38.367611],[-72.478912,-38.367611],[-72.479247,-38.367681],[-72.479565,-38.367782],[-72.479665,-38.367828],[-72.479837,-38.367907],[-72.480195,-38.368109],[-72.480529,-38.368326],[-72.481003,-38.368645],[-72.481492,-38.368901],[-72.481538,-38.368928],[-72.481974,-38.369181],[-72.4823,-38.369337],[-72.48258,-38.369414],[-72.482852,-38.369414],[-72.483063,-38.369313],[-72.483266,-38.369295],[-72.483619,-38.369174],[-72.484002,-38.369058],[-72.48439,-38.368965],[-72.484766,-38.368913],[-72.48502,-38.368932],[-72.485525,-38.368932],[-72.486046,-38.368909],[-72.486512,-38.368878],[-72.486769,-38.368855],[-72.487025,-38.368855],[-72.487429,-38.36887],[-72.487818,-38.36887],[-72.488105,-38.368948],[-72.488463,-38.369041],[-72.488898,-38.369142],[-72.489206,-38.369228],[-72.489232,-38.369236],[-72.489603,-38.369311],[-72.490076,-38.369335],[-72.49038,-38.369359],[-72.490744,-38.369347],[-72.491096,-38.369335],[-72.491461,-38.369226],[-72.49174,-38.369177],[-72.492165,-38.369189],[-72.492663,-38.369213],[-72.493197,-38.369262],[-72.493525,-38.369262],[-72.493828,-38.369347],[-72.494241,-38.369481],[-72.49463,-38.36959],[-72.494982,-38.369626],[-72.495197,-38.369556],[-72.495423,-38.369463],[-72.495654,-38.369353],[-72.495944,-38.369127],[-72.496286,-38.368902],[-72.496604,-38.368705],[-72.496836,-38.368577],[-72.497369,-38.36827],[-72.497871,-38.368036],[-72.498479,-38.367793],[-72.498928,-38.367635],[-72.49928,-38.36755],[-72.499563,-38.367527],[-72.499583,-38.367526],[-72.499851,-38.36755],[-72.5,-38.36754],[-72.500203,-38.367526],[-72.50053,-38.367538],[-72.500883,-38.367465],[-72.501235,-38.367356],[-72.501563,-38.367246],[-72.501921,-38.367077],[-72.502384,-38.366903],[-72.502564,-38.366788],[-72.50268,-38.366596],[-72.502784,-38.366481],[-72.502883,-38.366388],[-72.503068,-38.366324],[-72.503323,-38.366263],[-72.503675,-38.366214],[-72.504076,-38.366142],[-72.504452,-38.366069],[-72.504768,-38.365935],[-72.50481,-38.365888],[-72.505094,-38.365821],[-72.505214,-38.36553],[-72.505338,-38.365409],[-72.505506,-38.365183],[-72.50568,-38.364894],[-72.505935,-38.364558],[-72.506114,-38.36432],[-72.50634,-38.364071],[-72.506699,-38.363637],[-72.507006,-38.36333],[-72.507331,-38.363023],[-72.507551,-38.362832],[-72.507782,-38.3626],[-72.507968,-38.36238],[-72.508153,-38.36216],[-72.508327,-38.36187],[-72.508611,-38.361523],[-72.508877,-38.361216],[-72.509139,-38.361054],[-72.509333,-38.360908],[-72.509552,-38.360799],[-72.509746,-38.360763],[-72.509965,-38.360738],[-72.510208,-38.360751],[-72.510499,-38.360787],[-72.510851,-38.360836],[-72.511155,-38.360933],[-72.511385,-38.361054],[-72.511592,-38.3612],[-72.511725,-38.36137],[-72.511944,-38.3616],[-72.51215,-38.361819],[-72.512211,-38.362025],[-72.512296,-38.362183],[-72.512369,-38.362293],[-72.512405,-38.362523],[-72.512439,-38.362704],[-72.512405,-38.363033],[-72.512393,-38.363288],[-72.512364,-38.363533],[-72.512369,-38.363759],[-72.512345,-38.363992],[-72.512417,-38.364235],[-72.512624,-38.364381],[-72.512806,-38.36449],[-72.513061,-38.364587],[-72.513279,-38.36466],[-72.513559,-38.364733],[-72.513887,-38.364684],[-72.514154,-38.364636],[-72.514466,-38.364459],[-72.51479,-38.364286],[-72.515174,-38.364077],[-72.51555,-38.36388],[-72.515684,-38.36381],[-72.515943,-38.363614],[-72.516348,-38.363365],[-72.516719,-38.36311],[-72.516784,-38.363061],[-72.517061,-38.362849],[-72.517321,-38.3626],[-72.517559,-38.362374],[-72.517779,-38.362114],[-72.517924,-38.361975],[-72.518132,-38.361784],[-72.518439,-38.361569],[-72.518746,-38.361355],[-72.51907,-38.361083],[-72.519296,-38.360805],[-72.519412,-38.360619],[-72.51969,-38.360249],[-72.520009,-38.35978],[-72.520223,-38.359432],[-72.52046,-38.359137],[-72.520652,-38.35898],[-72.520918,-38.358807],[-72.521219,-38.358621],[-72.52141,-38.358546],[-72.521584,-38.358494],[-72.521752,-38.358471],[-72.521978,-38.358442],[-72.522221,-38.358419],[-72.522447,-38.358453],[-72.522524,-38.358459],[-72.522606,-38.358466],[-72.522731,-38.358476],[-72.522944,-38.358574],[-72.523127,-38.358707],[-72.523742,-38.360567],[-72.525427,-38.365014],[-72.528208,-38.37235],[-72.530451,-38.378267],[-72.530999,-38.379684],[-72.532599,-38.383821],[-72.53339,-38.385929],[-72.533793,-38.387017],[-72.535133,-38.390631],[-72.536268,-38.393692],[-72.536509,-38.394371],[-72.536592,-38.394604],[-72.537565,-38.397097],[-72.538953,-38.400803],[-72.538996,-38.400819],[-72.53955,-38.401024],[-72.53974,-38.401144],[-72.539977,-38.401218],[-72.54034,-38.401364],[-72.54052,-38.401484],[-72.54071,-38.401574],[-72.540928,-38.401743],[-72.54116,-38.401914],[-72.54155,-38.402095],[-72.54211,-38.402284],[-72.54232,-38.402334],[-72.54269,-38.402534],[-72.54293,-38.402774],[-72.543115,-38.40318],[-72.5432,-38.403534],[-72.543588,-38.403942],[-72.54387,-38.404164],[-72.54411,-38.404419],[-72.544202,-38.404548],[-72.5444,-38.404824],[-72.54461,-38.405114],[-72.54476,-38.405514],[-72.544781,-38.406137],[-72.544619,-38.406502],[-72.544416,-38.407232],[-72.544295,-38.4078],[-72.54425,-38.408304],[-72.5444,-38.408824],[-72.54444,-38.409004],[-72.544376,-38.409299],[-72.544459,-38.409632],[-72.54464,-38.409914],[-72.54477,-38.410334],[-72.544916,-38.410806],[-72.54495,-38.411124],[-72.545137,-38.411667],[-72.5453,-38.411904],[-72.54541,-38.412259],[-72.54543,-38.412324],[-72.5457,-38.413124],[-72.545812,-38.413625],[-72.545905,-38.413976],[-72.546053,-38.414408],[-72.54615,-38.414714],[-72.54616,-38.414914],[-72.546235,-38.415198],[-72.54625,-38.415504],[-72.546492,-38.416643],[-72.54656,-38.416894],[-72.54673,-38.417244],[-72.54705,-38.417514],[-72.547337,-38.417653],[-72.547464,-38.417744],[-72.547803,-38.417751],[-72.548161,-38.417757],[-72.548452,-38.417804],[-72.548756,-38.417857],[-72.54914,-38.417923],[-72.54943,-38.418055],[-72.549748,-38.418148],[-72.549973,-38.418187],[-72.550184,-38.4182],[-72.550435,-38.418161],[-72.550605,-38.418013],[-72.551004,-38.417817],[-72.551332,-38.417577],[-72.551515,-38.417393],[-72.55157,-38.417338],[-72.551757,-38.41711],[-72.551892,-38.416892],[-72.55212,-38.416633],[-72.552359,-38.416425],[-72.552701,-38.416207],[-72.553065,-38.415885],[-72.553459,-38.415491],[-72.553812,-38.41519],[-72.554164,-38.414962],[-72.554526,-38.414751],[-72.554879,-38.414616],[-72.555263,-38.414555],[-72.555602,-38.414578],[-72.555986,-38.414593],[-72.556392,-38.414653],[-72.556821,-38.414781],[-72.55728,-38.414954],[-72.557506,-38.41509],[-72.557634,-38.415248],[-72.557837,-38.415504],[-72.558018,-38.415865],[-72.558326,-38.416271],[-72.558597,-38.416685],[-72.558815,-38.416971],[-72.559139,-38.417272],[-72.559606,-38.417619],[-72.559967,-38.417844],[-72.560268,-38.418108],[-72.560644,-38.418364],[-72.560742,-38.418476],[-72.559758,-38.420869],[-72.563293,-38.424034],[-72.566742,-38.42322],[-72.566755,-38.42324],[-72.567079,-38.423429],[-72.567531,-38.423579],[-72.567952,-38.4237],[-72.568313,-38.423745],[-72.568682,-38.423828],[-72.568976,-38.423933],[-72.569261,-38.424031],[-72.569563,-38.424144],[-72.570059,-38.42446],[-72.570594,-38.424813],[-72.571196,-38.425242],[-72.57179,-38.425709],[-72.572174,-38.425963],[-72.572234,-38.426003],[-72.572505,-38.42613],[-72.572829,-38.426153],[-72.573115,-38.42613],[-72.573393,-38.425957],[-72.573665,-38.425682],[-72.573801,-38.425553],[-72.576468,-38.424923],[-72.576698,-38.424925],[-72.577347,-38.424944],[-72.57788,-38.424971],[-72.577902,-38.424972],[-72.578627,-38.424954],[-72.579304,-38.424991],[-72.580085,-38.425076],[-72.580518,-38.425123],[-72.581082,-38.425132],[-72.581543,-38.425104],[-72.582117,-38.425132],[-72.582531,-38.425198],[-72.583001,-38.425302],[-72.583369,-38.425416],[-72.58391,-38.425592],[-72.584345,-38.42571],[-72.584686,-38.425863],[-72.58511,-38.426015],[-72.585603,-38.426192],[-72.586239,-38.426345],[-72.586524,-38.426359],[-72.586709,-38.426368],[-72.587226,-38.426392],[-72.58745,-38.426368],[-72.587814,-38.426404],[-72.588096,-38.426462],[-72.58852,-38.426568],[-72.588943,-38.426627],[-72.589531,-38.426603],[-72.590002,-38.426498],[-72.590401,-38.426451],[-72.590836,-38.426427],[-72.591283,-38.426415],[-72.591871,-38.426533],[-72.592471,-38.42658],[-72.59293,-38.426568],[-72.593506,-38.426533],[-72.594082,-38.426486],[-72.594423,-38.426462],[-72.594823,-38.426451],[-72.595211,-38.426462],[-72.595787,-38.426509],[-72.596121,-38.42655],[-72.596363,-38.42658],[-72.596916,-38.426615],[-72.597445,-38.426639],[-72.597986,-38.426615],[-72.598456,-38.426556],[-72.598856,-38.426521],[-72.59933,-38.426398],[-72.599828,-38.426295],[-72.60035,-38.426192],[-72.600938,-38.426121],[-72.601467,-38.42611],[-72.601926,-38.426039],[-72.602443,-38.425933],[-72.603054,-38.425757],[-72.603654,-38.425639],[-72.604021,-38.425361],[-72.604228,-38.425205],[-72.604436,-38.424966],[-72.604642,-38.424792],[-72.604723,-38.424747],[-72.604854,-38.424675],[-72.605136,-38.424593],[-72.605489,-38.424557],[-72.605783,-38.42451],[-72.606124,-38.424487],[-72.606476,-38.424369],[-72.60677,-38.424228],[-72.607029,-38.424134],[-72.607335,-38.424075],[-72.607511,-38.424146],[-72.607735,-38.42424],[-72.607935,-38.424487],[-72.608323,-38.424581],[-72.608746,-38.424769],[-72.60911,-38.424875],[-72.609487,-38.425028],[-72.609607,-38.425094],[-72.609722,-38.425157],[-72.609875,-38.425357],[-72.610228,-38.425569],[-72.610604,-38.425769],[-72.610968,-38.425992],[-72.611321,-38.426168],[-72.611662,-38.426309],[-72.612156,-38.426427],[-72.612615,-38.426392],[-72.613109,-38.426298],[-72.613206,-38.426273],[-72.613473,-38.426204],[-72.613873,-38.426051],[-72.614167,-38.425968],[-72.614473,-38.425945],[-72.614708,-38.42598],[-72.61512,-38.426062],[-72.615472,-38.426157],[-72.615813,-38.426227],[-72.616166,-38.426133],[-72.61646,-38.426051],[-72.616813,-38.425863],[-72.617189,-38.425686],[-72.617483,-38.42558],[-72.617848,-38.425498],[-72.618295,-38.425439],[-72.618753,-38.425404],[-72.619224,-38.425475],[-72.619717,-38.42551],[-72.620141,-38.425604],[-72.62068,-38.425662],[-72.620799,-38.425674],[-72.621117,-38.42571],[-72.621505,-38.425698],[-72.621933,-38.42562],[-72.622422,-38.425674],[-72.622845,-38.425757],[-72.623445,-38.425733],[-72.623986,-38.425569],[-72.624774,-38.425357],[-72.625715,-38.425028],[-72.626232,-38.424828],[-72.626655,-38.424593],[-72.627102,-38.424299],[-72.627423,-38.424032],[-72.628005,-38.423669],[-72.628503,-38.423316],[-72.628773,-38.423077],[-72.629207,-38.422793],[-72.629481,-38.422646],[-72.629666,-38.422546],[-72.630136,-38.422347],[-72.630571,-38.422147],[-72.631053,-38.421935],[-72.631524,-38.421794],[-72.631877,-38.421664],[-72.632239,-38.421448],[-72.632768,-38.421261],[-72.633079,-38.421126],[-72.633311,-38.421065],[-72.633629,-38.420947],[-72.633876,-38.420888],[-72.634111,-38.420877],[-72.63444,-38.420959],[-72.634769,-38.421041],[-72.63504,-38.421065],[-72.635346,-38.421288],[-72.635569,-38.421559],[-72.635734,-38.421735],[-72.635875,-38.4219],[-72.636028,-38.42197],[-72.636228,-38.4221],[-72.636475,-38.422205],[-72.636595,-38.422255],[-72.636674,-38.422288],[-72.636898,-38.422394],[-72.637086,-38.422511],[-72.637309,-38.422664],[-72.637509,-38.42284],[-72.637686,-38.423005],[-72.63778,-38.423134],[-72.637815,-38.423276],[-72.637839,-38.42344],[-72.63785,-38.423675],[-72.637897,-38.423899],[-72.637956,-38.42411],[-72.637969,-38.424172],[-72.638003,-38.424346],[-72.638133,-38.424663],[-72.638356,-38.424992],[-72.638779,-38.425686],[-72.639109,-38.426145],[-72.639438,-38.426498],[-72.639603,-38.426724],[-72.639495,-38.426988],[-72.639228,-38.427103],[-72.638681,-38.427358],[-72.638028,-38.427625],[-72.637546,-38.427831],[-72.637005,-38.428086],[-72.636426,-38.428482],[-72.635811,-38.428985],[-72.635002,-38.429622],[-72.634481,-38.430014],[-72.633917,-38.430414],[-72.633364,-38.430743],[-72.63291,-38.430991],[-72.632339,-38.431246],[-72.632333,-38.431249],[-72.629211,-38.428461],[-72.623851,-38.429729],[-72.622033,-38.434161],[-72.625576,-38.437326],[-72.624456,-38.440055],[-72.624174,-38.440215],[-72.623628,-38.440549],[-72.622961,-38.440776],[-72.622521,-38.440882],[-72.622241,-38.440985],[-72.621963,-38.441117],[-72.621852,-38.441319],[-72.621935,-38.441541],[-72.622309,-38.441823],[-72.622661,-38.442018],[-72.618397,-38.443026],[-72.616578,-38.447458],[-72.616891,-38.447738],[-72.616758,-38.447848],[-72.616561,-38.447945],[-72.615909,-38.448041],[-72.615287,-38.448025],[-72.61465,-38.448041],[-72.614028,-38.448086],[-72.613585,-38.448166],[-72.613437,-38.448192],[-72.612866,-38.44822],[-72.612239,-38.448268],[-72.611541,-38.448207],[-72.610919,-38.448116],[-72.610522,-38.448104],[-72.610506,-38.448104],[-72.610179,-38.448196],[-72.60985,-38.448318],[-72.609641,-38.448503],[-72.609493,-38.44881],[-72.609463,-38.449239],[-72.609519,-38.449923],[-72.609751,-38.450619],[-72.609994,-38.451028],[-72.61017,-38.451275],[-72.610373,-38.451559],[-72.610677,-38.452321],[-72.610646,-38.452636],[-72.610514,-38.452834],[-72.60979,-38.45327],[-72.609636,-38.45337],[-72.6087,-38.45398],[-72.607818,-38.454704],[-72.60674,-38.45569],[-72.606357,-38.456042],[-72.606094,-38.456407],[-72.605942,-38.456752],[-72.60585,-38.45704],[-72.60569,-38.45748],[-72.605526,-38.457741],[-72.605171,-38.457931],[-72.604651,-38.45826],[-72.604461,-38.45845],[-72.604436,-38.458679],[-72.604563,-38.459211],[-72.60522,-38.46008],[-72.60557,-38.46067],[-72.605621,-38.460957],[-72.605602,-38.461239],[-72.605456,-38.461437],[-72.605255,-38.461572],[-72.605184,-38.461619],[-72.604499,-38.461873],[-72.603802,-38.462075],[-72.603194,-38.462164],[-72.60214,-38.46221],[-72.60147,-38.46215],[-72.60081,-38.46202],[-72.59975,-38.46145],[-72.59877,-38.46086],[-72.59822,-38.46069],[-72.59771,-38.46077],[-72.59715,-38.46114],[-72.596012,-38.462174],[-72.59573,-38.46243],[-72.59386,-38.46423],[-72.593044,-38.465023],[-72.59241,-38.46564],[-72.59188,-38.46662],[-72.59187,-38.46693],[-72.59195,-38.46732],[-72.59191,-38.46782],[-72.59211,-38.46846],[-72.59255,-38.46929],[-72.59255,-38.46973],[-72.59232,-38.46999],[-72.59179,-38.47011],[-72.5912,-38.47016],[-72.59057,-38.47006],[-72.5899,-38.46989],[-72.58874,-38.46945],[-72.588228,-38.469334],[-72.58781,-38.46924],[-72.58709,-38.46917],[-72.5865,-38.46929],[-72.58598,-38.46957],[-72.5856,-38.47028],[-72.58517,-38.47084],[-72.585098,-38.4709],[-72.58447,-38.47142],[-72.583932,-38.471895],[-72.58365,-38.472155],[-72.58352,-38.472394],[-72.583455,-38.47264],[-72.583556,-38.472828],[-72.583723,-38.473038],[-72.58428,-38.47344],[-72.58526,-38.4743],[-72.5858,-38.47462],[-72.58631,-38.47477],[-72.58674,-38.47491],[-72.58725,-38.47522],[-72.58762,-38.47542],[-72.588053,-38.475811],[-72.58859,-38.47616],[-72.589025,-38.476575],[-72.589133,-38.476785],[-72.589105,-38.47698],[-72.58893,-38.47727],[-72.58874,-38.47768],[-72.588566,-38.478087],[-72.588553,-38.478117],[-72.58817,-38.478479],[-72.58773,-38.47856],[-72.587362,-38.478542],[-72.586902,-38.478479],[-72.58669,-38.47845],[-72.58636,-38.47846],[-72.58612,-38.4785],[-72.58573,-38.47873],[-72.585686,-38.478766],[-72.585258,-38.479116],[-72.585035,-38.479467],[-72.584758,-38.479754],[-72.584397,-38.479935],[-72.58396,-38.48011],[-72.583754,-38.480221],[-72.58342,-38.4804],[-72.583216,-38.480539],[-72.582978,-38.480872],[-72.582768,-38.481118],[-72.58259,-38.48125],[-72.582,-38.4816],[-72.58101,-38.482072],[-72.58062,-38.482275],[-72.5801,-38.48273],[-72.579435,-38.483399],[-72.579145,-38.4837],[-72.57881,-38.484122],[-72.578646,-38.484428],[-72.57849,-38.48472],[-72.578436,-38.484974],[-72.578445,-38.485192],[-72.578492,-38.485395],[-72.57864,-38.485673],[-72.5789,-38.4861],[-72.579302,-38.486881],[-72.57956,-38.48749],[-72.579635,-38.487645],[-72.57963,-38.487867],[-72.579556,-38.488039],[-72.5792,-38.48855],[-72.5789,-38.4891],[-72.57886,-38.48949],[-72.5789,-38.48992],[-72.57908,-38.49026],[-72.57946,-38.49076],[-72.579614,-38.490999],[-72.579646,-38.491403],[-72.57956,-38.49207],[-72.579524,-38.492226],[-72.57934,-38.49303],[-72.57927,-38.49397],[-72.57935,-38.49496],[-72.57937,-38.49546],[-72.57913,-38.4962],[-72.57878,-38.49669],[-72.57814,-38.49693],[-72.57759,-38.49696],[-72.57729,-38.49687],[-72.576987,-38.49668],[-72.57686,-38.4966],[-72.57623,-38.49613],[-72.57588,-38.49595],[-72.575583,-38.495933],[-72.57522,-38.49595],[-72.57433,-38.49601],[-72.57328,-38.49617],[-72.572548,-38.496183],[-72.572104,-38.496128],[-72.571882,-38.496007],[-72.571864,-38.495822],[-72.571938,-38.495665],[-72.572089,-38.495531],[-72.57241,-38.4953],[-72.57296,-38.49494],[-72.57372,-38.49403],[-72.5743,-38.49314],[-72.57472,-38.49236],[-72.57512,-38.49131],[-72.57544,-38.49038],[-72.57564,-38.48996],[-72.575756,-38.489737],[-72.575862,-38.489532],[-72.575915,-38.489192],[-72.575788,-38.488958],[-72.57563,-38.48887],[-72.575405,-38.488788],[-72.575388,-38.488788],[-72.5751,-38.48878],[-72.57442,-38.48907],[-72.57378,-38.48954],[-72.573381,-38.489671],[-72.5732,-38.48973],[-72.573117,-38.489733],[-72.57262,-38.48975],[-72.57221,-38.4895],[-72.57156,-38.48924],[-72.57073,-38.48918],[-72.56996,-38.48931],[-72.56925,-38.48946],[-72.568888,-38.489655],[-72.56873,-38.48974],[-72.56849,-38.49005],[-72.56832,-38.49126],[-72.56801,-38.49204],[-72.56769,-38.49273],[-72.56711,-38.49326],[-72.56647,-38.49353],[-72.56555,-38.49355],[-72.56461,-38.49332],[-72.56211,-38.49225],[-72.56004,-38.49131],[-72.559854,-38.491228],[-72.55797,-38.49039],[-72.5568,-38.48951],[-72.556248,-38.488771],[-72.556041,-38.488616],[-72.55576,-38.488559],[-72.555507,-38.488432],[-72.55541,-38.48826],[-72.555261,-38.48799],[-72.555077,-38.487789],[-72.554899,-38.48764],[-72.554549,-38.487491],[-72.554394,-38.487296],[-72.553952,-38.486963],[-72.553429,-38.486834],[-72.552913,-38.486704],[-72.552511,-38.486676],[-72.552016,-38.486741],[-72.551943,-38.48675],[-72.551564,-38.486848],[-72.551202,-38.486991],[-72.550858,-38.487164],[-72.550505,-38.487472],[-72.550209,-38.48787],[-72.550085,-38.488187],[-72.550069,-38.488451],[-72.550106,-38.488692],[-72.550215,-38.488949],[-72.550435,-38.489221],[-72.550878,-38.489494],[-72.550881,-38.489496],[-72.55247,-38.49051],[-72.55334,-38.49112],[-72.553595,-38.491481],[-72.55379,-38.49197],[-72.553935,-38.492271],[-72.553935,-38.492599],[-72.554117,-38.49294],[-72.55453,-38.49326],[-72.55482,-38.4936],[-72.554883,-38.494027],[-72.5549,-38.49414],[-72.55478,-38.49482],[-72.554664,-38.495188],[-72.554482,-38.495455],[-72.554226,-38.495674],[-72.553753,-38.495844],[-72.553091,-38.495893],[-72.553749,-38.494294],[-72.550211,-38.491126],[-72.544848,-38.492388],[-72.543024,-38.496818],[-72.537661,-38.49808],[-72.535836,-38.50251],[-72.539374,-38.50568],[-72.544737,-38.504418],[-72.546562,-38.499987],[-72.550489,-38.499063],[-72.55043,-38.49939],[-72.54998,-38.5],[-72.54998,-38.5],[-72.54989,-38.50012],[-72.54948,-38.50054],[-72.54892,-38.50082],[-72.54817,-38.50102],[-72.54716,-38.50115],[-72.54651,-38.50137],[-72.54626,-38.50162],[-72.54623,-38.50199],[-72.54648,-38.50245],[-72.54663,-38.50317],[-72.54673,-38.50361],[-72.54678,-38.50397],[-72.54703,-38.50438],[-72.54759,-38.5045],[-72.54825,-38.50444],[-72.54877,-38.50431],[-72.54926,-38.50427],[-72.5497,-38.50443],[-72.54989,-38.50473],[-72.54997,-38.50616],[-72.54974,-38.50719],[-72.549715,-38.507249],[-72.54943,-38.50792],[-72.54919,-38.50842],[-72.549091,-38.50869],[-72.54895,-38.50895],[-72.54833,-38.5095],[-72.548056,-38.50978],[-72.547945,-38.509947],[-72.547928,-38.510187],[-72.547941,-38.510382],[-72.547911,-38.510532],[-72.547711,-38.510721],[-72.547333,-38.510927],[-72.546932,-38.511066],[-72.546835,-38.511087],[-72.54664,-38.51113],[-72.546314,-38.511161],[-72.546097,-38.511177],[-72.54591,-38.51114],[-72.54461,-38.51057],[-72.543687,-38.510347],[-72.543017,-38.510305],[-72.542439,-38.510322],[-72.54166,-38.51042],[-72.541216,-38.510489],[-72.540756,-38.510381],[-72.53989,-38.50981],[-72.53861,-38.50902],[-72.538089,-38.5088],[-72.537866,-38.508706],[-72.537506,-38.50863],[-72.53716,-38.50863],[-72.53581,-38.50917],[-72.53482,-38.50972],[-72.53378,-38.51029],[-72.53337,-38.51081],[-72.533261,-38.511118],[-72.53308,-38.51163],[-72.53264,-38.51223],[-72.53176,-38.51295],[-72.531478,-38.513088],[-72.5309,-38.51337],[-72.53037,-38.51343],[-72.52943,-38.51357],[-72.52879,-38.51358],[-72.52813,-38.51359],[-72.52761,-38.51344],[-72.52673,-38.51289],[-72.52626,-38.51251],[-72.52573,-38.51169],[-72.52537,-38.51076],[-72.52513,-38.51031],[-72.5247,-38.50914],[-72.524695,-38.509131],[-72.5244,-38.50857],[-72.52358,-38.50789],[-72.52321,-38.50774],[-72.52281,-38.50771],[-72.52212,-38.50794],[-72.521841,-38.508169],[-72.52074,-38.50907],[-72.51989,-38.509992],[-72.519332,-38.510388],[-72.518875,-38.510631],[-72.51829,-38.51073],[-72.51795,-38.51065],[-72.517738,-38.510449],[-72.517667,-38.510236],[-72.517799,-38.50987],[-72.51796,-38.50951],[-72.518053,-38.508962],[-72.518053,-38.508683],[-72.518049,-38.508542],[-72.51802,-38.50834],[-72.517916,-38.508184],[-72.51777,-38.508001],[-72.517575,-38.507847],[-72.516464,-38.507065],[-72.51572,-38.50654],[-72.51539,-38.50613],[-72.515316,-38.505995],[-72.515278,-38.505833],[-72.515364,-38.505676],[-72.51548,-38.50553],[-72.51623,-38.50518],[-72.516456,-38.504894],[-72.51654,-38.50472],[-72.516532,-38.504569],[-72.516418,-38.504412],[-72.51605,-38.50397],[-72.51569,-38.50337],[-72.51521,-38.50262],[-72.51479,-38.5022],[-72.5144,-38.50209],[-72.51391,-38.50222],[-72.51344,-38.50226],[-72.51286,-38.50212],[-72.51236,-38.50159],[-72.512211,-38.501083],[-72.512676,-38.499954],[-72.510417,-38.497929],[-72.51041,-38.497898],[-72.510228,-38.497503],[-72.50984,-38.49708],[-72.509408,-38.496758],[-72.509172,-38.496711],[-72.508952,-38.496667],[-72.50844,-38.49681],[-72.507843,-38.496971],[-72.506947,-38.497184],[-72.50646,-38.49723],[-72.505823,-38.497138],[-72.50525,-38.49695],[-72.50486,-38.49663],[-72.504684,-38.496227],[-72.50477,-38.49577],[-72.505003,-38.495498],[-72.505139,-38.495179],[-72.505124,-38.494814],[-72.50458,-38.49427],[-72.504213,-38.493842],[-72.503727,-38.493477],[-72.503073,-38.493082],[-72.50246,-38.49256],[-72.50203,-38.49208],[-72.50192,-38.49177],[-72.50208,-38.49123],[-72.50229,-38.49079],[-72.50246,-38.49051],[-72.502558,-38.490333],[-72.50276,-38.48997],[-72.50313,-38.48926],[-72.50326,-38.48868],[-72.503272,-38.488396],[-72.503167,-38.487958],[-72.502952,-38.487617],[-72.502614,-38.487405],[-72.50229,-38.487289],[-72.50102,-38.48667],[-72.5,-38.4864],[-72.49987,-38.48636],[-72.49893,-38.486333],[-72.49743,-38.48629],[-72.495537,-38.48633],[-72.493739,-38.486292],[-72.49243,-38.4863],[-72.491378,-38.486301],[-72.491037,-38.486235],[-72.490714,-38.486045],[-72.490486,-38.485704],[-72.490259,-38.485305],[-72.490183,-38.484792],[-72.49024,-38.484299],[-72.490325,-38.483753],[-72.490326,-38.483728],[-72.49033,-38.48326],[-72.49,-38.48244],[-72.48927,-38.48161],[-72.48725,-38.48001],[-72.486558,-38.479153],[-72.485918,-38.47856],[-72.485553,-38.478335],[-72.4853,-38.47818],[-72.48437,-38.47779],[-72.48267,-38.4777],[-72.481622,-38.47761],[-72.481052,-38.477563],[-72.480858,-38.477481],[-72.480316,-38.477254],[-72.479675,-38.476827],[-72.478953,-38.476609],[-72.478011,-38.476475],[-72.477185,-38.476455],[-72.476788,-38.476396],[-72.476546,-38.47636],[-72.476022,-38.476201],[-72.475376,-38.476035],[-72.474626,-38.476076],[-72.473876,-38.476243],[-72.473126,-38.47641],[-72.473005,-38.4765],[-72.472525,-38.476856],[-72.471906,-38.477484],[-72.471085,-38.477993],[-72.470251,-38.478368],[-72.469468,-38.478816],[-72.468661,-38.478997],[-72.467912,-38.479143],[-72.467494,-38.479267],[-72.467175,-38.479395],[-72.466485,-38.479608],[-72.465743,-38.479839],[-72.465149,-38.480025],[-72.464607,-38.480167],[-72.463906,-38.480319],[-72.463767,-38.480344],[-72.462983,-38.479639],[-72.459716,-38.480406],[-72.45953,-38.480416],[-72.458748,-38.480472],[-72.458299,-38.480472],[-72.45774,-38.480548],[-72.457387,-38.480626],[-72.457349,-38.480648],[-72.454097,-38.477728],[-72.44874,-38.478985],[-72.445213,-38.475817],[-72.443105,-38.476311],[-72.443,-38.4763],[-72.44239,-38.47645],[-72.44212,-38.476542],[-72.441424,-38.476706],[-72.44126,-38.47671],[-72.44057,-38.47643],[-72.440315,-38.476277],[-72.43995,-38.4762],[-72.43947,-38.47633],[-72.439102,-38.476395],[-72.4389,-38.47643],[-72.43827,-38.47628],[-72.43767,-38.47601],[-72.43724,-38.47605],[-72.43676,-38.47635],[-72.43644,-38.4764],[-72.43627,-38.47627],[-72.43602,-38.47592],[-72.4359,-38.47572],[-72.43554,-38.47559],[-72.43458,-38.47549],[-72.43427,-38.47531],[-72.43369,-38.4747],[-72.433593,-38.474547],[-72.43332,-38.47412],[-72.43275,-38.47364],[-72.4323,-38.47341],[-72.43181,-38.47323],[-72.43141,-38.47297],[-72.43123,-38.47266],[-72.43117,-38.47227],[-72.43088,-38.47194],[-72.43069,-38.47166],[-72.43064,-38.47139],[-72.4308,-38.47036],[-72.43077,-38.46993],[-72.430703,-38.469604],[-72.43057,-38.46937],[-72.430309,-38.469076],[-72.429993,-38.468894],[-72.429641,-38.468784],[-72.429268,-38.468717],[-72.428827,-38.468666],[-72.42869,-38.46865],[-72.428171,-38.468523],[-72.427842,-38.468303],[-72.427613,-38.468032],[-72.427407,-38.467904],[-72.42714,-38.467807],[-72.426457,-38.467742],[-72.425656,-38.467742],[-72.424855,-38.467697],[-72.424528,-38.46764],[-72.424116,-38.467485],[-72.423461,-38.466911],[-72.423079,-38.466554],[-72.422883,-38.466143],[-72.422852,-38.466016],[-72.42285,-38.466005],[-72.422819,-38.465878],[-72.42281,-38.465843],[-72.422793,-38.465772],[-72.422759,-38.465631],[-72.422754,-38.46561],[-72.422715,-38.465449],[-72.422471,-38.4655],[-72.422385,-38.465518],[-72.422225,-38.465551],[-72.422028,-38.465592],[-72.422009,-38.465596],[-72.421755,-38.465649],[-72.421113,-38.465781],[-72.421033,-38.465798],[-72.420696,-38.465868],[-72.420483,-38.46592],[-72.420271,-38.465972],[-72.419527,-38.466156],[-72.419208,-38.466235],[-72.419128,-38.466269],[-72.418933,-38.466354],[-72.418905,-38.466454],[-72.418735,-38.466498],[-72.418232,-38.466627],[-72.417369,-38.466849],[-72.416268,-38.46713],[-72.415691,-38.467278],[-72.414667,-38.467541],[-72.413796,-38.467764],[-72.411636,-38.46832],[-72.410869,-38.468507],[-72.410444,-38.468552],[-72.410231,-38.468575],[-72.410163,-38.468589],[-72.409694,-38.468167],[-72.40434,-38.469422],[-72.40407,-38.470075],[-72.40404,-38.470082],[-72.403763,-38.470151],[-72.403228,-38.470283],[-72.401178,-38.47083],[-72.400605,-38.470974],[-72.397954,-38.471639],[-72.395955,-38.472144],[-72.394325,-38.472554],[-72.394009,-38.472634],[-72.393914,-38.472658],[-72.393325,-38.472812],[-72.390666,-38.473508],[-72.388228,-38.474146],[-72.387839,-38.474248],[-72.386116,-38.474699],[-72.382588,-38.475522],[-72.382551,-38.475531],[-72.379439,-38.476256],[-72.379015,-38.476355],[-72.378461,-38.476493],[-72.37171,-38.478176],[-72.370696,-38.478428],[-72.36784,-38.47914],[-72.367415,-38.479247],[-72.366089,-38.479581],[-72.36316,-38.48032],[-72.362626,-38.480454],[-72.355523,-38.482241],[-72.356161,-38.480705],[-72.361513,-38.479452],[-72.363348,-38.47503],[-72.35983,-38.471861],[-72.361664,-38.467439],[-72.358146,-38.46427],[-72.35998,-38.459848],[-72.365331,-38.458595],[-72.367165,-38.454173],[-72.363647,-38.451005],[-72.358297,-38.452258],[-72.354781,-38.449089],[-72.349432,-38.450342],[-72.345917,-38.447174],[-72.340568,-38.448426],[-72.338733,-38.452847],[-72.333384,-38.454098],[-72.331548,-38.458519],[-72.335063,-38.461688],[-72.340413,-38.460436],[-72.343928,-38.463605],[-72.342093,-38.468026],[-72.336742,-38.469278],[-72.334907,-38.473699],[-72.338422,-38.476868],[-72.337461,-38.479185],[-72.33587,-38.47847],[-72.334127,-38.477981],[-72.33366,-38.477692],[-72.333237,-38.477381],[-72.332886,-38.477135],[-72.332547,-38.476847],[-72.332102,-38.476557],[-72.331657,-38.476357],[-72.331079,-38.476179],[-72.329223,-38.47575],[-72.329556,-38.47495],[-72.326041,-38.47178],[-72.320985,-38.472962],[-72.320667,-38.472553],[-72.320025,-38.471655],[-72.31871,-38.4705],[-72.318021,-38.469947],[-72.317641,-38.469482],[-72.317467,-38.469163],[-72.319013,-38.465441],[-72.3155,-38.462272],[-72.311397,-38.463231],[-72.310855,-38.462919],[-72.31015,-38.46243],[-72.30943,-38.46156],[-72.30914,-38.460872],[-72.309209,-38.459994],[-72.309278,-38.45934],[-72.30932,-38.458336],[-72.309297,-38.457646],[-72.30895,-38.457061],[-72.308519,-38.456778],[-72.308168,-38.456675],[-72.308476,-38.455933],[-72.304965,-38.452764],[-72.299617,-38.454014],[-72.296107,-38.450845],[-72.29076,-38.452095],[-72.28725,-38.448926],[-72.281904,-38.450175],[-72.278396,-38.447006],[-72.276409,-38.44747],[-72.275997,-38.4474],[-72.27514,-38.447519],[-72.274297,-38.447932],[-72.274159,-38.447995],[-72.27305,-38.448254],[-72.27294,-38.448518],[-72.272663,-38.44862],[-72.272095,-38.448672],[-72.270701,-38.448861],[-72.269462,-38.44893],[-72.268523,-38.449182],[-72.267436,-38.449747],[-72.266828,-38.450268],[-72.265785,-38.45079],[-72.265236,-38.450875],[-72.264481,-38.450746],[-72.264004,-38.450495],[-72.263629,-38.449968],[-72.263178,-38.449486],[-72.262971,-38.449279],[-72.262554,-38.448863],[-72.261902,-38.448693],[-72.261298,-38.448566],[-72.259065,-38.443544],[-72.257149,-38.439234],[-72.256304,-38.437425],[-72.259208,-38.436554],[-72.25872,-38.436091],[-72.258429,-38.435748],[-72.258422,-38.43572],[-72.258342,-38.435407],[-72.2584,-38.434997],[-72.258514,-38.434519],[-72.258795,-38.433922],[-72.259181,-38.433289],[-72.259427,-38.432552],[-72.259462,-38.432024],[-72.259392,-38.431533],[-72.259111,-38.430935],[-72.253859,-38.432088],[-72.252597,-38.429106],[-72.252362,-38.428551],[-72.251702,-38.426659],[-72.251335,-38.42572],[-72.250645,-38.424061],[-72.250007,-38.422481],[-72.25,-38.422463],[-72.249287,-38.420697],[-72.248371,-38.418427],[-72.247616,-38.416644],[-72.246784,-38.41468],[-72.246763,-38.414493],[-72.246097,-38.413115],[-72.245516,-38.411569],[-72.245328,-38.411038],[-72.245236,-38.410779],[-72.244879,-38.40977],[-72.244212,-38.40799],[-72.242622,-38.403942],[-72.242474,-38.403569],[-72.240279,-38.398037],[-72.239592,-38.396272],[-72.238205,-38.392707],[-72.236893,-38.389368],[-72.236735,-38.38897],[-72.234527,-38.383404],[-72.23494,-38.38316],[-72.235167,-38.382983],[-72.23535,-38.382747],[-72.23556,-38.382537],[-72.235757,-38.38238],[-72.235849,-38.382118],[-72.236015,-38.381974],[-72.236217,-38.381889],[-72.23643,-38.381868],[-72.236685,-38.381847],[-72.237014,-38.381868],[-72.237344,-38.381953],[-72.237684,-38.382187],[-72.237875,-38.382495],[-72.238162,-38.382814],[-72.238406,-38.382963],[-72.238757,-38.38309],[-72.239172,-38.383143],[-72.239533,-38.383186],[-72.240054,-38.383186],[-72.24083,-38.383197],[-72.241287,-38.383207],[-72.24147,-38.383238],[-72.241995,-38.383713],[-72.241999,-38.383728],[-72.242011,-38.383799],[-72.242051,-38.384032],[-72.242012,-38.384334],[-72.241973,-38.384806],[-72.241894,-38.385186],[-72.241815,-38.38554],[-72.241967,-38.385811],[-72.242158,-38.385971],[-72.242466,-38.386151],[-72.24287,-38.386321],[-72.2432,-38.386438],[-72.243433,-38.386491],[-72.243678,-38.386534],[-72.243997,-38.386513],[-72.244432,-38.386491],[-72.244889,-38.386449],[-72.24523,-38.386449],[-72.24557,-38.38647],[-72.245814,-38.386491],[-72.246101,-38.386513],[-72.246377,-38.386598],[-72.246601,-38.386683],[-72.246749,-38.386778],[-72.246888,-38.386895],[-72.247143,-38.387161],[-72.247345,-38.387384],[-72.247589,-38.387628],[-72.24794,-38.387947],[-72.248248,-38.388107],[-72.248514,-38.388266],[-72.248981,-38.388521],[-72.249417,-38.388712],[-72.249579,-38.388771],[-72.2498,-38.388851],[-72.249948,-38.388904],[-72.249959,-38.389015],[-72.249927,-38.389191],[-72.24981,-38.38934],[-72.249885,-38.38951],[-72.25,-38.389581],[-72.250023,-38.389595],[-72.250235,-38.389658],[-72.250533,-38.389701],[-72.250862,-38.389712],[-72.251224,-38.389807],[-72.251479,-38.38985],[-72.251755,-38.389828],[-72.252074,-38.389722],[-72.252371,-38.389637],[-72.252552,-38.389648],[-72.252743,-38.389775],[-72.252956,-38.389956],[-72.253285,-38.3902],[-72.253594,-38.390349],[-72.254029,-38.390487],[-72.25454,-38.390604],[-72.25505,-38.390742],[-72.255326,-38.390806],[-72.255475,-38.390912],[-72.255783,-38.391083],[-72.256112,-38.391423],[-72.256336,-38.391603],[-72.256453,-38.391805],[-72.256516,-38.392018],[-72.256555,-38.392306],[-72.256559,-38.392337],[-72.256529,-38.392595],[-72.256463,-38.393002],[-72.256332,-38.393553],[-72.256266,-38.393867],[-72.256332,-38.39409],[-72.256476,-38.394313],[-72.256725,-38.394471],[-72.256975,-38.394589],[-72.257407,-38.394667],[-72.257945,-38.394654],[-72.258535,-38.394589],[-72.25902,-38.394418],[-72.259584,-38.394235],[-72.260004,-38.394221],[-72.260298,-38.394187],[-72.261378,-38.395163],[-72.261572,-38.395118],[-72.2618,-38.395375],[-72.262259,-38.395847],[-72.262532,-38.396248],[-72.262893,-38.39662],[-72.26318,-38.396768],[-72.263403,-38.396768],[-72.263711,-38.396673],[-72.264466,-38.39646],[-72.265072,-38.396258],[-72.265497,-38.396078],[-72.265848,-38.396067],[-72.266103,-38.396131],[-72.266262,-38.396269],[-72.26639,-38.39645],[-72.266475,-38.396683],[-72.266538,-38.396938],[-72.266549,-38.397236],[-72.266613,-38.397385],[-72.266655,-38.397576],[-72.266815,-38.397874],[-72.267229,-38.398326],[-72.26741,-38.39865],[-72.267654,-38.398968],[-72.267931,-38.399149],[-72.268356,-38.399436],[-72.268972,-38.399829],[-72.26906,-38.399874],[-72.268385,-38.401497],[-72.269256,-38.402284],[-72.269144,-38.402404],[-72.269118,-38.402653],[-72.269118,-38.403021],[-72.269236,-38.403243],[-72.269472,-38.403475],[-72.269759,-38.403581],[-72.270036,-38.403571],[-72.270398,-38.403601],[-72.270746,-38.40363],[-72.271889,-38.404664],[-72.270052,-38.40908],[-72.273557,-38.412247],[-72.2789,-38.410998],[-72.280736,-38.406581],[-72.277231,-38.403414],[-72.277813,-38.402015],[-72.278901,-38.401766],[-72.28684,-38.399943],[-72.290761,-38.399042],[-72.293823,-38.3983],[-72.298051,-38.397275],[-72.302072,-38.396303],[-72.302798,-38.396129],[-72.305939,-38.395375],[-72.308855,-38.394712],[-72.309885,-38.394461],[-72.313384,-38.393607],[-72.316986,-38.392746],[-72.318755,-38.392311],[-72.325984,-38.390532],[-72.326596,-38.390382],[-72.328033,-38.390117],[-72.334771,-38.388541],[-72.335876,-38.388283],[-72.3374,-38.387929],[-72.340317,-38.387244],[-72.341863,-38.386869],[-72.341985,-38.386841],[-72.343476,-38.386493],[-72.346923,-38.385698],[-72.349662,-38.385057],[-72.35081,-38.384789],[-72.353727,-38.384107],[-72.35798,-38.38316],[-72.358048,-38.383145],[-72.358018,-38.383069],[-72.356722,-38.379702],[-72.356539,-38.37918],[-72.3558,-38.377146],[-72.355729,-38.376953],[-72.355077,-38.375158],[-72.354594,-38.3738],[-72.353262,-38.369895],[-72.353224,-38.369649],[-72.35401,-38.369464],[-72.355841,-38.365045],[-72.352331,-38.361881],[-72.353353,-38.359416],[-72.353624,-38.359367],[-72.353858,-38.359283],[-72.354112,-38.359148],[-72.354281,-38.359034],[-72.354415,-38.358979],[-72.354594,-38.358934],[-72.354748,-38.358914],[-72.354923,-38.358919],[-72.355097,-38.358939],[-72.355325,-38.358999],[-72.355574,-38.359069],[-72.355833,-38.359128],[-72.356176,-38.359223],[-72.35641,-38.359273],[-72.356663,-38.359307],[-72.356872,-38.359302],[-72.357265,-38.359287],[-72.357598,-38.359258],[-72.357857,-38.359223],[-72.35815,-38.359188],[-72.358498,-38.359138],[-72.358871,-38.359084],[-72.359254,-38.359019],[-72.359463,-38.358979],[-72.359647,-38.358964],[-72.359836,-38.358964],[-72.36014,-38.358984],[-72.360547,-38.358989],[-72.360935,-38.359004],[-72.361348,-38.358974],[-72.361786,-38.358939],[-72.362208,-38.358865],[-72.362412,-38.358828],[-72.363014,-38.359371],[-72.368355,-38.358115],[-72.368587,-38.357555],[-72.368707,-38.357525],[-72.368909,-38.357463],[-72.369126,-38.357346],[-72.369352,-38.357222],[-72.369717,-38.35702],[-72.37009,-38.356857],[-72.370447,-38.35667],[-72.370844,-38.356577],[-72.371326,-38.356383],[-72.371792,-38.356266],[-72.372196,-38.356142],[-72.372375,-38.356095],[-72.372515,-38.35608],[-72.37281,-38.356064],[-72.373284,-38.356064],[-72.373649,-38.356072],[-72.374263,-38.35608],[-72.37497,-38.356103],[-72.375374,-38.356118],[-72.375654,-38.356126],[-72.375926,-38.356165],[-72.376268,-38.356235],[-72.376625,-38.356305],[-72.376991,-38.356375],[-72.377255,-38.356414],[-72.377511,-38.356383],[-72.377682,-38.356367],[-72.377863,-38.356264],[-72.378002,-38.356195],[-72.378158,-38.356079],[-72.378413,-38.355882],[-72.378714,-38.355639],[-72.378939,-38.355514],[-72.379026,-38.355466],[-72.379267,-38.355287],[-72.3795,-38.35517],[-72.379749,-38.355038],[-72.380052,-38.354953],[-72.380301,-38.354883],[-72.380689,-38.354875],[-72.381093,-38.354852],[-72.381389,-38.354805],[-72.381669,-38.35472],[-72.381933,-38.354689],[-72.382158,-38.354634],[-72.382376,-38.354657],[-72.382632,-38.35465],[-72.382971,-38.354678],[-72.383005,-38.354681],[-72.383409,-38.354689],[-72.383774,-38.354665],[-72.384085,-38.354626],[-72.384334,-38.354549],[-72.384495,-38.35445],[-72.38454,-38.354422],[-72.384726,-38.35433],[-72.384911,-38.35422],[-72.385056,-38.354052],[-72.385212,-38.353889],[-72.385392,-38.353669],[-72.38556,-38.353438],[-72.385716,-38.353206],[-72.385896,-38.35305],[-72.386122,-38.352876],[-72.386324,-38.352725],[-72.386573,-38.352604],[-72.386712,-38.352505],[-72.38684,-38.352366],[-72.387077,-38.352204],[-72.387291,-38.352053],[-72.387465,-38.351961],[-72.387706,-38.351891],[-72.38794,-38.351806],[-72.38818,-38.351743],[-72.388445,-38.351681],[-72.38874,-38.351619],[-72.388958,-38.35158],[-72.38916,-38.35158],[-72.389432,-38.351565],[-72.389696,-38.351557],[-72.38996,-38.351518],[-72.390232,-38.351471],[-72.390504,-38.351433],[-72.390838,-38.35137],[-72.39118,-38.351324],[-72.391436,-38.351293],[-72.391677,-38.351277],[-72.392011,-38.351277],[-72.392447,-38.351238],[-72.392765,-38.351176],[-72.393037,-38.35108],[-72.393441,-38.351036],[-72.39383,-38.350982],[-72.394076,-38.350944],[-72.394133,-38.350935],[-72.394382,-38.350912],[-72.394692,-38.350904],[-72.394957,-38.350865],[-72.395244,-38.35092],[-72.395493,-38.35092],[-72.395672,-38.350974],[-72.395874,-38.351075],[-72.39613,-38.351168],[-72.396441,-38.351277],[-72.396791,-38.351378],[-72.396883,-38.351404],[-72.397202,-38.351495],[-72.39742,-38.351565],[-72.397731,-38.351619],[-72.397933,-38.351689],[-72.398197,-38.351728],[-72.398438,-38.351728],[-72.398702,-38.351736],[-72.398974,-38.351728],[-72.399332,-38.351743],[-72.399549,-38.351705],[-72.399751,-38.35172],[-72.399907,-38.35172],[-72.400093,-38.35179],[-72.400241,-38.351914],[-72.400404,-38.352031],[-72.400575,-38.352132],[-72.400792,-38.352334],[-72.40108,-38.35259],[-72.401375,-38.352862],[-72.401678,-38.353119],[-72.401927,-38.353251],[-72.40216,-38.353313],[-72.402409,-38.353329],[-72.402681,-38.353329],[-72.40286,-38.353329],[-72.403077,-38.353321],[-72.403217,-38.353368],[-72.40331,-38.353391],[-72.403411,-38.353461],[-72.403551,-38.353554],[-72.403699,-38.353663],[-72.403862,-38.353764],[-72.403905,-38.353776],[-72.402092,-38.358159],[-72.405607,-38.361323],[-72.410951,-38.360065],[-72.412328,-38.356733],[-72.41248,-38.356756],[-72.412713,-38.356849],[-72.413031,-38.356919],[-72.41335,-38.357028],[-72.413777,-38.357152],[-72.414065,-38.357191],[-72.414252,-38.35723],[-72.414508,-38.357338],[-72.414718,-38.357385],[-72.414912,-38.357451],[-72.415122,-38.357641],[-72.415409,-38.357797],[-72.415751,-38.357913],[-72.416148,-38.357983],[-72.416684,-38.358084],[-72.416995,-38.358154],[-72.417305,-38.358232],[-72.417531,-38.358325],[-72.417725,-38.358434],[-72.418059,-38.35859],[-72.418456,-38.358807],[-72.418968,-38.359056],[-72.419326,-38.35911],[-72.419582,-38.359095],[-72.41987,-38.359009],[-72.420297,-38.358893],[-72.4206,-38.358792],[-72.420896,-38.358675],[-72.421168,-38.358558],[-72.421234,-38.358528],[-72.421385,-38.358457],[-72.421603,-38.358364],[-72.421859,-38.358325],[-72.422007,-38.35831],[-72.422178,-38.35831],[-72.422419,-38.358372],[-72.422706,-38.358442],[-72.423079,-38.358512],[-72.423359,-38.358481],[-72.423615,-38.358473],[-72.423895,-38.358426],[-72.424156,-38.358378],[-72.424338,-38.35838],[-72.424563,-38.358457],[-72.424664,-38.358535],[-72.424851,-38.358683],[-72.424967,-38.358807],[-72.425208,-38.358924],[-72.425372,-38.358978],[-72.425527,-38.358986],[-72.425659,-38.358947],[-72.425776,-38.358869],[-72.425876,-38.358726],[-72.42594,-38.35865],[-72.426021,-38.358494],[-72.426171,-38.358204],[-72.426242,-38.358123],[-72.426382,-38.358014],[-72.426475,-38.357976],[-72.426615,-38.35796],[-72.426763,-38.357991],[-72.426949,-38.358046],[-72.427174,-38.358131],[-72.42747,-38.358224],[-72.427734,-38.358318],[-72.427998,-38.358395],[-72.428223,-38.35852],[-72.428379,-38.35859],[-72.428627,-38.358691],[-72.428853,-38.358776],[-72.429063,-38.358823],[-72.42928,-38.358838],[-72.429537,-38.35883],[-72.429816,-38.358838],[-72.42984,-38.358838],[-72.430011,-38.358846],[-72.430182,-38.358908],[-72.430368,-38.359017],[-72.430632,-38.359141],[-72.430904,-38.359266],[-72.43104,-38.359325],[-72.431169,-38.359382],[-72.431378,-38.359413],[-72.43158,-38.359468],[-72.431767,-38.359491],[-72.432062,-38.359538],[-72.432381,-38.3596],[-72.432707,-38.359724],[-72.433119,-38.359817],[-72.433399,-38.359872],[-72.433663,-38.359879],[-72.43395,-38.359879],[-72.434269,-38.359856],[-72.434588,-38.35981],[-72.434899,-38.359747],[-72.435202,-38.359677],[-72.435536,-38.359631],[-72.435878,-38.359584],[-72.436196,-38.359506],[-72.43653,-38.359444],[-72.436903,-38.359336],[-72.43707,-38.359296],[-72.437199,-38.359266],[-72.437525,-38.359149],[-72.43782,-38.359079],[-72.438053,-38.359032],[-72.438325,-38.358978],[-72.438597,-38.35897],[-72.438862,-38.358955],[-72.439134,-38.359009],[-72.439382,-38.359032],[-72.439577,-38.359102],[-72.439716,-38.359165],[-72.439864,-38.359289],[-72.439967,-38.359403],[-72.440051,-38.359646],[-72.440214,-38.360012],[-72.440486,-38.360478],[-72.440672,-38.36082],[-72.440784,-38.361022],[-72.440828,-38.361099],[-72.440975,-38.36134],[-72.441146,-38.36155],[-72.44145,-38.361737],[-72.44171,-38.362009],[-72.442035,-38.362369],[-72.442237,-38.362554],[-72.44251,-38.362768],[-72.442689,-38.362948],[-72.442927,-38.363075],[-72.443147,-38.363174],[-72.443392,-38.363291],[-72.443633,-38.36333],[-72.443913,-38.363369],[-72.444138,-38.363376],[-72.444457,-38.363376],[-72.444962,-38.363384],[-72.445591,-38.363407],[-72.445949,-38.363431],[-72.446252,-38.36354],[-72.446461,-38.363625],[-72.446617,-38.363672],[-72.446695,-38.363811],[-72.446702,-38.364021],[-72.446668,-38.364129],[-72.446662,-38.364436],[-72.446674,-38.364714],[-72.446679,-38.364977],[-72.446788,-38.365234],[-72.446967,-38.365436],[-72.447192,-38.365599],[-72.447251,-38.365625],[-72.447557,-38.365762],[-72.447922,-38.365948],[-72.44828,-38.366151],[-72.448715,-38.366345],[-72.448956,-38.366415],[-72.449197,-38.366477],[-72.449407,-38.366516],[-72.449609,-38.366539],[-72.449787,-38.366555],[-72.450028,-38.366617],[-72.450394,-38.366702],[-72.45072,-38.366827],[-72.451326,-38.367029],[-72.4518,-38.367168],[-72.452204,-38.367316],[-72.452655,-38.36744],[-72.452818,-38.367557],[-72.452997,-38.367705],[-72.45316,-38.367922],[-72.453346,-38.36821],[-72.453533,-38.368443],[-72.453758,-38.368645],[-72.454061,-38.3688],[-72.454395,-38.368909],[-72.454776,-38.368995],[-72.455188,-38.36915],[-72.455411,-38.369239],[-72.455577,-38.369305],[-72.455965,-38.369445],[-72.456323,-38.369492],[-72.456532,-38.369523],[-72.456867,-38.369492],[-72.457209,-38.369484],[-72.457589,-38.369461],[-72.45797,-38.369492],[-72.45832,-38.369539],[-72.458623,-38.369523],[-72.458996,-38.369453],[-72.459415,-38.369337],[-72.459897,-38.36915],[-72.460294,-38.36901],[-72.460682,-38.368878],[-72.461055,-38.368785],[-72.461379,-38.368595],[-72.461761,-38.368427],[-72.46219,-38.368218],[-72.462532,-38.368062],[-72.462889,-38.36793],[-72.463145,-38.36786],[-72.463371,-38.367829],[-72.463689,-38.367798],[-72.464016,-38.36772],[-72.46435,-38.367593],[-72.464824,-38.367472],[-72.465213,-38.367245],[-72.465474,-38.367077],[-72.46573,-38.366859],[-72.465787,-38.366811],[-72.466036,-38.366608],[-72.466233,-38.36644],[-72.466487,-38.366345],[-72.466774,-38.366259],[-72.46707,-38.366228],[-72.467505,-38.366174],[-72.467878,-38.366112],[-72.46829,-38.365956],[-72.468655,-38.36584],[-72.468989,-38.365684],[-72.469354,-38.365428],[-72.469638,-38.36523],[-72.469906,-38.365133],[-72.470124,-38.365039],[-72.470263,-38.364993],[-72.470388,-38.364938],[-72.470582,-38.364938],[-72.470745,-38.364954],[-72.470932,-38.365008],[-72.471165,-38.365055],[-72.471499,-38.365148]],[[-72.479804,-38.403748],[-72.48333,-38.406913],[-72.488682,-38.405652],[-72.490506,-38.401227],[-72.48698,-38.398062],[-72.481629,-38.399323],[-72.478104,-38.396158],[-72.472754,-38.397419],[-72.46923,-38.394254],[-72.46388,-38.395515],[-72.462054,-38.399939],[-72.465578,-38.403104],[-72.470929,-38.401844],[-72.474453,-38.405009],[-72.479804,-38.403748]],[[-72.497681,-38.395539],[-72.495857,-38.399965],[-72.499385,-38.40313],[-72.504736,-38.401868],[-72.508265,-38.405032],[-72.513617,-38.40377],[-72.51544,-38.399343],[-72.511911,-38.396179],[-72.513734,-38.391753],[-72.510206,-38.388589],[-72.504856,-38.389851],[-72.503032,-38.394277],[-72.497681,-38.395539]],[[-72.392519,-38.416289],[-72.389001,-38.413123],[-72.383654,-38.414378],[-72.381823,-38.4188],[-72.376475,-38.420054],[-72.374643,-38.424476],[-72.369295,-38.42573],[-72.367463,-38.430151],[-72.370979,-38.433319],[-72.376328,-38.432064],[-72.37816,-38.427643],[-72.383508,-38.426388],[-72.387026,-38.429555],[-72.392375,-38.4283],[-72.394206,-38.423877],[-72.390688,-38.420711],[-72.392519,-38.416289]],[[-72.495251,-38.460063],[-72.49172,-38.456895],[-72.486364,-38.458155],[-72.484537,-38.462582],[-72.488067,-38.46575],[-72.493424,-38.46449],[-72.495251,-38.460063]],[[-72.456186,-38.449263],[-72.458014,-38.444837],[-72.454488,-38.44167],[-72.449135,-38.442928],[-72.447306,-38.447353],[-72.450832,-38.450521],[-72.456186,-38.449263]],[[-72.431381,-38.439109],[-72.436733,-38.437852],[-72.438562,-38.433428],[-72.435039,-38.430261],[-72.429688,-38.431519],[-72.427859,-38.435942],[-72.431381,-38.439109]],[[-72.597054,-38.436063],[-72.598873,-38.431632],[-72.595334,-38.428467],[-72.589976,-38.429733],[-72.588156,-38.434164],[-72.591695,-38.437329],[-72.597054,-38.436063]],[[-72.602315,-38.446826],[-72.598774,-38.44366],[-72.593414,-38.444926],[-72.591594,-38.449358],[-72.595134,-38.452524],[-72.600495,-38.451258],[-72.602315,-38.446826]],[[-72.538334,-38.425925],[-72.534802,-38.422759],[-72.529447,-38.424022],[-72.525915,-38.420857],[-72.52056,-38.422119],[-72.518737,-38.426547],[-72.522268,-38.429713],[-72.527623,-38.42845],[-72.531156,-38.431616],[-72.536512,-38.430353],[-72.538334,-38.425925]],[[-72.37479,-38.412467],[-72.371275,-38.409301],[-72.365929,-38.410555],[-72.364097,-38.414976],[-72.367611,-38.418142],[-72.372959,-38.416888],[-72.37479,-38.412467]]]},"properties":{"comuna":"Perquenco","mancha_id":"09113-88ce8a0009fffff","clase":"Medio","nivel_medio":2.037,"nivel_medio_min":1.537,"nivel_medio_max":2.498,"pct_alto":11.1,"n_hexagonos":556,"area_ha":30741.66}},{"type":"Feature","geometry":{"type":"Polygon","coordinates":[[[-72.349432,-38.450342],[-72.347597,-38.454763],[-72.342248,-38.456015],[-72.338733,-38.452847],[-72.340568,-38.448426],[-72.345917,-38.447174],[-72.349432,-38.450342]]]},"properties":{"comuna":"Perquenco","mancha_id":"09113-88ce8a1ae9fffff","clase":"Alto","nivel_medio":3.174,"nivel_medio_min":3.174,"nivel_medio_max":3.174,"pct_alto":70.6,"n_hexagonos":1,"area_ha":62.07}},{"type":"Feature","geometry":{"type":"Polygon","coordinates":[[[-72.367165,-38.454173],[-72.365331,-38.458595],[-72.35998,-38.459848],[-72.356464,-38.456679],[-72.358297,-38.452258],[-72.363647,-38.451005],[-72.367165,-38.454173]]]},"properties":{"comuna":"Perquenco","mancha_id":"09113-88ce8a1ac1fffff","clase":"Alto","nivel_medio":2.64,"nivel_medio_min":2.64,"nivel_medio_max":2.64,"pct_alto":35.7,"n_hexagonos":1,"area_ha":62.09}},{"type":"Feature","geometry":{"type":"Polygon","coordinates":[[[-72.37479,-38.412467],[-72.372959,-38.416888],[-72.367611,-38.418142],[-72.364097,-38.414976],[-72.365929,-38.410555],[-72.371275,-38.409301],[-72.37479,-38.412467]]]},"properties":{"comuna":"Perquenco","mancha_id":"09113-88ce8a1ab1fffff","clase":"Alto","nivel_medio":2.517,"nivel_medio_min":2.517,"nivel_medio_max":2.517,"pct_alto":63.7,"n_hexagonos":1,"area_ha":62.07}},{"type":"Feature","geometry":{"type":"Polygon","coordinates":[[[-72.394206,-38.423877],[-72.392375,-38.4283],[-72.387026,-38.429555],[-72.383508,-38.426388],[-72.385339,-38.421966],[-72.381823,-38.4188],[-72.383654,-38.414378],[-72.389001,-38.413123],[-72.392519,-38.416289],[-72.390688,-38.420711],[-72.394206,-38.423877]]]},"properties":{"comuna":"Perquenco","mancha_id":"09113-88ce8a1a91fffff","clase":"Alto","nivel_medio":2.779,"nivel_medio_min":2.739,"nivel_medio_max":2.819,"pct_alto":79.1,"n_hexagonos":2,"area_ha":124.19}},{"type":"Feature","geometry":{"type":"Polygon","coordinates":[[[-72.37816,-38.427643],[-72.376328,-38.432064],[-72.370979,-38.433319],[-72.367463,-38.430151],[-72.369295,-38.42573],[-72.374643,-38.424476],[-72.37816,-38.427643]]]},"properties":{"comuna":"Perquenco","mancha_id":"09113-88ce8a1a83fffff","clase":"Alto","nivel_medio":2.632,"nivel_medio_min":2.632,"nivel_medio_max":2.632,"pct_alto":78.6,"n_hexagonos":1,"area_ha":62.08}},{"type":"Feature","geometry":{"type":"Polygon","coordinates":[[[-72.353353,-38.359416],[-72.352331,-38.361881],[-72.355841,-38.365045],[-72.35401,-38.369464],[-72.353224,-38.369649],[-72.353209,-38.369556],[-72.353157,-38.369125],[-72.351943,-38.365795],[-72.351603,-38.364933],[-72.350924,-38.363014],[-72.35062,-38.362283],[-72.349672,-38.360006],[-72.350097,-38.359848],[-72.350542,-38.359701],[-72.350744,-38.359664],[-72.351004,-38.359636],[-72.351254,-38.359581],[-72.351522,-38.359484],[-72.35175,-38.359501],[-72.352038,-38.359472],[-72.352371,-38.359472],[-72.352699,-38.359472],[-72.353207,-38.359442],[-72.353353,-38.359416]]]},"properties":{"comuna":"Perquenco","mancha_id":"09113-88ce8a18b5fffff","clase":"Alto","nivel_medio":2.653,"nivel_medio_min":2.614,"nivel_medio_max":2.769,"pct_alto":42.4,"n_hexagonos":2,"area_ha":26.08}},{"type":"Feature","geometry":{"type":"Polygon","coordinates":[[[-72.368355,-38.358115],[-72.363014,-38.359371],[-72.362412,-38.358828],[-72.362512,-38.35881],[-72.362845,-38.358735],[-72.363273,-38.358621],[-72.363631,-38.358512],[-72.36386,-38.358422],[-72.364163,-38.358283],[-72.364566,-38.358129],[-72.364922,-38.35796],[-72.365187,-38.357851],[-72.365435,-38.357828],[-72.365668,-38.357781],[-72.365948,-38.357766],[-72.366469,-38.357742],[-72.366865,-38.357704],[-72.367285,-38.357711],[-72.36772,-38.357673],[-72.368054,-38.357634],[-72.368427,-38.357595],[-72.368587,-38.357555],[-72.368355,-38.358115]]]},"properties":{"comuna":"Perquenco","mancha_id":"09113-88ce8a18b3fffff","clase":"Alto","nivel_medio":2.525,"nivel_medio_min":2.525,"nivel_medio_max":2.525,"pct_alto":29.8,"n_hexagonos":1,"area_ha":4.31}},{"type":"Feature","geometry":{"type":"Polygon","coordinates":[[[-72.550211,-38.491126],[-72.553749,-38.494294],[-72.553091,-38.495893],[-72.55299,-38.4959],[-72.55236,-38.49592],[-72.552063,-38.495978],[-72.551784,-38.496123],[-72.55145,-38.49651],[-72.55125,-38.49694],[-72.551,-38.49769],[-72.55059,-38.49851],[-72.550489,-38.499063],[-72.546562,-38.499987],[-72.544737,-38.504418],[-72.539374,-38.50568],[-72.535836,-38.50251],[-72.537661,-38.49808],[-72.543024,-38.496818],[-72.544848,-38.492388],[-72.550211,-38.491126]]]},"properties":{"comuna":"Perquenco","mancha_id":"09113-88ce8a1741fffff","clase":"Alto","nivel_medio":2.568,"nivel_medio_min":2.563,"nivel_medio_max":2.574,"pct_alto":36.2,"n_hexagonos":2,"area_ha":120.78}},{"type":"Feature","geometry":{"type":"Polygon","coordinates":[[[-72.639765,-38.426871],[-72.639495,-38.426988],[-72.639603,-38.426724],[-72.639661,-38.426803],[-72.639765,-38.426871]]]},"properties":{"comuna":"Perquenco","mancha_id":"09113-88ce8a16a7fffff","clase":"Alto","nivel_medio":3.0,"nivel_medio_min":3.0,"nivel_medio_max":3.0,"pct_alto":100.0,"n_hexagonos":1,"area_ha":0.03}},{"type":"Feature","geometry":{"type":"Polygon","coordinates":[[[-72.563293,-38.424034],[-72.559758,-38.420869],[-72.560742,-38.418476],[-72.560847,-38.418597],[-72.560953,-38.418823],[-72.561077,-38.419165],[-72.561148,-38.419605],[-72.561367,-38.419952],[-72.561623,-38.4202],[-72.561901,-38.420478],[-72.56221,-38.420682],[-72.562488,-38.420779],[-72.562819,-38.420892],[-72.563248,-38.42099],[-72.56367,-38.42105],[-72.564151,-38.421133],[-72.564595,-38.421231],[-72.564911,-38.421351],[-72.56525,-38.421547],[-72.565626,-38.421811],[-72.566003,-38.422089],[-72.566229,-38.4223],[-72.566402,-38.422623],[-72.566582,-38.422962],[-72.566742,-38.42322],[-72.563293,-38.424034]]]},"properties":{"comuna":"Perquenco","mancha_id":"09113-88ce8a1519fffff","clase":"Alto","nivel_medio":2.62,"nivel_medio_min":2.62,"nivel_medio_max":2.62,"pct_alto":68.5,"n_hexagonos":1,"area_ha":14.7}},{"type":"Feature","geometry":{"type":"Polygon","coordinates":[[[-72.538334,-38.425925],[-72.536512,-38.430353],[-72.531156,-38.431616],[-72.527623,-38.42845],[-72.522268,-38.429713],[-72.518737,-38.426547],[-72.52056,-38.422119],[-72.525915,-38.420857],[-72.529447,-38.424022],[-72.534802,-38.422759],[-72.538334,-38.425925]]]},"properties":{"comuna":"Perquenco","mancha_id":"09113-88ce8a150dfffff","clase":"Alto","nivel_medio":2.77,"nivel_medio_min":2.561,"nivel_medio_max":2.978,"pct_alto":77.6,"n_hexagonos":2,"area_ha":124.52}},{"type":"Feature","geometry":{"type":"Polygon","coordinates":[[[-72.616578,-38.447458],[-72.618397,-38.443026],[-72.622661,-38.442018],[-72.622881,-38.442139],[-72.623061,-38.44232],[-72.623096,-38.442515],[-72.622985,-38.442703],[-72.622794,-38.442839],[-72.622112,-38.443218],[-72.621459,-38.443445],[-72.620816,-38.4436],[-72.620272,-38.443685],[-72.61964,-38.443794],[-72.619286,-38.443843],[-72.619015,-38.443933],[-72.618721,-38.444055],[-72.618411,-38.444234],[-72.618141,-38.444489],[-72.617968,-38.444662],[-72.617822,-38.444922],[-72.617735,-38.445322],[-72.617695,-38.445775],[-72.617547,-38.446312],[-72.617349,-38.447055],[-72.617126,-38.447528],[-72.616927,-38.447708],[-72.616891,-38.447738],[-72.616578,-38.447458]]]},"properties":{"comuna":"Perquenco","mancha_id":"09113-88ce8a1451fffff","clase":"Alto","nivel_medio":2.645,"nivel_medio_min":2.645,"nivel_medio_max":2.645,"pct_alto":64.7,"n_hexagonos":1,"area_ha":6.45}},{"type":"Feature","geometry":{"type":"Polygon","coordinates":[[[-72.602315,-38.446826],[-72.600495,-38.451258],[-72.595134,-38.452524],[-72.591594,-38.449358],[-72.593414,-38.444926],[-72.598774,-38.44366],[-72.602315,-38.446826]]]},"properties":{"comuna":"Perquenco","mancha_id":"09113-88ce8a1447fffff","clase":"Alto","nivel_medio":2.525,"nivel_medio_min":2.525,"nivel_medio_max":2.525,"pct_alto":36.1,"n_hexagonos":1,"area_ha":62.36}},{"type":"Feature","geometry":{"type":"Polygon","coordinates":[[[-72.623851,-38.429729],[-72.629211,-38.428461],[-72.632333,-38.431249],[-72.631569,-38.431644],[-72.630699,-38.432203],[-72.629916,-38.432694],[-72.629221,-38.433222],[-72.62868,-38.433582],[-72.628291,-38.433988],[-72.627891,-38.43447],[-72.627568,-38.435079],[-72.627376,-38.435669],[-72.627239,-38.436433],[-72.627044,-38.436979],[-72.626967,-38.437192],[-72.626916,-38.437812],[-72.626671,-38.438118],[-72.626427,-38.438435],[-72.62607,-38.438911],[-72.625377,-38.439522],[-72.624685,-38.439926],[-72.624456,-38.440055],[-72.625576,-38.437326],[-72.622033,-38.434161],[-72.623851,-38.429729]]]},"properties":{"comuna":"Perquenco","mancha_id":"09113-88ce8a1419fffff","clase":"Alto","nivel_medio":2.531,"nivel_medio_min":2.503,"nivel_medio_max":2.972,"pct_alto":65.5,"n_hexagonos":2,"area_ha":50.64}},{"type":"Feature","geometry":{"type":"Polygon","coordinates":[[[-72.598873,-38.431632],[-72.597054,-38.436063],[-72.591695,-38.437329],[-72.588156,-38.434164],[-72.589976,-38.429733],[-72.595334,-38.428467],[-72.598873,-38.431632]]]},"properties":{"comuna":"Perquenco","mancha_id":"09113-88ce8a1405fffff","clase":"Alto","nivel_medio":2.531,"nivel_medio_min":2.531,"nivel_medio_max":2.531,"pct_alto":54.8,"n_hexagonos":1,"area_ha":62.34}},{"type":"Feature","geometry":{"type":"Polygon","coordinates":[[[-72.363348,-38.47503],[-72.361513,-38.479452],[-72.356161,-38.480705],[-72.355523,-38.482241],[-72.35481,-38.48242],[-72.351143,-38.483113],[-72.350945,-38.483089],[-72.350345,-38.483016],[-72.349395,-38.482947],[-72.34839,-38.482975],[-72.347578,-38.483016],[-72.346367,-38.482989],[-72.345571,-38.482931],[-72.345045,-38.482892],[-72.344384,-38.482727],[-72.34306,-38.48227],[-72.34201,-38.48195],[-72.34087,-38.48128],[-72.33883,-38.4798],[-72.337461,-38.479185],[-72.338422,-38.476868],[-72.334907,-38.473699],[-72.336742,-38.469278],[-72.342093,-38.468026],[-72.345609,-38.471196],[-72.343774,-38.475617],[-72.347291,-38.478787],[-72.352643,-38.477535],[-72.354478,-38.473113],[-72.350961,-38.469944],[-72.352795,-38.465522],[-72.358146,-38.46427],[-72.361664,-38.467439],[-72.35983,-38.471861],[-72.363348,-38.47503]]]},"properties":{"comuna":"Perquenco","mancha_id":"09113-88ce8a1121fffff","clase":"Alto","nivel_medio":3.018,"nivel_medio_min":2.754,"nivel_medio_max":3.351,"pct_alto":69.7,"n_hexagonos":5,"area_ha":268.96}},{"type":"Feature","geometry":{"type":"Polygon","coordinates":[[[-72.40434,-38.469422],[-72.409694,-38.468167],[-72.410163,-38.468589],[-72.409653,-38.468691],[-72.409017,-38.468849],[-72.408611,-38.468949],[-72.406168,-38.469555],[-72.405192,-38.469797],[-72.404747,-38.469907],[-72.40407,-38.470075],[-72.40434,-38.469422]]]},"properties":{"comuna":"Perquenco","mancha_id":"09113-88ce8a1113fffff","clase":"Alto","nivel_medio":2.848,"nivel_medio_min":2.848,"nivel_medio_max":2.848,"pct_alto":74.3,"n_hexagonos":1,"area_ha":3.05}},{"type":"Feature","geometry":{"type":"Polygon","coordinates":[[[-72.354478,-38.473113],[-72.352643,-38.477535],[-72.347291,-38.478787],[-72.343774,-38.475617],[-72.345609,-38.471196],[-72.342093,-38.468026],[-72.343928,-38.463605],[-72.340413,-38.460436],[-72.342248,-38.456015],[-72.347597,-38.454763],[-72.349432,-38.450342],[-72.354781,-38.449089],[-72.358297,-38.452258],[-72.356464,-38.456679],[-72.35998,-38.459848],[-72.358146,-38.46427],[-72.352795,-38.465522],[-72.350961,-38.469944],[-72.354478,-38.473113]]]},"properties":{"comuna":"Perquenco","mancha_id":"09113-88ce8a1125fffff","clase":"Muy Alto","nivel_medio":3.869,"nivel_medio_min":3.832,"nivel_medio_max":3.943,"pct_alto":99.6,"n_hexagonos":5,"area_ha":310.41}}],"bbox":[-72.63977,-38.51359,-72.23452,-38.35086]}