{"type":"FeatureCollection","features":[{"type":"Feature","geometry":{"type":"Polygon","coordinates":[[[-72.840227,-38.708464],[-72.840631,-38.707472],[-72.843107,-38.706888],[-72.843048,-38.706974],[-72.842855,-38.707212],[-72.842473,-38.707475],[-72.841917,-38.707808],[-72.841535,-38.707981],[-72.841168,-38.708061],[-72.840692,-38.708229],[-72.84034,-38.708398],[-72.840227,-38.708464]]]},"properties":{"comuna":"Cholchol","mancha_id":"09121-88ce8849cbfffff","clase":"Muy Bajo","nivel_medio":0.11,"nivel_medio_min":0.11,"nivel_medio_max":0.11,"pct_alto":0.0,"n_hexagonos":1,"area_ha":1.5}},{"type":"Feature","geometry":{"type":"Polygon","coordinates":[[[-73.015233,-38.577575],[-73.013433,-38.582028],[-73.008042,-38.583313],[-73.004451,-38.580145],[-73.006252,-38.575692],[-73.011642,-38.574407],[-73.015233,-38.577575]]]},"properties":{"comuna":"Cholchol","mancha_id":"09121-88ce8ab751fffff","clase":"Bajo","nivel_medio":1.461,"nivel_medio_min":1.461,"nivel_medio_max":1.461,"pct_alto":4.9,"n_hexagonos":1,"area_ha":62.95}},{"type":"Feature","geometry":{"type":"Polygon","coordinates":[[[-73.009862,-38.554716],[-73.008062,-38.559168],[-73.011652,-38.562335],[-73.009852,-38.566787],[-73.004462,-38.568073],[-73.000873,-38.564905],[-73.002673,-38.560453],[-72.999085,-38.557286],[-72.993696,-38.558571],[-72.990109,-38.555404],[-72.984721,-38.556689],[-72.981135,-38.553522],[-72.982936,-38.549071],[-72.97935,-38.545904],[-72.981151,-38.541454],[-72.986537,-38.540169],[-72.990123,-38.543336],[-72.988323,-38.547787],[-72.99191,-38.550953],[-72.997297,-38.549668],[-73.000885,-38.552835],[-73.006273,-38.55155],[-73.009862,-38.554716]]]},"properties":{"comuna":"Cholchol","mancha_id":"09121-88ce8ab715fffff","clase":"Bajo","nivel_medio":1.251,"nivel_medio_min":1.055,"nivel_medio_max":1.45,"pct_alto":2.6,"n_hexagonos":5,"area_ha":314.55}},{"type":"Feature","geometry":{"type":"Polygon","coordinates":[[[-73.031402,-38.585792],[-73.033201,-38.581339],[-73.035431,-38.580807],[-73.038278,-38.588178],[-73.034996,-38.58896],[-73.031402,-38.585792]]]},"properties":{"comuna":"Cholchol","mancha_id":"09121-88ce8ab663fffff","clase":"Bajo","nivel_medio":1.419,"nivel_medio_min":1.419,"nivel_medio_max":1.419,"pct_alto":1.8,"n_hexagonos":1,"area_ha":31.96}},{"type":"Feature","geometry":{"type":"Polygon","coordinates":[[[-72.993737,-38.522367],[-72.991937,-38.526817],[-72.986552,-38.528102],[-72.982967,-38.524937],[-72.984768,-38.520487],[-72.990152,-38.519202],[-72.993737,-38.522367]]]},"properties":{"comuna":"Cholchol","mancha_id":"09121-88ce8ab555fffff","clase":"Bajo","nivel_medio":1.48,"nivel_medio_min":1.48,"nivel_medio_max":1.48,"pct_alto":4.8,"n_hexagonos":1,"area_ha":62.88}},{"type":"Feature","geometry":{"type":"Polygon","coordinates":[[[-72.999134,-38.509015],[-72.997336,-38.513466],[-72.991951,-38.514751],[-72.988367,-38.511586],[-72.990166,-38.507136],[-72.99555,-38.505851],[-72.999134,-38.509015]]]},"properties":{"comuna":"Cholchol","mancha_id":"09121-88ce8ab51dfffff","clase":"Bajo","nivel_medio":1.304,"nivel_medio_min":1.304,"nivel_medio_max":1.304,"pct_alto":0.4,"n_hexagonos":1,"area_ha":62.87}},{"type":"Feature","geometry":{"type":"Polygon","coordinates":[[[-73.053976,-38.493663],[-73.054773,-38.491687],[-73.058676,-38.490752],[-73.05856,-38.49088],[-73.05832,-38.49106],[-73.05794,-38.49113],[-73.05754,-38.49131],[-73.05723,-38.49158],[-73.05708,-38.49177],[-73.05691,-38.49204],[-73.05674,-38.49223],[-73.05645,-38.49246],[-73.05589,-38.49261],[-73.05526,-38.4928],[-73.05491,-38.49301],[-73.05457,-38.49325],[-73.053976,-38.493663]]]},"properties":{"comuna":"Cholchol","mancha_id":"09121-88ce8ab4e5fffff","clase":"Bajo","nivel_medio":1.256,"nivel_medio_min":1.256,"nivel_medio_max":1.256,"pct_alto":1.5,"n_hexagonos":1,"area_ha":3.55}},{"type":"Feature","geometry":{"type":"Polygon","coordinates":[[[-72.862512,-38.617886],[-72.860702,-38.622333],[-72.855313,-38.623609],[-72.851736,-38.620438],[-72.853546,-38.615991],[-72.858934,-38.614715],[-72.862512,-38.617886]]]},"properties":{"comuna":"Cholchol","mancha_id":"09121-88ce8ab313fffff","clase":"Bajo","nivel_medio":1.262,"nivel_medio_min":1.262,"nivel_medio_max":1.262,"pct_alto":2.6,"n_hexagonos":1,"area_ha":62.8}},{"type":"Feature","geometry":{"type":"Polygon","coordinates":[[[-72.850014,-38.600756],[-72.848204,-38.605202],[-72.842817,-38.606478],[-72.839242,-38.603307],[-72.841053,-38.598861],[-72.846439,-38.597585],[-72.850014,-38.600756]]]},"properties":{"comuna":"Cholchol","mancha_id":"09121-88ce8ab065fffff","clase":"Bajo","nivel_medio":0.538,"nivel_medio_min":0.538,"nivel_medio_max":0.538,"pct_alto":14.8,"n_hexagonos":1,"area_ha":62.77}},{"type":"Feature","geometry":{"type":"Polygon","coordinates":[[[-72.901395,-38.488129],[-72.900573,-38.488325],[-72.900254,-38.488042],[-72.90105,-38.48805],[-72.901395,-38.488129]]]},"properties":{"comuna":"Cholchol","mancha_id":"09121-88ce8aa223fffff","clase":"Bajo","nivel_medio":1.0,"nivel_medio_min":1.0,"nivel_medio_max":1.0,"pct_alto":0.0,"n_hexagonos":1,"area_ha":0.17}},{"type":"Feature","geometry":{"type":"Polygon","coordinates":[[[-73.036007,-38.634886],[-73.035946,-38.634878],[-73.035798,-38.634857],[-73.035403,-38.634958],[-73.035223,-38.635008],[-73.034806,-38.63503],[-73.03431,-38.635008],[-73.033972,-38.634994],[-73.033706,-38.635001],[-73.033519,-38.63503],[-73.033397,-38.635167],[-73.033332,-38.635282],[-73.033304,-38.63554],[-73.033304,-38.635792],[-73.033275,-38.636022],[-73.033196,-38.636216],[-73.033002,-38.636382],[-73.032836,-38.636504],[-73.032613,-38.636604],[-73.032484,-38.636755],[-73.032405,-38.636993],[-73.032405,-38.637287],[-73.032383,-38.637561],[-73.032383,-38.637834],[-73.032381,-38.637892],[-73.029579,-38.638559],[-73.025983,-38.635389],[-73.027784,-38.630934],[-73.033181,-38.629649],[-73.035821,-38.631975],[-73.035827,-38.632262],[-73.03587,-38.632521],[-73.036,-38.632945],[-73.036151,-38.633412],[-73.036345,-38.633836],[-73.036359,-38.633855],[-73.036467,-38.633995],[-73.036668,-38.634448],[-73.036711,-38.634642],[-73.03656,-38.634821],[-73.036374,-38.634886],[-73.036172,-38.634908],[-73.036007,-38.634886]]]},"properties":{"comuna":"Cholchol","mancha_id":"09121-88ce884ce7fffff","clase":"Bajo","nivel_medio":1.496,"nivel_medio_min":1.0,"nivel_medio_max":1.499,"pct_alto":8.3,"n_hexagonos":2,"area_ha":56.5}},{"type":"Feature","geometry":{"type":"Polygon","coordinates":[[[-72.846816,-38.704264],[-72.847842,-38.70175],[-72.851849,-38.700804],[-72.851611,-38.7011],[-72.851353,-38.701462],[-72.850936,-38.701864],[-72.850698,-38.702088],[-72.850366,-38.702455],[-72.849984,-38.702757],[-72.849607,-38.703025],[-72.849195,-38.703273],[-72.848639,-38.703526],[-72.848054,-38.703735],[-72.847449,-38.703988],[-72.846992,-38.704186],[-72.846816,-38.704264]]]},"properties":{"comuna":"Cholchol","mancha_id":"09121-88ce8849ddfffff","clase":"Bajo","nivel_medio":1.135,"nivel_medio_min":1.135,"nivel_medio_max":1.135,"pct_alto":0.0,"n_hexagonos":1,"area_ha":6.39}},{"type":"Feature","geometry":{"type":"Polygon","coordinates":[[[-72.855051,-38.696027],[-72.860447,-38.694753],[-72.860933,-38.695184],[-72.860892,-38.695209],[-72.860303,-38.695535],[-72.85973,-38.695861],[-72.859289,-38.696101],[-72.858743,-38.696349],[-72.858148,-38.696541],[-72.85767,-38.696709],[-72.85718,-38.69687],[-72.856796,-38.696981],[-72.856312,-38.697118],[-72.855909,-38.697323],[-72.85545,-38.697589],[-72.855004,-38.697831],[-72.854532,-38.698178],[-72.854166,-38.698507],[-72.853963,-38.698697],[-72.855051,-38.696027]]]},"properties":{"comuna":"Cholchol","mancha_id":"09121-88ce8849d1fffff","clase":"Bajo","nivel_medio":1.287,"nivel_medio_min":1.287,"nivel_medio_max":1.287,"pct_alto":8.8,"n_hexagonos":1,"area_ha":7.65}},{"type":"Feature","geometry":{"type":"Polygon","coordinates":[[[-72.757844,-38.646083],[-72.758334,-38.64652],[-72.757513,-38.648529],[-72.75753,-38.6484],[-72.75735,-38.64761],[-72.75735,-38.64725],[-72.75759,-38.64691],[-72.75774,-38.64656],[-72.757844,-38.646083]]]},"properties":{"comuna":"Cholchol","mancha_id":"09121-88ce8a84cdfffff","clase":"Medio","nivel_medio":2.425,"nivel_medio_min":2.425,"nivel_medio_max":2.425,"pct_alto":33.5,"n_hexagonos":1,"area_ha":0.99}},{"type":"Feature","geometry":{"type":"Polygon","coordinates":[[[-72.869467,-38.68458],[-72.874862,-38.683305],[-72.876674,-38.678855],[-72.878167,-38.678502],[-72.875401,-38.683782],[-72.873628,-38.687165],[-72.872829,-38.687226],[-72.872349,-38.687419],[-72.871543,-38.687729],[-72.870768,-38.688032],[-72.87007,-38.688357],[-72.869249,-38.68876],[-72.868582,-38.689163],[-72.868098,-38.689421],[-72.867753,-38.689605],[-72.866249,-38.690845],[-72.86535,-38.691566],[-72.864768,-38.692194],[-72.864032,-38.6929],[-72.863435,-38.693403],[-72.862908,-38.693837],[-72.862295,-38.694272],[-72.861683,-38.694713],[-72.860933,-38.695184],[-72.860447,-38.694753],[-72.862259,-38.690304],[-72.858677,-38.687129],[-72.853282,-38.688403],[-72.851469,-38.692852],[-72.855051,-38.696027],[-72.853963,-38.698697],[-72.853794,-38.698854],[-72.853416,-38.699264],[-72.853131,-38.69953],[-72.852889,-38.699797],[-72.852514,-38.700143],[-72.852167,-38.700485],[-72.851854,-38.700798],[-72.851849,-38.700804],[-72.847842,-38.70175],[-72.846816,-38.704264],[-72.84658,-38.70437],[-72.846159,-38.704568],[-72.845638,-38.704851],[-72.845162,-38.705114],[-72.844725,-38.705401],[-72.844368,-38.70564],[-72.843931,-38.705967],[-72.843589,-38.70628],[-72.843301,-38.706602],[-72.843107,-38.706888],[-72.840631,-38.707472],[-72.840227,-38.708464],[-72.839858,-38.708681],[-72.839457,-38.708924],[-72.838931,-38.709236],[-72.838504,-38.709455],[-72.838033,-38.709698],[-72.837685,-38.709856],[-72.837418,-38.709931],[-72.83709,-38.710025],[-72.836773,-38.71009],[-72.836564,-38.710075],[-72.836118,-38.710075],[-72.835949,-38.710055],[-72.835646,-38.709995],[-72.835503,-38.709961],[-72.83524,-38.709891],[-72.834873,-38.709777],[-72.834575,-38.709683],[-72.834228,-38.709564],[-72.83392,-38.709465],[-72.833558,-38.709341],[-72.833226,-38.709256],[-72.832973,-38.709177],[-72.832516,-38.709083],[-72.832119,-38.708998],[-72.831732,-38.708939],[-72.831469,-38.708919],[-72.831132,-38.708859],[-72.83081,-38.708805],[-72.830437,-38.708775],[-72.830347,-38.708772],[-72.830125,-38.708765],[-72.829877,-38.708745],[-72.829594,-38.70874],[-72.829311,-38.70873],[-72.828974,-38.70875],[-72.828676,-38.70875],[-72.828389,-38.70877],[-72.827987,-38.7088],[-72.827689,-38.708844],[-72.827411,-38.708889],[-72.827049,-38.708973],[-72.826776,-38.709058],[-72.826454,-38.709187],[-72.826126,-38.70936],[-72.825759,-38.709574],[-72.825392,-38.709762],[-72.825154,-38.709891],[-72.824812,-38.710144],[-72.824459,-38.710427],[-72.824072,-38.710715],[-72.823912,-38.710819],[-72.823889,-38.710834],[-72.823676,-38.710953],[-72.823388,-38.711122],[-72.823105,-38.71129],[-72.822887,-38.711424],[-72.822678,-38.711553],[-72.822425,-38.711761],[-72.822257,-38.71194],[-72.822029,-38.712148],[-72.821716,-38.712327],[-72.821418,-38.712476],[-72.820942,-38.712709],[-72.820525,-38.712898],[-72.820099,-38.713056],[-72.819672,-38.713185],[-72.81934,-38.713299],[-72.818953,-38.713409],[-72.818452,-38.713562],[-72.818094,-38.713685],[-72.817648,-38.713751],[-72.817236,-38.713805],[-72.81678,-38.71382],[-72.81617,-38.71386],[-72.815657,-38.713761],[-72.814929,-38.7138],[-72.813729,-38.713659],[-72.813723,-38.713658],[-72.812772,-38.713455],[-72.81169,-38.71315],[-72.81085,-38.71269],[-72.810233,-38.712179],[-72.809357,-38.711111],[-72.808985,-38.710564],[-72.808393,-38.710125],[-72.807611,-38.709851],[-72.80671,-38.70969],[-72.80568,-38.70966],[-72.805601,-38.709666],[-72.804433,-38.709757],[-72.803565,-38.709581],[-72.80233,-38.70921],[-72.801294,-38.708679],[-72.800352,-38.707935],[-72.79941,-38.70699],[-72.79851,-38.70572],[-72.798239,-38.705406],[-72.797679,-38.704758],[-72.7966,-38.70351],[-72.79503,-38.70166],[-72.794488,-38.701068],[-72.793884,-38.700409],[-72.793695,-38.700077],[-72.793255,-38.698856],[-72.792965,-38.698052],[-72.792811,-38.697726],[-72.79274,-38.69743],[-72.79272,-38.69628],[-72.792406,-38.694973],[-72.792294,-38.694508],[-72.79222,-38.6942],[-72.79225,-38.69325],[-72.79223,-38.69173],[-72.7917,-38.69029],[-72.79119,-38.68945],[-72.78946,-38.68779],[-72.78916,-38.687453],[-72.788981,-38.687252],[-72.788499,-38.686616],[-72.78813,-38.68579],[-72.78805,-38.68472],[-72.78841,-38.68329],[-72.7882,-38.68287],[-72.78784,-38.68265],[-72.78741,-38.68251],[-72.78679,-38.68271],[-72.78604,-38.6829],[-72.78567,-38.68284],[-72.78468,-38.68248],[-72.78405,-38.68207],[-72.78355,-38.68142],[-72.783285,-38.680802],[-72.78319,-38.68058],[-72.782947,-38.680358],[-72.78258,-38.68011],[-72.78228,-38.67992],[-72.78217,-38.67985],[-72.781878,-38.679568],[-72.781831,-38.679521],[-72.781683,-38.679373],[-72.781594,-38.679206],[-72.78157,-38.679022],[-72.78157,-38.678816],[-72.781538,-38.67861],[-72.78125,-38.67817],[-72.780856,-38.67786],[-72.78038,-38.67766],[-72.780043,-38.677572],[-72.779759,-38.677514],[-72.77975,-38.677511],[-72.77958,-38.67745],[-72.779306,-38.677212],[-72.779146,-38.677065],[-72.779,-38.676857],[-72.778862,-38.676417],[-72.778769,-38.675973],[-72.77857,-38.67542],[-72.778326,-38.674864],[-72.77819,-38.67466],[-72.778029,-38.67445],[-72.777865,-38.674302],[-72.777711,-38.67421],[-72.777575,-38.674175],[-72.777442,-38.674189],[-72.77664,-38.67462],[-72.776271,-38.674803],[-72.77585,-38.67493],[-72.775122,-38.674881],[-72.774774,-38.674827],[-72.77447,-38.67469],[-72.77416,-38.67439],[-72.77384,-38.67388],[-72.77366,-38.67359],[-72.77309,-38.67308],[-72.772107,-38.672375],[-72.77203,-38.67232],[-72.771639,-38.671996],[-72.77147,-38.67179],[-72.771344,-38.671571],[-72.77123,-38.67124],[-72.771143,-38.670824],[-72.77106,-38.67063],[-72.770816,-38.670307],[-72.77075,-38.670159],[-72.770745,-38.670001],[-72.770816,-38.669773],[-72.770813,-38.669731],[-72.7708,-38.66955],[-72.77074,-38.669331],[-72.77059,-38.66911],[-72.77002,-38.66815],[-72.769405,-38.667072],[-72.76937,-38.66701],[-72.76905,-38.66672],[-72.76854,-38.6665],[-72.76794,-38.66586],[-72.76704,-38.66467],[-72.766,-38.66379],[-72.7655,-38.6634],[-72.76397,-38.66228],[-72.76321,-38.66171],[-72.762988,-38.661485],[-72.76242,-38.66091],[-72.76254,-38.65989],[-72.76278,-38.65931],[-72.76295,-38.6588],[-72.76284,-38.6574],[-72.76288,-38.65674],[-72.76275,-38.65638],[-72.76266,-38.65585],[-72.76266,-38.65532],[-72.76269,-38.65526],[-72.76309,-38.65418],[-72.76344,-38.653347],[-72.765475,-38.652867],[-72.769046,-38.656041],[-72.774434,-38.654771],[-72.77625,-38.650326],[-72.772679,-38.647153],[-72.774495,-38.642708],[-72.770924,-38.639535],[-72.765538,-38.640806],[-72.763173,-38.638703],[-72.76318,-38.6387],[-72.763612,-38.638351],[-72.764082,-38.637965],[-72.76469,-38.63732],[-72.765359,-38.636773],[-72.76581,-38.63613],[-72.765865,-38.635737],[-72.76593,-38.63536],[-72.766092,-38.635022],[-72.766231,-38.634919],[-72.766453,-38.634771],[-72.76723,-38.63436],[-72.767558,-38.634203],[-72.767651,-38.634144],[-72.767701,-38.63406],[-72.767735,-38.633888],[-72.76779,-38.63376],[-72.767888,-38.633665],[-72.76812,-38.63344],[-72.76891,-38.63267],[-72.76906,-38.63229],[-72.769052,-38.631946],[-72.76905,-38.63185],[-72.76861,-38.63114],[-72.76858,-38.63065],[-72.76873,-38.62997],[-72.76863,-38.62913],[-72.7687,-38.62826],[-72.768713,-38.627382],[-72.768731,-38.627154],[-72.76879,-38.626968],[-72.769017,-38.626673],[-72.769135,-38.626432],[-72.76921,-38.62622],[-72.76925,-38.625931],[-72.76934,-38.62529],[-72.76943,-38.62402],[-72.76952,-38.623029],[-72.769454,-38.622698],[-72.769332,-38.622532],[-72.76909,-38.622312],[-72.768957,-38.622124],[-72.76894,-38.621848],[-72.76894,-38.62079],[-72.768912,-38.620643],[-72.76884,-38.62026],[-72.76847,-38.61994],[-72.768295,-38.619764],[-72.76813,-38.619532],[-72.767909,-38.619334],[-72.76748,-38.61902],[-72.76685,-38.618595],[-72.766663,-38.618319],[-72.766485,-38.617416],[-72.76648,-38.61739],[-72.76625,-38.61711],[-72.766,-38.61666],[-72.765751,-38.616475],[-72.76561,-38.61637],[-72.76533,-38.61595],[-72.765251,-38.614966],[-72.765163,-38.614734],[-72.764876,-38.614205],[-72.764777,-38.613863],[-72.764799,-38.613642],[-72.764766,-38.613443],[-72.7644,-38.613],[-72.76415,-38.61278],[-72.763894,-38.61275],[-72.763663,-38.612738],[-72.76341,-38.61253],[-72.76327,-38.61221],[-72.7629,-38.61201],[-72.762725,-38.611822],[-72.762659,-38.611458],[-72.76275,-38.61089],[-72.76275,-38.61061],[-72.76257,-38.6105],[-72.76205,-38.61034],[-72.76198,-38.61013],[-72.76209,-38.60992],[-72.762074,-38.609704],[-72.762007,-38.609521],[-72.761997,-38.609495],[-72.762063,-38.609307],[-72.762206,-38.609119],[-72.76243,-38.6089],[-72.762802,-38.608557],[-72.762957,-38.608281],[-72.763012,-38.608083],[-72.762957,-38.607851],[-72.76277,-38.60767],[-72.76245,-38.60741],[-72.76235,-38.60713],[-72.76264,-38.60673],[-72.76258,-38.6065],[-72.762372,-38.606384],[-72.762174,-38.606318],[-72.76195,-38.60636],[-72.761721,-38.606406],[-72.761468,-38.606285],[-72.76122,-38.60603],[-72.76116,-38.60564],[-72.76099,-38.60515],[-72.760629,-38.604652],[-72.76049,-38.6043],[-72.76049,-38.60361],[-72.7606,-38.60252],[-72.76051,-38.602167],[-72.760453,-38.601906],[-72.76046,-38.601858],[-72.760497,-38.601586],[-72.76059,-38.60122],[-72.760728,-38.601034],[-72.76085,-38.600814],[-72.76084,-38.60043],[-72.760674,-38.599887],[-72.76066,-38.59967],[-72.760766,-38.599464],[-72.760839,-38.599292],[-72.76079,-38.59907],[-72.76034,-38.59806],[-72.76039,-38.59768],[-72.76061,-38.59746],[-72.76076,-38.59721],[-72.76064,-38.59701],[-72.760409,-38.596931],[-72.76021,-38.596799],[-72.760204,-38.5966],[-72.76017,-38.59628],[-72.75997,-38.59602],[-72.75996,-38.59579],[-72.76011,-38.59533],[-72.76004,-38.59495],[-72.75946,-38.59413],[-72.759432,-38.594073],[-72.7592,-38.59361],[-72.75873,-38.59324],[-72.7586,-38.59296],[-72.758622,-38.592618],[-72.758776,-38.592376],[-72.75917,-38.59202],[-72.75966,-38.59145],[-72.76023,-38.59087],[-72.76073,-38.5905],[-72.76097,-38.59013],[-72.761148,-38.589938],[-72.761611,-38.589806],[-72.762134,-38.58962],[-72.76219,-38.5896],[-72.76294,-38.58936],[-72.763277,-38.589232],[-72.763368,-38.58913],[-72.763453,-38.589034],[-72.763619,-38.588824],[-72.76384,-38.58873],[-72.764071,-38.588747],[-72.76426,-38.58881],[-72.764422,-38.588881],[-72.764545,-38.588934],[-72.76488,-38.58899],[-72.765417,-38.589034],[-72.76589,-38.58898],[-72.766298,-38.588782],[-72.76663,-38.58868],[-72.767206,-38.588597],[-72.76745,-38.5885],[-72.767572,-38.588376],[-72.767697,-38.58821],[-72.767708,-38.588195],[-72.76792,-38.58805],[-72.768128,-38.587992],[-72.76839,-38.587996],[-72.76862,-38.587951],[-72.7689,-38.58782],[-72.7692,-38.58829],[-72.76931,-38.58847],[-72.769402,-38.58862],[-72.769452,-38.588791],[-72.769537,-38.588904],[-72.769677,-38.58895],[-72.769885,-38.588972],[-72.77041,-38.58894],[-72.77104,-38.58895],[-72.77181,-38.5891],[-72.772088,-38.589073],[-72.77229,-38.588889],[-72.77229,-38.5886],[-72.772162,-38.588374],[-72.771996,-38.588099],[-72.771803,-38.587823],[-72.771721,-38.587492],[-72.771803,-38.58718],[-72.771987,-38.586895],[-72.77255,-38.58649],[-72.773136,-38.586279],[-72.773513,-38.586196],[-72.774046,-38.586141],[-72.77471,-38.58615],[-72.775451,-38.586224],[-72.776012,-38.586426],[-72.776894,-38.587033],[-72.777115,-38.587308],[-72.77719,-38.58757],[-72.77711,-38.58813],[-72.777087,-38.588723],[-72.77708,-38.5889],[-72.777225,-38.589266],[-72.777472,-38.589598],[-72.777767,-38.589725],[-72.77868,-38.58987],[-72.77976,-38.58994],[-72.78023,-38.5898],[-72.7804,-38.58958],[-72.78039,-38.58872],[-72.780518,-38.587676],[-72.780817,-38.587056],[-72.78132,-38.58653],[-72.781871,-38.586302],[-72.782391,-38.586045],[-72.783,-38.58604],[-72.78347,-38.58611],[-72.784079,-38.586263],[-72.784435,-38.586412],[-72.78463,-38.586596],[-72.784699,-38.586895],[-72.78461,-38.58712],[-72.78419,-38.58755],[-72.78318,-38.58852],[-72.78263,-38.58902],[-72.78257,-38.58933],[-72.7828,-38.58967],[-72.78356,-38.59024],[-72.78441,-38.59057],[-72.784918,-38.590616],[-72.785262,-38.590502],[-72.785515,-38.590214],[-72.78592,-38.58974],[-72.786563,-38.589333],[-72.78682,-38.58917],[-72.787491,-38.588779],[-72.78787,-38.588675],[-72.788432,-38.588634],[-72.78879,-38.58863],[-72.789202,-38.588721],[-72.789501,-38.588928],[-72.78967,-38.5895],[-72.78962,-38.59047],[-72.78989,-38.59213],[-72.79011,-38.593166],[-72.790236,-38.593419],[-72.790523,-38.593626],[-72.79095,-38.59375],[-72.7915,-38.59372],[-72.79198,-38.59344],[-72.792212,-38.593143],[-72.79227,-38.59277],[-72.7919,-38.59192],[-72.792,-38.59164],[-72.79237,-38.5914],[-72.79278,-38.59139],[-72.7933,-38.59151],[-72.79387,-38.5913],[-72.7943,-38.59114],[-72.79473,-38.59063],[-72.79476,-38.5906],[-72.79492,-38.58981],[-72.79475,-38.5884],[-72.794691,-38.587977],[-72.79467,-38.58783],[-72.7945,-38.58661],[-72.79481,-38.58601],[-72.79556,-38.58534],[-72.79572,-38.58459],[-72.7954,-38.58369],[-72.79466,-38.58253],[-72.794449,-38.581924],[-72.794341,-38.581612],[-72.79434,-38.58161],[-72.7942,-38.58089],[-72.794,-38.58056],[-72.79314,-38.58006],[-72.7927,-38.57906],[-72.7927,-38.5784],[-72.7929,-38.57796],[-72.79312,-38.57694],[-72.79311,-38.57669],[-72.79308,-38.57496],[-72.793572,-38.57396],[-72.798139,-38.572879],[-72.801708,-38.576048],[-72.80709,-38.574774],[-72.81066,-38.577944],[-72.816043,-38.57667],[-72.817854,-38.572225],[-72.814284,-38.569056],[-72.808902,-38.57033],[-72.805333,-38.567161],[-72.807144,-38.562717],[-72.803576,-38.559548],[-72.798195,-38.560822],[-72.794628,-38.557653],[-72.79644,-38.55321],[-72.792873,-38.550042],[-72.791946,-38.550261],[-72.79086,-38.54881],[-72.79054,-38.54796],[-72.79062,-38.54644],[-72.79152,-38.54484],[-72.79174,-38.54422],[-72.79203,-38.54338],[-72.792067,-38.543274],[-72.7922,-38.54289],[-72.79372,-38.54169],[-72.79515,-38.54108],[-72.79591,-38.54054],[-72.79618,-38.53994],[-72.7963,-38.53944],[-72.79616,-38.53888],[-72.79618,-38.53799],[-72.796895,-38.537048],[-72.79719,-38.53666],[-72.79832,-38.53564],[-72.79862,-38.53539],[-72.79892,-38.53514],[-72.798962,-38.535107],[-72.79923,-38.5349],[-72.8008,-38.5337],[-72.80097,-38.53287],[-72.80124,-38.53239],[-72.801974,-38.531831],[-72.805496,-38.530996],[-72.807307,-38.526553],[-72.80374,-38.523386],[-72.803499,-38.523443],[-72.803903,-38.522987],[-72.80444,-38.52238],[-72.80631,-38.52014],[-72.807,-38.51932],[-72.807783,-38.518414],[-72.80846,-38.51763],[-72.81052,-38.51523],[-72.81068,-38.51505],[-72.81136,-38.51419],[-72.81145,-38.51406],[-72.81179,-38.51428],[-72.8121,-38.51432],[-72.812296,-38.514308],[-72.81258,-38.51429],[-72.81332,-38.51417],[-72.81366,-38.51404],[-72.81409,-38.51404],[-72.81456,-38.51436],[-72.81537,-38.51482],[-72.81587,-38.51493],[-72.81639,-38.51513],[-72.81688,-38.51534],[-72.81772,-38.51558],[-72.81812,-38.51539],[-72.81908,-38.5147],[-72.81969,-38.51458],[-72.82041,-38.51474],[-72.82126,-38.51507],[-72.821641,-38.515213],[-72.82246,-38.51552],[-72.822801,-38.515521],[-72.823128,-38.515584],[-72.82343,-38.5157],[-72.82416,-38.51607],[-72.82494,-38.5165],[-72.825295,-38.51668],[-72.825485,-38.516807],[-72.825732,-38.516876],[-72.826254,-38.516944],[-72.826771,-38.516986],[-72.82724,-38.51694],[-72.82815,-38.51669],[-72.82882,-38.51667],[-72.82936,-38.51654],[-72.82976,-38.51657],[-72.83009,-38.51665],[-72.830469,-38.516868],[-72.83056,-38.51692],[-72.83074,-38.516979],[-72.83102,-38.51707],[-72.8314,-38.51699],[-72.8321,-38.51687],[-72.83276,-38.51696],[-72.83315,-38.51695],[-72.83365,-38.5166],[-72.83406,-38.51656],[-72.835,-38.51688],[-72.83605,-38.51735],[-72.83678,-38.51763],[-72.83809,-38.5179],[-72.838646,-38.518075],[-72.83879,-38.51812],[-72.83955,-38.51836],[-72.84039,-38.51855],[-72.840615,-38.518648],[-72.84108,-38.51885],[-72.84146,-38.51929],[-72.84188,-38.5197],[-72.8424,-38.51997],[-72.8429,-38.52011],[-72.84371,-38.52022],[-72.84432,-38.52025],[-72.84555,-38.52076],[-72.847,-38.52065],[-72.847754,-38.520106],[-72.8479,-38.52],[-72.84885,-38.51905],[-72.84958,-38.51814],[-72.84998,-38.51753],[-72.84997,-38.51682],[-72.85033,-38.51619],[-72.85107,-38.51572],[-72.85219,-38.5148],[-72.85259,-38.514],[-72.85316,-38.51307],[-72.85333,-38.512956],[-72.85448,-38.51219],[-72.85566,-38.51184],[-72.85754,-38.51127],[-72.85907,-38.51081],[-72.85996,-38.51054],[-72.86278,-38.50953],[-72.862818,-38.50952],[-72.8647,-38.509],[-72.865835,-38.50864],[-72.867,-38.50827],[-72.86836,-38.507837],[-72.86854,-38.50778],[-72.86935,-38.50753],[-72.87074,-38.50709],[-72.87276,-38.50628],[-72.87308,-38.50618],[-72.87276,-38.50542],[-72.87234,-38.5049],[-72.87162,-38.50396],[-72.87099,-38.50346],[-72.870961,-38.503405],[-72.87039,-38.50235],[-72.87014,-38.50159],[-72.87016,-38.50094],[-72.87015,-38.50003],[-72.87016,-38.5],[-72.87016,-38.5],[-72.8706,-38.49909],[-72.87092,-38.49803],[-72.87117,-38.49685],[-72.87107,-38.49598],[-72.870844,-38.495403],[-72.8708,-38.49529],[-72.87051,-38.49462],[-72.87026,-38.49399],[-72.8695,-38.49252],[-72.86922,-38.49141],[-72.86993,-38.49162],[-72.87053,-38.49208],[-72.87089,-38.4931],[-72.87134,-38.49346],[-72.87182,-38.49345],[-72.87245,-38.49321],[-72.87358,-38.49274],[-72.87423,-38.49236],[-72.87473,-38.49167],[-72.87486,-38.49119],[-72.87485,-38.49086],[-72.87471,-38.49019],[-72.87439,-38.48939],[-72.874363,-38.489281],[-72.87406,-38.48807],[-72.87395,-38.4874],[-72.87347,-38.48673],[-72.87356,-38.48627],[-72.87396,-38.48561],[-72.87437,-38.48545],[-72.87485,-38.4854],[-72.87525,-38.48565],[-72.87577,-38.48637],[-72.87619,-38.48682],[-72.87699,-38.48741],[-72.87762,-38.48768],[-72.87812,-38.48749],[-72.87895,-38.48687],[-72.88048,-38.48585],[-72.88144,-38.48529],[-72.8823,-38.48514],[-72.882436,-38.485142],[-72.88303,-38.48515],[-72.8835,-38.48543],[-72.88378,-38.48591],[-72.88391,-38.48676],[-72.88394,-38.48832],[-72.88367,-38.4896],[-72.88348,-38.49025],[-72.88307,-38.49091],[-72.883057,-38.490941],[-72.88253,-38.49225],[-72.88201,-38.49332],[-72.88148,-38.49436],[-72.88128,-38.49572],[-72.88144,-38.49624],[-72.881784,-38.496815],[-72.88199,-38.49716],[-72.88265,-38.49753],[-72.88328,-38.49788],[-72.88391,-38.49798],[-72.884121,-38.497928],[-72.88444,-38.49785],[-72.885,-38.49732],[-72.88521,-38.49647],[-72.88552,-38.49573],[-72.88593,-38.49462],[-72.88656,-38.49408],[-72.8872,-38.49344],[-72.88755,-38.49264],[-72.88793,-38.49148],[-72.887987,-38.491322],[-72.88828,-38.49051],[-72.88913,-38.48975],[-72.89006,-38.48943],[-72.890426,-38.489388],[-72.89101,-38.48932],[-72.89306,-38.48946],[-72.89374,-38.48932],[-72.89504,-38.48908],[-72.89622,-38.4886],[-72.89763,-38.48821],[-72.89865,-38.48808],[-72.89999,-38.48804],[-72.900254,-38.488042],[-72.900573,-38.488325],[-72.901395,-38.488129],[-72.90162,-38.48818],[-72.90222,-38.48832],[-72.90292,-38.48831],[-72.90346,-38.4881],[-72.90376,-38.48797],[-72.90449,-38.48806],[-72.90548,-38.4883],[-72.90637,-38.48877],[-72.90789,-38.48935],[-72.90843,-38.48953],[-72.90878,-38.48987],[-72.909349,-38.490642],[-72.90948,-38.49082],[-72.909758,-38.491045],[-72.910087,-38.491148],[-72.91035,-38.49111],[-72.91079,-38.49102],[-72.911281,-38.490764],[-72.911548,-38.490448],[-72.911772,-38.490267],[-72.912109,-38.490128],[-72.912498,-38.490146],[-72.912827,-38.490301],[-72.91321,-38.49047],[-72.91383,-38.49076],[-72.91445,-38.49119],[-72.91508,-38.49171],[-72.91539,-38.49179],[-72.91687,-38.49174],[-72.91817,-38.491817],[-72.91839,-38.49183],[-72.91969,-38.491802],[-72.92069,-38.49178],[-72.92129,-38.49173],[-72.92161,-38.49156],[-72.921646,-38.491335],[-72.92167,-38.49119],[-72.92158,-38.49092],[-72.9211,-38.49043],[-72.92063,-38.48994],[-72.92018,-38.4897],[-72.91964,-38.48948],[-72.91907,-38.4892],[-72.9186,-38.48877],[-72.91843,-38.48824],[-72.91843,-38.48755],[-72.91863,-38.4871],[-72.91909,-38.4868],[-72.91973,-38.4866],[-72.92036,-38.48591],[-72.92096,-38.48503],[-72.92138,-38.48458],[-72.92217,-38.48416],[-72.922868,-38.483891],[-72.92386,-38.48351],[-72.92476,-38.48298],[-72.92572,-38.48233],[-72.92649,-38.48198],[-72.927137,-38.481663],[-72.927597,-38.481541],[-72.92814,-38.481447],[-72.928495,-38.481483],[-72.928804,-38.48153],[-72.929154,-38.481576],[-72.929467,-38.481737],[-72.929766,-38.482037],[-72.93023,-38.48266],[-72.93081,-38.48312],[-72.93159,-38.48328],[-72.931769,-38.483276],[-72.93245,-38.48326],[-72.93315,-38.48299],[-72.933671,-38.482647],[-72.93407,-38.482384],[-72.934374,-38.482091],[-72.93474,-38.48178],[-72.93539,-38.48126],[-72.93611,-38.480785],[-72.936645,-38.480572],[-72.93759,-38.48037],[-72.93829,-38.4802],[-72.938864,-38.480138],[-72.939128,-38.480153],[-72.941796,-38.482512],[-72.939994,-38.48696],[-72.943572,-38.490124],[-72.948952,-38.48884],[-72.950753,-38.484393],[-72.947175,-38.481229],[-72.948975,-38.476781],[-72.947223,-38.475232],[-72.9476,-38.47487],[-72.948202,-38.47442],[-72.948621,-38.47397],[-72.94908,-38.47327],[-72.94964,-38.47244],[-72.94996,-38.47211],[-72.95083,-38.47154],[-72.951733,-38.470926],[-72.95222,-38.470498],[-72.952617,-38.47022],[-72.953154,-38.469961],[-72.953621,-38.469802],[-72.954079,-38.469584],[-72.954357,-38.469474],[-72.954367,-38.469469],[-72.956154,-38.471049],[-72.961532,-38.469765],[-72.963128,-38.465821],[-72.96325,-38.46576],[-72.96374,-38.46563],[-72.96415,-38.46551],[-72.96443,-38.46538],[-72.9649,-38.46519],[-72.96549,-38.46489],[-72.965709,-38.464749],[-72.96871,-38.464032],[-72.969427,-38.462258],[-72.97067,-38.46153],[-72.97178,-38.46095],[-72.97218,-38.46079],[-72.97316,-38.46049],[-72.974,-38.4601],[-72.97508,-38.45957],[-72.97612,-38.45899],[-72.976348,-38.458705],[-72.979466,-38.46146],[-72.977668,-38.465909],[-72.981248,-38.469071],[-72.97945,-38.47352],[-72.983031,-38.476683],[-72.988411,-38.475397],[-72.991993,-38.47856],[-72.990195,-38.48301],[-72.984814,-38.484295],[-72.983015,-38.488745],[-72.986598,-38.491908],[-72.991979,-38.490623],[-72.993778,-38.486173],[-72.999159,-38.484887],[-73.002743,-38.48805],[-73.008125,-38.486763],[-73.009922,-38.482313],[-73.015304,-38.481025],[-73.018889,-38.484188],[-73.024272,-38.482901],[-73.026068,-38.47845],[-73.025376,-38.47784],[-73.025657,-38.477691],[-73.025983,-38.47752],[-73.02612,-38.477432],[-73.026244,-38.477344],[-73.026298,-38.477273],[-73.026369,-38.477144],[-73.026504,-38.476967],[-73.026618,-38.476796],[-73.026796,-38.476653],[-73.026956,-38.476593],[-73.027119,-38.476555],[-73.027282,-38.476543],[-73.027423,-38.476559],[-73.027594,-38.476604],[-73.027776,-38.476657],[-73.028023,-38.476726],[-73.028293,-38.476832],[-73.02854,-38.476897],[-73.028737,-38.476916],[-73.028984,-38.476931],[-73.029178,-38.476957],[-73.02939,-38.476938],[-73.029618,-38.476908],[-73.029918,-38.476828],[-73.030135,-38.476787],[-73.030405,-38.476733],[-73.030701,-38.476654],[-73.030857,-38.476597],[-73.03099,-38.47657],[-73.031161,-38.476559],[-73.031271,-38.476585],[-73.031461,-38.476657],[-73.03162,-38.47674],[-73.03145,-38.477162],[-73.035037,-38.480324],[-73.033241,-38.484775],[-73.036828,-38.487938],[-73.042212,-38.48665],[-73.0458,-38.489813],[-73.051184,-38.488524],[-73.052979,-38.484072],[-73.04939,-38.480909],[-73.050787,-38.477445],[-73.050909,-38.477387],[-73.051095,-38.477307],[-73.051316,-38.477189],[-73.051562,-38.477083],[-73.051821,-38.477007],[-73.052144,-38.476916],[-73.052527,-38.476798],[-73.052717,-38.47673],[-73.052926,-38.476699],[-73.053097,-38.476692],[-73.053241,-38.476737],[-73.053416,-38.476809],[-73.053587,-38.476847],[-73.053758,-38.476844],[-73.053929,-38.476828],[-73.054081,-38.476809],[-73.054233,-38.476768],[-73.054335,-38.47676],[-73.054419,-38.476761],[-73.054472,-38.476775],[-73.054689,-38.476828],[-73.054939,-38.476882],[-73.055129,-38.476908],[-73.055365,-38.476866],[-73.055821,-38.476779],[-73.056155,-38.476711],[-73.056318,-38.476673],[-73.056428,-38.476699],[-73.056527,-38.476741],[-73.056641,-38.476768],[-73.056808,-38.47679],[-73.056953,-38.476752],[-73.057097,-38.476714],[-73.057226,-38.476688],[-73.057401,-38.476684],[-73.057549,-38.476714],[-73.057735,-38.476787],[-73.057906,-38.476874],[-73.058058,-38.476957],[-73.058199,-38.477049],[-73.058312,-38.477155],[-73.058502,-38.477212],[-73.058635,-38.477227],[-73.05889,-38.47773],[-73.05893,-38.47797],[-73.05905,-38.47855],[-73.05922,-38.47921],[-73.05929,-38.47976],[-73.05927,-38.4804],[-73.059233,-38.480622],[-73.05919,-38.48088],[-73.05891,-38.48159],[-73.058699,-38.481947],[-73.05852,-38.48225],[-73.058508,-38.482421],[-73.05848,-38.48283],[-73.058525,-38.482925],[-73.05858,-38.48304],[-73.05886,-38.48344],[-73.0592,-38.48367],[-73.059465,-38.483753],[-73.05987,-38.48388],[-73.06013,-38.48399],[-73.06061,-38.48424],[-73.06106,-38.4846],[-73.06118,-38.48482],[-73.061226,-38.485305],[-73.06124,-38.48545],[-73.06127,-38.48607],[-73.06132,-38.4863],[-73.06155,-38.48659],[-73.061654,-38.486684],[-73.06218,-38.48716],[-73.06238,-38.48744],[-73.06241,-38.48763],[-73.06238,-38.48783],[-73.06224,-38.48805],[-73.06212,-38.48818],[-73.06203,-38.48825],[-73.06093,-38.489],[-73.060636,-38.48921],[-73.06058,-38.48925],[-73.05982,-38.48957],[-73.05933,-38.48974],[-73.05911,-38.48982],[-73.05896,-38.49004],[-73.05875,-38.49067],[-73.058676,-38.490752],[-73.054773,-38.491687],[-73.053976,-38.493663],[-73.05388,-38.49373],[-73.05337,-38.49402],[-73.05297,-38.49428],[-73.05246,-38.49467],[-73.052,-38.4949],[-73.05162,-38.49493],[-73.0513,-38.49494],[-73.05108,-38.49506],[-73.05101,-38.49518],[-73.05105,-38.4955],[-73.05107,-38.49583],[-73.05096,-38.49604],[-73.050858,-38.496125],[-73.04706,-38.496958],[-73.03718,-38.499124],[-73.033183,-38.5],[-73.030612,-38.500564],[-73.021169,-38.502634],[-73.014168,-38.504169],[-73.007817,-38.505561],[-73.009606,-38.510534],[-73.012269,-38.517941],[-73.01476,-38.52487],[-73.014935,-38.525348],[-73.017639,-38.532747],[-73.020343,-38.540146],[-73.022786,-38.546832],[-73.023415,-38.548553],[-73.025099,-38.55316],[-73.026672,-38.557463],[-73.027412,-38.55949],[-73.02981,-38.56605],[-73.03118,-38.5698],[-73.032585,-38.573437],[-73.035431,-38.580807],[-73.033201,-38.581339],[-73.031402,-38.585792],[-73.034996,-38.58896],[-73.038278,-38.588178],[-73.041125,-38.595549],[-73.041893,-38.597537],[-73.035796,-38.599043],[-73.03496,-38.59925],[-73.03502,-38.59952],[-73.03534,-38.59988],[-73.035452,-38.599895],[-73.03649,-38.60003],[-73.03739,-38.59996],[-73.03754,-38.60088],[-73.037421,-38.601654],[-73.03707,-38.60257],[-73.037014,-38.60282],[-73.03691,-38.60328],[-73.0372,-38.60398],[-73.03745,-38.60421],[-73.03806,-38.60423],[-73.038365,-38.604396],[-73.038478,-38.604473],[-73.038523,-38.604504],[-73.038595,-38.604748],[-73.038717,-38.605029],[-73.038839,-38.605223],[-73.038969,-38.605381],[-73.039098,-38.605561],[-73.039285,-38.605812],[-73.039393,-38.605985],[-73.039479,-38.606222],[-73.039587,-38.606596],[-73.039709,-38.606883],[-73.03976,-38.607092],[-73.039781,-38.607451],[-73.039824,-38.607689],[-73.039896,-38.607797],[-73.040047,-38.607991],[-73.040292,-38.608278],[-73.040522,-38.608573],[-73.040637,-38.608738],[-73.040666,-38.608968],[-73.040737,-38.609357],[-73.040759,-38.609608],[-73.040853,-38.609896],[-73.040932,-38.61027],[-73.041032,-38.610478],[-73.041198,-38.610715],[-73.041356,-38.610996],[-73.041564,-38.611161],[-73.041823,-38.611348],[-73.042002,-38.611443],[-73.042053,-38.61147],[-73.042369,-38.611528],[-73.04247,-38.611585],[-73.042585,-38.611643],[-73.042614,-38.611794],[-73.042556,-38.611923],[-73.042456,-38.612074],[-73.042463,-38.612175],[-73.04252,-38.612232],[-73.042621,-38.61224],[-73.042758,-38.612225],[-73.042959,-38.612189],[-73.043196,-38.612117],[-73.043369,-38.612053],[-73.043477,-38.612038],[-73.04357,-38.612045],[-73.043728,-38.612096],[-73.043901,-38.61216],[-73.044009,-38.612283],[-73.04416,-38.612527],[-73.044267,-38.612685],[-73.044275,-38.612908],[-73.044282,-38.613174],[-73.044196,-38.613526],[-73.044052,-38.613721],[-73.043786,-38.613893],[-73.043664,-38.613958],[-73.043513,-38.614037],[-73.043455,-38.614138],[-73.043455,-38.614253],[-73.043534,-38.614382],[-73.043692,-38.614432],[-73.043843,-38.614475],[-73.044152,-38.61449],[-73.044332,-38.61454],[-73.044469,-38.614569],[-73.044598,-38.614691],[-73.044706,-38.614828],[-73.044699,-38.615036],[-73.044699,-38.615345],[-73.044656,-38.615626],[-73.044656,-38.615885],[-73.044692,-38.616208],[-73.044814,-38.616438],[-73.044979,-38.616639],[-73.045145,-38.616798],[-73.04526,-38.616956],[-73.045303,-38.617121],[-73.045274,-38.617308],[-73.045216,-38.617495],[-73.045188,-38.617596],[-73.045188,-38.617675],[-73.045224,-38.617768],[-73.045324,-38.61784],[-73.045482,-38.617962],[-73.045605,-38.618063],[-73.045641,-38.618149],[-73.045626,-38.618228],[-73.045475,-38.618408],[-73.045375,-38.618516],[-73.045346,-38.618588],[-73.045395,-38.618687],[-73.045396,-38.618688],[-73.045454,-38.618732],[-73.045605,-38.618768],[-73.045799,-38.618789],[-73.045921,-38.618789],[-73.046014,-38.618818],[-73.046058,-38.618868],[-73.04605,-38.618947],[-73.045971,-38.619134],[-73.045878,-38.619285],[-73.045813,-38.619443],[-73.045842,-38.619566],[-73.046014,-38.619731],[-73.04623,-38.619925],[-73.046453,-38.620141],[-73.046626,-38.620284],[-73.046777,-38.620457],[-73.04687,-38.620615],[-73.046942,-38.620766],[-73.046992,-38.620939],[-73.047043,-38.621032],[-73.047093,-38.621126],[-73.047093,-38.621248],[-73.047021,-38.62137],[-73.046748,-38.621413],[-73.046245,-38.621449],[-73.046058,-38.621535],[-73.045986,-38.621636],[-73.045986,-38.62178],[-73.046,-38.621974],[-73.046115,-38.622067],[-73.046338,-38.622096],[-73.04646,-38.622132],[-73.046662,-38.622182],[-73.046784,-38.622233],[-73.046971,-38.622333],[-73.047107,-38.622528],[-73.047294,-38.622815],[-73.047388,-38.62306],[-73.047431,-38.623261],[-73.047431,-38.623491],[-73.047388,-38.623743],[-73.047294,-38.623915],[-73.047179,-38.624023],[-73.046978,-38.62416],[-73.046848,-38.624246],[-73.04682,-38.624303],[-73.046827,-38.62444],[-73.046906,-38.624555],[-73.04705,-38.624656],[-73.047294,-38.624692],[-73.047445,-38.624699],[-73.047611,-38.624756],[-73.04769,-38.624835],[-73.047697,-38.624994],[-73.047639,-38.625303],[-73.047611,-38.625533],[-73.047553,-38.625677],[-73.047366,-38.626022],[-73.047294,-38.626288],[-73.047294,-38.626288],[-73.047122,-38.626661],[-73.047014,-38.626892],[-73.046805,-38.627064],[-73.046532,-38.627158],[-73.046252,-38.627265],[-73.04605,-38.627373],[-73.045957,-38.627503],[-73.045878,-38.627682],[-73.045784,-38.627862],[-73.045698,-38.628027],[-73.045482,-38.62815],[-73.045238,-38.628229],[-73.045123,-38.628301],[-73.045087,-38.62838],[-73.04508,-38.628545],[-73.045152,-38.628674],[-73.045238,-38.628804],[-73.045245,-38.628912],[-73.045145,-38.62902],[-73.044843,-38.629056],[-73.044454,-38.62907],[-73.044045,-38.629084],[-73.043649,-38.629127],[-73.043115,-38.629208],[-73.043074,-38.629214],[-73.042513,-38.629286],[-73.042103,-38.629415],[-73.041694,-38.629559],[-73.041377,-38.629818],[-73.041068,-38.629969],[-73.040867,-38.629997],[-73.040651,-38.629969],[-73.04045,-38.629861],[-73.040234,-38.629645],[-73.040126,-38.629386],[-73.039889,-38.629091],[-73.039717,-38.629034],[-73.03953,-38.62907],[-73.039328,-38.629156],[-73.039098,-38.629386],[-73.03876,-38.629882],[-73.038372,-38.630508],[-73.03802,-38.630867],[-73.037797,-38.631119],[-73.037596,-38.631255],[-73.037265,-38.631327],[-73.036992,-38.631399],[-73.036611,-38.631464],[-73.03628,-38.631557],[-73.036057,-38.631622],[-73.035913,-38.631759],[-73.03582,-38.631946],[-73.035821,-38.631975],[-73.033181,-38.629649],[-73.027784,-38.630934],[-73.025983,-38.635389],[-73.029579,-38.638559],[-73.032381,-38.637892],[-73.032376,-38.638035],[-73.03229,-38.638315],[-73.032189,-38.63851],[-73.031995,-38.63861],[-73.031758,-38.638653],[-73.031377,-38.638689],[-73.030838,-38.638696],[-73.030284,-38.638675],[-73.029982,-38.638747],[-73.029831,-38.638927],[-73.029702,-38.639149],[-73.029601,-38.639595],[-73.029551,-38.639876],[-73.029529,-38.64017],[-73.029522,-38.640487],[-73.029601,-38.640616],[-73.029788,-38.640659],[-73.030155,-38.640652],[-73.030363,-38.640652],[-73.030593,-38.640652],[-73.030874,-38.640666],[-73.031104,-38.64071],[-73.031276,-38.640817],[-73.031449,-38.641055],[-73.031614,-38.641234],[-73.03166,-38.64133],[-73.031711,-38.641569],[-73.031715,-38.641716],[-73.031722,-38.641939],[-73.031693,-38.642162],[-73.031636,-38.642306],[-73.031554,-38.642464],[-73.031391,-38.642586],[-73.03114,-38.642723],[-73.030967,-38.64283],[-73.030902,-38.642924],[-73.030902,-38.643132],[-73.030954,-38.643318],[-73.028869,-38.643976],[-73.027778,-38.643014],[-73.02238,-38.644299],[-73.018784,-38.641128],[-73.013387,-38.642412],[-73.011584,-38.646866],[-73.012362,-38.647552],[-73.01033,-38.64798],[-73.00675,-38.64867],[-73.006549,-38.648064],[-73.00603,-38.646502],[-73.00603,-38.646332],[-73.006151,-38.645994],[-73.00609,-38.645728],[-73.005897,-38.645474],[-73.005425,-38.645159],[-73.004966,-38.645002],[-73.004603,-38.644918],[-73.004264,-38.644809],[-73.003684,-38.644615],[-73.003302,-38.644345],[-73.003143,-38.64417],[-73.002992,-38.643991],[-73.002921,-38.643908],[-73.002643,-38.643661],[-73.002364,-38.643455],[-73.00211,-38.643319],[-73.0018,-38.643319],[-73.001403,-38.643351],[-73.001029,-38.643439],[-73.000775,-38.643478],[-73.000552,-38.643502],[-73.000234,-38.643439],[-73.000004,-38.643335],[-73.0,-38.643334],[-72.999781,-38.643256],[-72.999622,-38.643161],[-72.999423,-38.642978],[-72.999248,-38.642771],[-72.999153,-38.642668],[-72.999034,-38.64262],[-72.998835,-38.64254],[-72.998557,-38.642469],[-72.99839,-38.642429],[-72.998183,-38.64231],[-72.99804,-38.642199],[-72.99781,-38.642016],[-72.997595,-38.641801],[-72.997372,-38.641539],[-72.997261,-38.641428],[-72.997118,-38.641372],[-72.996911,-38.641324],[-72.996776,-38.6413],[-72.99657,-38.641181],[-72.996379,-38.64103],[-72.996101,-38.640951],[-72.995735,-38.640839],[-72.995449,-38.6408],[-72.995218,-38.6408],[-72.994829,-38.640855],[-72.994478,-38.640927],[-72.995405,-38.638637],[-72.991812,-38.635466],[-72.986416,-38.636749],[-72.984612,-38.641202],[-72.985556,-38.642035],[-72.985465,-38.642008],[-72.985274,-38.641936],[-72.985051,-38.641833],[-72.984829,-38.641658],[-72.984686,-38.641467],[-72.984542,-38.641229],[-72.984538,-38.64122],[-72.984439,-38.641006],[-72.984304,-38.640871],[-72.984161,-38.64076],[-72.983899,-38.640617],[-72.98366,-38.640513],[-72.98335,-38.640418],[-72.983008,-38.640402],[-72.982714,-38.640362],[-72.982563,-38.640339],[-72.982492,-38.640211],[-72.982444,-38.640084],[-72.982412,-38.63987],[-72.982388,-38.639719],[-72.982333,-38.639663],[-72.982197,-38.639607],[-72.981903,-38.639567],[-72.981665,-38.63956],[-72.981418,-38.63952],[-72.981236,-38.639504],[-72.980942,-38.639432],[-72.980624,-38.639337],[-72.980417,-38.639218],[-72.98029,-38.639035],[-72.980234,-38.638804],[-72.980274,-38.638606],[-72.980361,-38.638359],[-72.980401,-38.638208],[-72.980385,-38.638041],[-72.980234,-38.637827],[-72.97994,-38.637469],[-72.979622,-38.637207],[-72.979439,-38.637008],[-72.979328,-38.636873],[-72.979296,-38.63673],[-72.979336,-38.636539],[-72.979344,-38.636292],[-72.979312,-38.636189],[-72.979256,-38.636086],[-72.979153,-38.635974],[-72.978891,-38.635951],[-72.978612,-38.635919],[-72.978342,-38.635943],[-72.978072,-38.635943],[-72.977754,-38.635974],[-72.977436,-38.635998],[-72.977174,-38.63599],[-72.977002,-38.635915],[-72.976975,-38.635903],[-72.97676,-38.635776],[-72.976426,-38.635577],[-72.97618,-38.63545],[-72.975854,-38.635259],[-72.975433,-38.635084],[-72.975075,-38.635013],[-72.974479,-38.634901],[-72.974185,-38.634901],[-72.973787,-38.634965],[-72.973302,-38.634997],[-72.97308,-38.634973],[-72.972778,-38.634973],[-72.972412,-38.634925],[-72.971999,-38.634893],[-72.971633,-38.634822],[-72.971283,-38.634774],[-72.971053,-38.634758],[-72.970862,-38.634758],[-72.970608,-38.63479],[-72.970321,-38.634806],[-72.970075,-38.634846],[-72.969789,-38.634941],[-72.969646,-38.634957],[-72.969503,-38.634917],[-72.969391,-38.634774],[-72.969376,-38.634615],[-72.969296,-38.634401],[-72.96924,-38.634273],[-72.969137,-38.63421],[-72.968954,-38.634146],[-72.968684,-38.63413],[-72.968541,-38.634083],[-72.968406,-38.634027],[-72.968334,-38.633955],[-72.968199,-38.633781],[-72.968142,-38.633716],[-72.968072,-38.633637],[-72.967937,-38.633494],[-72.967754,-38.633296],[-72.967515,-38.633113],[-72.967261,-38.632938],[-72.967038,-38.632787],[-72.966609,-38.632588],[-72.966379,-38.632381],[-72.966172,-38.632183],[-72.966029,-38.632032],[-72.965695,-38.631825],[-72.965266,-38.631634],[-72.965035,-38.631475],[-72.96478,-38.6314],[-72.96448,-38.63115],[-72.9644,-38.63113],[-72.96326,-38.63068],[-72.963053,-38.630228],[-72.962849,-38.629784],[-72.96264,-38.62921],[-72.96284,-38.62841],[-72.963066,-38.628],[-72.96341,-38.62737],[-72.96338,-38.62697],[-72.96321,-38.62662],[-72.96287,-38.62641],[-72.956478,-38.628447],[-72.9538,-38.6293],[-72.952692,-38.629697],[-72.950687,-38.63039],[-72.949888,-38.630646],[-72.94773,-38.63134],[-72.946885,-38.631502],[-72.945581,-38.631773],[-72.94363,-38.63245],[-72.941957,-38.632805],[-72.941091,-38.632989],[-72.94024,-38.63317],[-72.93821,-38.63386],[-72.93796,-38.63414],[-72.93618,-38.6346],[-72.9356,-38.63506],[-72.93437,-38.63625],[-72.93363,-38.63697],[-72.932807,-38.637762],[-72.932676,-38.637889],[-72.932079,-38.638336],[-72.93056,-38.63938],[-72.92863,-38.64071],[-72.927084,-38.641218],[-72.926702,-38.641245],[-72.92607,-38.641293],[-72.92492,-38.64138],[-72.92346,-38.64153],[-72.92052,-38.64312],[-72.919123,-38.643807],[-72.91871,-38.64401],[-72.91738,-38.64467],[-72.91628,-38.64521],[-72.91552,-38.64558],[-72.9155,-38.64614],[-72.91541,-38.64701],[-72.91535,-38.64756],[-72.915092,-38.647971],[-72.914706,-38.64842],[-72.9143,-38.64882],[-72.91339,-38.64973],[-72.91306,-38.64999],[-72.912796,-38.650197],[-72.912663,-38.650301],[-72.911838,-38.650947],[-72.91103,-38.65158],[-72.91073,-38.65181],[-72.91024,-38.65249],[-72.909231,-38.654175],[-72.90917,-38.65442],[-72.909004,-38.655117],[-72.90897,-38.65526],[-72.90865,-38.65588],[-72.90837,-38.6564],[-72.90809,-38.658],[-72.90788,-38.65916],[-72.90802,-38.65988],[-72.907169,-38.659746],[-72.90469,-38.657924],[-72.904089,-38.657482],[-72.903603,-38.656618],[-72.901998,-38.655696],[-72.8994,-38.65487],[-72.89811,-38.65446],[-72.896326,-38.654517],[-72.896514,-38.654054],[-72.892931,-38.650881],[-72.891181,-38.651296],[-72.88848,-38.64912],[-72.88715,-38.64799],[-72.88711,-38.64817],[-72.88646,-38.651204],[-72.88556,-38.6554],[-72.885305,-38.656708],[-72.88438,-38.66145],[-72.883762,-38.665115],[-72.8827,-38.67141],[-72.88255,-38.67179],[-72.882473,-38.671884],[-72.880296,-38.669956],[-72.874902,-38.671232],[-72.871319,-38.668058],[-72.865926,-38.669333],[-72.864114,-38.673782],[-72.867696,-38.676956],[-72.865884,-38.681405],[-72.869467,-38.68458]],[[-72.856951,-38.667435],[-72.862344,-38.66616],[-72.864155,-38.661711],[-72.860574,-38.658538],[-72.855182,-38.659813],[-72.85337,-38.664261],[-72.856951,-38.667435]],[[-72.772864,-38.610971],[-72.776433,-38.614143],[-72.781817,-38.612872],[-72.783632,-38.608428],[-72.780062,-38.605256],[-72.781877,-38.600813],[-72.78726,-38.59954],[-72.789074,-38.595097],[-72.785505,-38.591926],[-72.780122,-38.593198],[-72.776554,-38.590027],[-72.771172,-38.591299],[-72.769358,-38.595742],[-72.763975,-38.597014],[-72.76216,-38.601456],[-72.765727,-38.604628],[-72.77111,-38.603356],[-72.774679,-38.606528],[-72.772864,-38.610971]],[[-72.792586,-38.610327],[-72.790772,-38.614771],[-72.794343,-38.617943],[-72.799729,-38.61667],[-72.801542,-38.612226],[-72.797971,-38.609054],[-72.792586,-38.610327]],[[-72.787085,-38.635721],[-72.781698,-38.636993],[-72.779882,-38.641437],[-72.783454,-38.644611],[-72.788842,-38.643339],[-72.792414,-38.646512],[-72.797803,-38.645241],[-72.799617,-38.640795],[-72.796044,-38.637622],[-72.790657,-38.638894],[-72.787085,-38.635721]],[[-72.923857,-38.490808],[-72.927434,-38.493973],[-72.932813,-38.49269],[-72.934615,-38.488243],[-72.931038,-38.485079],[-72.92566,-38.486362],[-72.923857,-38.490808]],[[-72.905885,-38.511158],[-72.90231,-38.507993],[-72.89693,-38.509273],[-72.893356,-38.506108],[-72.887977,-38.507388],[-72.886172,-38.511834],[-72.889746,-38.515],[-72.88794,-38.519446],[-72.891515,-38.522612],[-72.896896,-38.521332],[-72.900472,-38.524498],[-72.898666,-38.528945],[-72.902243,-38.532111],[-72.900438,-38.536558],[-72.904015,-38.539725],[-72.909398,-38.538445],[-72.911202,-38.533998],[-72.916585,-38.532717],[-72.920163,-38.535883],[-72.925546,-38.534602],[-72.92735,-38.530154],[-72.923771,-38.526988],[-72.925575,-38.52254],[-72.921997,-38.519374],[-72.916615,-38.520656],[-72.914811,-38.525103],[-72.909429,-38.526384],[-72.905853,-38.523218],[-72.907657,-38.518771],[-72.904081,-38.515605],[-72.905885,-38.511158]],[[-72.878756,-38.589925],[-72.882334,-38.593094],[-72.887721,-38.591816],[-72.889529,-38.587369],[-72.88595,-38.584199],[-72.880564,-38.585477],[-72.876986,-38.582308],[-72.878794,-38.577861],[-72.875217,-38.574692],[-72.869832,-38.575969],[-72.868024,-38.580416],[-72.8716,-38.583585],[-72.869792,-38.588032],[-72.873369,-38.591202],[-72.878756,-38.589925]],[[-72.875138,-38.598819],[-72.87156,-38.595649],[-72.866174,-38.596926],[-72.862597,-38.593756],[-72.864406,-38.589309],[-72.86083,-38.58614],[-72.855444,-38.587416],[-72.851869,-38.584247],[-72.846484,-38.585523],[-72.844674,-38.589969],[-72.848249,-38.593139],[-72.853635,-38.591863],[-72.857211,-38.595033],[-72.855401,-38.599479],[-72.850014,-38.600756],[-72.846439,-38.597585],[-72.841053,-38.598861],[-72.837478,-38.59569],[-72.832093,-38.596965],[-72.830282,-38.601411],[-72.824896,-38.602686],[-72.823084,-38.607131],[-72.826658,-38.610302],[-72.832045,-38.609028],[-72.835619,-38.612199],[-72.841006,-38.610924],[-72.842817,-38.606478],[-72.848204,-38.605202],[-72.85178,-38.608373],[-72.857167,-38.607097],[-72.858977,-38.60265],[-72.864364,-38.601373],[-72.867942,-38.604544],[-72.873329,-38.603267],[-72.875138,-38.598819]],[[-72.882296,-38.60516],[-72.876908,-38.606437],[-72.875099,-38.610885],[-72.878678,-38.614056],[-72.884067,-38.612779],[-72.885876,-38.608331],[-72.882296,-38.60516]],[[-72.84291,-38.582353],[-72.84472,-38.577907],[-72.841146,-38.574738],[-72.835763,-38.576014],[-72.833953,-38.580459],[-72.837526,-38.583629],[-72.84291,-38.582353]],[[-72.862512,-38.617886],[-72.858934,-38.614715],[-72.853546,-38.615991],[-72.851736,-38.620438],[-72.855313,-38.623609],[-72.860702,-38.622333],[-72.862512,-38.617886]],[[-72.902042,-38.604496],[-72.900235,-38.608945],[-72.894845,-38.610223],[-72.893037,-38.614672],[-72.896619,-38.617843],[-72.902009,-38.616564],[-72.905591,-38.619735],[-72.903783,-38.624185],[-72.907366,-38.627356],[-72.912758,-38.626077],[-72.914565,-38.621627],[-72.910982,-38.618457],[-72.912789,-38.614007],[-72.909206,-38.610837],[-72.911013,-38.606387],[-72.907431,-38.603217],[-72.902042,-38.604496]],[[-72.952373,-38.576456],[-72.946985,-38.577738],[-72.945181,-38.582188],[-72.948766,-38.585356],[-72.954155,-38.584075],[-72.955958,-38.579624],[-72.952373,-38.576456]],[[-72.819614,-38.579839],[-72.817802,-38.584284],[-72.821374,-38.587454],[-72.826758,-38.586179],[-72.828569,-38.581734],[-72.824997,-38.578565],[-72.819614,-38.579839]],[[-72.839383,-38.567123],[-72.842956,-38.570293],[-72.848339,-38.569016],[-72.850149,-38.564571],[-72.846575,-38.561402],[-72.841193,-38.562678],[-72.839383,-38.567123]],[[-72.814336,-38.556999],[-72.819717,-38.555724],[-72.821527,-38.55128],[-72.817958,-38.548111],[-72.812578,-38.549387],[-72.810767,-38.55383],[-72.814336,-38.556999]],[[-72.826908,-38.550004],[-72.830478,-38.553172],[-72.835859,-38.551896],[-72.837668,-38.547452],[-72.834097,-38.544284],[-72.835907,-38.539839],[-72.832337,-38.536672],[-72.826957,-38.537948],[-72.825148,-38.542392],[-72.828717,-38.54556],[-72.826908,-38.550004]],[[-72.862765,-38.545511],[-72.859191,-38.542343],[-72.853811,-38.543621],[-72.852002,-38.548066],[-72.855575,-38.551234],[-72.860957,-38.549957],[-72.864531,-38.553125],[-72.862723,-38.557571],[-72.866297,-38.560739],[-72.871681,-38.559461],[-72.873488,-38.555015],[-72.869913,-38.551847],[-72.871721,-38.547401],[-72.868146,-38.544233],[-72.862765,-38.545511]],[[-72.877142,-38.534063],[-72.875335,-38.538509],[-72.87891,-38.541676],[-72.884292,-38.540397],[-72.886098,-38.535951],[-72.882523,-38.532784],[-72.877142,-38.534063]],[[-72.934351,-38.608889],[-72.936157,-38.604438],[-72.932572,-38.601269],[-72.934377,-38.596819],[-72.930794,-38.593649],[-72.925405,-38.59493],[-72.923599,-38.599379],[-72.927182,-38.602549],[-72.925376,-38.606999],[-72.92896,-38.610169],[-72.934351,-38.608889]],[[-72.966717,-38.58913],[-72.972107,-38.587847],[-72.97391,-38.583396],[-72.970323,-38.580228],[-72.964933,-38.58151],[-72.96313,-38.585961],[-72.966717,-38.58913]],[[-72.831947,-38.633156],[-72.828371,-38.629984],[-72.822983,-38.631258],[-72.82117,-38.635704],[-72.824745,-38.638876],[-72.830134,-38.637602],[-72.831947,-38.633156]],[[-72.826508,-38.646495],[-72.822932,-38.643323],[-72.817543,-38.644596],[-72.815729,-38.649042],[-72.819305,-38.652215],[-72.824695,-38.650942],[-72.826508,-38.646495]],[[-72.990166,-38.507136],[-72.988367,-38.511586],[-72.991951,-38.514751],[-72.997336,-38.513466],[-72.999134,-38.509015],[-72.99555,-38.505851],[-72.990166,-38.507136]],[[-72.984768,-38.520487],[-72.982967,-38.524937],[-72.986552,-38.528102],[-72.991937,-38.526817],[-72.993737,-38.522367],[-72.990152,-38.519202],[-72.984768,-38.520487]],[[-72.981151,-38.541454],[-72.97935,-38.545904],[-72.982936,-38.549071],[-72.981135,-38.553522],[-72.984721,-38.556689],[-72.990109,-38.555404],[-72.993696,-38.558571],[-72.999085,-38.557286],[-73.002673,-38.560453],[-73.000873,-38.564905],[-73.004462,-38.568073],[-73.009852,-38.566787],[-73.011652,-38.562335],[-73.008062,-38.559168],[-73.009862,-38.554716],[-73.006273,-38.55155],[-73.000885,-38.552835],[-72.997297,-38.549668],[-72.99191,-38.550953],[-72.988323,-38.547787],[-72.990123,-38.543336],[-72.986537,-38.540169],[-72.981151,-38.541454]],[[-73.015233,-38.577575],[-73.011642,-38.574407],[-73.006252,-38.575692],[-73.004451,-38.580145],[-73.008042,-38.583313],[-73.013433,-38.582028],[-73.015233,-38.577575]]]},"properties":{"comuna":"Cholchol","mancha_id":"09121-88ce8848a5fffff","clase":"Medio","nivel_medio":2.111,"nivel_medio_min":1.509,"nivel_medio_max":2.5,"pct_alto":23.4,"n_hexagonos":654,"area_ha":37214.3}},{"type":"Feature","geometry":{"type":"Polygon","coordinates":[[[-72.807307,-38.526553],[-72.805496,-38.530996],[-72.801974,-38.531831],[-72.80233,-38.53156],[-72.80262,-38.53135],[-72.80345,-38.53072],[-72.80357,-38.5306],[-72.80416,-38.53],[-72.80493,-38.52875],[-72.80508,-38.52807],[-72.80509,-38.52795],[-72.80511,-38.52681],[-72.80438,-38.52493],[-72.80447,-38.52466],[-72.803158,-38.523829],[-72.803499,-38.523443],[-72.80374,-38.523386],[-72.807307,-38.526553]]]},"properties":{"comuna":"Cholchol","mancha_id":"09121-88ce8aba81fffff","clase":"Alto","nivel_medio":2.995,"nivel_medio_min":2.995,"nivel_medio_max":2.995,"pct_alto":72.9,"n_hexagonos":1,"area_ha":12.6}},{"type":"Feature","geometry":{"type":"Polygon","coordinates":[[[-72.97391,-38.583396],[-72.972107,-38.587847],[-72.966717,-38.58913],[-72.96313,-38.585961],[-72.964933,-38.58151],[-72.970323,-38.580228],[-72.97391,-38.583396]]]},"properties":{"comuna":"Cholchol","mancha_id":"09121-88ce8ab769fffff","clase":"Alto","nivel_medio":2.745,"nivel_medio_min":2.745,"nivel_medio_max":2.745,"pct_alto":74.7,"n_hexagonos":1,"area_ha":62.9}},{"type":"Feature","geometry":{"type":"Polygon","coordinates":[[[-73.035037,-38.480324],[-73.03145,-38.477162],[-73.03162,-38.47674],[-73.031635,-38.476749],[-73.031958,-38.476882],[-73.032209,-38.477007],[-73.032395,-38.477075],[-73.032528,-38.477102],[-73.03271,-38.477087],[-73.0329,-38.477026],[-73.033048,-38.476984],[-73.033254,-38.476938],[-73.033432,-38.4769],[-73.033535,-38.4769],[-73.033679,-38.476938],[-73.033789,-38.476988],[-73.033873,-38.477071],[-73.034009,-38.477174],[-73.034101,-38.47725],[-73.034222,-38.47736],[-73.034325,-38.477447],[-73.034435,-38.477493],[-73.034568,-38.477478],[-73.034686,-38.477394],[-73.034819,-38.477296],[-73.03494,-38.477166],[-73.035082,-38.477002],[-73.035203,-38.476796],[-73.035389,-38.476461],[-73.035524,-38.476347],[-73.035737,-38.476233],[-73.036072,-38.47607],[-73.036478,-38.475835],[-73.036777,-38.475649],[-73.037047,-38.475543],[-73.037238,-38.475491],[-73.037402,-38.475419],[-73.037591,-38.475389],[-73.037755,-38.475362],[-73.037941,-38.475362],[-73.038184,-38.475366],[-73.038526,-38.475339],[-73.038932,-38.475305],[-73.039191,-38.475271],[-73.039464,-38.475252],[-73.039605,-38.475248],[-73.039753,-38.475279],[-73.039973,-38.475305],[-73.040125,-38.475351],[-73.040326,-38.475423],[-73.040535,-38.475491],[-73.040687,-38.475544],[-73.040843,-38.475639],[-73.041117,-38.475795],[-73.041363,-38.475898],[-73.041641,-38.475985],[-73.041649,-38.475987],[-73.04191,-38.476069],[-73.042226,-38.476118],[-73.042465,-38.476175],[-73.042788,-38.476247],[-73.043149,-38.476316],[-73.043468,-38.476357],[-73.043848,-38.476426],[-73.044273,-38.476524],[-73.04471,-38.476593],[-73.045025,-38.476623],[-73.045303,-38.476635],[-73.045496,-38.476612],[-73.045606,-38.476623],[-73.045728,-38.476684],[-73.045846,-38.476749],[-73.045948,-38.476836],[-73.046096,-38.476927],[-73.046248,-38.476999],[-73.04645,-38.477052],[-73.04667,-38.477037],[-73.046909,-38.47698],[-73.047114,-38.476923],[-73.047316,-38.476855],[-73.047464,-38.476813],[-73.047639,-38.476809],[-73.047802,-38.476832],[-73.047992,-38.476863],[-73.048163,-38.476916],[-73.04841,-38.476969],[-73.048668,-38.477033],[-73.048911,-38.477117],[-73.049181,-38.477227],[-73.04942,-38.477337],[-73.049637,-38.477432],[-73.049823,-38.477527],[-73.049971,-38.477603],[-73.050149,-38.477615],[-73.050347,-38.477584],[-73.05056,-38.477531],[-73.05075,-38.477463],[-73.050787,-38.477445],[-73.04939,-38.480909],[-73.052979,-38.484072],[-73.051184,-38.488524],[-73.0458,-38.489813],[-73.042212,-38.48665],[-73.036828,-38.487938],[-73.033241,-38.484775],[-73.035037,-38.480324]]]},"properties":{"comuna":"Cholchol","mancha_id":"09121-88ce8ab58bfffff","clase":"Alto","nivel_medio":2.54,"nivel_medio_min":2.509,"nivel_medio_max":2.568,"pct_alto":63.1,"n_hexagonos":4,"area_ha":195.3}},{"type":"Feature","geometry":{"type":"Polygon","coordinates":[[[-72.826508,-38.646495],[-72.824695,-38.650942],[-72.819305,-38.652215],[-72.815729,-38.649042],[-72.817543,-38.644596],[-72.822932,-38.643323],[-72.826508,-38.646495]]]},"properties":{"comuna":"Cholchol","mancha_id":"09121-88ce8ab347fffff","clase":"Alto","nivel_medio":2.578,"nivel_medio_min":2.578,"nivel_medio_max":2.578,"pct_alto":53.2,"n_hexagonos":1,"area_ha":62.78}},{"type":"Feature","geometry":{"type":"Polygon","coordinates":[[[-72.831947,-38.633156],[-72.830134,-38.637602],[-72.824745,-38.638876],[-72.82117,-38.635704],[-72.822983,-38.631258],[-72.828371,-38.629984],[-72.831947,-38.633156]]]},"properties":{"comuna":"Cholchol","mancha_id":"09121-88ce8ab301fffff","clase":"Alto","nivel_medio":2.557,"nivel_medio_min":2.557,"nivel_medio_max":2.557,"pct_alto":41.7,"n_hexagonos":1,"area_ha":62.78}},{"type":"Feature","geometry":{"type":"Polygon","coordinates":[[[-72.955958,-38.579624],[-72.954155,-38.584075],[-72.948766,-38.585356],[-72.945181,-38.582188],[-72.946985,-38.577738],[-72.952373,-38.576456],[-72.955958,-38.579624]]]},"properties":{"comuna":"Cholchol","mancha_id":"09121-88ce8ab2b3fffff","clase":"Alto","nivel_medio":2.569,"nivel_medio_min":2.569,"nivel_medio_max":2.569,"pct_alto":47.7,"n_hexagonos":1,"area_ha":62.88}},{"type":"Feature","geometry":{"type":"Polygon","coordinates":[[[-72.936157,-38.604438],[-72.934351,-38.608889],[-72.92896,-38.610169],[-72.925376,-38.606999],[-72.927182,-38.602549],[-72.923599,-38.599379],[-72.925405,-38.59493],[-72.930794,-38.593649],[-72.934377,-38.596819],[-72.932572,-38.601269],[-72.936157,-38.604438]]]},"properties":{"comuna":"Cholchol","mancha_id":"09121-88ce8ab285fffff","clase":"Alto","nivel_medio":2.55,"nivel_medio_min":2.526,"nivel_medio_max":2.574,"pct_alto":58.9,"n_hexagonos":2,"area_ha":125.74}},{"type":"Feature","geometry":{"type":"Polygon","coordinates":[[[-72.864155,-38.661711],[-72.862344,-38.66616],[-72.856951,-38.667435],[-72.85337,-38.664261],[-72.855182,-38.659813],[-72.860574,-38.658538],[-72.864155,-38.661711]]]},"properties":{"comuna":"Cholchol","mancha_id":"09121-88ce8ab26dfffff","clase":"Alto","nivel_medio":2.768,"nivel_medio_min":2.768,"nivel_medio_max":2.768,"pct_alto":72.6,"n_hexagonos":1,"area_ha":62.84}},{"type":"Feature","geometry":{"type":"Polygon","coordinates":[[[-72.892931,-38.650881],[-72.896514,-38.654054],[-72.896326,-38.654517],[-72.895954,-38.654529],[-72.89439,-38.65369],[-72.89245,-38.65213],[-72.89146,-38.65152],[-72.891181,-38.651296],[-72.892931,-38.650881]]]},"properties":{"comuna":"Cholchol","mancha_id":"09121-88ce8ab209fffff","clase":"Alto","nivel_medio":2.682,"nivel_medio_min":2.682,"nivel_medio_max":2.682,"pct_alto":47.1,"n_hexagonos":1,"area_ha":5.81}},{"type":"Feature","geometry":{"type":"Polygon","coordinates":[[[-72.837668,-38.547452],[-72.835859,-38.551896],[-72.830478,-38.553172],[-72.826908,-38.550004],[-72.828717,-38.54556],[-72.825148,-38.542392],[-72.826957,-38.537948],[-72.832337,-38.536672],[-72.835907,-38.539839],[-72.834097,-38.544284],[-72.837668,-38.547452]]]},"properties":{"comuna":"Cholchol","mancha_id":"09121-88ce8ab1e5fffff","clase":"Alto","nivel_medio":2.806,"nivel_medio_min":2.681,"nivel_medio_max":2.932,"pct_alto":57.7,"n_hexagonos":2,"area_ha":125.42}},{"type":"Feature","geometry":{"type":"Polygon","coordinates":[[[-72.886098,-38.535951],[-72.884292,-38.540397],[-72.87891,-38.541676],[-72.875335,-38.538509],[-72.877142,-38.534063],[-72.882523,-38.532784],[-72.886098,-38.535951]]]},"properties":{"comuna":"Cholchol","mancha_id":"09121-88ce8ab19dfffff","clase":"Alto","nivel_medio":2.62,"nivel_medio_min":2.62,"nivel_medio_max":2.62,"pct_alto":44.7,"n_hexagonos":1,"area_ha":62.76}},{"type":"Feature","geometry":{"type":"Polygon","coordinates":[[[-72.871721,-38.547401],[-72.869913,-38.551847],[-72.873488,-38.555015],[-72.871681,-38.559461],[-72.866297,-38.560739],[-72.862723,-38.557571],[-72.864531,-38.553125],[-72.860957,-38.549957],[-72.855575,-38.551234],[-72.852002,-38.548066],[-72.853811,-38.543621],[-72.859191,-38.542343],[-72.862765,-38.545511],[-72.868146,-38.544233],[-72.871721,-38.547401]]]},"properties":{"comuna":"Cholchol","mancha_id":"09121-88ce8ab189fffff","clase":"Alto","nivel_medio":2.641,"nivel_medio_min":2.503,"nivel_medio_max":2.861,"pct_alto":55.1,"n_hexagonos":3,"area_ha":188.26}},{"type":"Feature","geometry":{"type":"Polygon","coordinates":[[[-72.841053,-38.598861],[-72.839242,-38.603307],[-72.842817,-38.606478],[-72.841006,-38.610924],[-72.835619,-38.612199],[-72.832045,-38.609028],[-72.826658,-38.610302],[-72.823084,-38.607131],[-72.824896,-38.602686],[-72.830282,-38.601411],[-72.832093,-38.596965],[-72.837478,-38.59569],[-72.841053,-38.598861]]]},"properties":{"comuna":"Cholchol","mancha_id":"09121-88ce8ab159fffff","clase":"Alto","nivel_medio":2.89,"nivel_medio_min":2.773,"nivel_medio_max":2.971,"pct_alto":87.3,"n_hexagonos":3,"area_ha":188.28}},{"type":"Feature","geometry":{"type":"Polygon","coordinates":[[[-72.821527,-38.55128],[-72.819717,-38.555724],[-72.814336,-38.556999],[-72.810767,-38.55383],[-72.812578,-38.549387],[-72.817958,-38.548111],[-72.821527,-38.55128]]]},"properties":{"comuna":"Cholchol","mancha_id":"09121-88ce8ab137fffff","clase":"Alto","nivel_medio":2.694,"nivel_medio_min":2.694,"nivel_medio_max":2.694,"pct_alto":67.9,"n_hexagonos":1,"area_ha":62.7}},{"type":"Feature","geometry":{"type":"Polygon","coordinates":[[[-72.84472,-38.577907],[-72.84291,-38.582353],[-72.837526,-38.583629],[-72.833953,-38.580459],[-72.835763,-38.576014],[-72.841146,-38.574738],[-72.84472,-38.577907]]]},"properties":{"comuna":"Cholchol","mancha_id":"09121-88ce8ab119fffff","clase":"Alto","nivel_medio":2.68,"nivel_medio_min":2.68,"nivel_medio_max":2.68,"pct_alto":67.6,"n_hexagonos":1,"area_ha":62.75}},{"type":"Feature","geometry":{"type":"Polygon","coordinates":[[[-72.850149,-38.564571],[-72.848339,-38.569016],[-72.842956,-38.570293],[-72.839383,-38.567123],[-72.841193,-38.562678],[-72.846575,-38.561402],[-72.850149,-38.564571]]]},"properties":{"comuna":"Cholchol","mancha_id":"09121-88ce8ab113fffff","clase":"Alto","nivel_medio":2.517,"nivel_medio_min":2.517,"nivel_medio_max":2.517,"pct_alto":49.0,"n_hexagonos":1,"area_ha":62.74}},{"type":"Feature","geometry":{"type":"Polygon","coordinates":[[[-72.828569,-38.581734],[-72.826758,-38.586179],[-72.821374,-38.587454],[-72.817802,-38.584284],[-72.819614,-38.579839],[-72.824997,-38.578565],[-72.828569,-38.581734]]]},"properties":{"comuna":"Cholchol","mancha_id":"09121-88ce8ab10bfffff","clase":"Alto","nivel_medio":2.504,"nivel_medio_min":2.504,"nivel_medio_max":2.504,"pct_alto":36.3,"n_hexagonos":1,"area_ha":62.73}},{"type":"Feature","geometry":{"type":"Polygon","coordinates":[[[-72.817854,-38.572225],[-72.816043,-38.57667],[-72.81066,-38.577944],[-72.80709,-38.574774],[-72.801708,-38.576048],[-72.798139,-38.572879],[-72.793572,-38.57396],[-72.79365,-38.5738],[-72.79404,-38.57314],[-72.79427,-38.57287],[-72.79459,-38.57222],[-72.7951,-38.57117],[-72.79525,-38.56974],[-72.7948,-38.56881],[-72.79387,-38.5676],[-72.79344,-38.56676],[-72.793586,-38.565928],[-72.79365,-38.56556],[-72.79362,-38.5642],[-72.79361,-38.56418],[-72.793,-38.56235],[-72.79228,-38.56085],[-72.79245,-38.55952],[-72.79292,-38.5585],[-72.793176,-38.557997],[-72.79319,-38.55797],[-72.79397,-38.55644],[-72.79428,-38.55553],[-72.79402,-38.55417],[-72.79345,-38.55282],[-72.79281,-38.55131],[-72.7922,-38.5506],[-72.791946,-38.550261],[-72.792873,-38.550042],[-72.79644,-38.55321],[-72.794628,-38.557653],[-72.798195,-38.560822],[-72.803576,-38.559548],[-72.807144,-38.562717],[-72.805333,-38.567161],[-72.808902,-38.57033],[-72.814284,-38.569056],[-72.817854,-38.572225]]]},"properties":{"comuna":"Cholchol","mancha_id":"09121-88ce8ab107fffff","clase":"Alto","nivel_medio":2.663,"nivel_medio_min":2.506,"nivel_medio_max":2.814,"pct_alto":66.8,"n_hexagonos":6,"area_ha":263.02}},{"type":"Feature","geometry":{"type":"Polygon","coordinates":[[[-72.894845,-38.610223],[-72.900235,-38.608945],[-72.902042,-38.604496],[-72.907431,-38.603217],[-72.911013,-38.606387],[-72.909206,-38.610837],[-72.912789,-38.614007],[-72.910982,-38.618457],[-72.914565,-38.621627],[-72.912758,-38.626077],[-72.907366,-38.627356],[-72.903783,-38.624185],[-72.905591,-38.619735],[-72.902009,-38.616564],[-72.896619,-38.617843],[-72.893037,-38.614672],[-72.894845,-38.610223]]]},"properties":{"comuna":"Cholchol","mancha_id":"09121-88ce8ab059fffff","clase":"Alto","nivel_medio":2.609,"nivel_medio_min":2.525,"nivel_medio_max":2.726,"pct_alto":62.1,"n_hexagonos":4,"area_ha":251.41}},{"type":"Feature","geometry":{"type":"Polygon","coordinates":[[[-72.885876,-38.608331],[-72.884067,-38.612779],[-72.878678,-38.614056],[-72.875099,-38.610885],[-72.876908,-38.606437],[-72.882296,-38.60516],[-72.885876,-38.608331]]]},"properties":{"comuna":"Cholchol","mancha_id":"09121-88ce8ab043fffff","clase":"Alto","nivel_medio":2.647,"nivel_medio_min":2.647,"nivel_medio_max":2.647,"pct_alto":63.4,"n_hexagonos":1,"area_ha":62.82}},{"type":"Feature","geometry":{"type":"Polygon","coordinates":[[[-72.875138,-38.598819],[-72.873329,-38.603267],[-72.867942,-38.604544],[-72.864364,-38.601373],[-72.858977,-38.60265],[-72.857167,-38.607097],[-72.85178,-38.608373],[-72.848204,-38.605202],[-72.850014,-38.600756],[-72.855401,-38.599479],[-72.857211,-38.595033],[-72.853635,-38.591863],[-72.848249,-38.593139],[-72.844674,-38.589969],[-72.846484,-38.585523],[-72.851869,-38.584247],[-72.855444,-38.587416],[-72.86083,-38.58614],[-72.864406,-38.589309],[-72.862597,-38.593756],[-72.866174,-38.596926],[-72.87156,-38.595649],[-72.875138,-38.598819]]]},"properties":{"comuna":"Cholchol","mancha_id":"09121-88ce8ab00dfffff","clase":"Alto","nivel_medio":2.822,"nivel_medio_min":2.631,"nivel_medio_max":3.064,"pct_alto":76.2,"n_hexagonos":5,"area_ha":313.92}},{"type":"Feature","geometry":{"type":"Polygon","coordinates":[[[-72.889529,-38.587369],[-72.887721,-38.591816],[-72.882334,-38.593094],[-72.878756,-38.589925],[-72.873369,-38.591202],[-72.869792,-38.588032],[-72.8716,-38.583585],[-72.868024,-38.580416],[-72.869832,-38.575969],[-72.875217,-38.574692],[-72.878794,-38.577861],[-72.876986,-38.582308],[-72.880564,-38.585477],[-72.88595,-38.584199],[-72.889529,-38.587369]]]},"properties":{"comuna":"Cholchol","mancha_id":"09121-88ce8ab003fffff","clase":"Alto","nivel_medio":2.573,"nivel_medio_min":2.507,"nivel_medio_max":2.681,"pct_alto":47.0,"n_hexagonos":3,"area_ha":188.39}},{"type":"Feature","geometry":{"type":"Polygon","coordinates":[[[-72.988154,-38.462942],[-72.988187,-38.463125],[-72.988204,-38.46322],[-72.988268,-38.463483],[-72.988311,-38.463621],[-72.98836,-38.46378],[-72.988529,-38.464105],[-72.988706,-38.464311],[-72.988878,-38.464501],[-72.989005,-38.464627],[-72.989086,-38.46475],[-72.989115,-38.464871],[-72.989093,-38.465092],[-72.989022,-38.465355],[-72.988915,-38.465562],[-72.988695,-38.465854],[-72.988453,-38.466103],[-72.988282,-38.466331],[-72.988168,-38.466537],[-72.988047,-38.466793],[-72.987997,-38.466943],[-72.987906,-38.467173],[-72.987983,-38.467363],[-72.988013,-38.4676],[-72.988095,-38.46779],[-72.988218,-38.467938],[-72.988366,-38.46811],[-72.988531,-38.468275],[-72.988704,-38.468472],[-72.988835,-38.468629],[-72.988979,-38.468794],[-72.989029,-38.468972],[-72.989072,-38.469136],[-72.989172,-38.469271],[-72.989217,-38.469408],[-72.989316,-38.469501],[-72.989414,-38.469586],[-72.989526,-38.469632],[-72.989671,-38.469718],[-72.989796,-38.469797],[-72.989855,-38.469915],[-72.989954,-38.470119],[-72.990085,-38.470349],[-72.990171,-38.47056],[-72.990289,-38.470685],[-72.990474,-38.470797],[-72.990541,-38.470868],[-72.990586,-38.470915],[-72.990704,-38.471053],[-72.990757,-38.471152],[-72.990822,-38.47129],[-72.990862,-38.471455],[-72.990928,-38.47158],[-72.991013,-38.471705],[-72.991086,-38.471804],[-72.991112,-38.471929],[-72.991145,-38.472067],[-72.991178,-38.47235],[-72.991171,-38.472633],[-72.991204,-38.47283],[-72.99125,-38.472988],[-72.991369,-38.473133],[-72.991533,-38.473343],[-72.991704,-38.473455],[-72.991777,-38.473521],[-72.99187,-38.473571],[-72.991889,-38.473705],[-72.991928,-38.473824],[-72.991935,-38.474021],[-72.991961,-38.474238],[-72.991974,-38.474482],[-72.99202,-38.47464],[-72.992139,-38.474745],[-72.992224,-38.474831],[-72.992343,-38.474929],[-72.992487,-38.475008],[-72.992658,-38.475008],[-72.992836,-38.475041],[-72.993001,-38.475041],[-72.993159,-38.475107],[-72.99333,-38.475232],[-72.993514,-38.475383],[-72.993626,-38.475489],[-72.993776,-38.475659],[-72.993924,-38.475774],[-72.994105,-38.475972],[-72.994229,-38.47612],[-72.99436,-38.476309],[-72.994508,-38.476588],[-72.994747,-38.477016],[-72.99492,-38.477271],[-72.995027,-38.477452],[-72.995158,-38.477625],[-72.995356,-38.47774],[-72.995377,-38.477751],[-72.995545,-38.477839],[-72.995726,-38.477913],[-72.995866,-38.477987],[-72.99603,-38.478077],[-72.996145,-38.478201],[-72.996343,-38.478406],[-72.99654,-38.47853],[-72.996754,-38.478628],[-72.996992,-38.478711],[-72.997289,-38.478818],[-72.997601,-38.478933],[-72.997873,-38.47904],[-72.998078,-38.479104],[-72.998209,-38.479121],[-72.998325,-38.479114],[-72.998544,-38.479036],[-72.998769,-38.478966],[-72.998928,-38.478895],[-72.999084,-38.478885],[-72.999204,-38.47889],[-72.999223,-38.47889],[-72.999347,-38.478939],[-72.9995,-38.478997],[-72.999626,-38.478975],[-72.999743,-38.478951],[-72.999867,-38.478939],[-73.0,-38.478946],[-73.000005,-38.478946],[-73.000125,-38.478934],[-73.00028,-38.478941],[-73.000436,-38.478987],[-73.000744,-38.479107],[-73.000915,-38.479155],[-73.001046,-38.479192],[-73.001182,-38.479194],[-73.001374,-38.47916],[-73.001569,-38.479099],[-73.001797,-38.479046],[-73.001945,-38.479002],[-73.00213,-38.47897],[-73.002368,-38.478912],[-73.002626,-38.47891],[-73.002881,-38.478917],[-73.003139,-38.478939],[-73.003462,-38.478992],[-73.003766,-38.479087],[-73.004036,-38.47918],[-73.004296,-38.47924],[-73.004454,-38.47925],[-73.004598,-38.479238],[-73.004748,-38.479192],[-73.00496,-38.479124],[-73.005278,-38.479046],[-73.005475,-38.478985],[-73.005641,-38.478939],[-73.005787,-38.478902],[-73.005925,-38.478902],[-73.006129,-38.478936],[-73.00636,-38.478992],[-73.006399,-38.478999],[-73.006608,-38.479036],[-73.006839,-38.479109],[-73.007109,-38.479209],[-73.007367,-38.479306],[-73.007673,-38.47942],[-73.007994,-38.479551],[-73.008366,-38.479712],[-73.00885,-38.479896],[-73.00926,-38.480033],[-73.009667,-38.480182],[-73.009929,-38.480294],[-73.010111,-38.48031],[-73.010318,-38.480301],[-73.010588,-38.480298],[-73.010822,-38.48027],[-73.011029,-38.480234],[-73.011321,-38.480191],[-73.011591,-38.480115],[-73.01174,-38.480021],[-73.011874,-38.479892],[-73.012045,-38.47975],[-73.012195,-38.479629],[-73.012484,-38.479453],[-73.012648,-38.47934],[-73.012867,-38.479191],[-73.013089,-38.479061],[-73.013353,-38.478912],[-73.013554,-38.478792],[-73.013741,-38.478678],[-73.013961,-38.47853],[-73.014174,-38.478397],[-73.014637,-38.478055],[-73.014937,-38.477854],[-73.01515,-38.477755],[-73.015355,-38.477702],[-73.015514,-38.477656],[-73.015716,-38.477618],[-73.015963,-38.477554],[-73.016153,-38.477466],[-73.016396,-38.477334],[-73.016719,-38.477189],[-73.016881,-38.477121],[-73.017041,-38.477052],[-73.017315,-38.476927],[-73.017467,-38.476908],[-73.017577,-38.476893],[-73.017657,-38.476912],[-73.017695,-38.476954],[-73.017752,-38.477022],[-73.017816,-38.477106],[-73.017824,-38.477193],[-73.017794,-38.477326],[-73.017755,-38.477486],[-73.017726,-38.477621],[-73.017726,-38.477828],[-73.017737,-38.478002],[-73.017816,-38.478169],[-73.017968,-38.478287],[-73.018147,-38.478386],[-73.018306,-38.478443],[-73.018527,-38.47853],[-73.018781,-38.478587],[-73.019119,-38.478678],[-73.019442,-38.478766],[-73.019792,-38.478834],[-73.020046,-38.478899],[-73.02032,-38.478918],[-73.020475,-38.478899],[-73.020696,-38.478845],[-73.020825,-38.478823],[-73.020962,-38.478796],[-73.021087,-38.478773],[-73.021212,-38.478785],[-73.021311,-38.478811],[-73.021474,-38.478883],[-73.021615,-38.478952],[-73.021774,-38.479016],[-73.022006,-38.479123],[-73.022196,-38.479187],[-73.022337,-38.479187],[-73.022504,-38.479195],[-73.022694,-38.479168],[-73.022872,-38.479134],[-73.023028,-38.479062],[-73.023157,-38.478986],[-73.023343,-38.478895],[-73.023598,-38.478792],[-73.023917,-38.478621],[-73.02446,-38.478333],[-73.024874,-38.478124],[-73.025292,-38.477884],[-73.025376,-38.47784],[-73.026068,-38.47845],[-73.024272,-38.482901],[-73.018889,-38.484188],[-73.015304,-38.481025],[-73.009922,-38.482313],[-73.008125,-38.486763],[-73.002743,-38.48805],[-72.999159,-38.484887],[-72.993778,-38.486173],[-72.991979,-38.490623],[-72.986598,-38.491908],[-72.983015,-38.488745],[-72.984814,-38.484295],[-72.990195,-38.48301],[-72.991993,-38.47856],[-72.988411,-38.475397],[-72.983031,-38.476683],[-72.97945,-38.47352],[-72.981248,-38.469071],[-72.977668,-38.465909],[-72.979466,-38.46146],[-72.976348,-38.458705],[-72.9764,-38.45864],[-72.97654,-38.45794],[-72.97677,-38.45763],[-72.97713,-38.4574],[-72.97749,-38.45729],[-72.97795,-38.45726],[-72.9784,-38.45732],[-72.97935,-38.45733],[-72.9798,-38.45738],[-72.9801,-38.45746],[-72.98064,-38.45766],[-72.98093,-38.45771],[-72.98147,-38.45772],[-72.98265,-38.45788],[-72.98358,-38.45807],[-72.98462,-38.45837],[-72.98518,-38.45864],[-72.985411,-38.458772],[-72.986416,-38.459346],[-72.986779,-38.4596],[-72.987057,-38.459903],[-72.98733,-38.4603],[-72.987784,-38.460883],[-72.988024,-38.461062],[-72.987997,-38.461248],[-72.987954,-38.461447],[-72.988004,-38.461746],[-72.988061,-38.462259],[-72.988097,-38.462529],[-72.988154,-38.462942]]]},"properties":{"comuna":"Cholchol","mancha_id":"09121-88ce8aa299fffff","clase":"Alto","nivel_medio":2.642,"nivel_medio_min":2.511,"nivel_medio_max":2.851,"pct_alto":68.5,"n_hexagonos":12,"area_ha":437.4}},{"type":"Feature","geometry":{"type":"Polygon","coordinates":[[[-72.961532,-38.469765],[-72.956154,-38.471049],[-72.954367,-38.469469],[-72.95496,-38.46916],[-72.95607,-38.46854],[-72.95683,-38.46825],[-72.95741,-38.4682],[-72.95807,-38.46816],[-72.95872,-38.46816],[-72.95952,-38.46785],[-72.96019,-38.46785],[-72.96066,-38.4678],[-72.96136,-38.46751],[-72.96176,-38.46726],[-72.96253,-38.46669],[-72.96295,-38.46599],[-72.96309,-38.46584],[-72.963128,-38.465821],[-72.961532,-38.469765]]]},"properties":{"comuna":"Cholchol","mancha_id":"09121-88ce8aa28dfffff","clase":"Alto","nivel_medio":2.585,"nivel_medio_min":2.585,"nivel_medio_max":2.585,"pct_alto":53.1,"n_hexagonos":1,"area_ha":16.28}},{"type":"Feature","geometry":{"type":"Polygon","coordinates":[[[-72.969427,-38.462258],[-72.96871,-38.464032],[-72.965709,-38.464749],[-72.96611,-38.46449],[-72.96672,-38.46401],[-72.96735,-38.46352],[-72.96822,-38.46299],[-72.96939,-38.46228],[-72.969427,-38.462258]]]},"properties":{"comuna":"Cholchol","mancha_id":"09121-88ce8aa281fffff","clase":"Alto","nivel_medio":3.003,"nivel_medio_min":3.003,"nivel_medio_max":3.003,"pct_alto":79.1,"n_hexagonos":1,"area_ha":2.53}},{"type":"Feature","geometry":{"type":"Polygon","coordinates":[[[-72.907657,-38.518771],[-72.905853,-38.523218],[-72.909429,-38.526384],[-72.914811,-38.525103],[-72.916615,-38.520656],[-72.921997,-38.519374],[-72.925575,-38.52254],[-72.923771,-38.526988],[-72.92735,-38.530154],[-72.925546,-38.534602],[-72.920163,-38.535883],[-72.916585,-38.532717],[-72.911202,-38.533998],[-72.909398,-38.538445],[-72.904015,-38.539725],[-72.900438,-38.536558],[-72.902243,-38.532111],[-72.898666,-38.528945],[-72.900472,-38.524498],[-72.896896,-38.521332],[-72.891515,-38.522612],[-72.88794,-38.519446],[-72.889746,-38.515],[-72.886172,-38.511834],[-72.887977,-38.507388],[-72.893356,-38.506108],[-72.89693,-38.509273],[-72.90231,-38.507993],[-72.905885,-38.511158],[-72.904081,-38.515605],[-72.907657,-38.518771]]]},"properties":{"comuna":"Cholchol","mancha_id":"09121-88ce8aa245fffff","clase":"Alto","nivel_medio":2.805,"nivel_medio_min":2.501,"nivel_medio_max":3.036,"pct_alto":70.5,"n_hexagonos":9,"area_ha":565.03}},{"type":"Feature","geometry":{"type":"Polygon","coordinates":[[[-72.934615,-38.488243],[-72.932813,-38.49269],[-72.927434,-38.493973],[-72.923857,-38.490808],[-72.92566,-38.486362],[-72.931038,-38.485079],[-72.934615,-38.488243]]]},"properties":{"comuna":"Cholchol","mancha_id":"09121-88ce8aa215fffff","clase":"Alto","nivel_medio":2.669,"nivel_medio_min":2.669,"nivel_medio_max":2.669,"pct_alto":51.0,"n_hexagonos":1,"area_ha":62.78}},{"type":"Feature","geometry":{"type":"Polygon","coordinates":[[[-72.950753,-38.484393],[-72.948952,-38.48884],[-72.943572,-38.490124],[-72.939994,-38.48696],[-72.941796,-38.482512],[-72.939128,-38.480153],[-72.9398,-38.48019],[-72.94025,-38.48026],[-72.94066,-38.48042],[-72.94122,-38.48103],[-72.94213,-38.48178],[-72.94274,-38.48203],[-72.94312,-38.48201],[-72.94353,-38.48172],[-72.94425,-38.48111],[-72.94514,-38.4802],[-72.945654,-38.479532],[-72.945936,-38.478999],[-72.946109,-38.478433],[-72.9461,-38.47773],[-72.94634,-38.47667],[-72.94666,-38.47593],[-72.94711,-38.47534],[-72.947223,-38.475232],[-72.948975,-38.476781],[-72.947175,-38.481229],[-72.950753,-38.484393]]]},"properties":{"comuna":"Cholchol","mancha_id":"09121-88ce8aa213fffff","clase":"Alto","nivel_medio":2.643,"nivel_medio_min":2.62,"nivel_medio_max":2.731,"pct_alto":58.1,"n_hexagonos":2,"area_ha":79.57}},{"type":"Feature","geometry":{"type":"Polygon","coordinates":[[[-72.787085,-38.635721],[-72.790657,-38.638894],[-72.796044,-38.637622],[-72.799617,-38.640795],[-72.797803,-38.645241],[-72.792414,-38.646512],[-72.788842,-38.643339],[-72.783454,-38.644611],[-72.779882,-38.641437],[-72.781698,-38.636993],[-72.787085,-38.635721]]]},"properties":{"comuna":"Cholchol","mancha_id":"09121-88ce8a84d9fffff","clase":"Alto","nivel_medio":2.513,"nivel_medio_min":2.503,"nivel_medio_max":2.523,"pct_alto":40.4,"n_hexagonos":2,"area_ha":125.48}},{"type":"Feature","geometry":{"type":"Polygon","coordinates":[[[-72.763173,-38.638703],[-72.765538,-38.640806],[-72.770924,-38.639535],[-72.774495,-38.642708],[-72.772679,-38.647153],[-72.77625,-38.650326],[-72.774434,-38.654771],[-72.769046,-38.656041],[-72.765475,-38.652867],[-72.76344,-38.653347],[-72.76346,-38.6533],[-72.76093,-38.65314],[-72.75906,-38.653224],[-72.758787,-38.652982],[-72.75799,-38.65149],[-72.75751,-38.65049],[-72.75757,-38.65015],[-72.7574,-38.64955],[-72.75741,-38.64899],[-72.75749,-38.6487],[-72.757513,-38.648529],[-72.758334,-38.64652],[-72.757844,-38.646083],[-72.75786,-38.64601],[-72.75817,-38.6456],[-72.75861,-38.64465],[-72.75892,-38.64396],[-72.75917,-38.64342],[-72.75926,-38.64303],[-72.75923,-38.6427],[-72.75908,-38.64245],[-72.75902,-38.64202],[-72.75918,-38.64142],[-72.75932,-38.6413],[-72.75969,-38.64109],[-72.76069,-38.64036],[-72.760954,-38.640016],[-72.761348,-38.639519],[-72.76209,-38.63919],[-72.763173,-38.638703]]]},"properties":{"comuna":"Cholchol","mancha_id":"09121-88ce8a84c1fffff","clase":"Alto","nivel_medio":2.713,"nivel_medio_min":2.519,"nivel_medio_max":2.992,"pct_alto":51.7,"n_hexagonos":4,"area_ha":217.27}},{"type":"Feature","geometry":{"type":"Polygon","coordinates":[[[-72.801542,-38.612226],[-72.799729,-38.61667],[-72.794343,-38.617943],[-72.790772,-38.614771],[-72.792586,-38.610327],[-72.797971,-38.609054],[-72.801542,-38.612226]]]},"properties":{"comuna":"Cholchol","mancha_id":"09121-88ce8a849bfffff","clase":"Alto","nivel_medio":2.572,"nivel_medio_min":2.572,"nivel_medio_max":2.572,"pct_alto":44.3,"n_hexagonos":1,"area_ha":62.72}},{"type":"Feature","geometry":{"type":"Polygon","coordinates":[[[-72.783632,-38.608428],[-72.781817,-38.612872],[-72.776433,-38.614143],[-72.772864,-38.610971],[-72.774679,-38.606528],[-72.77111,-38.603356],[-72.765727,-38.604628],[-72.76216,-38.601456],[-72.763975,-38.597014],[-72.769358,-38.595742],[-72.771172,-38.591299],[-72.776554,-38.590027],[-72.780122,-38.593198],[-72.785505,-38.591926],[-72.789074,-38.595097],[-72.78726,-38.59954],[-72.781877,-38.600813],[-72.780062,-38.605256],[-72.783632,-38.608428]]]},"properties":{"comuna":"Cholchol","mancha_id":"09121-88ce8a8495fffff","clase":"Alto","nivel_medio":2.668,"nivel_medio_min":2.565,"nivel_medio_max":2.863,"pct_alto":66.1,"n_hexagonos":5,"area_ha":313.46}},{"type":"Feature","geometry":{"type":"Polygon","coordinates":[[[-72.991812,-38.635466],[-72.995405,-38.638637],[-72.994478,-38.640927],[-72.99436,-38.640951],[-72.994113,-38.641054],[-72.99401,-38.641102],[-72.993692,-38.641261],[-72.993549,-38.6413],[-72.993438,-38.6413],[-72.993263,-38.641277],[-72.993112,-38.641213],[-72.992953,-38.641006],[-72.992547,-38.64068],[-72.992317,-38.640434],[-72.992261,-38.640259],[-72.992261,-38.639941],[-72.992213,-38.63979],[-72.992062,-38.639719],[-72.991911,-38.639758],[-72.991705,-38.639814],[-72.991474,-38.639989],[-72.991172,-38.640339],[-72.991045,-38.640672],[-72.990862,-38.640998],[-72.990775,-38.641038],[-72.990663,-38.641046],[-72.990401,-38.641062],[-72.990202,-38.641149],[-72.990075,-38.641229],[-72.98994,-38.641245],[-72.989773,-38.641229],[-72.989376,-38.641229],[-72.989153,-38.641237],[-72.98893,-38.641316],[-72.988843,-38.64142],[-72.988724,-38.641626],[-72.988644,-38.641793],[-72.988469,-38.641897],[-72.988287,-38.641928],[-72.988072,-38.641936],[-72.987905,-38.641976],[-72.987674,-38.642024],[-72.987492,-38.642103],[-72.987333,-38.642191],[-72.987134,-38.64235],[-72.986911,-38.642572],[-72.986792,-38.642628],[-72.986633,-38.642628],[-72.986434,-38.642564],[-72.986267,-38.642437],[-72.986077,-38.642278],[-72.985942,-38.642175],[-72.98583,-38.642111],[-72.985679,-38.642071],[-72.985556,-38.642035],[-72.984612,-38.641202],[-72.986416,-38.636749],[-72.991812,-38.635466]]]},"properties":{"comuna":"Cholchol","mancha_id":"09121-88ce884dc5fffff","clase":"Alto","nivel_medio":2.538,"nivel_medio_min":2.538,"nivel_medio_max":2.538,"pct_alto":57.5,"n_hexagonos":1,"area_ha":45.1}},{"type":"Feature","geometry":{"type":"Polygon","coordinates":[[[-73.02238,-38.644299],[-73.027778,-38.643014],[-73.028869,-38.643976],[-73.02632,-38.64478],[-73.024943,-38.645039],[-73.023057,-38.645395],[-73.021851,-38.645606],[-73.021446,-38.645677],[-73.01889,-38.64614],[-73.012559,-38.647511],[-73.012362,-38.647552],[-73.011584,-38.646866],[-73.013387,-38.642412],[-73.018784,-38.641128],[-73.02238,-38.644299]]]},"properties":{"comuna":"Cholchol","mancha_id":"09121-88ce884c33fffff","clase":"Alto","nivel_medio":2.525,"nivel_medio_min":2.507,"nivel_medio_max":2.618,"pct_alto":52.6,"n_hexagonos":2,"area_ha":49.15}},{"type":"Feature","geometry":{"type":"Polygon","coordinates":[[[-72.862259,-38.690304],[-72.860447,-38.694753],[-72.855051,-38.696027],[-72.851469,-38.692852],[-72.853282,-38.688403],[-72.858677,-38.687129],[-72.862259,-38.690304]]]},"properties":{"comuna":"Cholchol","mancha_id":"09121-88ce8849d7fffff","clase":"Alto","nivel_medio":2.636,"nivel_medio_min":2.636,"nivel_medio_max":2.636,"pct_alto":41.3,"n_hexagonos":1,"area_ha":62.86}},{"type":"Feature","geometry":{"type":"Polygon","coordinates":[[[-72.871319,-38.668058],[-72.874902,-38.671232],[-72.880296,-38.669956],[-72.882473,-38.671884],[-72.88159,-38.67297],[-72.8793,-38.67634],[-72.878167,-38.678502],[-72.876674,-38.678855],[-72.874862,-38.683305],[-72.869467,-38.68458],[-72.865884,-38.681405],[-72.867696,-38.676956],[-72.864114,-38.673782],[-72.865926,-38.669333],[-72.871319,-38.668058]]]},"properties":{"comuna":"Cholchol","mancha_id":"09121-88ce884993fffff","clase":"Alto","nivel_medio":2.612,"nivel_medio_min":2.591,"nivel_medio_max":2.627,"pct_alto":61.4,"n_hexagonos":3,"area_ha":172.81}},{"type":"Feature","geometry":{"type":"Polygon","coordinates":[[[-72.75892,-38.65323],[-72.758787,-38.652982],[-72.75906,-38.653224],[-72.75892,-38.65323]]]},"properties":{"comuna":"Cholchol","mancha_id":"09121-88ce8a86a7fffff","clase":"Muy Alto","nivel_medio":3.835,"nivel_medio_min":3.835,"nivel_medio_max":3.835,"pct_alto":100.0,"n_hexagonos":1,"area_ha":0.02}}],"bbox":[-73.06241,-38.71386,-72.75735,-38.45726]}