{"type":"FeatureCollection","features":[{"type":"Feature","geometry":{"type":"Polygon","coordinates":[[[-73.00192,-41.202001],[-73.000031,-41.206511],[-73.003797,-41.2098],[-73.009454,-41.208578],[-73.013222,-41.211867],[-73.018879,-41.210645],[-73.022648,-41.213933],[-73.028306,-41.212711],[-73.032077,-41.215999],[-73.030188,-41.220511],[-73.02453,-41.221734],[-73.02076,-41.218445],[-73.015102,-41.219667],[-73.013212,-41.224178],[-73.007554,-41.2254],[-73.005664,-41.229911],[-73.009433,-41.2332],[-73.007543,-41.237712],[-73.001883,-41.238932],[-72.999992,-41.243443],[-73.003762,-41.246734],[-73.001871,-41.251245],[-73.005641,-41.254536],[-73.00375,-41.259047],[-72.998088,-41.260267],[-72.994318,-41.256976],[-72.988657,-41.258196],[-72.986765,-41.262707],[-72.990534,-41.265998],[-72.988642,-41.270509],[-72.982979,-41.271728],[-72.981086,-41.276239],[-72.984856,-41.279531],[-72.982963,-41.284042],[-72.977299,-41.28526],[-72.975405,-41.289771],[-72.977455,-41.291561],[-72.97549,-41.291394],[-72.970025,-41.290928],[-72.969634,-41.290894],[-72.96841,-41.29079],[-72.963295,-41.289335],[-72.961803,-41.288592],[-72.957476,-41.286437],[-72.95605,-41.285726],[-72.950421,-41.282923],[-72.95004,-41.28228],[-72.949616,-41.281567],[-72.948637,-41.279918],[-72.947146,-41.277407],[-72.945622,-41.27484],[-72.941735,-41.268293],[-72.939926,-41.265247],[-72.937454,-41.261065],[-72.937426,-41.261017],[-72.933577,-41.254506],[-72.931988,-41.251817],[-72.930914,-41.25],[-72.93057,-41.249418],[-72.927902,-41.244904],[-72.926674,-41.242825],[-72.922374,-41.23555],[-72.918546,-41.229074],[-72.916888,-41.22627],[-72.915541,-41.22399],[-72.911625,-41.217365],[-72.907327,-41.210093],[-72.903525,-41.203662],[-72.901778,-41.200706],[-72.900523,-41.198581],[-72.896582,-41.191915],[-72.892285,-41.184645],[-72.88967,-41.18022],[-72.895765,-41.183896],[-72.898658,-41.18564],[-72.900772,-41.186915],[-72.90816,-41.19137],[-72.908619,-41.19155],[-72.917442,-41.195012],[-72.92024,-41.19611],[-72.926676,-41.1975],[-72.92686,-41.19754],[-72.935989,-41.199806],[-72.93959,-41.2007],[-72.945424,-41.201825],[-72.94991,-41.20269],[-72.95314,-41.20313],[-72.955139,-41.203179],[-72.96089,-41.20332],[-72.965354,-41.203344],[-72.97002,-41.20337],[-72.974716,-41.202881],[-72.97588,-41.20276],[-72.98149,-41.201658],[-72.99019,-41.19995],[-72.992084,-41.199572],[-72.998315,-41.198328],[-73.0,-41.197991],[-73.00261,-41.19747],[-73.008445,-41.195378],[-73.00922,-41.1951],[-73.01203,-41.19381],[-73.01383,-41.19268],[-73.01478,-41.19177],[-73.0148,-41.18909],[-73.014807,-41.188614],[-73.017008,-41.190535],[-73.01512,-41.195046],[-73.009465,-41.196269],[-73.007576,-41.200779],[-73.00192,-41.202001]]]},"properties":{"comuna":"Llanquihue","mancha_id":"10107-88ceaa1341fffff","clase":"Muy Bajo","nivel_medio":0.018,"nivel_medio_min":0.0,"nivel_medio_max":0.485,"pct_alto":0.4,"n_hexagonos":119,"area_ha":6212.33}},{"type":"Feature","geometry":{"type":"Polygon","coordinates":[[[-73.313163,-41.134281],[-73.307501,-41.135522],[-73.30721,-41.135271],[-73.307793,-41.135261],[-73.308846,-41.135039],[-73.3096,-41.13494],[-73.310403,-41.134802],[-73.31137,-41.134421],[-73.31203,-41.13401],[-73.312194,-41.133827],[-73.312221,-41.133614],[-73.31218,-41.13344],[-73.31186,-41.1329],[-73.311778,-41.132523],[-73.311822,-41.13231],[-73.311946,-41.132133],[-73.3123,-41.13198],[-73.31272,-41.13194],[-73.313249,-41.132053],[-73.313613,-41.132133],[-73.313906,-41.132115],[-73.314088,-41.13204],[-73.313163,-41.134281]]]},"properties":{"comuna":"Llanquihue","mancha_id":"10107-88ceaab939fffff","clase":"Bajo","nivel_medio":1.347,"nivel_medio_min":1.347,"nivel_medio_max":1.347,"pct_alto":0.0,"n_hexagonos":1,"area_ha":4.4}},{"type":"Feature","geometry":{"type":"Polygon","coordinates":[[[-73.32316,-41.13519],[-73.323064,-41.135246],[-73.324487,-41.131799],[-73.321845,-41.129514],[-73.32228,-41.12946],[-73.32304,-41.12941],[-73.323374,-41.129438],[-73.323899,-41.129615],[-73.324538,-41.129948],[-73.32522,-41.13028],[-73.325502,-41.130388],[-73.32584,-41.1304],[-73.326084,-41.130381],[-73.32658,-41.13023],[-73.328204,-41.129758],[-73.327933,-41.129907],[-73.327461,-41.130414],[-73.327068,-41.130956],[-73.326876,-41.131275],[-73.326709,-41.131551],[-73.326639,-41.131804],[-73.326683,-41.132014],[-73.326823,-41.132242],[-73.32706,-41.13252],[-73.327181,-41.13274],[-73.32725,-41.13323],[-73.327173,-41.133562],[-73.327024,-41.133921],[-73.32668,-41.13454],[-73.326569,-41.134786],[-73.326421,-41.134996],[-73.326237,-41.135154],[-73.32603,-41.13521],[-73.325756,-41.135224],[-73.32511,-41.13515],[-73.32399,-41.135075],[-73.323587,-41.135092],[-73.32316,-41.13519]]]},"properties":{"comuna":"Llanquihue","mancha_id":"10107-88ceaab911fffff","clase":"Bajo","nivel_medio":1.14,"nivel_medio_min":1.08,"nivel_medio_max":1.239,"pct_alto":0.0,"n_hexagonos":2,"area_ha":16.4}},{"type":"Feature","geometry":{"type":"Polygon","coordinates":[[[-73.32273,-41.13634],[-73.322748,-41.136432],[-73.322771,-41.136546],[-73.32269,-41.13672],[-73.322602,-41.136841],[-73.322447,-41.13694],[-73.322257,-41.137017],[-73.321838,-41.13727],[-73.321701,-41.137397],[-73.321574,-41.137587],[-73.321427,-41.1379],[-73.321249,-41.138391],[-73.32113,-41.138634],[-73.320929,-41.138993],[-73.31986,-41.14035],[-73.319617,-41.140546],[-73.319298,-41.140694],[-73.318941,-41.14078],[-73.31851,-41.14083],[-73.317221,-41.140916],[-73.31668,-41.14098],[-73.31575,-41.14117],[-73.315481,-41.141206],[-73.315452,-41.141207],[-73.316957,-41.137562],[-73.32262,-41.136321],[-73.322685,-41.136164],[-73.32273,-41.13634]]]},"properties":{"comuna":"Llanquihue","mancha_id":"10107-88ceaab911fffff-2","clase":"Bajo","nivel_medio":1.318,"nivel_medio_min":1.08,"nivel_medio_max":1.318,"pct_alto":0.0,"n_hexagonos":2,"area_ha":16.59}},{"type":"Feature","geometry":{"type":"Polygon","coordinates":[[[-73.305632,-41.140044],[-73.309427,-41.143326],[-73.309808,-41.143242],[-73.309763,-41.143472],[-73.309697,-41.143713],[-73.309561,-41.143865],[-73.30938,-41.143949],[-73.309178,-41.143955],[-73.309167,-41.143954],[-73.308761,-41.143938],[-73.308339,-41.14387],[-73.30795,-41.143837],[-73.307702,-41.143854],[-73.307443,-41.143944],[-73.307156,-41.144107],[-73.30661,-41.144259],[-73.306373,-41.144394],[-73.306126,-41.144602],[-73.305992,-41.144828],[-73.305806,-41.145298],[-73.30545,-41.14616],[-73.305281,-41.146434],[-73.305095,-41.146609],[-73.3045,-41.14691],[-73.304057,-41.147123],[-73.303674,-41.147342],[-73.30339,-41.147549],[-73.303276,-41.147733],[-73.303197,-41.147914],[-73.303135,-41.148122],[-73.303096,-41.148449],[-73.303062,-41.148832],[-73.303051,-41.148955],[-73.303,-41.149473],[-73.302927,-41.149823],[-73.3028,-41.15026],[-73.302758,-41.150532],[-73.302775,-41.150831],[-73.302811,-41.151157],[-73.302848,-41.151551],[-73.30286,-41.15213],[-73.302767,-41.152435],[-73.30256,-41.15266],[-73.30207,-41.15301],[-73.30169,-41.15323],[-73.30138,-41.15349],[-73.301204,-41.153725],[-73.301117,-41.153944],[-73.301029,-41.154478],[-73.300026,-41.15361],[-73.301895,-41.149088],[-73.298101,-41.145806],[-73.29997,-41.141284],[-73.305632,-41.140044]]]},"properties":{"comuna":"Llanquihue","mancha_id":"10107-88ceaab901fffff","clase":"Bajo","nivel_medio":1.385,"nivel_medio_min":1.0,"nivel_medio_max":1.438,"pct_alto":0.0,"n_hexagonos":3,"area_ha":59.86}},{"type":"Feature","geometry":{"type":"Polygon","coordinates":[[[-73.166162,-41.252676],[-73.164281,-41.257194],[-73.158612,-41.258423],[-73.154826,-41.255135],[-73.149158,-41.256363],[-73.145373,-41.253074],[-73.147255,-41.248557],[-73.152922,-41.247328],[-73.156708,-41.250617],[-73.162375,-41.249387],[-73.166162,-41.252676]]]},"properties":{"comuna":"Llanquihue","mancha_id":"10107-88ceaa8f15fffff","clase":"Bajo","nivel_medio":1.43,"nivel_medio_min":1.406,"nivel_medio_max":1.454,"pct_alto":0.0,"n_hexagonos":2,"area_ha":130.09}},{"type":"Feature","geometry":{"type":"Polygon","coordinates":[[[-73.249412,-41.263375],[-73.247535,-41.267897],[-73.241862,-41.269131],[-73.238066,-41.265843],[-73.239943,-41.261321],[-73.245615,-41.260087],[-73.249412,-41.263375]]]},"properties":{"comuna":"Llanquihue","mancha_id":"10107-88ceaa8e13fffff","clase":"Bajo","nivel_medio":1.369,"nivel_medio_min":1.369,"nivel_medio_max":1.369,"pct_alto":0.0,"n_hexagonos":1,"area_ha":65.15}},{"type":"Feature","geometry":{"type":"Polygon","coordinates":[[[-73.214412,-41.161377],[-73.213173,-41.164362],[-73.21696,-41.167647],[-73.215085,-41.172165],[-73.209423,-41.1734],[-73.207547,-41.177918],[-73.211334,-41.181203],[-73.209458,-41.185722],[-73.213245,-41.189007],[-73.211369,-41.193526],[-73.205705,-41.194759],[-73.201918,-41.191474],[-73.203795,-41.186955],[-73.200009,-41.18367],[-73.201885,-41.179152],[-73.200172,-41.177666],[-73.20094,-41.17785],[-73.20344,-41.17846],[-73.203552,-41.178432],[-73.203508,-41.178207],[-73.203525,-41.177927],[-73.203682,-41.177716],[-73.203837,-41.177414],[-73.203885,-41.177142],[-73.203878,-41.176766],[-73.203843,-41.176383],[-73.203658,-41.175907],[-73.203367,-41.175275],[-73.203339,-41.175084],[-73.203381,-41.174913],[-73.203452,-41.174787],[-73.203935,-41.174203],[-73.204297,-41.173735],[-73.20455,-41.17336],[-73.20508,-41.17254],[-73.20527,-41.172187],[-73.205348,-41.171953],[-73.205341,-41.171747],[-73.205319,-41.171541],[-73.20531,-41.171348],[-73.205359,-41.171218],[-73.205457,-41.171055],[-73.20557,-41.17091],[-73.205683,-41.170807],[-73.205802,-41.170688],[-73.205883,-41.170566],[-73.205937,-41.170404],[-73.205943,-41.17038],[-73.205973,-41.17025],[-73.206018,-41.170078],[-73.206079,-41.169837],[-73.20609,-41.16945],[-73.20613,-41.16898],[-73.206143,-41.168895],[-73.206188,-41.168614],[-73.206228,-41.168439],[-73.206337,-41.168293],[-73.206433,-41.168197],[-73.20644,-41.16819],[-73.20672,-41.16804],[-73.207208,-41.16785],[-73.207648,-41.167736],[-73.207967,-41.167615],[-73.208191,-41.167454],[-73.208372,-41.167171],[-73.208524,-41.166882],[-73.208589,-41.166643],[-73.208628,-41.166259],[-73.208621,-41.165741],[-73.208561,-41.165368],[-73.208521,-41.165116],[-73.208479,-41.164726],[-73.208493,-41.164421],[-73.208557,-41.1642],[-73.208748,-41.163938],[-73.20958,-41.16292],[-73.210008,-41.162561],[-73.210167,-41.162452],[-73.210254,-41.162336],[-73.21031,-41.1622],[-73.210395,-41.161736],[-73.210438,-41.16141],[-73.2105,-41.16116],[-73.21066,-41.1608],[-73.21082,-41.16046],[-73.21092,-41.160201],[-73.210956,-41.159984],[-73.210913,-41.15981],[-73.210849,-41.159679],[-73.210724,-41.159571],[-73.21056,-41.15948],[-73.21024,-41.15934],[-73.21,-41.15923],[-73.209764,-41.159125],[-73.20966,-41.159057],[-73.209581,-41.158985],[-73.209581,-41.158912],[-73.209631,-41.158847],[-73.209805,-41.15884],[-73.210022,-41.158869],[-73.210428,-41.158948],[-73.211006,-41.159068],[-73.211489,-41.159153],[-73.211908,-41.159274],[-73.21227,-41.159394],[-73.21286,-41.15974],[-73.213112,-41.159945],[-73.213289,-41.160211],[-73.213356,-41.160488],[-73.213533,-41.160766],[-73.213744,-41.160965],[-73.21411,-41.161221],[-73.214412,-41.161377]]]},"properties":{"comuna":"Llanquihue","mancha_id":"10107-88ceaa8d91fffff","clase":"Bajo","nivel_medio":1.373,"nivel_medio_min":1.0,"nivel_medio_max":1.444,"pct_alto":1.8,"n_hexagonos":6,"area_ha":241.43}},{"type":"Feature","geometry":{"type":"Polygon","coordinates":[[[-73.115112,-41.226766],[-73.113229,-41.231282],[-73.107565,-41.232509],[-73.103786,-41.229221],[-73.10567,-41.224705],[-73.111333,-41.223478],[-73.115112,-41.226766]]]},"properties":{"comuna":"Llanquihue","mancha_id":"10107-88ceaa8d69fffff","clase":"Bajo","nivel_medio":1.451,"nivel_medio_min":1.451,"nivel_medio_max":1.451,"pct_alto":2.1,"n_hexagonos":1,"area_ha":64.98}},{"type":"Feature","geometry":{"type":"Polygon","coordinates":[[[-73.118864,-41.205417],[-73.116981,-41.209932],[-73.11132,-41.21116],[-73.109437,-41.215675],[-73.103775,-41.216902],[-73.099997,-41.213615],[-73.101881,-41.2091],[-73.107542,-41.207873],[-73.109425,-41.203358],[-73.115085,-41.20213],[-73.118864,-41.205417]]]},"properties":{"comuna":"Llanquihue","mancha_id":"10107-88ceaa8d29fffff","clase":"Bajo","nivel_medio":1.402,"nivel_medio_min":1.389,"nivel_medio_max":1.416,"pct_alto":2.8,"n_hexagonos":2,"area_ha":129.93}},{"type":"Feature","geometry":{"type":"Polygon","coordinates":[[[-73.277524,-41.195546],[-73.275652,-41.200068],[-73.269985,-41.201305],[-73.26619,-41.19802],[-73.268063,-41.193499],[-73.27373,-41.192262],[-73.277524,-41.195546]]]},"properties":{"comuna":"Llanquihue","mancha_id":"10107-88ceaa8cd1fffff","clase":"Bajo","nivel_medio":1.266,"nivel_medio_min":1.266,"nivel_medio_max":1.266,"pct_alto":3.4,"n_hexagonos":1,"area_ha":65.14}},{"type":"Feature","geometry":{"type":"Polygon","coordinates":[[[-73.271758,-41.172129],[-73.269887,-41.176651],[-73.264222,-41.177888],[-73.26043,-41.174604],[-73.262302,-41.170083],[-73.267966,-41.168846],[-73.271758,-41.172129]]]},"properties":{"comuna":"Llanquihue","mancha_id":"10107-88ceaa8c95fffff","clase":"Bajo","nivel_medio":1.332,"nivel_medio_min":1.332,"nivel_medio_max":1.332,"pct_alto":0.0,"n_hexagonos":1,"area_ha":65.12}},{"type":"Feature","geometry":{"type":"Polygon","coordinates":[[[-73.179351,-41.233373],[-73.177471,-41.237891],[-73.171804,-41.239121],[-73.168017,-41.235834],[-73.169897,-41.231316],[-73.175564,-41.230085],[-73.179351,-41.233373]]]},"properties":{"comuna":"Llanquihue","mancha_id":"10107-88ceaa8c61fffff","clase":"Bajo","nivel_medio":1.463,"nivel_medio_min":1.463,"nivel_medio_max":1.463,"pct_alto":1.3,"n_hexagonos":1,"area_ha":65.05}},{"type":"Feature","geometry":{"type":"Polygon","coordinates":[[[-73.192625,-41.251043],[-73.190746,-41.255562],[-73.185076,-41.256793],[-73.183196,-41.261312],[-73.177527,-41.262542],[-73.173738,-41.259253],[-73.175618,-41.254735],[-73.181287,-41.253504],[-73.183167,-41.248986],[-73.188836,-41.247755],[-73.192625,-41.251043]]]},"properties":{"comuna":"Llanquihue","mancha_id":"10107-88ceaa8c4dfffff","clase":"Bajo","nivel_medio":1.467,"nivel_medio_min":1.452,"nivel_medio_max":1.482,"pct_alto":2.0,"n_hexagonos":2,"area_ha":130.15}},{"type":"Feature","geometry":{"type":"Polygon","coordinates":[[[-73.107662,-41.306436],[-73.113308,-41.305217],[-73.115198,-41.30686],[-73.113598,-41.306771],[-73.11332,-41.306755],[-73.112865,-41.30673],[-73.112863,-41.306727],[-73.111415,-41.306631],[-73.109993,-41.306537],[-73.109208,-41.306503],[-73.107848,-41.306444],[-73.107662,-41.306436]]]},"properties":{"comuna":"Llanquihue","mancha_id":"10107-88ceaa8ad7fffff","clase":"Bajo","nivel_medio":1.359,"nivel_medio_min":1.359,"nivel_medio_max":1.359,"pct_alto":0.0,"n_hexagonos":1,"area_ha":5.31}},{"type":"Feature","geometry":{"type":"Polygon","coordinates":[[[-73.12275,-41.294957],[-73.120865,-41.299474],[-73.115194,-41.3007],[-73.111409,-41.297408],[-73.113294,-41.292892],[-73.118965,-41.291666],[-73.12275,-41.294957]]]},"properties":{"comuna":"Llanquihue","mancha_id":"10107-88ceaa8a91fffff","clase":"Bajo","nivel_medio":1.424,"nivel_medio_min":1.424,"nivel_medio_max":1.424,"pct_alto":3.3,"n_hexagonos":1,"area_ha":65.03}},{"type":"Feature","geometry":{"type":"Polygon","coordinates":[[[-73.02453,-41.221734],[-73.022641,-41.226245],[-73.016982,-41.227468],[-73.013212,-41.224178],[-73.015102,-41.219667],[-73.02076,-41.218445],[-73.02453,-41.221734]]]},"properties":{"comuna":"Llanquihue","mancha_id":"10107-88ceaa89b9fffff","clase":"Bajo","nivel_medio":1.2,"nivel_medio_min":1.2,"nivel_medio_max":1.2,"pct_alto":14.6,"n_hexagonos":1,"area_ha":64.87}},{"type":"Feature","geometry":{"type":"Polygon","coordinates":[[[-73.011312,-41.241002],[-73.009422,-41.245513],[-73.003762,-41.246734],[-72.999992,-41.243443],[-73.001883,-41.238932],[-73.007543,-41.237712],[-73.011312,-41.241002]]]},"properties":{"comuna":"Llanquihue","mancha_id":"10107-88ceaa898dfffff","clase":"Bajo","nivel_medio":0.695,"nivel_medio_min":0.695,"nivel_medio_max":0.695,"pct_alto":18.2,"n_hexagonos":1,"area_ha":64.87}},{"type":"Feature","geometry":{"type":"Polygon","coordinates":[[[-72.998088,-41.260267],[-72.996196,-41.264778],[-72.999967,-41.26807],[-72.998075,-41.272581],[-72.992412,-41.273801],[-72.990519,-41.278312],[-72.984856,-41.279531],[-72.981086,-41.276239],[-72.982979,-41.271728],[-72.988642,-41.270509],[-72.990534,-41.265998],[-72.986765,-41.262707],[-72.988657,-41.258196],[-72.994318,-41.256976],[-72.998088,-41.260267]]]},"properties":{"comuna":"Llanquihue","mancha_id":"10107-88ceaa8913fffff","clase":"Bajo","nivel_medio":0.943,"nivel_medio_min":0.547,"nivel_medio_max":1.302,"pct_alto":27.3,"n_hexagonos":3,"area_ha":194.6}},{"type":"Feature","geometry":{"type":"Polygon","coordinates":[[[-73.098152,-41.267406],[-73.096266,-41.271922],[-73.090599,-41.273147],[-73.086819,-41.269857],[-73.088705,-41.265342],[-73.094371,-41.264116],[-73.098152,-41.267406]]]},"properties":{"comuna":"Llanquihue","mancha_id":"10107-88ceaa88ddfffff","clase":"Bajo","nivel_medio":1.358,"nivel_medio_min":1.358,"nivel_medio_max":1.358,"pct_alto":0.8,"n_hexagonos":1,"area_ha":64.98}},{"type":"Feature","geometry":{"type":"Polygon","coordinates":[[[-73.071707,-41.269015],[-73.069819,-41.273529],[-73.064153,-41.274753],[-73.060376,-41.271462],[-73.05471,-41.272685],[-73.050934,-41.269394],[-73.045269,-41.270617],[-73.041493,-41.267326],[-73.043382,-41.262813],[-73.049046,-41.26159],[-73.052822,-41.264881],[-73.058487,-41.263657],[-73.062264,-41.266948],[-73.067929,-41.265724],[-73.071707,-41.269015]]]},"properties":{"comuna":"Llanquihue","mancha_id":"10107-88ceaa88c5fffff","clase":"Bajo","nivel_medio":1.122,"nivel_medio_min":0.602,"nivel_medio_max":1.403,"pct_alto":9.5,"n_hexagonos":3,"area_ha":194.82}},{"type":"Feature","geometry":{"type":"Polygon","coordinates":[[[-73.090575,-41.236188],[-73.08869,-41.240703],[-73.083027,-41.241928],[-73.079249,-41.238639],[-73.081135,-41.234125],[-73.086797,-41.232899],[-73.090575,-41.236188]]]},"properties":{"comuna":"Llanquihue","mancha_id":"10107-88ceaa88b9fffff","clase":"Bajo","nivel_medio":1.469,"nivel_medio_min":1.469,"nivel_medio_max":1.469,"pct_alto":1.2,"n_hexagonos":1,"area_ha":64.95}},{"type":"Feature","geometry":{"type":"Polygon","coordinates":[[[-73.298544,-41.244444],[-73.294744,-41.241158],[-73.289072,-41.242395],[-73.287199,-41.246918],[-73.281526,-41.248155],[-73.277727,-41.244868],[-73.272055,-41.246104],[-73.268257,-41.242817],[-73.270132,-41.238295],[-73.275803,-41.237059],[-73.277676,-41.232536],[-73.283347,-41.231299],[-73.287146,-41.234585],[-73.292817,-41.233348],[-73.29469,-41.228825],[-73.300361,-41.227587],[-73.30085,-41.226406],[-73.30116,-41.22667],[-73.30134,-41.22697],[-73.30138,-41.22718],[-73.30127,-41.22748],[-73.30097,-41.2278],[-73.300779,-41.227949],[-73.300335,-41.228295],[-73.300131,-41.228489],[-73.30005,-41.22869],[-73.30003,-41.228971],[-73.300094,-41.229221],[-73.30028,-41.22943],[-73.30114,-41.22995],[-73.30126,-41.23015],[-73.301345,-41.230369],[-73.301345,-41.230638],[-73.301252,-41.230777],[-73.30108,-41.2309],[-73.30036,-41.23098],[-73.29904,-41.23101],[-73.29902,-41.23111],[-73.29872,-41.23144],[-73.29869,-41.23187],[-73.29903,-41.23285],[-73.29934,-41.23332],[-73.29978,-41.23388],[-73.300007,-41.234135],[-73.30091,-41.23515],[-73.301188,-41.235637],[-73.30119,-41.23564],[-73.30158,-41.2365],[-73.30215,-41.23717],[-73.30263,-41.23786],[-73.30309,-41.23872],[-73.30334,-41.2394],[-73.30395,-41.24032],[-73.30426,-41.24139],[-73.30405,-41.24228],[-73.30393,-41.24269],[-73.3035,-41.24322],[-73.303455,-41.243373],[-73.298544,-41.244444]]]},"properties":{"comuna":"Llanquihue","mancha_id":"10107-88ceaa85a5fffff","clase":"Bajo","nivel_medio":1.303,"nivel_medio_min":1.0,"nivel_medio_max":1.4,"pct_alto":0.1,"n_hexagonos":7,"area_ha":359.28}},{"type":"Feature","geometry":{"type":"Polygon","coordinates":[[[-73.281169,-41.30594],[-73.280971,-41.30591],[-73.280944,-41.305898],[-73.28366,-41.305307],[-73.285115,-41.306565],[-73.285063,-41.30656],[-73.284965,-41.306549],[-73.284889,-41.306541],[-73.284651,-41.306467],[-73.28429,-41.306388],[-73.284206,-41.306384],[-73.283871,-41.306367],[-73.283299,-41.306425],[-73.28299,-41.30639],[-73.282514,-41.306241],[-73.28214,-41.306154],[-73.28169,-41.306022],[-73.281344,-41.305971],[-73.281272,-41.305958],[-73.281169,-41.30594]]]},"properties":{"comuna":"Llanquihue","mancha_id":"10107-88ceaa8543fffff","clase":"Bajo","nivel_medio":1.417,"nivel_medio_min":1.417,"nivel_medio_max":1.417,"pct_alto":6.7,"n_hexagonos":1,"area_ha":2.16}},{"type":"Feature","geometry":{"type":"Polygon","coordinates":[[[-73.287424,-41.308562],[-73.287464,-41.308596],[-73.293143,-41.307361],[-73.295018,-41.302837],[-73.291214,-41.299548],[-73.293089,-41.295023],[-73.298767,-41.293787],[-73.300424,-41.29522],[-73.300416,-41.295413],[-73.300309,-41.297242],[-73.300287,-41.297618],[-73.300223,-41.29872],[-73.300208,-41.299032],[-73.300131,-41.300588],[-73.300076,-41.301736],[-73.300063,-41.302013],[-73.299997,-41.303401],[-73.299992,-41.303497],[-73.299883,-41.30544],[-73.299801,-41.306906],[-73.299757,-41.307684],[-73.299689,-41.308902],[-73.299612,-41.310071],[-73.299579,-41.310571],[-73.299477,-41.312111],[-73.299481,-41.312289],[-73.299489,-41.312555],[-73.298184,-41.312502],[-73.296214,-41.312422],[-73.294837,-41.312366],[-73.293821,-41.312324],[-73.293282,-41.312302],[-73.29314,-41.312297],[-73.29306,-41.312293],[-73.292039,-41.312252],[-73.291869,-41.312245],[-73.291018,-41.31221],[-73.290921,-41.312206],[-73.290416,-41.312186],[-73.290208,-41.312177],[-73.290181,-41.312176],[-73.289271,-41.312139],[-73.288771,-41.312119],[-73.288226,-41.312097],[-73.287358,-41.312061],[-73.287313,-41.312059],[-73.287329,-41.311451],[-73.287348,-41.310729],[-73.287349,-41.310687],[-73.28735,-41.31065],[-73.287353,-41.310541],[-73.287355,-41.31046],[-73.287358,-41.310376],[-73.287376,-41.309887],[-73.287386,-41.309589],[-73.287402,-41.309164],[-73.287405,-41.309075],[-73.287407,-41.30904],[-73.287409,-41.308966],[-73.287411,-41.308916],[-73.287419,-41.308705],[-73.287424,-41.308562]]]},"properties":{"comuna":"Llanquihue","mancha_id":"10107-88ceaa8543fffff-2","clase":"Bajo","nivel_medio":1.442,"nivel_medio_min":1.381,"nivel_medio_max":1.468,"pct_alto":0.3,"n_hexagonos":5,"area_ha":137.3}},{"type":"Feature","geometry":{"type":"Polygon","coordinates":[[[-73.277077,-41.311907],[-73.276105,-41.311066],[-73.277981,-41.306542],[-73.280118,-41.306077],[-73.28043,-41.311832],[-73.280428,-41.311966],[-73.277077,-41.311907]]]},"properties":{"comuna":"Llanquihue","mancha_id":"10107-88ceaa8543fffff-3","clase":"Bajo","nivel_medio":1.417,"nivel_medio_min":1.417,"nivel_medio_max":1.417,"pct_alto":6.7,"n_hexagonos":1,"area_ha":17.11}},{"type":"Feature","geometry":{"type":"Polygon","coordinates":[[[-73.253254,-41.278996],[-73.251377,-41.283518],[-73.245702,-41.284752],[-73.241905,-41.281463],[-73.243782,-41.276941],[-73.249456,-41.275708],[-73.253254,-41.278996]]]},"properties":{"comuna":"Llanquihue","mancha_id":"10107-88ceaa8525fffff","clase":"Bajo","nivel_medio":1.467,"nivel_medio_min":1.467,"nivel_medio_max":1.467,"pct_alto":0.0,"n_hexagonos":1,"area_ha":65.17}},{"type":"Feature","geometry":{"type":"Polygon","coordinates":[[[-73.141666,-41.299085],[-73.139782,-41.303603],[-73.138256,-41.303933],[-73.138202,-41.303847],[-73.138077,-41.303645],[-73.137978,-41.303295],[-73.137914,-41.30307],[-73.137909,-41.303056],[-73.137604,-41.302617],[-73.137526,-41.302545],[-73.137206,-41.302256],[-73.137202,-41.302251],[-73.137143,-41.302199],[-73.137104,-41.302134],[-73.136923,-41.301833],[-73.136899,-41.301794],[-73.136712,-41.301348],[-73.136593,-41.301165],[-73.136593,-41.301165],[-73.136581,-41.301146],[-73.13658,-41.301145],[-73.136368,-41.301029],[-73.136306,-41.300995],[-73.136303,-41.300993],[-73.136196,-41.300935],[-73.136094,-41.300879],[-73.135938,-41.300794],[-73.135858,-41.300726],[-73.135733,-41.30062],[-73.135696,-41.300589],[-73.13566,-41.300558],[-73.135572,-41.300484],[-73.135559,-41.300368],[-73.135534,-41.300142],[-73.135531,-41.300113],[-73.135525,-41.300063],[-73.135584,-41.299871],[-73.135626,-41.299735],[-73.135709,-41.299466],[-73.135729,-41.299413],[-73.135893,-41.298995],[-73.135888,-41.298837],[-73.135842,-41.298846],[-73.134808,-41.299047],[-73.133204,-41.299359],[-73.131644,-41.299663],[-73.131058,-41.299777],[-73.132207,-41.297021],[-73.128421,-41.29373],[-73.130305,-41.289213],[-73.12652,-41.285922],[-73.12085,-41.287149],[-73.117065,-41.283858],[-73.11895,-41.279342],[-73.124619,-41.278115],[-73.128404,-41.281405],[-73.134074,-41.280178],[-73.135958,-41.275661],[-73.132172,-41.272371],[-73.126504,-41.273598],[-73.122719,-41.270308],[-73.124604,-41.265792],[-73.130271,-41.264564],[-73.132155,-41.260048],[-73.137822,-41.25882],[-73.141607,-41.262109],[-73.139724,-41.266626],[-73.14351,-41.269916],[-73.141627,-41.274434],[-73.145414,-41.277723],[-73.14353,-41.282241],[-73.147317,-41.285531],[-73.145434,-41.290049],[-73.139763,-41.291277],[-73.137879,-41.295795],[-73.141666,-41.299085]]]},"properties":{"comuna":"Llanquihue","mancha_id":"10107-88ceaa81a7fffff","clase":"Bajo","nivel_medio":1.411,"nivel_medio_min":1.139,"nivel_medio_max":1.493,"pct_alto":0.9,"n_hexagonos":9,"area_ha":559.41}},{"type":"Feature","geometry":{"type":"Polygon","coordinates":[[[-73.192751,-41.300358],[-73.196544,-41.303648],[-73.195276,-41.306697],[-73.195094,-41.306689],[-73.193898,-41.306639],[-73.192114,-41.306563],[-73.192018,-41.308297],[-73.191993,-41.308747],[-73.188988,-41.309398],[-73.185195,-41.306107],[-73.17952,-41.307337],[-73.175728,-41.304046],[-73.17761,-41.299526],[-73.183284,-41.298297],[-73.187076,-41.301587],[-73.192751,-41.300358]]]},"properties":{"comuna":"Llanquihue","mancha_id":"10107-88ceaa8193fffff","clase":"Bajo","nivel_medio":1.392,"nivel_medio_min":1.365,"nivel_medio_max":1.416,"pct_alto":1.3,"n_hexagonos":2,"area_ha":125.34}},{"type":"Feature","geometry":{"type":"Polygon","coordinates":[[[-73.24717,-41.15688],[-73.247141,-41.156949],[-73.245338,-41.157343],[-73.245829,-41.157173],[-73.24644,-41.15698],[-73.247016,-41.15689],[-73.24717,-41.15688]]]},"properties":{"comuna":"Llanquihue","mancha_id":"10107-88ceaa164bfffff","clase":"Bajo","nivel_medio":1.015,"nivel_medio_min":1.015,"nivel_medio_max":1.015,"pct_alto":0.0,"n_hexagonos":1,"area_ha":0.13}},{"type":"Feature","geometry":{"type":"Polygon","coordinates":[[[-73.128472,-41.177031],[-73.128587,-41.176964],[-73.12868,-41.17691],[-73.12885,-41.17685],[-73.1292,-41.17681],[-73.12971,-41.17679],[-73.130954,-41.176783],[-73.13381,-41.17659],[-73.1346,-41.17652],[-73.13538,-41.17649],[-73.136094,-41.176418],[-73.13647,-41.17638],[-73.13682,-41.17633],[-73.13778,-41.17619],[-73.13908,-41.17593],[-73.13948,-41.17569],[-73.13974,-41.17538],[-73.14021,-41.17473],[-73.14046,-41.17446],[-73.140777,-41.174293],[-73.141236,-41.174094],[-73.14198,-41.17389],[-73.1427,-41.1737],[-73.14331,-41.17345],[-73.14406,-41.17291],[-73.144572,-41.172412],[-73.14484,-41.17215],[-73.14527,-41.17161],[-73.145392,-41.17139],[-73.14551,-41.17108],[-73.14558,-41.17058],[-73.145612,-41.170385],[-73.1457,-41.170193],[-73.14585,-41.17],[-73.14627,-41.16965],[-73.146733,-41.169482],[-73.147041,-41.169382],[-73.14721,-41.16927],[-73.14734,-41.16904],[-73.1475,-41.16869],[-73.14773,-41.16836],[-73.147964,-41.168201],[-73.149989,-41.167338],[-73.151895,-41.166479],[-73.154668,-41.168888],[-73.160124,-41.167701],[-73.160482,-41.167792],[-73.160627,-41.167829],[-73.162368,-41.168255],[-73.164914,-41.168909],[-73.16565,-41.16908],[-73.16638,-41.16926],[-73.168912,-41.169896],[-73.164108,-41.170942],[-73.162229,-41.175459],[-73.166011,-41.178744],[-73.164132,-41.183261],[-73.158472,-41.184492],[-73.15469,-41.181206],[-73.14903,-41.182437],[-73.14525,-41.179151],[-73.139591,-41.180381],[-73.13771,-41.184897],[-73.13205,-41.186127],[-73.128832,-41.183328],[-73.12891,-41.18325],[-73.12908,-41.18307],[-73.129139,-41.182815],[-73.128938,-41.182443],[-73.128767,-41.18204],[-73.128727,-41.181748],[-73.12863,-41.18104],[-73.128534,-41.180722],[-73.128333,-41.180365],[-73.12776,-41.17981],[-73.127651,-41.179621],[-73.127666,-41.179264],[-73.12788,-41.1788],[-73.12854,-41.17841],[-73.12879,-41.17817],[-73.1288,-41.17797],[-73.12852,-41.17759],[-73.128395,-41.177279],[-73.128472,-41.177031]]]},"properties":{"comuna":"Llanquihue","mancha_id":"10107-88ceaa12cbfffff","clase":"Bajo","nivel_medio":1.338,"nivel_medio_min":1.078,"nivel_medio_max":1.491,"pct_alto":0.8,"n_hexagonos":9,"area_ha":373.27}},{"type":"Feature","geometry":{"type":"Polygon","coordinates":[[[-73.039623,-41.210264],[-73.037735,-41.214776],[-73.032077,-41.215999],[-73.028306,-41.212711],[-73.022648,-41.213933],[-73.018879,-41.210645],[-73.020768,-41.206134],[-73.026425,-41.204911],[-73.030194,-41.208199],[-73.035852,-41.206976],[-73.039623,-41.210264]]]},"properties":{"comuna":"Llanquihue","mancha_id":"10107-88ceaa126dfffff","clase":"Bajo","nivel_medio":1.395,"nivel_medio_min":1.32,"nivel_medio_max":1.469,"pct_alto":17.2,"n_hexagonos":2,"area_ha":129.74}},{"type":"Feature","geometry":{"type":"Polygon","coordinates":[[[-73.092444,-41.207039],[-73.090559,-41.211554],[-73.084899,-41.21278],[-73.081123,-41.209492],[-73.083008,-41.204978],[-73.088668,-41.203752],[-73.092444,-41.207039]]]},"properties":{"comuna":"Llanquihue","mancha_id":"10107-88ceaa1251fffff","clase":"Bajo","nivel_medio":1.446,"nivel_medio_min":1.446,"nivel_medio_max":1.446,"pct_alto":3.5,"n_hexagonos":1,"area_ha":64.94}},{"type":"Feature","geometry":{"type":"Polygon","coordinates":[[[-73.160124,-41.167701],[-73.154668,-41.168888],[-73.151895,-41.166479],[-73.15227,-41.16631],[-73.15283,-41.16608],[-73.153028,-41.165942],[-73.153122,-41.165877],[-73.15327,-41.1659],[-73.15663,-41.16679],[-73.15884,-41.16741],[-73.159638,-41.167578],[-73.160124,-41.167701]]]},"properties":{"comuna":"Llanquihue","mancha_id":"10107-88ceaa8dadfffff","clase":"Medio","nivel_medio":1.669,"nivel_medio_min":1.669,"nivel_medio_max":1.669,"pct_alto":0.0,"n_hexagonos":1,"area_ha":10.6}},{"type":"Feature","geometry":{"type":"Polygon","coordinates":[[[-73.015074,-41.256606],[-73.013183,-41.261118],[-73.007521,-41.262338],[-73.005629,-41.26685],[-72.999967,-41.26807],[-72.996196,-41.264778],[-72.998088,-41.260267],[-73.00375,-41.259047],[-73.005641,-41.254536],[-73.001871,-41.251245],[-73.003762,-41.246734],[-73.009422,-41.245513],[-73.013193,-41.248803],[-73.011302,-41.253315],[-73.015074,-41.256606]]]},"properties":{"comuna":"Llanquihue","mancha_id":"10107-88ceaa89c1fffff","clase":"Medio","nivel_medio":1.817,"nivel_medio_min":1.763,"nivel_medio_max":1.907,"pct_alto":48.6,"n_hexagonos":3,"area_ha":194.63}},{"type":"Feature","geometry":{"type":"Polygon","coordinates":[[[-73.058488,-41.300616],[-73.062268,-41.303908],[-73.061726,-41.305204],[-73.06154,-41.3052],[-73.058843,-41.305181],[-73.057991,-41.305175],[-73.05781,-41.30462],[-73.057741,-41.304351],[-73.057686,-41.304077],[-73.057686,-41.303675],[-73.057696,-41.303317],[-73.057656,-41.303106],[-73.057593,-41.30289],[-73.05746,-41.302586],[-73.057289,-41.302253],[-73.05704,-41.3019],[-73.056686,-41.301444],[-73.056411,-41.301106],[-73.05639,-41.301069],[-73.058488,-41.300616]]]},"properties":{"comuna":"Llanquihue","mancha_id":"10107-88ceaa885bfffff","clase":"Medio","nivel_medio":2.275,"nivel_medio_min":2.275,"nivel_medio_max":2.275,"pct_alto":27.5,"n_hexagonos":1,"area_ha":14.42}},{"type":"Feature","geometry":{"type":"Polygon","coordinates":[[[-73.028268,-41.2866],[-73.032044,-41.289891],[-73.03771,-41.28867],[-73.041487,-41.291962],[-73.047154,-41.29074],[-73.050931,-41.294032],[-73.050805,-41.294333],[-73.050637,-41.29433],[-73.050505,-41.294324],[-73.040679,-41.29389],[-73.038627,-41.293799],[-73.036607,-41.29373],[-73.035573,-41.293695],[-73.035413,-41.293689],[-73.034548,-41.293658],[-73.03339,-41.293617],[-73.031683,-41.293557],[-73.030525,-41.293516],[-73.025573,-41.29334],[-73.021708,-41.293202],[-73.021478,-41.293194],[-73.019919,-41.293144],[-73.017333,-41.293061],[-73.017323,-41.29306],[-73.016922,-41.293048],[-73.014845,-41.292982],[-73.014375,-41.292969],[-73.013737,-41.29295],[-73.013555,-41.292945],[-73.01351,-41.292944],[-73.013528,-41.292339],[-73.013531,-41.292252],[-73.008997,-41.292145],[-73.008969,-41.292152],[-73.008654,-41.292226],[-73.00834,-41.292215],[-73.007732,-41.292194],[-73.006622,-41.292155],[-73.005336,-41.292125],[-73.005606,-41.291481],[-73.001834,-41.288188],[-72.996169,-41.289408],[-72.995128,-41.29189],[-72.994858,-41.291883],[-72.994409,-41.291872],[-72.994124,-41.291866],[-72.993176,-41.291843],[-72.991811,-41.291811],[-72.991452,-41.291802],[-72.988784,-41.291739],[-72.988684,-41.291737],[-72.986936,-41.291696],[-72.984923,-41.291648],[-72.984727,-41.291644],[-72.983748,-41.29162],[-72.98328,-41.291609],[-72.981999,-41.291675],[-72.98107,-41.29171],[-72.979773,-41.291759],[-72.979376,-41.291725],[-72.979351,-41.291723],[-72.977455,-41.291561],[-72.975405,-41.289771],[-72.977299,-41.28526],[-72.982963,-41.284042],[-72.984856,-41.279531],[-72.990519,-41.278312],[-72.99429,-41.281604],[-72.999954,-41.280385],[-73.001846,-41.275873],[-73.007509,-41.274653],[-73.011282,-41.277945],[-73.00939,-41.282457],[-73.013163,-41.285749],[-73.018828,-41.284528],[-73.022603,-41.28782],[-73.028268,-41.2866]]]},"properties":{"comuna":"Llanquihue","mancha_id":"10107-88ceaa8801fffff","clase":"Medio","nivel_medio":2.132,"nivel_medio_min":1.75,"nivel_medio_max":2.402,"pct_alto":30.7,"n_hexagonos":12,"area_ha":549.92}},{"type":"Feature","geometry":{"type":"Polygon","coordinates":[[[-73.067913,-41.191828],[-73.071685,-41.195116],[-73.077344,-41.19389],[-73.079228,-41.189376],[-73.075455,-41.18609],[-73.076528,-41.183519],[-73.086721,-41.183751],[-73.08842,-41.18379],[-73.094203,-41.183955],[-73.10031,-41.18413],[-73.101983,-41.184173],[-73.112167,-41.184433],[-73.1136,-41.18447],[-73.122358,-41.184682],[-73.12352,-41.18471],[-73.123673,-41.184719],[-73.123417,-41.185746],[-73.12334,-41.18646],[-73.123448,-41.188057],[-73.123619,-41.188429],[-73.12395,-41.1887],[-73.12471,-41.18893],[-73.125324,-41.188987],[-73.12572,-41.18908],[-73.1261,-41.18943],[-73.126177,-41.189762],[-73.126394,-41.189669],[-73.12683,-41.1895],[-73.127263,-41.189266],[-73.127449,-41.18908],[-73.12747,-41.18883],[-73.12734,-41.188537],[-73.12701,-41.18819],[-73.12685,-41.18796],[-73.12679,-41.18779],[-73.12681,-41.18765],[-73.12691,-41.1873],[-73.1275,-41.18615],[-73.127806,-41.185188],[-73.128007,-41.184754],[-73.12824,-41.18443],[-73.12849,-41.18382],[-73.12864,-41.18352],[-73.128832,-41.183328],[-73.13205,-41.186127],[-73.13771,-41.184897],[-73.139591,-41.180381],[-73.14525,-41.179151],[-73.14903,-41.182437],[-73.15469,-41.181206],[-73.158472,-41.184492],[-73.164132,-41.183261],[-73.166011,-41.178744],[-73.162229,-41.175459],[-73.164108,-41.170942],[-73.168912,-41.169896],[-73.170417,-41.170275],[-73.17537,-41.17152],[-73.177684,-41.172095],[-73.180357,-41.172759],[-73.18559,-41.17406],[-73.186483,-41.174288],[-73.18884,-41.17489],[-73.190334,-41.175274],[-73.195144,-41.176511],[-73.19588,-41.1767],[-73.19661,-41.17681],[-73.200172,-41.177666],[-73.201885,-41.179152],[-73.200009,-41.18367],[-73.203795,-41.186955],[-73.201918,-41.191474],[-73.205705,-41.194759],[-73.211369,-41.193526],[-73.213245,-41.189007],[-73.209458,-41.185722],[-73.211334,-41.181203],[-73.207547,-41.177918],[-73.209423,-41.1734],[-73.215085,-41.172165],[-73.21696,-41.167647],[-73.213173,-41.164362],[-73.214412,-41.161377],[-73.21469,-41.16152],[-73.21545,-41.16178],[-73.2166,-41.161983],[-73.21759,-41.16209],[-73.218518,-41.161966],[-73.21946,-41.16195],[-73.220705,-41.162101],[-73.221496,-41.162252],[-73.22221,-41.16245],[-73.22297,-41.16268],[-73.22368,-41.16299],[-73.223977,-41.163143],[-73.22457,-41.16345],[-73.226,-41.16409],[-73.22698,-41.16441],[-73.22756,-41.16467],[-73.22805,-41.16485],[-73.22812,-41.16489],[-73.22854,-41.16516],[-73.22914,-41.16556],[-73.2294,-41.16589],[-73.22952,-41.16613],[-73.22976,-41.16633],[-73.23057,-41.16682],[-73.23117,-41.16721],[-73.23172,-41.16759],[-73.232331,-41.167833],[-73.2327,-41.16798],[-73.23323,-41.16797],[-73.23667,-41.16503],[-73.23682,-41.1643],[-73.238119,-41.16303],[-73.2386,-41.16256],[-73.240194,-41.160904],[-73.240461,-41.160644],[-73.24112,-41.16],[-73.24156,-41.15952],[-73.2425,-41.15836],[-73.24295,-41.15806],[-73.243443,-41.157883],[-73.244154,-41.15765],[-73.24497,-41.15747],[-73.245338,-41.157343],[-73.247141,-41.156949],[-73.24717,-41.15688],[-73.24778,-41.15684],[-73.24848,-41.15693],[-73.24977,-41.15738],[-73.25,-41.157425],[-73.25018,-41.15746],[-73.250415,-41.157455],[-73.25122,-41.1574],[-73.25167,-41.15723],[-73.252145,-41.156939],[-73.25263,-41.15663],[-73.25329,-41.15628],[-73.25364,-41.15613],[-73.2543,-41.15568],[-73.25448,-41.15551],[-73.25493,-41.15512],[-73.25532,-41.15464],[-73.25617,-41.15363],[-73.256478,-41.153042],[-73.256591,-41.152852],[-73.256738,-41.152608],[-73.25689,-41.152282],[-73.256998,-41.151924],[-73.257053,-41.151447],[-73.2571,-41.15096],[-73.257219,-41.150509],[-73.25741,-41.150058],[-73.257827,-41.149346],[-73.258261,-41.148547],[-73.25868,-41.14794],[-73.259068,-41.147444],[-73.259268,-41.146966],[-73.259346,-41.146637],[-73.259415,-41.14635],[-73.259491,-41.146029],[-73.25974,-41.14497],[-73.25989,-41.14451],[-73.259989,-41.144231],[-73.260188,-41.143971],[-73.260544,-41.143693],[-73.260831,-41.143606],[-73.26126,-41.14362],[-73.261803,-41.143632],[-73.26214,-41.1435],[-73.262324,-41.143363],[-73.26241,-41.14318],[-73.26246,-41.14266],[-73.26258,-41.14224],[-73.262741,-41.142104],[-73.26308,-41.14199],[-73.263618,-41.141965],[-73.263642,-41.14197],[-73.26428,-41.14209],[-73.264625,-41.142156],[-73.265042,-41.142148],[-73.265424,-41.142026],[-73.26596,-41.14174],[-73.26712,-41.14131],[-73.267791,-41.141118],[-73.268058,-41.141006],[-73.268424,-41.140757],[-73.26873,-41.14055],[-73.269062,-41.140437],[-73.269427,-41.14035],[-73.26985,-41.14034],[-73.270516,-41.140349],[-73.271193,-41.140357],[-73.271944,-41.140274],[-73.272388,-41.140253],[-73.27279,-41.14026],[-73.273152,-41.140302],[-73.273527,-41.140385],[-73.27384,-41.140371],[-73.27417,-41.1402],[-73.274562,-41.139968],[-73.274847,-41.139927],[-73.27514,-41.13994],[-73.27546,-41.14019],[-73.27588,-41.14075],[-73.276107,-41.141002],[-73.276342,-41.141182],[-73.276744,-41.141251],[-73.277589,-41.141238],[-73.278365,-41.141099],[-73.278891,-41.140905],[-73.279643,-41.140628],[-73.27972,-41.1406],[-73.28112,-41.13989],[-73.28269,-41.13903],[-73.28353,-41.13872],[-73.28531,-41.13819],[-73.28634,-41.13771],[-73.28682,-41.13747],[-73.28803,-41.1371],[-73.288039,-41.137098],[-73.28859,-41.137],[-73.28919,-41.13685],[-73.28959,-41.13666],[-73.289809,-41.136402],[-73.289961,-41.136084],[-73.29022,-41.13587],[-73.29078,-41.13566],[-73.29134,-41.13556],[-73.29203,-41.13559],[-73.2927,-41.13575],[-73.293508,-41.136028],[-73.29404,-41.13641],[-73.294159,-41.136555],[-73.294436,-41.136693],[-73.29511,-41.13686],[-73.295558,-41.136984],[-73.295808,-41.137178],[-73.29608,-41.13736],[-73.296427,-41.137397],[-73.297096,-41.137469],[-73.297332,-41.137539],[-73.29774,-41.13778],[-73.297997,-41.137885],[-73.298232,-41.137871],[-73.29849,-41.13778],[-73.29946,-41.13711],[-73.300655,-41.136114],[-73.301209,-41.135737],[-73.301575,-41.135538],[-73.30194,-41.13543],[-73.3023,-41.13548],[-73.302794,-41.135704],[-73.303138,-41.135848],[-73.303448,-41.135826],[-73.303914,-41.135715],[-73.30504,-41.13533],[-73.30571,-41.13525],[-73.30659,-41.13527],[-73.307128,-41.135272],[-73.30721,-41.135271],[-73.307501,-41.135522],[-73.313163,-41.134281],[-73.314088,-41.13204],[-73.314207,-41.131991],[-73.314491,-41.131823],[-73.315023,-41.131539],[-73.315723,-41.131291],[-73.316193,-41.131025],[-73.316539,-41.130821],[-73.31679,-41.13073],[-73.317338,-41.130672],[-73.317622,-41.130615],[-73.3178,-41.13054],[-73.31874,-41.12996],[-73.319118,-41.129799],[-73.319338,-41.12975],[-73.319558,-41.129743],[-73.32116,-41.1296],[-73.321845,-41.129514],[-73.324487,-41.131799],[-73.323064,-41.135246],[-73.322923,-41.135329],[-73.32271,-41.1355],[-73.322634,-41.135696],[-73.322625,-41.135932],[-73.322685,-41.136164],[-73.32262,-41.136321],[-73.316957,-41.137562],[-73.315452,-41.141207],[-73.31516,-41.14121],[-73.314431,-41.1412],[-73.313782,-41.141184],[-73.313331,-41.141177],[-73.31275,-41.14114],[-73.31197,-41.1412],[-73.311348,-41.141253],[-73.31094,-41.14135],[-73.310572,-41.141472],[-73.310156,-41.141778],[-73.309967,-41.142022],[-73.309939,-41.142233],[-73.309916,-41.142466],[-73.30984,-41.14308],[-73.309808,-41.143242],[-73.309427,-41.143326],[-73.305632,-41.140044],[-73.29997,-41.141284],[-73.298101,-41.145806],[-73.301895,-41.149088],[-73.300026,-41.15361],[-73.301029,-41.154478],[-73.301024,-41.154508],[-73.3009,-41.15495],[-73.30057,-41.15575],[-73.30043,-41.156124],[-73.300351,-41.156567],[-73.3003,-41.15728],[-73.30004,-41.15819],[-73.299621,-41.159321],[-73.299445,-41.159677],[-73.29919,-41.16011],[-73.298952,-41.160426],[-73.29865,-41.16069],[-73.298373,-41.16083],[-73.297958,-41.160929],[-73.297127,-41.161104],[-73.296819,-41.161231],[-73.29661,-41.16138],[-73.296459,-41.161533],[-73.29636,-41.16175],[-73.296323,-41.16197],[-73.296346,-41.16215],[-73.296395,-41.162322],[-73.29654,-41.16257],[-73.296558,-41.162595],[-73.29703,-41.16323],[-73.297152,-41.163394],[-73.297225,-41.163585],[-73.297236,-41.163891],[-73.297149,-41.16411],[-73.296963,-41.16435],[-73.296787,-41.164452],[-73.29658,-41.164506],[-73.2961,-41.1646],[-73.295742,-41.164646],[-73.295444,-41.164692],[-73.295323,-41.164711],[-73.294908,-41.164853],[-73.294766,-41.164984],[-73.294624,-41.165312],[-73.294514,-41.16552],[-73.29433,-41.1657],[-73.2934,-41.16662],[-73.293181,-41.166842],[-73.29305,-41.167072],[-73.292908,-41.1674],[-73.292877,-41.167513],[-73.292787,-41.167848],[-73.29278,-41.16918],[-73.29279,-41.17027],[-73.29268,-41.17113],[-73.292601,-41.171608],[-73.29248,-41.17188],[-73.29235,-41.172078],[-73.29211,-41.172275],[-73.291694,-41.172505],[-73.29121,-41.17292],[-73.2903,-41.17395],[-73.289963,-41.174293],[-73.289792,-41.174527],[-73.289606,-41.1748],[-73.289398,-41.175115],[-73.28925,-41.17534],[-73.28888,-41.17575],[-73.28846,-41.17604],[-73.288074,-41.176298],[-73.28785,-41.176499],[-73.287678,-41.176691],[-73.28759,-41.17683],[-73.287528,-41.177055],[-73.287489,-41.177308],[-73.287496,-41.177532],[-73.287574,-41.177857],[-73.287814,-41.178462],[-73.288054,-41.179238],[-73.288098,-41.179631],[-73.288085,-41.179821],[-73.288045,-41.180012],[-73.287981,-41.180186],[-73.287803,-41.180397],[-73.287497,-41.180768],[-73.287201,-41.181093],[-73.287117,-41.181185],[-73.286677,-41.181686],[-73.286017,-41.182232],[-73.285507,-41.182627],[-73.28523,-41.18291],[-73.28505,-41.18321],[-73.28496,-41.18344],[-73.28519,-41.1835],[-73.28723,-41.18427],[-73.29008,-41.18529],[-73.29022,-41.18499],[-73.29074,-41.1851],[-73.29174,-41.18523],[-73.292081,-41.185282],[-73.2922,-41.1853],[-73.2938,-41.18556],[-73.29417,-41.18562],[-73.29431,-41.18562],[-73.29431,-41.1858],[-73.29451,-41.18681],[-73.29452,-41.1878],[-73.294661,-41.18815],[-73.29481,-41.188508],[-73.29527,-41.18905],[-73.2957,-41.18963],[-73.29586,-41.19013],[-73.29587,-41.19073],[-73.29582,-41.19141],[-73.29584,-41.191546],[-73.295874,-41.191784],[-73.295803,-41.192053],[-73.29548,-41.19255],[-73.295264,-41.192862],[-73.295122,-41.193273],[-73.29508,-41.193599],[-73.29493,-41.19391],[-73.29444,-41.19442],[-73.293987,-41.195031],[-73.293761,-41.195414],[-73.293665,-41.195656],[-73.293619,-41.196053],[-73.29371,-41.19679],[-73.29381,-41.197355],[-73.294,-41.19843],[-73.2942,-41.199471],[-73.294215,-41.199967],[-73.29414,-41.20039],[-73.294002,-41.200733],[-73.2937,-41.20112],[-73.293179,-41.201584],[-73.292229,-41.202251],[-73.29043,-41.20348],[-73.290059,-41.203836],[-73.289935,-41.204172],[-73.289909,-41.204473],[-73.289931,-41.205073],[-73.289928,-41.205179],[-73.28991,-41.20569],[-73.289846,-41.205995],[-73.28972,-41.20617],[-73.289307,-41.206534],[-73.289197,-41.206764],[-73.289151,-41.207073],[-73.289,-41.20736],[-73.288797,-41.207583],[-73.288768,-41.207768],[-73.288847,-41.207905],[-73.289042,-41.207981],[-73.28964,-41.20816],[-73.29014,-41.20848],[-73.290298,-41.208674],[-73.290343,-41.208945],[-73.29031,-41.20929],[-73.29029,-41.21008],[-73.290144,-41.211455],[-73.289942,-41.212434],[-73.28993,-41.21249],[-73.289758,-41.212995],[-73.289617,-41.213353],[-73.289458,-41.213575],[-73.289265,-41.213767],[-73.288854,-41.214121],[-73.28846,-41.21446],[-73.28734,-41.21529],[-73.28774,-41.21538],[-73.289268,-41.215679],[-73.289775,-41.215774],[-73.29174,-41.21614],[-73.2948,-41.21669],[-73.29771,-41.21718],[-73.299399,-41.217444],[-73.29982,-41.21751],[-73.30043,-41.2176],[-73.3031,-41.21808],[-73.30446,-41.21837],[-73.305469,-41.218586],[-73.3058,-41.21863],[-73.3049,-41.21913],[-73.304614,-41.219279],[-73.304392,-41.219486],[-73.304237,-41.219812],[-73.304125,-41.220198],[-73.304037,-41.220501],[-73.303911,-41.220835],[-73.3037,-41.22124],[-73.30347,-41.2216],[-73.30306,-41.22191],[-73.30231,-41.22231],[-73.301877,-41.222564],[-73.301752,-41.222648],[-73.301317,-41.222942],[-73.300567,-41.223618],[-73.300199,-41.224286],[-73.29997,-41.22471],[-73.2998,-41.22513],[-73.299835,-41.225443],[-73.299983,-41.225711],[-73.30018,-41.22591],[-73.30076,-41.22633],[-73.30085,-41.226406],[-73.300361,-41.227587],[-73.29469,-41.228825],[-73.292817,-41.233348],[-73.287146,-41.234585],[-73.283347,-41.231299],[-73.277676,-41.232536],[-73.275803,-41.237059],[-73.270132,-41.238295],[-73.268257,-41.242817],[-73.272055,-41.246104],[-73.277727,-41.244868],[-73.281526,-41.248155],[-73.287199,-41.246918],[-73.289072,-41.242395],[-73.294744,-41.241158],[-73.298544,-41.244444],[-73.303455,-41.243373],[-73.30336,-41.2437],[-73.30357,-41.24418],[-73.303782,-41.244504],[-73.30406,-41.24493],[-73.30416,-41.24546],[-73.3041,-41.24586],[-73.30388,-41.24649],[-73.30362,-41.24719],[-73.30365,-41.24786],[-73.30353,-41.249],[-73.3036,-41.24968],[-73.303597,-41.25],[-73.303593,-41.250313],[-73.30358,-41.251577],[-73.30358,-41.25161],[-73.3034,-41.25198],[-73.30294,-41.25243],[-73.30232,-41.25291],[-73.302091,-41.253087],[-73.30148,-41.25356],[-73.30121,-41.25402],[-73.30134,-41.25437],[-73.30145,-41.25449],[-73.30148,-41.25457],[-73.30152,-41.25464],[-73.30155,-41.25477],[-73.30153,-41.25485],[-73.30122,-41.25535],[-73.30121,-41.25536],[-73.299183,-41.25537],[-73.29731,-41.25538],[-73.297196,-41.257085],[-73.29701,-41.25987],[-73.296578,-41.265451],[-73.29647,-41.26685],[-73.29596,-41.272927],[-73.29589,-41.27376],[-73.29591,-41.2753],[-73.295793,-41.276025],[-73.29573,-41.27642],[-73.295666,-41.277241],[-73.295551,-41.278718],[-73.294954,-41.286385],[-73.29489,-41.2872],[-73.2945,-41.29232],[-73.29452,-41.29233],[-73.297,-41.29229],[-73.29832,-41.29233],[-73.299423,-41.292202],[-73.298767,-41.293787],[-73.293089,-41.295023],[-73.291214,-41.299548],[-73.295018,-41.302837],[-73.293143,-41.307361],[-73.287464,-41.308596],[-73.287424,-41.308562],[-73.287492,-41.306682],[-73.287492,-41.306673],[-73.287467,-41.306666],[-73.287036,-41.306545],[-73.286806,-41.306553],[-73.286607,-41.306561],[-73.286414,-41.306605],[-73.286086,-41.306654],[-73.285841,-41.306627],[-73.285456,-41.306585],[-73.285167,-41.30657],[-73.285148,-41.306569],[-73.285115,-41.306565],[-73.28366,-41.305307],[-73.280944,-41.305898],[-73.280768,-41.305816],[-73.280347,-41.305749],[-73.280094,-41.305629],[-73.280118,-41.306077],[-73.277981,-41.306542],[-73.276105,-41.311066],[-73.277077,-41.311907],[-73.276285,-41.311893],[-73.274958,-41.311869],[-73.274958,-41.311867],[-73.274955,-41.311815],[-73.274949,-41.311735],[-73.274966,-41.311724],[-73.274975,-41.311311],[-73.275016,-41.309335],[-73.275068,-41.306805],[-73.273502,-41.306711],[-73.272049,-41.306623],[-73.270207,-41.306512],[-73.269944,-41.306496],[-73.2696,-41.308378],[-73.269592,-41.308424],[-73.266958,-41.308206],[-73.262672,-41.307851],[-73.2625,-41.307837],[-73.262179,-41.30931],[-73.262094,-41.309994],[-73.26208,-41.310113],[-73.262058,-41.311661],[-73.262057,-41.311766],[-73.261963,-41.311763],[-73.260335,-41.311715],[-73.26026,-41.311713],[-73.259658,-41.311695],[-73.253942,-41.311525],[-73.252494,-41.311482],[-73.250098,-41.311483],[-73.249697,-41.311484],[-73.249402,-41.311471],[-73.248973,-41.311453],[-73.245268,-41.311367],[-73.240818,-41.311265],[-73.240688,-41.311262],[-73.24043,-41.31107],[-73.238816,-41.310934],[-73.236404,-41.310731],[-73.236395,-41.311162],[-73.236112,-41.311156],[-73.233523,-41.311095],[-73.229087,-41.310992],[-73.229988,-41.308735],[-73.230186,-41.30824],[-73.230476,-41.307512],[-73.230523,-41.307212],[-73.223737,-41.307014],[-73.223719,-41.307275],[-73.223623,-41.308669],[-73.223469,-41.310899],[-73.222868,-41.310883],[-73.220488,-41.31082],[-73.217492,-41.31074],[-73.217074,-41.310729],[-73.217047,-41.310729],[-73.214285,-41.310655],[-73.211062,-41.310569],[-73.210591,-41.310557],[-73.20804,-41.310489],[-73.207985,-41.310487],[-73.207943,-41.310486],[-73.207125,-41.310475],[-73.204373,-41.310436],[-73.204301,-41.310435],[-73.203249,-41.310421],[-73.201572,-41.310397],[-73.200373,-41.310381],[-73.199889,-41.309888],[-73.199506,-41.3095],[-73.199312,-41.309049],[-73.199256,-41.308921],[-73.199061,-41.308842],[-73.198313,-41.308539],[-73.198262,-41.308295],[-73.197948,-41.306812],[-73.197042,-41.306772],[-73.196097,-41.306733],[-73.195276,-41.306697],[-73.196544,-41.303648],[-73.192751,-41.300358],[-73.187076,-41.301587],[-73.183284,-41.298297],[-73.17761,-41.299526],[-73.175728,-41.304046],[-73.17952,-41.307337],[-73.185195,-41.306107],[-73.188988,-41.309398],[-73.191993,-41.308747],[-73.191923,-41.309993],[-73.191587,-41.309982],[-73.188782,-41.309894],[-73.185335,-41.309784],[-73.18532,-41.309784],[-73.178832,-41.309578],[-73.178666,-41.309573],[-73.17859,-41.30957],[-73.174587,-41.309443],[-73.173376,-41.309405],[-73.173075,-41.309395],[-73.172999,-41.309393],[-73.173,-41.309382],[-73.173034,-41.308498],[-73.172789,-41.308485],[-73.171654,-41.308424],[-73.170739,-41.308374],[-73.168806,-41.30827],[-73.165237,-41.308078],[-73.16155,-41.307948],[-73.160962,-41.307927],[-73.159593,-41.307879],[-73.159592,-41.307879],[-73.159592,-41.307879],[-73.159589,-41.307879],[-73.159584,-41.307879],[-73.159573,-41.307879],[-73.159539,-41.307877],[-73.159505,-41.307876],[-73.15947,-41.307875],[-73.159126,-41.307863],[-73.159003,-41.307858],[-73.158957,-41.307857],[-73.158847,-41.307853],[-73.158241,-41.307832],[-73.158048,-41.307825],[-73.158011,-41.307823],[-73.156817,-41.307781],[-73.156467,-41.307769],[-73.15631,-41.307763],[-73.155136,-41.307722],[-73.153407,-41.307661],[-73.152712,-41.307637],[-73.151539,-41.307595],[-73.151465,-41.307593],[-73.15146,-41.307592],[-73.150748,-41.307567],[-73.150436,-41.307553],[-73.14992,-41.307529],[-73.149272,-41.307499],[-73.14828,-41.307454],[-73.148135,-41.307447],[-73.145696,-41.307334],[-73.14561,-41.307331],[-73.144566,-41.307282],[-73.144351,-41.307273],[-73.144283,-41.30727],[-73.143659,-41.307247],[-73.143427,-41.307239],[-73.143106,-41.307227],[-73.142629,-41.307209],[-73.142475,-41.307204],[-73.142466,-41.307203],[-73.142448,-41.307203],[-73.142427,-41.307202],[-73.142343,-41.307199],[-73.141932,-41.307184],[-73.141854,-41.307181],[-73.141634,-41.307173],[-73.14034,-41.307126],[-73.140131,-41.307118],[-73.139872,-41.307109],[-73.139857,-41.307108],[-73.139379,-41.307091],[-73.139273,-41.306747],[-73.139253,-41.306685],[-73.139234,-41.306623],[-73.139191,-41.306403],[-73.139188,-41.306388],[-73.139167,-41.306281],[-73.139154,-41.306212],[-73.139144,-41.306162],[-73.139105,-41.305962],[-73.139094,-41.305907],[-73.13908,-41.305836],[-73.139057,-41.305718],[-73.139011,-41.305483],[-73.139001,-41.305428],[-73.138993,-41.305383],[-73.138949,-41.305145],[-73.138917,-41.304973],[-73.138914,-41.304956],[-73.138888,-41.304814],[-73.138878,-41.304759],[-73.138781,-41.304643],[-73.138734,-41.304588],[-73.138619,-41.30445],[-73.138594,-41.304421],[-73.138589,-41.304414],[-73.138496,-41.304303],[-73.138457,-41.304257],[-73.138301,-41.304006],[-73.138256,-41.303933],[-73.139782,-41.303603],[-73.141666,-41.299085],[-73.137879,-41.295795],[-73.139763,-41.291277],[-73.145434,-41.290049],[-73.147317,-41.285531],[-73.14353,-41.282241],[-73.145414,-41.277723],[-73.141627,-41.274434],[-73.14351,-41.269916],[-73.139724,-41.266626],[-73.141607,-41.262109],[-73.137822,-41.25882],[-73.132155,-41.260048],[-73.130271,-41.264564],[-73.124604,-41.265792],[-73.122719,-41.270308],[-73.126504,-41.273598],[-73.132172,-41.272371],[-73.135958,-41.275661],[-73.134074,-41.280178],[-73.128404,-41.281405],[-73.124619,-41.278115],[-73.11895,-41.279342],[-73.117065,-41.283858],[-73.12085,-41.287149],[-73.12652,-41.285922],[-73.130305,-41.289213],[-73.128421,-41.29373],[-73.132207,-41.297021],[-73.131058,-41.299777],[-73.129975,-41.299988],[-73.128915,-41.300205],[-73.128776,-41.300232],[-73.127901,-41.300408],[-73.126824,-41.300625],[-73.125809,-41.300804],[-73.12489,-41.301016],[-73.124902,-41.301054],[-73.125192,-41.301992],[-73.125382,-41.302607],[-73.125566,-41.303203],[-73.126804,-41.307219],[-73.126894,-41.307511],[-73.125156,-41.307414],[-73.123571,-41.307326],[-73.123472,-41.307321],[-73.122766,-41.307282],[-73.121785,-41.307227],[-73.121637,-41.307219],[-73.120131,-41.307135],[-73.119345,-41.307091],[-73.11601,-41.306905],[-73.11554,-41.306879],[-73.115198,-41.30686],[-73.113308,-41.305217],[-73.107662,-41.306436],[-73.107628,-41.306435],[-73.107391,-41.306424],[-73.106958,-41.306406],[-73.104273,-41.306336],[-73.101782,-41.306267],[-73.09764,-41.306154],[-73.09744,-41.306148],[-73.093761,-41.306048],[-73.093357,-41.306037],[-73.092363,-41.306009],[-73.089609,-41.305934],[-73.087723,-41.305883],[-73.087238,-41.30587],[-73.083306,-41.305763],[-73.083167,-41.30576],[-73.083185,-41.304867],[-73.083227,-41.30277],[-73.082952,-41.302765],[-73.078256,-41.302678],[-73.075375,-41.302625],[-73.074795,-41.302614],[-73.071413,-41.302552],[-73.071263,-41.302549],[-73.068019,-41.302489],[-73.069826,-41.298171],[-73.066046,-41.294879],[-73.060378,-41.296102],[-73.056599,-41.29281],[-73.058488,-41.288296],[-73.064155,-41.287073],[-73.066044,-41.282558],[-73.062265,-41.279267],[-73.064153,-41.274753],[-73.069819,-41.273529],[-73.071707,-41.269015],[-73.067929,-41.265724],[-73.062264,-41.266948],[-73.058487,-41.263657],[-73.052822,-41.264881],[-73.049046,-41.26159],[-73.043382,-41.262813],[-73.041493,-41.267326],[-73.035829,-41.268548],[-73.032055,-41.265257],[-73.026391,-41.266478],[-73.022618,-41.263187],[-73.024508,-41.258675],[-73.030171,-41.257453],[-73.03206,-41.252941],[-73.028287,-41.249651],[-73.030177,-41.245138],[-73.026405,-41.241848],[-73.020744,-41.24307],[-73.016973,-41.23978],[-73.011312,-41.241002],[-73.007543,-41.237712],[-73.009433,-41.2332],[-73.005664,-41.229911],[-73.007554,-41.2254],[-73.013212,-41.224178],[-73.016982,-41.227468],[-73.022641,-41.226245],[-73.02453,-41.221734],[-73.030188,-41.220511],[-73.032077,-41.215999],[-73.037735,-41.214776],[-73.039623,-41.210264],[-73.035852,-41.206976],[-73.030194,-41.208199],[-73.026425,-41.204911],[-73.020768,-41.206134],[-73.018879,-41.210645],[-73.013222,-41.211867],[-73.009454,-41.208578],[-73.003797,-41.2098],[-73.000031,-41.206511],[-73.00192,-41.202001],[-73.007576,-41.200779],[-73.009465,-41.196269],[-73.01512,-41.195046],[-73.017008,-41.190535],[-73.014807,-41.188614],[-73.01486,-41.18482],[-73.01442,-41.18481],[-73.014442,-41.184381],[-73.014494,-41.183335],[-73.014516,-41.182202],[-73.01452,-41.182],[-73.018173,-41.182079],[-73.021514,-41.182151],[-73.024012,-41.182205],[-73.03071,-41.182374],[-73.03647,-41.18252],[-73.040894,-41.182619],[-73.04092,-41.18262],[-73.0489,-41.18279],[-73.050538,-41.18284],[-73.052314,-41.182895],[-73.057858,-41.183066],[-73.06125,-41.18317],[-73.066335,-41.183286],[-73.066025,-41.184029],[-73.069797,-41.187316],[-73.067913,-41.191828]],[[-73.06603,-41.208655],[-73.062256,-41.205367],[-73.056598,-41.206592],[-73.054712,-41.211105],[-73.049053,-41.212329],[-73.047166,-41.216841],[-73.050938,-41.22013],[-73.056598,-41.218906],[-73.058484,-41.214393],[-73.064144,-41.213168],[-73.06603,-41.208655]],[[-73.092444,-41.207039],[-73.088668,-41.203752],[-73.083008,-41.204978],[-73.081123,-41.209492],[-73.084899,-41.21278],[-73.090559,-41.211554],[-73.092444,-41.207039]],[[-73.101881,-41.2091],[-73.099997,-41.213615],[-73.103775,-41.216902],[-73.109437,-41.215675],[-73.11132,-41.21116],[-73.116981,-41.209932],[-73.118864,-41.205417],[-73.115085,-41.20213],[-73.109425,-41.203358],[-73.107542,-41.207873],[-73.101881,-41.2091]],[[-73.251377,-41.283518],[-73.253254,-41.278996],[-73.249456,-41.275708],[-73.243782,-41.276941],[-73.241905,-41.281463],[-73.245702,-41.284752],[-73.251377,-41.283518]],[[-73.083027,-41.241928],[-73.08869,-41.240703],[-73.090575,-41.236188],[-73.086797,-41.232899],[-73.081135,-41.234125],[-73.079249,-41.238639],[-73.083027,-41.241928]],[[-73.107565,-41.232509],[-73.113229,-41.231282],[-73.115112,-41.226766],[-73.111333,-41.223478],[-73.10567,-41.224705],[-73.103786,-41.229221],[-73.107565,-41.232509]],[[-73.088705,-41.265342],[-73.086819,-41.269857],[-73.090599,-41.273147],[-73.096266,-41.271922],[-73.098152,-41.267406],[-73.094371,-41.264116],[-73.088705,-41.265342]],[[-73.12275,-41.294957],[-73.118965,-41.291666],[-73.113294,-41.292892],[-73.111409,-41.297408],[-73.115194,-41.3007],[-73.120865,-41.299474],[-73.12275,-41.294957]],[[-73.192625,-41.251043],[-73.188836,-41.247755],[-73.183167,-41.248986],[-73.181287,-41.253504],[-73.175618,-41.254735],[-73.173738,-41.259253],[-73.177527,-41.262542],[-73.183196,-41.261312],[-73.185076,-41.256793],[-73.190746,-41.255562],[-73.192625,-41.251043]],[[-73.179351,-41.233373],[-73.175564,-41.230085],[-73.169897,-41.231316],[-73.168017,-41.235834],[-73.171804,-41.239121],[-73.177471,-41.237891],[-73.179351,-41.233373]],[[-73.26043,-41.174604],[-73.264222,-41.177888],[-73.269887,-41.176651],[-73.271758,-41.172129],[-73.267966,-41.168846],[-73.262302,-41.170083],[-73.26043,-41.174604]],[[-73.277524,-41.195546],[-73.27373,-41.192262],[-73.268063,-41.193499],[-73.26619,-41.19802],[-73.269985,-41.201305],[-73.275652,-41.200068],[-73.277524,-41.195546]],[[-73.238066,-41.265843],[-73.241862,-41.269131],[-73.247535,-41.267897],[-73.249412,-41.263375],[-73.245615,-41.260087],[-73.239943,-41.261321],[-73.238066,-41.265843]],[[-73.154826,-41.255135],[-73.158612,-41.258423],[-73.164281,-41.257194],[-73.166162,-41.252676],[-73.162375,-41.249387],[-73.156708,-41.250617],[-73.152922,-41.247328],[-73.147255,-41.248557],[-73.145373,-41.253074],[-73.149158,-41.256363],[-73.154826,-41.255135]]]},"properties":{"comuna":"Llanquihue","mancha_id":"10107-88ceaa1201fffff","clase":"Medio","nivel_medio":1.897,"nivel_medio_min":1.501,"nivel_medio_max":2.498,"pct_alto":6.7,"n_hexagonos":517,"area_ha":30809.42}},{"type":"Feature","geometry":{"type":"Polygon","coordinates":[[[-73.001834,-41.288188],[-73.005606,-41.291481],[-73.005336,-41.292125],[-73.00499,-41.292117],[-73.002943,-41.292069],[-73.001226,-41.292033],[-73.001109,-41.29203],[-73.000953,-41.292027],[-73.000449,-41.292018],[-73.000298,-41.292015],[-73.000146,-41.292012],[-72.999994,-41.292009],[-72.999522,-41.291998],[-72.999299,-41.291992],[-72.998091,-41.291962],[-72.998045,-41.291961],[-72.99755,-41.291949],[-72.996411,-41.291921],[-72.995128,-41.29189],[-72.996169,-41.289408],[-73.001834,-41.288188]]]},"properties":{"comuna":"Llanquihue","mancha_id":"10107-88ceaa8867fffff","clase":"Alto","nivel_medio":2.657,"nivel_medio_min":2.657,"nivel_medio_max":2.657,"pct_alto":59.9,"n_hexagonos":1,"area_ha":25.82}},{"type":"Feature","geometry":{"type":"Polygon","coordinates":[[[-73.032044,-41.289891],[-73.028268,-41.2866],[-73.022603,-41.28782],[-73.018828,-41.284528],[-73.013163,-41.285749],[-73.00939,-41.282457],[-73.011282,-41.277945],[-73.007509,-41.274653],[-73.001846,-41.275873],[-72.999954,-41.280385],[-72.99429,-41.281604],[-72.990519,-41.278312],[-72.992412,-41.273801],[-72.998075,-41.272581],[-72.999967,-41.26807],[-73.005629,-41.26685],[-73.007521,-41.262338],[-73.013183,-41.261118],[-73.015074,-41.256606],[-73.011302,-41.253315],[-73.013193,-41.248803],[-73.009422,-41.245513],[-73.011312,-41.241002],[-73.016973,-41.23978],[-73.020744,-41.24307],[-73.026405,-41.241848],[-73.030177,-41.245138],[-73.028287,-41.249651],[-73.03206,-41.252941],[-73.030171,-41.257453],[-73.024508,-41.258675],[-73.022618,-41.263187],[-73.026391,-41.266478],[-73.032055,-41.265257],[-73.035829,-41.268548],[-73.041493,-41.267326],[-73.045269,-41.270617],[-73.050934,-41.269394],[-73.05471,-41.272685],[-73.060376,-41.271462],[-73.064153,-41.274753],[-73.062265,-41.279267],[-73.066044,-41.282558],[-73.064155,-41.287073],[-73.058488,-41.288296],[-73.056599,-41.29281],[-73.060378,-41.296102],[-73.066046,-41.294879],[-73.069826,-41.298171],[-73.068019,-41.302489],[-73.067987,-41.302488],[-73.066769,-41.302466],[-73.066521,-41.302461],[-73.064011,-41.302415],[-73.063982,-41.303539],[-73.063937,-41.305251],[-73.063162,-41.305234],[-73.063042,-41.305232],[-73.061726,-41.305204],[-73.062268,-41.303908],[-73.058488,-41.300616],[-73.05639,-41.301069],[-73.056197,-41.300735],[-73.056032,-41.300276],[-73.055786,-41.299822],[-73.055397,-41.299302],[-73.055131,-41.298933],[-73.054873,-41.298604],[-73.054644,-41.298375],[-73.054395,-41.298155],[-73.054064,-41.297891],[-73.053788,-41.297603],[-73.05347,-41.297162],[-73.053378,-41.296972],[-73.053316,-41.296764],[-73.053268,-41.296595],[-73.0529,-41.295317],[-73.052814,-41.294833],[-73.05273,-41.29437],[-73.052363,-41.294362],[-73.052316,-41.294361],[-73.05228,-41.29436],[-73.050805,-41.294333],[-73.050931,-41.294032],[-73.047154,-41.29074],[-73.041487,-41.291962],[-73.03771,-41.28867],[-73.032044,-41.289891]]]},"properties":{"comuna":"Llanquihue","mancha_id":"10107-88ceaa8803fffff","clase":"Alto","nivel_medio":2.924,"nivel_medio_min":2.559,"nivel_medio_max":3.485,"pct_alto":80.8,"n_hexagonos":27,"area_ha":1660.76}},{"type":"Feature","geometry":{"type":"Polygon","coordinates":[[[-73.300424,-41.29522],[-73.298767,-41.293787],[-73.299423,-41.292202],[-73.29979,-41.29216],[-73.300551,-41.291892],[-73.300549,-41.292008],[-73.3005,-41.293268],[-73.300476,-41.293893],[-73.300465,-41.294194],[-73.300424,-41.29522]]]},"properties":{"comuna":"Llanquihue","mancha_id":"10107-88ceaa8519fffff","clase":"Alto","nivel_medio":2.531,"nivel_medio_min":2.531,"nivel_medio_max":2.531,"pct_alto":29.3,"n_hexagonos":1,"area_ha":3.36}},{"type":"Feature","geometry":{"type":"Polygon","coordinates":[[[-73.058484,-41.214393],[-73.056598,-41.218906],[-73.050938,-41.22013],[-73.047166,-41.216841],[-73.049053,-41.212329],[-73.054712,-41.211105],[-73.056598,-41.206592],[-73.062256,-41.205367],[-73.06603,-41.208655],[-73.064144,-41.213168],[-73.058484,-41.214393]]]},"properties":{"comuna":"Llanquihue","mancha_id":"10107-88ceaa1245fffff","clase":"Alto","nivel_medio":2.598,"nivel_medio_min":2.529,"nivel_medio_max":2.666,"pct_alto":58.1,"n_hexagonos":2,"area_ha":129.81}},{"type":"Feature","geometry":{"type":"Polygon","coordinates":[[[-73.079228,-41.189376],[-73.077344,-41.19389],[-73.071685,-41.195116],[-73.067913,-41.191828],[-73.069797,-41.187316],[-73.066025,-41.184029],[-73.066335,-41.183286],[-73.076528,-41.183519],[-73.075455,-41.18609],[-73.079228,-41.189376]]]},"properties":{"comuna":"Llanquihue","mancha_id":"10107-88ceaa1203fffff","clase":"Alto","nivel_medio":2.601,"nivel_medio_min":2.532,"nivel_medio_max":2.767,"pct_alto":72.8,"n_hexagonos":2,"area_ha":91.61}}],"bbox":[-73.32821,-41.31256,-72.88966,-41.12941]}