{"type":"FeatureCollection","features":[{"type":"Feature","geometry":{"type":"Polygon","coordinates":[[[-73.448595,-42.993061],[-73.451501,-42.992467],[-73.452799,-42.993572],[-73.45179,-42.99346],[-73.45103,-42.9933],[-73.448595,-42.993061]]]},"properties":{"comuna":"Queilén","mancha_id":"10207-88ceacda81fffff","clase":"Muy Bajo","nivel_medio":0.145,"nivel_medio_min":0.145,"nivel_medio_max":0.145,"pct_alto":0.0,"n_hexagonos":1,"area_ha":1.73}},{"type":"Feature","geometry":{"type":"Polygon","coordinates":[[[-73.433598,-42.921452],[-73.433359,-42.921248],[-73.43347,-42.920984],[-73.43352,-42.92111],[-73.433598,-42.921452]]]},"properties":{"comuna":"Queilén","mancha_id":"10207-88ceacd8b1fffff","clase":"Muy Bajo","nivel_medio":0.0,"nivel_medio_min":0.0,"nivel_medio_max":0.0,"pct_alto":0.0,"n_hexagonos":1,"area_ha":0.04}},{"type":"Feature","geometry":{"type":"Polygon","coordinates":[[[-73.43211,-42.93046],[-73.431508,-42.929952],[-73.43404,-42.929433],[-73.43391,-42.92996],[-73.43395,-42.93029],[-73.43403,-42.93052],[-73.43427,-42.93087],[-73.43579,-42.93209],[-73.43584,-42.93219],[-73.43585,-42.93236],[-73.43577,-42.93243],[-73.43558,-42.93244],[-73.43507,-42.93227],[-73.43406,-42.93169],[-73.4331,-42.93102],[-73.43211,-42.93046]]]},"properties":{"comuna":"Queilén","mancha_id":"10207-88ceacd887fffff","clase":"Muy Bajo","nivel_medio":0.405,"nivel_medio_min":0.405,"nivel_medio_max":0.405,"pct_alto":0.9,"n_hexagonos":1,"area_ha":3.78}},{"type":"Feature","geometry":{"type":"Polygon","coordinates":[[[-73.575209,-42.812902],[-73.573298,-42.817463],[-73.567444,-42.818675],[-73.563501,-42.815327],[-73.565412,-42.810766],[-73.571266,-42.809554],[-73.575209,-42.812902]]]},"properties":{"comuna":"Queilén","mancha_id":"10207-88ceacce2dfffff","clase":"Muy Bajo","nivel_medio":0.253,"nivel_medio_min":0.253,"nivel_medio_max":0.253,"pct_alto":1.8,"n_hexagonos":1,"area_ha":66.45}},{"type":"Feature","geometry":{"type":"Polygon","coordinates":[[[-73.501025,-42.785953],[-73.500717,-42.786688],[-73.49749,-42.787355],[-73.49805,-42.78719],[-73.49975,-42.78645],[-73.5,-42.786355],[-73.50086,-42.78603],[-73.501025,-42.785953]]]},"properties":{"comuna":"Queilén","mancha_id":"10207-88ceacc89bfffff","clase":"Muy Bajo","nivel_medio":0.449,"nivel_medio_min":0.449,"nivel_medio_max":0.449,"pct_alto":6.3,"n_hexagonos":1,"area_ha":0.93}},{"type":"Feature","geometry":{"type":"Polygon","coordinates":[[[-73.48413,-42.90251],[-73.484094,-42.902477],[-73.484484,-42.901551],[-73.48541,-42.90205],[-73.48572,-42.90224],[-73.48659,-42.90307],[-73.48752,-42.90377],[-73.48808,-42.90407],[-73.48864,-42.9045],[-73.48897,-42.90487],[-73.48903,-42.90505],[-73.48901,-42.9052],[-73.4889,-42.90538],[-73.48873,-42.90536],[-73.48774,-42.90468],[-73.48611,-42.90398],[-73.48581,-42.9038],[-73.48413,-42.90251]]]},"properties":{"comuna":"Queilén","mancha_id":"10207-88ceacc101fffff","clase":"Muy Bajo","nivel_medio":0.39,"nivel_medio_min":0.39,"nivel_medio_max":0.39,"pct_alto":0.0,"n_hexagonos":1,"area_ha":4.66}},{"type":"Feature","geometry":{"type":"Polygon","coordinates":[[[-73.587122,-42.927103],[-73.586135,-42.927307],[-73.585427,-42.926707],[-73.58634,-42.92691],[-73.58656,-42.92699],[-73.587122,-42.927103]]]},"properties":{"comuna":"Queilén","mancha_id":"10207-88ceacc053fffff","clase":"Muy Bajo","nivel_medio":0.492,"nivel_medio_min":0.492,"nivel_medio_max":0.492,"pct_alto":12.3,"n_hexagonos":1,"area_ha":0.33}},{"type":"Feature","geometry":{"type":"Polygon","coordinates":[[[-73.715677,-42.767021],[-73.711629,-42.767866],[-73.711074,-42.767396],[-73.712785,-42.767024],[-73.715676,-42.766181],[-73.715677,-42.767021]]]},"properties":{"comuna":"Queilén","mancha_id":"10207-88ceac1b4bfffff","clase":"Muy Bajo","nivel_medio":0.001,"nivel_medio_min":0.001,"nivel_medio_max":0.001,"pct_alto":0.0,"n_hexagonos":1,"area_ha":2.67}},{"type":"Feature","geometry":{"type":"Polygon","coordinates":[[[-73.462949,-42.952645],[-73.459007,-42.94929],[-73.460008,-42.946918],[-73.46033,-42.94678],[-73.46401,-42.94541],[-73.467492,-42.944123],[-73.470736,-42.946884],[-73.468814,-42.951443],[-73.462949,-42.952645]]]},"properties":{"comuna":"Queilén","mancha_id":"10207-88ceacd8d3fffff","clase":"Bajo","nivel_medio":1.418,"nivel_medio_min":1.418,"nivel_medio_max":1.418,"pct_alto":8.1,"n_hexagonos":1,"area_ha":58.28}},{"type":"Feature","geometry":{"type":"Polygon","coordinates":[[[-73.433627,-42.958654],[-73.427763,-42.959855],[-73.426169,-42.958497],[-73.42698,-42.9583],[-73.42773,-42.95804],[-73.43166,-42.95626],[-73.4352,-42.95442],[-73.435464,-42.954306],[-73.433627,-42.958654]]]},"properties":{"comuna":"Queilén","mancha_id":"10207-88ceacd8c7fffff","clase":"Bajo","nivel_medio":1.336,"nivel_medio_min":1.336,"nivel_medio_max":1.336,"pct_alto":3.9,"n_hexagonos":1,"area_ha":17.86}},{"type":"Feature","geometry":{"type":"Polygon","coordinates":[[[-73.441848,-42.951871],[-73.441415,-42.952896],[-73.436307,-42.953943],[-73.43674,-42.95376],[-73.43922,-42.95293],[-73.44073,-42.9523],[-73.441848,-42.951871]]]},"properties":{"comuna":"Queilén","mancha_id":"10207-88ceacd889fffff","clase":"Bajo","nivel_medio":0.85,"nivel_medio_min":0.85,"nivel_medio_max":0.85,"pct_alto":0.0,"n_hexagonos":1,"area_ha":2.04}},{"type":"Feature","geometry":{"type":"Polygon","coordinates":[[[-73.383015,-43.002296],[-73.388882,-43.001099],[-73.389342,-43.001492],[-73.38822,-43.00177],[-73.38755,-43.00187],[-73.38688,-43.00201],[-73.38621,-43.00215],[-73.38477,-43.00263],[-73.38317,-43.003],[-73.382652,-43.003153],[-73.383015,-43.002296]]]},"properties":{"comuna":"Queilén","mancha_id":"10207-88ceacd84bfffff","clase":"Bajo","nivel_medio":1.437,"nivel_medio_min":1.437,"nivel_medio_max":1.437,"pct_alto":7.7,"n_hexagonos":1,"area_ha":3.38}},{"type":"Feature","geometry":{"type":"Polygon","coordinates":[[[-73.408244,-42.968011],[-73.412182,-42.971368],[-73.418047,-42.970168],[-73.421985,-42.973525],[-73.427851,-42.972325],[-73.429776,-42.967768],[-73.435641,-42.966568],[-73.439582,-42.969924],[-73.437657,-42.974481],[-73.441598,-42.977838],[-73.447465,-42.976637],[-73.451407,-42.979994],[-73.449482,-42.984552],[-73.453425,-42.987908],[-73.451501,-42.992467],[-73.448595,-42.993061],[-73.44736,-42.99294],[-73.44492,-42.99282],[-73.444619,-42.992805],[-73.441689,-42.99031],[-73.443615,-42.985752],[-73.439673,-42.982395],[-73.433806,-42.983596],[-73.43188,-42.988153],[-73.435821,-42.99151],[-73.434933,-42.993611],[-73.43469,-42.99367],[-73.43362,-42.99379],[-73.43316,-42.99389],[-73.43213,-42.99423],[-73.43135,-42.9946],[-73.43089,-42.99477],[-73.42637,-42.99569],[-73.426222,-42.99573],[-73.424086,-42.99391],[-73.418218,-42.995109],[-73.414278,-42.991751],[-73.416205,-42.987195],[-73.412266,-42.983837],[-73.414193,-42.979281],[-73.410255,-42.975924],[-73.40439,-42.977123],[-73.402462,-42.981679],[-73.396597,-42.982877],[-73.39266,-42.979519],[-73.394589,-42.974964],[-73.400453,-42.973765],[-73.40238,-42.96921],[-73.408244,-42.968011]]]},"properties":{"comuna":"Queilén","mancha_id":"10207-88ceacd811fffff","clase":"Bajo","nivel_medio":1.337,"nivel_medio_min":1.118,"nivel_medio_max":1.462,"pct_alto":2.1,"n_hexagonos":12,"area_ha":781.56}},{"type":"Feature","geometry":{"type":"Polygon","coordinates":[[[-73.386796,-42.980717],[-73.384867,-42.985272],[-73.388803,-42.98863],[-73.386874,-42.993186],[-73.381008,-42.994383],[-73.379078,-42.998938],[-73.373212,-43.000134],[-73.371282,-43.004689],[-73.365415,-43.005885],[-73.36148,-43.002526],[-73.355614,-43.003721],[-73.353683,-43.008275],[-73.355856,-43.010131],[-73.35519,-43.01032],[-73.3545,-43.0105],[-73.35198,-43.01107],[-73.34927,-43.01163],[-73.34784,-43.01187],[-73.346713,-43.012071],[-73.347816,-43.00947],[-73.343883,-43.006111],[-73.338018,-43.007305],[-73.334085,-43.003946],[-73.335681,-43.000186],[-73.335963,-43.0],[-73.33625,-42.99981],[-73.337051,-42.999182],[-73.33727,-42.99901],[-73.33843,-42.99823],[-73.33917,-42.99758],[-73.33992,-42.99694],[-73.34134,-42.99585],[-73.343456,-42.99449],[-73.34369,-42.99434],[-73.34482,-42.99344],[-73.349679,-42.992449],[-73.353612,-42.995808],[-73.359477,-42.994613],[-73.361408,-42.990059],[-73.367272,-42.988862],[-73.369203,-42.984308],[-73.367284,-42.98267],[-73.36841,-42.9823],[-73.3695,-42.98172],[-73.37046,-42.98112],[-73.37228,-42.98022],[-73.37332,-42.97982],[-73.3746,-42.97946],[-73.37624,-42.97887],[-73.376942,-42.97851],[-73.376996,-42.978557],[-73.38286,-42.977359],[-73.386796,-42.980717]]]},"properties":{"comuna":"Queilén","mancha_id":"10207-88ceacd801fffff","clase":"Bajo","nivel_medio":1.237,"nivel_medio_min":1.081,"nivel_medio_max":1.482,"pct_alto":3.5,"n_hexagonos":13,"area_ha":709.84}},{"type":"Feature","geometry":{"type":"Polygon","coordinates":[[[-73.55156,-42.792815],[-73.549648,-42.797375],[-73.543797,-42.798586],[-73.539858,-42.795238],[-73.54177,-42.790679],[-73.54762,-42.789468],[-73.55156,-42.792815]]]},"properties":{"comuna":"Queilén","mancha_id":"10207-88ceaccf15fffff","clase":"Bajo","nivel_medio":1.331,"nivel_medio_min":1.331,"nivel_medio_max":1.331,"pct_alto":9.0,"n_hexagonos":1,"area_ha":66.42}},{"type":"Feature","geometry":{"type":"Polygon","coordinates":[[[-73.582973,-42.807128],[-73.581063,-42.811689],[-73.575209,-42.812902],[-73.571266,-42.809554],[-73.573176,-42.804993],[-73.579029,-42.80378],[-73.582973,-42.807128]]]},"properties":{"comuna":"Queilén","mancha_id":"10207-88ceacce21fffff","clase":"Bajo","nivel_medio":1.496,"nivel_medio_min":1.496,"nivel_medio_max":1.496,"pct_alto":4.6,"n_hexagonos":1,"area_ha":66.46}},{"type":"Feature","geometry":{"type":"Polygon","coordinates":[[[-73.63215,-42.7561],[-73.632413,-42.756371],[-73.631305,-42.755432],[-73.625455,-42.75665],[-73.621511,-42.753305],[-73.623416,-42.748743],[-73.623884,-42.748645],[-73.62392,-42.74902],[-73.6243,-42.74949],[-73.62449,-42.74956],[-73.62493,-42.74963],[-73.62528,-42.74971],[-73.625621,-42.75],[-73.62575,-42.75011],[-73.62612,-42.75053],[-73.62629,-42.75145],[-73.6265,-42.75191],[-73.62682,-42.75238],[-73.62722,-42.75271],[-73.62798,-42.75307],[-73.628644,-42.753575],[-73.62892,-42.75384],[-73.62975,-42.75429],[-73.63083,-42.75466],[-73.63126,-42.75499],[-73.63142,-42.755158],[-73.63182,-42.75558],[-73.63215,-42.7561]]]},"properties":{"comuna":"Queilén","mancha_id":"10207-88ceacccc9fffff","clase":"Bajo","nivel_medio":1.398,"nivel_medio_min":1.398,"nivel_medio_max":1.489,"pct_alto":0.3,"n_hexagonos":2,"area_ha":33.05}},{"type":"Feature","geometry":{"type":"Polygon","coordinates":[[[-73.641828,-42.755818],[-73.641102,-42.757559],[-73.635251,-42.758777],[-73.633127,-42.756977],[-73.63373,-42.75721],[-73.63407,-42.75729],[-73.63485,-42.75737],[-73.63694,-42.75689],[-73.63762,-42.7568],[-73.63816,-42.75681],[-73.63928,-42.75627],[-73.64069,-42.75579],[-73.641828,-42.755818]]]},"properties":{"comuna":"Queilén","mancha_id":"10207-88ceacccc9fffff-2","clase":"Bajo","nivel_medio":1.489,"nivel_medio_min":1.489,"nivel_medio_max":1.489,"pct_alto":4.1,"n_hexagonos":1,"area_ha":10.24}},{"type":"Feature","geometry":{"type":"Polygon","coordinates":[[[-73.565052,-42.773363],[-73.563142,-42.777923],[-73.557292,-42.779136],[-73.555381,-42.783696],[-73.549532,-42.784908],[-73.545593,-42.781561],[-73.547504,-42.777002],[-73.553353,-42.775789],[-73.555264,-42.77123],[-73.561112,-42.770017],[-73.565052,-42.773363]]]},"properties":{"comuna":"Queilén","mancha_id":"10207-88ceaccc61fffff","clase":"Bajo","nivel_medio":1.474,"nivel_medio_min":1.466,"nivel_medio_max":1.483,"pct_alto":12.8,"n_hexagonos":2,"area_ha":132.84}},{"type":"Feature","geometry":{"type":"Polygon","coordinates":[[[-73.604222,-42.781892],[-73.602314,-42.786454],[-73.596462,-42.787669],[-73.592518,-42.784322],[-73.594426,-42.779761],[-73.600278,-42.778546],[-73.604222,-42.781892]]]},"properties":{"comuna":"Queilén","mancha_id":"10207-88ceaccc5dfffff","clase":"Bajo","nivel_medio":1.407,"nivel_medio_min":1.407,"nivel_medio_max":1.407,"pct_alto":3.6,"n_hexagonos":1,"area_ha":66.47}},{"type":"Feature","geometry":{"type":"Polygon","coordinates":[[[-73.576873,-42.783404],[-73.574964,-42.787964],[-73.578906,-42.791311],[-73.584758,-42.790097],[-73.588701,-42.793444],[-73.586792,-42.798005],[-73.580939,-42.799219],[-73.576996,-42.795872],[-73.571144,-42.797085],[-73.569234,-42.801646],[-73.563381,-42.802858],[-73.55944,-42.79951],[-73.561351,-42.79495],[-73.55741,-42.791603],[-73.559321,-42.787043],[-73.565172,-42.78583],[-73.567082,-42.78127],[-73.572932,-42.780057],[-73.576873,-42.783404]]]},"properties":{"comuna":"Queilén","mancha_id":"10207-88ceaccc45fffff","clase":"Bajo","nivel_medio":1.201,"nivel_medio_min":1.008,"nivel_medio_max":1.435,"pct_alto":0.6,"n_hexagonos":5,"area_ha":332.22}},{"type":"Feature","geometry":{"type":"Polygon","coordinates":[[[-73.557056,-42.754205],[-73.551209,-42.755419],[-73.549892,-42.754299],[-73.55,-42.75428],[-73.55084,-42.75418],[-73.55125,-42.75405],[-73.55165,-42.75382],[-73.55211,-42.75366],[-73.55251,-42.75353],[-73.55299,-42.75347],[-73.55416,-42.75368],[-73.55462,-42.75372],[-73.55508,-42.75376],[-73.55603,-42.75364],[-73.55655,-42.75363],[-73.55682,-42.75372],[-73.55721,-42.75376],[-73.557239,-42.753768],[-73.557056,-42.754205]]]},"properties":{"comuna":"Queilén","mancha_id":"10207-88ceaccc25fffff","clase":"Bajo","nivel_medio":1.437,"nivel_medio_min":1.437,"nivel_medio_max":1.437,"pct_alto":3.1,"n_hexagonos":1,"area_ha":6.89}},{"type":"Feature","geometry":{"type":"Polygon","coordinates":[[[-73.49316,-42.817381],[-73.491244,-42.821938],[-73.485393,-42.823146],[-73.481458,-42.819796],[-73.483375,-42.815239],[-73.489225,-42.814031],[-73.491141,-42.809474],[-73.496991,-42.808266],[-73.500927,-42.811615],[-73.499011,-42.816173],[-73.49316,-42.817381]]]},"properties":{"comuna":"Queilén","mancha_id":"10207-88ceaccab3fffff","clase":"Bajo","nivel_medio":1.131,"nivel_medio_min":0.971,"nivel_medio_max":1.291,"pct_alto":0.5,"n_hexagonos":2,"area_ha":132.74}},{"type":"Feature","geometry":{"type":"Polygon","coordinates":[[[-73.424373,-42.917178],[-73.423563,-42.919095],[-73.427499,-42.92245],[-73.427004,-42.923621],[-73.42578,-42.92268],[-73.42451,-42.92158],[-73.42388,-42.92126],[-73.42222,-42.92011],[-73.4213,-42.91966],[-73.421176,-42.919585],[-73.42084,-42.91938],[-73.42035,-42.91896],[-73.41924,-42.91775],[-73.41881,-42.91754],[-73.41822,-42.91738],[-73.41764,-42.91712],[-73.41742,-42.91695],[-73.4172,-42.91662],[-73.41725,-42.91624],[-73.41743,-42.91589],[-73.41794,-42.9154],[-73.41821,-42.91531],[-73.41908,-42.91522],[-73.42006,-42.91533],[-73.42072,-42.91553],[-73.42101,-42.91575],[-73.42145,-42.91649],[-73.42168,-42.91663],[-73.42207,-42.91681],[-73.42322,-42.91708],[-73.424373,-42.917178]]]},"properties":{"comuna":"Queilén","mancha_id":"10207-88ceacca49fffff","clase":"Bajo","nivel_medio":1.073,"nivel_medio_min":0.785,"nivel_medio_max":1.175,"pct_alto":6.3,"n_hexagonos":2,"area_ha":23.14}},{"type":"Feature","geometry":{"type":"Polygon","coordinates":[[[-73.5128,-42.97474],[-73.512481,-42.975006],[-73.514034,-42.971317],[-73.519861,-42.970121],[-73.51967,-42.97027],[-73.51845,-42.97052],[-73.51806,-42.97061],[-73.51777,-42.97081],[-73.51757,-42.97107],[-73.51741,-42.97136],[-73.51732,-42.97229],[-73.51733,-42.97249],[-73.51733,-42.97276],[-73.51717,-42.97301],[-73.51706,-42.9731],[-73.51663,-42.97381],[-73.51634,-42.97415],[-73.51612,-42.97425],[-73.51584,-42.9743],[-73.51563,-42.97439],[-73.51536,-42.97461],[-73.51496,-42.97504],[-73.51474,-42.97514],[-73.5147,-42.97517],[-73.51449,-42.97517],[-73.51351,-42.97475],[-73.51303,-42.9747],[-73.5128,-42.97474]]]},"properties":{"comuna":"Queilén","mancha_id":"10207-88ceacc35dfffff","clase":"Bajo","nivel_medio":1.332,"nivel_medio_min":1.332,"nivel_medio_max":1.332,"pct_alto":7.3,"n_hexagonos":1,"area_ha":12.84}},{"type":"Feature","geometry":{"type":"Polygon","coordinates":[[[-73.51223,-42.9758],[-73.512172,-42.975927],[-73.512114,-42.975878],[-73.512314,-42.975403],[-73.51223,-42.9758]]]},"properties":{"comuna":"Queilén","mancha_id":"10207-88ceacc35dfffff-2","clase":"Bajo","nivel_medio":1.332,"nivel_medio_min":1.332,"nivel_medio_max":1.332,"pct_alto":7.3,"n_hexagonos":1,"area_ha":0.02}},{"type":"Feature","geometry":{"type":"Polygon","coordinates":[[[-73.515737,-42.941806],[-73.513817,-42.946366],[-73.507951,-42.947572],[-73.504005,-42.944218],[-73.505925,-42.939658],[-73.51179,-42.938452],[-73.515737,-42.941806]]]},"properties":{"comuna":"Queilén","mancha_id":"10207-88ceacc339fffff","clase":"Bajo","nivel_medio":1.401,"nivel_medio_min":1.401,"nivel_medio_max":1.401,"pct_alto":0.0,"n_hexagonos":1,"area_ha":66.46}},{"type":"Feature","geometry":{"type":"Polygon","coordinates":[[[-73.502191,-42.961252],[-73.50027,-42.965811],[-73.494402,-42.967016],[-73.490456,-42.96366],[-73.484589,-42.964864],[-73.482667,-42.969423],[-73.4768,-42.970627],[-73.472855,-42.967271],[-73.466989,-42.968473],[-73.463045,-42.965117],[-73.457179,-42.96632],[-73.453237,-42.962964],[-73.455161,-42.958406],[-73.461026,-42.957204],[-73.464968,-42.960559],[-73.470834,-42.959356],[-73.474778,-42.962712],[-73.480644,-42.961509],[-73.482566,-42.95695],[-73.488432,-42.955746],[-73.492378,-42.959101],[-73.498244,-42.957897],[-73.502191,-42.961252]]]},"properties":{"comuna":"Queilén","mancha_id":"10207-88ceacc30dfffff","clase":"Bajo","nivel_medio":1.372,"nivel_medio_min":1.288,"nivel_medio_max":1.483,"pct_alto":0.3,"n_hexagonos":5,"area_ha":332.17}},{"type":"Feature","geometry":{"type":"Polygon","coordinates":[[[-73.590332,-42.934778],[-73.594043,-42.934012],[-73.594926,-42.934761],[-73.59387,-42.93482],[-73.59282,-42.93502],[-73.59209,-42.93508],[-73.59187,-42.93505],[-73.59131,-42.935],[-73.5907,-42.93488],[-73.59042,-42.93482],[-73.590332,-42.934778]]]},"properties":{"comuna":"Queilén","mancha_id":"10207-88ceacc2e5fffff","clase":"Bajo","nivel_medio":1.49,"nivel_medio_min":1.49,"nivel_medio_max":1.49,"pct_alto":0.0,"n_hexagonos":1,"area_ha":2.22}},{"type":"Feature","geometry":{"type":"Polygon","coordinates":[[[-73.583347,-42.844541],[-73.581435,-42.849103],[-73.585383,-42.852452],[-73.583471,-42.857014],[-73.577612,-42.858226],[-73.5757,-42.862788],[-73.56984,-42.863999],[-73.567928,-42.868561],[-73.562068,-42.869772],[-73.558122,-42.866421],[-73.560035,-42.86186],[-73.55609,-42.85851],[-73.558003,-42.853949],[-73.554059,-42.850599],[-73.555972,-42.846039],[-73.552028,-42.842689],[-73.546172,-42.8439],[-73.542229,-42.84055],[-73.544143,-42.83599],[-73.540201,-42.832641],[-73.542114,-42.828081],[-73.538173,-42.824732],[-73.540087,-42.820172],[-73.54594,-42.818962],[-73.547852,-42.814402],[-73.553706,-42.81319],[-73.555617,-42.80863],[-73.56147,-42.807418],[-73.565412,-42.810766],[-73.563501,-42.815327],[-73.567444,-42.818675],[-73.573298,-42.817463],[-73.577242,-42.820811],[-73.583098,-42.819598],[-73.587043,-42.822946],[-73.585133,-42.827508],[-73.589079,-42.830856],[-73.594935,-42.829643],[-73.598883,-42.832991],[-73.596973,-42.837554],[-73.591115,-42.838767],[-73.589205,-42.843329],[-73.583347,-42.844541]],[[-73.551911,-42.830219],[-73.557766,-42.829008],[-73.559678,-42.824448],[-73.555735,-42.821099],[-73.549881,-42.82231],[-73.547969,-42.82687],[-73.551911,-42.830219]]]},"properties":{"comuna":"Queilén","mancha_id":"10207-88ceacc191fffff","clase":"Bajo","nivel_medio":1.253,"nivel_medio_min":0.681,"nivel_medio_max":1.483,"pct_alto":3.8,"n_hexagonos":25,"area_ha":1661.61}},{"type":"Feature","geometry":{"type":"Polygon","coordinates":[[[-73.474184,-42.887889],[-73.472264,-42.892447],[-73.47079,-42.89275],[-73.47068,-42.89255],[-73.47037,-42.89222],[-73.47033,-42.89211],[-73.47016,-42.8915],[-73.46982,-42.89113],[-73.46969,-42.89085],[-73.46947,-42.8901],[-73.46901,-42.88806],[-73.46881,-42.88766],[-73.4686,-42.88744],[-73.46792,-42.88698],[-73.46744,-42.88646],[-73.46728,-42.88631],[-73.46714,-42.8862],[-73.46652,-42.88584],[-73.4658,-42.8855],[-73.46574,-42.885463],[-73.470246,-42.884536],[-73.474184,-42.887889]]]},"properties":{"comuna":"Queilén","mancha_id":"10207-88ceacc121fffff","clase":"Bajo","nivel_medio":1.47,"nivel_medio_min":1.47,"nivel_medio_max":1.47,"pct_alto":40.5,"n_hexagonos":1,"area_ha":28.95}},{"type":"Feature","geometry":{"type":"Polygon","coordinates":[[[-73.524995,-42.881588],[-73.528939,-42.88494],[-73.534799,-42.883731],[-73.535718,-42.884512],[-73.53512,-42.88513],[-73.53459,-42.88546],[-73.53395,-42.88567],[-73.53323,-42.88595],[-73.53271,-42.88609],[-73.53238,-42.88634],[-73.53146,-42.88745],[-73.53097,-42.88766],[-73.52982,-42.88765],[-73.52957,-42.88759],[-73.52851,-42.88746],[-73.527896,-42.887421],[-73.52742,-42.88739],[-73.52651,-42.88683],[-73.52647,-42.88673],[-73.52647,-42.88639],[-73.52614,-42.88606],[-73.52583,-42.8859],[-73.52562,-42.88555],[-73.52542,-42.88538],[-73.524,-42.88364],[-73.52331,-42.88314],[-73.52312,-42.88275],[-73.52303,-42.88221],[-73.52305,-42.881989],[-73.524995,-42.881588]]]},"properties":{"comuna":"Queilén","mancha_id":"10207-88ceacc113fffff","clase":"Bajo","nivel_medio":1.471,"nivel_medio_min":1.457,"nivel_medio_max":1.487,"pct_alto":8.9,"n_hexagonos":2,"area_ha":29.33}},{"type":"Feature","geometry":{"type":"Polygon","coordinates":[[[-73.626668,-42.868909],[-73.624758,-42.873473],[-73.628712,-42.876823],[-73.626803,-42.881387],[-73.630757,-42.884737],[-73.635397,-42.883776],[-73.63436,-42.88438],[-73.63326,-42.88493],[-73.630096,-42.886317],[-73.63002,-42.88635],[-73.6286,-42.88707],[-73.62758,-42.88748],[-73.62566,-42.88814],[-73.62485,-42.8885],[-73.62404,-42.88874],[-73.6228,-42.88937],[-73.62238,-42.88949],[-73.621871,-42.889573],[-73.62127,-42.88967],[-73.62093,-42.88976],[-73.62065,-42.88993],[-73.6204,-42.89026],[-73.62025,-42.89039],[-73.61944,-42.89077],[-73.61847,-42.89097],[-73.61671,-42.89104],[-73.61566,-42.89102],[-73.61493,-42.89096],[-73.6137,-42.89096],[-73.61302,-42.89091],[-73.61225,-42.89079],[-73.612157,-42.890782],[-73.61114,-42.8907],[-73.6096,-42.89068],[-73.60866,-42.89078],[-73.60811,-42.89079],[-73.607005,-42.890915],[-73.60545,-42.8909],[-73.60507,-42.89095],[-73.60422,-42.89116],[-73.60324,-42.89152],[-73.60273,-42.89177],[-73.602609,-42.891797],[-73.60205,-42.89192],[-73.60072,-42.89194],[-73.59983,-42.89212],[-73.59932,-42.89218],[-73.5982,-42.8921],[-73.59776,-42.892],[-73.59727,-42.89178],[-73.597119,-42.891696],[-73.5965,-42.89135],[-73.59552,-42.89102],[-73.59475,-42.89092],[-73.594058,-42.89073],[-73.59402,-42.89072],[-73.59313,-42.89028],[-73.59255,-42.8899],[-73.59204,-42.88973],[-73.59165,-42.88966],[-73.59072,-42.88963],[-73.58965,-42.88984],[-73.5889,-42.88984],[-73.58786,-42.88952],[-73.587654,-42.889484],[-73.591622,-42.888664],[-73.593534,-42.884102],[-73.599396,-42.882889],[-73.601308,-42.878327],[-73.597357,-42.874976],[-73.599268,-42.870414],[-73.605129,-42.869201],[-73.60704,-42.864638],[-73.612901,-42.863424],[-73.614811,-42.858861],[-73.620672,-42.857647],[-73.624624,-42.860996],[-73.622715,-42.86556],[-73.626668,-42.868909]]]},"properties":{"comuna":"Queilén","mancha_id":"10207-88ceacc081fffff","clase":"Bajo","nivel_medio":1.313,"nivel_medio_min":1.033,"nivel_medio_max":1.49,"pct_alto":1.9,"n_hexagonos":15,"area_ha":732.3}},{"type":"Feature","geometry":{"type":"Polygon","coordinates":[[[-73.558716,-42.928793],[-73.5568,-42.933355],[-73.550933,-42.934563],[-73.546984,-42.93121],[-73.5489,-42.926649],[-73.554766,-42.92544],[-73.558716,-42.928793]]]},"properties":{"comuna":"Queilén","mancha_id":"10207-88ceacc047fffff","clase":"Bajo","nivel_medio":1.498,"nivel_medio_min":1.498,"nivel_medio_max":1.498,"pct_alto":6.1,"n_hexagonos":1,"area_ha":66.5}},{"type":"Feature","geometry":{"type":"Polygon","coordinates":[[[-73.711074,-42.767396],[-73.711629,-42.767866],[-73.715677,-42.767021],[-73.715684,-42.775359],[-73.71569,-42.783645],[-73.71569,-42.783805],[-73.715695,-42.789822],[-73.7157,-42.79556],[-73.715631,-42.79622],[-73.71486,-42.80359],[-73.714835,-42.804726],[-73.71482,-42.80544],[-73.715319,-42.806558],[-73.716158,-42.807348],[-73.720355,-42.811162],[-73.72065,-42.81143],[-73.721171,-42.812069],[-73.721527,-42.812317],[-73.72194,-42.8125],[-73.722247,-42.812632],[-73.722512,-42.812781],[-73.722794,-42.812996],[-73.72314,-42.81333],[-73.723448,-42.813559],[-73.723853,-42.813758],[-73.72444,-42.81398],[-73.724755,-42.81413],[-73.725062,-42.814329],[-73.725385,-42.814627],[-73.725717,-42.814965],[-73.725723,-42.814969],[-73.726146,-42.815322],[-73.72633,-42.81555],[-73.72643,-42.81587],[-73.726577,-42.816332],[-73.726775,-42.816663],[-73.727024,-42.816953],[-73.72753,-42.81742],[-73.727611,-42.817566],[-73.727661,-42.81788],[-73.72766,-42.81823],[-73.727744,-42.818542],[-73.72778,-42.81896],[-73.727851,-42.819494],[-73.727909,-42.819743],[-73.728067,-42.819958],[-73.72829,-42.820099],[-73.72848,-42.82017],[-73.72882,-42.820264],[-73.729143,-42.820413],[-73.7296,-42.82075],[-73.73041,-42.82147],[-73.731154,-42.822094],[-73.731226,-42.822165],[-73.731792,-42.822723],[-73.73221,-42.82312],[-73.732429,-42.823385],[-73.732702,-42.8237],[-73.732909,-42.824006],[-73.7331,-42.824271],[-73.733373,-42.824436],[-73.733754,-42.824635],[-73.734275,-42.824834],[-73.734822,-42.824991],[-73.735269,-42.825032],[-73.73545,-42.825032],[-73.735852,-42.825372],[-73.733952,-42.82994],[-73.728089,-42.831162],[-73.724128,-42.827815],[-73.718266,-42.829036],[-73.716364,-42.833603],[-73.720325,-42.83695],[-73.718423,-42.841517],[-73.712559,-42.842737],[-73.710656,-42.847305],[-73.704793,-42.848524],[-73.700833,-42.845177],[-73.69497,-42.846396],[-73.691011,-42.843048],[-73.685149,-42.844267],[-73.683245,-42.848833],[-73.677382,-42.850051],[-73.673425,-42.846703],[-73.67533,-42.842138],[-73.671374,-42.83879],[-73.665513,-42.840007],[-73.661558,-42.83666],[-73.663464,-42.832095],[-73.659509,-42.828748],[-73.661415,-42.824183],[-73.657461,-42.820836],[-73.659367,-42.816271],[-73.655414,-42.812925],[-73.657319,-42.80836],[-73.653368,-42.805014],[-73.655273,-42.80045],[-73.651322,-42.797103],[-73.645466,-42.798321],[-73.641516,-42.794975],[-73.643422,-42.790411],[-73.639473,-42.787065],[-73.633619,-42.788282],[-73.631713,-42.792845],[-73.625859,-42.794062],[-73.621912,-42.790715],[-73.623818,-42.786153],[-73.619872,-42.782807],[-73.614019,-42.784023],[-73.610074,-42.780676],[-73.611981,-42.776114],[-73.608036,-42.772769],[-73.609943,-42.768207],[-73.615794,-42.766991],[-73.619738,-42.770336],[-73.62559,-42.769119],[-73.629536,-42.772465],[-73.635388,-42.771248],[-73.639335,-42.774593],[-73.645188,-42.773375],[-73.649136,-42.776721],[-73.647232,-42.781284],[-73.651181,-42.78463],[-73.657035,-42.783412],[-73.660986,-42.786757],[-73.666841,-42.785539],[-73.670792,-42.788884],[-73.676648,-42.787665],[-73.680601,-42.79101],[-73.686457,-42.789791],[-73.688359,-42.785225],[-73.684406,-42.78188],[-73.678551,-42.7831],[-73.674599,-42.779755],[-73.668744,-42.780974],[-73.664793,-42.777629],[-73.658939,-42.778848],[-73.65499,-42.775503],[-73.656893,-42.770939],[-73.652945,-42.767594],[-73.647092,-42.768812],[-73.643144,-42.765467],[-73.645049,-42.760904],[-73.6509,-42.759686],[-73.651977,-42.757103],[-73.65464,-42.75759],[-73.65493,-42.75909],[-73.655359,-42.760273],[-73.65616,-42.76112],[-73.65738,-42.7617],[-73.658815,-42.761649],[-73.660571,-42.761327],[-73.660934,-42.76125],[-73.662503,-42.760918],[-73.664319,-42.760859],[-73.6659,-42.761386],[-73.66791,-42.76238],[-73.670609,-42.76368],[-73.673747,-42.765193],[-73.6764,-42.76639],[-73.677949,-42.766552],[-73.681301,-42.766903],[-73.68442,-42.76723],[-73.68477,-42.76754],[-73.68564,-42.76753],[-73.68692,-42.76721],[-73.68831,-42.76697],[-73.68944,-42.767],[-73.68965,-42.76708],[-73.68985,-42.76709],[-73.69059,-42.767038],[-73.6907,-42.76703],[-73.69138,-42.7669],[-73.6921,-42.76662],[-73.69257,-42.7665],[-73.69322,-42.76639],[-73.6938,-42.76639],[-73.69622,-42.76699],[-73.700619,-42.767747],[-73.70098,-42.76776],[-73.703992,-42.767867],[-73.707003,-42.767747],[-73.710015,-42.767626],[-73.711074,-42.767396]],[[-73.681044,-42.828441],[-73.67914,-42.833006],[-73.683096,-42.836354],[-73.688958,-42.835135],[-73.690861,-42.830569],[-73.686904,-42.827222],[-73.681044,-42.828441]]]},"properties":{"comuna":"Queilén","mancha_id":"10207-88ceac1b49fffff","clase":"Bajo","nivel_medio":1.171,"nivel_medio_min":0.598,"nivel_medio_max":1.485,"pct_alto":1.4,"n_hexagonos":83,"area_ha":4970.4}},{"type":"Feature","geometry":{"type":"Polygon","coordinates":[[[-73.32956,-43.01491],[-73.329397,-43.014987],[-73.32859,-43.01537],[-73.32773,-43.01561],[-73.32692,-43.0156],[-73.3262,-43.01522],[-73.32587,-43.01473],[-73.32551,-43.01398],[-73.32489,-43.01312],[-73.32479,-43.01229],[-73.32448,-43.01131],[-73.32456,-43.01096],[-73.32476,-43.01047],[-73.32477,-43.01007],[-73.324788,-43.009997],[-73.32484,-43.00978],[-73.32546,-43.00895],[-73.32663,-43.00829],[-73.327099,-43.00778],[-73.32835,-43.00642],[-73.329667,-43.004845],[-73.33019,-43.00422],[-73.33075,-43.00406],[-73.33144,-43.00343],[-73.33253,-43.00247],[-73.33382,-43.00142],[-73.33504,-43.00061],[-73.335681,-43.000186],[-73.334085,-43.003946],[-73.338018,-43.007305],[-73.343883,-43.006111],[-73.347816,-43.00947],[-73.346713,-43.012071],[-73.34627,-43.01215],[-73.34217,-43.01264],[-73.3387,-43.0132],[-73.337792,-43.013317],[-73.33305,-43.01393],[-73.33162,-43.0141],[-73.33084,-43.01427],[-73.32956,-43.01491]]]},"properties":{"comuna":"Queilén","mancha_id":"10207-88ceacdb03fffff","clase":"Medio","nivel_medio":1.715,"nivel_medio_min":1.53,"nivel_medio_max":1.787,"pct_alto":3.0,"n_hexagonos":6,"area_ha":155.25}},{"type":"Feature","geometry":{"type":"Polygon","coordinates":[[[-73.434933,-42.993611],[-73.435821,-42.99151],[-73.43188,-42.988153],[-73.433806,-42.983596],[-73.439673,-42.982395],[-73.443615,-42.985752],[-73.441689,-42.99031],[-73.444619,-42.992805],[-73.44249,-42.9927],[-73.44161,-42.99255],[-73.44065,-42.99248],[-73.43997,-42.9925],[-73.43747,-42.99302],[-73.43634,-42.99334],[-73.43552,-42.99347],[-73.434933,-42.993611]]]},"properties":{"comuna":"Queilén","mancha_id":"10207-88ceacda85fffff","clase":"Medio","nivel_medio":1.831,"nivel_medio_min":1.778,"nivel_medio_max":2.087,"pct_alto":14.2,"n_hexagonos":2,"area_ha":80.41}},{"type":"Feature","geometry":{"type":"Polygon","coordinates":[[[-73.427499,-42.92245],[-73.423563,-42.919095],[-73.424373,-42.917178],[-73.42511,-42.91724],[-73.42629,-42.91743],[-73.42743,-42.9177],[-73.42887,-42.91824],[-73.43071,-42.91867],[-73.43134,-42.91887],[-73.43229,-42.91932],[-73.4329,-42.9198],[-73.43317,-42.92022],[-73.43347,-42.920984],[-73.433359,-42.921248],[-73.433598,-42.921452],[-73.43376,-42.92216],[-73.43401,-42.92288],[-73.43428,-42.92432],[-73.43508,-42.92614],[-73.43522,-42.92677],[-73.43525,-42.92727],[-73.43517,-42.92739],[-73.43509,-42.92772],[-73.43486,-42.92817],[-73.43406,-42.92935],[-73.43404,-42.929433],[-73.431508,-42.929952],[-73.43134,-42.92981],[-73.43081,-42.92926],[-73.43058,-42.92892],[-73.43024,-42.92815],[-73.4294,-42.92662],[-73.42869,-42.92554],[-73.42824,-42.92494],[-73.42725,-42.92381],[-73.427004,-42.923621],[-73.427499,-42.92245]]]},"properties":{"comuna":"Queilén","mancha_id":"10207-88ceacd8b5fffff","clase":"Medio","nivel_medio":1.605,"nivel_medio_min":1.59,"nivel_medio_max":1.627,"pct_alto":17.9,"n_hexagonos":2,"area_ha":68.66}},{"type":"Feature","geometry":{"type":"Polygon","coordinates":[[[-73.353612,-42.995808],[-73.349679,-42.992449],[-73.34482,-42.99344],[-73.34507,-42.99324],[-73.34731,-42.99169],[-73.34837,-42.99089],[-73.34925,-42.99016],[-73.35033,-42.98944],[-73.351135,-42.989018],[-73.35235,-42.98838],[-73.35533,-42.98726],[-73.356262,-42.986947],[-73.357474,-42.9867],[-73.357588,-42.986431],[-73.36062,-42.98511],[-73.36236,-42.98439],[-73.36396,-42.98386],[-73.36613,-42.98305],[-73.367284,-42.98267],[-73.369203,-42.984308],[-73.367272,-42.988862],[-73.361408,-42.990059],[-73.359477,-42.994613],[-73.353612,-42.995808]]]},"properties":{"comuna":"Queilén","mancha_id":"10207-88ceacd861fffff","clase":"Medio","nivel_medio":1.93,"nivel_medio_min":1.899,"nivel_medio_max":2.381,"pct_alto":18.4,"n_hexagonos":3,"area_ha":117.62}},{"type":"Feature","geometry":{"type":"Polygon","coordinates":[[[-73.559678,-42.824448],[-73.557766,-42.829008],[-73.551911,-42.830219],[-73.547969,-42.82687],[-73.549881,-42.82231],[-73.555735,-42.821099],[-73.559678,-42.824448]]]},"properties":{"comuna":"Queilén","mancha_id":"10207-88ceaccf59fffff","clase":"Medio","nivel_medio":1.948,"nivel_medio_min":1.948,"nivel_medio_max":1.948,"pct_alto":29.5,"n_hexagonos":1,"area_ha":66.44}},{"type":"Feature","geometry":{"type":"Polygon","coordinates":[[[-73.690861,-42.830569],[-73.688958,-42.835135],[-73.683096,-42.836354],[-73.67914,-42.833006],[-73.681044,-42.828441],[-73.686904,-42.827222],[-73.690861,-42.830569]]]},"properties":{"comuna":"Queilén","mancha_id":"10207-88ceacc51dfffff","clase":"Medio","nivel_medio":1.546,"nivel_medio_min":1.546,"nivel_medio_max":1.546,"pct_alto":0.0,"n_hexagonos":1,"area_ha":66.59}},{"type":"Feature","geometry":{"type":"Polygon","coordinates":[[[-73.475177,-42.898234],[-73.476203,-42.8958],[-73.472264,-42.892447],[-73.474184,-42.887889],[-73.470246,-42.884536],[-73.472166,-42.879979],[-73.478023,-42.878774],[-73.479389,-42.879936],[-73.47942,-42.88015],[-73.47937,-42.88041],[-73.47933,-42.88066],[-73.47898,-42.88152],[-73.47901,-42.88242],[-73.47913,-42.883],[-73.47925,-42.88408],[-73.47908,-42.88508],[-73.47859,-42.88613],[-73.47846,-42.88662],[-73.478481,-42.887005],[-73.47849,-42.88716],[-73.47838,-42.88821],[-73.47798,-42.88999],[-73.47761,-42.89105],[-73.47745,-42.89197],[-73.47736,-42.89253],[-73.47724,-42.89397],[-73.47724,-42.89491],[-73.47729,-42.89553],[-73.477298,-42.895574],[-73.47742,-42.89623],[-73.47783,-42.8971],[-73.47809,-42.89745],[-73.47859,-42.89799],[-73.47908,-42.8984],[-73.47984,-42.8989],[-73.48072,-42.89938],[-73.48153,-42.89993],[-73.48236,-42.90036],[-73.48322,-42.90087],[-73.484484,-42.901551],[-73.484094,-42.902477],[-73.4829,-42.90137],[-73.4826,-42.90117],[-73.4809,-42.90028],[-73.48021,-42.90001],[-73.47888,-42.8996],[-73.47777,-42.89939],[-73.47638,-42.89889],[-73.47572,-42.89856],[-73.475177,-42.898234]]]},"properties":{"comuna":"Queilén","mancha_id":"10207-88ceacc105fffff","clase":"Medio","nivel_medio":2.089,"nivel_medio_min":1.856,"nivel_medio_max":2.217,"pct_alto":55.9,"n_hexagonos":3,"area_ha":97.16}},{"type":"Feature","geometry":{"type":"Polygon","coordinates":[[[-73.56582,-42.88922],[-73.564477,-42.889548],[-73.56361,-42.88976],[-73.56259,-42.88987],[-73.56195,-42.89001],[-73.56115,-42.89011],[-73.56043,-42.8901],[-73.55964,-42.88998],[-73.55921,-42.88976],[-73.55874,-42.88944],[-73.55826,-42.8889],[-73.55766,-42.88856],[-73.55707,-42.88813],[-73.5565,-42.88778],[-73.55626,-42.88767],[-73.55611,-42.88769],[-73.55589,-42.88779],[-73.55575,-42.8878],[-73.554701,-42.887327],[-73.55453,-42.88725],[-73.55299,-42.88711],[-73.55239,-42.88689],[-73.55029,-42.88593],[-73.54934,-42.88539],[-73.54897,-42.88512],[-73.54878,-42.88471],[-73.54881,-42.88429],[-73.54869,-42.88386],[-73.54854,-42.88363],[-73.54834,-42.88347],[-73.54813,-42.88338],[-73.54788,-42.88333],[-73.54769,-42.88324],[-73.5472,-42.88313],[-73.54671,-42.88302],[-73.54659,-42.88306],[-73.54603,-42.88343],[-73.54565,-42.88344],[-73.545631,-42.883429],[-73.54547,-42.88334],[-73.5452,-42.88303],[-73.54501,-42.88293],[-73.54406,-42.8828],[-73.54339,-42.88275],[-73.5427,-42.88257],[-73.54166,-42.8821],[-73.54135,-42.88206],[-73.5412,-42.88209],[-73.54093,-42.88231],[-73.54047,-42.88233],[-73.53973,-42.88243],[-73.53964,-42.88244],[-73.5388,-42.88273],[-73.53857,-42.88283],[-73.5382,-42.88298],[-73.53749,-42.88346],[-73.53577,-42.88448],[-73.53572,-42.88451],[-73.535718,-42.884512],[-73.534799,-42.883731],[-73.528939,-42.88494],[-73.524995,-42.881588],[-73.526911,-42.877029],[-73.522968,-42.873677],[-73.51711,-42.874885],[-73.516342,-42.876713],[-73.51619,-42.87667],[-73.51539,-42.87658],[-73.51515,-42.8766],[-73.51501,-42.8767],[-73.51507,-42.87709],[-73.51501,-42.87729],[-73.51475,-42.87741],[-73.51443,-42.87737],[-73.51423,-42.87719],[-73.51407,-42.87674],[-73.5139,-42.87655],[-73.513,-42.87611],[-73.51206,-42.87576],[-73.51097,-42.87546],[-73.51019,-42.87538],[-73.50949,-42.87541],[-73.50911,-42.87548],[-73.50886,-42.87559],[-73.50865,-42.8758],[-73.50861,-42.876],[-73.50867,-42.87607],[-73.50893,-42.87619],[-73.50915,-42.87643],[-73.50926,-42.87669],[-73.5093,-42.87698],[-73.5092,-42.87749],[-73.50882,-42.87817],[-73.50791,-42.87912],[-73.507697,-42.87926],[-73.50671,-42.87991],[-73.50661,-42.88007],[-73.50649,-42.88047],[-73.50615,-42.8811],[-73.50555,-42.88171],[-73.50524,-42.8822],[-73.50514,-42.88284],[-73.5051,-42.88309],[-73.50498,-42.88336],[-73.50472,-42.88372],[-73.50454,-42.88384],[-73.50408,-42.88405],[-73.5032,-42.88433],[-73.50271,-42.884405],[-73.50208,-42.88466],[-73.50143,-42.88492],[-73.50069,-42.88512],[-73.50022,-42.88519],[-73.50012,-42.885195],[-73.5,-42.885201],[-73.49981,-42.88521],[-73.49762,-42.88529],[-73.49635,-42.88561],[-73.4959,-42.88575],[-73.4953,-42.88595],[-73.49403,-42.88619],[-73.49357,-42.8862],[-73.4926,-42.88612],[-73.49176,-42.8861],[-73.490993,-42.886091],[-73.49092,-42.88609],[-73.48959,-42.88591],[-73.48804,-42.88596],[-73.48751,-42.88586],[-73.48719,-42.88576],[-73.48643,-42.88516],[-73.48574,-42.88483],[-73.48496,-42.88393],[-73.48476,-42.88353],[-73.48468,-42.8832],[-73.4847,-42.883],[-73.48499,-42.88287],[-73.4854,-42.88289],[-73.4856,-42.8829],[-73.4858,-42.88291],[-73.4861,-42.88289],[-73.4864,-42.8828],[-73.48666,-42.88265],[-73.48708,-42.88209],[-73.48733,-42.88144],[-73.48735,-42.88102],[-73.48735,-42.881017],[-73.487819,-42.88092],[-73.489737,-42.876362],[-73.495595,-42.875155],[-73.497513,-42.870597],[-73.493573,-42.867246],[-73.487717,-42.868452],[-73.485799,-42.87301],[-73.479942,-42.874216],[-73.476004,-42.870864],[-73.477923,-42.866307],[-73.473986,-42.862955],[-73.472353,-42.863291],[-73.47252,-42.86288],[-73.47265,-42.86246],[-73.47324,-42.86122],[-73.47353,-42.86034],[-73.47369,-42.85942],[-73.47371,-42.85867],[-73.47365,-42.85811],[-73.4737,-42.85759],[-73.47361,-42.85708],[-73.47304,-42.85599],[-73.472991,-42.855916],[-73.475905,-42.858398],[-73.48176,-42.857191],[-73.483678,-42.852634],[-73.479741,-42.849283],[-73.473887,-42.850489],[-73.47219,-42.854521],[-73.47216,-42.85445],[-73.47197,-42.85262],[-73.4719,-42.85086],[-73.47194,-42.84997],[-73.47204,-42.84941],[-73.472181,-42.849036],[-73.47233,-42.84864],[-73.47319,-42.84724],[-73.47339,-42.84682],[-73.47346,-42.84657],[-73.47356,-42.84551],[-73.47388,-42.84409],[-73.47385,-42.84355],[-73.47364,-42.84286],[-73.473362,-42.842274],[-73.47328,-42.8421],[-73.47293,-42.84156],[-73.47284,-42.84118],[-73.47287,-42.84074],[-73.47295,-42.84039],[-73.47326,-42.83964],[-73.47349,-42.83934],[-73.47361,-42.83906],[-73.47376,-42.83846],[-73.47376,-42.83744],[-73.47348,-42.83634],[-73.47354,-42.83547],[-73.47378,-42.83474],[-73.474235,-42.833771],[-73.475707,-42.833467],[-73.479641,-42.836818],[-73.485494,-42.835611],[-73.487411,-42.831053],[-73.483476,-42.827703],[-73.477624,-42.82891],[-73.47538,-42.826999],[-73.4754,-42.82661],[-73.4757,-42.82572],[-73.47616,-42.82467],[-73.47667,-42.82285],[-73.4767,-42.82222],[-73.47646,-42.82149],[-73.47617,-42.820887],[-73.47593,-42.82039],[-73.47563,-42.82003],[-73.47503,-42.81959],[-73.47488,-42.81943],[-73.47473,-42.81927],[-73.47432,-42.81772],[-73.47418,-42.81747],[-73.47388,-42.81712],[-73.47363,-42.8169],[-73.47274,-42.81645],[-73.4724,-42.81619],[-73.472342,-42.816067],[-73.473592,-42.813097],[-73.472848,-42.812463],[-73.47336,-42.81177],[-73.47425,-42.81077],[-73.47518,-42.80918],[-73.47598,-42.80802],[-73.47648,-42.80716],[-73.47711,-42.80575],[-73.47767,-42.80488],[-73.477833,-42.804331],[-73.47794,-42.80397],[-73.47814,-42.80358],[-73.47847,-42.80309],[-73.47879,-42.80287],[-73.47902,-42.80247],[-73.48001,-42.80156],[-73.48162,-42.79993],[-73.48191,-42.79968],[-73.482747,-42.798724],[-73.48275,-42.79872],[-73.48418,-42.79677],[-73.48481,-42.79563],[-73.48537,-42.79493],[-73.48618,-42.79409],[-73.48659,-42.79356],[-73.486725,-42.793338],[-73.48734,-42.79233],[-73.48749,-42.79225],[-73.48809,-42.7921],[-73.48873,-42.79184],[-73.49004,-42.79102],[-73.49166,-42.79034],[-73.49238,-42.78994],[-73.49417,-42.78907],[-73.494451,-42.78889],[-73.49612,-42.78782],[-73.49669,-42.78759],[-73.49749,-42.787355],[-73.500717,-42.786688],[-73.501025,-42.785953],[-73.50273,-42.78516],[-73.50312,-42.78497],[-73.5041,-42.78451],[-73.50504,-42.78418],[-73.50807,-42.78276],[-73.509656,-42.781923],[-73.50987,-42.78181],[-73.51235,-42.78028],[-73.51398,-42.77938],[-73.51466,-42.77903],[-73.51543,-42.77869],[-73.51821,-42.77715],[-73.518413,-42.777002],[-73.51916,-42.77646],[-73.521,-42.77536],[-73.52339,-42.77358],[-73.52451,-42.77269],[-73.52563,-42.77179],[-73.526255,-42.771335],[-73.526273,-42.771318],[-73.52676,-42.77087],[-73.52755,-42.77039],[-73.52839,-42.76978],[-73.52906,-42.76936],[-73.53111,-42.76783],[-73.53182,-42.76724],[-73.53239,-42.76664],[-73.53322,-42.76589],[-73.53359,-42.76548],[-73.53376,-42.765317],[-73.5345,-42.76461],[-73.53663,-42.76285],[-73.53764,-42.76174],[-73.53806,-42.76133],[-73.54002,-42.75971],[-73.54044,-42.75941],[-73.54085,-42.75911],[-73.540929,-42.759045],[-73.54136,-42.75869],[-73.54261,-42.75749],[-73.54386,-42.75639],[-73.54547,-42.75558],[-73.54654,-42.75513],[-73.54726,-42.75488],[-73.54866,-42.75452],[-73.549892,-42.754299],[-73.551209,-42.755419],[-73.557056,-42.754205],[-73.557239,-42.753768],[-73.55772,-42.75391],[-73.55812,-42.75398],[-73.55853,-42.75405],[-73.55932,-42.75431],[-73.5597,-42.7544],[-73.56107,-42.75515],[-73.56148,-42.75529],[-73.56318,-42.75603],[-73.5639,-42.75622],[-73.56407,-42.75629],[-73.56479,-42.75645],[-73.565853,-42.756543],[-73.56628,-42.75658],[-73.56707,-42.75657],[-73.567109,-42.756566],[-73.56821,-42.75644],[-73.56969,-42.75622],[-73.57042,-42.75616],[-73.57079,-42.75624],[-73.57104,-42.75637],[-73.57129,-42.75651],[-73.572485,-42.75659],[-73.57267,-42.75665],[-73.57296,-42.75669],[-73.57347,-42.75666],[-73.5743,-42.75649],[-73.57459,-42.75647],[-73.5763,-42.75655],[-73.577451,-42.7565],[-73.57769,-42.75649],[-73.57864,-42.75665],[-73.58039,-42.75653],[-73.58241,-42.75653],[-73.58285,-42.75658],[-73.58302,-42.75662],[-73.58354,-42.75676],[-73.58408,-42.75697],[-73.58457,-42.75698],[-73.58566,-42.75686],[-73.58623,-42.75685],[-73.58657,-42.75684],[-73.58751,-42.75672],[-73.58786,-42.75663],[-73.588103,-42.756568],[-73.58908,-42.75632],[-73.58975,-42.75619],[-73.59085,-42.75603],[-73.59187,-42.75579],[-73.59353,-42.75523],[-73.594254,-42.754894],[-73.59437,-42.75484],[-73.59471,-42.75477],[-73.59504,-42.75469],[-73.59639,-42.75405],[-73.598,-42.75385],[-73.59848,-42.7536],[-73.59915,-42.75338],[-73.59983,-42.75322],[-73.60087,-42.75313],[-73.60127,-42.75303],[-73.60177,-42.75285],[-73.60422,-42.75158],[-73.604701,-42.751402],[-73.60522,-42.75121],[-73.60565,-42.75093],[-73.60653,-42.75075],[-73.60769,-42.75027],[-73.608175,-42.75],[-73.60839,-42.74988],[-73.60917,-42.74927],[-73.60962,-42.74886],[-73.6109,-42.74797],[-73.61109,-42.74778],[-73.61149,-42.74738],[-73.61258,-42.74653],[-73.61299,-42.746077],[-73.613624,-42.746615],[-73.616981,-42.745916],[-73.61701,-42.74594],[-73.61738,-42.74635],[-73.61793,-42.7466],[-73.6186,-42.74668],[-73.61976,-42.74656],[-73.62048,-42.74662],[-73.62074,-42.74657],[-73.620862,-42.746577],[-73.62127,-42.7466],[-73.6232,-42.74716],[-73.62353,-42.74722],[-73.62376,-42.74762],[-73.62393,-42.74806],[-73.62388,-42.7486],[-73.623884,-42.748645],[-73.623416,-42.748743],[-73.621511,-42.753305],[-73.625455,-42.75665],[-73.631305,-42.755432],[-73.632413,-42.756371],[-73.63279,-42.75676],[-73.63311,-42.75697],[-73.633127,-42.756977],[-73.635251,-42.758777],[-73.641102,-42.757559],[-73.641828,-42.755818],[-73.6419,-42.75582],[-73.6435,-42.75609],[-73.64504,-42.75622],[-73.64787,-42.75651],[-73.65136,-42.75699],[-73.651977,-42.757103],[-73.6509,-42.759686],[-73.645049,-42.760904],[-73.643144,-42.765467],[-73.647092,-42.768812],[-73.652945,-42.767594],[-73.656893,-42.770939],[-73.65499,-42.775503],[-73.658939,-42.778848],[-73.664793,-42.777629],[-73.668744,-42.780974],[-73.674599,-42.779755],[-73.678551,-42.7831],[-73.684406,-42.78188],[-73.688359,-42.785225],[-73.686457,-42.789791],[-73.680601,-42.79101],[-73.676648,-42.787665],[-73.670792,-42.788884],[-73.666841,-42.785539],[-73.660986,-42.786757],[-73.657035,-42.783412],[-73.651181,-42.78463],[-73.647232,-42.781284],[-73.649136,-42.776721],[-73.645188,-42.773375],[-73.639335,-42.774593],[-73.635388,-42.771248],[-73.629536,-42.772465],[-73.62559,-42.769119],[-73.619738,-42.770336],[-73.615794,-42.766991],[-73.609943,-42.768207],[-73.605999,-42.764861],[-73.600149,-42.766077],[-73.598242,-42.770638],[-73.602185,-42.773984],[-73.608036,-42.772769],[-73.611981,-42.776114],[-73.610074,-42.780676],[-73.614019,-42.784023],[-73.619872,-42.782807],[-73.623818,-42.786153],[-73.621912,-42.790715],[-73.625859,-42.794062],[-73.631713,-42.792845],[-73.633619,-42.788282],[-73.639473,-42.787065],[-73.643422,-42.790411],[-73.641516,-42.794975],[-73.645466,-42.798321],[-73.651322,-42.797103],[-73.655273,-42.80045],[-73.653368,-42.805014],[-73.657319,-42.80836],[-73.655414,-42.812925],[-73.659367,-42.816271],[-73.657461,-42.820836],[-73.661415,-42.824183],[-73.659509,-42.828748],[-73.663464,-42.832095],[-73.661558,-42.83666],[-73.665513,-42.840007],[-73.671374,-42.83879],[-73.67533,-42.842138],[-73.673425,-42.846703],[-73.677382,-42.850051],[-73.683245,-42.848833],[-73.685149,-42.844267],[-73.691011,-42.843048],[-73.69497,-42.846396],[-73.700833,-42.845177],[-73.704793,-42.848524],[-73.710656,-42.847305],[-73.712559,-42.842737],[-73.718423,-42.841517],[-73.720325,-42.83695],[-73.716364,-42.833603],[-73.718266,-42.829036],[-73.724128,-42.827815],[-73.728089,-42.831162],[-73.733952,-42.82994],[-73.735852,-42.825372],[-73.73545,-42.825032],[-73.735889,-42.825032],[-73.73632,-42.82514],[-73.736537,-42.82523],[-73.7368,-42.825339],[-73.737504,-42.825554],[-73.73781,-42.825661],[-73.738025,-42.825769],[-73.738149,-42.825935],[-73.73819,-42.82611],[-73.73822,-42.82676],[-73.738265,-42.827094],[-73.738389,-42.827458],[-73.738588,-42.827706],[-73.738836,-42.827814],[-73.73915,-42.8279],[-73.74026,-42.828029],[-73.74084,-42.82803],[-73.74128,-42.82808],[-73.74284,-42.82831],[-73.743662,-42.82841],[-73.74414,-42.82843],[-73.745305,-42.828391],[-73.74535,-42.82839],[-73.745848,-42.82841],[-73.746063,-42.828426],[-73.746229,-42.828493],[-73.746469,-42.828625],[-73.746941,-42.828873],[-73.747652,-42.829171],[-73.748008,-42.829221],[-73.748323,-42.829254],[-73.74872,-42.829171],[-73.74902,-42.82905],[-73.75,-42.828711],[-73.75,-42.828711],[-73.75012,-42.82867],[-73.750376,-42.828608],[-73.75082,-42.82854],[-73.751137,-42.828526],[-73.75143,-42.82859],[-73.75173,-42.82876],[-73.7516,-42.82883],[-73.751303,-42.828915],[-73.750988,-42.829047],[-73.750533,-42.829271],[-73.75027,-42.82949],[-73.75017,-42.8297],[-73.750103,-42.829974],[-73.75004,-42.83056],[-73.75,-42.830634],[-73.75,-42.830634],[-73.74976,-42.83108],[-73.749416,-42.831522],[-73.749192,-42.831771],[-73.74892,-42.83191],[-73.74782,-42.83235],[-73.747503,-42.832516],[-73.747305,-42.832714],[-73.747214,-42.832938],[-73.747172,-42.833302],[-73.747131,-42.834262],[-73.747073,-42.834767],[-73.747056,-42.834833],[-73.747007,-42.835024],[-73.74688,-42.835262],[-73.74664,-42.83571],[-73.746394,-42.836108],[-73.74591,-42.83667],[-73.745558,-42.8373],[-73.74543,-42.837595],[-73.745376,-42.837838],[-73.74534,-42.83838],[-73.745277,-42.838509],[-73.74511,-42.83861],[-73.7444,-42.83893],[-73.7433,-42.83946],[-73.742,-42.84012],[-73.741817,-42.840293],[-73.74164,-42.84022],[-73.74151,-42.84017],[-73.74116,-42.83995],[-73.7403,-42.83978],[-73.73927,-42.83918],[-73.73912,-42.83915],[-73.73902,-42.83919],[-73.73888,-42.83943],[-73.73886,-42.83971],[-73.73893,-42.84004],[-73.7393,-42.8406],[-73.7393,-42.84063],[-73.7393,-42.84115],[-73.73921,-42.84145],[-73.73901,-42.84156],[-73.73817,-42.84217],[-73.73786,-42.84231],[-73.73745,-42.84233],[-73.737,-42.84226],[-73.73652,-42.84225],[-73.73604,-42.84257],[-73.7358,-42.84287],[-73.7356,-42.84325],[-73.73526,-42.84448],[-73.73491,-42.84493],[-73.73469,-42.84516],[-73.73452,-42.84534],[-73.73429,-42.8459],[-73.733298,-42.846764],[-73.732211,-42.84699],[-73.731207,-42.8494],[-73.73019,-42.85014],[-73.72926,-42.85059],[-73.72801,-42.85129],[-73.72725,-42.85188],[-73.726827,-42.852283],[-73.72682,-42.85229],[-73.72666,-42.85237],[-73.72624,-42.85246],[-73.72592,-42.85264],[-73.72553,-42.8532],[-73.72476,-42.85372],[-73.72422,-42.85433],[-73.72416,-42.85455],[-73.72423,-42.85473],[-73.72422,-42.85497],[-73.724,-42.85526],[-73.723208,-42.855748],[-73.72283,-42.85598],[-73.72274,-42.85602],[-73.72214,-42.85628],[-73.7212,-42.8566],[-73.72001,-42.85675],[-73.71831,-42.85662],[-73.71778,-42.85673],[-73.71765,-42.85677],[-73.71726,-42.8569],[-73.71671,-42.85703],[-73.715063,-42.857203],[-73.71481,-42.85723],[-73.71429,-42.85744],[-73.71423,-42.85752],[-73.71361,-42.85787],[-73.71225,-42.85839],[-73.71092,-42.859],[-73.7099,-42.85927],[-73.70834,-42.85949],[-73.70773,-42.85948],[-73.70695,-42.85916],[-73.70675,-42.85894],[-73.70656,-42.85884],[-73.70635,-42.85883],[-73.705802,-42.858953],[-73.70568,-42.85898],[-73.70545,-42.85893],[-73.70516,-42.85878],[-73.70435,-42.85817],[-73.70345,-42.85769],[-73.70339,-42.85766],[-73.70191,-42.85734],[-73.70158,-42.85727],[-73.70069,-42.85702],[-73.7002,-42.85682],[-73.6997,-42.85644],[-73.69855,-42.85521],[-73.69767,-42.85459],[-73.697395,-42.854233],[-73.69713,-42.85389],[-73.69706,-42.85357],[-73.69715,-42.85328],[-73.69711,-42.85322],[-73.69707,-42.85316],[-73.69691,-42.85318],[-73.69606,-42.85341],[-73.695965,-42.853413],[-73.69544,-42.85343],[-73.69397,-42.85319],[-73.69362,-42.85306],[-73.69351,-42.85295],[-73.69335,-42.85247],[-73.69287,-42.85229],[-73.69226,-42.85225],[-73.69197,-42.85233],[-73.69185,-42.85243],[-73.6917,-42.85276],[-73.69146,-42.85355],[-73.69151,-42.8539],[-73.69158,-42.85408],[-73.6916,-42.85468],[-73.69154,-42.85479],[-73.69136,-42.85491],[-73.69043,-42.85517],[-73.69015,-42.8552],[-73.68825,-42.85559],[-73.68766,-42.85568],[-73.68723,-42.85575],[-73.68673,-42.85589],[-73.68654,-42.85594],[-73.68598,-42.85619],[-73.68569,-42.85627],[-73.685492,-42.856282],[-73.68505,-42.85631],[-73.68469,-42.85624],[-73.68442,-42.85611],[-73.68411,-42.8561],[-73.68396,-42.85626],[-73.68386,-42.8568],[-73.68362,-42.85696],[-73.68271,-42.85711],[-73.68191,-42.85709],[-73.68147,-42.85704],[-73.68123,-42.85702],[-73.67972,-42.85701],[-73.67895,-42.85712],[-73.678565,-42.857229],[-73.67793,-42.85741],[-73.67644,-42.85767],[-73.67432,-42.85791],[-73.67377,-42.85802],[-73.67366,-42.85806],[-73.67255,-42.85843],[-73.67245,-42.85847],[-73.67143,-42.85871],[-73.67008,-42.85878],[-73.66938,-42.85878],[-73.66874,-42.85884],[-73.668356,-42.858846],[-73.66813,-42.85885],[-73.66739,-42.85894],[-73.66688,-42.8591],[-73.66617,-42.85948],[-73.66458,-42.85992],[-73.66386,-42.86026],[-73.66322,-42.86051],[-73.66173,-42.86084],[-73.660996,-42.860898],[-73.66097,-42.8609],[-73.65962,-42.8609],[-73.65872,-42.86098],[-73.65772,-42.86093],[-73.65749,-42.86089],[-73.65732,-42.86078],[-73.65709,-42.86054],[-73.65709,-42.86044],[-73.6571,-42.86035],[-73.65717,-42.86024],[-73.65732,-42.8602],[-73.65786,-42.86021],[-73.65816,-42.86026],[-73.65836,-42.86035],[-73.65854,-42.86033],[-73.65887,-42.86014],[-73.65944,-42.85968],[-73.659519,-42.859648],[-73.65976,-42.85955],[-73.66019,-42.85921],[-73.66032,-42.85888],[-73.66074,-42.85721],[-73.6608,-42.85693],[-73.66076,-42.85679],[-73.66069,-42.85678],[-73.66053,-42.85678],[-73.65984,-42.85715],[-73.65971,-42.85718],[-73.65945,-42.85716],[-73.65898,-42.85695],[-73.65876,-42.85676],[-73.658511,-42.856777],[-73.65804,-42.85681],[-73.65766,-42.85702],[-73.65745,-42.85702],[-73.65735,-42.85698],[-73.65714,-42.8567],[-73.65716,-42.85647],[-73.65737,-42.85586],[-73.65771,-42.85526],[-73.65811,-42.8548],[-73.65823,-42.85442],[-73.65799,-42.85415],[-73.65766,-42.85412],[-73.65753,-42.85415],[-73.65703,-42.85454],[-73.65688,-42.85476],[-73.65667,-42.85527],[-73.65626,-42.85579],[-73.65617,-42.8561],[-73.65632,-42.85683],[-73.657,-42.85765],[-73.65713,-42.85812],[-73.657285,-42.858393],[-73.65734,-42.85849],[-73.65739,-42.8588],[-73.65724,-42.85898],[-73.65696,-42.85918],[-73.65521,-42.85987],[-73.654445,-42.859995],[-73.65428,-42.86019],[-73.65417,-42.86074],[-73.65406,-42.86101],[-73.65359,-42.86136],[-73.65295,-42.86158],[-73.65118,-42.86173],[-73.651089,-42.861726],[-73.65093,-42.86172],[-73.649,-42.86125],[-73.64831,-42.8612],[-73.64771,-42.86122],[-73.64684,-42.86147],[-73.64642,-42.86149],[-73.64607,-42.86139],[-73.64545,-42.86096],[-73.64522,-42.86066],[-73.64515,-42.86013],[-73.64506,-42.86012],[-73.64485,-42.86034],[-73.64472,-42.86061],[-73.64457,-42.86144],[-73.64441,-42.86179],[-73.64413,-42.86223],[-73.64363,-42.8628],[-73.64281,-42.86338],[-73.64253,-42.86364],[-73.642478,-42.863759],[-73.64231,-42.86415],[-73.64186,-42.86475],[-73.64171,-42.86531],[-73.64152,-42.86571],[-73.64129,-42.86593],[-73.64106,-42.86608],[-73.64066,-42.86623],[-73.63995,-42.8664],[-73.63966,-42.86664],[-73.63936,-42.86687],[-73.63924,-42.8671],[-73.63892,-42.86775],[-73.63828,-42.86941],[-73.63796,-42.87055],[-73.637952,-42.87074],[-73.63791,-42.87178],[-73.63804,-42.87268],[-73.63816,-42.87299],[-73.63943,-42.87487],[-73.63978,-42.87532],[-73.64007,-42.8756],[-73.64029,-42.87571],[-73.64034,-42.87575],[-73.64041,-42.87582],[-73.64059,-42.87632],[-73.6406,-42.87673],[-73.64046,-42.87712],[-73.64057,-42.8776],[-73.640542,-42.878541],[-73.64052,-42.87927],[-73.6394,-42.8812],[-73.63823,-42.8818],[-73.63755,-42.88208],[-73.637129,-42.882309],[-73.63687,-42.88245],[-73.63604,-42.88302],[-73.63577,-42.88351],[-73.63551,-42.88371],[-73.635397,-42.883776],[-73.630757,-42.884737],[-73.626803,-42.881387],[-73.628712,-42.876823],[-73.624758,-42.873473],[-73.626668,-42.868909],[-73.622715,-42.86556],[-73.624624,-42.860996],[-73.620672,-42.857647],[-73.614811,-42.858861],[-73.612901,-42.863424],[-73.60704,-42.864638],[-73.605129,-42.869201],[-73.599268,-42.870414],[-73.597357,-42.874976],[-73.601308,-42.878327],[-73.599396,-42.882889],[-73.593534,-42.884102],[-73.591622,-42.888664],[-73.587654,-42.889484],[-73.58682,-42.88934],[-73.58627,-42.88928],[-73.58575,-42.88916],[-73.58538,-42.88901],[-73.58446,-42.88849],[-73.58424,-42.88823],[-73.58407,-42.88789],[-73.58386,-42.88773],[-73.58308,-42.88738],[-73.58235,-42.88686],[-73.582017,-42.886027],[-73.58193,-42.88581],[-73.58149,-42.88554],[-73.58099,-42.88524],[-73.58074,-42.88503],[-73.58074,-42.88439],[-73.58081,-42.88419],[-73.58164,-42.8832],[-73.582,-42.88248],[-73.58218,-42.88121],[-73.58233,-42.88092],[-73.582411,-42.880852],[-73.58265,-42.88065],[-73.58373,-42.88001],[-73.58431,-42.87956],[-73.58458,-42.87925],[-73.58503,-42.8786],[-73.58533,-42.87832],[-73.58656,-42.87743],[-73.58741,-42.8769],[-73.58783,-42.87655],[-73.58898,-42.87537],[-73.58904,-42.875],[-73.58891,-42.87447],[-73.58905,-42.87418],[-73.589088,-42.874147],[-73.58926,-42.874],[-73.58957,-42.87393],[-73.59076,-42.87382],[-73.59123,-42.87366],[-73.59165,-42.87352],[-73.592,-42.8734],[-73.59207,-42.87325],[-73.59197,-42.87317],[-73.59103,-42.8731],[-73.59069,-42.8731],[-73.59044,-42.87311],[-73.58956,-42.87304],[-73.5891,-42.87292],[-73.58866,-42.87271],[-73.5883,-42.87272],[-73.58816,-42.87281],[-73.587972,-42.873201],[-73.5878,-42.87356],[-73.58758,-42.87443],[-73.58745,-42.87473],[-73.58717,-42.87514],[-73.58683,-42.87542],[-73.58613,-42.87583],[-73.58539,-42.87619],[-73.58456,-42.87653],[-73.5843,-42.87672],[-73.58418,-42.87699],[-73.58381,-42.87718],[-73.58301,-42.87715],[-73.58262,-42.87703],[-73.58239,-42.87676],[-73.58241,-42.87658],[-73.5825,-42.87638],[-73.58277,-42.87615],[-73.58348,-42.87576],[-73.58386,-42.87543],[-73.58394,-42.87504],[-73.58409,-42.8747],[-73.58427,-42.87444],[-73.58497,-42.8737],[-73.58556,-42.87329],[-73.585574,-42.873246],[-73.58576,-42.87266],[-73.58591,-42.87181],[-73.58612,-42.87131],[-73.5866,-42.87058],[-73.58699,-42.87015],[-73.58879,-42.86882],[-73.589316,-42.868611],[-73.58937,-42.86859],[-73.59004,-42.86833],[-73.59046,-42.86817],[-73.590656,-42.868028],[-73.5914,-42.86749],[-73.5926,-42.86683],[-73.59285,-42.86661],[-73.59313,-42.86626],[-73.59346,-42.86597],[-73.59354,-42.86579],[-73.59357,-42.86563],[-73.59361,-42.86541],[-73.59347,-42.8639],[-73.59339,-42.86363],[-73.59332,-42.86339],[-73.5931,-42.86292],[-73.59305,-42.86267],[-73.59323,-42.86238],[-73.59375,-42.86196],[-73.59504,-42.86108],[-73.595358,-42.860914],[-73.59571,-42.86073],[-73.59688,-42.86049],[-73.59772,-42.86051],[-73.59815,-42.86066],[-73.59842,-42.86083],[-73.59851,-42.86097],[-73.59854,-42.86119],[-73.59847,-42.861455],[-73.59839,-42.86159],[-73.59776,-42.86212],[-73.59758,-42.86233],[-73.597522,-42.862441],[-73.5973,-42.86286],[-73.59724,-42.86307],[-73.59727,-42.86321],[-73.59735,-42.86324],[-73.59743,-42.86323],[-73.59788,-42.86292],[-73.598578,-42.862222],[-73.59866,-42.86214],[-73.59934,-42.86051],[-73.60006,-42.85966],[-73.6006,-42.85849],[-73.60099,-42.85821],[-73.60163,-42.85817],[-73.60215,-42.85818],[-73.60222,-42.85814],[-73.6023,-42.8581],[-73.60236,-42.85789],[-73.60246,-42.85679],[-73.6026,-42.85658],[-73.60323,-42.85616],[-73.60327,-42.85595],[-73.6032,-42.85548],[-73.603277,-42.855265],[-73.60334,-42.85509],[-73.60397,-42.8544],[-73.60459,-42.85387],[-73.60453,-42.85287],[-73.60467,-42.85237],[-73.60513,-42.85171],[-73.60632,-42.85111],[-73.60728,-42.85082],[-73.60991,-42.85051],[-73.61006,-42.85039],[-73.6103,-42.84986],[-73.6105,-42.84968],[-73.610945,-42.849402],[-73.612769,-42.850949],[-73.61403,-42.850688],[-73.61461,-42.85102],[-73.61493,-42.85115],[-73.6153,-42.8513],[-73.61612,-42.851535],[-73.61672,-42.85164],[-73.61736,-42.85162],[-73.61841,-42.85174],[-73.6194,-42.85205],[-73.6204,-42.8526],[-73.62077,-42.85276],[-73.62108,-42.85285],[-73.6215,-42.85288],[-73.62221,-42.852769],[-73.62246,-42.85273],[-73.6241,-42.85258],[-73.62501,-42.85258],[-73.62531,-42.85258],[-73.62695,-42.85251],[-73.6287,-42.8523],[-73.628903,-42.85226],[-73.62976,-42.85209],[-73.63076,-42.85206],[-73.63299,-42.85179],[-73.63335,-42.85167],[-73.63353,-42.85154],[-73.63379,-42.85124],[-73.63414,-42.85063],[-73.63458,-42.85035],[-73.63482,-42.85029],[-73.63586,-42.84987],[-73.63602,-42.8498],[-73.63654,-42.84951],[-73.63753,-42.84921],[-73.63898,-42.84857],[-73.639103,-42.848541],[-73.64046,-42.84822],[-73.64121,-42.84798],[-73.64233,-42.84774],[-73.64239,-42.84768],[-73.64243,-42.84755],[-73.64236,-42.84722],[-73.64241,-42.84708],[-73.64277,-42.8471],[-73.64289,-42.84715],[-73.64365,-42.84727],[-73.64402,-42.84728],[-73.64487,-42.84709],[-73.6454,-42.84703],[-73.64614,-42.84682],[-73.64661,-42.84682],[-73.649,-42.84682],[-73.65005,-42.84698],[-73.65096,-42.84728],[-73.65118,-42.84716],[-73.65116,-42.84703],[-73.65094,-42.84686],[-73.6504,-42.84671],[-73.64893,-42.84652],[-73.64837,-42.84649],[-73.64711,-42.84627],[-73.646843,-42.846261],[-73.64651,-42.84625],[-73.64635,-42.84631],[-73.64573,-42.84639],[-73.64562,-42.84638],[-73.64523,-42.84634],[-73.64486,-42.84623],[-73.64434,-42.84586],[-73.64398,-42.84566],[-73.6432,-42.84548],[-73.64311,-42.84547],[-73.64228,-42.84505],[-73.64188,-42.84494],[-73.64031,-42.8448],[-73.6395,-42.84491],[-73.63762,-42.84542],[-73.636389,-42.845662],[-73.63472,-42.84599],[-73.63409,-42.84608],[-73.63347,-42.8461],[-73.63322,-42.84618],[-73.63264,-42.84624],[-73.63158,-42.84619],[-73.63085,-42.84623],[-73.63015,-42.84641],[-73.629535,-42.846615],[-73.6294,-42.84666],[-73.62853,-42.84696],[-73.62789,-42.84712],[-73.62751,-42.84714],[-73.62564,-42.84737],[-73.625,-42.8475],[-73.62475,-42.84749],[-73.62413,-42.84731],[-73.62334,-42.84678],[-73.62289,-42.84615],[-73.62262,-42.84556],[-73.622559,-42.844752],[-73.62255,-42.84463],[-73.62235,-42.84436],[-73.62187,-42.84415],[-73.62173,-42.84417],[-73.62156,-42.84426],[-73.62107,-42.84426],[-73.62094,-42.84415],[-73.62096,-42.84385],[-73.62107,-42.84348],[-73.62104,-42.84323],[-73.62093,-42.84299],[-73.62104,-42.84194],[-73.62119,-42.84179],[-73.62157,-42.8417],[-73.62164,-42.84165],[-73.62172,-42.8416],[-73.6218,-42.84131],[-73.62178,-42.84105],[-73.62167,-42.8409],[-73.62114,-42.84058],[-73.62077,-42.84024],[-73.62048,-42.83888],[-73.62013,-42.83801],[-73.62008,-42.83773],[-73.61995,-42.83741],[-73.61977,-42.83724],[-73.61919,-42.83716],[-73.618995,-42.837156],[-73.61865,-42.83715],[-73.61853,-42.83703],[-73.61864,-42.83627],[-73.61882,-42.83581],[-73.61881,-42.83567],[-73.61867,-42.83524],[-73.61849,-42.83503],[-73.61828,-42.83497],[-73.61812,-42.83502],[-73.6178,-42.83532],[-73.61763,-42.83541],[-73.61756,-42.835445],[-73.61713,-42.83546],[-73.61671,-42.83539],[-73.61617,-42.83515],[-73.61591,-42.83485],[-73.61583,-42.8342],[-73.61593,-42.83377],[-73.61635,-42.8331],[-73.61667,-42.83221],[-73.61687,-42.83147],[-73.61733,-42.83071],[-73.61738,-42.83051],[-73.61732,-42.83005],[-73.61758,-42.82966],[-73.61771,-42.82923],[-73.617691,-42.829092],[-73.622313,-42.828134],[-73.624221,-42.82357],[-73.620271,-42.820223],[-73.616669,-42.82097],[-73.61655,-42.82027],[-73.61656,-42.81968],[-73.61672,-42.81916],[-73.6167,-42.81846],[-73.61651,-42.81784],[-73.61673,-42.81749],[-73.61715,-42.817],[-73.61725,-42.81672],[-73.6172,-42.81658],[-73.6171,-42.81652],[-73.61693,-42.81653],[-73.61666,-42.8167],[-73.61646,-42.81668],[-73.61624,-42.8157],[-73.61597,-42.815],[-73.61589,-42.81493],[-73.61549,-42.81478],[-73.6154,-42.81469],[-73.61544,-42.81446],[-73.61559,-42.81432],[-73.61502,-42.81406],[-73.61469,-42.81429],[-73.61458,-42.8146],[-73.61459,-42.81479],[-73.61487,-42.81508],[-73.61499,-42.81538],[-73.61485,-42.81623],[-73.61497,-42.81717],[-73.61487,-42.8176],[-73.61419,-42.81846],[-73.61369,-42.81928],[-73.61366,-42.81933],[-73.61316,-42.82033],[-73.613144,-42.820361],[-73.610466,-42.81809],[-73.60461,-42.819305],[-73.602701,-42.823867],[-73.606649,-42.827215],[-73.60679,-42.827186],[-73.60681,-42.82723],[-73.6069,-42.82745],[-73.60705,-42.82753],[-73.60725,-42.82753],[-73.60784,-42.8275],[-73.6081,-42.82745],[-73.60827,-42.82743],[-73.60853,-42.82737],[-73.60898,-42.82738],[-73.60945,-42.82754],[-73.60998,-42.82768],[-73.61026,-42.8281],[-73.61074,-42.82866],[-73.61091,-42.82898],[-73.61096,-42.82936],[-73.61072,-42.82998],[-73.61012,-42.83102],[-73.60947,-42.83202],[-73.6094,-42.83216],[-73.60913,-42.83197],[-73.60897,-42.8319],[-73.60884,-42.8319],[-73.60858,-42.83195],[-73.60822,-42.83199],[-73.6078,-42.83194],[-73.60764,-42.83179],[-73.60757,-42.83154],[-73.60746,-42.83146],[-73.60733,-42.83146],[-73.60722,-42.83148],[-73.60707,-42.83156],[-73.60686,-42.8317],[-73.60671,-42.83185],[-73.60645,-42.83192],[-73.60591,-42.83194],[-73.60565,-42.83194],[-73.60535,-42.83211],[-73.60536,-42.83226],[-73.605449,-42.832379],[-73.60545,-42.83238],[-73.60553,-42.83247],[-73.6056,-42.83261],[-73.60563,-42.83285],[-73.60549,-42.83337],[-73.60556,-42.83356],[-73.6057,-42.8337],[-73.60598,-42.83376],[-73.60628,-42.83374],[-73.60657,-42.83363],[-73.60672,-42.83355],[-73.606786,-42.833512],[-73.60693,-42.83343],[-73.60716,-42.83336],[-73.60736,-42.83336],[-73.60749,-42.83341],[-73.60781,-42.83374],[-73.6084,-42.83437],[-73.608419,-42.834897],[-73.60842,-42.83492],[-73.6083,-42.8352],[-73.60798,-42.83574],[-73.60787,-42.83605],[-73.60789,-42.83632],[-73.608003,-42.836764],[-73.606779,-42.839688],[-73.608266,-42.840949],[-73.60808,-42.84153],[-73.60834,-42.84223],[-73.60847,-42.84274],[-73.6082,-42.84311],[-73.60805,-42.8432],[-73.60754,-42.84356],[-73.60712,-42.84379],[-73.60675,-42.84432],[-73.60604,-42.84457],[-73.60564,-42.84496],[-73.60559,-42.84527],[-73.60568,-42.84564],[-73.60606,-42.84643],[-73.60604,-42.84656],[-73.6058,-42.84685],[-73.6055,-42.84695],[-73.60507,-42.84701],[-73.60456,-42.84697],[-73.60427,-42.84702],[-73.6035,-42.84764],[-73.6024,-42.84831],[-73.602377,-42.848319],[-73.60206,-42.84844],[-73.60161,-42.84849],[-73.60147,-42.84837],[-73.60174,-42.84822],[-73.601961,-42.847967],[-73.60229,-42.84759],[-73.60233,-42.84748],[-73.60229,-42.84738],[-73.60215,-42.84731],[-73.60198,-42.84732],[-73.6015,-42.84757],[-73.601498,-42.847574],[-73.60139,-42.84775],[-73.60127,-42.84781],[-73.60108,-42.84801],[-73.60035,-42.849],[-73.60003,-42.85068],[-73.59985,-42.85119],[-73.59929,-42.85207],[-73.599,-42.8528],[-73.59875,-42.853],[-73.59867,-42.85301],[-73.59838,-42.85278],[-73.5983,-42.85283],[-73.59823,-42.85288],[-73.5982,-42.85324],[-73.598417,-42.853921],[-73.59863,-42.85459],[-73.59864,-42.85479],[-73.59856,-42.85493],[-73.59761,-42.85575],[-73.59712,-42.85627],[-73.59688,-42.85641],[-73.59632,-42.85661],[-73.59598,-42.85685],[-73.59566,-42.85738],[-73.59549,-42.85756],[-73.59503,-42.85787],[-73.59486,-42.85805],[-73.5948,-42.85811],[-73.5945,-42.85865],[-73.59434,-42.85884],[-73.59372,-42.85908],[-73.59333,-42.859195],[-73.59155,-42.85972],[-73.59105,-42.85992],[-73.59099,-42.86003],[-73.59082,-42.86021],[-73.59067,-42.86037],[-73.59044,-42.86087],[-73.5902,-42.86122],[-73.5893,-42.86219],[-73.58905,-42.86279],[-73.58899,-42.86359],[-73.58915,-42.86371],[-73.58993,-42.86402],[-73.59021,-42.8642],[-73.59035,-42.86435],[-73.59043,-42.86466],[-73.59034,-42.86477],[-73.5898,-42.86504],[-73.58954,-42.86523],[-73.58901,-42.86597],[-73.58802,-42.86659],[-73.587724,-42.866806],[-73.58743,-42.86702],[-73.58646,-42.86739],[-73.58585,-42.86791],[-73.58542,-42.86815],[-73.58474,-42.86826],[-73.584725,-42.86833],[-73.58482,-42.86884],[-73.58467,-42.86915],[-73.58396,-42.86966],[-73.5834,-42.87018],[-73.58264,-42.87076],[-73.58248,-42.87107],[-73.58218,-42.87193],[-73.58126,-42.8726],[-73.580864,-42.873354],[-73.58085,-42.87338],[-73.58067,-42.87404],[-73.58038,-42.87444],[-73.58018,-42.8746],[-73.57932,-42.87505],[-73.5789,-42.87536],[-73.578,-42.87588],[-73.57789,-42.87598],[-73.57771,-42.87645],[-73.57773,-42.87693],[-73.57801,-42.87741],[-73.57833,-42.87779],[-73.57833,-42.87815],[-73.57782,-42.87865],[-73.577165,-42.879151],[-73.57714,-42.87917],[-73.57667,-42.87938],[-73.57636,-42.87962],[-73.57608,-42.88014],[-73.576,-42.88039],[-73.57592,-42.88113],[-73.57598,-42.88192],[-73.57592,-42.8821],[-73.57577,-42.88227],[-73.57564,-42.88234],[-73.57524,-42.88281],[-73.57465,-42.88368],[-73.57448,-42.88403],[-73.57419,-42.88437],[-73.57406,-42.8846],[-73.57364,-42.8853],[-73.573509,-42.885668],[-73.57327,-42.88634],[-73.57321,-42.8864],[-73.57316,-42.88646],[-73.57269,-42.8867],[-73.57242,-42.88677],[-73.5723,-42.88685],[-73.57198,-42.88697],[-73.5718,-42.88703],[-73.57142,-42.88728],[-73.57124,-42.88749],[-73.5711,-42.88785],[-73.57113,-42.88827],[-73.57106,-42.88839],[-73.57073,-42.88848],[-73.57008,-42.88849],[-73.56796,-42.88871],[-73.56726,-42.88892],[-73.56582,-42.88922]],[[-73.577612,-42.858226],[-73.583471,-42.857014],[-73.585383,-42.852452],[-73.581435,-42.849103],[-73.583347,-42.844541],[-73.589205,-42.843329],[-73.591115,-42.838767],[-73.596973,-42.837554],[-73.598883,-42.832991],[-73.594935,-42.829643],[-73.589079,-42.830856],[-73.585133,-42.827508],[-73.587043,-42.822946],[-73.583098,-42.819598],[-73.577242,-42.820811],[-73.573298,-42.817463],[-73.575209,-42.812902],[-73.581063,-42.811689],[-73.582973,-42.807128],[-73.579029,-42.80378],[-73.573176,-42.804993],[-73.571266,-42.809554],[-73.565412,-42.810766],[-73.56147,-42.807418],[-73.555617,-42.80863],[-73.553706,-42.81319],[-73.547852,-42.814402],[-73.54594,-42.818962],[-73.540087,-42.820172],[-73.538173,-42.824732],[-73.542114,-42.828081],[-73.540201,-42.832641],[-73.544143,-42.83599],[-73.542229,-42.84055],[-73.546172,-42.8439],[-73.552028,-42.842689],[-73.555972,-42.846039],[-73.554059,-42.850599],[-73.558003,-42.853949],[-73.55609,-42.85851],[-73.560035,-42.86186],[-73.558122,-42.866421],[-73.562068,-42.869772],[-73.567928,-42.868561],[-73.56984,-42.863999],[-73.5757,-42.862788],[-73.577612,-42.858226]],[[-73.491141,-42.809474],[-73.489225,-42.814031],[-73.483375,-42.815239],[-73.481458,-42.819796],[-73.485393,-42.823146],[-73.491244,-42.821938],[-73.49316,-42.817381],[-73.499011,-42.816173],[-73.500927,-42.811615],[-73.496991,-42.808266],[-73.491141,-42.809474]],[[-73.590357,-42.763946],[-73.586416,-42.760601],[-73.580567,-42.761815],[-73.578659,-42.766376],[-73.5826,-42.769722],[-73.58845,-42.768507],[-73.590357,-42.763946]],[[-73.574964,-42.787964],[-73.576873,-42.783404],[-73.572932,-42.780057],[-73.567082,-42.78127],[-73.565172,-42.78583],[-73.559321,-42.787043],[-73.55741,-42.791603],[-73.561351,-42.79495],[-73.55944,-42.79951],[-73.563381,-42.802858],[-73.569234,-42.801646],[-73.571144,-42.797085],[-73.576996,-42.795872],[-73.580939,-42.799219],[-73.586792,-42.798005],[-73.588701,-42.793444],[-73.584758,-42.790097],[-73.578906,-42.791311],[-73.574964,-42.787964]],[[-73.594426,-42.779761],[-73.592518,-42.784322],[-73.596462,-42.787669],[-73.602314,-42.786454],[-73.604222,-42.781892],[-73.600278,-42.778546],[-73.594426,-42.779761]],[[-73.565052,-42.773363],[-73.561112,-42.770017],[-73.555264,-42.77123],[-73.553353,-42.775789],[-73.547504,-42.777002],[-73.545593,-42.781561],[-73.539744,-42.782773],[-73.537832,-42.787332],[-73.54177,-42.790679],[-73.539858,-42.795238],[-73.543797,-42.798586],[-73.549648,-42.797375],[-73.55156,-42.792815],[-73.54762,-42.789468],[-73.549532,-42.784908],[-73.555381,-42.783696],[-73.557292,-42.779136],[-73.563142,-42.777923],[-73.565052,-42.773363]]]},"properties":{"comuna":"Queilén","mancha_id":"10207-88ceacc033fffff","clase":"Medio","nivel_medio":1.947,"nivel_medio_min":1.507,"nivel_medio_max":2.493,"pct_alto":14.7,"n_hexagonos":269,"area_ha":15719.76}},{"type":"Feature","geometry":{"type":"Polygon","coordinates":[[[-73.56393,-42.91615],[-73.564031,-42.916134],[-73.56473,-42.91602],[-73.56571,-42.91598],[-73.56648,-42.9159],[-73.56801,-42.91558],[-73.56932,-42.91522],[-73.57031,-42.91489],[-73.57092,-42.91464],[-73.571094,-42.914549],[-73.5723,-42.91392],[-73.57271,-42.91376],[-73.57329,-42.91364],[-73.57399,-42.91364],[-73.5743,-42.9137],[-73.57615,-42.91432],[-73.57649,-42.91436],[-73.57765,-42.91467],[-73.57849,-42.91507],[-73.57906,-42.91545],[-73.57926,-42.91569],[-73.579426,-42.916188],[-73.57951,-42.91644],[-73.57969,-42.91681],[-73.57981,-42.91725],[-73.57982,-42.91749],[-73.57966,-42.91788],[-73.57912,-42.9187],[-73.57899,-42.91929],[-73.57898,-42.91963],[-73.57911,-42.92032],[-73.57929,-42.92068],[-73.58015,-42.9219],[-73.58048,-42.92259],[-73.58069,-42.92321],[-73.58095,-42.92376],[-73.581102,-42.924177],[-73.5813,-42.92472],[-73.58179,-42.92523],[-73.5825,-42.92574],[-73.58343,-42.92618],[-73.58396,-42.92631],[-73.58445,-42.92649],[-73.585427,-42.926707],[-73.586135,-42.927307],[-73.587122,-42.927103],[-73.5878,-42.92724],[-73.58828,-42.9273],[-73.58865,-42.9273],[-73.58889,-42.92723],[-73.58936,-42.92723],[-73.58997,-42.92709],[-73.59064,-42.92686],[-73.59093,-42.92675],[-73.5916,-42.92647],[-73.59233,-42.92639],[-73.592344,-42.926386],[-73.59265,-42.92631],[-73.59316,-42.92612],[-73.59415,-42.926],[-73.59447,-42.92591],[-73.59513,-42.92584],[-73.59551,-42.92572],[-73.59604,-42.92526],[-73.59643,-42.9251],[-73.59708,-42.92502],[-73.59746,-42.92491],[-73.5977,-42.92478],[-73.59804,-42.92468],[-73.59858,-42.92461],[-73.59972,-42.92481],[-73.60027,-42.92504],[-73.60114,-42.92534],[-73.60242,-42.92591],[-73.602699,-42.926149],[-73.60297,-42.92638],[-73.60335,-42.9267],[-73.60348,-42.92686],[-73.60395,-42.92785],[-73.60445,-42.92833],[-73.60485,-42.92891],[-73.60503,-42.92946],[-73.605002,-42.930931],[-73.605,-42.93104],[-73.60497,-42.93229],[-73.60489,-42.93281],[-73.60468,-42.93314],[-73.60439,-42.93335],[-73.60392,-42.93348],[-73.60382,-42.93351],[-73.60363,-42.93363],[-73.60328,-42.93397],[-73.60296,-42.93409],[-73.60161,-42.93424],[-73.59976,-42.93456],[-73.59858,-42.93469],[-73.59751,-42.93468],[-73.59651,-42.93473],[-73.59494,-42.93476],[-73.594926,-42.934761],[-73.594043,-42.934012],[-73.590332,-42.934778],[-73.59013,-42.93468],[-73.58968,-42.93434],[-73.58944,-42.93416],[-73.58917,-42.93403],[-73.58783,-42.93397],[-73.58768,-42.93394],[-73.58721,-42.93386],[-73.58679,-42.93373],[-73.5866,-42.93361],[-73.58614,-42.93304],[-73.58592,-42.93275],[-73.5858,-42.93258],[-73.5855,-42.93218],[-73.58532,-42.93181],[-73.58533,-42.93147],[-73.58537,-42.93116],[-73.58546,-42.93086],[-73.58542,-42.93068],[-73.58528,-42.93061],[-73.58516,-42.9306],[-73.585,-42.93074],[-73.58494,-42.93101],[-73.5847,-42.93115],[-73.584512,-42.931176],[-73.58413,-42.93123],[-73.58368,-42.93116],[-73.58346,-42.9312],[-73.58335,-42.93126],[-73.58339,-42.93134],[-73.58357,-42.93141],[-73.584363,-42.931531],[-73.58449,-42.93155],[-73.58461,-42.93161],[-73.58486,-42.93173],[-73.58517,-42.93207],[-73.58547,-42.93251],[-73.58555,-42.93293],[-73.58553,-42.93298],[-73.58544,-42.93321],[-73.58531,-42.93332],[-73.58518,-42.93344],[-73.5848,-42.9336],[-73.58381,-42.93384],[-73.58332,-42.9339],[-73.58229,-42.93392],[-73.58146,-42.93374],[-73.58098,-42.93366],[-73.58049,-42.93359],[-73.58017,-42.93358],[-73.58001,-42.93362],[-73.57947,-42.93396],[-73.57842,-42.93433],[-73.577641,-42.934776],[-73.5776,-42.9348],[-73.57705,-42.93506],[-73.5767,-42.93529],[-73.57651,-42.93556],[-73.57611,-42.93599],[-73.5755,-42.93642],[-73.575,-42.93704],[-73.57465,-42.93758],[-73.5744,-42.93806],[-73.574399,-42.938063],[-73.57057,-42.938852],[-73.568655,-42.943415],[-73.571493,-42.945822],[-73.57173,-42.94616],[-73.57217,-42.94659],[-73.572588,-42.946815],[-73.57297,-42.94702],[-73.57365,-42.94768],[-73.57392,-42.94807],[-73.57416,-42.94877],[-73.57424,-42.94924],[-73.57399,-42.95044],[-73.57412,-42.95148],[-73.57371,-42.95277],[-73.573295,-42.953539],[-73.57323,-42.95366],[-73.57304,-42.95444],[-73.57229,-42.95594],[-73.57185,-42.95671],[-73.57141,-42.95736],[-73.57042,-42.95845],[-73.57015,-42.95888],[-73.56998,-42.95903],[-73.5698,-42.95909],[-73.56943,-42.95909],[-73.56805,-42.95885],[-73.56799,-42.95883],[-73.56763,-42.95869],[-73.56708,-42.95839],[-73.5668,-42.95808],[-73.56669,-42.95771],[-73.56665,-42.9574],[-73.56654,-42.95709],[-73.5658,-42.95639],[-73.56559,-42.95581],[-73.56547,-42.95565],[-73.56498,-42.95524],[-73.56462,-42.95506],[-73.56426,-42.95487],[-73.563932,-42.95466],[-73.56334,-42.95428],[-73.56277,-42.95397],[-73.56219,-42.95372],[-73.56151,-42.95354],[-73.56092,-42.95333],[-73.56079,-42.95328],[-73.55946,-42.95251],[-73.55834,-42.95228],[-73.55772,-42.95205],[-73.55677,-42.95151],[-73.5566,-42.95135],[-73.55639,-42.95113],[-73.55599,-42.95039],[-73.555969,-42.950195],[-73.55589,-42.94948],[-73.55592,-42.94858],[-73.55568,-42.94833],[-73.55455,-42.94761],[-73.55412,-42.94744],[-73.55288,-42.9467],[-73.55249,-42.94653],[-73.55196,-42.94618],[-73.551495,-42.945983],[-73.55144,-42.94596],[-73.55076,-42.94576],[-73.55009,-42.94548],[-73.54934,-42.94495],[-73.54872,-42.94469],[-73.54818,-42.94451],[-73.5469,-42.94431],[-73.54631,-42.94422],[-73.54595,-42.94416],[-73.54562,-42.94411],[-73.54461,-42.94392],[-73.54454,-42.94391],[-73.543645,-42.94381],[-73.54303,-42.94379],[-73.541767,-42.943624],[-73.54151,-42.94359],[-73.54102,-42.94356],[-73.54047,-42.94346],[-73.53955,-42.94341],[-73.53914,-42.94347],[-73.5388,-42.94364],[-73.53851,-42.94395],[-73.5384,-42.94408],[-73.53794,-42.94445],[-73.53708,-42.94469],[-73.53682,-42.94471],[-73.53632,-42.94477],[-73.53574,-42.94475],[-73.53478,-42.94464],[-73.533458,-42.944481],[-73.531417,-42.942747],[-73.52555,-42.943954],[-73.524723,-42.94592],[-73.52404,-42.94592],[-73.52382,-42.94599],[-73.5236,-42.94605],[-73.52334,-42.94624],[-73.52309,-42.94655],[-73.5229,-42.94696],[-73.52286,-42.9478],[-73.52298,-42.94833],[-73.522988,-42.948647],[-73.517765,-42.949721],[-73.515845,-42.954281],[-73.519793,-42.957636],[-73.520184,-42.957556],[-73.520115,-42.95783],[-73.52021,-42.95893],[-73.52019,-42.95917],[-73.52007,-42.95959],[-73.52008,-42.95978],[-73.52027,-42.96025],[-73.52045,-42.96111],[-73.5209,-42.96221],[-73.52137,-42.96274],[-73.52251,-42.96359],[-73.52304,-42.96411],[-73.52318,-42.96454],[-73.52323,-42.96504],[-73.523177,-42.965273],[-73.52312,-42.96552],[-73.52271,-42.96623],[-73.52266,-42.96633],[-73.52239,-42.96691],[-73.52221,-42.96752],[-73.52193,-42.96776],[-73.52173,-42.96782],[-73.52133,-42.96772],[-73.52097,-42.967578],[-73.5209,-42.96755],[-73.52067,-42.96754],[-73.52052,-42.9676],[-73.51997,-42.96793],[-73.51986,-42.96813],[-73.51983,-42.96861],[-73.52011,-42.96935],[-73.52011,-42.969621],[-73.52011,-42.96964],[-73.52002,-42.96992],[-73.519931,-42.970046],[-73.5199,-42.97009],[-73.519861,-42.970121],[-73.514034,-42.971317],[-73.512481,-42.975006],[-73.51238,-42.97509],[-73.512314,-42.975403],[-73.512114,-42.975878],[-73.510259,-42.976259],[-73.5097,-42.97609],[-73.50899,-42.97613],[-73.50874,-42.97614],[-73.50778,-42.97629],[-73.50736,-42.97629],[-73.50711,-42.97621],[-73.50649,-42.97584],[-73.50639,-42.97575],[-73.50612,-42.97552],[-73.50543,-42.9751],[-73.50514,-42.97484],[-73.50486,-42.97375],[-73.50461,-42.97328],[-73.50427,-42.97218],[-73.50406,-42.9719],[-73.50383,-42.97173],[-73.503215,-42.971546],[-73.50273,-42.9714],[-73.50233,-42.97129],[-73.50171,-42.97106],[-73.50077,-42.97084],[-73.50052,-42.97074],[-73.5,-42.970634],[-73.49916,-42.97058],[-73.49866,-42.97068],[-73.49833,-42.97084],[-73.49799,-42.97113],[-73.49751,-42.97164],[-73.49711,-42.97222],[-73.49669,-42.97259],[-73.49625,-42.97269],[-73.49564,-42.97282],[-73.49502,-42.97295],[-73.4947,-42.97308],[-73.494423,-42.973226],[-73.494,-42.97345],[-73.49341,-42.97367],[-73.49273,-42.97388],[-73.49258,-42.974],[-73.49214,-42.97456],[-73.49154,-42.97464],[-73.49133,-42.97465],[-73.49014,-42.97472],[-73.48953,-42.97487],[-73.48894,-42.97536],[-73.48827,-42.9761],[-73.4879,-42.97681],[-73.48777,-42.97721],[-73.48716,-42.97792],[-73.48689,-42.97815],[-73.486196,-42.978619],[-73.48615,-42.97865],[-73.48493,-42.9796],[-73.48453,-42.97982],[-73.48419,-42.97987],[-73.48236,-42.97987],[-73.48059,-42.97974],[-73.47927,-42.9797],[-73.47872,-42.97978],[-73.4783,-42.97989],[-73.478249,-42.979902],[-73.47787,-42.97999],[-73.47758,-42.98],[-73.47728,-42.98001],[-73.47698,-42.97989],[-73.47668,-42.97969],[-73.47647,-42.9796],[-73.47498,-42.97949],[-73.47339,-42.97954],[-73.47162,-42.97974],[-73.47037,-42.98004],[-73.47011,-42.98017],[-73.46979,-42.9804],[-73.46962,-42.98062],[-73.46948,-42.98096],[-73.46923,-42.98121],[-73.46888,-42.98154],[-73.46854,-42.9818],[-73.468342,-42.982015],[-73.4683,-42.98206],[-73.46796,-42.98265],[-73.46772,-42.98296],[-73.46723,-42.98327],[-73.46677,-42.98348],[-73.46667,-42.98348],[-73.46656,-42.98344],[-73.46657,-42.98329],[-73.4665,-42.98328],[-73.46626,-42.98351],[-73.46628,-42.9838],[-73.46622,-42.98385],[-73.46594,-42.98387],[-73.46567,-42.98379],[-73.46543,-42.98376],[-73.46516,-42.98383],[-73.46422,-42.98449],[-73.46339,-42.98525],[-73.46295,-42.98584],[-73.46256,-42.98658],[-73.46247,-42.98686],[-73.46235,-42.98761],[-73.46241,-42.98921],[-73.462442,-42.989386],[-73.46259,-42.9902],[-73.46279,-42.99067],[-73.462901,-42.990862],[-73.46156,-42.99404],[-73.46145,-42.99406],[-73.46094,-42.99409],[-73.45969,-42.9941],[-73.45609,-42.9938],[-73.45494,-42.99381],[-73.452799,-42.993572],[-73.451501,-42.992467],[-73.453425,-42.987908],[-73.449482,-42.984552],[-73.451407,-42.979994],[-73.447465,-42.976637],[-73.441598,-42.977838],[-73.437657,-42.974481],[-73.439582,-42.969924],[-73.435641,-42.966568],[-73.429776,-42.967768],[-73.427851,-42.972325],[-73.421985,-42.973525],[-73.418047,-42.970168],[-73.412182,-42.971368],[-73.408244,-42.968011],[-73.40238,-42.96921],[-73.400453,-42.973765],[-73.394589,-42.974964],[-73.39266,-42.979519],[-73.396597,-42.982877],[-73.402462,-42.981679],[-73.40439,-42.977123],[-73.410255,-42.975924],[-73.414193,-42.979281],[-73.412266,-42.983837],[-73.416205,-42.987195],[-73.414278,-42.991751],[-73.418218,-42.995109],[-73.424086,-42.99391],[-73.426222,-42.99573],[-73.42483,-42.9961],[-73.42407,-42.99624],[-73.42248,-42.99683],[-73.42102,-42.99713],[-73.41942,-42.99739],[-73.41727,-42.99759],[-73.417167,-42.997593],[-73.415,-42.99766],[-73.41142,-42.99794],[-73.40778,-42.99845],[-73.407603,-42.998461],[-73.40711,-42.99849],[-73.40634,-42.99861],[-73.40517,-42.99869],[-73.40327,-42.99889],[-73.40137,-42.9991],[-73.400392,-42.999233],[-73.39983,-42.99931],[-73.39762,-42.99969],[-73.396208,-43.0],[-73.39516,-43.00023],[-73.3933,-43.00071],[-73.39279,-43.00078],[-73.39202,-43.00095],[-73.39048,-43.0012],[-73.38935,-43.00149],[-73.389342,-43.001492],[-73.388882,-43.001099],[-73.383015,-43.002296],[-73.382652,-43.003153],[-73.38121,-43.00358],[-73.38085,-43.00371],[-73.38049,-43.00395],[-73.38045,-43.004],[-73.38041,-43.00406],[-73.37923,-43.0044],[-73.3791,-43.00443],[-73.3785,-43.00448],[-73.37708,-43.00471],[-73.37614,-43.0049],[-73.37502,-43.00517],[-73.37377,-43.0056],[-73.372682,-43.005884],[-73.37266,-43.00589],[-73.37158,-43.00621],[-73.37068,-43.00653],[-73.36999,-43.00687],[-73.36772,-43.00752],[-73.36649,-43.0078],[-73.36516,-43.00803],[-73.364464,-43.008127],[-73.36309,-43.00832],[-73.36193,-43.00858],[-73.35958,-43.0091],[-73.35914,-43.00928],[-73.35871,-43.00941],[-73.35822,-43.00947],[-73.35766,-43.00962],[-73.355856,-43.010131],[-73.353683,-43.008275],[-73.355614,-43.003721],[-73.36148,-43.002526],[-73.365415,-43.005885],[-73.371282,-43.004689],[-73.373212,-43.000134],[-73.379078,-42.998938],[-73.381008,-42.994383],[-73.386874,-42.993186],[-73.388803,-42.98863],[-73.384867,-42.985272],[-73.386796,-42.980717],[-73.38286,-42.977359],[-73.376996,-42.978557],[-73.376942,-42.97851],[-73.37995,-42.97697],[-73.38071,-42.97667],[-73.3823,-42.97613],[-73.383594,-42.975627],[-73.38423,-42.97538],[-73.38481,-42.97506],[-73.38564,-42.97445],[-73.38611,-42.97418],[-73.38731,-42.97374],[-73.38849,-42.97335],[-73.38974,-42.97282],[-73.39089,-42.9724],[-73.391319,-42.972175],[-73.39171,-42.97197],[-73.3935,-42.97127],[-73.39518,-42.97043],[-73.39666,-42.96984],[-73.39785,-42.96949],[-73.40064,-42.96824],[-73.401053,-42.968077],[-73.40353,-42.9671],[-73.40568,-42.96636],[-73.40669,-42.96582],[-73.40734,-42.96554],[-73.409614,-42.964773],[-73.4098,-42.96471],[-73.41166,-42.96403],[-73.41295,-42.96363],[-73.41568,-42.96253],[-73.41617,-42.962371],[-73.41774,-42.96186],[-73.42108,-42.96022],[-73.42346,-42.9592],[-73.42397,-42.95903],[-73.426169,-42.958497],[-73.427763,-42.959855],[-73.433627,-42.958654],[-73.435464,-42.954306],[-73.4361,-42.95403],[-73.436307,-42.953943],[-73.441415,-42.952896],[-73.441848,-42.951871],[-73.44357,-42.95121],[-73.44408,-42.95105],[-73.44537,-42.95074],[-73.44663,-42.95034],[-73.44788,-42.94993],[-73.44946,-42.94962],[-73.45162,-42.94931],[-73.451732,-42.94929],[-73.45374,-42.94894],[-73.45721,-42.948],[-73.4587,-42.94748],[-73.460008,-42.946918],[-73.459007,-42.94929],[-73.462949,-42.952645],[-73.468814,-42.951443],[-73.470736,-42.946884],[-73.467492,-42.944123],[-73.46769,-42.94405],[-73.46887,-42.94341],[-73.46995,-42.94274],[-73.47109,-42.94221],[-73.4718,-42.94176],[-73.47291,-42.94114],[-73.47451,-42.94034],[-73.476253,-42.939191],[-73.47633,-42.93914],[-73.47753,-42.93841],[-73.47911,-42.9376],[-73.4849,-42.93426],[-73.484965,-42.934217],[-73.48668,-42.93309],[-73.48722,-42.93266],[-73.4875,-42.93238],[-73.488,-42.93211],[-73.4884,-42.93177],[-73.48864,-42.93163],[-73.48918,-42.93143],[-73.48977,-42.93134],[-73.49044,-42.93114],[-73.49127,-42.93071],[-73.49233,-42.93026],[-73.493966,-42.929489],[-73.49443,-42.92927],[-73.49633,-42.92852],[-73.49796,-42.9282],[-73.49928,-42.92788],[-73.49973,-42.92777],[-73.5,-42.927747],[-73.500234,-42.927727],[-73.50079,-42.92768],[-73.50149,-42.92753],[-73.50211,-42.92728],[-73.50273,-42.92702],[-73.50302,-42.92708],[-73.50371,-42.92691],[-73.504,-42.92696],[-73.50422,-42.92696],[-73.50449,-42.92697],[-73.5049,-42.92693],[-73.50545,-42.92673],[-73.50614,-42.92635],[-73.50666,-42.92607],[-73.50701,-42.92583],[-73.50766,-42.92519],[-73.50847,-42.92453],[-73.50873,-42.92416],[-73.509127,-42.923807],[-73.50918,-42.92376],[-73.51241,-42.92127],[-73.5136,-42.91996],[-73.51407,-42.91958],[-73.51463,-42.91925],[-73.51543,-42.91857],[-73.51631,-42.91807],[-73.51681,-42.917956],[-73.5185,-42.91757],[-73.51904,-42.91721],[-73.5193,-42.91692],[-73.51967,-42.91677],[-73.51999,-42.91672],[-73.52018,-42.91676],[-73.52056,-42.91673],[-73.52119,-42.91677],[-73.52237,-42.91671],[-73.52335,-42.9166],[-73.52374,-42.91651],[-73.52412,-42.91648],[-73.52431,-42.91641],[-73.52472,-42.91634],[-73.52635,-42.91592],[-73.526624,-42.915922],[-73.52784,-42.91593],[-73.5288,-42.91579],[-73.52956,-42.91579],[-73.52997,-42.91573],[-73.53112,-42.91569],[-73.53239,-42.91547],[-73.53274,-42.91535],[-73.53408,-42.91514],[-73.5344,-42.91517],[-73.53474,-42.91526],[-73.53584,-42.91565],[-73.53609,-42.91598],[-73.53641,-42.91701],[-73.53656,-42.91723],[-73.53663,-42.91733],[-73.53672,-42.917389],[-73.53695,-42.91754],[-73.53742,-42.91771],[-73.53797,-42.9178],[-73.53853,-42.91779],[-73.53908,-42.91778],[-73.53966,-42.91772],[-73.54048,-42.91769],[-73.54366,-42.91769],[-73.54439,-42.91762],[-73.54483,-42.91762],[-73.545442,-42.917524],[-73.546868,-42.918735],[-73.552732,-42.917526],[-73.55275,-42.917483],[-73.55377,-42.91737],[-73.55454,-42.91718],[-73.55502,-42.91712],[-73.55603,-42.91706],[-73.55653,-42.91697],[-73.55687,-42.91704],[-73.55791,-42.91685],[-73.55855,-42.91681],[-73.55953,-42.91662],[-73.56037,-42.91629],[-73.56114,-42.91617],[-73.56393,-42.91615]],[[-73.558716,-42.928793],[-73.554766,-42.92544],[-73.5489,-42.926649],[-73.546984,-42.93121],[-73.550933,-42.934563],[-73.5568,-42.933355],[-73.558716,-42.928793]],[[-73.502191,-42.961252],[-73.498244,-42.957897],[-73.492378,-42.959101],[-73.488432,-42.955746],[-73.482566,-42.95695],[-73.480644,-42.961509],[-73.474778,-42.962712],[-73.470834,-42.959356],[-73.464968,-42.960559],[-73.461026,-42.957204],[-73.455161,-42.958406],[-73.453237,-42.962964],[-73.457179,-42.96632],[-73.463045,-42.965117],[-73.466989,-42.968473],[-73.472855,-42.967271],[-73.4768,-42.970627],[-73.482667,-42.969423],[-73.484589,-42.964864],[-73.490456,-42.96366],[-73.494402,-42.967016],[-73.50027,-42.965811],[-73.502191,-42.961252]],[[-73.507951,-42.947572],[-73.513817,-42.946366],[-73.515737,-42.941806],[-73.51179,-42.938452],[-73.505925,-42.939658],[-73.504005,-42.944218],[-73.507951,-42.947572]]]},"properties":{"comuna":"Queilén","mancha_id":"10207-88ceacc001fffff","clase":"Medio","nivel_medio":1.827,"nivel_medio_min":1.503,"nivel_medio_max":2.481,"pct_alto":8.7,"n_hexagonos":106,"area_ha":5462.1}},{"type":"Feature","geometry":{"type":"Polygon","coordinates":[[[-73.549532,-42.784908],[-73.54762,-42.789468],[-73.54177,-42.790679],[-73.537832,-42.787332],[-73.539744,-42.782773],[-73.545593,-42.781561],[-73.549532,-42.784908]]]},"properties":{"comuna":"Queilén","mancha_id":"10207-88ceaccf3bfffff","clase":"Alto","nivel_medio":2.504,"nivel_medio_min":2.504,"nivel_medio_max":2.504,"pct_alto":28.5,"n_hexagonos":1,"area_ha":66.41}},{"type":"Feature","geometry":{"type":"Polygon","coordinates":[[[-73.624221,-42.82357],[-73.622313,-42.828134],[-73.617691,-42.829092],[-73.61765,-42.8288],[-73.61745,-42.82843],[-73.61712,-42.82819],[-73.61636,-42.82783],[-73.61609,-42.82755],[-73.61573,-42.82684],[-73.61555,-42.82635],[-73.61533,-42.8255],[-73.61535,-42.82521],[-73.61582,-42.82474],[-73.61617,-42.82426],[-73.61641,-42.82382],[-73.61659,-42.82331],[-73.61663,-42.82319],[-73.61656,-42.82258],[-73.61667,-42.82198],[-73.61671,-42.82121],[-73.616669,-42.82097],[-73.620271,-42.820223],[-73.624221,-42.82357]]]},"properties":{"comuna":"Queilén","mancha_id":"10207-88ceacce57fffff","clase":"Alto","nivel_medio":2.52,"nivel_medio_min":2.52,"nivel_medio_max":2.52,"pct_alto":37.4,"n_hexagonos":1,"area_ha":48.67}},{"type":"Feature","geometry":{"type":"Polygon","coordinates":[[[-73.60461,-42.819305],[-73.610466,-42.81809],[-73.613144,-42.820361],[-73.61265,-42.82134],[-73.61238,-42.82219],[-73.61222,-42.82253],[-73.61143,-42.82328],[-73.61127,-42.82321],[-73.61102,-42.82309],[-73.61045,-42.82299],[-73.61017,-42.82299],[-73.61004,-42.82306],[-73.60977,-42.82341],[-73.60948,-42.82379],[-73.60937,-42.82399],[-73.60937,-42.82406],[-73.60936,-42.82413],[-73.60927,-42.82423],[-73.60914,-42.82435],[-73.60898,-42.8245],[-73.6088,-42.82466],[-73.60874,-42.82483],[-73.60879,-42.82508],[-73.60897,-42.82515],[-73.60934,-42.82501],[-73.60953,-42.82478],[-73.60956,-42.82463],[-73.60956,-42.82435],[-73.6097,-42.82417],[-73.60985,-42.82405],[-73.61,-42.82396],[-73.6102,-42.82388],[-73.61048,-42.82386],[-73.61063,-42.82388],[-73.61094,-42.82408],[-73.61065,-42.82501],[-73.61036,-42.82549],[-73.60961,-42.82593],[-73.60922,-42.82611],[-73.60895,-42.82617],[-73.60871,-42.82621],[-73.60856,-42.82617],[-73.60821,-42.82618],[-73.6075,-42.82623],[-73.60713,-42.82631],[-73.60683,-42.82647],[-73.60664,-42.82663],[-73.6066,-42.82684],[-73.60672,-42.82703],[-73.60679,-42.827186],[-73.606649,-42.827215],[-73.602701,-42.823867],[-73.60461,-42.819305]]]},"properties":{"comuna":"Queilén","mancha_id":"10207-88ceacce0bfffff","clase":"Alto","nivel_medio":2.736,"nivel_medio_min":2.736,"nivel_medio_max":2.736,"pct_alto":45.4,"n_hexagonos":1,"area_ha":52.19}},{"type":"Feature","geometry":{"type":"Polygon","coordinates":[[[-73.616981,-42.745916],[-73.613624,-42.746615],[-73.61299,-42.746077],[-73.61306,-42.746],[-73.61307,-42.74594],[-73.61384,-42.74525],[-73.61418,-42.745],[-73.61452,-42.74475],[-73.61457,-42.74502],[-73.6144,-42.74537],[-73.61438,-42.74548],[-73.61449,-42.74563],[-73.61491,-42.7458],[-73.61516,-42.7458],[-73.61562,-42.74561],[-73.61584,-42.74557],[-73.61662,-42.74562],[-73.616981,-42.745916]]]},"properties":{"comuna":"Queilén","mancha_id":"10207-88ceaccce9fffff","clase":"Alto","nivel_medio":3.057,"nivel_medio_min":3.057,"nivel_medio_max":3.057,"pct_alto":61.7,"n_hexagonos":1,"area_ha":2.59}},{"type":"Feature","geometry":{"type":"Polygon","coordinates":[[[-73.609943,-42.768207],[-73.608036,-42.772769],[-73.602185,-42.773984],[-73.598242,-42.770638],[-73.600149,-42.766077],[-73.605999,-42.764861],[-73.609943,-42.768207]]]},"properties":{"comuna":"Queilén","mancha_id":"10207-88ceaccc57fffff","clase":"Alto","nivel_medio":2.681,"nivel_medio_min":2.681,"nivel_medio_max":2.681,"pct_alto":51.1,"n_hexagonos":1,"area_ha":66.47}},{"type":"Feature","geometry":{"type":"Polygon","coordinates":[[[-73.590357,-42.763946],[-73.58845,-42.768507],[-73.5826,-42.769722],[-73.578659,-42.766376],[-73.580567,-42.761815],[-73.586416,-42.760601],[-73.590357,-42.763946]]]},"properties":{"comuna":"Queilén","mancha_id":"10207-88ceaccc01fffff","clase":"Alto","nivel_medio":2.833,"nivel_medio_min":2.833,"nivel_medio_max":2.833,"pct_alto":49.5,"n_hexagonos":1,"area_ha":66.44}},{"type":"Feature","geometry":{"type":"Polygon","coordinates":[[[-73.487411,-42.831053],[-73.485494,-42.835611],[-73.479641,-42.836818],[-73.475707,-42.833467],[-73.477624,-42.82891],[-73.483476,-42.827703],[-73.487411,-42.831053]]]},"properties":{"comuna":"Queilén","mancha_id":"10207-88ceaccab9fffff","clase":"Alto","nivel_medio":2.585,"nivel_medio_min":2.585,"nivel_medio_max":2.585,"pct_alto":40.5,"n_hexagonos":1,"area_ha":66.37}},{"type":"Feature","geometry":{"type":"Polygon","coordinates":[[[-73.48176,-42.857191],[-73.475905,-42.858398],[-73.472991,-42.855916],[-73.47242,-42.85506],[-73.47219,-42.854521],[-73.473887,-42.850489],[-73.479741,-42.849283],[-73.483678,-42.852634],[-73.48176,-42.857191]]]},"properties":{"comuna":"Queilén","mancha_id":"10207-88ceacca89fffff","clase":"Alto","nivel_medio":2.55,"nivel_medio_min":2.55,"nivel_medio_max":2.55,"pct_alto":38.4,"n_hexagonos":1,"area_ha":66.09}},{"type":"Feature","geometry":{"type":"Polygon","coordinates":[[[-73.515845,-42.954281],[-73.517765,-42.949721],[-73.522988,-42.948647],[-73.52299,-42.94875],[-73.52287,-42.94917],[-73.52272,-42.95002],[-73.52289,-42.95088],[-73.52284,-42.95167],[-73.52278,-42.95181],[-73.52265,-42.95187],[-73.52224,-42.95229],[-73.52194,-42.95277],[-73.52184,-42.9531],[-73.52175,-42.9534],[-73.52172,-42.95349],[-73.52146,-42.95395],[-73.52136,-42.95425],[-73.52101,-42.95497],[-73.52094,-42.95534],[-73.52097,-42.95569],[-73.521,-42.95604],[-73.52044,-42.95694],[-73.52019,-42.95753],[-73.520184,-42.957556],[-73.519793,-42.957636],[-73.515845,-42.954281]]]},"properties":{"comuna":"Queilén","mancha_id":"10207-88ceacc31dfffff","clase":"Alto","nivel_medio":2.671,"nivel_medio_min":2.671,"nivel_medio_max":2.671,"pct_alto":50.6,"n_hexagonos":1,"area_ha":34.32}},{"type":"Feature","geometry":{"type":"Polygon","coordinates":[[[-73.52555,-42.943954],[-73.531417,-42.942747],[-73.533458,-42.944481],[-73.5332,-42.94445],[-73.53136,-42.94433],[-73.53107,-42.94431],[-73.53097,-42.9443],[-73.53035,-42.9443],[-73.52907,-42.94437],[-73.52778,-42.94458],[-73.52628,-42.94507],[-73.52547,-42.94551],[-73.52542,-42.94555],[-73.52501,-42.94587],[-73.52495,-42.94592],[-73.524723,-42.94592],[-73.52555,-42.943954]]]},"properties":{"comuna":"Queilén","mancha_id":"10207-88ceacc311fffff","clase":"Alto","nivel_medio":3.265,"nivel_medio_min":3.265,"nivel_medio_max":3.265,"pct_alto":79.4,"n_hexagonos":1,"area_ha":8.72}},{"type":"Feature","geometry":{"type":"Polygon","coordinates":[[[-73.568655,-42.943415],[-73.57057,-42.938852],[-73.574399,-42.938063],[-73.57423,-42.93849],[-73.57371,-42.93912],[-73.57267,-42.9397],[-73.57178,-42.94012],[-73.57144,-42.94034],[-73.57127,-42.94072],[-73.5709,-42.94131],[-73.57068,-42.94211],[-73.57069,-42.94236],[-73.57066,-42.9427],[-73.57057,-42.94372],[-73.5706,-42.94403],[-73.57071,-42.94446],[-73.571,-42.94512],[-73.571493,-42.945822],[-73.568655,-42.943415]]]},"properties":{"comuna":"Queilén","mancha_id":"10207-88ceacc237fffff","clase":"Alto","nivel_medio":2.88,"nivel_medio_min":2.88,"nivel_medio_max":2.88,"pct_alto":69.3,"n_hexagonos":1,"area_ha":10.72}},{"type":"Feature","geometry":{"type":"Polygon","coordinates":[[[-73.526911,-42.877029],[-73.524995,-42.881588],[-73.52305,-42.881989],[-73.52307,-42.88177],[-73.52331,-42.88088],[-73.52322,-42.88045],[-73.52311,-42.8803],[-73.5223,-42.87956],[-73.52178,-42.87892],[-73.52126,-42.87828],[-73.52041,-42.8776],[-73.51936,-42.87713],[-73.51882,-42.87699],[-73.51818,-42.8769],[-73.51729,-42.87685],[-73.51691,-42.87677],[-73.51651,-42.87676],[-73.516342,-42.876713],[-73.51711,-42.874885],[-73.522968,-42.873677],[-73.526911,-42.877029]]]},"properties":{"comuna":"Queilén","mancha_id":"10207-88ceacc1e9fffff","clase":"Alto","nivel_medio":2.653,"nivel_medio_min":2.653,"nivel_medio_max":2.653,"pct_alto":48.2,"n_hexagonos":1,"area_ha":38.01}},{"type":"Feature","geometry":{"type":"Polygon","coordinates":[[[-73.472264,-42.892447],[-73.476203,-42.8958],[-73.475177,-42.898234],[-73.47507,-42.89817],[-73.47435,-42.89764],[-73.47312,-42.89707],[-73.47241,-42.89657],[-73.47199,-42.89616],[-73.4717,-42.89577],[-73.47147,-42.89504],[-73.47128,-42.8941],[-73.47128,-42.89373],[-73.47118,-42.89345],[-73.47086,-42.89306],[-73.47084,-42.89284],[-73.47079,-42.89275],[-73.472264,-42.892447]]]},"properties":{"comuna":"Queilén","mancha_id":"10207-88ceacc129fffff","clase":"Alto","nivel_medio":2.934,"nivel_medio_min":2.934,"nivel_medio_max":2.934,"pct_alto":85.8,"n_hexagonos":1,"area_ha":14.25}},{"type":"Feature","geometry":{"type":"Polygon","coordinates":[[[-73.472166,-42.879979],[-73.470246,-42.884536],[-73.46574,-42.885463],[-73.46491,-42.88496],[-73.46353,-42.88429],[-73.46312,-42.88405],[-73.46153,-42.88272],[-73.46144,-42.88249],[-73.46181,-42.8821],[-73.46234,-42.88164],[-73.46256,-42.88047],[-73.46285,-42.8801],[-73.4636,-42.87936],[-73.46398,-42.87824],[-73.46426,-42.87766],[-73.464348,-42.877425],[-73.46459,-42.87678],[-73.46517,-42.87575],[-73.46559,-42.8751],[-73.46568,-42.87489],[-73.46609,-42.87392],[-73.46688,-42.87257],[-73.46744,-42.87147],[-73.468146,-42.870364],[-73.46871,-42.86948],[-73.46984,-42.86805],[-73.47067,-42.86674],[-73.47097,-42.86611],[-73.47184,-42.86455],[-73.472353,-42.863291],[-73.473986,-42.862955],[-73.477923,-42.866307],[-73.476004,-42.870864],[-73.479942,-42.874216],[-73.485799,-42.87301],[-73.487717,-42.868452],[-73.493573,-42.867246],[-73.497513,-42.870597],[-73.495595,-42.875155],[-73.489737,-42.876362],[-73.487819,-42.88092],[-73.48735,-42.881017],[-73.48724,-42.88009],[-73.4872,-42.87905],[-73.4871,-42.87849],[-73.48719,-42.87793],[-73.48715,-42.87759],[-73.48705,-42.87739],[-73.48631,-42.87637],[-73.4855,-42.8754],[-73.48539,-42.87512],[-73.48537,-42.87447],[-73.48438,-42.87407],[-73.48359,-42.87437],[-73.48288,-42.87451],[-73.4811,-42.8747],[-73.47985,-42.87505],[-73.479537,-42.875177],[-73.47943,-42.87522],[-73.47929,-42.87527],[-73.47825,-42.87585],[-73.47816,-42.87594],[-73.47808,-42.87612],[-73.47849,-42.87623],[-73.47869,-42.87639],[-73.47876,-42.87652],[-73.478801,-42.876926],[-73.479,-42.8789],[-73.47908,-42.87918],[-73.47935,-42.87967],[-73.479389,-42.879936],[-73.478023,-42.878774],[-73.472166,-42.879979]]]},"properties":{"comuna":"Queilén","mancha_id":"10207-88ceacc127fffff","clase":"Alto","nivel_medio":2.801,"nivel_medio_min":2.503,"nivel_medio_max":2.961,"pct_alto":64.4,"n_hexagonos":6,"area_ha":273.05}},{"type":"Feature","geometry":{"type":"Polygon","coordinates":[[[-73.552732,-42.917526],[-73.546868,-42.918735],[-73.545442,-42.917524],[-73.54566,-42.91749],[-73.5469,-42.91736],[-73.54789,-42.9172],[-73.5489,-42.91716],[-73.54998,-42.91703],[-73.55055,-42.91709],[-73.55133,-42.91735],[-73.55193,-42.91748],[-73.55269,-42.91749],[-73.55275,-42.917483],[-73.552732,-42.917526]]]},"properties":{"comuna":"Queilén","mancha_id":"10207-88ceacc005fffff","clase":"Alto","nivel_medio":2.962,"nivel_medio_min":2.962,"nivel_medio_max":2.962,"pct_alto":67.4,"n_hexagonos":1,"area_ha":5.62}}],"bbox":[-73.75173,-43.01561,-73.32447,-42.74475]}