{"type":"FeatureCollection","features":[{"type":"Feature","geometry":{"type":"Polygon","coordinates":[[[-70.668041,-33.399076],[-70.667496,-33.399023],[-70.666778,-33.398953],[-70.666486,-33.398953],[-70.665714,-33.399012],[-70.661055,-33.399366],[-70.659823,-33.399467],[-70.6582,-33.399678],[-70.657884,-33.39851],[-70.657796,-33.397929],[-70.657765,-33.397514],[-70.657759,-33.397433],[-70.65775,-33.39648],[-70.65767,-33.39561],[-70.657618,-33.395076],[-70.657544,-33.394563],[-70.657486,-33.394224],[-70.657415,-33.393927],[-70.657267,-33.393315],[-70.657233,-33.393186],[-70.657204,-33.392945],[-70.65722,-33.391945],[-70.657304,-33.391167],[-70.657355,-33.39044],[-70.657416,-33.389548],[-70.657417,-33.389434],[-70.657425,-33.388642],[-70.657238,-33.387292],[-70.657176,-33.386779],[-70.657149,-33.386365],[-70.657157,-33.38625],[-70.657212,-33.385225],[-70.657253,-33.384945],[-70.657337,-33.384344],[-70.657366,-33.384155],[-70.657529,-33.383108],[-70.657603,-33.381567],[-70.657649,-33.38064],[-70.657733,-33.378904],[-70.657735,-33.378439],[-70.657695,-33.378205],[-70.657594,-33.37794],[-70.657259,-33.37728],[-70.657226,-33.377225],[-70.659933,-33.376508],[-70.660134,-33.375155],[-70.660917,-33.374851],[-70.662637,-33.374201],[-70.664519,-33.373494],[-70.665549,-33.3731],[-70.667706,-33.3723],[-70.668626,-33.371958],[-70.67122,-33.371035],[-70.671897,-33.370773],[-70.672438,-33.37056],[-70.67372,-33.370055],[-70.675538,-33.369365],[-70.676201,-33.369113],[-70.677805,-33.368515],[-70.681205,-33.367238],[-70.681243,-33.367226],[-70.682273,-33.366892],[-70.683189,-33.366706],[-70.683931,-33.366607],[-70.684867,-33.366528],[-70.687763,-33.36631],[-70.688893,-33.366228],[-70.689946,-33.366147],[-70.690568,-33.366104],[-70.691047,-33.36607],[-70.692065,-33.365994],[-70.694541,-33.365867],[-70.696746,-33.365868],[-70.697332,-33.36588],[-70.698749,-33.365957],[-70.699467,-33.366019],[-70.699937,-33.366105],[-70.700252,-33.366192],[-70.700249,-33.366216],[-70.700187,-33.366371],[-70.699181,-33.368603],[-70.698523,-33.370048],[-70.698365,-33.370407],[-70.694631,-33.371397],[-70.694,-33.375653],[-70.695543,-33.376671],[-70.694961,-33.377998],[-70.694152,-33.379818],[-70.693487,-33.381292],[-70.693434,-33.381411],[-70.6925,-33.383473],[-70.692313,-33.383882],[-70.691834,-33.384935],[-70.691686,-33.385262],[-70.690938,-33.386924],[-70.690249,-33.388482],[-70.690033,-33.388966],[-70.68928,-33.390649],[-70.688894,-33.391384],[-70.688761,-33.391553],[-70.687937,-33.392935],[-70.687515,-33.393647],[-70.687053,-33.394422],[-70.68665,-33.3951],[-70.686335,-33.395605],[-70.685384,-33.397197],[-70.684627,-33.39845],[-70.683855,-33.399729],[-70.683057,-33.401071],[-70.683034,-33.40111],[-70.682488,-33.402037],[-70.681873,-33.403031],[-70.680801,-33.402725],[-70.67994,-33.402482],[-70.679037,-33.402195],[-70.678158,-33.401878],[-70.676929,-33.401425],[-70.675693,-33.400978],[-70.675596,-33.400943],[-70.674744,-33.400638],[-70.673549,-33.400205],[-70.672611,-33.399854],[-70.672185,-33.399708],[-70.672104,-33.39987],[-70.6703,-33.399755],[-70.667637,-33.399578],[-70.668155,-33.399116],[-70.668041,-33.399076]]]},"properties":{"comuna":"Conchalí","mancha_id":"13104-88b2c55449fffff","clase":"Muy Bajo","nivel_medio":0.09,"nivel_medio_min":0.021,"nivel_medio_max":0.36,"pct_alto":2.7,"n_hexagonos":25,"area_ha":1076.26}},{"type":"Feature","geometry":{"type":"Polygon","coordinates":[[[-70.694,-33.375653],[-70.694631,-33.371397],[-70.698365,-33.370407],[-70.698103,-33.370999],[-70.6975,-33.372312],[-70.696566,-33.374373],[-70.695677,-33.376366],[-70.695543,-33.376671],[-70.694,-33.375653]]]},"properties":{"comuna":"Conchalí","mancha_id":"13104-88b2c5575dfffff","clase":"Bajo","nivel_medio":0.615,"nivel_medio_min":0.615,"nivel_medio_max":0.615,"pct_alto":18.8,"n_hexagonos":1,"area_ha":14.31}},{"type":"Feature","geometry":{"type":"Polygon","coordinates":[[[-70.660134,-33.375155],[-70.659933,-33.376508],[-70.657226,-33.377225],[-70.657131,-33.377062],[-70.65676,-33.376409],[-70.657947,-33.375972],[-70.658985,-33.375583],[-70.660112,-33.375164],[-70.660134,-33.375155]]]},"properties":{"comuna":"Conchalí","mancha_id":"13104-88b2c5560dfffff","clase":"Bajo","nivel_medio":0.824,"nivel_medio_min":0.824,"nivel_medio_max":0.824,"pct_alto":25.7,"n_hexagonos":1,"area_ha":3.53}}],"bbox":[-70.70026,-33.40304,-70.65676,-33.36586]}