{"type":"FeatureCollection","features":[{"type":"Feature","geometry":{"type":"Polygon","coordinates":[[[-70.774157,-33.423911],[-70.774164,-33.423866],[-70.774195,-33.423857],[-70.774172,-33.42389],[-70.774157,-33.423911]]]},"properties":{"comuna":"Cerro Navia","mancha_id":"13103-88b2c550b3fffff","clase":"Muy Bajo","nivel_medio":0.0,"nivel_medio_min":0.0,"nivel_medio_max":0.0,"pct_alto":0.0,"n_hexagonos":1,"area_ha":0.0}},{"type":"Feature","geometry":{"type":"Polygon","coordinates":[[[-70.757204,-33.412687],[-70.760903,-33.415125],[-70.765953,-33.413785],[-70.770374,-33.416699],[-70.769743,-33.420952],[-70.764692,-33.422293],[-70.764062,-33.426546],[-70.76467,-33.426947],[-70.763949,-33.427238],[-70.763338,-33.427508],[-70.763031,-33.427622],[-70.762904,-33.427648],[-70.762732,-33.427666],[-70.761874,-33.427713],[-70.761592,-33.427717],[-70.761279,-33.427692],[-70.761036,-33.427643],[-70.760467,-33.427523],[-70.760409,-33.427515],[-70.759985,-33.42745],[-70.759035,-33.427391],[-70.758212,-33.427359],[-70.757615,-33.427336],[-70.757015,-33.427312],[-70.756732,-33.427333],[-70.756133,-33.427403],[-70.755833,-33.427445],[-70.755551,-33.427489],[-70.755386,-33.427537],[-70.755242,-33.42761],[-70.75505,-33.427718],[-70.754737,-33.42789],[-70.754515,-33.427969],[-70.7544,-33.427987],[-70.753548,-33.428094],[-70.752945,-33.428163],[-70.752535,-33.428214],[-70.752402,-33.428253],[-70.752187,-33.428362],[-70.75198,-33.428491],[-70.751754,-33.428619],[-70.75131,-33.428813],[-70.750835,-33.429021],[-70.750557,-33.429127],[-70.750016,-33.429238],[-70.749868,-33.429263],[-70.749673,-33.429304],[-70.749388,-33.429394],[-70.74907,-33.429483],[-70.74898,-33.429508],[-70.748336,-33.429645],[-70.74706,-33.42989],[-70.746825,-33.429938],[-70.746594,-33.43],[-70.745672,-33.429966],[-70.744405,-33.429955],[-70.744145,-33.429947],[-70.742886,-33.429938],[-70.741619,-33.429903],[-70.741332,-33.429907],[-70.740804,-33.429887],[-70.740804,-33.429889],[-70.740822,-33.431052],[-70.740831,-33.431554],[-70.740839,-33.431702],[-70.740841,-33.432141],[-70.740858,-33.433053],[-70.740876,-33.43417],[-70.740886,-33.435025],[-70.740883,-33.436393],[-70.740458,-33.436382],[-70.739929,-33.436385],[-70.739736,-33.436382],[-70.739526,-33.43638],[-70.7387,-33.436395],[-70.737577,-33.436395],[-70.736509,-33.436394],[-70.736473,-33.436393],[-70.735862,-33.436399],[-70.735079,-33.436406],[-70.734598,-33.436413],[-70.734162,-33.436402],[-70.733795,-33.436384],[-70.733013,-33.436345],[-70.732711,-33.436341],[-70.732408,-33.436321],[-70.731705,-33.436303],[-70.730958,-33.436277],[-70.730324,-33.436264],[-70.729759,-33.436291],[-70.729111,-33.436353],[-70.728996,-33.436363],[-70.728832,-33.436386],[-70.728707,-33.436431],[-70.728627,-33.43647],[-70.728575,-33.436495],[-70.728373,-33.436582],[-70.728097,-33.436698],[-70.727884,-33.4368],[-70.727774,-33.436858],[-70.727483,-33.437005],[-70.727309,-33.437077],[-70.727034,-33.437174],[-70.726751,-33.437253],[-70.726536,-33.437284],[-70.725978,-33.437371],[-70.725234,-33.437495],[-70.72469,-33.437616],[-70.724317,-33.437703],[-70.724246,-33.437748],[-70.724174,-33.437843],[-70.72413,-33.437923],[-70.724071,-33.438047],[-70.723971,-33.438202],[-70.723855,-33.438431],[-70.72374,-33.438571],[-70.723531,-33.438695],[-70.723279,-33.438741],[-70.723012,-33.438774],[-70.722776,-33.438791],[-70.722459,-33.438792],[-70.722337,-33.43877],[-70.72211,-33.438176],[-70.721881,-33.437607],[-70.721768,-33.437326],[-70.721627,-33.436966],[-70.721533,-33.436598],[-70.721291,-33.435504],[-70.721014,-33.434145],[-70.720957,-33.433887],[-70.720849,-33.433401],[-70.720685,-33.432621],[-70.720515,-33.431802],[-70.72025,-33.430586],[-70.719992,-33.429604],[-70.719737,-33.428606],[-70.719261,-33.426786],[-70.719113,-33.426205],[-70.718944,-33.425541],[-70.718564,-33.424168],[-70.718456,-33.423873],[-70.718282,-33.423168],[-70.718079,-33.422364],[-70.717786,-33.421141],[-70.717465,-33.419805],[-70.717298,-33.419055],[-70.71719,-33.418564],[-70.716923,-33.417438],[-70.716908,-33.417371],[-70.716768,-33.416747],[-70.716684,-33.41646],[-70.716614,-33.416291],[-70.716496,-33.416111],[-70.716185,-33.415647],[-70.715856,-33.415161],[-70.716385,-33.414934],[-70.716897,-33.414742],[-70.717327,-33.414513],[-70.717333,-33.41451],[-70.717579,-33.414356],[-70.71767,-33.414299],[-70.718132,-33.414011],[-70.718665,-33.413663],[-70.718909,-33.413508],[-70.719216,-33.413319],[-70.719523,-33.413158],[-70.720017,-33.412961],[-70.720469,-33.412775],[-70.720882,-33.41261],[-70.72139,-33.412413],[-70.721773,-33.412239],[-70.721967,-33.412122],[-70.722186,-33.411907],[-70.722408,-33.411678],[-70.722593,-33.411752],[-70.722396,-33.413079],[-70.726814,-33.415994],[-70.731864,-33.414655],[-70.732195,-33.412423],[-70.733009,-33.412355],[-70.734293,-33.412228],[-70.735283,-33.412148],[-70.736058,-33.41217],[-70.73722,-33.412237],[-70.737988,-33.412279],[-70.739197,-33.412334],[-70.740248,-33.412389],[-70.741011,-33.412388],[-70.741902,-33.412389],[-70.741904,-33.412389],[-70.742403,-33.412335],[-70.742866,-33.412293],[-70.743518,-33.412254],[-70.743991,-33.412287],[-70.744544,-33.412371],[-70.745396,-33.412498],[-70.745913,-33.412603],[-70.746436,-33.412599],[-70.746896,-33.412546],[-70.74759,-33.412427],[-70.748603,-33.412331],[-70.749364,-33.412257],[-70.749459,-33.41225],[-70.75,-33.41221],[-70.750272,-33.412206],[-70.75069,-33.412235],[-70.750936,-33.412266],[-70.751246,-33.412339],[-70.751954,-33.41232],[-70.752544,-33.412311],[-70.752994,-33.412325],[-70.75336,-33.412399],[-70.753929,-33.412536],[-70.754446,-33.412614],[-70.754782,-33.412663],[-70.754801,-33.412665],[-70.755204,-33.412759],[-70.755453,-33.412808],[-70.756177,-33.412798],[-70.756746,-33.412737],[-70.757204,-33.412687]]]},"properties":{"comuna":"Cerro Navia","mancha_id":"13103-88b2c55093fffff","clase":"Muy Bajo","nivel_medio":0.12,"nivel_medio_min":0.0,"nivel_medio_max":0.487,"pct_alto":2.8,"n_hexagonos":23,"area_ha":946.21}},{"type":"Feature","geometry":{"type":"Polygon","coordinates":[[[-70.726814,-33.415994],[-70.722396,-33.413079],[-70.722593,-33.411752],[-70.723524,-33.412124],[-70.724195,-33.412455],[-70.725509,-33.413033],[-70.726337,-33.413355],[-70.726815,-33.413464],[-70.72717,-33.413489],[-70.727846,-33.413456],[-70.728403,-33.413343],[-70.728985,-33.413166],[-70.729763,-33.412905],[-70.730432,-33.412721],[-70.731203,-33.412555],[-70.732019,-33.412438],[-70.732195,-33.412423],[-70.731864,-33.414655],[-70.726814,-33.415994]]]},"properties":{"comuna":"Cerro Navia","mancha_id":"13103-88b2c55735fffff","clase":"Bajo","nivel_medio":1.037,"nivel_medio_min":1.037,"nivel_medio_max":1.037,"pct_alto":32.6,"n_hexagonos":1,"area_ha":20.93}},{"type":"Feature","geometry":{"type":"Polygon","coordinates":[[[-70.765953,-33.413785],[-70.760903,-33.415125],[-70.757204,-33.412687],[-70.757688,-33.412634],[-70.758709,-33.412554],[-70.759326,-33.412519],[-70.759967,-33.4125],[-70.760443,-33.412513],[-70.76081,-33.412567],[-70.761082,-33.412599],[-70.761498,-33.412716],[-70.762091,-33.412885],[-70.762846,-33.41304],[-70.763624,-33.413207],[-70.76428,-33.413338],[-70.76471,-33.413428],[-70.765236,-33.413543],[-70.765856,-33.41367],[-70.765966,-33.413697],[-70.765953,-33.413785]]]},"properties":{"comuna":"Cerro Navia","mancha_id":"13103-88b2c55091fffff","clase":"Bajo","nivel_medio":1.285,"nivel_medio_min":1.285,"nivel_medio_max":1.285,"pct_alto":40.3,"n_hexagonos":1,"area_ha":11.92}},{"type":"Feature","geometry":{"type":"Polygon","coordinates":[[[-70.770374,-33.416699],[-70.765953,-33.413785],[-70.765966,-33.413697],[-70.766517,-33.413835],[-70.767568,-33.414058],[-70.768777,-33.414334],[-70.76942,-33.414424],[-70.770079,-33.4145],[-70.77082,-33.414572],[-70.771229,-33.414599],[-70.7717,-33.414586],[-70.771842,-33.414568],[-70.772105,-33.414537],[-70.772356,-33.414494],[-70.772576,-33.414461],[-70.772728,-33.414403],[-70.772907,-33.414321],[-70.773303,-33.414237],[-70.773592,-33.41415],[-70.774072,-33.413925],[-70.774537,-33.413767],[-70.774995,-33.413678],[-70.775399,-33.413606],[-70.775688,-33.413577],[-70.77585,-33.41356],[-70.776235,-33.413541],[-70.776606,-33.413562],[-70.777053,-33.413635],[-70.777379,-33.413667],[-70.777774,-33.413737],[-70.777995,-33.413787],[-70.778264,-33.413844],[-70.778551,-33.413871],[-70.778957,-33.413878],[-70.779492,-33.41391],[-70.780122,-33.413898],[-70.780769,-33.413796],[-70.780941,-33.413783],[-70.781252,-33.41376],[-70.781862,-33.413777],[-70.782271,-33.413785],[-70.782271,-33.413785],[-70.78222,-33.414607],[-70.782195,-33.415347],[-70.782168,-33.415686],[-70.78216,-33.416144],[-70.782149,-33.416416],[-70.782137,-33.41666],[-70.781937,-33.416653],[-70.78158,-33.416735],[-70.781236,-33.416859],[-70.781001,-33.416923],[-70.780713,-33.417063],[-70.780573,-33.417174],[-70.78041,-33.417296],[-70.780165,-33.417529],[-70.779956,-33.417904],[-70.779744,-33.418205],[-70.779674,-33.418304],[-70.779582,-33.418525],[-70.77922,-33.418926],[-70.778972,-33.419292],[-70.77866,-33.41964],[-70.778266,-33.419837],[-70.77772,-33.419987],[-70.777453,-33.420287],[-70.777344,-33.420499],[-70.777255,-33.420882],[-70.777136,-33.42147],[-70.776946,-33.421917],[-70.776803,-33.422205],[-70.776568,-33.422371],[-70.776341,-33.422584],[-70.775947,-33.422805],[-70.775585,-33.422843],[-70.775022,-33.422844],[-70.774672,-33.422945],[-70.774479,-33.423098],[-70.774403,-33.423346],[-70.77424,-33.423794],[-70.774195,-33.423857],[-70.774164,-33.423866],[-70.774157,-33.423911],[-70.774073,-33.424029],[-70.77364,-33.424299],[-70.773135,-33.424424],[-70.772813,-33.424806],[-70.772592,-33.424952],[-70.77219,-33.425042],[-70.771998,-33.425047],[-70.77178,-33.425064],[-70.771684,-33.425072],[-70.771259,-33.425105],[-70.770591,-33.425277],[-70.7699,-33.425411],[-70.76944,-33.42548],[-70.768918,-33.42554],[-70.768669,-33.425629],[-70.768463,-33.425861],[-70.768269,-33.426112],[-70.768034,-33.426311],[-70.767789,-33.426295],[-70.767552,-33.426132],[-70.767307,-33.425834],[-70.767109,-33.425765],[-70.76677,-33.425846],[-70.766397,-33.426027],[-70.765911,-33.426291],[-70.765272,-33.426639],[-70.764803,-33.426893],[-70.76467,-33.426947],[-70.764062,-33.426546],[-70.764692,-33.422293],[-70.769743,-33.420952],[-70.770374,-33.416699]]]},"properties":{"comuna":"Cerro Navia","mancha_id":"13103-88b2c55095fffff","clase":"Medio","nivel_medio":1.761,"nivel_medio_min":1.654,"nivel_medio_max":1.848,"pct_alto":26.9,"n_hexagonos":4,"area_ha":126.32}}],"bbox":[-70.78228,-33.4388,-70.71585,-33.41167]}