{"type":"FeatureCollection","features":[{"type":"Feature","geometry":{"type":"Polygon","coordinates":[[[-70.679522,-33.541277],[-70.679057,-33.541446],[-70.677786,-33.541909],[-70.677267,-33.542105],[-70.676666,-33.542318],[-70.675602,-33.542711],[-70.674946,-33.542951],[-70.673454,-33.543502],[-70.672895,-33.543707],[-70.671356,-33.544271],[-70.668303,-33.545412],[-70.668139,-33.545626],[-70.666782,-33.546384],[-70.666651,-33.54642],[-70.665578,-33.546569],[-70.664743,-33.546703],[-70.664058,-33.546824],[-70.663691,-33.546886],[-70.663129,-33.54698],[-70.661573,-33.547227],[-70.660459,-33.547421],[-70.659133,-33.547645],[-70.658135,-33.547802],[-70.657948,-33.547833],[-70.656797,-33.548025],[-70.656848,-33.54822],[-70.65576,-33.548385],[-70.654674,-33.548573],[-70.653499,-33.54876],[-70.653367,-33.548335],[-70.653166,-33.547573],[-70.653115,-33.54738],[-70.652836,-33.546365],[-70.652668,-33.545778],[-70.65249,-33.545156],[-70.652396,-33.544844],[-70.65213,-33.54488],[-70.651864,-33.543924],[-70.651595,-33.542911],[-70.651346,-33.54205],[-70.651142,-33.541314],[-70.650973,-33.540591],[-70.650957,-33.540359],[-70.65092,-33.5401],[-70.651278,-33.540042],[-70.651044,-33.539205],[-70.650789,-33.538453],[-70.650731,-33.538281],[-70.650519,-33.537602],[-70.650506,-33.53756],[-70.650147,-33.536301],[-70.649885,-33.535388],[-70.649697,-33.534718],[-70.649364,-33.533632],[-70.649151,-33.532837],[-70.64911,-33.532684],[-70.648912,-33.531964],[-70.648722,-33.531334],[-70.648453,-33.530373],[-70.648128,-33.529213],[-70.647969,-33.528617],[-70.647942,-33.528511],[-70.64793,-33.528467],[-70.647896,-33.528413],[-70.647837,-33.528382],[-70.647772,-33.528339],[-70.647719,-33.52825],[-70.647654,-33.528028],[-70.647549,-33.52758],[-70.647369,-33.52698],[-70.647319,-33.526802],[-70.647183,-33.526325],[-70.647094,-33.525936],[-70.646895,-33.525245],[-70.646664,-33.524478],[-70.646476,-33.523828],[-70.646303,-33.523277],[-70.646002,-33.522322],[-70.645702,-33.521305],[-70.645519,-33.520612],[-70.645287,-33.519786],[-70.645124,-33.519225],[-70.645077,-33.519061],[-70.644996,-33.518782],[-70.644783,-33.518001],[-70.644673,-33.517589],[-70.644623,-33.517366],[-70.64551,-33.51719],[-70.646529,-33.516981],[-70.647185,-33.516854],[-70.64767,-33.516757],[-70.648202,-33.516652],[-70.648807,-33.516534],[-70.649033,-33.51649],[-70.651268,-33.516052],[-70.652831,-33.515744],[-70.653531,-33.515608],[-70.65574,-33.51517],[-70.65703,-33.514919],[-70.657401,-33.514845],[-70.658075,-33.514713],[-70.659372,-33.514306],[-70.660405,-33.513993],[-70.660847,-33.513862],[-70.661404,-33.513693],[-70.662366,-33.513397],[-70.662912,-33.513227],[-70.663897,-33.512929],[-70.664267,-33.512817],[-70.664949,-33.512614],[-70.665671,-33.51239],[-70.666311,-33.512193],[-70.666988,-33.511985],[-70.668437,-33.511548],[-70.669341,-33.511282],[-70.670196,-33.51103],[-70.67103,-33.51075],[-70.671352,-33.511422],[-70.67176,-33.512239],[-70.671978,-33.512696],[-70.672427,-33.513629],[-70.672842,-33.51449],[-70.673227,-33.515327],[-70.673239,-33.515351],[-70.673666,-33.516248],[-70.673686,-33.51629],[-70.674097,-33.517155],[-70.674429,-33.517847],[-70.674654,-33.51832],[-70.675286,-33.519624],[-70.675872,-33.52083],[-70.676121,-33.52136],[-70.676608,-33.522361],[-70.676944,-33.523049],[-70.676961,-33.523082],[-70.677137,-33.523444],[-70.677666,-33.524536],[-70.677978,-33.525202],[-70.678592,-33.526423],[-70.679131,-33.527461],[-70.679803,-33.528693],[-70.680306,-33.529637],[-70.680641,-33.53025],[-70.680819,-33.530577],[-70.681557,-33.531952],[-70.682079,-33.532925],[-70.682425,-33.533576],[-70.682876,-33.534422],[-70.684295,-33.53705],[-70.68448,-33.537393],[-70.685142,-33.538625],[-70.685404,-33.53913],[-70.684759,-33.539355],[-70.683353,-33.539859],[-70.68113,-33.54069],[-70.68099,-33.54074],[-70.680578,-33.540891],[-70.679522,-33.541277]]]},"properties":{"comuna":"La Cisterna","mancha_id":"13109-88b2c54449fffff","clase":"Muy Bajo","nivel_medio":0.058,"nivel_medio_min":0.0,"nivel_medio_max":0.427,"pct_alto":1.1,"n_hexagonos":25,"area_ha":1001.0}}],"bbox":[-70.68541,-33.54876,-70.64462,-33.51075]}