{"type":"FeatureCollection","features":[{"type":"Feature","geometry":{"type":"Polygon","coordinates":[[[-70.692201,-33.355237],[-70.692129,-33.355582],[-70.692569,-33.352615],[-70.692738,-33.352891],[-70.692527,-33.353654],[-70.692389,-33.354152],[-70.692201,-33.355237]]]},"properties":{"comuna":"Huechuraba","mancha_id":"13107-88b2c5cdbdfffff","clase":"Muy Bajo","nivel_medio":0.0,"nivel_medio_min":0.0,"nivel_medio_max":0.0,"pct_alto":0.0,"n_hexagonos":1,"area_ha":0.24}},{"type":"Feature","geometry":{"type":"Polygon","coordinates":[[[-70.686431,-33.361308],[-70.687062,-33.357052],[-70.692101,-33.355715],[-70.692015,-33.356123],[-70.691896,-33.35656],[-70.691776,-33.356958],[-70.691419,-33.357986],[-70.690853,-33.359613],[-70.690556,-33.36045],[-70.690243,-33.361328],[-70.689866,-33.362433],[-70.6898,-33.36293],[-70.6897,-33.363468],[-70.686431,-33.361308]]]},"properties":{"comuna":"Huechuraba","mancha_id":"13107-88b2c5cdb1fffff","clase":"Muy Bajo","nivel_medio":0.477,"nivel_medio_min":0.477,"nivel_medio_max":0.477,"pct_alto":6.8,"n_hexagonos":1,"area_ha":26.1}},{"type":"Feature","geometry":{"type":"Polygon","coordinates":[[[-70.675705,-33.36824],[-70.680752,-33.366902],[-70.681243,-33.367226],[-70.681205,-33.367238],[-70.677805,-33.368515],[-70.676201,-33.369113],[-70.675538,-33.369365],[-70.675705,-33.36824]]]},"properties":{"comuna":"Huechuraba","mancha_id":"13107-88b2c55665fffff","clase":"Muy Bajo","nivel_medio":0.19,"nivel_medio_min":0.19,"nivel_medio_max":0.19,"pct_alto":3.4,"n_hexagonos":1,"area_ha":4.3}},{"type":"Feature","geometry":{"type":"Polygon","coordinates":[[[-70.660565,-33.372253],[-70.665611,-33.370916],[-70.667706,-33.3723],[-70.665549,-33.3731],[-70.664519,-33.373494],[-70.662637,-33.374201],[-70.660917,-33.374851],[-70.660134,-33.375155],[-70.660565,-33.372253]]]},"properties":{"comuna":"Huechuraba","mancha_id":"13107-88b2c55663fffff","clase":"Muy Bajo","nivel_medio":0.427,"nivel_medio_min":0.427,"nivel_medio_max":0.427,"pct_alto":8.4,"n_hexagonos":1,"area_ha":15.69}},{"type":"Feature","geometry":{"type":"Polygon","coordinates":[[[-70.633986,-33.388007],[-70.63407,-33.387443],[-70.635147,-33.387157],[-70.635081,-33.387207],[-70.633986,-33.388007]]]},"properties":{"comuna":"Huechuraba","mancha_id":"13107-88b2c55615fffff","clase":"Muy Bajo","nivel_medio":0.0,"nivel_medio_min":0.0,"nivel_medio_max":0.0,"pct_alto":0.0,"n_hexagonos":1,"area_ha":0.3}},{"type":"Feature","geometry":{"type":"Polygon","coordinates":[[[-70.645426,-33.376264],[-70.650472,-33.374927],[-70.654168,-33.37737],[-70.652938,-33.377819],[-70.652091,-33.378128],[-70.650996,-33.378536],[-70.648697,-33.379394],[-70.646264,-33.380308],[-70.645634,-33.380549],[-70.645142,-33.380747],[-70.644334,-33.381074],[-70.64302,-33.38175],[-70.641318,-33.382735],[-70.640286,-33.383414],[-70.639926,-33.383656],[-70.639427,-33.384013],[-70.639748,-33.381854],[-70.635334,-33.378936],[-70.630288,-33.380272],[-70.625875,-33.377354],[-70.626507,-33.3731],[-70.631552,-33.371764],[-70.632184,-33.36751],[-70.627771,-33.364591],[-70.628403,-33.360337],[-70.633449,-33.359],[-70.637862,-33.361919],[-70.63723,-33.366173],[-70.641644,-33.369092],[-70.641012,-33.373346],[-70.645426,-33.376264]]]},"properties":{"comuna":"Huechuraba","mancha_id":"13107-88b2c55601fffff","clase":"Muy Bajo","nivel_medio":0.18,"nivel_medio_min":0.031,"nivel_medio_max":0.462,"pct_alto":4.6,"n_hexagonos":6,"area_ha":291.18}},{"type":"Feature","geometry":{"type":"Polygon","coordinates":[[[-70.665611,-33.370916],[-70.666243,-33.366661],[-70.661828,-33.363743],[-70.66246,-33.359488],[-70.658046,-33.35657],[-70.658677,-33.352314],[-70.663723,-33.350976],[-70.664355,-33.34672],[-70.669401,-33.345382],[-70.670033,-33.341125],[-70.675079,-33.339786],[-70.679494,-33.342704],[-70.678863,-33.346961],[-70.683278,-33.349878],[-70.682646,-33.354135],[-70.687062,-33.357052],[-70.686431,-33.361308],[-70.6897,-33.363468],[-70.689697,-33.363484],[-70.689645,-33.364183],[-70.689614,-33.364729],[-70.6896,-33.364781],[-70.68946,-33.365278],[-70.689432,-33.365337],[-70.689175,-33.365792],[-70.688893,-33.366228],[-70.687763,-33.36631],[-70.684867,-33.366528],[-70.683931,-33.366607],[-70.683189,-33.366706],[-70.682273,-33.366892],[-70.681243,-33.367226],[-70.680752,-33.366902],[-70.675705,-33.36824],[-70.675538,-33.369365],[-70.67372,-33.370055],[-70.672438,-33.37056],[-70.671897,-33.370773],[-70.67122,-33.371035],[-70.668626,-33.371958],[-70.667706,-33.3723],[-70.665611,-33.370916]]]},"properties":{"comuna":"Huechuraba","mancha_id":"13107-88b2c55661fffff","clase":"Bajo","nivel_medio":0.941,"nivel_medio_min":0.528,"nivel_medio_max":1.407,"pct_alto":23.2,"n_hexagonos":10,"area_ha":596.22}},{"type":"Feature","geometry":{"type":"Polygon","coordinates":[[[-70.620787,-33.397344],[-70.6183,-33.3957],[-70.613254,-33.397034],[-70.608841,-33.394116],[-70.609474,-33.389864],[-70.614519,-33.38853],[-70.615152,-33.384277],[-70.620197,-33.382942],[-70.620829,-33.378689],[-70.625875,-33.377354],[-70.630288,-33.380272],[-70.629656,-33.384525],[-70.62461,-33.38586],[-70.623978,-33.390113],[-70.627735,-33.392597],[-70.627646,-33.392659],[-70.627384,-33.392819],[-70.626715,-33.393227],[-70.625877,-33.393657],[-70.624832,-33.394147],[-70.62355,-33.394729],[-70.623719,-33.39498],[-70.623016,-33.395853],[-70.622948,-33.395854],[-70.622733,-33.39624],[-70.622941,-33.396391],[-70.622574,-33.396829],[-70.620787,-33.397344]]]},"properties":{"comuna":"Huechuraba","mancha_id":"13107-88b2c55613fffff","clase":"Bajo","nivel_medio":1.095,"nivel_medio_min":0.988,"nivel_medio_max":1.163,"pct_alto":27.1,"n_hexagonos":4,"area_ha":231.72}},{"type":"Feature","geometry":{"type":"Polygon","coordinates":[[[-70.641012,-33.373346],[-70.641644,-33.369092],[-70.64669,-33.367755],[-70.651104,-33.370673],[-70.65615,-33.369336],[-70.660565,-33.372253],[-70.660134,-33.375155],[-70.660112,-33.375164],[-70.658985,-33.375583],[-70.657947,-33.375972],[-70.65676,-33.376409],[-70.655624,-33.376839],[-70.654168,-33.37737],[-70.650472,-33.374927],[-70.645426,-33.376264],[-70.641012,-33.373346]]]},"properties":{"comuna":"Huechuraba","mancha_id":"13107-88b2c55609fffff","clase":"Bajo","nivel_medio":1.135,"nivel_medio_min":0.95,"nivel_medio_max":1.303,"pct_alto":30.6,"n_hexagonos":2,"area_ha":122.07}},{"type":"Feature","geometry":{"type":"Polygon","coordinates":[[[-70.66625,-33.33395],[-70.661836,-33.331031],[-70.65679,-33.33237],[-70.655294,-33.33138],[-70.655441,-33.331226],[-70.656195,-33.33037],[-70.656915,-33.32959],[-70.657845,-33.32843],[-70.658001,-33.328385],[-70.658036,-33.328376],[-70.658545,-33.32823],[-70.659265,-33.32838],[-70.660876,-33.328912],[-70.662125,-33.329078],[-70.662526,-33.329131],[-70.663614,-33.329027],[-70.665195,-33.3288],[-70.665655,-33.32867],[-70.666335,-33.32833],[-70.666895,-33.32801],[-70.667375,-33.32785],[-70.667765,-33.32787],[-70.668455,-33.3281],[-70.671822,-33.329067],[-70.671296,-33.33261],[-70.66625,-33.33395]]]},"properties":{"comuna":"Huechuraba","mancha_id":"13107-88b2c5cdd1fffff","clase":"Medio","nivel_medio":2.375,"nivel_medio_min":2.37,"nivel_medio_max":2.387,"pct_alto":61.2,"n_hexagonos":2,"area_ha":60.96}},{"type":"Feature","geometry":{"type":"Polygon","coordinates":[[[-70.683278,-33.349878],[-70.688325,-33.348539],[-70.691765,-33.350812],[-70.692018,-33.351363],[-70.692342,-33.352246],[-70.692569,-33.352615],[-70.692129,-33.355582],[-70.692101,-33.355715],[-70.687062,-33.357052],[-70.682646,-33.354135],[-70.683278,-33.349878]]]},"properties":{"comuna":"Huechuraba","mancha_id":"13107-88b2c5cdb9fffff","clase":"Medio","nivel_medio":1.812,"nivel_medio_min":1.812,"nivel_medio_max":1.812,"pct_alto":51.2,"n_hexagonos":1,"area_ha":63.24}},{"type":"Feature","geometry":{"type":"Polygon","coordinates":[[[-70.659941,-33.343802],[-70.660572,-33.339545],[-70.665618,-33.338207],[-70.670033,-33.341125],[-70.669401,-33.345382],[-70.664355,-33.34672],[-70.659941,-33.343802]]]},"properties":{"comuna":"Huechuraba","mancha_id":"13107-88b2c5cd99fffff","clase":"Medio","nivel_medio":1.972,"nivel_medio_min":1.972,"nivel_medio_max":1.972,"pct_alto":58.8,"n_hexagonos":1,"area_ha":63.91}},{"type":"Feature","geometry":{"type":"Polygon","coordinates":[[[-70.613254,-33.397034],[-70.6183,-33.3957],[-70.620787,-33.397344],[-70.620001,-33.397571],[-70.619916,-33.397482],[-70.619801,-33.397363],[-70.619672,-33.397518],[-70.619426,-33.397614],[-70.619212,-33.397785],[-70.619034,-33.397905],[-70.618733,-33.39821],[-70.61756,-33.398684],[-70.617446,-33.398997],[-70.617184,-33.399093],[-70.616865,-33.399416],[-70.616725,-33.39958],[-70.616068,-33.40035],[-70.615456,-33.400995],[-70.614235,-33.402103],[-70.614075,-33.402247],[-70.612622,-33.401286],[-70.613254,-33.397034]]]},"properties":{"comuna":"Huechuraba","mancha_id":"13107-88b2c556c5fffff","clase":"Medio","nivel_medio":1.881,"nivel_medio_min":1.881,"nivel_medio_max":1.881,"pct_alto":58.5,"n_hexagonos":1,"area_ha":26.1}},{"type":"Feature","geometry":{"type":"Polygon","coordinates":[[[-70.65615,-33.369336],[-70.656782,-33.365081],[-70.661828,-33.363743],[-70.666243,-33.366661],[-70.665611,-33.370916],[-70.660565,-33.372253],[-70.65615,-33.369336]]]},"properties":{"comuna":"Huechuraba","mancha_id":"13107-88b2c5566bfffff","clase":"Medio","nivel_medio":1.71,"nivel_medio_min":1.71,"nivel_medio_max":1.71,"pct_alto":53.2,"n_hexagonos":1,"area_ha":63.87}},{"type":"Feature","geometry":{"type":"Polygon","coordinates":[[[-70.62461,-33.38586],[-70.629656,-33.384525],[-70.630288,-33.380272],[-70.635334,-33.378936],[-70.639748,-33.381854],[-70.639427,-33.384013],[-70.638712,-33.384525],[-70.636902,-33.385856],[-70.635147,-33.387157],[-70.63407,-33.387443],[-70.633986,-33.388007],[-70.633353,-33.38847],[-70.632058,-33.389431],[-70.631146,-33.390103],[-70.630128,-33.390887],[-70.628899,-33.391772],[-70.628349,-33.39217],[-70.627735,-33.392597],[-70.623978,-33.390113],[-70.62461,-33.38586]]]},"properties":{"comuna":"Huechuraba","mancha_id":"13107-88b2c55611fffff","clase":"Medio","nivel_medio":2.092,"nivel_medio_min":1.948,"nivel_medio_max":2.217,"pct_alto":45.6,"n_hexagonos":2,"area_ha":111.43}},{"type":"Feature","geometry":{"type":"Polygon","coordinates":[[[-70.610739,-33.381359],[-70.611371,-33.377105],[-70.616416,-33.37577],[-70.620829,-33.378689],[-70.620197,-33.382942],[-70.615152,-33.384277],[-70.610739,-33.381359]]]},"properties":{"comuna":"Huechuraba","mancha_id":"13107-88b2c51925fffff","clase":"Medio","nivel_medio":2.355,"nivel_medio_min":2.355,"nivel_medio_max":2.355,"pct_alto":64.4,"n_hexagonos":1,"area_ha":63.82}},{"type":"Feature","geometry":{"type":"Polygon","coordinates":[[[-70.601281,-33.379774],[-70.601914,-33.375521],[-70.606958,-33.374187],[-70.611371,-33.377105],[-70.610739,-33.381359],[-70.615152,-33.384277],[-70.614519,-33.38853],[-70.609474,-33.389864],[-70.608841,-33.394116],[-70.613254,-33.397034],[-70.612622,-33.401286],[-70.614075,-33.402247],[-70.613455,-33.40281],[-70.611874,-33.40432],[-70.610917,-33.405194],[-70.610349,-33.405714],[-70.610269,-33.405474],[-70.610161,-33.404988],[-70.610134,-33.404569],[-70.610201,-33.40387],[-70.609902,-33.402568],[-70.609734,-33.402249],[-70.609688,-33.402062],[-70.609642,-33.401875],[-70.609647,-33.40149],[-70.609609,-33.401243],[-70.609591,-33.400927],[-70.609632,-33.400578],[-70.60961,-33.400296],[-70.609616,-33.400064],[-70.609464,-33.398867],[-70.608986,-33.397652],[-70.608114,-33.396002],[-70.607376,-33.395169],[-70.607002,-33.394603],[-70.606844,-33.394364],[-70.60618,-33.393713],[-70.605927,-33.39343],[-70.605621,-33.392997],[-70.605324,-33.392597],[-70.605059,-33.39233],[-70.604564,-33.39194],[-70.603969,-33.391304],[-70.60316,-33.39049],[-70.602945,-33.390142],[-70.602922,-33.390104],[-70.602729,-33.389792],[-70.602366,-33.389109],[-70.602252,-33.388438],[-70.602217,-33.387698],[-70.605061,-33.386946],[-70.605694,-33.382693],[-70.601281,-33.379774]]]},"properties":{"comuna":"Huechuraba","mancha_id":"13107-88b2c51921fffff","clase":"Alto","nivel_medio":2.932,"nivel_medio_min":2.622,"nivel_medio_max":3.388,"pct_alto":84.5,"n_hexagonos":5,"area_ha":198.17}},{"type":"Feature","geometry":{"type":"Polygon","coordinates":[[[-70.597306,-33.368698],[-70.597301,-33.367798],[-70.597298,-33.367205],[-70.597189,-33.366033],[-70.597283,-33.3655],[-70.597284,-33.3653],[-70.597287,-33.36475],[-70.597412,-33.364548],[-70.597859,-33.364313],[-70.598627,-33.363838],[-70.599592,-33.363176],[-70.600131,-33.363004],[-70.600469,-33.362789],[-70.60075,-33.36258],[-70.60083,-33.36243],[-70.60083,-33.36233],[-70.60071,-33.36219],[-70.59884,-33.36108],[-70.597628,-33.360421],[-70.597543,-33.360332],[-70.597152,-33.359927],[-70.59662,-33.359438],[-70.596517,-33.358983],[-70.596021,-33.358644],[-70.594398,-33.357407],[-70.593714,-33.356861],[-70.593408,-33.3565],[-70.593384,-33.356472],[-70.59328,-33.35635],[-70.592969,-33.355695],[-70.592239,-33.355064],[-70.59053,-33.35456],[-70.590494,-33.354552],[-70.588542,-33.354132],[-70.587626,-33.3541],[-70.587135,-33.353838],[-70.586414,-33.353085],[-70.58573,-33.35268],[-70.58436,-33.35213],[-70.583664,-33.351808],[-70.583604,-33.35176],[-70.583042,-33.351317],[-70.58233,-33.35069],[-70.58265,-33.350335],[-70.583435,-33.349876],[-70.584385,-33.349058],[-70.584978,-33.348577],[-70.585589,-33.348024],[-70.585939,-33.34747],[-70.586382,-33.347094],[-70.586742,-33.346791],[-70.586796,-33.346745],[-70.586991,-33.346581],[-70.587158,-33.34644],[-70.587746,-33.345903],[-70.587977,-33.345499],[-70.588459,-33.344806],[-70.588628,-33.344617],[-70.588672,-33.344567],[-70.588798,-33.344426],[-70.589033,-33.343624],[-70.589426,-33.342445],[-70.589786,-33.341332],[-70.590114,-33.340383],[-70.590257,-33.33977],[-70.590343,-33.3394],[-70.590703,-33.33904],[-70.591358,-33.338778],[-70.592111,-33.338549],[-70.592798,-33.338189],[-70.593453,-33.33796],[-70.594304,-33.337829],[-70.594959,-33.337665],[-70.595483,-33.337174],[-70.595628,-33.336955],[-70.595752,-33.336766],[-70.595888,-33.336559],[-70.595897,-33.336546],[-70.595925,-33.33656],[-70.596067,-33.336793],[-70.596259,-33.337106],[-70.596806,-33.337532],[-70.597801,-33.337996],[-70.598175,-33.338171],[-70.599969,-33.338414],[-70.601111,-33.338232],[-70.601885,-33.33811],[-70.602958,-33.338265],[-70.603065,-33.33828],[-70.603995,-33.33877],[-70.604495,-33.33923],[-70.605085,-33.33948],[-70.606115,-33.33943],[-70.607286,-33.339383],[-70.608585,-33.33933],[-70.611591,-33.340039],[-70.612195,-33.340182],[-70.612306,-33.340208],[-70.612485,-33.34025],[-70.615295,-33.34119],[-70.616664,-33.341493],[-70.617415,-33.34166],[-70.618645,-33.3421],[-70.61918,-33.342082],[-70.619887,-33.342057],[-70.620695,-33.34185],[-70.621375,-33.34177],[-70.622021,-33.341531],[-70.622041,-33.341523],[-70.622885,-33.34121],[-70.623865,-33.34065],[-70.626492,-33.340577],[-70.626725,-33.34057],[-70.627795,-33.34054],[-70.628915,-33.34036],[-70.630495,-33.34052],[-70.632105,-33.34023],[-70.632266,-33.340237],[-70.633093,-33.340275],[-70.633111,-33.340275],[-70.633215,-33.34028],[-70.633566,-33.340384],[-70.634576,-33.340682],[-70.634875,-33.34077],[-70.635805,-33.34129],[-70.63619,-33.341565],[-70.636554,-33.341825],[-70.636787,-33.341991],[-70.636995,-33.34214],[-70.63757,-33.342266],[-70.638405,-33.34245],[-70.639225,-33.34257],[-70.640385,-33.34262],[-70.642795,-33.34211],[-70.643236,-33.342105],[-70.643323,-33.342104],[-70.643339,-33.342104],[-70.644585,-33.34209],[-70.645245,-33.34196],[-70.645515,-33.3417],[-70.646055,-33.3407],[-70.646755,-33.33967],[-70.646995,-33.339315],[-70.647064,-33.339213],[-70.647505,-33.33856],[-70.647902,-33.337963],[-70.64824,-33.337692],[-70.648665,-33.33763],[-70.649365,-33.33718],[-70.649549,-33.336931],[-70.650045,-33.33626],[-70.650195,-33.33548],[-70.650395,-33.33517],[-70.651868,-33.334128],[-70.65187,-33.334127],[-70.654355,-33.33237],[-70.655294,-33.33138],[-70.65679,-33.33237],[-70.661836,-33.331031],[-70.66625,-33.33395],[-70.671296,-33.33261],[-70.671822,-33.329067],[-70.672495,-33.32926],[-70.673565,-33.32936],[-70.675985,-33.32936],[-70.677414,-33.329574],[-70.678495,-33.32979],[-70.680195,-33.33051],[-70.68081,-33.33073],[-70.681134,-33.330822],[-70.681255,-33.330833],[-70.68168,-33.330872],[-70.68145,-33.331304],[-70.681217,-33.331701],[-70.68118,-33.33201],[-70.681023,-33.332552],[-70.680974,-33.332724],[-70.680865,-33.333107],[-70.680772,-33.333616],[-70.680566,-33.334238],[-70.680565,-33.33424],[-70.680355,-33.334799],[-70.680245,-33.335287],[-70.680251,-33.335911],[-70.68004,-33.336197],[-70.680024,-33.336862],[-70.679973,-33.33711],[-70.679959,-33.337351],[-70.679994,-33.337487],[-70.680033,-33.337642],[-70.680117,-33.337827],[-70.680257,-33.337956],[-70.680421,-33.338075],[-70.680733,-33.33826],[-70.681363,-33.338729],[-70.68252,-33.33959],[-70.683674,-33.340234],[-70.684646,-33.340653],[-70.684661,-33.340659],[-70.685564,-33.341158],[-70.686209,-33.341627],[-70.686944,-33.342246],[-70.687331,-33.342652],[-70.6875,-33.342841],[-70.687599,-33.343062],[-70.687615,-33.343314],[-70.687608,-33.343391],[-70.687586,-33.343644],[-70.687583,-33.344433],[-70.687757,-33.345613],[-70.688221,-33.34689],[-70.688543,-33.347064],[-70.688325,-33.348539],[-70.683278,-33.349878],[-70.678863,-33.346961],[-70.679494,-33.342704],[-70.675079,-33.339786],[-70.670033,-33.341125],[-70.665618,-33.338207],[-70.660572,-33.339545],[-70.659941,-33.343802],[-70.664355,-33.34672],[-70.663723,-33.350976],[-70.658677,-33.352314],[-70.658046,-33.35657],[-70.66246,-33.359488],[-70.661828,-33.363743],[-70.656782,-33.365081],[-70.65615,-33.369336],[-70.651104,-33.370673],[-70.64669,-33.367755],[-70.641644,-33.369092],[-70.63723,-33.366173],[-70.637862,-33.361919],[-70.642908,-33.360582],[-70.64354,-33.356327],[-70.639126,-33.353408],[-70.634081,-33.354745],[-70.633449,-33.359],[-70.628403,-33.360337],[-70.627771,-33.364591],[-70.632184,-33.36751],[-70.631552,-33.371764],[-70.626507,-33.3731],[-70.625875,-33.377354],[-70.620829,-33.378689],[-70.616416,-33.37577],[-70.617048,-33.371517],[-70.622094,-33.370181],[-70.622726,-33.365927],[-70.618313,-33.363009],[-70.613268,-33.364344],[-70.612636,-33.368598],[-70.607591,-33.369933],[-70.603179,-33.367014],[-70.598134,-33.368349],[-70.597618,-33.371819],[-70.597471,-33.371708],[-70.597213,-33.371372],[-70.597273,-33.370729],[-70.597306,-33.368698]],[[-70.62021,-33.350244],[-70.624622,-33.353163],[-70.629668,-33.351827],[-70.6303,-33.347571],[-70.625887,-33.344652],[-70.620842,-33.345989],[-70.62021,-33.350244]]]},"properties":{"comuna":"Huechuraba","mancha_id":"13107-88b2c51905fffff","clase":"Alto","nivel_medio":2.995,"nivel_medio_min":2.548,"nivel_medio_max":3.384,"pct_alto":87.3,"n_hexagonos":46,"area_ha":2216.31}},{"type":"Feature","geometry":{"type":"Polygon","coordinates":[[[-70.691765,-33.350812],[-70.688325,-33.348539],[-70.688543,-33.347064],[-70.688712,-33.347155],[-70.689154,-33.347752],[-70.689764,-33.348576],[-70.690485,-33.349715],[-70.691,-33.35017],[-70.691723,-33.350721],[-70.691765,-33.350812]]]},"properties":{"comuna":"Huechuraba","mancha_id":"13107-88b2c5cd87fffff","clase":"Muy Alto","nivel_medio":3.597,"nivel_medio_min":3.597,"nivel_medio_max":3.597,"pct_alto":95.3,"n_hexagonos":1,"area_ha":2.47}},{"type":"Feature","geometry":{"type":"Polygon","coordinates":[[[-70.62021,-33.350244],[-70.620842,-33.345989],[-70.625887,-33.344652],[-70.6303,-33.347571],[-70.629668,-33.351827],[-70.624622,-33.353163],[-70.62021,-33.350244]]]},"properties":{"comuna":"Huechuraba","mancha_id":"13107-88b2c5ccb1fffff","clase":"Muy Alto","nivel_medio":3.526,"nivel_medio_min":3.526,"nivel_medio_max":3.526,"pct_alto":97.8,"n_hexagonos":1,"area_ha":63.88}},{"type":"Feature","geometry":{"type":"Polygon","coordinates":[[[-70.633449,-33.359],[-70.634081,-33.354745],[-70.639126,-33.353408],[-70.64354,-33.356327],[-70.642908,-33.360582],[-70.637862,-33.361919],[-70.633449,-33.359]]]},"properties":{"comuna":"Huechuraba","mancha_id":"13107-88b2c5564bfffff","clase":"Muy Alto","nivel_medio":3.658,"nivel_medio_min":3.658,"nivel_medio_max":3.658,"pct_alto":99.2,"n_hexagonos":1,"area_ha":63.87}},{"type":"Feature","geometry":{"type":"Polygon","coordinates":[[[-70.605694,-33.382693],[-70.605061,-33.386946],[-70.602217,-33.387698],[-70.602195,-33.387222],[-70.602186,-33.386725],[-70.60231,-33.385999],[-70.602885,-33.385026],[-70.60315,-33.38442],[-70.603553,-33.38303],[-70.603634,-33.382568],[-70.603665,-33.382159],[-70.603521,-33.381789],[-70.603015,-33.381084],[-70.601072,-33.37983],[-70.60098,-33.37977],[-70.600082,-33.379017],[-70.599841,-33.378836],[-70.59962,-33.37847],[-70.599616,-33.378164],[-70.599615,-33.378068],[-70.599611,-33.377756],[-70.600039,-33.37712],[-70.600444,-33.376435],[-70.600405,-33.376128],[-70.600211,-33.375794],[-70.599883,-33.375302],[-70.599585,-33.374275],[-70.59952,-33.37405],[-70.599282,-33.37378],[-70.599069,-33.373539],[-70.598184,-33.372248],[-70.597618,-33.371819],[-70.598134,-33.368349],[-70.603179,-33.367014],[-70.607591,-33.369933],[-70.612636,-33.368598],[-70.613268,-33.364344],[-70.618313,-33.363009],[-70.622726,-33.365927],[-70.622094,-33.370181],[-70.617048,-33.371517],[-70.616416,-33.37577],[-70.611371,-33.377105],[-70.606958,-33.374187],[-70.601914,-33.375521],[-70.601281,-33.379774],[-70.605694,-33.382693]]]},"properties":{"comuna":"Huechuraba","mancha_id":"13107-88b2c51923fffff","clase":"Muy Alto","nivel_medio":3.601,"nivel_medio_min":3.529,"nivel_medio_max":3.981,"pct_alto":95.2,"n_hexagonos":5,"area_ha":212.86}}],"bbox":[-70.69274,-33.40572,-70.58233,-33.32785]}