{"type":"FeatureCollection","features":[{"type":"Feature","geometry":{"type":"Polygon","coordinates":[[[-70.628351,-33.626153],[-70.628342,-33.626116],[-70.630237,-33.627364],[-70.629669,-33.627374],[-70.628627,-33.627388],[-70.628492,-33.62681],[-70.628351,-33.626153]]]},"properties":{"comuna":"La Pintana","mancha_id":"13112-88b2c57169fffff","clase":"Muy Bajo","nivel_medio":0.137,"nivel_medio_min":0.137,"nivel_medio_max":0.137,"pct_alto":3.6,"n_hexagonos":1,"area_ha":1.06}},{"type":"Feature","geometry":{"type":"Polygon","coordinates":[[[-70.622638,-33.594425],[-70.618222,-33.591513],[-70.613172,-33.592839],[-70.608755,-33.589927],[-70.608396,-33.590021],[-70.608493,-33.589786],[-70.608842,-33.588932],[-70.60894,-33.588688],[-70.609286,-33.587831],[-70.609509,-33.587244],[-70.609737,-33.58664],[-70.609861,-33.586247],[-70.610092,-33.585502],[-70.614438,-33.58436],[-70.618854,-33.587273],[-70.623904,-33.585946],[-70.628321,-33.588858],[-70.627688,-33.593098],[-70.622638,-33.594425]]]},"properties":{"comuna":"La Pintana","mancha_id":"13112-88b2c544d9fffff","clase":"Muy Bajo","nivel_medio":0.176,"nivel_medio_min":0.0,"nivel_medio_max":0.282,"pct_alto":5.3,"n_hexagonos":3,"area_ha":126.13}},{"type":"Feature","geometry":{"type":"Polygon","coordinates":[[[-70.627007,-33.620582],[-70.628309,-33.62144],[-70.627894,-33.624222],[-70.627601,-33.622982],[-70.62749,-33.622513],[-70.627435,-33.622279],[-70.627358,-33.621952],[-70.627314,-33.621809],[-70.627268,-33.621622],[-70.627187,-33.621303],[-70.627125,-33.621057],[-70.627031,-33.62068],[-70.627007,-33.620582]]]},"properties":{"comuna":"La Pintana","mancha_id":"13112-88b2c54493fffff","clase":"Muy Bajo","nivel_medio":0.102,"nivel_medio_min":0.102,"nivel_medio_max":0.102,"pct_alto":3.1,"n_hexagonos":1,"area_ha":2.02}},{"type":"Feature","geometry":{"type":"Polygon","coordinates":[[[-70.656446,-33.560821],[-70.652316,-33.558099],[-70.647266,-33.559428],[-70.646634,-33.56367],[-70.641584,-33.564999],[-70.637167,-33.562086],[-70.632117,-33.563415],[-70.6277,-33.560502],[-70.622651,-33.56183],[-70.618235,-33.558917],[-70.613186,-33.560245],[-70.612553,-33.564486],[-70.612388,-33.56453],[-70.612496,-33.563788],[-70.612694,-33.562258],[-70.610546,-33.562023],[-70.611391,-33.559061],[-70.612341,-33.555734],[-70.61304,-33.555892],[-70.613539,-33.556003],[-70.614053,-33.55612],[-70.614527,-33.556227],[-70.616293,-33.556623],[-70.618503,-33.55712],[-70.620054,-33.55747],[-70.623787,-33.558279],[-70.625699,-33.558723],[-70.627578,-33.559159],[-70.62789,-33.559227],[-70.628416,-33.55934],[-70.629871,-33.559655],[-70.630607,-33.559815],[-70.630984,-33.5582],[-70.631008,-33.558085],[-70.631173,-33.558099],[-70.631861,-33.55817],[-70.632183,-33.558173],[-70.632419,-33.558152],[-70.633285,-33.558032],[-70.633974,-33.557932],[-70.63486,-33.557811],[-70.635439,-33.557728],[-70.636096,-33.557632],[-70.636657,-33.557554],[-70.637234,-33.557472],[-70.63804,-33.557357],[-70.63859,-33.557287],[-70.639375,-33.557191],[-70.640436,-33.557038],[-70.641271,-33.556931],[-70.641679,-33.556878],[-70.643003,-33.556711],[-70.643122,-33.556695],[-70.643546,-33.556639],[-70.644074,-33.556566],[-70.644751,-33.556478],[-70.645381,-33.556388],[-70.646518,-33.556197],[-70.647197,-33.556085],[-70.648327,-33.555912],[-70.648929,-33.555829],[-70.649951,-33.555681],[-70.650849,-33.555552],[-70.651437,-33.555472],[-70.652238,-33.555354],[-70.652736,-33.555283],[-70.654466,-33.555036],[-70.654951,-33.554969],[-70.655365,-33.556706],[-70.655809,-33.558179],[-70.656212,-33.55987],[-70.656446,-33.560821]]]},"properties":{"comuna":"La Pintana","mancha_id":"13112-88b2c5445bfffff","clase":"Muy Bajo","nivel_medio":0.066,"nivel_medio_min":0.0,"nivel_medio_max":0.22,"pct_alto":1.7,"n_hexagonos":8,"area_ha":195.36}},{"type":"Feature","geometry":{"type":"Polygon","coordinates":[[[-70.657946,-33.566468],[-70.656102,-33.565253],[-70.65664,-33.56164],[-70.656796,-33.562305],[-70.657145,-33.563577],[-70.65739,-33.564465],[-70.657641,-33.565371],[-70.657946,-33.566468]]]},"properties":{"comuna":"La Pintana","mancha_id":"13112-88b2c54453fffff","clase":"Muy Bajo","nivel_medio":0.452,"nivel_medio_min":0.452,"nivel_medio_max":0.452,"pct_alto":7.6,"n_hexagonos":1,"area_ha":3.7}},{"type":"Feature","geometry":{"type":"Polygon","coordinates":[[[-70.662409,-33.588041],[-70.657991,-33.585129],[-70.65294,-33.586458],[-70.652307,-33.590698],[-70.647257,-33.592027],[-70.642839,-33.589115],[-70.637789,-33.590443],[-70.633371,-33.587531],[-70.634004,-33.583291],[-70.629586,-33.580378],[-70.630219,-33.576138],[-70.635269,-33.57481],[-70.639686,-33.577722],[-70.644736,-33.576394],[-70.649154,-33.579306],[-70.654205,-33.577977],[-70.654837,-33.573736],[-70.659626,-33.572475],[-70.659681,-33.57267],[-70.659849,-33.573221],[-70.660013,-33.57367],[-70.660177,-33.573916],[-70.660342,-33.574511],[-70.66051,-33.575142],[-70.660673,-33.575737],[-70.660747,-33.575989],[-70.660843,-33.576357],[-70.661001,-33.576969],[-70.661243,-33.577812],[-70.66137,-33.57833],[-70.661535,-33.578946],[-70.661649,-33.579363],[-70.661838,-33.580043],[-70.661897,-33.580258],[-70.662189,-33.581367],[-70.662369,-33.58201],[-70.662606,-33.582843],[-70.662774,-33.583512],[-70.662903,-33.583987],[-70.663034,-33.584496],[-70.663238,-33.585197],[-70.663316,-33.585368],[-70.663382,-33.585572],[-70.663467,-33.585845],[-70.663835,-33.586998],[-70.664026,-33.587615],[-70.662409,-33.588041]]]},"properties":{"comuna":"La Pintana","mancha_id":"13112-88b2c54413fffff","clase":"Muy Bajo","nivel_medio":0.222,"nivel_medio_min":0.022,"nivel_medio_max":0.465,"pct_alto":5.4,"n_hexagonos":7,"area_ha":392.93}},{"type":"Feature","geometry":{"type":"Polygon","coordinates":[[[-70.618854,-33.587273],[-70.614438,-33.58436],[-70.610092,-33.585502],[-70.610286,-33.584876],[-70.610552,-33.583678],[-70.610691,-33.582743],[-70.610849,-33.581557],[-70.610952,-33.580819],[-70.611048,-33.579958],[-70.611081,-33.579664],[-70.61115,-33.57922],[-70.611309,-33.578278],[-70.61137,-33.578033],[-70.611418,-33.577712],[-70.615071,-33.580121],[-70.62012,-33.578793],[-70.624537,-33.581706],[-70.629586,-33.580378],[-70.634004,-33.583291],[-70.633371,-33.587531],[-70.628321,-33.588858],[-70.623904,-33.585946],[-70.618854,-33.587273]]]},"properties":{"comuna":"La Pintana","mancha_id":"13112-88b2c546b3fffff","clase":"Bajo","nivel_medio":1.138,"nivel_medio_min":0.824,"nivel_medio_max":1.471,"pct_alto":32.5,"n_hexagonos":3,"area_ha":151.98}},{"type":"Feature","geometry":{"type":"Polygon","coordinates":[[[-70.647266,-33.559428],[-70.652316,-33.558099],[-70.656446,-33.560821],[-70.656504,-33.561057],[-70.65664,-33.56164],[-70.656102,-33.565253],[-70.651051,-33.566582],[-70.646634,-33.56367],[-70.647266,-33.559428]]]},"properties":{"comuna":"La Pintana","mancha_id":"13112-88b2c546adfffff","clase":"Bajo","nivel_medio":0.715,"nivel_medio_min":0.715,"nivel_medio_max":0.715,"pct_alto":23.4,"n_hexagonos":1,"area_ha":63.49}},{"type":"Feature","geometry":{"type":"Polygon","coordinates":[[[-70.644736,-33.576394],[-70.645369,-33.572153],[-70.650419,-33.570824],[-70.654837,-33.573736],[-70.654205,-33.577977],[-70.649154,-33.579306],[-70.644736,-33.576394]]]},"properties":{"comuna":"La Pintana","mancha_id":"13112-88b2c546a7fffff","clase":"Bajo","nivel_medio":1.463,"nivel_medio_min":1.463,"nivel_medio_max":1.463,"pct_alto":47.2,"n_hexagonos":1,"area_ha":63.57}},{"type":"Feature","geometry":{"type":"Polygon","coordinates":[[[-70.612553,-33.564486],[-70.613186,-33.560245],[-70.618235,-33.558917],[-70.622651,-33.56183],[-70.6277,-33.560502],[-70.632117,-33.563415],[-70.631484,-33.567656],[-70.626435,-33.568985],[-70.622018,-33.566072],[-70.616969,-33.567399],[-70.612553,-33.564486]]]},"properties":{"comuna":"La Pintana","mancha_id":"13112-88b2c54683fffff","clase":"Bajo","nivel_medio":0.809,"nivel_medio_min":0.75,"nivel_medio_max":0.868,"pct_alto":23.1,"n_hexagonos":2,"area_ha":127.14}},{"type":"Feature","geometry":{"type":"Polygon","coordinates":[[[-70.622006,-33.598664],[-70.616956,-33.59999],[-70.616453,-33.603358],[-70.61476,-33.603119],[-70.60805,-33.6022],[-70.607123,-33.602071],[-70.606946,-33.602046],[-70.605995,-33.601912],[-70.605742,-33.601866],[-70.60552,-33.601827],[-70.605308,-33.60179],[-70.605133,-33.601759],[-70.605178,-33.601648],[-70.605273,-33.601428],[-70.605473,-33.60099],[-70.605739,-33.600426],[-70.606022,-33.599721],[-70.606248,-33.599102],[-70.606348,-33.598826],[-70.606371,-33.598673],[-70.606411,-33.598518],[-70.606547,-33.598172],[-70.606635,-33.597866],[-70.60664,-33.597844],[-70.606858,-33.59695],[-70.60706,-33.59588],[-70.607339,-33.594166],[-70.607515,-33.593049],[-70.607711,-33.592056],[-70.607841,-33.591556],[-70.608124,-33.590679],[-70.608396,-33.590021],[-70.608755,-33.589927],[-70.613172,-33.592839],[-70.618222,-33.591513],[-70.622638,-33.594425],[-70.622006,-33.598664]]]},"properties":{"comuna":"La Pintana","mancha_id":"13112-88b2c544dbfffff","clase":"Bajo","nivel_medio":0.929,"nivel_medio_min":0.638,"nivel_medio_max":1.246,"pct_alto":7.1,"n_hexagonos":4,"area_ha":152.52}},{"type":"Feature","geometry":{"type":"Polygon","coordinates":[[[-70.652307,-33.590698],[-70.65294,-33.586458],[-70.657991,-33.585129],[-70.662409,-33.588041],[-70.664026,-33.587615],[-70.664128,-33.587943],[-70.664549,-33.589274],[-70.664681,-33.589712],[-70.664928,-33.590502],[-70.665298,-33.591746],[-70.66563,-33.592707],[-70.66595,-33.593692],[-70.666425,-33.595132],[-70.666196,-33.595192],[-70.661777,-33.592281],[-70.656726,-33.59361],[-70.656093,-33.59785],[-70.651043,-33.599178],[-70.646624,-33.596266],[-70.647257,-33.592027],[-70.652307,-33.590698]]]},"properties":{"comuna":"La Pintana","mancha_id":"13112-88b2c544c5fffff","clase":"Bajo","nivel_medio":1.02,"nivel_medio_min":0.574,"nivel_medio_max":1.492,"pct_alto":30.1,"n_hexagonos":3,"area_ha":145.31}},{"type":"Feature","geometry":{"type":"Polygon","coordinates":[[[-70.639676,-33.610311],[-70.644727,-33.608984],[-70.645778,-33.609676],[-70.644827,-33.609758],[-70.644418,-33.609792],[-70.643461,-33.609874],[-70.643721,-33.610899],[-70.644067,-33.612302],[-70.645018,-33.616267],[-70.645197,-33.617004],[-70.645288,-33.617378],[-70.645511,-33.618312],[-70.645878,-33.619838],[-70.646258,-33.621344],[-70.64349,-33.621538],[-70.643648,-33.622238],[-70.643858,-33.623169],[-70.64431,-33.6252],[-70.644748,-33.62714],[-70.6432,-33.62717],[-70.641021,-33.627194],[-70.637146,-33.627257],[-70.635433,-33.627285],[-70.631018,-33.627353],[-70.630345,-33.627362],[-70.630237,-33.627364],[-70.628342,-33.626116],[-70.628204,-33.62553],[-70.628071,-33.62497],[-70.627894,-33.624222],[-70.628309,-33.62144],[-70.627007,-33.620582],[-70.626917,-33.620219],[-70.626672,-33.61923],[-70.626519,-33.618623],[-70.626538,-33.617266],[-70.626574,-33.615497],[-70.626593,-33.61471],[-70.626604,-33.614274],[-70.626617,-33.613741],[-70.629575,-33.612964],[-70.630208,-33.608726],[-70.635258,-33.607399],[-70.639676,-33.610311]]]},"properties":{"comuna":"La Pintana","mancha_id":"13112-88b2c54483fffff","clase":"Bajo","nivel_medio":0.834,"nivel_medio_min":0.541,"nivel_medio_max":1.342,"pct_alto":25.3,"n_hexagonos":7,"area_ha":315.25}},{"type":"Feature","geometry":{"type":"Polygon","coordinates":[[[-70.651051,-33.566582],[-70.656102,-33.565253],[-70.657946,-33.566468],[-70.658122,-33.567105],[-70.658286,-33.567697],[-70.658461,-33.568328],[-70.658596,-33.568807],[-70.658717,-33.569245],[-70.658831,-33.569624],[-70.658899,-33.569882],[-70.659334,-33.571421],[-70.659468,-33.571907],[-70.659626,-33.572475],[-70.654837,-33.573736],[-70.650419,-33.570824],[-70.651051,-33.566582]]]},"properties":{"comuna":"La Pintana","mancha_id":"13112-88b2c546a5fffff","clase":"Medio","nivel_medio":1.699,"nivel_medio_min":1.699,"nivel_medio_max":1.699,"pct_alto":54.3,"n_hexagonos":1,"area_ha":56.53}},{"type":"Feature","geometry":{"type":"Polygon","coordinates":[[[-70.639686,-33.577722],[-70.635269,-33.57481],[-70.630219,-33.576138],[-70.625802,-33.573225],[-70.626435,-33.568985],[-70.631484,-33.567656],[-70.632117,-33.563415],[-70.637167,-33.562086],[-70.641584,-33.564999],[-70.640951,-33.56924],[-70.645369,-33.572153],[-70.644736,-33.576394],[-70.639686,-33.577722]]]},"properties":{"comuna":"La Pintana","mancha_id":"13112-88b2c546a3fffff","clase":"Medio","nivel_medio":1.797,"nivel_medio_min":1.5,"nivel_medio_max":2.226,"pct_alto":48.9,"n_hexagonos":3,"area_ha":190.7}},{"type":"Feature","geometry":{"type":"Polygon","coordinates":[[[-70.616969,-33.567399],[-70.616336,-33.57164],[-70.612193,-33.572729],[-70.612248,-33.57236],[-70.61251,-33.570506],[-70.611539,-33.570313],[-70.611904,-33.567855],[-70.612388,-33.56453],[-70.612553,-33.564486],[-70.616969,-33.567399]]]},"properties":{"comuna":"La Pintana","mancha_id":"13112-88b2c54695fffff","clase":"Medio","nivel_medio":2.066,"nivel_medio_min":2.066,"nivel_medio_max":2.066,"pct_alto":68.3,"n_hexagonos":1,"area_ha":30.51}},{"type":"Feature","geometry":{"type":"Polygon","coordinates":[[[-70.630208,-33.608726],[-70.629575,-33.612964],[-70.626617,-33.613741],[-70.626635,-33.613],[-70.626682,-33.611459],[-70.626767,-33.609578],[-70.626923,-33.606561],[-70.630208,-33.608726]]]},"properties":{"comuna":"La Pintana","mancha_id":"13112-88b2c54499fffff","clase":"Medio","nivel_medio":1.691,"nivel_medio_min":1.691,"nivel_medio_max":1.691,"pct_alto":47.2,"n_hexagonos":1,"area_ha":18.82}},{"type":"Feature","geometry":{"type":"Polygon","coordinates":[[[-70.640941,-33.601833],[-70.641574,-33.597594],[-70.637156,-33.594682],[-70.632106,-33.59601],[-70.631473,-33.600249],[-70.626423,-33.601576],[-70.625976,-33.60457],[-70.624486,-33.604436],[-70.623427,-33.604342],[-70.616453,-33.603358],[-70.616956,-33.59999],[-70.622006,-33.598664],[-70.622638,-33.594425],[-70.627688,-33.593098],[-70.628321,-33.588858],[-70.633371,-33.587531],[-70.637789,-33.590443],[-70.642839,-33.589115],[-70.647257,-33.592027],[-70.646624,-33.596266],[-70.651043,-33.599178],[-70.65041,-33.603417],[-70.645359,-33.604745],[-70.640941,-33.601833]]]},"properties":{"comuna":"La Pintana","mancha_id":"13112-88b2c54489fffff","clase":"Medio","nivel_medio":1.886,"nivel_medio_min":1.571,"nivel_medio_max":2.317,"pct_alto":46.9,"n_hexagonos":5,"area_ha":296.96}},{"type":"Feature","geometry":{"type":"Polygon","coordinates":[[[-70.654829,-33.606328],[-70.65988,-33.605],[-70.660512,-33.600761],[-70.656093,-33.59785],[-70.656726,-33.59361],[-70.661777,-33.592281],[-70.666196,-33.595192],[-70.666425,-33.595132],[-70.666484,-33.595311],[-70.66669,-33.595953],[-70.666869,-33.596528],[-70.667052,-33.597135],[-70.667354,-33.597975],[-70.667943,-33.599643],[-70.668485,-33.601329],[-70.668499,-33.601366],[-70.668868,-33.602365],[-70.669647,-33.604591],[-70.669679,-33.60468],[-70.670606,-33.607323],[-70.670635,-33.607429],[-70.66935,-33.606583],[-70.664299,-33.607911],[-70.664273,-33.608084],[-70.663226,-33.608174],[-70.661825,-33.608297],[-70.659977,-33.608459],[-70.658263,-33.608602],[-70.656949,-33.608717],[-70.656661,-33.608743],[-70.655738,-33.608821],[-70.65444,-33.608933],[-70.654829,-33.606328]]]},"properties":{"comuna":"La Pintana","mancha_id":"13112-88b2c54485fffff","clase":"Medio","nivel_medio":1.943,"nivel_medio_min":1.53,"nivel_medio_max":2.333,"pct_alto":31.1,"n_hexagonos":5,"area_ha":158.96}},{"type":"Feature","geometry":{"type":"Polygon","coordinates":[[[-70.624537,-33.581706],[-70.62012,-33.578793],[-70.615071,-33.580121],[-70.611418,-33.577712],[-70.611555,-33.57679],[-70.611761,-33.575587],[-70.612007,-33.573969],[-70.612193,-33.572729],[-70.616336,-33.57164],[-70.616969,-33.567399],[-70.622018,-33.566072],[-70.626435,-33.568985],[-70.625802,-33.573225],[-70.630219,-33.576138],[-70.629586,-33.580378],[-70.624537,-33.581706]]]},"properties":{"comuna":"La Pintana","mancha_id":"13112-88b2c546b1fffff","clase":"Alto","nivel_medio":2.769,"nivel_medio_min":2.553,"nivel_medio_max":2.881,"pct_alto":85.3,"n_hexagonos":3,"area_ha":186.57}},{"type":"Feature","geometry":{"type":"Polygon","coordinates":[[[-70.640951,-33.56924],[-70.641584,-33.564999],[-70.646634,-33.56367],[-70.651051,-33.566582],[-70.650419,-33.570824],[-70.645369,-33.572153],[-70.640951,-33.56924]]]},"properties":{"comuna":"La Pintana","mancha_id":"13112-88b2c546a1fffff","clase":"Alto","nivel_medio":2.907,"nivel_medio_min":2.907,"nivel_medio_max":2.907,"pct_alto":94.9,"n_hexagonos":1,"area_ha":63.58}},{"type":"Feature","geometry":{"type":"Polygon","coordinates":[[[-70.664299,-33.607911],[-70.66935,-33.606583],[-70.670635,-33.607429],[-70.670644,-33.607461],[-70.670484,-33.607491],[-70.66888,-33.607657],[-70.667257,-33.607811],[-70.666446,-33.607885],[-70.664775,-33.608041],[-70.664273,-33.608084],[-70.664299,-33.607911]]]},"properties":{"comuna":"La Pintana","mancha_id":"13112-88b2c544a9fffff","clase":"Alto","nivel_medio":2.532,"nivel_medio_min":2.532,"nivel_medio_max":2.532,"pct_alto":63.7,"n_hexagonos":1,"area_ha":3.84}},{"type":"Feature","geometry":{"type":"Polygon","coordinates":[[[-70.645359,-33.604745],[-70.65041,-33.603417],[-70.651043,-33.599178],[-70.656093,-33.59785],[-70.660512,-33.600761],[-70.65988,-33.605],[-70.654829,-33.606328],[-70.65444,-33.608933],[-70.654213,-33.608953],[-70.652795,-33.609076],[-70.651473,-33.609191],[-70.649814,-33.609333],[-70.64741,-33.609537],[-70.645778,-33.609676],[-70.644727,-33.608984],[-70.639676,-33.610311],[-70.635258,-33.607399],[-70.630208,-33.608726],[-70.626923,-33.606561],[-70.626954,-33.605975],[-70.626998,-33.604661],[-70.625976,-33.60457],[-70.626423,-33.601576],[-70.631473,-33.600249],[-70.632106,-33.59601],[-70.637156,-33.594682],[-70.641574,-33.597594],[-70.640941,-33.601833],[-70.645359,-33.604745]]]},"properties":{"comuna":"La Pintana","mancha_id":"13112-88b2c54481fffff","clase":"Alto","nivel_medio":2.702,"nivel_medio_min":2.57,"nivel_medio_max":2.911,"pct_alto":80.8,"n_hexagonos":5,"area_ha":300.57}}],"bbox":[-70.67065,-33.62739,-70.60513,-33.55496]}