{"type":"FeatureCollection","features":[{"type":"Feature","geometry":{"type":"Polygon","coordinates":[[[-70.579473,-33.435391],[-70.578553,-33.434783],[-70.579061,-33.431379],[-70.579502,-33.431397],[-70.579579,-33.431406],[-70.579661,-33.431426],[-70.579728,-33.431438],[-70.579776,-33.431443],[-70.5801,-33.431461],[-70.580766,-33.431512],[-70.581945,-33.43158],[-70.582955,-33.431639],[-70.583698,-33.431665],[-70.584012,-33.431681],[-70.584177,-33.431705],[-70.584493,-33.431766],[-70.58443,-33.43185],[-70.584061,-33.432307],[-70.583702,-33.432716],[-70.583287,-33.433079],[-70.582953,-33.433341],[-70.58226,-33.433795],[-70.580896,-33.434598],[-70.579623,-33.435313],[-70.579473,-33.435391]]]},"properties":{"comuna":"La Reina","mancha_id":"13113-88b2c55693fffff","clase":"Muy Bajo","nivel_medio":0.423,"nivel_medio_min":0.423,"nivel_medio_max":0.423,"pct_alto":13.9,"n_hexagonos":1,"area_ha":14.43}},{"type":"Feature","geometry":{"type":"Polygon","coordinates":[[[-70.539152,-33.428837],[-70.53918,-33.42884],[-70.539155,-33.428846],[-70.539152,-33.428837]]]},"properties":{"comuna":"La Reina","mancha_id":"13113-88b2c519bbfffff","clase":"Muy Bajo","nivel_medio":0.0,"nivel_medio_min":0.0,"nivel_medio_max":0.0,"pct_alto":0.0,"n_hexagonos":1,"area_ha":0.0}},{"type":"Feature","geometry":{"type":"Polygon","coordinates":[[[-70.55964,-33.431608],[-70.554596,-33.432939],[-70.550275,-33.43008],[-70.550684,-33.430126],[-70.551444,-33.430198],[-70.552261,-33.430268],[-70.553487,-33.430411],[-70.554484,-33.430492],[-70.555037,-33.430499],[-70.556564,-33.430572],[-70.55854,-33.430667],[-70.55902,-33.430704],[-70.55977,-33.430734],[-70.55964,-33.431608]]]},"properties":{"comuna":"La Reina","mancha_id":"13113-88b2c519b5fffff","clase":"Muy Bajo","nivel_medio":0.396,"nivel_medio_min":0.396,"nivel_medio_max":0.396,"pct_alto":12.8,"n_hexagonos":1,"area_ha":14.17}},{"type":"Feature","geometry":{"type":"Polygon","coordinates":[[[-70.531251,-33.459491],[-70.531885,-33.455245],[-70.536929,-33.453917],[-70.537563,-33.44967],[-70.542607,-33.448341],[-70.547018,-33.451259],[-70.552063,-33.44993],[-70.556474,-33.452848],[-70.561519,-33.451518],[-70.562152,-33.447271],[-70.567197,-33.445941],[-70.57147,-33.448767],[-70.571435,-33.448974],[-70.571279,-33.449964],[-70.571183,-33.450581],[-70.570976,-33.451354],[-70.570868,-33.45208],[-70.570771,-33.452962],[-70.570767,-33.453161],[-70.570764,-33.453366],[-70.570969,-33.454249],[-70.57108,-33.454709],[-70.571384,-33.455713],[-70.571549,-33.456306],[-70.571701,-33.456955],[-70.571882,-33.457668],[-70.572287,-33.458889],[-70.572332,-33.459014],[-70.571727,-33.459197],[-70.571479,-33.459276],[-70.570899,-33.459474],[-70.570359,-33.459658],[-70.569254,-33.460091],[-70.568675,-33.460317],[-70.568138,-33.460517],[-70.568095,-33.460533],[-70.567533,-33.460736],[-70.566409,-33.461128],[-70.565503,-33.461442],[-70.564459,-33.461814],[-70.563374,-33.462174],[-70.562827,-33.462356],[-70.562526,-33.462455],[-70.562297,-33.462511],[-70.562087,-33.462546],[-70.56205,-33.462547],[-70.561925,-33.462552],[-70.560478,-33.462568],[-70.559871,-33.462571],[-70.559752,-33.462572],[-70.558624,-33.46258],[-70.558049,-33.462585],[-70.557679,-33.462587],[-70.557358,-33.46259],[-70.557035,-33.462591],[-70.556348,-33.462594],[-70.555696,-33.462599],[-70.555497,-33.462601],[-70.554852,-33.462605],[-70.554554,-33.462606],[-70.553784,-33.462611],[-70.553493,-33.462614],[-70.553345,-33.462615],[-70.552888,-33.462621],[-70.55251,-33.462625],[-70.55208,-33.462631],[-70.551768,-33.462635],[-70.551651,-33.462637],[-70.551545,-33.462639],[-70.551422,-33.462641],[-70.551133,-33.462647],[-70.55101,-33.46265],[-70.550983,-33.462654],[-70.550553,-33.462732],[-70.550316,-33.462772],[-70.548794,-33.463031],[-70.54799,-33.463168],[-70.54525,-33.46352],[-70.544824,-33.463583],[-70.544549,-33.463623],[-70.544389,-33.463647],[-70.544233,-33.463649],[-70.544133,-33.463642],[-70.543999,-33.463616],[-70.543792,-33.46354],[-70.543364,-33.463349],[-70.542505,-33.462966],[-70.54246,-33.462946],[-70.542319,-33.462908],[-70.542208,-33.462885],[-70.542032,-33.462864],[-70.54179,-33.46287],[-70.541462,-33.462876],[-70.540092,-33.462996],[-70.53936,-33.463198],[-70.538845,-33.463344],[-70.538444,-33.463461],[-70.537324,-33.463781],[-70.536751,-33.463949],[-70.536469,-33.464028],[-70.535958,-33.464173],[-70.535814,-33.464222],[-70.535668,-33.464249],[-70.535375,-33.464334],[-70.534387,-33.464619],[-70.533422,-33.464883],[-70.531379,-33.465471],[-70.53097,-33.464659],[-70.530856,-33.464433],[-70.530756,-33.464123],[-70.530725,-33.463916],[-70.530618,-33.462438],[-70.530565,-33.462178],[-70.530262,-33.461124],[-70.529894,-33.459849],[-70.531251,-33.459491]]]},"properties":{"comuna":"La Reina","mancha_id":"13113-88b2c50a25fffff","clase":"Muy Bajo","nivel_medio":0.379,"nivel_medio_min":0.0,"nivel_medio_max":0.478,"pct_alto":10.6,"n_hexagonos":12,"area_ha":515.81}},{"type":"Feature","geometry":{"type":"Polygon","coordinates":[[[-70.531885,-33.455245],[-70.531251,-33.459491],[-70.529894,-33.459849],[-70.529886,-33.459821],[-70.529652,-33.459239],[-70.529564,-33.459194],[-70.529339,-33.459179],[-70.524168,-33.45947],[-70.521797,-33.457901],[-70.522431,-33.453655],[-70.527475,-33.452327],[-70.528108,-33.44808],[-70.533152,-33.446751],[-70.533786,-33.442504],[-70.529375,-33.439586],[-70.530009,-33.435338],[-70.535053,-33.434009],[-70.539463,-33.436928],[-70.544507,-33.435598],[-70.548918,-33.438517],[-70.553962,-33.437187],[-70.554596,-33.432939],[-70.55964,-33.431608],[-70.564052,-33.434527],[-70.569096,-33.433196],[-70.56941,-33.431092],[-70.569413,-33.431092],[-70.570204,-33.431103],[-70.570966,-33.431138],[-70.572121,-33.431186],[-70.572803,-33.43121],[-70.573358,-33.431236],[-70.574096,-33.431258],[-70.574867,-33.431263],[-70.577232,-33.431341],[-70.5781,-33.431348],[-70.578665,-33.431363],[-70.579061,-33.431379],[-70.578553,-33.434783],[-70.579473,-33.435391],[-70.578664,-33.435812],[-70.578115,-33.436073],[-70.5775,-33.43626],[-70.576808,-33.436404],[-70.576369,-33.43655],[-70.575861,-33.436762],[-70.575044,-33.437109],[-70.574443,-33.437419],[-70.573929,-33.437681],[-70.573527,-33.437901],[-70.573404,-33.438174],[-70.573293,-33.438509],[-70.573124,-33.439218],[-70.572967,-33.440256],[-70.572941,-33.440406],[-70.572721,-33.441669],[-70.572537,-33.44272],[-70.572323,-33.443917],[-70.572085,-33.445261],[-70.571845,-33.446618],[-70.571631,-33.447804],[-70.57147,-33.448767],[-70.567197,-33.445941],[-70.562152,-33.447271],[-70.561519,-33.451518],[-70.556474,-33.452848],[-70.552063,-33.44993],[-70.552696,-33.445683],[-70.548285,-33.442765],[-70.54324,-33.444094],[-70.542607,-33.448341],[-70.537563,-33.44967],[-70.536929,-33.453917],[-70.531885,-33.455245]]]},"properties":{"comuna":"La Reina","mancha_id":"13113-88b2c50a21fffff","clase":"Bajo","nivel_medio":0.938,"nivel_medio_min":0.518,"nivel_medio_max":1.456,"pct_alto":26.4,"n_hexagonos":13,"area_ha":708.86}},{"type":"Feature","geometry":{"type":"Polygon","coordinates":[[[-70.542607,-33.448341],[-70.54324,-33.444094],[-70.548285,-33.442765],[-70.552696,-33.445683],[-70.552063,-33.44993],[-70.547018,-33.451259],[-70.542607,-33.448341]]]},"properties":{"comuna":"La Reina","mancha_id":"13113-88b2c50b51fffff","clase":"Medio","nivel_medio":1.526,"nivel_medio_min":1.526,"nivel_medio_max":1.526,"pct_alto":50.2,"n_hexagonos":1,"area_ha":63.68}},{"type":"Feature","geometry":{"type":"Polygon","coordinates":[[[-70.564052,-33.434527],[-70.55964,-33.431608],[-70.55977,-33.430734],[-70.560633,-33.430769],[-70.562723,-33.430865],[-70.563704,-33.430907],[-70.564996,-33.430967],[-70.565445,-33.430977],[-70.566218,-33.431006],[-70.566925,-33.431025],[-70.567641,-33.431041],[-70.568459,-33.431069],[-70.56941,-33.431092],[-70.569096,-33.433196],[-70.564052,-33.434527]]]},"properties":{"comuna":"La Reina","mancha_id":"13113-88b2c50b49fffff","clase":"Medio","nivel_medio":1.892,"nivel_medio_min":1.892,"nivel_medio_max":1.892,"pct_alto":16.1,"n_hexagonos":1,"area_ha":25.32}},{"type":"Feature","geometry":{"type":"Polygon","coordinates":[[[-70.518021,-33.450736],[-70.518654,-33.446489],[-70.514245,-33.44357],[-70.514879,-33.439323],[-70.519922,-33.437995],[-70.520555,-33.433747],[-70.519622,-33.433129],[-70.519654,-33.433116],[-70.520063,-33.43295],[-70.520586,-33.432736],[-70.520823,-33.43265],[-70.521129,-33.432556],[-70.521391,-33.432473],[-70.521553,-33.432398],[-70.521762,-33.432278],[-70.522007,-33.432134],[-70.522237,-33.43201],[-70.522327,-33.431962],[-70.522591,-33.431823],[-70.522917,-33.431653],[-70.522959,-33.431634],[-70.523,-33.431615],[-70.523125,-33.43162],[-70.523423,-33.431658],[-70.523606,-33.431682],[-70.524025,-33.43173],[-70.524231,-33.431737],[-70.525675,-33.431911],[-70.527373,-33.432116],[-70.529674,-33.432401],[-70.53125,-33.4326],[-70.53286,-33.432803],[-70.534881,-33.433054],[-70.535189,-33.433092],[-70.538018,-33.433439],[-70.538742,-33.432075],[-70.538924,-33.431577],[-70.539082,-33.430992],[-70.539196,-33.430368],[-70.53922,-33.429936],[-70.539227,-33.429385],[-70.539219,-33.429079],[-70.539155,-33.428846],[-70.53918,-33.42884],[-70.541479,-33.429085],[-70.541767,-33.429117],[-70.54514,-33.43135],[-70.550052,-33.430055],[-70.550275,-33.43008],[-70.554596,-33.432939],[-70.553962,-33.437187],[-70.548918,-33.438517],[-70.544507,-33.435598],[-70.539463,-33.436928],[-70.535053,-33.434009],[-70.530009,-33.435338],[-70.529375,-33.439586],[-70.533786,-33.442504],[-70.533152,-33.446751],[-70.528108,-33.44808],[-70.527475,-33.452327],[-70.522431,-33.453655],[-70.518021,-33.450736]]]},"properties":{"comuna":"La Reina","mancha_id":"13113-88b2c50a29fffff","clase":"Medio","nivel_medio":1.813,"nivel_medio_min":1.516,"nivel_medio_max":2.393,"pct_alto":52.6,"n_hexagonos":8,"area_ha":391.23}},{"type":"Feature","geometry":{"type":"Polygon","coordinates":[[[-70.487881,-33.4579],[-70.487762,-33.458697],[-70.487217,-33.45884],[-70.487317,-33.458696],[-70.487881,-33.4579]]]},"properties":{"comuna":"La Reina","mancha_id":"13113-88b2c50a11fffff","clase":"Medio","nivel_medio":2.267,"nivel_medio_min":2.267,"nivel_medio_max":2.267,"pct_alto":51.4,"n_hexagonos":1,"area_ha":0.22}},{"type":"Feature","geometry":{"type":"Polygon","coordinates":[[[-70.550052,-33.430055],[-70.54514,-33.43135],[-70.541767,-33.429117],[-70.550052,-33.430055]]]},"properties":{"comuna":"La Reina","mancha_id":"13113-88b2c519b1fffff","clase":"Alto","nivel_medio":2.541,"nivel_medio_min":2.541,"nivel_medio_max":2.541,"pct_alto":68.3,"n_hexagonos":1,"area_ha":7.91}},{"type":"Feature","geometry":{"type":"Polygon","coordinates":[[[-70.510469,-33.436404],[-70.505426,-33.437732],[-70.504648,-33.437217],[-70.505048,-33.436926],[-70.506033,-33.436599],[-70.506905,-33.436349],[-70.508359,-33.436071],[-70.509333,-33.435862],[-70.509735,-33.435783],[-70.509903,-33.43575],[-70.509957,-33.43574],[-70.510594,-33.435566],[-70.510682,-33.435542],[-70.511556,-33.435294],[-70.511927,-33.435273],[-70.51197,-33.435271],[-70.512727,-33.435229],[-70.513372,-33.435059],[-70.513608,-33.43501],[-70.513626,-33.435007],[-70.51412,-33.434906],[-70.514709,-33.434727],[-70.515363,-33.434535],[-70.515377,-33.434531],[-70.515525,-33.434488],[-70.516102,-33.434309],[-70.516702,-33.434082],[-70.517116,-33.433957],[-70.517119,-33.433956],[-70.517687,-33.433784],[-70.518277,-33.433586],[-70.518569,-33.433495],[-70.518802,-33.433378],[-70.518822,-33.433368],[-70.518855,-33.43337],[-70.518861,-33.433372],[-70.518929,-33.433394],[-70.519043,-33.433449],[-70.519166,-33.433548],[-70.519213,-33.433581],[-70.519227,-33.433591],[-70.51923,-33.433593],[-70.51924,-33.433599],[-70.519254,-33.43361],[-70.519267,-33.433618],[-70.519281,-33.433628],[-70.519305,-33.433645],[-70.519306,-33.433646],[-70.519306,-33.433646],[-70.519306,-33.433645],[-70.519306,-33.433645],[-70.519306,-33.433645],[-70.519306,-33.433645],[-70.519306,-33.433644],[-70.519306,-33.433641],[-70.519298,-33.433513],[-70.519298,-33.433507],[-70.519302,-33.433411],[-70.51933,-33.433339],[-70.519372,-33.433278],[-70.519385,-33.433266],[-70.519431,-33.433223],[-70.519455,-33.433209],[-70.519516,-33.433173],[-70.519622,-33.433129],[-70.520555,-33.433747],[-70.519922,-33.437995],[-70.514879,-33.439323],[-70.510469,-33.436404]]]},"properties":{"comuna":"La Reina","mancha_id":"13113-88b2c50a47fffff","clase":"Alto","nivel_medio":3.35,"nivel_medio_min":3.123,"nivel_medio_max":3.38,"pct_alto":91.6,"n_hexagonos":2,"area_ha":43.71}},{"type":"Feature","geometry":{"type":"Polygon","coordinates":[[[-70.499115,-33.447552],[-70.503524,-33.450472],[-70.508568,-33.449145],[-70.509202,-33.444898],[-70.514245,-33.44357],[-70.518654,-33.446489],[-70.518021,-33.450736],[-70.522431,-33.453655],[-70.521797,-33.457901],[-70.524168,-33.45947],[-70.522339,-33.459573],[-70.521945,-33.4596],[-70.521625,-33.459624],[-70.521357,-33.459631],[-70.521112,-33.459655],[-70.520972,-33.459702],[-70.52084,-33.459763],[-70.518237,-33.45983],[-70.516657,-33.45987],[-70.516753,-33.459228],[-70.512343,-33.45631],[-70.5073,-33.457637],[-70.506929,-33.460119],[-70.500248,-33.46029],[-70.497316,-33.460358],[-70.496921,-33.460367],[-70.490508,-33.460516],[-70.486388,-33.460611],[-70.486535,-33.460257],[-70.486537,-33.460253],[-70.486976,-33.45919],[-70.487217,-33.45884],[-70.487762,-33.458697],[-70.487881,-33.4579],[-70.488058,-33.457649],[-70.488171,-33.456581],[-70.488848,-33.455561],[-70.489614,-33.454779],[-70.4902,-33.45432],[-70.491436,-33.453764],[-70.491849,-33.453543],[-70.493201,-33.45282],[-70.493528,-33.452524],[-70.494508,-33.451638],[-70.494916,-33.450859],[-70.494955,-33.450458],[-70.494851,-33.449047],[-70.494826,-33.448681],[-70.499115,-33.447552]]]},"properties":{"comuna":"La Reina","mancha_id":"13113-88b2c50a03fffff","clase":"Alto","nivel_medio":3.115,"nivel_medio_min":2.55,"nivel_medio_max":3.487,"pct_alto":93.6,"n_hexagonos":10,"area_ha":366.63}},{"type":"Feature","geometry":{"type":"Polygon","coordinates":[[[-70.512343,-33.45631],[-70.516753,-33.459228],[-70.516657,-33.45987],[-70.506929,-33.460119],[-70.5073,-33.457637],[-70.512343,-33.45631]]]},"properties":{"comuna":"La Reina","mancha_id":"13113-88b2c50a3dfffff","clase":"Muy Alto","nivel_medio":3.726,"nivel_medio_min":3.726,"nivel_medio_max":3.726,"pct_alto":99.4,"n_hexagonos":1,"area_ha":26.21}},{"type":"Feature","geometry":{"type":"Polygon","coordinates":[[[-70.503524,-33.450472],[-70.499115,-33.447552],[-70.494826,-33.448681],[-70.494744,-33.447492],[-70.495109,-33.446758],[-70.49536,-33.44624],[-70.495804,-33.445523],[-70.496125,-33.445191],[-70.49636,-33.444948],[-70.497627,-33.443639],[-70.498877,-33.442728],[-70.498999,-33.44264],[-70.499731,-33.44218],[-70.500733,-33.44155],[-70.501421,-33.441131],[-70.501925,-33.440773],[-70.50254,-33.44004],[-70.503482,-33.438384],[-70.503968,-33.437777],[-70.504475,-33.437343],[-70.504648,-33.437217],[-70.505426,-33.437732],[-70.510469,-33.436404],[-70.514879,-33.439323],[-70.514245,-33.44357],[-70.509202,-33.444898],[-70.508568,-33.449145],[-70.503524,-33.450472]]]},"properties":{"comuna":"La Reina","mancha_id":"13113-88b2c50a01fffff","clase":"Muy Alto","nivel_medio":3.824,"nivel_medio_min":3.617,"nivel_medio_max":3.904,"pct_alto":98.6,"n_hexagonos":4,"area_ha":161.06}}],"bbox":[-70.5845,-33.46548,-70.48638,-33.42883]}