{"type":"FeatureCollection","features":[{"type":"Feature","geometry":{"type":"Polygon","coordinates":[[[-70.448216,-33.494365],[-70.448478,-33.494631],[-70.448564,-33.494719],[-70.448625,-33.494797],[-70.448763,-33.494888],[-70.448833,-33.494944],[-70.449354,-33.49496],[-70.449457,-33.494973],[-70.449611,-33.495007],[-70.449766,-33.495048],[-70.449878,-33.495126],[-70.450025,-33.49521],[-70.450094,-33.495266],[-70.450267,-33.4954],[-70.450629,-33.495582],[-70.450638,-33.495625],[-70.450743,-33.495752],[-70.450906,-33.495801],[-70.450975,-33.495821],[-70.451103,-33.49582],[-70.451308,-33.49581],[-70.451538,-33.495793],[-70.451716,-33.49572],[-70.451834,-33.495632],[-70.452039,-33.49558],[-70.452235,-33.495578],[-70.452458,-33.495604],[-70.452672,-33.49563],[-70.452843,-33.495649],[-70.453133,-33.495646],[-70.453423,-33.495614],[-70.453603,-33.495604],[-70.453765,-33.495603],[-70.453919,-33.495601],[-70.454175,-33.495612],[-70.454338,-33.495632],[-70.454577,-33.495629],[-70.454731,-33.495613],[-70.454858,-33.495561],[-70.455019,-33.495509],[-70.455164,-33.4955],[-70.455448,-33.495464],[-70.455722,-33.495242],[-70.455812,-33.49516],[-70.455891,-33.495121],[-70.456039,-33.495119],[-70.456153,-33.495123],[-70.456267,-33.495131],[-70.456335,-33.495154],[-70.456404,-33.495172],[-70.456501,-33.495171],[-70.456621,-33.49517],[-70.456774,-33.495149],[-70.456864,-33.495081],[-70.457083,-33.494916],[-70.457564,-33.494729],[-70.457622,-33.494706],[-70.458108,-33.495028],[-70.457473,-33.49927],[-70.461881,-33.502189],[-70.461247,-33.50643],[-70.456204,-33.507753],[-70.455726,-33.51095],[-70.455294,-33.51058],[-70.454675,-33.509875],[-70.454142,-33.509162],[-70.453356,-33.508484],[-70.4531,-33.508163],[-70.452753,-33.507852],[-70.452105,-33.507277],[-70.451414,-33.506789],[-70.450775,-33.506295],[-70.450169,-33.505964],[-70.449619,-33.50576],[-70.449219,-33.505708],[-70.448964,-33.505577],[-70.448817,-33.505502],[-70.448493,-33.50522],[-70.448072,-33.504941],[-70.447531,-33.504887],[-70.446949,-33.504866],[-70.446063,-33.504981],[-70.445291,-33.505111],[-70.445158,-33.5051],[-70.444925,-33.50508],[-70.443859,-33.504692],[-70.443066,-33.504262],[-70.442417,-33.503553],[-70.442135,-33.503293],[-70.441909,-33.503085],[-70.441401,-33.5028],[-70.441035,-33.502313],[-70.440587,-33.501825],[-70.440079,-33.501438],[-70.439388,-33.50089],[-70.438982,-33.500381],[-70.438718,-33.5],[-70.438575,-33.499792],[-70.438189,-33.499284],[-70.437782,-33.498877],[-70.437437,-33.49843],[-70.437059,-33.497994],[-70.436795,-33.497532],[-70.436501,-33.496951],[-70.436483,-33.496625],[-70.436419,-33.495436],[-70.43652,-33.494096],[-70.436772,-33.493346],[-70.436993,-33.492112],[-70.437547,-33.492178],[-70.438005,-33.492222],[-70.438345,-33.492132],[-70.438763,-33.492041],[-70.439185,-33.491991],[-70.4393,-33.491977],[-70.439829,-33.491935],[-70.440017,-33.491948],[-70.440129,-33.491989],[-70.440163,-33.492003],[-70.440266,-33.492023],[-70.440497,-33.492042],[-70.440574,-33.492056],[-70.440779,-33.492075],[-70.440985,-33.492094],[-70.441156,-33.492092],[-70.441327,-33.492119],[-70.441729,-33.492171],[-70.442004,-33.492239],[-70.442141,-33.492288],[-70.442526,-33.492284],[-70.442859,-33.492294],[-70.44303,-33.492299],[-70.443313,-33.492332],[-70.443588,-33.492464],[-70.443916,-33.492675],[-70.444089,-33.492759],[-70.444243,-33.492822],[-70.444347,-33.492864],[-70.444579,-33.492954],[-70.444819,-33.493008],[-70.445058,-33.493006],[-70.445212,-33.493032],[-70.445281,-33.493075],[-70.445342,-33.493131],[-70.445455,-33.493209],[-70.445515,-33.493244],[-70.445653,-33.493307],[-70.445928,-33.493425],[-70.446118,-33.493537],[-70.446178,-33.493565],[-70.446299,-33.493643],[-70.446463,-33.493712],[-70.446575,-33.493783],[-70.446773,-33.493866],[-70.446944,-33.4939],[-70.447304,-33.493939],[-70.447526,-33.493958],[-70.447698,-33.494027],[-70.447836,-33.494111],[-70.448,-33.494217],[-70.448216,-33.494365]]]},"properties":{"comuna":"La Florida","mancha_id":"13110-88b2c50a91fffff","clase":"Muy Bajo","nivel_medio":0.133,"nivel_medio_min":0.0,"nivel_medio_max":0.378,"pct_alto":2.0,"n_hexagonos":8,"area_ha":265.74}},{"type":"Feature","geometry":{"type":"Polygon","coordinates":[[[-70.469429,-33.516509],[-70.468795,-33.52075],[-70.466703,-33.521298],[-70.46647,-33.520623],[-70.466368,-33.520014],[-70.466105,-33.519291],[-70.465518,-33.518229],[-70.464933,-33.51732],[-70.464446,-33.51681],[-70.463944,-33.516209],[-70.462762,-33.515608],[-70.461108,-33.514845],[-70.460842,-33.514686],[-70.465021,-33.51359],[-70.469429,-33.516509]]]},"properties":{"comuna":"La Florida","mancha_id":"13110-88b2c508d9fffff","clase":"Muy Bajo","nivel_medio":0.473,"nivel_medio_min":0.473,"nivel_medio_max":0.473,"pct_alto":3.7,"n_hexagonos":1,"area_ha":29.29}},{"type":"Feature","geometry":{"type":"Polygon","coordinates":[[[-70.565569,-33.511581],[-70.565722,-33.511592],[-70.565983,-33.51161],[-70.566233,-33.511613],[-70.567522,-33.511546],[-70.567652,-33.511541],[-70.56791,-33.51153],[-70.568188,-33.511535],[-70.568758,-33.511556],[-70.569098,-33.511527],[-70.569876,-33.511459],[-70.57065,-33.51138],[-70.571013,-33.511343],[-70.57191,-33.511263],[-70.572945,-33.511164],[-70.574135,-33.511031],[-70.574877,-33.510929],[-70.575734,-33.510799],[-70.57693,-33.510708],[-70.577204,-33.510687],[-70.578251,-33.510616],[-70.579954,-33.510513],[-70.580644,-33.510459],[-70.580888,-33.510445],[-70.582309,-33.510382],[-70.583147,-33.510331],[-70.584977,-33.510213],[-70.585468,-33.51018],[-70.586458,-33.510112],[-70.586645,-33.510102],[-70.586936,-33.510087],[-70.587844,-33.510039],[-70.588544,-33.510173],[-70.588953,-33.510326],[-70.589328,-33.510423],[-70.589898,-33.510415],[-70.590214,-33.510352],[-70.590695,-33.510176],[-70.591221,-33.509925],[-70.591637,-33.509771],[-70.592087,-33.509702],[-70.592984,-33.509626],[-70.593022,-33.509623],[-70.594342,-33.509543],[-70.597436,-33.509325],[-70.599133,-33.509213],[-70.6,-33.50915],[-70.600536,-33.509111],[-70.601422,-33.509047],[-70.602329,-33.508981],[-70.603643,-33.508881],[-70.604094,-33.508847],[-70.60441,-33.508823],[-70.605512,-33.50874],[-70.60865,-33.50851],[-70.610776,-33.508412],[-70.611219,-33.508389],[-70.612521,-33.508322],[-70.613359,-33.50827],[-70.613823,-33.50823],[-70.613134,-33.508864],[-70.61159,-33.510354],[-70.611554,-33.510548],[-70.611454,-33.511437],[-70.611381,-33.512158],[-70.611349,-33.512429],[-70.611276,-33.513063],[-70.611139,-33.514087],[-70.611039,-33.515052],[-70.611002,-33.515532],[-70.610928,-33.516142],[-70.610739,-33.517659],[-70.610617,-33.518744],[-70.610538,-33.519493],[-70.610443,-33.520207],[-70.610366,-33.520784],[-70.610206,-33.521579],[-70.61015,-33.522204],[-70.610128,-33.522944],[-70.610028,-33.523708],[-70.609967,-33.524261],[-70.609865,-33.525082],[-70.609825,-33.525408],[-70.609806,-33.52556],[-70.609741,-33.526283],[-70.609754,-33.526772],[-70.609779,-33.527362],[-70.609801,-33.528328],[-70.609841,-33.528966],[-70.609908,-33.530492],[-70.609936,-33.531417],[-70.609947,-33.531801],[-70.609973,-33.532445],[-70.609974,-33.532561],[-70.609978,-33.532925],[-70.610038,-33.534207],[-70.610054,-33.534899],[-70.610073,-33.535349],[-70.610106,-33.53616],[-70.610116,-33.536473],[-70.610111,-33.537296],[-70.610327,-33.539539],[-70.610334,-33.539725],[-70.610375,-33.540883],[-70.610402,-33.541459],[-70.610423,-33.542332],[-70.610461,-33.543219],[-70.61051,-33.544493],[-70.610516,-33.544646],[-70.610551,-33.545559],[-70.610567,-33.546163],[-70.610586,-33.54666],[-70.611034,-33.546653],[-70.611913,-33.546621],[-70.613132,-33.546595],[-70.613458,-33.546582],[-70.613651,-33.546574],[-70.613773,-33.54657],[-70.614998,-33.54636],[-70.614745,-33.547296],[-70.614342,-33.548788],[-70.613406,-33.552037],[-70.612341,-33.555734],[-70.611391,-33.559061],[-70.610546,-33.562023],[-70.612694,-33.562258],[-70.612496,-33.563788],[-70.612388,-33.56453],[-70.611904,-33.567855],[-70.611539,-33.570313],[-70.609745,-33.569875],[-70.607829,-33.569353],[-70.607008,-33.569135],[-70.607504,-33.565814],[-70.603088,-33.5629],[-70.59804,-33.564227],[-70.597464,-33.568083],[-70.597424,-33.568101],[-70.59666,-33.56844],[-70.59545,-33.56887],[-70.59497,-33.56901],[-70.59457,-33.569213],[-70.592358,-33.569795],[-70.592335,-33.569952],[-70.592178,-33.569934],[-70.587735,-33.569371],[-70.586002,-33.569142],[-70.584939,-33.569011],[-70.583874,-33.568879],[-70.584074,-33.567897],[-70.584089,-33.567821],[-70.584219,-33.567147],[-70.584427,-33.566037],[-70.584505,-33.56559],[-70.583119,-33.565365],[-70.581055,-33.565018],[-70.579331,-33.564711],[-70.578587,-33.56458],[-70.57777,-33.564436],[-70.576332,-33.564182],[-70.575284,-33.563999],[-70.573083,-33.563612],[-70.572552,-33.563517],[-70.569983,-33.563067],[-70.569136,-33.562919],[-70.568246,-33.562763],[-70.567238,-33.562587],[-70.566582,-33.56247],[-70.565927,-33.562357],[-70.565572,-33.562294],[-70.564657,-33.562121],[-70.563425,-33.561902],[-70.562127,-33.561677],[-70.560307,-33.561361],[-70.559686,-33.561253],[-70.560191,-33.557875],[-70.559879,-33.55767],[-70.560274,-33.55719],[-70.560949,-33.556374],[-70.562245,-33.554783],[-70.562705,-33.554215],[-70.563111,-33.553733],[-70.563425,-33.553354],[-70.563706,-33.553023],[-70.563971,-33.55274],[-70.564548,-33.552063],[-70.56489,-33.551661],[-70.565871,-33.552309],[-70.570918,-33.550983],[-70.571552,-33.546742],[-70.567138,-33.543827],[-70.562091,-33.545153],[-70.557678,-33.542238],[-70.552631,-33.543564],[-70.548218,-33.540648],[-70.548852,-33.536407],[-70.553898,-33.535081],[-70.558311,-33.537997],[-70.563358,-33.53667],[-70.563991,-33.532428],[-70.559578,-33.529513],[-70.560211,-33.525271],[-70.565258,-33.523944],[-70.569671,-33.526859],[-70.569038,-33.531102],[-70.573452,-33.534017],[-70.578499,-33.53269],[-70.579132,-33.528447],[-70.574718,-33.525532],[-70.575351,-33.521289],[-70.570938,-33.518373],[-70.565891,-33.519701],[-70.561478,-33.516785],[-70.562111,-33.512542],[-70.560654,-33.511579],[-70.561706,-33.511474],[-70.562066,-33.51145],[-70.564106,-33.511374],[-70.5646,-33.511394],[-70.564797,-33.51144],[-70.565569,-33.511581]],[[-70.589859,-33.521548],[-70.584812,-33.522876],[-70.584179,-33.527119],[-70.588593,-33.530034],[-70.593641,-33.528706],[-70.594274,-33.524463],[-70.589859,-33.521548]]]},"properties":{"comuna":"La Florida","mancha_id":"13110-88b2c50825fffff","clase":"Muy Bajo","nivel_medio":0.107,"nivel_medio_min":0.0,"nivel_medio_max":0.42,"pct_alto":3.0,"n_hexagonos":54,"area_ha":2643.98}},{"type":"Feature","geometry":{"type":"Polygon","coordinates":[[[-70.592335,-33.569952],[-70.592358,-33.569795],[-70.59457,-33.569213],[-70.59375,-33.56963],[-70.593265,-33.569962],[-70.592635,-33.569985],[-70.592335,-33.569952]]]},"properties":{"comuna":"La Florida","mancha_id":"13110-88b2c54693fffff","clase":"Bajo","nivel_medio":1.329,"nivel_medio_min":1.329,"nivel_medio_max":1.329,"pct_alto":32.0,"n_hexagonos":1,"area_ha":0.52}},{"type":"Feature","geometry":{"type":"Polygon","coordinates":[[[-70.603088,-33.5629],[-70.607504,-33.565814],[-70.607008,-33.569135],[-70.604337,-33.568423],[-70.604001,-33.568505],[-70.602436,-33.568047],[-70.601938,-33.567902],[-70.601136,-33.567498],[-70.600672,-33.567359],[-70.59998,-33.5672],[-70.59901,-33.56723],[-70.59868,-33.56734],[-70.59817,-33.56777],[-70.597701,-33.567978],[-70.597464,-33.568083],[-70.59804,-33.564227],[-70.603088,-33.5629]]]},"properties":{"comuna":"La Florida","mancha_id":"13110-88b2c54691fffff","clase":"Bajo","nivel_medio":0.715,"nivel_medio_min":0.715,"nivel_medio_max":0.715,"pct_alto":19.6,"n_hexagonos":1,"area_ha":40.84}},{"type":"Feature","geometry":{"type":"Polygon","coordinates":[[[-70.461247,-33.50643],[-70.461881,-33.502189],[-70.466924,-33.500865],[-70.471333,-33.503784],[-70.470698,-33.508026],[-70.475107,-33.510944],[-70.474473,-33.515185],[-70.469429,-33.516509],[-70.465021,-33.51359],[-70.460842,-33.514686],[-70.45998,-33.514171],[-70.458203,-33.512856],[-70.456404,-33.511531],[-70.455726,-33.51095],[-70.456204,-33.507753],[-70.461247,-33.50643]]]},"properties":{"comuna":"La Florida","mancha_id":"13110-88b2c50ab1fffff","clase":"Bajo","nivel_medio":1.233,"nivel_medio_min":0.804,"nivel_medio_max":1.452,"pct_alto":26.5,"n_hexagonos":3,"area_ha":186.18}},{"type":"Feature","geometry":{"type":"Polygon","coordinates":[[[-70.46315,-33.493704],[-70.458108,-33.495028],[-70.457622,-33.494706],[-70.457757,-33.494651],[-70.457915,-33.494558],[-70.45814,-33.494407],[-70.458241,-33.494339],[-70.458361,-33.494329],[-70.458458,-33.494327],[-70.458537,-33.494336],[-70.458629,-33.49434],[-70.458708,-33.494334],[-70.458815,-33.494252],[-70.458849,-33.494203],[-70.458894,-33.494184],[-70.459019,-33.494154],[-70.459167,-33.494152],[-70.45943,-33.49423],[-70.459607,-33.494233],[-70.45984,-33.494225],[-70.460061,-33.494161],[-70.460213,-33.494044],[-70.460426,-33.493875],[-70.460516,-33.493788],[-70.460646,-33.493705],[-70.461064,-33.493528],[-70.461532,-33.493256],[-70.462163,-33.492823],[-70.462631,-33.492512],[-70.462981,-33.492341],[-70.463254,-33.492338],[-70.463355,-33.492337],[-70.46315,-33.493704]]]},"properties":{"comuna":"La Florida","mancha_id":"13110-88b2c50a83fffff","clase":"Bajo","nivel_medio":0.531,"nivel_medio_min":0.531,"nivel_medio_max":0.531,"pct_alto":13.1,"n_hexagonos":1,"area_ha":4.31}},{"type":"Feature","geometry":{"type":"Polygon","coordinates":[[[-70.538759,-33.539058],[-70.539393,-33.534817],[-70.544439,-33.533491],[-70.548852,-33.536407],[-70.548218,-33.540648],[-70.543172,-33.541974],[-70.538759,-33.539058]]]},"properties":{"comuna":"La Florida","mancha_id":"13110-88b2c509d5fffff","clase":"Bajo","nivel_medio":1.086,"nivel_medio_min":1.086,"nivel_medio_max":1.086,"pct_alto":28.4,"n_hexagonos":1,"area_ha":63.55}},{"type":"Feature","geometry":{"type":"Polygon","coordinates":[[[-70.559879,-33.55767],[-70.560191,-33.557875],[-70.559686,-33.561253],[-70.557353,-33.560849],[-70.55723,-33.560819],[-70.557718,-33.560299],[-70.55816,-33.55978],[-70.558579,-33.559269],[-70.559022,-33.558731],[-70.559589,-33.558034],[-70.559803,-33.557762],[-70.559879,-33.55767]]]},"properties":{"comuna":"La Florida","mancha_id":"13110-88b2c509b9fffff","clase":"Bajo","nivel_medio":0.967,"nivel_medio_min":0.967,"nivel_medio_max":0.967,"pct_alto":29.7,"n_hexagonos":1,"area_ha":5.07}},{"type":"Feature","geometry":{"type":"Polygon","coordinates":[[[-70.570918,-33.550983],[-70.565871,-33.552309],[-70.56489,-33.551661],[-70.565036,-33.551489],[-70.565367,-33.551104],[-70.565802,-33.550558],[-70.566102,-33.55021],[-70.566731,-33.549423],[-70.56736,-33.548596],[-70.567745,-33.54813],[-70.568183,-33.547574],[-70.566053,-33.547643],[-70.563757,-33.547731],[-70.562681,-33.547761],[-70.561766,-33.547771],[-70.5617,-33.547772],[-70.562091,-33.545153],[-70.567138,-33.543827],[-70.571552,-33.546742],[-70.570918,-33.550983]]]},"properties":{"comuna":"La Florida","mancha_id":"13110-88b2c50985fffff","clase":"Bajo","nivel_medio":1.105,"nivel_medio_min":1.105,"nivel_medio_max":1.105,"pct_alto":18.1,"n_hexagonos":1,"area_ha":47.07}},{"type":"Feature","geometry":{"type":"Polygon","coordinates":[[[-70.584179,-33.527119],[-70.584812,-33.522876],[-70.589859,-33.521548],[-70.594274,-33.524463],[-70.593641,-33.528706],[-70.588593,-33.530034],[-70.584179,-33.527119]]]},"properties":{"comuna":"La Florida","mancha_id":"13110-88b2c5093bfffff","clase":"Bajo","nivel_medio":0.554,"nivel_medio_min":0.554,"nivel_medio_max":0.554,"pct_alto":17.5,"n_hexagonos":1,"area_ha":63.6}},{"type":"Feature","geometry":{"type":"Polygon","coordinates":[[[-70.468795,-33.52075],[-70.473204,-33.523668],[-70.472579,-33.527846],[-70.47246,-33.527815],[-70.470664,-33.527426],[-70.470134,-33.52707],[-70.469018,-33.526791],[-70.468364,-33.526194],[-70.467546,-33.524963],[-70.467178,-33.523402],[-70.466877,-33.521802],[-70.466703,-33.521298],[-70.468795,-33.52075]]]},"properties":{"comuna":"La Florida","mancha_id":"13110-88b2c508d1fffff","clase":"Bajo","nivel_medio":1.303,"nivel_medio_min":1.303,"nivel_medio_max":1.303,"pct_alto":12.3,"n_hexagonos":1,"area_ha":30.2}},{"type":"Feature","geometry":{"type":"Polygon","coordinates":[[[-70.486433,-33.53242],[-70.485798,-33.536661],[-70.481791,-33.537712],[-70.481746,-33.537698],[-70.48084,-33.537356],[-70.480158,-33.536801],[-70.479736,-33.536109],[-70.479577,-33.535519],[-70.479662,-33.535155],[-70.479826,-33.534084],[-70.47997,-33.533176],[-70.480038,-33.532431],[-70.479965,-33.531506],[-70.479728,-33.530974],[-70.478844,-33.530584],[-70.478484,-33.530431],[-70.482023,-33.529503],[-70.486433,-33.53242]]]},"properties":{"comuna":"La Florida","mancha_id":"13110-88b2c5088bfffff","clase":"Bajo","nivel_medio":1.278,"nivel_medio_min":1.278,"nivel_medio_max":1.278,"pct_alto":40.5,"n_hexagonos":1,"area_ha":43.87}},{"type":"Feature","geometry":{"type":"Polygon","coordinates":[[[-70.527425,-33.517584],[-70.528058,-33.513342],[-70.523647,-33.510425],[-70.524073,-33.507573],[-70.524234,-33.507619],[-70.524285,-33.507633],[-70.524816,-33.507783],[-70.527673,-33.508092],[-70.528153,-33.508261],[-70.530833,-33.509203],[-70.533354,-33.510089],[-70.53339,-33.5101],[-70.533104,-33.512016],[-70.537515,-33.514932],[-70.536882,-33.519175],[-70.531836,-33.520501],[-70.527425,-33.517584]]]},"properties":{"comuna":"La Florida","mancha_id":"13110-88b2c50831fffff","clase":"Bajo","nivel_medio":1.213,"nivel_medio_min":1.183,"nivel_medio_max":1.265,"pct_alto":33.7,"n_hexagonos":2,"area_ha":99.98}},{"type":"Feature","geometry":{"type":"Polygon","coordinates":[[[-70.556432,-33.518112],[-70.552019,-33.515196],[-70.552475,-33.512142],[-70.552936,-33.512124],[-70.554594,-33.512051],[-70.556843,-33.511948],[-70.5577,-33.511885],[-70.559028,-33.511788],[-70.559604,-33.511733],[-70.560324,-33.511612],[-70.560654,-33.511579],[-70.562111,-33.512542],[-70.561478,-33.516785],[-70.565891,-33.519701],[-70.570938,-33.518373],[-70.575351,-33.521289],[-70.574718,-33.525532],[-70.579132,-33.528447],[-70.578499,-33.53269],[-70.573452,-33.534017],[-70.569038,-33.531102],[-70.569671,-33.526859],[-70.565258,-33.523944],[-70.560211,-33.525271],[-70.559578,-33.529513],[-70.563991,-33.532428],[-70.563358,-33.53667],[-70.558311,-33.537997],[-70.553898,-33.535081],[-70.554531,-33.530839],[-70.550119,-33.527923],[-70.550752,-33.523681],[-70.555798,-33.522355],[-70.556432,-33.518112]]]},"properties":{"comuna":"La Florida","mancha_id":"13110-88b2c50827fffff","clase":"Bajo","nivel_medio":0.765,"nivel_medio_min":0.504,"nivel_medio_max":1.38,"pct_alto":21.9,"n_hexagonos":6,"area_ha":368.87}},{"type":"Feature","geometry":{"type":"Polygon","coordinates":[[[-70.472536,-33.495316],[-70.467559,-33.496623],[-70.466924,-33.500865],[-70.461881,-33.502189],[-70.457473,-33.49927],[-70.458108,-33.495028],[-70.46315,-33.493704],[-70.463355,-33.492337],[-70.463522,-33.492335],[-70.463773,-33.492341],[-70.463859,-33.492369],[-70.463933,-33.492421],[-70.464072,-33.492505],[-70.464163,-33.492533],[-70.464266,-33.49256],[-70.46438,-33.492559],[-70.464556,-33.492533],[-70.464675,-33.492479],[-70.464748,-33.492444],[-70.464833,-33.49242],[-70.464981,-33.492399],[-70.46506,-33.492364],[-70.465337,-33.492242],[-70.465609,-33.492157],[-70.465717,-33.492156],[-70.465774,-33.492146],[-70.465882,-33.492145],[-70.465922,-33.492144],[-70.466059,-33.492147],[-70.466139,-33.492185],[-70.466232,-33.49225],[-70.466283,-33.492264],[-70.466352,-33.492268],[-70.466437,-33.492272],[-70.466574,-33.49227],[-70.466614,-33.49227],[-70.46675,-33.492273],[-70.46679,-33.492272],[-70.466859,-33.492272],[-70.466955,-33.49228],[-70.467087,-33.492312],[-70.46715,-33.492354],[-70.467317,-33.492428],[-70.467736,-33.492953],[-70.468143,-33.49344],[-70.468464,-33.493937],[-70.468847,-33.494305],[-70.46932,-33.494686],[-70.469603,-33.494902],[-70.469707,-33.494987],[-70.469771,-33.495077],[-70.469892,-33.495175],[-70.470001,-33.495203],[-70.470109,-33.495201],[-70.470194,-33.495181],[-70.470256,-33.495152],[-70.470347,-33.495108],[-70.47038,-33.49505],[-70.470419,-33.494993],[-70.470492,-33.494934],[-70.470588,-33.494866],[-70.470712,-33.494822],[-70.470791,-33.494797],[-70.470881,-33.494701],[-70.471068,-33.494632],[-70.471228,-33.494592],[-70.471482,-33.49455],[-70.471579,-33.494544],[-70.471653,-33.494548],[-70.471779,-33.494575],[-70.471899,-33.494636],[-70.4719,-33.494689],[-70.471942,-33.494825],[-70.471962,-33.494955],[-70.472146,-33.495096],[-70.472285,-33.495223],[-70.472435,-33.495293],[-70.472536,-33.495316]]]},"properties":{"comuna":"La Florida","mancha_id":"13110-88b2c50a87fffff","clase":"Medio","nivel_medio":1.818,"nivel_medio_min":1.605,"nivel_medio_max":2.489,"pct_alto":54.8,"n_hexagonos":2,"area_ha":83.74}},{"type":"Feature","geometry":{"type":"Polygon","coordinates":[[[-70.544439,-33.533491],[-70.545072,-33.52925],[-70.550119,-33.527923],[-70.554531,-33.530839],[-70.553898,-33.535081],[-70.548852,-33.536407],[-70.544439,-33.533491]]]},"properties":{"comuna":"La Florida","mancha_id":"13110-88b2c509c3fffff","clase":"Medio","nivel_medio":1.952,"nivel_medio_min":1.952,"nivel_medio_max":1.952,"pct_alto":62.4,"n_hexagonos":1,"area_ha":63.56}},{"type":"Feature","geometry":{"type":"Polygon","coordinates":[[[-70.557678,-33.542238],[-70.562091,-33.545153],[-70.5617,-33.547772],[-70.561155,-33.547777],[-70.560056,-33.547805],[-70.558791,-33.547827],[-70.557945,-33.547835],[-70.556714,-33.54788],[-70.554327,-33.547961],[-70.553635,-33.548026],[-70.553058,-33.548001],[-70.552702,-33.547958],[-70.55223,-33.547958],[-70.551997,-33.547805],[-70.546951,-33.54913],[-70.542538,-33.546215],[-70.543172,-33.541974],[-70.548218,-33.540648],[-70.552631,-33.543564],[-70.557678,-33.542238]]]},"properties":{"comuna":"La Florida","mancha_id":"13110-88b2c50981fffff","clase":"Medio","nivel_medio":2.187,"nivel_medio_min":2.139,"nivel_medio_max":2.254,"pct_alto":61.3,"n_hexagonos":2,"area_ha":109.33}},{"type":"Feature","geometry":{"type":"Polygon","coordinates":[[[-70.474473,-33.515185],[-70.475107,-33.510944],[-70.480151,-33.50962],[-70.48456,-33.512538],[-70.483926,-33.51678],[-70.478882,-33.518103],[-70.478248,-33.522345],[-70.482657,-33.525262],[-70.482023,-33.529503],[-70.478484,-33.530431],[-70.477943,-33.530202],[-70.477041,-33.529691],[-70.476654,-33.529418],[-70.475637,-33.528971],[-70.474463,-33.528336],[-70.472579,-33.527846],[-70.473204,-33.523668],[-70.468795,-33.52075],[-70.469429,-33.516509],[-70.474473,-33.515185]]]},"properties":{"comuna":"La Florida","mancha_id":"13110-88b2c508cbfffff","clase":"Medio","nivel_medio":2.191,"nivel_medio_min":1.991,"nivel_medio_max":2.361,"pct_alto":63.5,"n_hexagonos":3,"area_ha":186.23}},{"type":"Feature","geometry":{"type":"Polygon","coordinates":[[[-70.485798,-33.536661],[-70.490208,-33.539578],[-70.489633,-33.543426],[-70.489352,-33.543418],[-70.487141,-33.543278],[-70.486775,-33.543011],[-70.486528,-33.542556],[-70.486249,-33.541779],[-70.486376,-33.540711],[-70.486296,-33.540039],[-70.48603,-33.539448],[-70.485657,-33.539145],[-70.485156,-33.538836],[-70.484698,-33.538576],[-70.484063,-33.538405],[-70.483333,-33.538185],[-70.482731,-33.537999],[-70.481791,-33.537712],[-70.485798,-33.536661]]]},"properties":{"comuna":"La Florida","mancha_id":"13110-88b2c50883fffff","clase":"Medio","nivel_medio":1.923,"nivel_medio_min":1.923,"nivel_medio_max":1.923,"pct_alto":41.4,"n_hexagonos":1,"area_ha":25.05}},{"type":"Feature","geometry":{"type":"Polygon","coordinates":[[[-70.521746,-33.523152],[-70.522379,-33.51891],[-70.517968,-33.515993],[-70.518602,-33.51175],[-70.523647,-33.510425],[-70.528058,-33.513342],[-70.527425,-33.517584],[-70.531836,-33.520501],[-70.531202,-33.524743],[-70.526157,-33.526068],[-70.521746,-33.523152]]]},"properties":{"comuna":"La Florida","mancha_id":"13110-88b2c50833fffff","clase":"Medio","nivel_medio":2.238,"nivel_medio_min":2.07,"nivel_medio_max":2.405,"pct_alto":57.7,"n_hexagonos":2,"area_ha":127.13}},{"type":"Feature","geometry":{"type":"Polygon","coordinates":[[[-70.552475,-33.512142],[-70.552019,-33.515196],[-70.556432,-33.518112],[-70.555798,-33.522355],[-70.550752,-33.523681],[-70.54634,-33.520765],[-70.541294,-33.522091],[-70.536882,-33.519175],[-70.537515,-33.514932],[-70.533104,-33.512016],[-70.53339,-33.5101],[-70.534142,-33.510341],[-70.536122,-33.510857],[-70.537537,-33.511182],[-70.53856,-33.511694],[-70.540261,-33.512073],[-70.541753,-33.512401],[-70.542695,-33.512494],[-70.542727,-33.512491],[-70.543354,-33.512434],[-70.543784,-33.512427],[-70.544439,-33.512452],[-70.544919,-33.512492],[-70.545519,-33.512503],[-70.546224,-33.512467],[-70.547091,-33.512387],[-70.548454,-33.512318],[-70.549736,-33.512257],[-70.550734,-33.512212],[-70.552475,-33.512142]]]},"properties":{"comuna":"La Florida","mancha_id":"13110-88b2c50823fffff","clase":"Medio","nivel_medio":1.672,"nivel_medio_min":1.511,"nivel_medio_max":1.907,"pct_alto":49.9,"n_hexagonos":4,"area_ha":182.87}},{"type":"Feature","geometry":{"type":"Polygon","coordinates":[[[-70.546951,-33.54913],[-70.551997,-33.547805],[-70.55223,-33.547958],[-70.552016,-33.547959],[-70.55165,-33.547967],[-70.551151,-33.548029],[-70.550971,-33.548096],[-70.550508,-33.548276],[-70.55006,-33.548467],[-70.549514,-33.548689],[-70.548987,-33.548906],[-70.548621,-33.549085],[-70.548205,-33.54944],[-70.547946,-33.549694],[-70.547864,-33.549807],[-70.547538,-33.550384],[-70.547312,-33.551012],[-70.547268,-33.551577],[-70.547264,-33.552061],[-70.547258,-33.552775],[-70.547073,-33.552964],[-70.546713,-33.552911],[-70.546426,-33.55264],[-70.546951,-33.54913]]]},"properties":{"comuna":"La Florida","mancha_id":"13110-88b2c50983fffff","clase":"Alto","nivel_medio":3.08,"nivel_medio_min":3.08,"nivel_medio_max":3.08,"pct_alto":100.0,"n_hexagonos":1,"area_ha":4.22}},{"type":"Feature","geometry":{"type":"Polygon","coordinates":[[[-70.510415,-33.501673],[-70.514825,-33.50459],[-70.517947,-33.50377],[-70.517949,-33.503771],[-70.51795,-33.503771],[-70.518082,-33.503852],[-70.518103,-33.503865],[-70.518107,-33.503868],[-70.518122,-33.503877],[-70.518139,-33.503888],[-70.518238,-33.503951],[-70.518239,-33.503952],[-70.518244,-33.503954],[-70.518249,-33.503958],[-70.518542,-33.504199],[-70.518599,-33.504247],[-70.518626,-33.504269],[-70.518627,-33.504269],[-70.518661,-33.504298],[-70.518672,-33.504307],[-70.518686,-33.504318],[-70.518699,-33.504329],[-70.518726,-33.504351],[-70.518727,-33.504352],[-70.518774,-33.504391],[-70.518778,-33.504395],[-70.518851,-33.504445],[-70.51899,-33.504543],[-70.519194,-33.504687],[-70.519466,-33.504878],[-70.519505,-33.504905],[-70.519507,-33.504906],[-70.519508,-33.504907],[-70.519721,-33.505057],[-70.519765,-33.505088],[-70.520307,-33.505428],[-70.521827,-33.50636],[-70.523218,-33.507212],[-70.523578,-33.507433],[-70.524073,-33.507573],[-70.523647,-33.510425],[-70.518602,-33.51175],[-70.517968,-33.515993],[-70.512923,-33.517318],[-70.512289,-33.52156],[-70.507245,-33.522884],[-70.506611,-33.527126],[-70.511022,-33.530042],[-70.510387,-33.534283],[-70.514799,-33.5372],[-70.519844,-33.535876],[-70.520478,-33.531635],[-70.525523,-33.53031],[-70.529935,-33.533226],[-70.534981,-33.531901],[-70.535614,-33.527659],[-70.531202,-33.524743],[-70.531836,-33.520501],[-70.536882,-33.519175],[-70.541294,-33.522091],[-70.54634,-33.520765],[-70.550752,-33.523681],[-70.550119,-33.527923],[-70.545072,-33.52925],[-70.544439,-33.533491],[-70.539393,-33.534817],[-70.538759,-33.539058],[-70.533713,-33.540383],[-70.533079,-33.544624],[-70.537492,-33.54754],[-70.537295,-33.548855],[-70.537155,-33.54875],[-70.536565,-33.548261],[-70.536149,-33.547932],[-70.535138,-33.547524],[-70.534363,-33.546856],[-70.533794,-33.546291],[-70.533389,-33.545942],[-70.532883,-33.545247],[-70.532534,-33.544767],[-70.532501,-33.544722],[-70.531808,-33.544177],[-70.531405,-33.544059],[-70.530529,-33.544069],[-70.529082,-33.544049],[-70.527907,-33.543636],[-70.527635,-33.543453],[-70.527338,-33.543332],[-70.52702,-33.543271],[-70.525635,-33.543249],[-70.525112,-33.543134],[-70.524573,-33.543122],[-70.523939,-33.543051],[-70.523629,-33.542982],[-70.521819,-33.542576],[-70.521407,-33.542481],[-70.51962,-33.542417],[-70.518689,-33.542486],[-70.517341,-33.542554],[-70.51681,-33.542581],[-70.516073,-33.542702],[-70.515872,-33.542735],[-70.51468,-33.543015],[-70.513696,-33.543456],[-70.51216,-33.544217],[-70.511483,-33.5445],[-70.509977,-33.54489],[-70.508781,-33.545027],[-70.508646,-33.545043],[-70.507421,-33.545394],[-70.506488,-33.545806],[-70.504839,-33.546356],[-70.504114,-33.546458],[-70.503602,-33.546486],[-70.50296,-33.546465],[-70.502849,-33.546452],[-70.502367,-33.546264],[-70.50185,-33.54602],[-70.501633,-33.545844],[-70.501467,-33.545624],[-70.500991,-33.54533],[-70.500678,-33.54516],[-70.5,-33.544633],[-70.499494,-33.544217],[-70.499231,-33.54406],[-70.498687,-33.543733],[-70.497529,-33.543559],[-70.496701,-33.543509],[-70.496033,-33.543209],[-70.494697,-33.543257],[-70.493668,-33.54343],[-70.492257,-33.543543],[-70.490919,-33.543463],[-70.489633,-33.543426],[-70.490208,-33.539578],[-70.485798,-33.536661],[-70.486433,-33.53242],[-70.482023,-33.529503],[-70.482657,-33.525262],[-70.478248,-33.522345],[-70.478882,-33.518103],[-70.483926,-33.51678],[-70.48456,-33.512538],[-70.480151,-33.50962],[-70.475107,-33.510944],[-70.470698,-33.508026],[-70.471333,-33.503784],[-70.466924,-33.500865],[-70.467559,-33.496623],[-70.472536,-33.495316],[-70.472612,-33.495334],[-70.472676,-33.495348],[-70.472755,-33.495366],[-70.472823,-33.495336],[-70.472867,-33.495264],[-70.472888,-33.495187],[-70.472893,-33.495097],[-70.472909,-33.495035],[-70.472964,-33.494958],[-70.4731,-33.49487],[-70.47319,-33.494845],[-70.47323,-33.494845],[-70.473333,-33.494872],[-70.473362,-33.494915],[-70.473426,-33.494971],[-70.473478,-33.494999],[-70.473592,-33.495017],[-70.473866,-33.495037],[-70.474002,-33.495041],[-70.474133,-33.495044],[-70.47423,-33.495052],[-70.47431,-33.495051],[-70.474458,-33.495049],[-70.474663,-33.495061],[-70.474846,-33.495074],[-70.475017,-33.495076],[-70.475387,-33.495091],[-70.475644,-33.495107],[-70.475832,-33.495109],[-70.476191,-33.495139],[-70.476419,-33.49515],[-70.476562,-33.495172],[-70.476688,-33.495195],[-70.476814,-33.495246],[-70.476877,-33.495293],[-70.476975,-33.495344],[-70.47705,-33.49541],[-70.477074,-33.495457],[-70.477099,-33.495586],[-70.477065,-33.49562],[-70.476963,-33.495659],[-70.47681,-33.495768],[-70.47685,-33.4958],[-70.476986,-33.495964],[-70.477027,-33.496045],[-70.477086,-33.496164],[-70.477179,-33.496272],[-70.47726,-33.496376],[-70.477531,-33.496564],[-70.477657,-33.496596],[-70.477822,-33.496608],[-70.477931,-33.496631],[-70.478046,-33.496668],[-70.478166,-33.496719],[-70.478315,-33.496765],[-70.478418,-33.496778],[-70.478629,-33.496789],[-70.478674,-33.496794],[-70.479019,-33.496776],[-70.479245,-33.49683],[-70.479462,-33.496899],[-70.479491,-33.496917],[-70.479662,-33.49692],[-70.479782,-33.496933],[-70.47989,-33.496946],[-70.480078,-33.496963],[-70.480142,-33.49701],[-70.480212,-33.497095],[-70.480264,-33.497161],[-70.480288,-33.497209],[-70.480386,-33.497279],[-70.480443,-33.497307],[-70.480455,-33.497313],[-70.480564,-33.497372],[-70.480613,-33.497422],[-70.480658,-33.497439],[-70.480715,-33.49749],[-70.480742,-33.497525],[-70.480819,-33.497628],[-70.480854,-33.497676],[-70.480906,-33.497713],[-70.481063,-33.497915],[-70.481093,-33.497996],[-70.481168,-33.498076],[-70.481209,-33.498123],[-70.481284,-33.498166],[-70.481456,-33.498273],[-70.481491,-33.498306],[-70.481543,-33.498368],[-70.481601,-33.498391],[-70.481708,-33.498484],[-70.481728,-33.498551],[-70.481758,-33.498591],[-70.481792,-33.498627],[-70.481794,-33.498628],[-70.481843,-33.498638],[-70.481878,-33.498647],[-70.481912,-33.498649],[-70.481947,-33.498649],[-70.481992,-33.49865],[-70.482032,-33.498663],[-70.482064,-33.498676],[-70.482101,-33.498696],[-70.482137,-33.49871],[-70.482183,-33.498743],[-70.482217,-33.498766],[-70.482256,-33.498788],[-70.482316,-33.498824],[-70.482374,-33.498863],[-70.48242,-33.498899],[-70.482507,-33.498944],[-70.482544,-33.49897],[-70.482586,-33.499004],[-70.482622,-33.499025],[-70.482671,-33.499056],[-70.482715,-33.499096],[-70.482752,-33.499137],[-70.482783,-33.49917],[-70.482821,-33.499212],[-70.482854,-33.499255],[-70.482889,-33.499294],[-70.482927,-33.499337],[-70.482987,-33.499397],[-70.483038,-33.49945],[-70.48308,-33.499483],[-70.48314,-33.499532],[-70.483202,-33.499584],[-70.483268,-33.499629],[-70.483321,-33.499672],[-70.483322,-33.499673],[-70.483375,-33.499719],[-70.483497,-33.499784],[-70.483583,-33.499826],[-70.483658,-33.499869],[-70.483851,-33.500003],[-70.483925,-33.500016],[-70.483979,-33.500029],[-70.484036,-33.500031],[-70.484099,-33.50004],[-70.484174,-33.500087],[-70.484203,-33.500124],[-70.484235,-33.500167],[-70.484284,-33.500197],[-70.484327,-33.500233],[-70.484365,-33.500277],[-70.484383,-33.500339],[-70.48439,-33.500377],[-70.484427,-33.50042],[-70.484425,-33.500477],[-70.484418,-33.500546],[-70.484397,-33.500625],[-70.484395,-33.50069],[-70.48441,-33.50074],[-70.484442,-33.500802],[-70.484472,-33.500882],[-70.484513,-33.500941],[-70.484576,-33.500974],[-70.484651,-33.500995],[-70.484842,-33.500992],[-70.484902,-33.501004],[-70.484956,-33.501041],[-70.484988,-33.501093],[-70.485026,-33.50115],[-70.485084,-33.501209],[-70.485122,-33.501259],[-70.485167,-33.501373],[-70.485247,-33.501391],[-70.485327,-33.501414],[-70.485382,-33.501432],[-70.485402,-33.501441],[-70.485439,-33.501462],[-70.485476,-33.501498],[-70.485542,-33.501512],[-70.485635,-33.501508],[-70.485725,-33.501499],[-70.485773,-33.501488],[-70.485854,-33.501465],[-70.485899,-33.50144],[-70.486001,-33.501436],[-70.486079,-33.501447],[-70.486147,-33.501455],[-70.486217,-33.501455],[-70.486253,-33.501454],[-70.486359,-33.501433],[-70.486438,-33.501413],[-70.486486,-33.501402],[-70.486527,-33.501394],[-70.486603,-33.501399],[-70.486675,-33.50141],[-70.486747,-33.50143],[-70.486816,-33.501432],[-70.486884,-33.501431],[-70.486978,-33.501427],[-70.487057,-33.501417],[-70.487174,-33.501355],[-70.487273,-33.501298],[-70.487348,-33.501265],[-70.487425,-33.501225],[-70.487475,-33.501224],[-70.487596,-33.501246],[-70.487638,-33.501261],[-70.487741,-33.50132],[-70.487764,-33.50136],[-70.487803,-33.501403],[-70.487895,-33.501469],[-70.487989,-33.501537],[-70.488035,-33.501558],[-70.48814,-33.501557],[-70.488244,-33.501546],[-70.488334,-33.50153],[-70.488452,-33.501501],[-70.488494,-33.501474],[-70.488557,-33.50143],[-70.488628,-33.501364],[-70.488653,-33.501312],[-70.48868,-33.501273],[-70.488705,-33.501217],[-70.488718,-33.501175],[-70.488732,-33.501129],[-70.488797,-33.501052],[-70.488824,-33.500933],[-70.48886,-33.500881],[-70.488898,-33.500805],[-70.488912,-33.50076],[-70.488935,-33.500715],[-70.488984,-33.500657],[-70.489033,-33.500619],[-70.48913,-33.500576],[-70.48915,-33.500559],[-70.489187,-33.50054],[-70.489229,-33.500508],[-70.489291,-33.500481],[-70.489376,-33.500483],[-70.489421,-33.500517],[-70.489474,-33.500564],[-70.489524,-33.500613],[-70.489551,-33.50065],[-70.489721,-33.500793],[-70.489813,-33.500842],[-70.489857,-33.500844],[-70.48989,-33.500846],[-70.489968,-33.50084],[-70.490025,-33.500813],[-70.490092,-33.500774],[-70.490142,-33.500734],[-70.490185,-33.500695],[-70.490231,-33.500654],[-70.490267,-33.500624],[-70.490341,-33.5006],[-70.49038,-33.500611],[-70.490426,-33.500621],[-70.490474,-33.500641],[-70.490514,-33.500674],[-70.490592,-33.50074],[-70.490721,-33.50078],[-70.490911,-33.500812],[-70.490988,-33.500845],[-70.491086,-33.500856],[-70.491221,-33.500856],[-70.491324,-33.500845],[-70.491366,-33.500836],[-70.49144,-33.500813],[-70.491462,-33.500804],[-70.491507,-33.50077],[-70.491531,-33.500735],[-70.491569,-33.5007],[-70.491598,-33.500673],[-70.491697,-33.500612],[-70.491735,-33.500585],[-70.491809,-33.500507],[-70.491822,-33.500473],[-70.491883,-33.50039],[-70.491903,-33.500339],[-70.491927,-33.500273],[-70.491932,-33.500224],[-70.491953,-33.500155],[-70.491961,-33.500086],[-70.491966,-33.500045],[-70.491989,-33.49998],[-70.492052,-33.499888],[-70.492084,-33.499815],[-70.492163,-33.499709],[-70.492291,-33.499579],[-70.492366,-33.499512],[-70.492413,-33.499475],[-70.492449,-33.499453],[-70.4925,-33.499429],[-70.492549,-33.49941],[-70.492598,-33.499397],[-70.492654,-33.499385],[-70.492718,-33.499374],[-70.492776,-33.499367],[-70.492832,-33.499364],[-70.492854,-33.499363],[-70.492914,-33.49936],[-70.492974,-33.49936],[-70.493009,-33.499362],[-70.493076,-33.499362],[-70.493143,-33.499364],[-70.493205,-33.49937],[-70.493252,-33.49938],[-70.493292,-33.499387],[-70.493332,-33.499393],[-70.493387,-33.499404],[-70.493436,-33.499412],[-70.493503,-33.499425],[-70.493554,-33.499439],[-70.493621,-33.49945],[-70.493674,-33.49946],[-70.493725,-33.499471],[-70.493769,-33.499482],[-70.493829,-33.499488],[-70.493901,-33.499498],[-70.493947,-33.499494],[-70.493988,-33.499492],[-70.494039,-33.499485],[-70.494084,-33.499476],[-70.494128,-33.499465],[-70.494193,-33.499447],[-70.49424,-33.499438],[-70.494284,-33.49943],[-70.49432,-33.499427],[-70.494351,-33.499421],[-70.494391,-33.499416],[-70.494433,-33.49941],[-70.494473,-33.499409],[-70.494542,-33.499398],[-70.494629,-33.49938],[-70.494736,-33.499363],[-70.494792,-33.499352],[-70.494854,-33.499341],[-70.494905,-33.499338],[-70.494939,-33.499329],[-70.494979,-33.499318],[-70.495042,-33.499289],[-70.495124,-33.499248],[-70.49517,-33.499224],[-70.495202,-33.499207],[-70.49526,-33.499176],[-70.495321,-33.499146],[-70.495394,-33.499106],[-70.495459,-33.499074],[-70.495486,-33.499061],[-70.495555,-33.49903],[-70.49564,-33.498986],[-70.495756,-33.498938],[-70.49588,-33.498888],[-70.495964,-33.498863],[-70.496022,-33.498843],[-70.496079,-33.498819],[-70.496142,-33.498793],[-70.496178,-33.498771],[-70.496231,-33.498739],[-70.496303,-33.498695],[-70.496352,-33.498667],[-70.49641,-33.49863],[-70.496483,-33.498591],[-70.496559,-33.498554],[-70.496644,-33.498517],[-70.496735,-33.498477],[-70.496845,-33.498418],[-70.496941,-33.498375],[-70.496976,-33.498353],[-70.497019,-33.498337],[-70.497084,-33.498309],[-70.497135,-33.498283],[-70.49719,-33.498252],[-70.497246,-33.498221],[-70.497318,-33.49818],[-70.497389,-33.498143],[-70.497467,-33.4981],[-70.497554,-33.498056],[-70.497643,-33.498015],[-70.497753,-33.497975],[-70.497798,-33.497946],[-70.497847,-33.497928],[-70.497905,-33.497902],[-70.497974,-33.497865],[-70.498055,-33.497824],[-70.498139,-33.497784],[-70.498215,-33.497748],[-70.49832,-33.497704],[-70.498367,-33.497688],[-70.498409,-33.497671],[-70.498443,-33.497662],[-70.498494,-33.497657],[-70.498545,-33.497655],[-70.498611,-33.497659],[-70.498691,-33.497667],[-70.498743,-33.497678],[-70.498796,-33.497699],[-70.498832,-33.497716],[-70.49889,-33.497744],[-70.498936,-33.497766],[-70.498974,-33.497781],[-70.499005,-33.497793],[-70.499038,-33.497804],[-70.499072,-33.497813],[-70.499109,-33.497823],[-70.499122,-33.497826],[-70.499134,-33.497829],[-70.499165,-33.497834],[-70.499179,-33.497837],[-70.499194,-33.49784],[-70.499249,-33.49785],[-70.499338,-33.497865],[-70.499465,-33.497888],[-70.499523,-33.497897],[-70.499571,-33.497922],[-70.499611,-33.49794],[-70.499625,-33.497946],[-70.499704,-33.497985],[-70.499746,-33.49801],[-70.499802,-33.498047],[-70.499851,-33.498075],[-70.499893,-33.498098],[-70.499959,-33.498141],[-70.499986,-33.498166],[-70.500011,-33.498198],[-70.500033,-33.498239],[-70.500035,-33.498251],[-70.500037,-33.498263],[-70.500037,-33.498291],[-70.500019,-33.498364],[-70.500007,-33.498425],[-70.500006,-33.498442],[-70.500002,-33.498477],[-70.499989,-33.498526],[-70.49998,-33.498581],[-70.499968,-33.498632],[-70.499966,-33.498663],[-70.499961,-33.498697],[-70.499968,-33.498732],[-70.499985,-33.498786],[-70.500011,-33.49885],[-70.500033,-33.498902],[-70.500064,-33.498952],[-70.500104,-33.499018],[-70.500139,-33.499075],[-70.500179,-33.499137],[-70.500203,-33.499159],[-70.500238,-33.499184],[-70.500281,-33.499212],[-70.500325,-33.499246],[-70.500385,-33.499298],[-70.500421,-33.499312],[-70.500472,-33.499353],[-70.500543,-33.499394],[-70.500616,-33.499435],[-70.500698,-33.499473],[-70.500767,-33.499498],[-70.500818,-33.499516],[-70.500871,-33.499528],[-70.500936,-33.49953],[-70.501,-33.49953],[-70.501043,-33.499525],[-70.501063,-33.499523],[-70.501111,-33.499518],[-70.50118,-33.499514],[-70.501258,-33.499509],[-70.501343,-33.4995],[-70.501405,-33.499496],[-70.501467,-33.499495],[-70.501504,-33.499493],[-70.50159,-33.49948],[-70.50171,-33.499464],[-70.501782,-33.499464],[-70.501831,-33.499467],[-70.501874,-33.499466],[-70.50211,-33.49949],[-70.50278,-33.49956],[-70.50301,-33.49959],[-70.504324,-33.499611],[-70.504397,-33.499622],[-70.504453,-33.499628],[-70.504508,-33.499639],[-70.504575,-33.499649],[-70.504667,-33.499659],[-70.504724,-33.49967],[-70.504773,-33.499676],[-70.504824,-33.499678],[-70.504889,-33.499684],[-70.504955,-33.499688],[-70.50504,-33.499703],[-70.505111,-33.499722],[-70.505161,-33.499736],[-70.505169,-33.499739],[-70.505246,-33.499763],[-70.505311,-33.49979],[-70.505382,-33.499814],[-70.505462,-33.499848],[-70.505539,-33.499878],[-70.505619,-33.499908],[-70.505687,-33.499938],[-70.505721,-33.499954],[-70.505745,-33.499965],[-70.505848,-33.500013],[-70.505926,-33.500051],[-70.505995,-33.500092],[-70.506148,-33.500135],[-70.506367,-33.500164],[-70.506393,-33.500167],[-70.506549,-33.500189],[-70.506598,-33.500207],[-70.506644,-33.500223],[-70.506705,-33.500243],[-70.506747,-33.500262],[-70.506782,-33.500283],[-70.506808,-33.500288],[-70.506835,-33.500293],[-70.506858,-33.500298],[-70.506914,-33.50031],[-70.50695,-33.500321],[-70.507,-33.500337],[-70.507141,-33.500382],[-70.50721,-33.500402],[-70.507262,-33.500415],[-70.507295,-33.500422],[-70.507327,-33.500428],[-70.507375,-33.500435],[-70.507413,-33.500438],[-70.507467,-33.500448],[-70.507498,-33.500455],[-70.507538,-33.500468],[-70.507565,-33.50048],[-70.507662,-33.500523],[-70.507704,-33.500549],[-70.507742,-33.500571],[-70.507776,-33.500597],[-70.507777,-33.500597],[-70.507802,-33.50061],[-70.507813,-33.500615],[-70.507823,-33.50062],[-70.507861,-33.500639],[-70.507899,-33.500653],[-70.507899,-33.500654],[-70.507945,-33.500672],[-70.507993,-33.500685],[-70.508025,-33.500694],[-70.508044,-33.500698],[-70.50805,-33.500699],[-70.50806,-33.500701],[-70.508115,-33.500709],[-70.508161,-33.500719],[-70.508236,-33.500731],[-70.508253,-33.500735],[-70.508262,-33.500737],[-70.508268,-33.500738],[-70.508301,-33.500744],[-70.508339,-33.50076],[-70.508347,-33.500763],[-70.508396,-33.500789],[-70.508397,-33.500789],[-70.508443,-33.500815],[-70.508512,-33.500855],[-70.508561,-33.500881],[-70.508578,-33.500886],[-70.508617,-33.500896],[-70.508657,-33.500903],[-70.508669,-33.500904],[-70.508683,-33.500907],[-70.508718,-33.500909],[-70.50873,-33.500909],[-70.508753,-33.500909],[-70.508791,-33.500913],[-70.508839,-33.50091],[-70.508875,-33.500907],[-70.50895,-33.500899],[-70.50895,-33.500899],[-70.508998,-33.500894],[-70.509136,-33.500863],[-70.509198,-33.50085],[-70.50924,-33.500847],[-70.509305,-33.500854],[-70.509347,-33.500857],[-70.509391,-33.500862],[-70.509466,-33.50088],[-70.509539,-33.50089],[-70.509587,-33.500893],[-70.509659,-33.500902],[-70.509719,-33.5009],[-70.509753,-33.500904],[-70.509792,-33.500904],[-70.509845,-33.500911],[-70.509907,-33.50092],[-70.509954,-33.500922],[-70.510052,-33.500937],[-70.510057,-33.500939],[-70.510094,-33.500953],[-70.510125,-33.500963],[-70.510178,-33.500978],[-70.510243,-33.500992],[-70.510301,-33.501007],[-70.510335,-33.501015],[-70.510383,-33.501033],[-70.510383,-33.501033],[-70.510404,-33.501039],[-70.510451,-33.501053],[-70.510454,-33.501054],[-70.510458,-33.501055],[-70.510505,-33.501067],[-70.510415,-33.501673]]]},"properties":{"comuna":"La Florida","mancha_id":"13110-88b2c50811fffff","clase":"Alto","nivel_medio":3.009,"nivel_medio_min":2.514,"nivel_medio_max":3.389,"pct_alto":95.4,"n_hexagonos":37,"area_ha":2009.23}},{"type":"Feature","geometry":{"type":"Polygon","coordinates":[[[-70.542538,-33.546215],[-70.546951,-33.54913],[-70.546426,-33.55264],[-70.5464,-33.552614],[-70.545879,-33.552177],[-70.545487,-33.551516],[-70.544502,-33.550962],[-70.5439,-33.55051],[-70.542771,-33.549807],[-70.541767,-33.54918],[-70.541063,-33.549016],[-70.541133,-33.548748],[-70.540279,-33.548806],[-70.539588,-33.549044],[-70.539167,-33.549078],[-70.538644,-33.549141],[-70.537982,-33.549112],[-70.537455,-33.548975],[-70.537295,-33.548855],[-70.537492,-33.54754],[-70.533079,-33.544624],[-70.533713,-33.540383],[-70.538759,-33.539058],[-70.543172,-33.541974],[-70.542538,-33.546215]]]},"properties":{"comuna":"La Florida","mancha_id":"13110-88b2c5099dfffff","clase":"Muy Alto","nivel_medio":3.539,"nivel_medio_min":3.519,"nivel_medio_max":3.547,"pct_alto":96.0,"n_hexagonos":2,"area_ha":90.07}},{"type":"Feature","geometry":{"type":"Polygon","coordinates":[[[-70.506611,-33.527126],[-70.507245,-33.522884],[-70.512289,-33.52156],[-70.512923,-33.517318],[-70.517968,-33.515993],[-70.522379,-33.51891],[-70.521746,-33.523152],[-70.526157,-33.526068],[-70.531202,-33.524743],[-70.535614,-33.527659],[-70.534981,-33.531901],[-70.529935,-33.533226],[-70.525523,-33.53031],[-70.520478,-33.531635],[-70.519844,-33.535876],[-70.514799,-33.5372],[-70.510387,-33.534283],[-70.511022,-33.530042],[-70.506611,-33.527126]]]},"properties":{"comuna":"La Florida","mancha_id":"13110-88b2c508e1fffff","clase":"Muy Alto","nivel_medio":3.764,"nivel_medio_min":3.509,"nivel_medio_max":3.941,"pct_alto":98.5,"n_hexagonos":5,"area_ha":317.74}},{"type":"Feature","geometry":{"type":"Polygon","coordinates":[[[-70.514825,-33.50459],[-70.510415,-33.501673],[-70.510505,-33.501067],[-70.510511,-33.501069],[-70.510565,-33.501074],[-70.510603,-33.501074],[-70.510661,-33.501074],[-70.510703,-33.501068],[-70.510765,-33.501059],[-70.510809,-33.501051],[-70.510867,-33.50104],[-70.510959,-33.501021],[-70.511111,-33.501045],[-70.511179,-33.501055],[-70.511251,-33.501066],[-70.511256,-33.501067],[-70.511418,-33.501092],[-70.511466,-33.501094],[-70.511494,-33.501092],[-70.511525,-33.501091],[-70.511581,-33.501088],[-70.511612,-33.501091],[-70.511665,-33.50109],[-70.511701,-33.501091],[-70.51171,-33.501091],[-70.511801,-33.501105],[-70.511981,-33.501137],[-70.512045,-33.50114],[-70.512077,-33.501141],[-70.512143,-33.501145],[-70.512299,-33.501187],[-70.512652,-33.50129],[-70.512684,-33.501291],[-70.512755,-33.501296],[-70.512959,-33.50131],[-70.513128,-33.501325],[-70.513155,-33.501335],[-70.513218,-33.501358],[-70.513316,-33.501394],[-70.513833,-33.501559],[-70.513895,-33.501585],[-70.513936,-33.501602],[-70.513959,-33.50162],[-70.513991,-33.501633],[-70.514028,-33.501646],[-70.514089,-33.501655],[-70.514237,-33.501678],[-70.514334,-33.501694],[-70.514377,-33.501701],[-70.514513,-33.501726],[-70.514653,-33.50176],[-70.514802,-33.501777],[-70.514911,-33.501784],[-70.515025,-33.501787],[-70.515074,-33.501787],[-70.515136,-33.501786],[-70.51522,-33.501799],[-70.515307,-33.501807],[-70.515357,-33.501815],[-70.515399,-33.501819],[-70.515437,-33.501821],[-70.515438,-33.501821],[-70.515459,-33.501827],[-70.515473,-33.501832],[-70.515483,-33.501834],[-70.515492,-33.501838],[-70.515522,-33.501849],[-70.51557,-33.501866],[-70.515618,-33.501893],[-70.515766,-33.50199],[-70.515859,-33.502039],[-70.516001,-33.502114],[-70.516118,-33.502161],[-70.516169,-33.502181],[-70.516169,-33.502181],[-70.516217,-33.502201],[-70.516218,-33.502201],[-70.516238,-33.502209],[-70.516259,-33.502231],[-70.516259,-33.502231],[-70.516264,-33.502236],[-70.516872,-33.502833],[-70.516918,-33.502879],[-70.517075,-33.503033],[-70.517415,-33.503367],[-70.517416,-33.503367],[-70.517436,-33.503383],[-70.517535,-33.503458],[-70.517627,-33.50353],[-70.517707,-33.503593],[-70.517733,-33.503613],[-70.517792,-33.503659],[-70.517888,-33.503734],[-70.517947,-33.50377],[-70.514825,-33.50459]]]},"properties":{"comuna":"La Florida","mancha_id":"13110-88b2c5081dfffff","clase":"Muy Alto","nivel_medio":3.696,"nivel_medio_min":3.696,"nivel_medio_max":3.696,"pct_alto":96.0,"n_hexagonos":1,"area_ha":13.54}}],"bbox":[-70.615,-33.57032,-70.43641,-33.49193]}