{"type":"FeatureCollection","features":[{"type":"Feature","geometry":{"type":"Polygon","coordinates":[[[-70.614465,-33.519148],[-70.615098,-33.514904],[-70.612324,-33.513073],[-70.61237,-33.513073],[-70.614085,-33.513084],[-70.61476,-33.513085],[-70.61486,-33.51309],[-70.61496,-33.51309],[-70.615157,-33.513125],[-70.615998,-33.513343],[-70.616969,-33.513583],[-70.617983,-33.513828],[-70.618612,-33.513978],[-70.619157,-33.514108],[-70.61952,-33.514213],[-70.62006,-33.514379],[-70.620741,-33.514649],[-70.621187,-33.514895],[-70.621968,-33.51527],[-70.622802,-33.515651],[-70.623308,-33.51589],[-70.624127,-33.516345],[-70.624553,-33.516542],[-70.624571,-33.51655],[-70.625531,-33.516982],[-70.625894,-33.517155],[-70.626653,-33.517502],[-70.627098,-33.517685],[-70.62733,-33.517746],[-70.62777,-33.51782],[-70.628016,-33.517836],[-70.628443,-33.517881],[-70.629197,-33.517959],[-70.63016,-33.518057],[-70.630832,-33.518135],[-70.631272,-33.518185],[-70.631891,-33.51825],[-70.632402,-33.518306],[-70.633226,-33.518388],[-70.633889,-33.518458],[-70.633967,-33.518467],[-70.634356,-33.518514],[-70.634881,-33.518564],[-70.635665,-33.518648],[-70.63608,-33.518689],[-70.636605,-33.51873],[-70.636525,-33.519554],[-70.636417,-33.520474],[-70.636288,-33.52165],[-70.636171,-33.522694],[-70.636074,-33.52359],[-70.636022,-33.524051],[-70.635923,-33.524933],[-70.635873,-33.525332],[-70.635755,-33.526429],[-70.635661,-33.527344],[-70.635546,-33.52836],[-70.635427,-33.529161],[-70.635314,-33.529656],[-70.63523,-33.529987],[-70.635181,-33.530178],[-70.635082,-33.530642],[-70.634971,-33.53141],[-70.634854,-33.532358],[-70.634649,-33.533953],[-70.634555,-33.535389],[-70.634498,-33.536852],[-70.63449,-33.537023],[-70.63446,-33.537655],[-70.634409,-33.538251],[-70.63435,-33.539132],[-70.63432,-33.53967],[-70.6343,-33.53994],[-70.634274,-33.540477],[-70.634231,-33.541127],[-70.634168,-33.54175],[-70.634156,-33.542061],[-70.634118,-33.54251],[-70.63411,-33.54261],[-70.63364,-33.54524],[-70.63311,-33.54803],[-70.632773,-33.54987],[-70.63272,-33.55016],[-70.632488,-33.551147],[-70.631933,-33.553794],[-70.631567,-33.555409],[-70.631448,-33.555938],[-70.631008,-33.558085],[-70.630984,-33.5582],[-70.630607,-33.559815],[-70.629871,-33.559655],[-70.628416,-33.55934],[-70.62789,-33.559227],[-70.627578,-33.559159],[-70.625699,-33.558723],[-70.623787,-33.558279],[-70.620054,-33.55747],[-70.618503,-33.55712],[-70.616293,-33.556623],[-70.614527,-33.556227],[-70.614053,-33.55612],[-70.613539,-33.556003],[-70.61304,-33.555892],[-70.612341,-33.555734],[-70.613406,-33.552037],[-70.614342,-33.548788],[-70.614745,-33.547296],[-70.614998,-33.54636],[-70.613773,-33.54657],[-70.613651,-33.546574],[-70.613458,-33.546582],[-70.613132,-33.546595],[-70.611913,-33.546621],[-70.611034,-33.546653],[-70.610586,-33.54666],[-70.610567,-33.546163],[-70.610551,-33.545559],[-70.610516,-33.544646],[-70.61051,-33.544493],[-70.610461,-33.543219],[-70.610423,-33.542332],[-70.610402,-33.541459],[-70.610375,-33.540883],[-70.610334,-33.539725],[-70.610327,-33.539539],[-70.610111,-33.537296],[-70.610116,-33.536473],[-70.610106,-33.53616],[-70.610073,-33.535349],[-70.610054,-33.534899],[-70.610038,-33.534207],[-70.609978,-33.532925],[-70.609974,-33.532561],[-70.609973,-33.532445],[-70.609947,-33.531801],[-70.609936,-33.531417],[-70.609908,-33.530492],[-70.609841,-33.528966],[-70.609801,-33.528328],[-70.609779,-33.527362],[-70.609754,-33.526772],[-70.609741,-33.526283],[-70.609806,-33.52556],[-70.609825,-33.525408],[-70.613199,-33.527635],[-70.618248,-33.526306],[-70.61888,-33.522062],[-70.614465,-33.519148]]]},"properties":{"comuna":"La Granja","mancha_id":"13111-88b2c50921fffff","clase":"Muy Bajo","nivel_medio":0.035,"nivel_medio_min":0.0,"nivel_medio_max":0.492,"pct_alto":1.0,"n_hexagonos":23,"area_ha":922.5}},{"type":"Feature","geometry":{"type":"Polygon","coordinates":[[[-70.618248,-33.526306],[-70.613199,-33.527635],[-70.609825,-33.525408],[-70.609865,-33.525082],[-70.609967,-33.524261],[-70.610028,-33.523708],[-70.610128,-33.522944],[-70.61015,-33.522204],[-70.610206,-33.521579],[-70.610366,-33.520784],[-70.610443,-33.520207],[-70.610538,-33.519493],[-70.610617,-33.518744],[-70.610739,-33.517659],[-70.610928,-33.516142],[-70.611002,-33.515532],[-70.611039,-33.515052],[-70.611139,-33.514087],[-70.611276,-33.513063],[-70.612324,-33.513073],[-70.615098,-33.514904],[-70.614465,-33.519148],[-70.61888,-33.522062],[-70.618248,-33.526306]]]},"properties":{"comuna":"La Granja","mancha_id":"13111-88b2c50923fffff","clase":"Bajo","nivel_medio":0.885,"nivel_medio_min":0.769,"nivel_medio_max":1.163,"pct_alto":21.8,"n_hexagonos":2,"area_ha":82.81}}],"bbox":[-70.63661,-33.55982,-70.60974,-33.51306]}