{"type":"FeatureCollection","features":[{"type":"Feature","geometry":{"type":"Polygon","coordinates":[[[-70.710679,-33.438124],[-70.710796,-33.438107],[-70.712523,-33.437854],[-70.713383,-33.437736],[-70.714812,-33.437521],[-70.715504,-33.437433],[-70.717039,-33.437225],[-70.717667,-33.437145],[-70.718534,-33.437014],[-70.71885,-33.43697],[-70.719905,-33.436821],[-70.720487,-33.436741],[-70.721533,-33.436598],[-70.721627,-33.436966],[-70.721768,-33.437326],[-70.721881,-33.437607],[-70.72211,-33.438176],[-70.722337,-33.43877],[-70.722459,-33.438792],[-70.722776,-33.438791],[-70.723012,-33.438774],[-70.723279,-33.438741],[-70.723531,-33.438695],[-70.72374,-33.438571],[-70.723855,-33.438431],[-70.723971,-33.438202],[-70.724071,-33.438047],[-70.72413,-33.437923],[-70.724174,-33.437843],[-70.724246,-33.437748],[-70.724317,-33.437703],[-70.72469,-33.437616],[-70.725234,-33.437495],[-70.725978,-33.437371],[-70.726536,-33.437284],[-70.726751,-33.437253],[-70.727034,-33.437174],[-70.727309,-33.437077],[-70.727483,-33.437005],[-70.727774,-33.436858],[-70.727884,-33.4368],[-70.728097,-33.436698],[-70.728373,-33.436582],[-70.728575,-33.436495],[-70.728627,-33.43647],[-70.728707,-33.436431],[-70.728832,-33.436386],[-70.728996,-33.436363],[-70.729111,-33.436353],[-70.729759,-33.436291],[-70.730324,-33.436264],[-70.730958,-33.436277],[-70.731705,-33.436303],[-70.732408,-33.436321],[-70.732711,-33.436341],[-70.733013,-33.436345],[-70.733795,-33.436384],[-70.734162,-33.436402],[-70.734598,-33.436413],[-70.735079,-33.436406],[-70.735862,-33.436399],[-70.736473,-33.436393],[-70.736509,-33.436394],[-70.737577,-33.436395],[-70.7387,-33.436395],[-70.739526,-33.43638],[-70.739736,-33.436382],[-70.739929,-33.436385],[-70.740458,-33.436382],[-70.740883,-33.436393],[-70.740877,-33.436515],[-70.740862,-33.436782],[-70.740862,-33.436789],[-70.740813,-33.437701],[-70.740738,-33.438775],[-70.740713,-33.439253],[-70.740693,-33.439624],[-70.740683,-33.43989],[-70.740648,-33.440281],[-70.740513,-33.441869],[-70.740574,-33.443741],[-70.740574,-33.443762],[-70.740594,-33.44474],[-70.740623,-33.445419],[-70.740617,-33.445728],[-70.740561,-33.445836],[-70.74047,-33.445935],[-70.740264,-33.446058],[-70.739793,-33.446376],[-70.739625,-33.446492],[-70.739576,-33.446574],[-70.739554,-33.446656],[-70.739524,-33.446884],[-70.739481,-33.447434],[-70.739392,-33.448238],[-70.739331,-33.449054],[-70.739297,-33.44945],[-70.73923,-33.450229],[-70.739134,-33.451615],[-70.739072,-33.452379],[-70.739044,-33.452747],[-70.738969,-33.453248],[-70.738918,-33.453428],[-70.736318,-33.453936],[-70.73572,-33.454053],[-70.733187,-33.454548],[-70.731495,-33.454882],[-70.731269,-33.454925],[-70.729678,-33.455226],[-70.726184,-33.452923],[-70.721134,-33.45426],[-70.720735,-33.456947],[-70.718696,-33.457336],[-70.717452,-33.457571],[-70.714428,-33.458159],[-70.713791,-33.458292],[-70.713223,-33.458377],[-70.711034,-33.456933],[-70.708051,-33.457722],[-70.707395,-33.457564],[-70.706861,-33.457425],[-70.706301,-33.457316],[-70.705572,-33.457151],[-70.705673,-33.456114],[-70.705924,-33.454487],[-70.706264,-33.452497],[-70.706342,-33.452103],[-70.706456,-33.451786],[-70.706674,-33.451227],[-70.706859,-33.450393],[-70.706935,-33.449898],[-70.706942,-33.449849],[-70.707102,-33.448786],[-70.707153,-33.448406],[-70.707232,-33.447795],[-70.707269,-33.447327],[-70.707325,-33.446179],[-70.707331,-33.445458],[-70.707332,-33.445157],[-70.707334,-33.444609],[-70.707334,-33.444494],[-70.707343,-33.443479],[-70.707349,-33.442092],[-70.707325,-33.44134],[-70.70725,-33.440793],[-70.707173,-33.439576],[-70.707088,-33.438538],[-70.70707,-33.438058],[-70.710203,-33.438171],[-70.710679,-33.438124]]]},"properties":{"comuna":"Lo Prado","mancha_id":"13117-88b2c55425fffff","clase":"Muy Bajo","nivel_medio":0.051,"nivel_medio_min":0.0,"nivel_medio_max":0.259,"pct_alto":1.4,"n_hexagonos":16,"area_ha":629.99}},{"type":"Feature","geometry":{"type":"Polygon","coordinates":[[[-70.708051,-33.457722],[-70.711034,-33.456933],[-70.713223,-33.458377],[-70.713026,-33.458406],[-70.71156,-33.458413],[-70.7102,-33.45826],[-70.71009,-33.45823],[-70.70923,-33.458],[-70.708684,-33.457875],[-70.708051,-33.457722]]]},"properties":{"comuna":"Lo Prado","mancha_id":"13117-88b2c555c5fffff","clase":"Bajo","nivel_medio":0.811,"nivel_medio_min":0.811,"nivel_medio_max":0.811,"pct_alto":22.9,"n_hexagonos":1,"area_ha":3.98}},{"type":"Feature","geometry":{"type":"Polygon","coordinates":[[[-70.721134,-33.45426],[-70.726184,-33.452923],[-70.729678,-33.455226],[-70.729487,-33.455262],[-70.728139,-33.455519],[-70.725606,-33.456006],[-70.721284,-33.456842],[-70.720735,-33.456947],[-70.721134,-33.45426]]]},"properties":{"comuna":"Lo Prado","mancha_id":"13117-88b2c55517fffff","clase":"Bajo","nivel_medio":1.075,"nivel_medio_min":1.075,"nivel_medio_max":1.075,"pct_alto":33.0,"n_hexagonos":1,"area_ha":20.42}}],"bbox":[-70.74089,-33.45842,-70.70557,-33.43626]}