{"type":"FeatureCollection","features":[{"type":"Feature","geometry":{"type":"Polygon","coordinates":[[[-70.680742,-33.43228],[-70.681374,-33.428029],[-70.686422,-33.426693],[-70.687054,-33.422441],[-70.692102,-33.421105],[-70.692734,-33.416852],[-70.697782,-33.415515],[-70.698377,-33.41151],[-70.698609,-33.411358],[-70.698905,-33.411132],[-70.703462,-33.409925],[-70.703713,-33.408234],[-70.703825,-33.408195],[-70.704115,-33.408158],[-70.704556,-33.408102],[-70.7048,-33.408077],[-70.705056,-33.408007],[-70.705325,-33.407903],[-70.705646,-33.407738],[-70.705823,-33.407697],[-70.706239,-33.407702],[-70.706484,-33.407732],[-70.706769,-33.407773],[-70.707159,-33.407773],[-70.707694,-33.407788],[-70.708097,-33.407782],[-70.708565,-33.407759],[-70.709299,-33.407793],[-70.710199,-33.407847],[-70.710774,-33.4079],[-70.711191,-33.407955],[-70.711629,-33.408021],[-70.712038,-33.408032],[-70.712342,-33.408023],[-70.712547,-33.408036],[-70.712876,-33.407971],[-70.713134,-33.407979],[-70.713346,-33.408042],[-70.713436,-33.408087],[-70.71354,-33.408139],[-70.713821,-33.408318],[-70.714176,-33.408562],[-70.714411,-33.408764],[-70.714567,-33.409006],[-70.714824,-33.409274],[-70.715031,-33.409415],[-70.715226,-33.409595],[-70.715447,-33.409736],[-70.715866,-33.409885],[-70.716377,-33.410017],[-70.716861,-33.410087],[-70.717165,-33.4101],[-70.717442,-33.410047],[-70.717711,-33.409974],[-70.717858,-33.409923],[-70.718028,-33.409901],[-70.718178,-33.409932],[-70.7183,-33.40998],[-70.718537,-33.410009],[-70.718822,-33.410038],[-70.719125,-33.410012],[-70.719442,-33.410024],[-70.71978,-33.41008],[-70.720172,-33.410169],[-70.720424,-33.410221],[-70.72079,-33.41036],[-70.720958,-33.410496],[-70.721274,-33.410791],[-70.721838,-33.411237],[-70.722408,-33.411678],[-70.722186,-33.411907],[-70.721967,-33.412122],[-70.721773,-33.412239],[-70.72139,-33.412413],[-70.720882,-33.41261],[-70.720469,-33.412775],[-70.720017,-33.412961],[-70.719523,-33.413158],[-70.719216,-33.413319],[-70.718909,-33.413508],[-70.718665,-33.413663],[-70.718132,-33.414011],[-70.71767,-33.414299],[-70.717579,-33.414356],[-70.717333,-33.41451],[-70.717327,-33.414513],[-70.716897,-33.414742],[-70.716385,-33.414934],[-70.715856,-33.415161],[-70.716185,-33.415647],[-70.716496,-33.416111],[-70.716614,-33.416291],[-70.716684,-33.41646],[-70.716768,-33.416747],[-70.716908,-33.417371],[-70.716923,-33.417438],[-70.71719,-33.418564],[-70.717298,-33.419055],[-70.717465,-33.419805],[-70.717786,-33.421141],[-70.718079,-33.422364],[-70.718282,-33.423168],[-70.718456,-33.423873],[-70.718564,-33.424168],[-70.718944,-33.425541],[-70.719113,-33.426205],[-70.719261,-33.426786],[-70.719737,-33.428606],[-70.719992,-33.429604],[-70.72025,-33.430586],[-70.720515,-33.431802],[-70.720685,-33.432621],[-70.720849,-33.433401],[-70.720957,-33.433887],[-70.721014,-33.434145],[-70.721291,-33.435504],[-70.721533,-33.436598],[-70.720487,-33.436741],[-70.719905,-33.436821],[-70.71885,-33.43697],[-70.718534,-33.437014],[-70.717667,-33.437145],[-70.717039,-33.437225],[-70.715504,-33.437433],[-70.714812,-33.437521],[-70.713383,-33.437736],[-70.712523,-33.437854],[-70.710796,-33.438107],[-70.710679,-33.438124],[-70.710203,-33.438171],[-70.70707,-33.438058],[-70.707088,-33.438538],[-70.707173,-33.439576],[-70.70725,-33.440793],[-70.707325,-33.44134],[-70.707349,-33.442092],[-70.707343,-33.443479],[-70.707334,-33.444494],[-70.707334,-33.444609],[-70.707332,-33.445157],[-70.707331,-33.445458],[-70.707325,-33.446179],[-70.707269,-33.447327],[-70.707232,-33.447795],[-70.707153,-33.448406],[-70.707102,-33.448786],[-70.706612,-33.448747],[-70.705771,-33.448637],[-70.70568,-33.448624],[-70.705416,-33.448589],[-70.704247,-33.448449],[-70.702728,-33.448244],[-70.700469,-33.447961],[-70.699197,-33.447806],[-70.698274,-33.447698],[-70.697853,-33.447696],[-70.697635,-33.447695],[-70.69677,-33.44774],[-70.696214,-33.447778],[-70.694808,-33.447843],[-70.694138,-33.447879],[-70.693587,-33.447911],[-70.692864,-33.44795],[-70.692253,-33.447976],[-70.692137,-33.446592],[-70.692046,-33.445347],[-70.692039,-33.444475],[-70.691855,-33.442199],[-70.691807,-33.441604],[-70.691768,-33.441126],[-70.691713,-33.440132],[-70.691744,-33.439631],[-70.691809,-33.439268],[-70.69103,-33.439167],[-70.688684,-33.439018],[-70.68677,-33.43889],[-70.686493,-33.438869],[-70.685928,-33.438826],[-70.684632,-33.43874],[-70.684147,-33.438708],[-70.684239,-33.437613],[-70.6838,-33.437574],[-70.683798,-33.437617],[-70.683726,-33.437613],[-70.683629,-33.43653],[-70.682628,-33.436317],[-70.680879,-33.436029],[-70.680777,-33.437326],[-70.68133,-33.437344],[-70.681322,-33.437469],[-70.681421,-33.437473],[-70.681432,-33.437427],[-70.681929,-33.437466],[-70.681888,-33.437927],[-70.681823,-33.437923],[-70.68177,-33.438566],[-70.680073,-33.438441],[-70.680093,-33.438204],[-70.680266,-33.436117],[-70.680472,-33.434324],[-70.680553,-33.432542],[-70.680565,-33.432327],[-70.680742,-33.43228]]]},"properties":{"comuna":"Quinta Normal","mancha_id":"13126-88b2c55405fffff","clase":"Muy Bajo","nivel_medio":0.057,"nivel_medio_min":0.0,"nivel_medio_max":0.352,"pct_alto":1.6,"n_hexagonos":23,"area_ha":1077.85}},{"type":"Feature","geometry":{"type":"Polygon","coordinates":[[[-70.703713,-33.408234],[-70.703462,-33.409925],[-70.698905,-33.411132],[-70.698986,-33.41107],[-70.699331,-33.410772],[-70.699617,-33.410541],[-70.700014,-33.410259],[-70.700354,-33.410043],[-70.70083,-33.409727],[-70.701377,-33.409342],[-70.701978,-33.409024],[-70.702593,-33.408711],[-70.703129,-33.408432],[-70.703444,-33.408328],[-70.703713,-33.408234]]]},"properties":{"comuna":"Quinta Normal","mancha_id":"13126-88b2c55717fffff","clase":"Bajo","nivel_medio":0.785,"nivel_medio_min":0.785,"nivel_medio_max":0.785,"pct_alto":18.1,"n_hexagonos":1,"area_ha":4.75}},{"type":"Feature","geometry":{"type":"Polygon","coordinates":[[[-70.681374,-33.428029],[-70.676957,-33.425114],[-70.677107,-33.424109],[-70.67741,-33.423928],[-70.67825,-33.423634],[-70.6792,-33.423272],[-70.679857,-33.423058],[-70.680605,-33.422782],[-70.681497,-33.422482],[-70.682187,-33.422262],[-70.682488,-33.422131],[-70.683037,-33.421824],[-70.683304,-33.421632],[-70.683603,-33.42134],[-70.684021,-33.421102],[-70.684537,-33.420807],[-70.684566,-33.420799],[-70.684912,-33.420707],[-70.685299,-33.420569],[-70.685778,-33.420397],[-70.686205,-33.420269],[-70.686579,-33.42017],[-70.686835,-33.420072],[-70.687012,-33.42002],[-70.687224,-33.420017],[-70.687489,-33.420069],[-70.687667,-33.420033],[-70.687955,-33.419929],[-70.688346,-33.419653],[-70.68854,-33.419417],[-70.688847,-33.419247],[-70.689213,-33.419026],[-70.689571,-33.418794],[-70.690075,-33.418527],[-70.6905,-33.418283],[-70.690773,-33.418068],[-70.691058,-33.417776],[-70.691501,-33.417477],[-70.691806,-33.417168],[-70.691985,-33.416883],[-70.692212,-33.416508],[-70.692292,-33.416375],[-70.69269,-33.415738],[-70.692918,-33.415374],[-70.69307,-33.415192],[-70.693316,-33.415009],[-70.69361,-33.414844],[-70.693812,-33.414709],[-70.694014,-33.414562],[-70.694281,-33.414353],[-70.694527,-33.414095],[-70.694714,-33.413876],[-70.694968,-33.413679],[-70.695471,-33.41339],[-70.69649,-33.412783],[-70.697291,-33.412213],[-70.697721,-33.411902],[-70.698133,-33.411669],[-70.698377,-33.41151],[-70.697782,-33.415515],[-70.692734,-33.416852],[-70.692102,-33.421105],[-70.687054,-33.422441],[-70.686422,-33.426693],[-70.681374,-33.428029]]]},"properties":{"comuna":"Quinta Normal","mancha_id":"13126-88b2c5540dfffff","clase":"Bajo","nivel_medio":0.534,"nivel_medio_min":0.511,"nivel_medio_max":0.543,"pct_alto":13.0,"n_hexagonos":3,"area_ha":81.28}},{"type":"Feature","geometry":{"type":"Polygon","coordinates":[[[-70.67177,-33.426357],[-70.671909,-33.426449],[-70.671735,-33.427622],[-70.671714,-33.427493],[-70.671574,-33.426954],[-70.67144,-33.426551],[-70.671414,-33.426464],[-70.67177,-33.426357]]]},"properties":{"comuna":"Quinta Normal","mancha_id":"13126-88b2c5540bfffff","clase":"Bajo","nivel_medio":1.073,"nivel_medio_min":1.073,"nivel_medio_max":1.073,"pct_alto":11.9,"n_hexagonos":1,"area_ha":0.31}},{"type":"Feature","geometry":{"type":"Polygon","coordinates":[[[-70.681374,-33.428029],[-70.680742,-33.43228],[-70.680565,-33.432327],[-70.68064,-33.431031],[-70.680695,-33.430263],[-70.680728,-33.429895],[-70.68068,-33.429418],[-70.680596,-33.428964],[-70.680369,-33.428538],[-70.680221,-33.42828],[-70.679919,-33.4279],[-70.679655,-33.427657],[-70.679349,-33.427412],[-70.679032,-33.427225],[-70.678324,-33.426927],[-70.677923,-33.426758],[-70.677545,-33.426606],[-70.67723,-33.426558],[-70.676869,-33.426568],[-70.676623,-33.426614],[-70.676207,-33.426792],[-70.675937,-33.426959],[-70.67372,-33.427679],[-70.671786,-33.428315],[-70.671783,-33.428018],[-70.671766,-33.427807],[-70.671735,-33.427622],[-70.671909,-33.426449],[-70.67177,-33.426357],[-70.672208,-33.426225],[-70.67297,-33.426004],[-70.673423,-33.425854],[-70.674303,-33.42556],[-70.675037,-33.425256],[-70.675875,-33.424852],[-70.676437,-33.424534],[-70.676802,-33.424291],[-70.677107,-33.424109],[-70.676957,-33.425114],[-70.681374,-33.428029]]]},"properties":{"comuna":"Quinta Normal","mancha_id":"13126-88b2c55401fffff","clase":"Medio","nivel_medio":1.63,"nivel_medio_min":1.592,"nivel_medio_max":1.91,"pct_alto":47.7,"n_hexagonos":2,"area_ha":16.45}}],"bbox":[-70.72241,-33.44879,-70.67141,-33.40769]}