{"type":"FeatureCollection","features":[{"type":"Feature","geometry":{"type":"Polygon","coordinates":[[[-70.570764,-33.453366],[-70.570767,-33.453161],[-70.570771,-33.452962],[-70.570868,-33.45208],[-70.570976,-33.451354],[-70.571183,-33.450581],[-70.571279,-33.449964],[-70.571435,-33.448974],[-70.57147,-33.448767],[-70.571631,-33.447804],[-70.571845,-33.446618],[-70.572085,-33.445261],[-70.572323,-33.443917],[-70.572537,-33.44272],[-70.572721,-33.441669],[-70.572941,-33.440406],[-70.572967,-33.440256],[-70.573124,-33.439218],[-70.573293,-33.438509],[-70.573404,-33.438174],[-70.573527,-33.437901],[-70.573929,-33.437681],[-70.574443,-33.437419],[-70.575044,-33.437109],[-70.575861,-33.436762],[-70.576369,-33.43655],[-70.576808,-33.436404],[-70.5775,-33.43626],[-70.578115,-33.436073],[-70.578664,-33.435812],[-70.579473,-33.435391],[-70.579623,-33.435313],[-70.580896,-33.434598],[-70.58226,-33.433795],[-70.582334,-33.433903],[-70.58245,-33.434074],[-70.583205,-33.434931],[-70.583695,-33.435487],[-70.583867,-33.435682],[-70.584157,-33.436014],[-70.584242,-33.436111],[-70.584532,-33.436427],[-70.584946,-33.436889],[-70.585034,-33.436986],[-70.585155,-33.437123],[-70.585178,-33.43715],[-70.585249,-33.437226],[-70.585443,-33.437442],[-70.585563,-33.437576],[-70.585843,-33.437889],[-70.586771,-33.438932],[-70.587025,-33.439226],[-70.587185,-33.439429],[-70.587396,-33.439744],[-70.587543,-33.439978],[-70.587911,-33.440536],[-70.588039,-33.440731],[-70.58814,-33.440879],[-70.58839,-33.441307],[-70.58846,-33.441428],[-70.588602,-33.441642],[-70.588775,-33.441911],[-70.588886,-33.442087],[-70.589173,-33.442536],[-70.58954,-33.443122],[-70.590081,-33.44396],[-70.590095,-33.443983],[-70.590398,-33.444473],[-70.590796,-33.445056],[-70.591015,-33.445388],[-70.591237,-33.445762],[-70.591721,-33.446487],[-70.592322,-33.447218],[-70.592808,-33.447759],[-70.594567,-33.446813],[-70.595773,-33.446167],[-70.595791,-33.446158],[-70.596111,-33.445984],[-70.596405,-33.445797],[-70.597032,-33.445404],[-70.597222,-33.445281],[-70.598054,-33.44474],[-70.598221,-33.44462],[-70.599187,-33.444663],[-70.599529,-33.444682],[-70.601099,-33.444823],[-70.601292,-33.444841],[-70.601733,-33.44488],[-70.602194,-33.444942],[-70.603,-33.445019],[-70.603937,-33.44512],[-70.604576,-33.445189],[-70.606002,-33.445393],[-70.607725,-33.445592],[-70.608211,-33.445644],[-70.608539,-33.445688],[-70.608821,-33.445742],[-70.60969,-33.44597],[-70.610771,-33.446302],[-70.610899,-33.446341],[-70.611157,-33.446407],[-70.611882,-33.446522],[-70.612745,-33.446654],[-70.613894,-33.446827],[-70.61375,-33.44756],[-70.616131,-33.447949],[-70.617518,-33.448203],[-70.618432,-33.448371],[-70.618603,-33.447823],[-70.618769,-33.447258],[-70.62028,-33.447558],[-70.620465,-33.447595],[-70.621553,-33.447811],[-70.622633,-33.44803],[-70.62411,-33.448326],[-70.62514,-33.448533],[-70.625616,-33.448627],[-70.626784,-33.448914],[-70.627119,-33.448979],[-70.628098,-33.449165],[-70.628593,-33.449263],[-70.629261,-33.449393],[-70.629589,-33.449457],[-70.629692,-33.449477],[-70.63058,-33.449645],[-70.631555,-33.44983],[-70.631236,-33.450932],[-70.630953,-33.451906],[-70.630566,-33.453219],[-70.63029,-33.454096],[-70.630083,-33.454714],[-70.629787,-33.455697],[-70.629085,-33.458181],[-70.628869,-33.458948],[-70.627991,-33.461943],[-70.627793,-33.462657],[-70.627736,-33.462619],[-70.622688,-33.463951],[-70.622056,-33.468199],[-70.624591,-33.469873],[-70.62441,-33.469999],[-70.624312,-33.470112],[-70.624213,-33.470276],[-70.624104,-33.470525],[-70.623996,-33.471183],[-70.623844,-33.471841],[-70.623559,-33.472903],[-70.623435,-33.473424],[-70.62319,-33.47433],[-70.623049,-33.474926],[-70.620896,-33.47482],[-70.619872,-33.47477],[-70.619444,-33.47475],[-70.61923,-33.47474],[-70.618904,-33.474725],[-70.618604,-33.47471],[-70.617819,-33.47467],[-70.617721,-33.474666],[-70.617646,-33.474662],[-70.616931,-33.474626],[-70.615873,-33.474569],[-70.614411,-33.474492],[-70.613783,-33.474461],[-70.613752,-33.47446],[-70.612507,-33.474399],[-70.612099,-33.474379],[-70.611404,-33.474345],[-70.610939,-33.474321],[-70.610124,-33.474278],[-70.610067,-33.474275],[-70.609202,-33.47423],[-70.608715,-33.474204],[-70.607898,-33.474163],[-70.607001,-33.474121],[-70.604825,-33.474009],[-70.602401,-33.473882],[-70.60182,-33.473848],[-70.60068,-33.47378],[-70.60015,-33.47376],[-70.599395,-33.473722],[-70.598685,-33.47366],[-70.597913,-33.473635],[-70.597174,-33.473615],[-70.596343,-33.473535],[-70.595295,-33.473588],[-70.59414,-33.47365],[-70.592908,-33.473719],[-70.592259,-33.473756],[-70.592135,-33.473766],[-70.591812,-33.473794],[-70.59095,-33.473889],[-70.590326,-33.473973],[-70.589662,-33.474063],[-70.589355,-33.47409],[-70.588796,-33.474037],[-70.587385,-33.47378],[-70.586536,-33.473645],[-70.58624,-33.47361],[-70.585909,-33.473581],[-70.58486,-33.473478],[-70.584263,-33.473389],[-70.583569,-33.473144],[-70.582606,-33.472646],[-70.581867,-33.472263],[-70.578157,-33.470329],[-70.577624,-33.47005],[-70.576454,-33.469403],[-70.576342,-33.469013],[-70.576235,-33.468711],[-70.576004,-33.468102],[-70.575974,-33.468021],[-70.575788,-33.467568],[-70.575672,-33.46725],[-70.575506,-33.4668],[-70.575171,-33.46597],[-70.575007,-33.465454],[-70.574841,-33.464965],[-70.574378,-33.463697],[-70.574283,-33.463436],[-70.57394,-33.462554],[-70.573781,-33.462135],[-70.573633,-33.461872],[-70.573502,-33.461665],[-70.573143,-33.460997],[-70.573015,-33.460729],[-70.572695,-33.46006],[-70.572561,-33.459635],[-70.572396,-33.459181],[-70.572339,-33.459032],[-70.572332,-33.459014],[-70.572287,-33.458889],[-70.571882,-33.457668],[-70.571701,-33.456955],[-70.571549,-33.456306],[-70.571384,-33.455713],[-70.57108,-33.454709],[-70.570969,-33.454249],[-70.570764,-33.453366]],[[-70.593673,-33.463444],[-70.598087,-33.46636],[-70.603133,-33.465029],[-70.603766,-33.460782],[-70.599352,-33.457865],[-70.594306,-33.459196],[-70.593673,-33.463444]]]},"properties":{"comuna":"Ñuñoa","mancha_id":"13120-88b2c50b01fffff","clase":"Muy Bajo","nivel_medio":0.282,"nivel_medio_min":0.0,"nivel_medio_max":0.492,"pct_alto":8.4,"n_hexagonos":39,"area_ha":1599.33}},{"type":"Feature","geometry":{"type":"Polygon","coordinates":[[[-70.622688,-33.463951],[-70.627736,-33.462619],[-70.627793,-33.462657],[-70.627619,-33.463285],[-70.627252,-33.464448],[-70.626976,-33.465453],[-70.626818,-33.465944],[-70.626366,-33.467503],[-70.626127,-33.468461],[-70.626041,-33.468725],[-70.625951,-33.468911],[-70.625867,-33.469032],[-70.62563,-33.46924],[-70.625107,-33.469561],[-70.624645,-33.469836],[-70.624591,-33.469873],[-70.622056,-33.468199],[-70.622688,-33.463951]]]},"properties":{"comuna":"Ñuñoa","mancha_id":"13120-88b2c5548bfffff","clase":"Bajo","nivel_medio":0.512,"nivel_medio_min":0.512,"nivel_medio_max":0.512,"pct_alto":16.0,"n_hexagonos":1,"area_ha":26.67}},{"type":"Feature","geometry":{"type":"Polygon","coordinates":[[[-70.593673,-33.463444],[-70.594306,-33.459196],[-70.599352,-33.457865],[-70.603766,-33.460782],[-70.603133,-33.465029],[-70.598087,-33.46636],[-70.593673,-33.463444]]]},"properties":{"comuna":"Ñuñoa","mancha_id":"13120-88b2c50b2dfffff","clase":"Bajo","nivel_medio":0.641,"nivel_medio_min":0.641,"nivel_medio_max":0.641,"pct_alto":20.4,"n_hexagonos":1,"area_ha":63.7}}],"bbox":[-70.63156,-33.47493,-70.57076,-33.43379]}