{"type":"FeatureCollection","features":[{"type":"Feature","geometry":{"type":"Polygon","coordinates":[[[-70.590398,-33.444473],[-70.590095,-33.443983],[-70.590081,-33.44396],[-70.58954,-33.443122],[-70.589173,-33.442536],[-70.588886,-33.442087],[-70.588775,-33.441911],[-70.588602,-33.441642],[-70.58846,-33.441428],[-70.58839,-33.441307],[-70.58814,-33.440879],[-70.588039,-33.440731],[-70.587911,-33.440536],[-70.587543,-33.439978],[-70.587396,-33.439744],[-70.587185,-33.439429],[-70.587025,-33.439226],[-70.586771,-33.438932],[-70.585843,-33.437889],[-70.585563,-33.437576],[-70.585443,-33.437442],[-70.585249,-33.437226],[-70.585178,-33.43715],[-70.585155,-33.437123],[-70.585034,-33.436986],[-70.584946,-33.436889],[-70.584532,-33.436427],[-70.584242,-33.436111],[-70.584157,-33.436014],[-70.583867,-33.435682],[-70.583695,-33.435487],[-70.583205,-33.434931],[-70.58245,-33.434074],[-70.582334,-33.433903],[-70.58226,-33.433795],[-70.582953,-33.433341],[-70.583287,-33.433079],[-70.583702,-33.432716],[-70.584061,-33.432307],[-70.58443,-33.43185],[-70.584493,-33.431766],[-70.584499,-33.431758],[-70.584913,-33.431203],[-70.585524,-33.430606],[-70.585877,-33.430291],[-70.586549,-33.429691],[-70.587557,-33.428818],[-70.588777,-33.427768],[-70.589826,-33.426938],[-70.590729,-33.426239],[-70.590989,-33.426071],[-70.592183,-33.425125],[-70.594322,-33.426539],[-70.59369,-33.430789],[-70.598103,-33.433706],[-70.59747,-33.437955],[-70.601883,-33.440872],[-70.606929,-33.43954],[-70.611343,-33.442457],[-70.61639,-33.441124],[-70.617022,-33.436875],[-70.612608,-33.433958],[-70.613241,-33.429709],[-70.618287,-33.428376],[-70.622701,-33.431292],[-70.627748,-33.429959],[-70.632162,-33.432876],[-70.636025,-33.431855],[-70.635861,-33.432785],[-70.635643,-33.434144],[-70.635376,-33.435695],[-70.635389,-33.436461],[-70.63522,-33.437166],[-70.63501,-33.437925],[-70.634775,-33.438906],[-70.634681,-33.439207],[-70.634429,-33.440015],[-70.633927,-33.441763],[-70.63348,-33.443435],[-70.633233,-33.444217],[-70.633016,-33.444898],[-70.632848,-33.445425],[-70.63226,-33.447379],[-70.631985,-33.448401],[-70.631634,-33.449584],[-70.631555,-33.44983],[-70.63058,-33.449645],[-70.629692,-33.449477],[-70.629589,-33.449457],[-70.629261,-33.449393],[-70.628593,-33.449263],[-70.628098,-33.449165],[-70.627119,-33.448979],[-70.626784,-33.448914],[-70.625616,-33.448627],[-70.62514,-33.448533],[-70.62411,-33.448326],[-70.622633,-33.44803],[-70.621553,-33.447811],[-70.620465,-33.447595],[-70.62028,-33.447558],[-70.618769,-33.447258],[-70.618603,-33.447823],[-70.618432,-33.448371],[-70.617518,-33.448203],[-70.616131,-33.447949],[-70.61375,-33.44756],[-70.613894,-33.446827],[-70.612745,-33.446654],[-70.611882,-33.446522],[-70.611157,-33.446407],[-70.610899,-33.446341],[-70.610771,-33.446302],[-70.60969,-33.44597],[-70.608821,-33.445742],[-70.608539,-33.445688],[-70.608211,-33.445644],[-70.607725,-33.445592],[-70.606002,-33.445393],[-70.604576,-33.445189],[-70.603937,-33.44512],[-70.603,-33.445019],[-70.602194,-33.444942],[-70.601733,-33.44488],[-70.601292,-33.444841],[-70.601099,-33.444823],[-70.599529,-33.444682],[-70.599187,-33.444663],[-70.598221,-33.44462],[-70.598054,-33.44474],[-70.597222,-33.445281],[-70.597032,-33.445404],[-70.596405,-33.445797],[-70.596111,-33.445984],[-70.595791,-33.446158],[-70.595773,-33.446167],[-70.594567,-33.446813],[-70.592808,-33.447759],[-70.592322,-33.447218],[-70.591721,-33.446487],[-70.591237,-33.445762],[-70.591015,-33.445388],[-70.590796,-33.445056],[-70.590398,-33.444473]]]},"properties":{"comuna":"Providencia","mancha_id":"13123-88b2c50b61fffff","clase":"Muy Bajo","nivel_medio":0.271,"nivel_medio_min":0.064,"nivel_medio_max":0.422,"pct_alto":8.1,"n_hexagonos":15,"area_ha":651.2}},{"type":"Feature","geometry":{"type":"Polygon","coordinates":[[[-70.610725,-33.41404],[-70.615138,-33.416958],[-70.620184,-33.415624],[-70.624598,-33.418541],[-70.623966,-33.422792],[-70.62838,-33.425709],[-70.627748,-33.429959],[-70.622701,-33.431292],[-70.618287,-33.428376],[-70.613241,-33.429709],[-70.612608,-33.433958],[-70.617022,-33.436875],[-70.61639,-33.441124],[-70.611343,-33.442457],[-70.606929,-33.43954],[-70.601883,-33.440872],[-70.59747,-33.437955],[-70.598103,-33.433706],[-70.59369,-33.430789],[-70.594322,-33.426539],[-70.592183,-33.425125],[-70.592278,-33.425049],[-70.59373,-33.423913],[-70.595222,-33.422736],[-70.596871,-33.421491],[-70.598727,-33.420115],[-70.598744,-33.420102],[-70.599651,-33.419454],[-70.600252,-33.419021],[-70.600611,-33.418761],[-70.601229,-33.418289],[-70.601595,-33.418028],[-70.602043,-33.417766],[-70.602275,-33.417665],[-70.602737,-33.4175],[-70.603196,-33.417381],[-70.604346,-33.417268],[-70.604855,-33.417185],[-70.605329,-33.416905],[-70.605461,-33.41684],[-70.606518,-33.416318],[-70.60697,-33.416254],[-70.607719,-33.416097],[-70.607543,-33.415761],[-70.607241,-33.414974],[-70.607238,-33.414961],[-70.610725,-33.41404]]]},"properties":{"comuna":"Providencia","mancha_id":"13123-88b2c55681fffff","clase":"Bajo","nivel_medio":0.888,"nivel_medio_min":0.528,"nivel_medio_max":1.433,"pct_alto":26.6,"n_hexagonos":11,"area_ha":613.2}},{"type":"Feature","geometry":{"type":"Polygon","coordinates":[[[-70.627748,-33.429959],[-70.62838,-33.425709],[-70.632946,-33.424502],[-70.633066,-33.424942],[-70.633232,-33.425334],[-70.633438,-33.426672],[-70.634287,-33.427872],[-70.636235,-33.430623],[-70.636037,-33.431787],[-70.636025,-33.431855],[-70.632162,-33.432876],[-70.627748,-33.429959]]]},"properties":{"comuna":"Providencia","mancha_id":"13123-88b2c556a1fffff","clase":"Medio","nivel_medio":1.887,"nivel_medio_min":1.887,"nivel_medio_max":1.887,"pct_alto":60.4,"n_hexagonos":1,"area_ha":46.85}},{"type":"Feature","geometry":{"type":"Polygon","coordinates":[[[-70.610279,-33.409077],[-70.611357,-33.409789],[-70.614114,-33.40906],[-70.614522,-33.409401],[-70.614859,-33.409703],[-70.615513,-33.410154],[-70.616447,-33.410786],[-70.617236,-33.411164],[-70.617878,-33.41146],[-70.618549,-33.411779],[-70.619259,-33.411954],[-70.620076,-33.412202],[-70.620602,-33.4125],[-70.620644,-33.412531],[-70.620184,-33.415624],[-70.615138,-33.416958],[-70.610725,-33.41404],[-70.607238,-33.414961],[-70.607019,-33.413992],[-70.60687,-33.413327],[-70.606492,-33.412092],[-70.606259,-33.411497],[-70.606096,-33.411194],[-70.605978,-33.410722],[-70.60563,-33.409824],[-70.605512,-33.409509],[-70.605405,-33.409319],[-70.605383,-33.409258],[-70.610279,-33.409077]]]},"properties":{"comuna":"Providencia","mancha_id":"13123-88b2c55689fffff","clase":"Medio","nivel_medio":2.188,"nivel_medio_min":1.575,"nivel_medio_max":2.485,"pct_alto":69.9,"n_hexagonos":2,"area_ha":78.55}},{"type":"Feature","geometry":{"type":"Polygon","coordinates":[[[-70.614114,-33.40906],[-70.611357,-33.409789],[-70.610279,-33.409077],[-70.61397,-33.40894],[-70.614114,-33.40906]]]},"properties":{"comuna":"Providencia","mancha_id":"13123-88b2c556c7fffff","clase":"Alto","nivel_medio":2.637,"nivel_medio_min":2.637,"nivel_medio_max":2.637,"pct_alto":66.6,"n_hexagonos":1,"area_ha":1.66}},{"type":"Feature","geometry":{"type":"Polygon","coordinates":[[[-70.623966,-33.422792],[-70.624598,-33.418541],[-70.620184,-33.415624],[-70.620644,-33.412531],[-70.621044,-33.412831],[-70.621358,-33.413235],[-70.621509,-33.413429],[-70.622062,-33.414447],[-70.622903,-33.41542],[-70.623677,-33.416416],[-70.6246,-33.4177],[-70.625425,-33.418323],[-70.6257,-33.41853],[-70.627063,-33.419137],[-70.628434,-33.419624],[-70.628943,-33.419779],[-70.629408,-33.419978],[-70.62985,-33.420155],[-70.630357,-33.420415],[-70.630749,-33.420712],[-70.631165,-33.420997],[-70.631925,-33.421579],[-70.632424,-33.422114],[-70.632626,-33.422387],[-70.632733,-33.422756],[-70.63284,-33.423445],[-70.632923,-33.424419],[-70.632946,-33.424502],[-70.62838,-33.425709],[-70.623966,-33.422792]]]},"properties":{"comuna":"Providencia","mancha_id":"13123-88b2c556a9fffff","clase":"Alto","nivel_medio":3.073,"nivel_medio_min":2.67,"nivel_medio_max":3.167,"pct_alto":96.8,"n_hexagonos":2,"area_ha":53.32}}],"bbox":[-70.63624,-33.44983,-70.58226,-33.40894]}