{"type":"FeatureCollection","features":[{"type":"Feature","geometry":{"type":"Polygon","coordinates":[[[-70.619157,-33.514108],[-70.618612,-33.513978],[-70.617983,-33.513828],[-70.616969,-33.513583],[-70.615998,-33.513343],[-70.615157,-33.513125],[-70.61496,-33.51309],[-70.61486,-33.51309],[-70.61476,-33.513085],[-70.614085,-33.513084],[-70.61237,-33.513073],[-70.612324,-33.513073],[-70.611276,-33.513063],[-70.611349,-33.512429],[-70.611381,-33.512158],[-70.611454,-33.511437],[-70.611554,-33.510548],[-70.61159,-33.510354],[-70.613134,-33.508864],[-70.613823,-33.50823],[-70.613927,-33.507993],[-70.614093,-33.507614],[-70.614195,-33.50719],[-70.614236,-33.506999],[-70.614242,-33.506973],[-70.614335,-33.506548],[-70.61429,-33.506027],[-70.61445,-33.50541],[-70.614793,-33.503845],[-70.615397,-33.501114],[-70.615467,-33.5008],[-70.61564,-33.500018],[-70.615821,-33.499187],[-70.616256,-33.497229],[-70.616871,-33.494479],[-70.616977,-33.494017],[-70.617207,-33.493011],[-70.617618,-33.491297],[-70.618154,-33.488944],[-70.618373,-33.48798],[-70.618563,-33.487414],[-70.618925,-33.486828],[-70.620434,-33.484352],[-70.620584,-33.484015],[-70.620943,-33.482681],[-70.621164,-33.481913],[-70.621238,-33.481652],[-70.62147,-33.480834],[-70.621698,-33.479979],[-70.622018,-33.478691],[-70.622055,-33.478575],[-70.62228,-33.477806],[-70.622617,-33.476508],[-70.622704,-33.476188],[-70.623049,-33.474926],[-70.62319,-33.47433],[-70.623435,-33.473424],[-70.623559,-33.472903],[-70.623844,-33.471841],[-70.623996,-33.471183],[-70.624104,-33.470525],[-70.624213,-33.470276],[-70.624312,-33.470112],[-70.62441,-33.469999],[-70.624591,-33.469873],[-70.624645,-33.469836],[-70.625107,-33.469561],[-70.625413,-33.470119],[-70.625801,-33.470672],[-70.625897,-33.470809],[-70.626133,-33.471043],[-70.626441,-33.471314],[-70.626751,-33.471587],[-70.627802,-33.471977],[-70.62859,-33.472309],[-70.631934,-33.473523],[-70.63505,-33.474745],[-70.635603,-33.474922],[-70.637166,-33.475424],[-70.6387,-33.475936],[-70.639465,-33.476143],[-70.640486,-33.476299],[-70.641779,-33.476497],[-70.641974,-33.476529],[-70.6419,-33.477513],[-70.641826,-33.478874],[-70.641804,-33.479309],[-70.641764,-33.480121],[-70.641672,-33.481243],[-70.641482,-33.482773],[-70.641236,-33.484609],[-70.641217,-33.484797],[-70.641131,-33.485458],[-70.641046,-33.486114],[-70.640822,-33.487857],[-70.640611,-33.489508],[-70.640439,-33.490806],[-70.640319,-33.491596],[-70.640271,-33.491954],[-70.640185,-33.492592],[-70.639919,-33.494481],[-70.639803,-33.49526],[-70.639702,-33.496085],[-70.639625,-33.496727],[-70.639481,-33.497851],[-70.639449,-33.498339],[-70.63943,-33.49863],[-70.639368,-33.499247],[-70.63929,-33.500001],[-70.63916,-33.50098],[-70.63897,-33.50256],[-70.63882,-33.50385],[-70.63881,-33.5041],[-70.63878,-33.50448],[-70.638774,-33.504586],[-70.638751,-33.505027],[-70.638749,-33.505076],[-70.638748,-33.505096],[-70.638745,-33.505136],[-70.638744,-33.505159],[-70.638742,-33.505195],[-70.63874,-33.50524],[-70.63874,-33.50529],[-70.63869,-33.50565],[-70.638509,-33.50714],[-70.638509,-33.507146],[-70.638509,-33.507146],[-70.638509,-33.507146],[-70.638509,-33.507146],[-70.638509,-33.507146],[-70.638509,-33.507146],[-70.638509,-33.507146],[-70.638509,-33.507146],[-70.638509,-33.507146],[-70.638509,-33.507146],[-70.638509,-33.507147],[-70.638508,-33.507148],[-70.638508,-33.507151],[-70.638506,-33.507165],[-70.6385,-33.50722],[-70.63849,-33.5073],[-70.63841,-33.50802],[-70.63839,-33.50812],[-70.638193,-33.508784],[-70.638025,-33.509555],[-70.637926,-33.510012],[-70.637776,-33.510689],[-70.637658,-33.511145],[-70.637548,-33.511572],[-70.637339,-33.512471],[-70.63728,-33.512776],[-70.637231,-33.513068],[-70.637118,-33.51374],[-70.637076,-33.514079],[-70.636988,-33.514982],[-70.636838,-33.51654],[-70.636761,-33.517351],[-70.63675,-33.517472],[-70.636605,-33.51873],[-70.63608,-33.518689],[-70.635665,-33.518648],[-70.634881,-33.518564],[-70.634356,-33.518514],[-70.633967,-33.518467],[-70.633889,-33.518458],[-70.633226,-33.518388],[-70.632402,-33.518306],[-70.631891,-33.51825],[-70.631272,-33.518185],[-70.630832,-33.518135],[-70.63016,-33.518057],[-70.629197,-33.517959],[-70.628443,-33.517881],[-70.628016,-33.517836],[-70.62777,-33.51782],[-70.62733,-33.517746],[-70.627098,-33.517685],[-70.626653,-33.517502],[-70.625894,-33.517155],[-70.625531,-33.516982],[-70.624571,-33.51655],[-70.624553,-33.516542],[-70.624127,-33.516345],[-70.623308,-33.51589],[-70.622802,-33.515651],[-70.621968,-33.51527],[-70.621187,-33.514895],[-70.620741,-33.514649],[-70.62006,-33.514379],[-70.61952,-33.514213],[-70.619157,-33.514108]]]},"properties":{"comuna":"San Joaquín","mancha_id":"13129-88b2c50921fffff","clase":"Muy Bajo","nivel_medio":0.095,"nivel_medio_min":0.0,"nivel_medio_max":0.27,"pct_alto":2.4,"n_hexagonos":28,"area_ha":993.93}}],"bbox":[-70.64198,-33.51873,-70.61127,-33.46956]}