{"type":"FeatureCollection","features":[{"type":"Feature","geometry":{"type":"Polygon","coordinates":[[[-70.572695,-33.46006],[-70.573015,-33.460729],[-70.573143,-33.460997],[-70.573502,-33.461665],[-70.573633,-33.461872],[-70.573781,-33.462135],[-70.57394,-33.462554],[-70.574283,-33.463436],[-70.574378,-33.463697],[-70.574841,-33.464965],[-70.575007,-33.465454],[-70.575171,-33.46597],[-70.575506,-33.4668],[-70.575672,-33.46725],[-70.575788,-33.467568],[-70.575974,-33.468021],[-70.576004,-33.468102],[-70.576235,-33.468711],[-70.576342,-33.469013],[-70.576454,-33.469403],[-70.577147,-33.472672],[-70.577488,-33.474251],[-70.57774,-33.475432],[-70.577812,-33.475784],[-70.578048,-33.476938],[-70.578548,-33.479452],[-70.578973,-33.481346],[-70.579068,-33.481781],[-70.576636,-33.480173],[-70.57159,-33.481502],[-70.570957,-33.485748],[-70.565911,-33.487076],[-70.561498,-33.48416],[-70.562132,-33.479914],[-70.55772,-33.476997],[-70.558353,-33.472752],[-70.553941,-33.469834],[-70.554574,-33.465588],[-70.550316,-33.462772],[-70.550553,-33.462732],[-70.550983,-33.462654],[-70.55101,-33.46265],[-70.551133,-33.462647],[-70.551422,-33.462641],[-70.551545,-33.462639],[-70.551651,-33.462637],[-70.551768,-33.462635],[-70.55208,-33.462631],[-70.55251,-33.462625],[-70.552888,-33.462621],[-70.553345,-33.462615],[-70.553493,-33.462614],[-70.553784,-33.462611],[-70.554554,-33.462606],[-70.554852,-33.462605],[-70.555497,-33.462601],[-70.555696,-33.462599],[-70.556348,-33.462594],[-70.557035,-33.462591],[-70.557358,-33.46259],[-70.557679,-33.462587],[-70.558049,-33.462585],[-70.558624,-33.46258],[-70.559752,-33.462572],[-70.559871,-33.462571],[-70.560478,-33.462568],[-70.561925,-33.462552],[-70.56205,-33.462547],[-70.562087,-33.462546],[-70.562297,-33.462511],[-70.562526,-33.462455],[-70.562827,-33.462356],[-70.563374,-33.462174],[-70.564459,-33.461814],[-70.565503,-33.461442],[-70.566409,-33.461128],[-70.567533,-33.460736],[-70.568095,-33.460533],[-70.568138,-33.460517],[-70.568675,-33.460317],[-70.569254,-33.460091],[-70.570359,-33.459658],[-70.570899,-33.459474],[-70.571479,-33.459276],[-70.571727,-33.459197],[-70.572332,-33.459014],[-70.572339,-33.459032],[-70.572396,-33.459181],[-70.572561,-33.459635],[-70.572695,-33.46006]]]},"properties":{"comuna":"Peñalolén","mancha_id":"13122-88b2c50b01fffff","clase":"Muy Bajo","nivel_medio":0.084,"nivel_medio_min":0.002,"nivel_medio_max":0.391,"pct_alto":1.2,"n_hexagonos":11,"area_ha":455.73}},{"type":"Feature","geometry":{"type":"Polygon","coordinates":[[[-70.470731,-33.475407],[-70.465688,-33.476732],[-70.463819,-33.475493],[-70.463997,-33.475465],[-70.465409,-33.475313],[-70.465595,-33.475293],[-70.466466,-33.475283],[-70.467171,-33.475274],[-70.468459,-33.475192],[-70.469511,-33.475211],[-70.470449,-33.475208],[-70.470708,-33.475192],[-70.470759,-33.475189],[-70.470763,-33.47519],[-70.470731,-33.475407]]]},"properties":{"comuna":"Peñalolén","mancha_id":"13122-88b2c50ac7fffff","clase":"Muy Bajo","nivel_medio":0.19,"nivel_medio_min":0.19,"nivel_medio_max":0.19,"pct_alto":1.0,"n_hexagonos":1,"area_ha":5.74}},{"type":"Feature","geometry":{"type":"Polygon","coordinates":[[[-70.459377,-33.486542],[-70.454335,-33.487866],[-70.4537,-33.492108],[-70.448658,-33.493431],[-70.448478,-33.494631],[-70.448216,-33.494365],[-70.448,-33.494217],[-70.447836,-33.494111],[-70.447698,-33.494027],[-70.447526,-33.493958],[-70.447304,-33.493939],[-70.446944,-33.4939],[-70.446773,-33.493866],[-70.446575,-33.493783],[-70.446463,-33.493712],[-70.446299,-33.493643],[-70.446178,-33.493565],[-70.446118,-33.493537],[-70.445928,-33.493425],[-70.445653,-33.493307],[-70.445515,-33.493244],[-70.445455,-33.493209],[-70.445342,-33.493131],[-70.445281,-33.493075],[-70.445212,-33.493032],[-70.445058,-33.493006],[-70.444819,-33.493008],[-70.444579,-33.492954],[-70.444347,-33.492864],[-70.444243,-33.492822],[-70.444089,-33.492759],[-70.443916,-33.492675],[-70.443588,-33.492464],[-70.443313,-33.492332],[-70.44303,-33.492299],[-70.442859,-33.492294],[-70.442526,-33.492284],[-70.442141,-33.492288],[-70.442004,-33.492239],[-70.441729,-33.492171],[-70.441327,-33.492119],[-70.441156,-33.492092],[-70.440985,-33.492094],[-70.440779,-33.492075],[-70.440574,-33.492056],[-70.440497,-33.492042],[-70.440266,-33.492023],[-70.440163,-33.492003],[-70.440129,-33.491989],[-70.440017,-33.491948],[-70.439829,-33.491935],[-70.4393,-33.491977],[-70.439185,-33.491991],[-70.438763,-33.492041],[-70.438345,-33.492132],[-70.438005,-33.492222],[-70.437547,-33.492178],[-70.436993,-33.492112],[-70.437107,-33.491748],[-70.437172,-33.491283],[-70.43756,-33.490743],[-70.437569,-33.49073],[-70.437848,-33.490065],[-70.438059,-33.489244],[-70.438107,-33.488693],[-70.438203,-33.488304],[-70.43842,-33.487731],[-70.438614,-33.487361],[-70.43882,-33.487064],[-70.438948,-33.486537],[-70.438982,-33.486289],[-70.438939,-33.486106],[-70.438861,-33.485974],[-70.43886,-33.48597],[-70.43886,-33.48597],[-70.43886,-33.48597],[-70.43886,-33.48597],[-70.438875,-33.485969],[-70.438875,-33.485969],[-70.438879,-33.485968],[-70.438882,-33.485968],[-70.438892,-33.485967],[-70.438907,-33.485966],[-70.438962,-33.485962],[-70.439138,-33.485947],[-70.439365,-33.485875],[-70.440007,-33.485671],[-70.440199,-33.48561],[-70.44076,-33.485517],[-70.441574,-33.485381],[-70.442274,-33.485265],[-70.443149,-33.485119],[-70.443438,-33.485071],[-70.443463,-33.485069],[-70.444696,-33.484948],[-70.445117,-33.484907],[-70.447224,-33.48463],[-70.447381,-33.484551],[-70.44873,-33.48387],[-70.448762,-33.483854],[-70.449668,-33.483428],[-70.450191,-33.483183],[-70.451841,-33.482409],[-70.452374,-33.48195],[-70.453285,-33.481164],[-70.455293,-33.480067],[-70.455299,-33.480064],[-70.455897,-33.479574],[-70.460011,-33.482299],[-70.459377,-33.486542]]]},"properties":{"comuna":"Peñalolén","mancha_id":"13122-88b2c50a8bfffff","clase":"Muy Bajo","nivel_medio":0.2,"nivel_medio_min":0.0,"nivel_medio_max":0.359,"pct_alto":1.2,"n_hexagonos":6,"area_ha":178.76}},{"type":"Feature","geometry":{"type":"Polygon","coordinates":[[[-70.58995,-33.508595],[-70.590071,-33.509261],[-70.586936,-33.510087],[-70.586645,-33.510102],[-70.586458,-33.510112],[-70.585468,-33.51018],[-70.584977,-33.510213],[-70.583147,-33.510331],[-70.582309,-33.510382],[-70.580888,-33.510445],[-70.580644,-33.510459],[-70.579954,-33.510513],[-70.578251,-33.510616],[-70.577204,-33.510687],[-70.57693,-33.510708],[-70.575734,-33.510799],[-70.574877,-33.510929],[-70.574135,-33.511031],[-70.572945,-33.511164],[-70.57191,-33.511263],[-70.571013,-33.511343],[-70.57065,-33.51138],[-70.569876,-33.511459],[-70.569098,-33.511527],[-70.568758,-33.511556],[-70.568188,-33.511535],[-70.56791,-33.51153],[-70.567652,-33.511541],[-70.567522,-33.511546],[-70.566233,-33.511613],[-70.565983,-33.51161],[-70.565722,-33.511592],[-70.567158,-33.511214],[-70.567791,-33.506971],[-70.563378,-33.504055],[-70.564011,-33.49981],[-70.569057,-33.498482],[-70.57347,-33.501399],[-70.578517,-33.50007],[-70.57915,-33.495825],[-70.574737,-33.492909],[-70.57537,-33.488664],[-70.580251,-33.487379],[-70.580276,-33.487505],[-70.580459,-33.488518],[-70.58061,-33.489212],[-70.580949,-33.490132],[-70.581417,-33.490976],[-70.582144,-33.492126],[-70.582622,-33.492888],[-70.583049,-33.493571],[-70.583707,-33.494625],[-70.583833,-33.494827],[-70.58426,-33.495503],[-70.584561,-33.495981],[-70.584877,-33.496489],[-70.585332,-33.497218],[-70.585626,-33.497674],[-70.585835,-33.498002],[-70.58605,-33.498349],[-70.586694,-33.499358],[-70.586827,-33.499575],[-70.587038,-33.499947],[-70.587187,-33.50022],[-70.587815,-33.5017],[-70.587992,-33.502119],[-70.588166,-33.502531],[-70.588334,-33.502928],[-70.588855,-33.504133],[-70.589233,-33.504998],[-70.589446,-33.505744],[-70.589593,-33.50649],[-70.589819,-33.507878],[-70.58995,-33.508595]]]},"properties":{"comuna":"Peñalolén","mancha_id":"13122-88b2c5090bfffff","clase":"Muy Bajo","nivel_medio":0.177,"nivel_medio_min":0.011,"nivel_medio_max":0.464,"pct_alto":3.9,"n_hexagonos":8,"area_ha":339.72}},{"type":"Feature","geometry":{"type":"Polygon","coordinates":[[[-70.523673,-33.477801],[-70.524306,-33.473556],[-70.529351,-33.472229],[-70.529984,-33.467983],[-70.535029,-33.466656],[-70.535375,-33.464334],[-70.535668,-33.464249],[-70.535814,-33.464222],[-70.535958,-33.464173],[-70.536469,-33.464028],[-70.536751,-33.463949],[-70.537324,-33.463781],[-70.538444,-33.463461],[-70.538845,-33.463344],[-70.53936,-33.463198],[-70.540092,-33.462996],[-70.541462,-33.462876],[-70.54179,-33.46287],[-70.542032,-33.462864],[-70.542208,-33.462885],[-70.542319,-33.462908],[-70.54246,-33.462946],[-70.542505,-33.462966],[-70.543364,-33.463349],[-70.543792,-33.46354],[-70.543999,-33.463616],[-70.544133,-33.463642],[-70.544233,-33.463649],[-70.544389,-33.463647],[-70.544549,-33.463623],[-70.545118,-33.463999],[-70.544484,-33.468245],[-70.548896,-33.471163],[-70.548262,-33.475409],[-70.543217,-33.476737],[-70.542584,-33.480982],[-70.537539,-33.482309],[-70.533128,-33.479392],[-70.528083,-33.480719],[-70.523673,-33.477801]]]},"properties":{"comuna":"Peñalolén","mancha_id":"13122-88b2c50841fffff","clase":"Muy Bajo","nivel_medio":0.165,"nivel_medio_min":0.031,"nivel_medio_max":0.3,"pct_alto":4.8,"n_hexagonos":5,"area_ha":305.37}},{"type":"Feature","geometry":{"type":"Polygon","coordinates":[[[-70.468828,-33.488138],[-70.469462,-33.483894],[-70.465054,-33.480975],[-70.460011,-33.482299],[-70.455897,-33.479574],[-70.45622,-33.47931],[-70.45655,-33.47902],[-70.456721,-33.47887],[-70.457667,-33.478418],[-70.45814,-33.478238],[-70.458368,-33.478084],[-70.458648,-33.477894],[-70.459273,-33.477252],[-70.459961,-33.476763],[-70.46081,-33.476351],[-70.461173,-33.476175],[-70.461635,-33.475977],[-70.461886,-33.47587],[-70.461986,-33.475827],[-70.462773,-33.475668],[-70.46301,-33.47562],[-70.463636,-33.475522],[-70.463819,-33.475493],[-70.465688,-33.476732],[-70.470731,-33.475407],[-70.470763,-33.47519],[-70.47098,-33.475257],[-70.47131,-33.475351],[-70.4715,-33.47539],[-70.471708,-33.475306],[-70.472059,-33.475044],[-70.472083,-33.475026],[-70.47271,-33.474583],[-70.472784,-33.474531],[-70.47348,-33.473819],[-70.473681,-33.473658],[-70.474663,-33.472874],[-70.474782,-33.47273],[-70.475918,-33.47136],[-70.476181,-33.471042],[-70.47691,-33.470171],[-70.480816,-33.472757],[-70.480182,-33.477001],[-70.475139,-33.478326],[-70.474505,-33.48257],[-70.478913,-33.485489],[-70.478279,-33.489732],[-70.473236,-33.491056],[-70.468828,-33.488138]]]},"properties":{"comuna":"Peñalolén","mancha_id":"13122-88b2c50a85fffff","clase":"Bajo","nivel_medio":1.028,"nivel_medio_min":0.557,"nivel_medio_max":1.237,"pct_alto":17.1,"n_hexagonos":4,"area_ha":216.8}},{"type":"Feature","geometry":{"type":"Polygon","coordinates":[[[-70.459377,-33.486542],[-70.463785,-33.489461],[-70.463355,-33.492337],[-70.463254,-33.492338],[-70.462981,-33.492341],[-70.462631,-33.492512],[-70.462163,-33.492823],[-70.461532,-33.493256],[-70.461064,-33.493528],[-70.460646,-33.493705],[-70.460516,-33.493788],[-70.460426,-33.493875],[-70.460213,-33.494044],[-70.460061,-33.494161],[-70.45984,-33.494225],[-70.459607,-33.494233],[-70.45943,-33.49423],[-70.459167,-33.494152],[-70.459019,-33.494154],[-70.458894,-33.494184],[-70.458849,-33.494203],[-70.458815,-33.494252],[-70.458708,-33.494334],[-70.458629,-33.49434],[-70.458537,-33.494336],[-70.458458,-33.494327],[-70.458361,-33.494329],[-70.458241,-33.494339],[-70.45814,-33.494407],[-70.457915,-33.494558],[-70.457757,-33.494651],[-70.457622,-33.494706],[-70.457564,-33.494729],[-70.457083,-33.494916],[-70.456864,-33.495081],[-70.456774,-33.495149],[-70.456621,-33.49517],[-70.456501,-33.495171],[-70.456404,-33.495172],[-70.456335,-33.495154],[-70.456267,-33.495131],[-70.456153,-33.495123],[-70.456039,-33.495119],[-70.455891,-33.495121],[-70.455812,-33.49516],[-70.455722,-33.495242],[-70.455448,-33.495464],[-70.455164,-33.4955],[-70.455019,-33.495509],[-70.454858,-33.495561],[-70.454731,-33.495613],[-70.454577,-33.495629],[-70.454338,-33.495632],[-70.454175,-33.495612],[-70.453919,-33.495601],[-70.453765,-33.495603],[-70.453603,-33.495604],[-70.453423,-33.495614],[-70.453133,-33.495646],[-70.452843,-33.495649],[-70.452672,-33.49563],[-70.452458,-33.495604],[-70.452235,-33.495578],[-70.452039,-33.49558],[-70.451834,-33.495632],[-70.451716,-33.49572],[-70.451538,-33.495793],[-70.451308,-33.49581],[-70.451103,-33.49582],[-70.450975,-33.495821],[-70.450906,-33.495801],[-70.450743,-33.495752],[-70.450638,-33.495625],[-70.450629,-33.495582],[-70.450267,-33.4954],[-70.450094,-33.495266],[-70.450025,-33.49521],[-70.449878,-33.495126],[-70.449766,-33.495048],[-70.449611,-33.495007],[-70.449457,-33.494973],[-70.449354,-33.49496],[-70.448833,-33.494944],[-70.448763,-33.494888],[-70.448625,-33.494797],[-70.448564,-33.494719],[-70.448478,-33.494631],[-70.448658,-33.493431],[-70.4537,-33.492108],[-70.454335,-33.487866],[-70.459377,-33.486542]]]},"properties":{"comuna":"Peñalolén","mancha_id":"13122-88b2c50a83fffff","clase":"Bajo","nivel_medio":1.206,"nivel_medio_min":0.965,"nivel_medio_max":1.295,"pct_alto":10.0,"n_hexagonos":2,"area_ha":81.0}},{"type":"Feature","geometry":{"type":"Polygon","coordinates":[[[-70.587844,-33.510039],[-70.586936,-33.510087],[-70.590071,-33.509261],[-70.590078,-33.509301],[-70.590214,-33.510352],[-70.589898,-33.510415],[-70.589328,-33.510423],[-70.588953,-33.510326],[-70.588544,-33.510173],[-70.587844,-33.510039]]]},"properties":{"comuna":"Peñalolén","mancha_id":"13122-88b2c50903fffff","clase":"Bajo","nivel_medio":0.988,"nivel_medio_min":0.988,"nivel_medio_max":0.988,"pct_alto":30.8,"n_hexagonos":1,"area_ha":1.84}},{"type":"Feature","geometry":{"type":"Polygon","coordinates":[[[-70.519896,-33.470638],[-70.52053,-33.466393],[-70.525574,-33.465065],[-70.526207,-33.460819],[-70.529894,-33.459849],[-70.530262,-33.461124],[-70.530565,-33.462178],[-70.530618,-33.462438],[-70.530725,-33.463916],[-70.530756,-33.464123],[-70.530856,-33.464433],[-70.53097,-33.464659],[-70.531379,-33.465471],[-70.533422,-33.464883],[-70.534387,-33.464619],[-70.535375,-33.464334],[-70.535029,-33.466656],[-70.529984,-33.467983],[-70.529351,-33.472229],[-70.524306,-33.473556],[-70.519896,-33.470638]]]},"properties":{"comuna":"Peñalolén","mancha_id":"13122-88b2c50849fffff","clase":"Bajo","nivel_medio":1.144,"nivel_medio_min":0.952,"nivel_medio_max":1.271,"pct_alto":35.7,"n_hexagonos":2,"area_ha":105.53}},{"type":"Feature","geometry":{"type":"Polygon","coordinates":[[[-70.535005,-33.499286],[-70.535638,-33.495042],[-70.540683,-33.493715],[-70.541317,-33.489471],[-70.536905,-33.486554],[-70.531861,-33.487881],[-70.52745,-33.484963],[-70.528083,-33.480719],[-70.533128,-33.479392],[-70.537539,-33.482309],[-70.542584,-33.480982],[-70.543217,-33.476737],[-70.548262,-33.475409],[-70.548896,-33.471163],[-70.544484,-33.468245],[-70.545118,-33.463999],[-70.544549,-33.463623],[-70.544824,-33.463583],[-70.54525,-33.46352],[-70.54799,-33.463168],[-70.548794,-33.463031],[-70.550316,-33.462772],[-70.554574,-33.465588],[-70.553941,-33.469834],[-70.558353,-33.472752],[-70.55772,-33.476997],[-70.562132,-33.479914],[-70.561498,-33.48416],[-70.565911,-33.487076],[-70.570957,-33.485748],[-70.57159,-33.481502],[-70.576636,-33.480173],[-70.579068,-33.481781],[-70.579366,-33.483133],[-70.579747,-33.484905],[-70.579908,-33.48569],[-70.580251,-33.487379],[-70.57537,-33.488664],[-70.574737,-33.492909],[-70.57915,-33.495825],[-70.578517,-33.50007],[-70.57347,-33.501399],[-70.569057,-33.498482],[-70.569691,-33.494238],[-70.565278,-33.491321],[-70.560232,-33.49265],[-70.559599,-33.496894],[-70.564011,-33.49981],[-70.563378,-33.504055],[-70.567791,-33.506971],[-70.567158,-33.511214],[-70.565722,-33.511592],[-70.565569,-33.511581],[-70.564797,-33.51144],[-70.5646,-33.511394],[-70.564106,-33.511374],[-70.562066,-33.51145],[-70.561706,-33.511474],[-70.560654,-33.511579],[-70.560324,-33.511612],[-70.559604,-33.511733],[-70.559028,-33.511788],[-70.5577,-33.511885],[-70.556843,-33.511948],[-70.554594,-33.512051],[-70.552936,-33.512124],[-70.552475,-33.512142],[-70.552653,-33.510953],[-70.54824,-33.508036],[-70.548874,-33.503793],[-70.553919,-33.502466],[-70.554553,-33.498222],[-70.550141,-33.495305],[-70.545095,-33.496632],[-70.544462,-33.500876],[-70.539416,-33.502203],[-70.535005,-33.499286]]]},"properties":{"comuna":"Peñalolén","mancha_id":"13122-88b2c50805fffff","clase":"Bajo","nivel_medio":0.876,"nivel_medio_min":0.522,"nivel_medio_max":1.432,"pct_alto":21.6,"n_hexagonos":19,"area_ha":1086.76}},{"type":"Feature","geometry":{"type":"Polygon","coordinates":[[[-70.485859,-33.471432],[-70.480816,-33.472757],[-70.47691,-33.470171],[-70.477499,-33.469466],[-70.477672,-33.46926],[-70.479114,-33.468066],[-70.48007,-33.46714],[-70.480756,-33.466529],[-70.481763,-33.465633],[-70.482358,-33.465238],[-70.482952,-33.464843],[-70.486493,-33.467187],[-70.485859,-33.471432]]]},"properties":{"comuna":"Peñalolén","mancha_id":"13122-88b2c50ae9fffff","clase":"Medio","nivel_medio":2.035,"nivel_medio_min":2.035,"nivel_medio_max":2.035,"pct_alto":56.3,"n_hexagonos":1,"area_ha":47.61}},{"type":"Feature","geometry":{"type":"Polygon","coordinates":[[[-70.478279,-33.489732],[-70.478913,-33.485489],[-70.474505,-33.48257],[-70.475139,-33.478326],[-70.480182,-33.477001],[-70.484591,-33.47992],[-70.483957,-33.484164],[-70.488366,-33.487083],[-70.487731,-33.491326],[-70.482688,-33.492651],[-70.478279,-33.489732]]]},"properties":{"comuna":"Peñalolén","mancha_id":"13122-88b2c50aa9fffff","clase":"Medio","nivel_medio":2.374,"nivel_medio_min":2.326,"nivel_medio_max":2.421,"pct_alto":66.7,"n_hexagonos":2,"area_ha":127.16}},{"type":"Feature","geometry":{"type":"Polygon","coordinates":[[[-70.459377,-33.486542],[-70.460011,-33.482299],[-70.465054,-33.480975],[-70.469462,-33.483894],[-70.468828,-33.488138],[-70.473236,-33.491056],[-70.472602,-33.495299],[-70.472536,-33.495316],[-70.472435,-33.495293],[-70.472285,-33.495223],[-70.472146,-33.495096],[-70.471962,-33.494955],[-70.471942,-33.494825],[-70.4719,-33.494689],[-70.471899,-33.494636],[-70.471779,-33.494575],[-70.471653,-33.494548],[-70.471579,-33.494544],[-70.471482,-33.49455],[-70.471228,-33.494592],[-70.471068,-33.494632],[-70.470881,-33.494701],[-70.470791,-33.494797],[-70.470712,-33.494822],[-70.470588,-33.494866],[-70.470492,-33.494934],[-70.470419,-33.494993],[-70.47038,-33.49505],[-70.470347,-33.495108],[-70.470256,-33.495152],[-70.470194,-33.495181],[-70.470109,-33.495201],[-70.470001,-33.495203],[-70.469892,-33.495175],[-70.469771,-33.495077],[-70.469707,-33.494987],[-70.469603,-33.494902],[-70.46932,-33.494686],[-70.468847,-33.494305],[-70.468464,-33.493937],[-70.468143,-33.49344],[-70.467736,-33.492953],[-70.467317,-33.492428],[-70.46715,-33.492354],[-70.467087,-33.492312],[-70.466955,-33.49228],[-70.466859,-33.492272],[-70.46679,-33.492272],[-70.46675,-33.492273],[-70.466614,-33.49227],[-70.466574,-33.49227],[-70.466437,-33.492272],[-70.466352,-33.492268],[-70.466283,-33.492264],[-70.466232,-33.49225],[-70.466139,-33.492185],[-70.466059,-33.492147],[-70.465922,-33.492144],[-70.465882,-33.492145],[-70.465774,-33.492146],[-70.465717,-33.492156],[-70.465609,-33.492157],[-70.465337,-33.492242],[-70.46506,-33.492364],[-70.464981,-33.492399],[-70.464833,-33.49242],[-70.464748,-33.492444],[-70.464675,-33.492479],[-70.464556,-33.492533],[-70.46438,-33.492559],[-70.464266,-33.49256],[-70.464163,-33.492533],[-70.464072,-33.492505],[-70.463933,-33.492421],[-70.463859,-33.492369],[-70.463773,-33.492341],[-70.463522,-33.492335],[-70.463355,-33.492337],[-70.463785,-33.489461],[-70.459377,-33.486542]]]},"properties":{"comuna":"Peñalolén","mancha_id":"13122-88b2c50a81fffff","clase":"Medio","nivel_medio":1.941,"nivel_medio_min":1.594,"nivel_medio_max":2.451,"pct_alto":31.8,"n_hexagonos":2,"area_ha":106.94}},{"type":"Feature","geometry":{"type":"Polygon","coordinates":[[[-70.529894,-33.459849],[-70.526207,-33.460819],[-70.525574,-33.465065],[-70.52053,-33.466393],[-70.516119,-33.463474],[-70.516657,-33.45987],[-70.518237,-33.45983],[-70.52084,-33.459763],[-70.520972,-33.459702],[-70.521112,-33.459655],[-70.521357,-33.459631],[-70.521625,-33.459624],[-70.521945,-33.4596],[-70.522339,-33.459573],[-70.524168,-33.45947],[-70.529339,-33.459179],[-70.529564,-33.459194],[-70.529652,-33.459239],[-70.529886,-33.459821],[-70.529894,-33.459849]]]},"properties":{"comuna":"Peñalolén","mancha_id":"13122-88b2c50a21fffff","clase":"Medio","nivel_medio":1.751,"nivel_medio_min":1.734,"nivel_medio_max":1.752,"pct_alto":54.3,"n_hexagonos":2,"area_ha":60.73}},{"type":"Feature","geometry":{"type":"Polygon","coordinates":[[[-70.559599,-33.496894],[-70.560232,-33.49265],[-70.565278,-33.491321],[-70.569691,-33.494238],[-70.569057,-33.498482],[-70.564011,-33.49981],[-70.559599,-33.496894]]]},"properties":{"comuna":"Peñalolén","mancha_id":"13122-88b2c5095bfffff","clase":"Medio","nivel_medio":2.11,"nivel_medio_min":2.11,"nivel_medio_max":2.11,"pct_alto":50.7,"n_hexagonos":1,"area_ha":63.62}},{"type":"Feature","geometry":{"type":"Polygon","coordinates":[[[-70.517995,-33.483372],[-70.518628,-33.479128],[-70.523673,-33.477801],[-70.528083,-33.480719],[-70.52745,-33.484963],[-70.522405,-33.48629],[-70.517995,-33.483372]]]},"properties":{"comuna":"Peñalolén","mancha_id":"13122-88b2c50843fffff","clase":"Medio","nivel_medio":1.851,"nivel_medio_min":1.851,"nivel_medio_max":1.851,"pct_alto":50.1,"n_hexagonos":1,"area_ha":63.61}},{"type":"Feature","geometry":{"type":"Polygon","coordinates":[[[-70.525548,-33.497695],[-70.526182,-33.493452],[-70.531227,-33.492125],[-70.531861,-33.487881],[-70.536905,-33.486554],[-70.541317,-33.489471],[-70.540683,-33.493715],[-70.535638,-33.495042],[-70.535005,-33.499286],[-70.52996,-33.500613],[-70.529326,-33.504856],[-70.533737,-33.507773],[-70.538783,-33.506447],[-70.539416,-33.502203],[-70.544462,-33.500876],[-70.545095,-33.496632],[-70.550141,-33.495305],[-70.554553,-33.498222],[-70.553919,-33.502466],[-70.548874,-33.503793],[-70.54824,-33.508036],[-70.552653,-33.510953],[-70.552475,-33.512142],[-70.550734,-33.512212],[-70.549736,-33.512257],[-70.548454,-33.512318],[-70.547091,-33.512387],[-70.546224,-33.512467],[-70.545519,-33.512503],[-70.544919,-33.512492],[-70.544439,-33.512452],[-70.543784,-33.512427],[-70.543354,-33.512434],[-70.542727,-33.512491],[-70.542695,-33.512494],[-70.541753,-33.512401],[-70.540261,-33.512073],[-70.53856,-33.511694],[-70.537537,-33.511182],[-70.536122,-33.510857],[-70.534142,-33.510341],[-70.53339,-33.5101],[-70.533354,-33.510089],[-70.530833,-33.509203],[-70.528153,-33.508261],[-70.527673,-33.508092],[-70.524816,-33.507783],[-70.524285,-33.507633],[-70.524234,-33.507619],[-70.524073,-33.507573],[-70.523578,-33.507433],[-70.523218,-33.507212],[-70.521827,-33.50636],[-70.520307,-33.505428],[-70.519765,-33.505088],[-70.519721,-33.505057],[-70.519508,-33.504907],[-70.519507,-33.504906],[-70.519505,-33.504905],[-70.519466,-33.504878],[-70.519194,-33.504687],[-70.51899,-33.504543],[-70.518851,-33.504445],[-70.518778,-33.504395],[-70.518774,-33.504391],[-70.518727,-33.504352],[-70.518726,-33.504351],[-70.518699,-33.504329],[-70.518686,-33.504318],[-70.518672,-33.504307],[-70.518661,-33.504298],[-70.518627,-33.504269],[-70.518626,-33.504269],[-70.518599,-33.504247],[-70.518542,-33.504199],[-70.518249,-33.503958],[-70.518244,-33.503954],[-70.518239,-33.503952],[-70.518238,-33.503951],[-70.518139,-33.503888],[-70.518122,-33.503877],[-70.518107,-33.503868],[-70.518103,-33.503865],[-70.518082,-33.503852],[-70.51795,-33.503771],[-70.517949,-33.503771],[-70.517947,-33.50377],[-70.51987,-33.503265],[-70.520504,-33.499022],[-70.525548,-33.497695]]]},"properties":{"comuna":"Peñalolén","mancha_id":"13122-88b2c50801fffff","clase":"Medio","nivel_medio":1.805,"nivel_medio_min":1.558,"nivel_medio_max":2.242,"pct_alto":50.6,"n_hexagonos":9,"area_ha":426.4}},{"type":"Feature","geometry":{"type":"Polygon","coordinates":[[[-70.531227,-33.492125],[-70.526182,-33.493452],[-70.525548,-33.497695],[-70.520504,-33.499022],[-70.51987,-33.503265],[-70.517947,-33.50377],[-70.517888,-33.503734],[-70.517792,-33.503659],[-70.517733,-33.503613],[-70.517707,-33.503593],[-70.517627,-33.50353],[-70.517535,-33.503458],[-70.517436,-33.503383],[-70.517416,-33.503367],[-70.517415,-33.503367],[-70.517075,-33.503033],[-70.516918,-33.502879],[-70.516872,-33.502833],[-70.516264,-33.502236],[-70.516259,-33.502231],[-70.516259,-33.502231],[-70.516238,-33.502209],[-70.516218,-33.502201],[-70.516217,-33.502201],[-70.516169,-33.502181],[-70.516169,-33.502181],[-70.516118,-33.502161],[-70.516001,-33.502114],[-70.515859,-33.502039],[-70.515766,-33.50199],[-70.515618,-33.501893],[-70.51557,-33.501866],[-70.515522,-33.501849],[-70.515492,-33.501838],[-70.515483,-33.501834],[-70.515473,-33.501832],[-70.515459,-33.501827],[-70.515438,-33.501821],[-70.515437,-33.501821],[-70.515399,-33.501819],[-70.515357,-33.501815],[-70.515307,-33.501807],[-70.51522,-33.501799],[-70.515136,-33.501786],[-70.515074,-33.501787],[-70.515025,-33.501787],[-70.514911,-33.501784],[-70.514802,-33.501777],[-70.514653,-33.50176],[-70.514513,-33.501726],[-70.514377,-33.501701],[-70.514334,-33.501694],[-70.514237,-33.501678],[-70.514089,-33.501655],[-70.514028,-33.501646],[-70.513991,-33.501633],[-70.513959,-33.50162],[-70.513936,-33.501602],[-70.513895,-33.501585],[-70.513833,-33.501559],[-70.513316,-33.501394],[-70.513218,-33.501358],[-70.513155,-33.501335],[-70.513128,-33.501325],[-70.512959,-33.50131],[-70.512755,-33.501296],[-70.512684,-33.501291],[-70.512652,-33.50129],[-70.512299,-33.501187],[-70.512143,-33.501145],[-70.512077,-33.501141],[-70.512045,-33.50114],[-70.511981,-33.501137],[-70.511801,-33.501105],[-70.51171,-33.501091],[-70.511701,-33.501091],[-70.511665,-33.50109],[-70.511612,-33.501091],[-70.511581,-33.501088],[-70.511525,-33.501091],[-70.511494,-33.501092],[-70.511466,-33.501094],[-70.511418,-33.501092],[-70.511256,-33.501067],[-70.511251,-33.501066],[-70.511179,-33.501055],[-70.511111,-33.501045],[-70.510959,-33.501021],[-70.510867,-33.50104],[-70.510809,-33.501051],[-70.510765,-33.501059],[-70.510703,-33.501068],[-70.510661,-33.501074],[-70.510603,-33.501074],[-70.510565,-33.501074],[-70.510511,-33.501069],[-70.510505,-33.501067],[-70.510458,-33.501055],[-70.510454,-33.501054],[-70.510451,-33.501053],[-70.510404,-33.501039],[-70.510383,-33.501033],[-70.510383,-33.501033],[-70.510335,-33.501015],[-70.510301,-33.501007],[-70.510243,-33.500992],[-70.510178,-33.500978],[-70.510125,-33.500963],[-70.510094,-33.500953],[-70.510057,-33.500939],[-70.510052,-33.500937],[-70.509954,-33.500922],[-70.509907,-33.50092],[-70.509845,-33.500911],[-70.509792,-33.500904],[-70.509753,-33.500904],[-70.509719,-33.5009],[-70.509659,-33.500902],[-70.509587,-33.500893],[-70.509539,-33.50089],[-70.509466,-33.50088],[-70.509391,-33.500862],[-70.509347,-33.500857],[-70.509305,-33.500854],[-70.50924,-33.500847],[-70.509198,-33.50085],[-70.509136,-33.500863],[-70.508998,-33.500894],[-70.50895,-33.500899],[-70.50895,-33.500899],[-70.508875,-33.500907],[-70.508839,-33.50091],[-70.508791,-33.500913],[-70.508753,-33.500909],[-70.50873,-33.500909],[-70.508718,-33.500909],[-70.508683,-33.500907],[-70.508669,-33.500904],[-70.508657,-33.500903],[-70.508617,-33.500896],[-70.508578,-33.500886],[-70.508561,-33.500881],[-70.508512,-33.500855],[-70.508443,-33.500815],[-70.508397,-33.500789],[-70.508396,-33.500789],[-70.508347,-33.500763],[-70.508339,-33.50076],[-70.508301,-33.500744],[-70.508268,-33.500738],[-70.508262,-33.500737],[-70.508253,-33.500735],[-70.508236,-33.500731],[-70.508161,-33.500719],[-70.508115,-33.500709],[-70.50806,-33.500701],[-70.50805,-33.500699],[-70.508044,-33.500698],[-70.508025,-33.500694],[-70.507993,-33.500685],[-70.507945,-33.500672],[-70.507899,-33.500654],[-70.507899,-33.500653],[-70.507861,-33.500639],[-70.507823,-33.50062],[-70.507813,-33.500615],[-70.507802,-33.50061],[-70.507777,-33.500597],[-70.507776,-33.500597],[-70.507742,-33.500571],[-70.507704,-33.500549],[-70.507662,-33.500523],[-70.507565,-33.50048],[-70.507538,-33.500468],[-70.507498,-33.500455],[-70.507467,-33.500448],[-70.507413,-33.500438],[-70.507375,-33.500435],[-70.507327,-33.500428],[-70.507295,-33.500422],[-70.507262,-33.500415],[-70.50721,-33.500402],[-70.507141,-33.500382],[-70.507,-33.500337],[-70.50695,-33.500321],[-70.506914,-33.50031],[-70.506858,-33.500298],[-70.506835,-33.500293],[-70.506808,-33.500288],[-70.506782,-33.500283],[-70.506747,-33.500262],[-70.506705,-33.500243],[-70.506644,-33.500223],[-70.506598,-33.500207],[-70.506549,-33.500189],[-70.506393,-33.500167],[-70.506367,-33.500164],[-70.506148,-33.500135],[-70.505995,-33.500092],[-70.505926,-33.500051],[-70.505848,-33.500013],[-70.505745,-33.499965],[-70.505721,-33.499954],[-70.505687,-33.499938],[-70.505619,-33.499908],[-70.505539,-33.499878],[-70.505462,-33.499848],[-70.505382,-33.499814],[-70.505311,-33.49979],[-70.505246,-33.499763],[-70.505169,-33.499739],[-70.505161,-33.499736],[-70.505111,-33.499722],[-70.50504,-33.499703],[-70.504955,-33.499688],[-70.504889,-33.499684],[-70.504824,-33.499678],[-70.504773,-33.499676],[-70.504724,-33.49967],[-70.504667,-33.499659],[-70.504575,-33.499649],[-70.504508,-33.499639],[-70.504453,-33.499628],[-70.504397,-33.499622],[-70.504324,-33.499611],[-70.50301,-33.49959],[-70.50278,-33.49956],[-70.50211,-33.49949],[-70.501874,-33.499466],[-70.501831,-33.499467],[-70.501782,-33.499464],[-70.50171,-33.499464],[-70.50159,-33.49948],[-70.501504,-33.499493],[-70.501467,-33.499495],[-70.501405,-33.499496],[-70.501343,-33.4995],[-70.501258,-33.499509],[-70.50118,-33.499514],[-70.501111,-33.499518],[-70.501063,-33.499523],[-70.501043,-33.499525],[-70.501,-33.49953],[-70.500936,-33.49953],[-70.500871,-33.499528],[-70.500818,-33.499516],[-70.500767,-33.499498],[-70.500698,-33.499473],[-70.500616,-33.499435],[-70.500543,-33.499394],[-70.500472,-33.499353],[-70.500421,-33.499312],[-70.500385,-33.499298],[-70.500325,-33.499246],[-70.500281,-33.499212],[-70.500238,-33.499184],[-70.500203,-33.499159],[-70.500179,-33.499137],[-70.500139,-33.499075],[-70.500104,-33.499018],[-70.500064,-33.498952],[-70.500033,-33.498902],[-70.500011,-33.49885],[-70.499985,-33.498786],[-70.499968,-33.498732],[-70.499961,-33.498697],[-70.499966,-33.498663],[-70.499968,-33.498632],[-70.49998,-33.498581],[-70.499989,-33.498526],[-70.500002,-33.498477],[-70.500006,-33.498442],[-70.500007,-33.498425],[-70.500019,-33.498364],[-70.500037,-33.498291],[-70.500037,-33.498263],[-70.500035,-33.498251],[-70.500033,-33.498239],[-70.500011,-33.498198],[-70.499986,-33.498166],[-70.499959,-33.498141],[-70.499893,-33.498098],[-70.499851,-33.498075],[-70.499802,-33.498047],[-70.499746,-33.49801],[-70.499704,-33.497985],[-70.499625,-33.497946],[-70.499611,-33.49794],[-70.499571,-33.497922],[-70.499523,-33.497897],[-70.499465,-33.497888],[-70.499338,-33.497865],[-70.499249,-33.49785],[-70.499194,-33.49784],[-70.499179,-33.497837],[-70.499165,-33.497834],[-70.499134,-33.497829],[-70.499122,-33.497826],[-70.499109,-33.497823],[-70.499072,-33.497813],[-70.499038,-33.497804],[-70.499005,-33.497793],[-70.498974,-33.497781],[-70.498936,-33.497766],[-70.49889,-33.497744],[-70.498832,-33.497716],[-70.498796,-33.497699],[-70.498743,-33.497678],[-70.498691,-33.497667],[-70.498611,-33.497659],[-70.498545,-33.497655],[-70.498494,-33.497657],[-70.498443,-33.497662],[-70.498409,-33.497671],[-70.498367,-33.497688],[-70.49832,-33.497704],[-70.498215,-33.497748],[-70.498139,-33.497784],[-70.498055,-33.497824],[-70.497974,-33.497865],[-70.497905,-33.497902],[-70.497847,-33.497928],[-70.497798,-33.497946],[-70.497753,-33.497975],[-70.497643,-33.498015],[-70.497554,-33.498056],[-70.497467,-33.4981],[-70.497389,-33.498143],[-70.497318,-33.49818],[-70.497246,-33.498221],[-70.49719,-33.498252],[-70.497135,-33.498283],[-70.497084,-33.498309],[-70.497019,-33.498337],[-70.496976,-33.498353],[-70.496941,-33.498375],[-70.496845,-33.498418],[-70.496735,-33.498477],[-70.496644,-33.498517],[-70.496559,-33.498554],[-70.496483,-33.498591],[-70.49641,-33.49863],[-70.496352,-33.498667],[-70.496303,-33.498695],[-70.496231,-33.498739],[-70.496178,-33.498771],[-70.496142,-33.498793],[-70.496079,-33.498819],[-70.496022,-33.498843],[-70.495964,-33.498863],[-70.49588,-33.498888],[-70.495756,-33.498938],[-70.49564,-33.498986],[-70.495555,-33.49903],[-70.495486,-33.499061],[-70.495459,-33.499074],[-70.495394,-33.499106],[-70.495321,-33.499146],[-70.49526,-33.499176],[-70.495202,-33.499207],[-70.49517,-33.499224],[-70.495124,-33.499248],[-70.495042,-33.499289],[-70.494979,-33.499318],[-70.494939,-33.499329],[-70.494905,-33.499338],[-70.494854,-33.499341],[-70.494792,-33.499352],[-70.494736,-33.499363],[-70.494629,-33.49938],[-70.494542,-33.499398],[-70.494473,-33.499409],[-70.494433,-33.49941],[-70.494391,-33.499416],[-70.494351,-33.499421],[-70.49432,-33.499427],[-70.494284,-33.49943],[-70.49424,-33.499438],[-70.494193,-33.499447],[-70.494128,-33.499465],[-70.494084,-33.499476],[-70.494039,-33.499485],[-70.493988,-33.499492],[-70.493947,-33.499494],[-70.493901,-33.499498],[-70.493829,-33.499488],[-70.493769,-33.499482],[-70.493725,-33.499471],[-70.493674,-33.49946],[-70.493621,-33.49945],[-70.493554,-33.499439],[-70.493503,-33.499425],[-70.493436,-33.499412],[-70.493387,-33.499404],[-70.493332,-33.499393],[-70.493292,-33.499387],[-70.493252,-33.49938],[-70.493205,-33.49937],[-70.493143,-33.499364],[-70.493076,-33.499362],[-70.493009,-33.499362],[-70.492974,-33.49936],[-70.492914,-33.49936],[-70.492854,-33.499363],[-70.492832,-33.499364],[-70.492776,-33.499367],[-70.492718,-33.499374],[-70.492654,-33.499385],[-70.492598,-33.499397],[-70.492549,-33.49941],[-70.4925,-33.499429],[-70.492449,-33.499453],[-70.492413,-33.499475],[-70.492366,-33.499512],[-70.492291,-33.499579],[-70.492163,-33.499709],[-70.492084,-33.499815],[-70.492052,-33.499888],[-70.491989,-33.49998],[-70.491966,-33.500045],[-70.491961,-33.500086],[-70.491953,-33.500155],[-70.491932,-33.500224],[-70.491927,-33.500273],[-70.491903,-33.500339],[-70.491883,-33.50039],[-70.491822,-33.500473],[-70.491809,-33.500507],[-70.491735,-33.500585],[-70.491697,-33.500612],[-70.491598,-33.500673],[-70.491569,-33.5007],[-70.491531,-33.500735],[-70.491507,-33.50077],[-70.491462,-33.500804],[-70.49144,-33.500813],[-70.491366,-33.500836],[-70.491324,-33.500845],[-70.491221,-33.500856],[-70.491086,-33.500856],[-70.490988,-33.500845],[-70.490911,-33.500812],[-70.490721,-33.50078],[-70.490592,-33.50074],[-70.490514,-33.500674],[-70.490474,-33.500641],[-70.490426,-33.500621],[-70.49038,-33.500611],[-70.490341,-33.5006],[-70.490267,-33.500624],[-70.490231,-33.500654],[-70.490185,-33.500695],[-70.490142,-33.500734],[-70.490092,-33.500774],[-70.490025,-33.500813],[-70.489968,-33.50084],[-70.48989,-33.500846],[-70.489857,-33.500844],[-70.489813,-33.500842],[-70.489721,-33.500793],[-70.489551,-33.50065],[-70.489524,-33.500613],[-70.489474,-33.500564],[-70.489421,-33.500517],[-70.489376,-33.500483],[-70.489291,-33.500481],[-70.489229,-33.500508],[-70.489187,-33.50054],[-70.48915,-33.500559],[-70.48913,-33.500576],[-70.489033,-33.500619],[-70.488984,-33.500657],[-70.488935,-33.500715],[-70.488912,-33.50076],[-70.488898,-33.500805],[-70.48886,-33.500881],[-70.488824,-33.500933],[-70.488797,-33.501052],[-70.488732,-33.501129],[-70.488718,-33.501175],[-70.488705,-33.501217],[-70.48868,-33.501273],[-70.488653,-33.501312],[-70.488628,-33.501364],[-70.488557,-33.50143],[-70.488494,-33.501474],[-70.488452,-33.501501],[-70.488334,-33.50153],[-70.488244,-33.501546],[-70.48814,-33.501557],[-70.488035,-33.501558],[-70.487989,-33.501537],[-70.487895,-33.501469],[-70.487803,-33.501403],[-70.487764,-33.50136],[-70.487741,-33.50132],[-70.487638,-33.501261],[-70.487596,-33.501246],[-70.487475,-33.501224],[-70.487425,-33.501225],[-70.487348,-33.501265],[-70.487273,-33.501298],[-70.487174,-33.501355],[-70.487057,-33.501417],[-70.486978,-33.501427],[-70.486884,-33.501431],[-70.486816,-33.501432],[-70.486747,-33.50143],[-70.486675,-33.50141],[-70.486603,-33.501399],[-70.486527,-33.501394],[-70.486486,-33.501402],[-70.486438,-33.501413],[-70.486359,-33.501433],[-70.486253,-33.501454],[-70.486217,-33.501455],[-70.486147,-33.501455],[-70.486079,-33.501447],[-70.486001,-33.501436],[-70.485899,-33.50144],[-70.485854,-33.501465],[-70.485773,-33.501488],[-70.485725,-33.501499],[-70.485635,-33.501508],[-70.485542,-33.501512],[-70.485476,-33.501498],[-70.485439,-33.501462],[-70.485402,-33.501441],[-70.485382,-33.501432],[-70.485327,-33.501414],[-70.485247,-33.501391],[-70.485167,-33.501373],[-70.485122,-33.501259],[-70.485084,-33.501209],[-70.485026,-33.50115],[-70.484988,-33.501093],[-70.484956,-33.501041],[-70.484902,-33.501004],[-70.484842,-33.500992],[-70.484651,-33.500995],[-70.484576,-33.500974],[-70.484513,-33.500941],[-70.484472,-33.500882],[-70.484442,-33.500802],[-70.48441,-33.50074],[-70.484395,-33.50069],[-70.484397,-33.500625],[-70.484418,-33.500546],[-70.484425,-33.500477],[-70.484427,-33.50042],[-70.48439,-33.500377],[-70.484383,-33.500339],[-70.484365,-33.500277],[-70.484327,-33.500233],[-70.484284,-33.500197],[-70.484235,-33.500167],[-70.484203,-33.500124],[-70.484174,-33.500087],[-70.484099,-33.50004],[-70.484036,-33.500031],[-70.483979,-33.500029],[-70.483925,-33.500016],[-70.483851,-33.500003],[-70.483658,-33.499869],[-70.483583,-33.499826],[-70.483497,-33.499784],[-70.483375,-33.499719],[-70.483322,-33.499673],[-70.483321,-33.499672],[-70.483268,-33.499629],[-70.483202,-33.499584],[-70.48314,-33.499532],[-70.48308,-33.499483],[-70.483038,-33.49945],[-70.482987,-33.499397],[-70.482927,-33.499337],[-70.482889,-33.499294],[-70.482854,-33.499255],[-70.482821,-33.499212],[-70.482783,-33.49917],[-70.482752,-33.499137],[-70.482715,-33.499096],[-70.482671,-33.499056],[-70.482622,-33.499025],[-70.482586,-33.499004],[-70.482544,-33.49897],[-70.482507,-33.498944],[-70.48242,-33.498899],[-70.482374,-33.498863],[-70.482316,-33.498824],[-70.482256,-33.498788],[-70.482217,-33.498766],[-70.482183,-33.498743],[-70.482137,-33.49871],[-70.482101,-33.498696],[-70.482064,-33.498676],[-70.482032,-33.498663],[-70.481992,-33.49865],[-70.481947,-33.498649],[-70.481912,-33.498649],[-70.481878,-33.498647],[-70.481843,-33.498638],[-70.481794,-33.498628],[-70.481792,-33.498627],[-70.481758,-33.498591],[-70.481728,-33.498551],[-70.481708,-33.498484],[-70.481601,-33.498391],[-70.481543,-33.498368],[-70.481491,-33.498306],[-70.481456,-33.498273],[-70.481284,-33.498166],[-70.481209,-33.498123],[-70.481168,-33.498076],[-70.481093,-33.497996],[-70.481063,-33.497915],[-70.480906,-33.497713],[-70.480854,-33.497676],[-70.480819,-33.497628],[-70.480742,-33.497525],[-70.480715,-33.49749],[-70.480658,-33.497439],[-70.480613,-33.497422],[-70.480564,-33.497372],[-70.480455,-33.497313],[-70.480443,-33.497307],[-70.480386,-33.497279],[-70.480288,-33.497209],[-70.480264,-33.497161],[-70.480212,-33.497095],[-70.480142,-33.49701],[-70.480078,-33.496963],[-70.47989,-33.496946],[-70.479782,-33.496933],[-70.479662,-33.49692],[-70.479491,-33.496917],[-70.479462,-33.496899],[-70.479245,-33.49683],[-70.479019,-33.496776],[-70.478674,-33.496794],[-70.478629,-33.496789],[-70.478418,-33.496778],[-70.478315,-33.496765],[-70.478166,-33.496719],[-70.478046,-33.496668],[-70.477931,-33.496631],[-70.477822,-33.496608],[-70.477657,-33.496596],[-70.477531,-33.496564],[-70.47726,-33.496376],[-70.477179,-33.496272],[-70.477086,-33.496164],[-70.477027,-33.496045],[-70.476986,-33.495964],[-70.47685,-33.4958],[-70.47681,-33.495768],[-70.476963,-33.495659],[-70.477065,-33.49562],[-70.477099,-33.495586],[-70.477074,-33.495457],[-70.47705,-33.49541],[-70.476975,-33.495344],[-70.476877,-33.495293],[-70.476814,-33.495246],[-70.476688,-33.495195],[-70.476562,-33.495172],[-70.476419,-33.49515],[-70.476191,-33.495139],[-70.475832,-33.495109],[-70.475644,-33.495107],[-70.475387,-33.495091],[-70.475017,-33.495076],[-70.474846,-33.495074],[-70.474663,-33.495061],[-70.474458,-33.495049],[-70.47431,-33.495051],[-70.47423,-33.495052],[-70.474133,-33.495044],[-70.474002,-33.495041],[-70.473866,-33.495037],[-70.473592,-33.495017],[-70.473478,-33.494999],[-70.473426,-33.494971],[-70.473362,-33.494915],[-70.473333,-33.494872],[-70.47323,-33.494845],[-70.47319,-33.494845],[-70.4731,-33.49487],[-70.472964,-33.494958],[-70.472909,-33.495035],[-70.472893,-33.495097],[-70.472888,-33.495187],[-70.472867,-33.495264],[-70.472823,-33.495336],[-70.472755,-33.495366],[-70.472676,-33.495348],[-70.472612,-33.495334],[-70.472536,-33.495316],[-70.472602,-33.495299],[-70.473236,-33.491056],[-70.478279,-33.489732],[-70.482688,-33.492651],[-70.487731,-33.491326],[-70.488366,-33.487083],[-70.483957,-33.484164],[-70.484591,-33.47992],[-70.480182,-33.477001],[-70.480816,-33.472757],[-70.485859,-33.471432],[-70.486493,-33.467187],[-70.482952,-33.464843],[-70.483269,-33.464633],[-70.483553,-33.464444],[-70.484394,-33.463886],[-70.484717,-33.463776],[-70.486255,-33.463251],[-70.486562,-33.462438],[-70.486281,-33.461363],[-70.486388,-33.460611],[-70.490508,-33.460516],[-70.496921,-33.460367],[-70.497316,-33.460358],[-70.500248,-33.46029],[-70.506929,-33.460119],[-70.506666,-33.461882],[-70.511076,-33.464801],[-70.516119,-33.463474],[-70.52053,-33.466393],[-70.519896,-33.470638],[-70.524306,-33.473556],[-70.523673,-33.477801],[-70.518628,-33.479128],[-70.517995,-33.483372],[-70.522405,-33.48629],[-70.52745,-33.484963],[-70.531861,-33.487881],[-70.531227,-33.492125]],[[-70.516093,-33.496104],[-70.516727,-33.49186],[-70.512316,-33.488943],[-70.507272,-33.490269],[-70.506638,-33.494512],[-70.511049,-33.49743],[-70.516093,-33.496104]],[[-70.514218,-33.47621],[-70.514852,-33.471965],[-70.510442,-33.469046],[-70.505398,-33.470373],[-70.504764,-33.474618],[-70.509174,-33.477536],[-70.514218,-33.47621]]]},"properties":{"comuna":"Peñalolén","mancha_id":"13122-88b2c50809fffff","clase":"Alto","nivel_medio":3.028,"nivel_medio_min":2.526,"nivel_medio_max":3.491,"pct_alto":91.4,"n_hexagonos":29,"area_ha":1488.84}},{"type":"Feature","geometry":{"type":"Polygon","coordinates":[[[-70.529326,-33.504856],[-70.52996,-33.500613],[-70.535005,-33.499286],[-70.539416,-33.502203],[-70.538783,-33.506447],[-70.533737,-33.507773],[-70.529326,-33.504856]]]},"properties":{"comuna":"Peñalolén","mancha_id":"13122-88b2c50807fffff","clase":"Alto","nivel_medio":2.64,"nivel_medio_min":2.64,"nivel_medio_max":2.64,"pct_alto":71.9,"n_hexagonos":1,"area_ha":63.59}},{"type":"Feature","geometry":{"type":"Polygon","coordinates":[[[-70.511076,-33.464801],[-70.506666,-33.461882],[-70.506929,-33.460119],[-70.516657,-33.45987],[-70.516119,-33.463474],[-70.511076,-33.464801]]]},"properties":{"comuna":"Peñalolén","mancha_id":"13122-88b2c50a3dfffff","clase":"Muy Alto","nivel_medio":3.575,"nivel_medio_min":3.575,"nivel_medio_max":3.575,"pct_alto":92.7,"n_hexagonos":1,"area_ha":37.42}},{"type":"Feature","geometry":{"type":"Polygon","coordinates":[[[-70.504764,-33.474618],[-70.505398,-33.470373],[-70.510442,-33.469046],[-70.514852,-33.471965],[-70.514218,-33.47621],[-70.509174,-33.477536],[-70.504764,-33.474618]]]},"properties":{"comuna":"Peñalolén","mancha_id":"13122-88b2c50a37fffff","clase":"Muy Alto","nivel_medio":3.512,"nivel_medio_min":3.512,"nivel_medio_max":3.512,"pct_alto":92.9,"n_hexagonos":1,"area_ha":63.62}},{"type":"Feature","geometry":{"type":"Polygon","coordinates":[[[-70.506638,-33.494512],[-70.507272,-33.490269],[-70.512316,-33.488943],[-70.516727,-33.49186],[-70.516093,-33.496104],[-70.511049,-33.49743],[-70.506638,-33.494512]]]},"properties":{"comuna":"Peñalolén","mancha_id":"13122-88b2c50857fffff","clase":"Muy Alto","nivel_medio":3.557,"nivel_medio_min":3.557,"nivel_medio_max":3.557,"pct_alto":92.5,"n_hexagonos":1,"area_ha":63.59}}],"bbox":[-70.59022,-33.51251,-70.43699,-33.45901]}