{"type":"FeatureCollection","features":[{"type":"Feature","geometry":{"type":"Polygon","coordinates":[[[-70.676692,-33.420422],[-70.676801,-33.420342],[-70.67713,-33.420098],[-70.677403,-33.419835],[-70.677664,-33.419586],[-70.678029,-33.419124],[-70.678239,-33.418798],[-70.678428,-33.418433],[-70.678655,-33.417864],[-70.678759,-33.417424],[-70.678919,-33.416283],[-70.679173,-33.414388],[-70.679395,-33.412716],[-70.679476,-33.412103],[-70.679725,-33.410308],[-70.679879,-33.409213],[-70.680054,-33.407954],[-70.680263,-33.406452],[-70.680336,-33.405981],[-70.680483,-33.405512],[-70.680717,-33.405004],[-70.681493,-33.403684],[-70.681873,-33.403031],[-70.682488,-33.402037],[-70.683034,-33.40111],[-70.683057,-33.401071],[-70.683855,-33.399729],[-70.684627,-33.39845],[-70.685384,-33.397197],[-70.686335,-33.395605],[-70.68665,-33.3951],[-70.687053,-33.394422],[-70.687515,-33.393647],[-70.687937,-33.392935],[-70.688761,-33.391553],[-70.688894,-33.391384],[-70.68928,-33.390649],[-70.690033,-33.388966],[-70.690249,-33.388482],[-70.690938,-33.386924],[-70.691686,-33.385262],[-70.691834,-33.384935],[-70.692313,-33.383882],[-70.692737,-33.384162],[-70.692106,-33.388417],[-70.696522,-33.391333],[-70.695891,-33.395587],[-70.690843,-33.396925],[-70.690211,-33.401178],[-70.694628,-33.404094],[-70.699676,-33.402756],[-70.700308,-33.398503],[-70.705356,-33.397164],[-70.709773,-33.40008],[-70.714822,-33.398741],[-70.71924,-33.401657],[-70.724289,-33.400318],[-70.728707,-33.403233],[-70.733757,-33.401894],[-70.738175,-33.404808],[-70.743225,-33.403469],[-70.747644,-33.406383],[-70.747013,-33.410637],[-70.741963,-33.411977],[-70.737544,-33.409062],[-70.732495,-33.410401],[-70.728076,-33.407487],[-70.723027,-33.408825],[-70.722593,-33.411752],[-70.722408,-33.411678],[-70.721838,-33.411237],[-70.721274,-33.410791],[-70.720958,-33.410496],[-70.72079,-33.41036],[-70.720424,-33.410221],[-70.720172,-33.410169],[-70.71978,-33.41008],[-70.719442,-33.410024],[-70.719125,-33.410012],[-70.718822,-33.410038],[-70.718537,-33.410009],[-70.7183,-33.40998],[-70.718178,-33.409932],[-70.718028,-33.409901],[-70.717858,-33.409923],[-70.717711,-33.409974],[-70.717442,-33.410047],[-70.717165,-33.4101],[-70.716861,-33.410087],[-70.716377,-33.410017],[-70.715866,-33.409885],[-70.715447,-33.409736],[-70.715226,-33.409595],[-70.715031,-33.409415],[-70.714824,-33.409274],[-70.714567,-33.409006],[-70.714411,-33.408764],[-70.714176,-33.408562],[-70.713821,-33.408318],[-70.71354,-33.408139],[-70.713436,-33.408087],[-70.713346,-33.408042],[-70.713134,-33.407979],[-70.712876,-33.407971],[-70.712547,-33.408036],[-70.712342,-33.408023],[-70.712038,-33.408032],[-70.711629,-33.408021],[-70.711191,-33.407955],[-70.710774,-33.4079],[-70.710199,-33.407847],[-70.709299,-33.407793],[-70.708565,-33.407759],[-70.708097,-33.407782],[-70.707694,-33.407788],[-70.707159,-33.407773],[-70.706769,-33.407773],[-70.706484,-33.407732],[-70.706239,-33.407702],[-70.705823,-33.407697],[-70.705646,-33.407738],[-70.705325,-33.407903],[-70.705056,-33.408007],[-70.7048,-33.408077],[-70.704556,-33.408102],[-70.704115,-33.408158],[-70.703825,-33.408195],[-70.703713,-33.408234],[-70.703444,-33.408328],[-70.703129,-33.408432],[-70.702593,-33.408711],[-70.701978,-33.409024],[-70.701377,-33.409342],[-70.70083,-33.409727],[-70.700354,-33.410043],[-70.700014,-33.410259],[-70.699617,-33.410541],[-70.699331,-33.410772],[-70.698986,-33.41107],[-70.698905,-33.411132],[-70.698414,-33.411262],[-70.698377,-33.41151],[-70.698133,-33.411669],[-70.697721,-33.411902],[-70.697291,-33.412213],[-70.69649,-33.412783],[-70.695471,-33.41339],[-70.694968,-33.413679],[-70.694714,-33.413876],[-70.694527,-33.414095],[-70.694281,-33.414353],[-70.694014,-33.414562],[-70.693812,-33.414709],[-70.69361,-33.414844],[-70.693316,-33.415009],[-70.69307,-33.415192],[-70.692918,-33.415374],[-70.69269,-33.415738],[-70.692292,-33.416375],[-70.692212,-33.416508],[-70.691985,-33.416883],[-70.691806,-33.417168],[-70.691501,-33.417477],[-70.691058,-33.417776],[-70.690773,-33.418068],[-70.6905,-33.418283],[-70.690075,-33.418527],[-70.689571,-33.418794],[-70.689213,-33.419026],[-70.688847,-33.419247],[-70.68854,-33.419417],[-70.688346,-33.419653],[-70.687955,-33.419929],[-70.687667,-33.420033],[-70.687489,-33.420069],[-70.687224,-33.420017],[-70.687012,-33.42002],[-70.686835,-33.420072],[-70.686579,-33.42017],[-70.686205,-33.420269],[-70.685778,-33.420397],[-70.685299,-33.420569],[-70.684912,-33.420707],[-70.684566,-33.420799],[-70.684537,-33.420807],[-70.684021,-33.421102],[-70.683603,-33.42134],[-70.683304,-33.421632],[-70.683037,-33.421824],[-70.682488,-33.422131],[-70.682187,-33.422262],[-70.681497,-33.422482],[-70.680605,-33.422782],[-70.679857,-33.423058],[-70.6792,-33.423272],[-70.67825,-33.423634],[-70.67741,-33.423928],[-70.677107,-33.424109],[-70.676802,-33.424291],[-70.676437,-33.424534],[-70.675875,-33.424852],[-70.675037,-33.425256],[-70.674303,-33.42556],[-70.673423,-33.425854],[-70.67297,-33.426004],[-70.672208,-33.426225],[-70.67177,-33.426357],[-70.671414,-33.426464],[-70.671362,-33.426288],[-70.67129,-33.42604],[-70.671279,-33.426004],[-70.671141,-33.425588],[-70.67136,-33.425469],[-70.671651,-33.425284],[-70.67194,-33.425031],[-70.672293,-33.424606],[-70.672549,-33.424284],[-70.672836,-33.423914],[-70.673365,-33.423242],[-70.674129,-33.422263],[-70.674652,-33.421718],[-70.675107,-33.421375],[-70.675555,-33.421106],[-70.676692,-33.420422]]]},"properties":{"comuna":"Renca","mancha_id":"13128-88b2c55409fffff","clase":"Muy Bajo","nivel_medio":0.171,"nivel_medio_min":0.028,"nivel_medio_max":0.499,"pct_alto":4.9,"n_hexagonos":20,"area_ha":837.1}},{"type":"Feature","geometry":{"type":"Polygon","coordinates":[[[-70.754586,-33.392279],[-70.755217,-33.388023],[-70.751665,-33.385681],[-70.751698,-33.385642],[-70.752157,-33.385421],[-70.752986,-33.385191],[-70.753409,-33.385096],[-70.753569,-33.38502],[-70.754916,-33.384549],[-70.755489,-33.3843],[-70.755933,-33.384107],[-70.756312,-33.383941],[-70.756525,-33.383871],[-70.756813,-33.383747],[-70.75687,-33.383727],[-70.756911,-33.383716],[-70.757667,-33.384363],[-70.758043,-33.384667],[-70.758426,-33.384978],[-70.760205,-33.38648],[-70.760286,-33.386549],[-70.761075,-33.387215],[-70.762323,-33.388271],[-70.763337,-33.389114],[-70.764364,-33.389984],[-70.764599,-33.390183],[-70.765687,-33.391103],[-70.76842,-33.393412],[-70.76948,-33.394301],[-70.771442,-33.395961],[-70.771458,-33.395974],[-70.768475,-33.396766],[-70.767845,-33.401021],[-70.762794,-33.402362],[-70.758375,-33.399448],[-70.753325,-33.400789],[-70.748905,-33.397874],[-70.749536,-33.393619],[-70.754586,-33.392279]]]},"properties":{"comuna":"Renca","mancha_id":"13128-88b2c550d1fffff","clase":"Muy Bajo","nivel_medio":0.246,"nivel_medio_min":0.0,"nivel_medio_max":0.435,"pct_alto":6.5,"n_hexagonos":6,"area_ha":231.6}},{"type":"Feature","geometry":{"type":"Polygon","coordinates":[[[-70.781106,-33.409763],[-70.781736,-33.405508],[-70.782195,-33.405386],[-70.782281,-33.405553],[-70.782392,-33.405875],[-70.782493,-33.406242],[-70.782523,-33.406456],[-70.782536,-33.406771],[-70.782528,-33.407328],[-70.782495,-33.409369],[-70.782473,-33.409883],[-70.782465,-33.410561],[-70.782463,-33.410657],[-70.781106,-33.409763]]]},"properties":{"comuna":"Renca","mancha_id":"13128-88b2c55087fffff","clase":"Muy Bajo","nivel_medio":0.338,"nivel_medio_min":0.338,"nivel_medio_max":0.338,"pct_alto":7.6,"n_hexagonos":1,"area_ha":5.36}},{"type":"Feature","geometry":{"type":"Polygon","coordinates":[[[-70.690211,-33.401178],[-70.690843,-33.396925],[-70.695891,-33.395587],[-70.696522,-33.391333],[-70.692106,-33.388417],[-70.692737,-33.384162],[-70.692313,-33.383882],[-70.6925,-33.383473],[-70.693434,-33.381411],[-70.693487,-33.381292],[-70.6943,-33.38153],[-70.694851,-33.381716],[-70.694668,-33.382181],[-70.694151,-33.383381],[-70.694883,-33.383593],[-70.695519,-33.383777],[-70.695609,-33.383567],[-70.695684,-33.383381],[-70.695837,-33.382998],[-70.696176,-33.382086],[-70.69637,-33.38216],[-70.697563,-33.382324],[-70.697853,-33.382365],[-70.697785,-33.382824],[-70.702202,-33.38574],[-70.70157,-33.389995],[-70.705987,-33.39291],[-70.705356,-33.397164],[-70.700308,-33.398503],[-70.699676,-33.402756],[-70.694628,-33.404094],[-70.690211,-33.401178]]]},"properties":{"comuna":"Renca","mancha_id":"13128-88b2c55711fffff","clase":"Bajo","nivel_medio":0.872,"nivel_medio_min":0.633,"nivel_medio_max":1.032,"pct_alto":27.2,"n_hexagonos":4,"area_ha":197.39}},{"type":"Feature","geometry":{"type":"Polygon","coordinates":[[[-70.737544,-33.409062],[-70.741963,-33.411977],[-70.747013,-33.410637],[-70.749459,-33.41225],[-70.749364,-33.412257],[-70.748603,-33.412331],[-70.74759,-33.412427],[-70.746896,-33.412546],[-70.746436,-33.412599],[-70.745913,-33.412603],[-70.745396,-33.412498],[-70.744544,-33.412371],[-70.743991,-33.412287],[-70.743518,-33.412254],[-70.742866,-33.412293],[-70.742403,-33.412335],[-70.741904,-33.412389],[-70.741902,-33.412389],[-70.741011,-33.412388],[-70.740248,-33.412389],[-70.739197,-33.412334],[-70.737988,-33.412279],[-70.73722,-33.412237],[-70.736058,-33.41217],[-70.735283,-33.412148],[-70.734293,-33.412228],[-70.733009,-33.412355],[-70.732195,-33.412423],[-70.732019,-33.412438],[-70.731203,-33.412555],[-70.730432,-33.412721],[-70.729763,-33.412905],[-70.728985,-33.413166],[-70.728403,-33.413343],[-70.727846,-33.413456],[-70.72717,-33.413489],[-70.726815,-33.413464],[-70.726337,-33.413355],[-70.725509,-33.413033],[-70.724195,-33.412455],[-70.723524,-33.412124],[-70.722593,-33.411752],[-70.723027,-33.408825],[-70.728076,-33.407487],[-70.732495,-33.410401],[-70.737544,-33.409062]]]},"properties":{"comuna":"Renca","mancha_id":"13128-88b2c55549fffff","clase":"Bajo","nivel_medio":0.777,"nivel_medio_min":0.677,"nivel_medio_max":1.071,"pct_alto":24.4,"n_hexagonos":3,"area_ha":72.71}},{"type":"Feature","geometry":{"type":"Polygon","coordinates":[[[-70.782195,-33.405386],[-70.781736,-33.405508],[-70.781106,-33.409763],[-70.776055,-33.411104],[-70.771634,-33.40819],[-70.766584,-33.409531],[-70.762164,-33.406617],[-70.757113,-33.407957],[-70.752694,-33.405043],[-70.747644,-33.406383],[-70.743225,-33.403469],[-70.738175,-33.404808],[-70.733757,-33.401894],[-70.728707,-33.403233],[-70.724289,-33.400318],[-70.71924,-33.401657],[-70.714822,-33.398741],[-70.715453,-33.394487],[-70.720502,-33.393148],[-70.72492,-33.396064],[-70.729969,-33.394724],[-70.734387,-33.397639],[-70.739437,-33.3963],[-70.740068,-33.392045],[-70.745117,-33.390704],[-70.745297,-33.389488],[-70.746067,-33.389581],[-70.748303,-33.390281],[-70.748871,-33.390202],[-70.74932,-33.39014],[-70.749575,-33.389962],[-70.749703,-33.389554],[-70.750002,-33.38957],[-70.751061,-33.389627],[-70.751283,-33.389465],[-70.751393,-33.389381],[-70.751297,-33.389165],[-70.751149,-33.388804],[-70.751084,-33.38841],[-70.751138,-33.388129],[-70.751351,-33.38786],[-70.751399,-33.387772],[-70.751604,-33.38742],[-70.751701,-33.387037],[-70.751538,-33.386413],[-70.751449,-33.386114],[-70.751446,-33.385977],[-70.751572,-33.38579],[-70.751665,-33.385681],[-70.755217,-33.388023],[-70.754586,-33.392279],[-70.749536,-33.393619],[-70.748905,-33.397874],[-70.753325,-33.400789],[-70.758375,-33.399448],[-70.762794,-33.402362],[-70.767845,-33.401021],[-70.768475,-33.396766],[-70.771458,-33.395974],[-70.772973,-33.397239],[-70.775255,-33.399172],[-70.77602,-33.39986],[-70.776661,-33.400346],[-70.777539,-33.401087],[-70.779433,-33.402684],[-70.78148,-33.40442],[-70.78189,-33.40488],[-70.78214,-33.405278],[-70.782195,-33.405386]]]},"properties":{"comuna":"Renca","mancha_id":"13128-88b2c55081fffff","clase":"Bajo","nivel_medio":0.915,"nivel_medio_min":0.505,"nivel_medio_max":1.126,"pct_alto":24.9,"n_hexagonos":11,"area_ha":605.85}},{"type":"Feature","geometry":{"type":"Polygon","coordinates":[[[-70.715453,-33.394487],[-70.711036,-33.391572],[-70.705987,-33.39291],[-70.70157,-33.389995],[-70.702202,-33.38574],[-70.697785,-33.382824],[-70.697853,-33.382365],[-70.698401,-33.382442],[-70.700008,-33.382577],[-70.701119,-33.382754],[-70.702544,-33.383059],[-70.70329,-33.38321],[-70.7037,-33.383275],[-70.704025,-33.383386],[-70.704329,-33.383549],[-70.704542,-33.383731],[-70.704786,-33.383873],[-70.70502,-33.384009],[-70.705175,-33.384137],[-70.705802,-33.384774],[-70.70581,-33.384783],[-70.706483,-33.385581],[-70.706912,-33.385952],[-70.706933,-33.385969],[-70.707021,-33.386046],[-70.70777,-33.38687],[-70.711143,-33.39085],[-70.71116,-33.39087],[-70.712739,-33.391293],[-70.715115,-33.391503],[-70.716925,-33.391536],[-70.718345,-33.391702],[-70.718976,-33.391693],[-70.719794,-33.391767],[-70.720649,-33.391684],[-70.720719,-33.391684],[-70.722304,-33.391676],[-70.723414,-33.391796],[-70.724224,-33.391817],[-70.725063,-33.391764],[-70.726003,-33.391467],[-70.726856,-33.391441],[-70.728004,-33.391668],[-70.729754,-33.392113],[-70.730269,-33.392281],[-70.73033,-33.392292],[-70.729969,-33.394724],[-70.72492,-33.396064],[-70.720502,-33.393148],[-70.715453,-33.394487]]]},"properties":{"comuna":"Renca","mancha_id":"13128-88b2c55701fffff","clase":"Medio","nivel_medio":2.181,"nivel_medio_min":2.022,"nivel_medio_max":2.469,"pct_alto":71.3,"n_hexagonos":4,"area_ha":115.78}},{"type":"Feature","geometry":{"type":"Polygon","coordinates":[[[-70.698377,-33.41151],[-70.698414,-33.411262],[-70.698905,-33.411132],[-70.698609,-33.411358],[-70.698377,-33.41151]]]},"properties":{"comuna":"Renca","mancha_id":"13128-88b2c5546dfffff","clase":"Medio","nivel_medio":2.0,"nivel_medio_min":2.0,"nivel_medio_max":2.0,"pct_alto":0.0,"n_hexagonos":1,"area_ha":0.06}},{"type":"Feature","geometry":{"type":"Polygon","coordinates":[[[-70.762164,-33.406617],[-70.766584,-33.409531],[-70.771634,-33.40819],[-70.776055,-33.411104],[-70.781106,-33.409763],[-70.782463,-33.410657],[-70.78245,-33.411286],[-70.782425,-33.411789],[-70.78238,-33.412457],[-70.782364,-33.412588],[-70.782346,-33.412766],[-70.782339,-33.412827],[-70.782296,-33.413237],[-70.782271,-33.413785],[-70.781862,-33.413777],[-70.781252,-33.41376],[-70.780941,-33.413783],[-70.780769,-33.413796],[-70.780122,-33.413898],[-70.779492,-33.41391],[-70.778957,-33.413878],[-70.778551,-33.413871],[-70.778264,-33.413844],[-70.777995,-33.413787],[-70.777774,-33.413737],[-70.777379,-33.413667],[-70.777053,-33.413635],[-70.776606,-33.413562],[-70.776235,-33.413541],[-70.77585,-33.41356],[-70.775688,-33.413577],[-70.775399,-33.413606],[-70.774995,-33.413678],[-70.774537,-33.413767],[-70.774072,-33.413925],[-70.773592,-33.41415],[-70.773303,-33.414237],[-70.772907,-33.414321],[-70.772728,-33.414403],[-70.772576,-33.414461],[-70.772356,-33.414494],[-70.772105,-33.414537],[-70.771842,-33.414568],[-70.7717,-33.414586],[-70.771229,-33.414599],[-70.77082,-33.414572],[-70.770079,-33.4145],[-70.76942,-33.414424],[-70.768777,-33.414334],[-70.767568,-33.414058],[-70.766517,-33.413835],[-70.765966,-33.413697],[-70.765856,-33.41367],[-70.765236,-33.413543],[-70.76471,-33.413428],[-70.76428,-33.413338],[-70.763624,-33.413207],[-70.762846,-33.41304],[-70.762091,-33.412885],[-70.761498,-33.412716],[-70.761082,-33.412599],[-70.76081,-33.412567],[-70.760443,-33.412513],[-70.759967,-33.4125],[-70.759326,-33.412519],[-70.758709,-33.412554],[-70.757688,-33.412634],[-70.757204,-33.412687],[-70.756746,-33.412737],[-70.756177,-33.412798],[-70.755453,-33.412808],[-70.755204,-33.412759],[-70.754801,-33.412665],[-70.754782,-33.412663],[-70.754446,-33.412614],[-70.753929,-33.412536],[-70.75336,-33.412399],[-70.752994,-33.412325],[-70.752544,-33.412311],[-70.751954,-33.41232],[-70.751246,-33.412339],[-70.750936,-33.412266],[-70.75069,-33.412235],[-70.750272,-33.412206],[-70.75,-33.41221],[-70.749459,-33.41225],[-70.747013,-33.410637],[-70.747644,-33.406383],[-70.752694,-33.405043],[-70.757113,-33.407957],[-70.762164,-33.406617]]]},"properties":{"comuna":"Renca","mancha_id":"13128-88b2c55091fffff","clase":"Medio","nivel_medio":1.76,"nivel_medio_min":1.501,"nivel_medio_max":2.271,"pct_alto":49.3,"n_hexagonos":5,"area_ha":184.96}},{"type":"Feature","geometry":{"type":"Polygon","coordinates":[[[-70.734387,-33.397639],[-70.729969,-33.394724],[-70.73033,-33.392292],[-70.731228,-33.392453],[-70.732018,-33.392714],[-70.733822,-33.393276],[-70.735075,-33.393645],[-70.736165,-33.39353],[-70.736772,-33.393178],[-70.737048,-33.392444],[-70.737392,-33.391723],[-70.738039,-33.390798],[-70.738094,-33.390742],[-70.738842,-33.389985],[-70.739397,-33.389562],[-70.74055,-33.38942],[-70.741639,-33.389307],[-70.742542,-33.389324],[-70.743846,-33.389313],[-70.745297,-33.389488],[-70.745117,-33.390704],[-70.740068,-33.392045],[-70.739437,-33.3963],[-70.734387,-33.397639]]]},"properties":{"comuna":"Renca","mancha_id":"13128-88b2c55729fffff","clase":"Alto","nivel_medio":2.846,"nivel_medio_min":2.841,"nivel_medio_max":2.862,"pct_alto":92.2,"n_hexagonos":2,"area_ha":53.79}},{"type":"Feature","geometry":{"type":"Polygon","coordinates":[[[-70.705356,-33.397164],[-70.705987,-33.39291],[-70.711036,-33.391572],[-70.715453,-33.394487],[-70.714822,-33.398741],[-70.709773,-33.40008],[-70.705356,-33.397164]]]},"properties":{"comuna":"Renca","mancha_id":"13128-88b2c55703fffff","clase":"Alto","nivel_medio":2.632,"nivel_medio_min":2.632,"nivel_medio_max":2.632,"pct_alto":84.4,"n_hexagonos":1,"area_ha":63.87}}],"bbox":[-70.78254,-33.42647,-70.67114,-33.38129]}