{"type":"FeatureCollection","features":[{"type":"Feature","geometry":{"type":"Polygon","coordinates":[[[-70.657401,-33.514845],[-70.654221,-33.512748],[-70.649172,-33.51408],[-70.648807,-33.516534],[-70.648202,-33.516652],[-70.64767,-33.516757],[-70.647185,-33.516854],[-70.646529,-33.516981],[-70.64551,-33.51719],[-70.644623,-33.517366],[-70.644337,-33.517421],[-70.643827,-33.517522],[-70.642761,-33.517739],[-70.642157,-33.517863],[-70.641104,-33.518081],[-70.640935,-33.518116],[-70.639637,-33.518368],[-70.6388,-33.51853],[-70.638225,-33.518655],[-70.637697,-33.518748],[-70.6374,-33.518775],[-70.637158,-33.518782],[-70.636927,-33.518773],[-70.63675,-33.518756],[-70.636605,-33.51873],[-70.63675,-33.517472],[-70.636761,-33.517351],[-70.636838,-33.51654],[-70.636988,-33.514982],[-70.637076,-33.514079],[-70.637118,-33.51374],[-70.637231,-33.513068],[-70.63728,-33.512776],[-70.637339,-33.512471],[-70.637548,-33.511572],[-70.637658,-33.511145],[-70.637776,-33.510689],[-70.637926,-33.510012],[-70.638025,-33.509555],[-70.638193,-33.508784],[-70.63839,-33.50812],[-70.63841,-33.50802],[-70.63849,-33.5073],[-70.6385,-33.50722],[-70.638506,-33.507165],[-70.638508,-33.507151],[-70.638508,-33.507148],[-70.638509,-33.507147],[-70.638509,-33.507146],[-70.638509,-33.507146],[-70.638509,-33.507146],[-70.638509,-33.507146],[-70.638509,-33.507146],[-70.638509,-33.507146],[-70.638509,-33.507146],[-70.638509,-33.507146],[-70.638509,-33.507146],[-70.638509,-33.507146],[-70.638509,-33.50714],[-70.63869,-33.50565],[-70.63874,-33.50529],[-70.63874,-33.50524],[-70.638742,-33.505195],[-70.638744,-33.505159],[-70.638745,-33.505136],[-70.638748,-33.505096],[-70.638749,-33.505076],[-70.638751,-33.505027],[-70.638774,-33.504586],[-70.63878,-33.50448],[-70.63881,-33.5041],[-70.63882,-33.50385],[-70.63897,-33.50256],[-70.63916,-33.50098],[-70.63929,-33.500001],[-70.639368,-33.499247],[-70.63943,-33.49863],[-70.639449,-33.498339],[-70.639481,-33.497851],[-70.639625,-33.496727],[-70.639702,-33.496085],[-70.639803,-33.49526],[-70.639919,-33.494481],[-70.640185,-33.492592],[-70.640271,-33.491954],[-70.640319,-33.491596],[-70.640439,-33.490806],[-70.640611,-33.489508],[-70.640822,-33.487857],[-70.641046,-33.486114],[-70.641131,-33.485458],[-70.641217,-33.484797],[-70.641236,-33.484609],[-70.641482,-33.482773],[-70.641672,-33.481243],[-70.641764,-33.480121],[-70.641804,-33.479309],[-70.641826,-33.478874],[-70.6419,-33.477513],[-70.641974,-33.476529],[-70.641988,-33.476531],[-70.64266,-33.47657],[-70.644876,-33.4767],[-70.645035,-33.476713],[-70.647193,-33.476892],[-70.650321,-33.476801],[-70.653768,-33.47654],[-70.654774,-33.476451],[-70.654922,-33.476437],[-70.655022,-33.476647],[-70.655188,-33.477007],[-70.65535,-33.477354],[-70.655544,-33.477849],[-70.655764,-33.478461],[-70.655891,-33.478779],[-70.65598,-33.478948],[-70.656157,-33.479266],[-70.656615,-33.480079],[-70.656718,-33.480278],[-70.657089,-33.481051],[-70.657357,-33.481625],[-70.657681,-33.482321],[-70.657727,-33.482418],[-70.657902,-33.48279],[-70.658383,-33.483804],[-70.658485,-33.484023],[-70.658495,-33.484043],[-70.658834,-33.484775],[-70.658993,-33.485117],[-70.659127,-33.485405],[-70.659667,-33.486547],[-70.660485,-33.488291],[-70.660917,-33.489187],[-70.661024,-33.48941],[-70.66125,-33.489897],[-70.661851,-33.491181],[-70.662174,-33.491887],[-70.662177,-33.491893],[-70.662531,-33.492644],[-70.662804,-33.493227],[-70.663168,-33.493997],[-70.663551,-33.494814],[-70.663652,-33.495013],[-70.66395,-33.495662],[-70.664075,-33.495934],[-70.664206,-33.49622],[-70.664607,-33.497085],[-70.664803,-33.497507],[-70.664966,-33.497859],[-70.665303,-33.498585],[-70.6656,-33.499215],[-70.665749,-33.499532],[-70.665856,-33.499764],[-70.665969,-33.500005],[-70.666087,-33.50025],[-70.66659,-33.50131],[-70.666964,-33.50212],[-70.667173,-33.502582],[-70.667215,-33.502669],[-70.667333,-33.502915],[-70.667693,-33.503655],[-70.66779,-33.503857],[-70.668133,-33.504615],[-70.668357,-33.505075],[-70.668607,-33.505611],[-70.668889,-33.506209],[-70.669164,-33.506808],[-70.669541,-33.507597],[-70.669633,-33.507789],[-70.669889,-33.50832],[-70.670117,-33.508803],[-70.670299,-33.509182],[-70.670395,-33.509387],[-70.670423,-33.509447],[-70.670572,-33.509772],[-70.670656,-33.509948],[-70.670841,-33.510345],[-70.67103,-33.51075],[-70.670196,-33.51103],[-70.669341,-33.511282],[-70.668437,-33.511548],[-70.666988,-33.511985],[-70.666311,-33.512193],[-70.665671,-33.51239],[-70.664949,-33.512614],[-70.664267,-33.512817],[-70.663897,-33.512929],[-70.662912,-33.513227],[-70.662366,-33.513397],[-70.661404,-33.513693],[-70.660847,-33.513862],[-70.660405,-33.513993],[-70.659372,-33.514306],[-70.658075,-33.514713],[-70.657401,-33.514845]]]},"properties":{"comuna":"San Miguel","mancha_id":"13130-88b2c54609fffff","clase":"Muy Bajo","nivel_medio":0.112,"nivel_medio_min":0.0,"nivel_medio_max":0.285,"pct_alto":3.1,"n_hexagonos":26,"area_ha":944.86}},{"type":"Feature","geometry":{"type":"Polygon","coordinates":[[[-70.649172,-33.51408],[-70.654221,-33.512748],[-70.657401,-33.514845],[-70.65703,-33.514919],[-70.65574,-33.51517],[-70.653531,-33.515608],[-70.652831,-33.515744],[-70.651268,-33.516052],[-70.649033,-33.51649],[-70.648807,-33.516534],[-70.649172,-33.51408]]]},"properties":{"comuna":"San Miguel","mancha_id":"13130-88b2c5460bfffff","clase":"Bajo","nivel_medio":0.898,"nivel_medio_min":0.898,"nivel_medio_max":0.898,"pct_alto":26.8,"n_hexagonos":1,"area_ha":18.19}}],"bbox":[-70.67103,-33.51879,-70.6366,-33.47643]}