{"type":"FeatureCollection","features":[{"type":"Feature","geometry":{"type":"Polygon","coordinates":[[[-70.552106,-33.3846],[-70.556516,-33.38752],[-70.56156,-33.386188],[-70.565971,-33.389107],[-70.565338,-33.393359],[-70.561305,-33.394424],[-70.561005,-33.394321],[-70.560035,-33.393989],[-70.559081,-33.393662],[-70.558371,-33.393418],[-70.555883,-33.391771],[-70.554601,-33.39211],[-70.554472,-33.392065],[-70.553735,-33.391804],[-70.552911,-33.391502],[-70.551562,-33.390979],[-70.550381,-33.390519],[-70.550094,-33.390405],[-70.549445,-33.390208],[-70.548472,-33.389827],[-70.548033,-33.389657],[-70.547248,-33.38931],[-70.546596,-33.389066],[-70.547063,-33.385932],[-70.552106,-33.3846]]]},"properties":{"comuna":"Vitacura","mancha_id":"13132-88b2c519c5fffff","clase":"Muy Bajo","nivel_medio":0.216,"nivel_medio_min":0.15,"nivel_medio_max":0.27,"pct_alto":4.9,"n_hexagonos":2,"area_ha":114.03}},{"type":"Feature","geometry":{"type":"Polygon","coordinates":[[[-70.520435,-33.369562],[-70.519974,-33.372661],[-70.518445,-33.373065],[-70.517632,-33.372699],[-70.518258,-33.371681],[-70.519088,-33.37078],[-70.519675,-33.370187],[-70.520013,-33.369845],[-70.520085,-33.36977],[-70.520136,-33.369717],[-70.520251,-33.369629],[-70.520435,-33.369562]]]},"properties":{"comuna":"Vitacura","mancha_id":"13132-88b2c51839fffff","clase":"Muy Bajo","nivel_medio":0.337,"nivel_medio_min":0.337,"nivel_medio_max":0.337,"pct_alto":3.2,"n_hexagonos":1,"area_ha":4.84}},{"type":"Feature","geometry":{"type":"Polygon","coordinates":[[[-70.554601,-33.39211],[-70.555883,-33.391771],[-70.558371,-33.393418],[-70.558351,-33.393411],[-70.557383,-33.393077],[-70.55632,-33.392708],[-70.555386,-33.392382],[-70.554601,-33.39211]]]},"properties":{"comuna":"Vitacura","mancha_id":"13132-88b2c519ebfffff","clase":"Bajo","nivel_medio":0.63,"nivel_medio_min":0.63,"nivel_medio_max":0.63,"pct_alto":17.5,"n_hexagonos":1,"area_ha":1.53}},{"type":"Feature","geometry":{"type":"Polygon","coordinates":[[[-70.519974,-33.372661],[-70.524382,-33.375582],[-70.529425,-33.374251],[-70.533834,-33.377171],[-70.538877,-33.37584],[-70.543286,-33.37876],[-70.548329,-33.377429],[-70.548962,-33.373176],[-70.554005,-33.371844],[-70.558416,-33.374764],[-70.557783,-33.379016],[-70.562193,-33.381936],[-70.567237,-33.380603],[-70.56787,-33.376351],[-70.572913,-33.375018],[-70.577324,-33.377938],[-70.582369,-33.376604],[-70.58678,-33.379523],[-70.591824,-33.37819],[-70.596236,-33.381109],[-70.595604,-33.385361],[-70.600016,-33.38828],[-70.599384,-33.392532],[-70.603796,-33.39545],[-70.603164,-33.399702],[-70.607576,-33.40262],[-70.606944,-33.406871],[-70.601972,-33.408185],[-70.601844,-33.408169],[-70.601749,-33.408157],[-70.601399,-33.408134],[-70.600864,-33.408119],[-70.599929,-33.408083],[-70.599345,-33.408067],[-70.599238,-33.408064],[-70.59891,-33.408028],[-70.598501,-33.407916],[-70.597918,-33.407715],[-70.597519,-33.40757],[-70.597042,-33.407342],[-70.596607,-33.407184],[-70.595973,-33.406962],[-70.595671,-33.406857],[-70.594782,-33.406544],[-70.594127,-33.406312],[-70.593899,-33.406234],[-70.593607,-33.406135],[-70.592847,-33.405867],[-70.592176,-33.40563],[-70.591209,-33.40529],[-70.590897,-33.405178],[-70.590242,-33.404953],[-70.58966,-33.404774],[-70.589647,-33.404772],[-70.588439,-33.404538],[-70.586638,-33.404201],[-70.586351,-33.404145],[-70.585998,-33.404076],[-70.584861,-33.403653],[-70.583868,-33.403079],[-70.582941,-33.402658],[-70.580995,-33.401855],[-70.580457,-33.401631],[-70.57949,-33.401226],[-70.578751,-33.400912],[-70.57843,-33.400775],[-70.577391,-33.400344],[-70.576411,-33.399938],[-70.575405,-33.399551],[-70.574728,-33.399287],[-70.574062,-33.399036],[-70.573359,-33.398771],[-70.572515,-33.39844],[-70.571917,-33.39821],[-70.571546,-33.398079],[-70.57141,-33.39803],[-70.5711,-33.3979],[-70.570329,-33.397603],[-70.569734,-33.397374],[-70.569594,-33.397321],[-70.569404,-33.397249],[-70.568663,-33.396974],[-70.567368,-33.396523],[-70.566344,-33.396174],[-70.565433,-33.395861],[-70.565012,-33.395713],[-70.564203,-33.39543],[-70.563278,-33.395108],[-70.56176,-33.39458],[-70.561305,-33.394424],[-70.565338,-33.393359],[-70.565971,-33.389107],[-70.56156,-33.386188],[-70.556516,-33.38752],[-70.552106,-33.3846],[-70.547063,-33.385932],[-70.546596,-33.389066],[-70.546384,-33.388986],[-70.545463,-33.388678],[-70.545101,-33.388565],[-70.544254,-33.388287],[-70.542981,-33.38779],[-70.542304,-33.387514],[-70.540841,-33.386944],[-70.539321,-33.386341],[-70.538732,-33.386087],[-70.537577,-33.385589],[-70.537434,-33.385528],[-70.537155,-33.385408],[-70.536331,-33.385069],[-70.535623,-33.384792],[-70.534957,-33.38446],[-70.533982,-33.383842],[-70.533577,-33.383459],[-70.532619,-33.38248],[-70.532328,-33.382189],[-70.531888,-33.38177],[-70.531476,-33.381377],[-70.531247,-33.381161],[-70.530497,-33.380479],[-70.530177,-33.380173],[-70.529324,-33.379375],[-70.528971,-33.378986],[-70.528213,-33.378067],[-70.527647,-33.377482],[-70.527461,-33.377337],[-70.52688,-33.376923],[-70.526447,-33.376639],[-70.525727,-33.376249],[-70.524851,-33.375819],[-70.524376,-33.375622],[-70.523941,-33.375441],[-70.522452,-33.374816],[-70.521827,-33.374546],[-70.520777,-33.374084],[-70.520429,-33.373936],[-70.519587,-33.373571],[-70.518804,-33.373224],[-70.518739,-33.373197],[-70.518445,-33.373065],[-70.519974,-33.372661]],[[-70.58047,-33.389361],[-70.584882,-33.39228],[-70.589926,-33.390947],[-70.590559,-33.386695],[-70.586147,-33.383776],[-70.581103,-33.385109],[-70.58047,-33.389361]]]},"properties":{"comuna":"Vitacura","mancha_id":"13132-88b2c51831fffff","clase":"Bajo","nivel_medio":0.987,"nivel_medio_min":0.565,"nivel_medio_max":1.475,"pct_alto":25.1,"n_hexagonos":25,"area_ha":1204.97}},{"type":"Feature","geometry":{"type":"Polygon","coordinates":[[[-70.603164,-33.399702],[-70.603796,-33.39545],[-70.599384,-33.392532],[-70.600016,-33.38828],[-70.602217,-33.387698],[-70.602252,-33.388438],[-70.602366,-33.389109],[-70.602729,-33.389792],[-70.602922,-33.390104],[-70.602945,-33.390142],[-70.60316,-33.39049],[-70.603969,-33.391304],[-70.604564,-33.39194],[-70.605059,-33.39233],[-70.605324,-33.392597],[-70.605621,-33.392997],[-70.605927,-33.39343],[-70.60618,-33.393713],[-70.606844,-33.394364],[-70.607002,-33.394603],[-70.607376,-33.395169],[-70.608114,-33.396002],[-70.608986,-33.397652],[-70.609464,-33.398867],[-70.609616,-33.400064],[-70.60961,-33.400296],[-70.609632,-33.400578],[-70.609591,-33.400927],[-70.609609,-33.401243],[-70.609647,-33.40149],[-70.609642,-33.401875],[-70.609688,-33.402062],[-70.607576,-33.40262],[-70.603164,-33.399702]]]},"properties":{"comuna":"Vitacura","mancha_id":"13132-88b2c556c1fffff","clase":"Medio","nivel_medio":2.3,"nivel_medio_min":2.079,"nivel_medio_max":2.475,"pct_alto":67.9,"n_hexagonos":2,"area_ha":67.07}},{"type":"Feature","geometry":{"type":"Polygon","coordinates":[[[-70.601972,-33.408185],[-70.606944,-33.406871],[-70.610279,-33.409077],[-70.605383,-33.409258],[-70.605274,-33.409221],[-70.60513,-33.409174],[-70.604932,-33.409108],[-70.60478,-33.409057],[-70.60459,-33.408993],[-70.604317,-33.408899],[-70.603411,-33.4086],[-70.602821,-33.408402],[-70.602329,-33.408257],[-70.602047,-33.408195],[-70.601972,-33.408185]]]},"properties":{"comuna":"Vitacura","mancha_id":"13132-88b2c55689fffff","clase":"Medio","nivel_medio":2.148,"nivel_medio_min":2.148,"nivel_medio_max":2.148,"pct_alto":64.0,"n_hexagonos":1,"area_ha":10.84}},{"type":"Feature","geometry":{"type":"Polygon","coordinates":[[[-70.58047,-33.389361],[-70.581103,-33.385109],[-70.586147,-33.383776],[-70.590559,-33.386695],[-70.589926,-33.390947],[-70.584882,-33.39228],[-70.58047,-33.389361]]]},"properties":{"comuna":"Vitacura","mancha_id":"13132-88b2c51931fffff","clase":"Medio","nivel_medio":1.558,"nivel_medio_min":1.558,"nivel_medio_max":1.558,"pct_alto":35.7,"n_hexagonos":1,"area_ha":63.79}},{"type":"Feature","geometry":{"type":"Polygon","coordinates":[[[-70.572913,-33.375018],[-70.573546,-33.370765],[-70.57859,-33.369432],[-70.583001,-33.372351],[-70.588045,-33.371018],[-70.592457,-33.373937],[-70.591824,-33.37819],[-70.58678,-33.379523],[-70.582369,-33.376604],[-70.577324,-33.377938],[-70.572913,-33.375018]]]},"properties":{"comuna":"Vitacura","mancha_id":"13132-88b2c51903fffff","clase":"Medio","nivel_medio":2.086,"nivel_medio_min":1.872,"nivel_medio_max":2.3,"pct_alto":44.8,"n_hexagonos":2,"area_ha":127.62}},{"type":"Feature","geometry":{"type":"Polygon","coordinates":[[[-70.524382,-33.375582],[-70.519974,-33.372661],[-70.520435,-33.369562],[-70.520718,-33.36946],[-70.521156,-33.369403],[-70.52163,-33.369336],[-70.522019,-33.36928],[-70.52248,-33.369193],[-70.522955,-33.369197],[-70.52399,-33.369134],[-70.525362,-33.369238],[-70.52641,-33.369625],[-70.528201,-33.370019],[-70.528645,-33.370113],[-70.528949,-33.370243],[-70.529322,-33.370388],[-70.529766,-33.370473],[-70.529977,-33.370542],[-70.529425,-33.374251],[-70.524382,-33.375582]]]},"properties":{"comuna":"Vitacura","mancha_id":"13132-88b2c5183dfffff","clase":"Medio","nivel_medio":1.934,"nivel_medio_min":1.934,"nivel_medio_max":1.934,"pct_alto":55.0,"n_hexagonos":1,"area_ha":49.39}},{"type":"Feature","geometry":{"type":"Polygon","coordinates":[[[-70.554005,-33.371844],[-70.548962,-33.373176],[-70.548329,-33.377429],[-70.543286,-33.37876],[-70.538877,-33.37584],[-70.53951,-33.371588],[-70.544553,-33.370256],[-70.544976,-33.367412],[-70.546549,-33.365785],[-70.546709,-33.365601],[-70.550229,-33.364671],[-70.554638,-33.367591],[-70.559682,-33.366259],[-70.564092,-33.369179],[-70.563459,-33.373431],[-70.56787,-33.376351],[-70.567237,-33.380603],[-70.562193,-33.381936],[-70.557783,-33.379016],[-70.558416,-33.374764],[-70.554005,-33.371844]]]},"properties":{"comuna":"Vitacura","mancha_id":"13132-88b2c51825fffff","clase":"Medio","nivel_medio":2.096,"nivel_medio_min":1.608,"nivel_medio_max":2.329,"pct_alto":45.8,"n_hexagonos":4,"area_ha":254.09}},{"type":"Feature","geometry":{"type":"Polygon","coordinates":[[[-70.606944,-33.406871],[-70.607576,-33.40262],[-70.609688,-33.402062],[-70.609734,-33.402249],[-70.609902,-33.402568],[-70.610201,-33.40387],[-70.610134,-33.404569],[-70.610161,-33.404988],[-70.610269,-33.405474],[-70.610349,-33.405714],[-70.610404,-33.405879],[-70.61062,-33.406244],[-70.610998,-33.406595],[-70.611322,-33.406851],[-70.611629,-33.407044],[-70.612001,-33.407145],[-70.612362,-33.407716],[-70.612835,-33.408188],[-70.61397,-33.40894],[-70.610279,-33.409077],[-70.606944,-33.406871]]]},"properties":{"comuna":"Vitacura","mancha_id":"13132-88b2c556c7fffff","clase":"Alto","nivel_medio":2.727,"nivel_medio_min":2.727,"nivel_medio_max":2.727,"pct_alto":77.9,"n_hexagonos":1,"area_ha":23.11}},{"type":"Feature","geometry":{"type":"Polygon","coordinates":[[[-70.595604,-33.385361],[-70.596236,-33.381109],[-70.591824,-33.37819],[-70.592457,-33.373937],[-70.597502,-33.372602],[-70.599282,-33.37378],[-70.59952,-33.37405],[-70.599585,-33.374275],[-70.599883,-33.375302],[-70.600211,-33.375794],[-70.600405,-33.376128],[-70.600444,-33.376435],[-70.600039,-33.37712],[-70.599611,-33.377756],[-70.599615,-33.378068],[-70.599616,-33.378164],[-70.59962,-33.37847],[-70.599841,-33.378836],[-70.600082,-33.379017],[-70.60098,-33.37977],[-70.601072,-33.37983],[-70.603015,-33.381084],[-70.603521,-33.381789],[-70.603665,-33.382159],[-70.603634,-33.382568],[-70.603553,-33.38303],[-70.60315,-33.38442],[-70.602885,-33.385026],[-70.60231,-33.385999],[-70.602186,-33.386725],[-70.602195,-33.387222],[-70.602217,-33.387698],[-70.600016,-33.38828],[-70.595604,-33.385361]]]},"properties":{"comuna":"Vitacura","mancha_id":"13132-88b2c51923fffff","clase":"Alto","nivel_medio":2.825,"nivel_medio_min":2.539,"nivel_medio_max":3.081,"pct_alto":70.1,"n_hexagonos":2,"area_ha":105.31}},{"type":"Feature","geometry":{"type":"Polygon","coordinates":[[[-70.5501,-33.361982],[-70.550692,-33.361561],[-70.550816,-33.361472],[-70.551739,-33.360638],[-70.552673,-33.35994],[-70.555905,-33.359085],[-70.556044,-33.35815],[-70.556898,-33.358016],[-70.558021,-33.358075],[-70.558969,-33.358166],[-70.559994,-33.358209],[-70.560449,-33.358057],[-70.560827,-33.357948],[-70.561348,-33.357797],[-70.56156,-33.357704],[-70.562059,-33.357602],[-70.562738,-33.357266],[-70.563293,-33.356921],[-70.564003,-33.356426],[-70.564816,-33.355843],[-70.564968,-33.355742],[-70.565768,-33.355213],[-70.566324,-33.354912],[-70.56711,-33.35481],[-70.567214,-33.354822],[-70.567697,-33.354896],[-70.568215,-33.355028],[-70.568907,-33.355215],[-70.569457,-33.355437],[-70.569581,-33.355469],[-70.565991,-33.356419],[-70.565358,-33.360672],[-70.569768,-33.363592],[-70.574812,-33.362259],[-70.579223,-33.365179],[-70.584267,-33.363845],[-70.584899,-33.359591],[-70.580488,-33.356671],[-70.575445,-33.358005],[-70.571772,-33.355574],[-70.572134,-33.355495],[-70.5729,-33.355171],[-70.573374,-33.354794],[-70.574339,-33.35402],[-70.5748,-33.353573],[-70.575234,-33.353097],[-70.575917,-33.352642],[-70.576434,-33.352311],[-70.57691,-33.35217],[-70.577343,-33.35196],[-70.577902,-33.351836],[-70.578481,-33.351691],[-70.579018,-33.35165],[-70.579473,-33.351608],[-70.579774,-33.351525],[-70.579845,-33.351505],[-70.580203,-33.351348],[-70.580735,-33.351112],[-70.581621,-33.350769],[-70.58233,-33.35069],[-70.583042,-33.351317],[-70.583604,-33.35176],[-70.583664,-33.351808],[-70.58436,-33.35213],[-70.58573,-33.35268],[-70.586414,-33.353085],[-70.587135,-33.353838],[-70.587626,-33.3541],[-70.588542,-33.354132],[-70.590494,-33.354552],[-70.59053,-33.35456],[-70.592239,-33.355064],[-70.592969,-33.355695],[-70.59328,-33.35635],[-70.593384,-33.356472],[-70.593408,-33.3565],[-70.593714,-33.356861],[-70.594398,-33.357407],[-70.596021,-33.358644],[-70.596517,-33.358983],[-70.59662,-33.359438],[-70.597152,-33.359927],[-70.597543,-33.360332],[-70.597628,-33.360421],[-70.59884,-33.36108],[-70.60071,-33.36219],[-70.60083,-33.36233],[-70.60083,-33.36243],[-70.60075,-33.36258],[-70.600469,-33.362789],[-70.600131,-33.363004],[-70.599592,-33.363176],[-70.598627,-33.363838],[-70.597859,-33.364313],[-70.597412,-33.364548],[-70.597287,-33.36475],[-70.597284,-33.3653],[-70.597283,-33.3655],[-70.597189,-33.366033],[-70.597298,-33.367205],[-70.597301,-33.367798],[-70.593722,-33.36543],[-70.588678,-33.366764],[-70.588045,-33.371018],[-70.583001,-33.372351],[-70.57859,-33.369432],[-70.573546,-33.370765],[-70.572913,-33.375018],[-70.56787,-33.376351],[-70.563459,-33.373431],[-70.564092,-33.369179],[-70.559682,-33.366259],[-70.554638,-33.367591],[-70.550229,-33.364671],[-70.546709,-33.365601],[-70.547003,-33.365264],[-70.547094,-33.365129],[-70.549181,-33.363068],[-70.549683,-33.36256],[-70.5501,-33.361982]]]},"properties":{"comuna":"Vitacura","mancha_id":"13132-88b2c5182dfffff","clase":"Alto","nivel_medio":2.984,"nivel_medio_min":2.631,"nivel_medio_max":3.395,"pct_alto":86.8,"n_hexagonos":14,"area_ha":576.28}},{"type":"Feature","geometry":{"type":"Polygon","coordinates":[[[-70.544553,-33.370256],[-70.53951,-33.371588],[-70.538877,-33.37584],[-70.533834,-33.377171],[-70.529425,-33.374251],[-70.529977,-33.370542],[-70.530073,-33.370573],[-70.530455,-33.370604],[-70.530944,-33.370571],[-70.531495,-33.370641],[-70.532456,-33.370552],[-70.533354,-33.370429],[-70.534253,-33.370323],[-70.536031,-33.37043],[-70.537319,-33.370376],[-70.537748,-33.370421],[-70.537953,-33.370443],[-70.53866,-33.370481],[-70.538913,-33.370464],[-70.539476,-33.370367],[-70.540303,-33.370007],[-70.541196,-33.369536],[-70.542675,-33.36909],[-70.543478,-33.368615],[-70.544238,-33.368176],[-70.544976,-33.367412],[-70.544553,-33.370256]]]},"properties":{"comuna":"Vitacura","mancha_id":"13132-88b2c51821fffff","clase":"Alto","nivel_medio":2.8,"nivel_medio_min":2.791,"nivel_medio_max":2.853,"pct_alto":91.3,"n_hexagonos":2,"area_ha":65.67}},{"type":"Feature","geometry":{"type":"Polygon","coordinates":[[[-70.556044,-33.35815],[-70.555905,-33.359085],[-70.552673,-33.35994],[-70.553297,-33.359473],[-70.554128,-33.358933],[-70.554894,-33.358644],[-70.555721,-33.358201],[-70.556044,-33.35815]]]},"properties":{"comuna":"Vitacura","mancha_id":"13132-88b2c5195bfffff","clase":"Muy Alto","nivel_medio":3.74,"nivel_medio_min":3.74,"nivel_medio_max":3.74,"pct_alto":100.0,"n_hexagonos":1,"area_ha":1.96}},{"type":"Feature","geometry":{"type":"Polygon","coordinates":[[[-70.579223,-33.365179],[-70.574812,-33.362259],[-70.569768,-33.363592],[-70.565358,-33.360672],[-70.565991,-33.356419],[-70.569581,-33.355469],[-70.570348,-33.355669],[-70.570997,-33.355704],[-70.571514,-33.35563],[-70.571772,-33.355574],[-70.575445,-33.358005],[-70.580488,-33.356671],[-70.584899,-33.359591],[-70.584267,-33.363845],[-70.579223,-33.365179]]]},"properties":{"comuna":"Vitacura","mancha_id":"13132-88b2c51909fffff","clase":"Muy Alto","nivel_medio":3.63,"nivel_medio_min":3.541,"nivel_medio_max":3.718,"pct_alto":98.3,"n_hexagonos":2,"area_ha":126.89}},{"type":"Feature","geometry":{"type":"Polygon","coordinates":[[[-70.588678,-33.366764],[-70.593722,-33.36543],[-70.597301,-33.367798],[-70.597306,-33.368698],[-70.597273,-33.370729],[-70.597213,-33.371372],[-70.597471,-33.371708],[-70.597618,-33.371819],[-70.598184,-33.372248],[-70.599069,-33.373539],[-70.599282,-33.37378],[-70.597502,-33.372602],[-70.592457,-33.373937],[-70.588045,-33.371018],[-70.588678,-33.366764]]]},"properties":{"comuna":"Vitacura","mancha_id":"13132-88b2c51905fffff","clase":"Muy Alto","nivel_medio":3.589,"nivel_medio_min":3.588,"nivel_medio_max":3.662,"pct_alto":91.7,"n_hexagonos":2,"area_ha":62.47}}],"bbox":[-70.61397,-33.40926,-70.51763,-33.35069]}