{"type":"FeatureCollection","features":[{"type":"Feature","geometry":{"type":"Polygon","coordinates":[[[-70.747679,-33.699976],[-70.743255,-33.69707],[-70.743293,-33.696816],[-70.743415,-33.696855],[-70.743995,-33.697058],[-70.744777,-33.697174],[-70.745443,-33.697376],[-70.745777,-33.697706],[-70.746223,-33.697846],[-70.746618,-33.697893],[-70.747362,-33.698086],[-70.747872,-33.69832],[-70.748368,-33.698913],[-70.748891,-33.699643],[-70.748903,-33.699654],[-70.747679,-33.699976]]]},"properties":{"comuna":"Buin","mancha_id":"13402-88b2c57b37fffff","clase":"Muy Bajo","nivel_medio":0.068,"nivel_medio_min":0.068,"nivel_medio_max":0.068,"pct_alto":1.8,"n_hexagonos":1,"area_ha":5.87}},{"type":"Feature","geometry":{"type":"Polygon","coordinates":[[[-70.707237,-33.678048],[-70.707869,-33.673813],[-70.711917,-33.672749],[-70.71211,-33.672942],[-70.712814,-33.67335],[-70.713226,-33.673782],[-70.713474,-33.674631],[-70.713407,-33.675649],[-70.71337,-33.676854],[-70.713357,-33.678183],[-70.713718,-33.679201],[-70.714309,-33.680219],[-70.714347,-33.68025],[-70.71166,-33.680956],[-70.707237,-33.678048]]]},"properties":{"comuna":"Buin","mancha_id":"13402-88b2c57b1bfffff","clase":"Muy Bajo","nivel_medio":0.43,"nivel_medio_min":0.43,"nivel_medio_max":0.43,"pct_alto":2.4,"n_hexagonos":1,"area_ha":40.75}},{"type":"Feature","geometry":{"type":"Polygon","coordinates":[[[-70.721788,-33.687614],[-70.720505,-33.686771],[-70.720572,-33.686323],[-70.720976,-33.686886],[-70.721788,-33.687614]]]},"properties":{"comuna":"Buin","mancha_id":"13402-88b2c57b17fffff","clase":"Muy Bajo","nivel_medio":0.018,"nivel_medio_min":0.018,"nivel_medio_max":0.018,"pct_alto":0.0,"n_hexagonos":1,"area_ha":0.24}},{"type":"Feature","geometry":{"type":"Polygon","coordinates":[[[-70.707338,-33.665813],[-70.704079,-33.666669],[-70.701081,-33.664697],[-70.701304,-33.664751],[-70.702946,-33.664948],[-70.7038,-33.665211],[-70.704555,-33.665441],[-70.705606,-33.665441],[-70.706329,-33.665506],[-70.706887,-33.665572],[-70.707338,-33.665813]]]},"properties":{"comuna":"Buin","mancha_id":"13402-88b2c57a2dfffff","clase":"Muy Bajo","nivel_medio":0.015,"nivel_medio_min":0.015,"nivel_medio_max":0.015,"pct_alto":0.0,"n_hexagonos":1,"area_ha":4.8}},{"type":"Feature","geometry":{"type":"Polygon","coordinates":[[[-70.698798,-33.663987],[-70.694604,-33.665088],[-70.692979,-33.66402],[-70.693357,-33.663733],[-70.694243,-33.66324],[-70.694875,-33.663088],[-70.69582,-33.663109],[-70.696205,-33.663282],[-70.696648,-33.663476],[-70.697166,-33.663667],[-70.697856,-33.663766],[-70.698587,-33.663919],[-70.698798,-33.663987]]]},"properties":{"comuna":"Buin","mancha_id":"13402-88b2c57a29fffff","clase":"Muy Bajo","nivel_medio":0.045,"nivel_medio_min":0.045,"nivel_medio_max":0.045,"pct_alto":0.0,"n_hexagonos":1,"area_ha":6.34}},{"type":"Feature","geometry":{"type":"Polygon","coordinates":[[[-70.666182,-33.660343],[-70.661762,-33.657433],[-70.662147,-33.654855],[-70.662182,-33.654859],[-70.662625,-33.655192],[-70.663207,-33.65569],[-70.6639,-33.656161],[-70.664467,-33.656421],[-70.664565,-33.656466],[-70.665174,-33.656605],[-70.665839,-33.656909],[-70.666587,-33.657131],[-70.667161,-33.657219],[-70.66771,-33.657486],[-70.668305,-33.657713],[-70.668832,-33.658073],[-70.669053,-33.658627],[-70.669302,-33.659287],[-70.669395,-33.659499],[-70.666182,-33.660343]]]},"properties":{"comuna":"Buin","mancha_id":"13402-88b2c57a0bfffff","clase":"Muy Bajo","nivel_medio":0.248,"nivel_medio_min":0.248,"nivel_medio_max":0.248,"pct_alto":6.8,"n_hexagonos":1,"area_ha":19.98}},{"type":"Feature","geometry":{"type":"Polygon","coordinates":[[[-70.677258,-33.661504],[-70.675655,-33.661925],[-70.674955,-33.661465],[-70.675509,-33.66137],[-70.676445,-33.661342],[-70.677258,-33.661504]]]},"properties":{"comuna":"Buin","mancha_id":"13402-88b2c57a01fffff","clase":"Muy Bajo","nivel_medio":0.0,"nivel_medio_min":0.0,"nivel_medio_max":0.0,"pct_alto":0.0,"n_hexagonos":1,"area_ha":0.74}},{"type":"Feature","geometry":{"type":"Polygon","coordinates":[[[-70.781589,-33.717466],[-70.782045,-33.71789],[-70.78123,-33.717355],[-70.781589,-33.717466]]]},"properties":{"comuna":"Buin","mancha_id":"13402-88b2c57963fffff","clase":"Muy Bajo","nivel_medio":0.0,"nivel_medio_min":0.0,"nivel_medio_max":0.0,"pct_alto":0.0,"n_hexagonos":1,"area_ha":0.05}},{"type":"Feature","geometry":{"type":"Polygon","coordinates":[[[-70.758055,-33.701318],[-70.75716,-33.701553],[-70.755585,-33.700519],[-70.755685,-33.700249],[-70.755988,-33.700181],[-70.756553,-33.700429],[-70.757035,-33.700787],[-70.757614,-33.701118],[-70.758055,-33.701318]]]},"properties":{"comuna":"Buin","mancha_id":"13402-88b2c5794bfffff","clase":"Muy Bajo","nivel_medio":0.486,"nivel_medio_min":0.486,"nivel_medio_max":0.486,"pct_alto":0.0,"n_hexagonos":1,"area_ha":1.3}},{"type":"Feature","geometry":{"type":"Polygon","coordinates":[[[-70.771381,-33.710021],[-70.770436,-33.71027],[-70.769749,-33.709819],[-70.769859,-33.709837],[-70.77028,-33.709809],[-70.770716,-33.709806],[-70.77106,-33.709863],[-70.771381,-33.710021]]]},"properties":{"comuna":"Buin","mancha_id":"13402-88b2c57947fffff","clase":"Muy Bajo","nivel_medio":0.125,"nivel_medio_min":0.125,"nivel_medio_max":0.125,"pct_alto":3.3,"n_hexagonos":1,"area_ha":0.43}},{"type":"Feature","geometry":{"type":"Polygon","coordinates":[[[-70.784658,-33.723928],[-70.785061,-33.724517],[-70.783082,-33.723219],[-70.783417,-33.720973],[-70.783746,-33.721532],[-70.784043,-33.722317],[-70.784234,-33.723356],[-70.784658,-33.723928]]]},"properties":{"comuna":"Buin","mancha_id":"13402-88b2c57929fffff","clase":"Muy Bajo","nivel_medio":0.199,"nivel_medio_min":0.199,"nivel_medio_max":0.199,"pct_alto":3.1,"n_hexagonos":1,"area_ha":2.24}},{"type":"Feature","geometry":{"type":"Polygon","coordinates":[[[-70.788135,-33.7259],[-70.788295,-33.725917],[-70.787509,-33.726124],[-70.785838,-33.725027],[-70.786163,-33.725179],[-70.786722,-33.725468],[-70.78726,-33.725696],[-70.787651,-33.725713],[-70.788135,-33.7259]]]},"properties":{"comuna":"Buin","mancha_id":"13402-88b2c57929fffff-2","clase":"Muy Bajo","nivel_medio":0.199,"nivel_medio_min":0.199,"nivel_medio_max":0.199,"pct_alto":3.1,"n_hexagonos":1,"area_ha":0.44}},{"type":"Feature","geometry":{"type":"Polygon","coordinates":[[[-70.73757,-33.735171],[-70.738202,-33.730939],[-70.733777,-33.728033],[-70.734409,-33.7238],[-70.739465,-33.722473],[-70.74389,-33.725379],[-70.743258,-33.729612],[-70.747683,-33.732517],[-70.747051,-33.736749],[-70.751477,-33.739654],[-70.750845,-33.743886],[-70.745788,-33.745213],[-70.741363,-33.742308],[-70.741995,-33.738076],[-70.73757,-33.735171]]]},"properties":{"comuna":"Buin","mancha_id":"13402-88b2c57913fffff","clase":"Muy Bajo","nivel_medio":0.235,"nivel_medio_min":0.118,"nivel_medio_max":0.459,"pct_alto":4.0,"n_hexagonos":3,"area_ha":190.22}},{"type":"Feature","geometry":{"type":"Polygon","coordinates":[[[-70.72872,-33.69682],[-70.724296,-33.693913],[-70.724676,-33.69137],[-70.724762,-33.691439],[-70.725718,-33.691844],[-70.726326,-33.692423],[-70.727369,-33.69251],[-70.728122,-33.692366],[-70.728875,-33.692308],[-70.729628,-33.692597],[-70.730208,-33.692916],[-70.730874,-33.693495],[-70.731627,-33.693698],[-70.732583,-33.693901],[-70.733596,-33.694103],[-70.733959,-33.694257],[-70.733775,-33.695492],[-70.72872,-33.69682]]]},"properties":{"comuna":"Buin","mancha_id":"13402-88b2c5786dfffff","clase":"Muy Bajo","nivel_medio":0.345,"nivel_medio_min":0.345,"nivel_medio_max":0.345,"pct_alto":4.3,"n_hexagonos":1,"area_ha":28.9}},{"type":"Feature","geometry":{"type":"Polygon","coordinates":[[[-70.816148,-33.749553],[-70.813442,-33.74778],[-70.813918,-33.744586],[-70.814142,-33.745116],[-70.814349,-33.7457],[-70.814729,-33.746177],[-70.815165,-33.746483],[-70.815724,-33.746778],[-70.816051,-33.746979],[-70.816198,-33.747252],[-70.816291,-33.747619],[-70.816284,-33.748427],[-70.816156,-33.749235],[-70.816148,-33.749553]]]},"properties":{"comuna":"Buin","mancha_id":"13402-88b2c0b617fffff","clase":"Muy Bajo","nivel_medio":0.149,"nivel_medio_min":0.149,"nivel_medio_max":0.149,"pct_alto":0.0,"n_hexagonos":1,"area_ha":7.04}},{"type":"Feature","geometry":{"type":"Polygon","coordinates":[[[-70.813427,-33.743123],[-70.809645,-33.740643],[-70.804586,-33.741973],[-70.800159,-33.739069],[-70.80079,-33.734836],[-70.796363,-33.731932],[-70.796509,-33.73095],[-70.796816,-33.730935],[-70.797019,-33.730925],[-70.797712,-33.731061],[-70.798277,-33.731335],[-70.798482,-33.731507],[-70.798673,-33.731667],[-70.799712,-33.732091],[-70.801047,-33.732388],[-70.801578,-33.732579],[-70.802277,-33.732939],[-70.803231,-33.733427],[-70.804228,-33.733932],[-70.804694,-33.734169],[-70.805479,-33.734529],[-70.806242,-33.735017],[-70.806772,-33.735653],[-70.807218,-33.736183],[-70.80779,-33.736671],[-70.808658,-33.736987],[-70.809367,-33.737146],[-70.810135,-33.737358],[-70.810243,-33.737388],[-70.810777,-33.737663],[-70.811094,-33.738022],[-70.811311,-33.738431],[-70.811728,-33.739123],[-70.812062,-33.739624],[-70.812479,-33.739949],[-70.812857,-33.740382],[-70.812988,-33.740533],[-70.813239,-33.741124],[-70.813261,-33.741271],[-70.813274,-33.741357],[-70.813347,-33.741852],[-70.813339,-33.742669],[-70.813427,-33.743123]]]},"properties":{"comuna":"Buin","mancha_id":"13402-88b2c0b611fffff","clase":"Muy Bajo","nivel_medio":0.374,"nivel_medio_min":0.144,"nivel_medio_max":0.461,"pct_alto":0.2,"n_hexagonos":3,"area_ha":79.17}},{"type":"Feature","geometry":{"type":"Polygon","coordinates":[[[-70.838407,-33.773431],[-70.834325,-33.770757],[-70.834916,-33.766794],[-70.835383,-33.767316],[-70.83597,-33.768102],[-70.836647,-33.768489],[-70.837297,-33.769034],[-70.837463,-33.769777],[-70.837352,-33.770395],[-70.837325,-33.771407],[-70.83742,-33.771673],[-70.837503,-33.771906],[-70.837685,-33.772419],[-70.838007,-33.773055],[-70.838407,-33.773431]]]},"properties":{"comuna":"Buin","mancha_id":"13402-88b2c0b451fffff","clase":"Muy Bajo","nivel_medio":0.309,"nivel_medio_min":0.309,"nivel_medio_max":0.309,"pct_alto":0.0,"n_hexagonos":1,"area_ha":11.52}},{"type":"Feature","geometry":{"type":"Polygon","coordinates":[[[-70.642819,-33.654265],[-70.643452,-33.65003],[-70.639033,-33.647119],[-70.639067,-33.646894],[-70.639103,-33.646908],[-70.639755,-33.647087],[-70.640239,-33.647268],[-70.640766,-33.647536],[-70.64132,-33.647739],[-70.642108,-33.647904],[-70.642802,-33.647949],[-70.643465,-33.647904],[-70.644232,-33.647801],[-70.644783,-33.647877],[-70.645393,-33.64821],[-70.645864,-33.648625],[-70.646335,-33.648986],[-70.646887,-33.649128],[-70.647193,-33.649207],[-70.648163,-33.649429],[-70.649133,-33.649761],[-70.65013,-33.650094],[-70.650724,-33.650166],[-70.652923,-33.651614],[-70.65229,-33.65585],[-70.647238,-33.657175],[-70.642819,-33.654265]]]},"properties":{"comuna":"Buin","mancha_id":"13402-88b2c57a53fffff","clase":"Bajo","nivel_medio":1.354,"nivel_medio_min":1.069,"nivel_medio_max":1.396,"pct_alto":15.3,"n_hexagonos":2,"area_ha":70.82}},{"type":"Feature","geometry":{"type":"Polygon","coordinates":[[[-70.678801,-33.738381],[-70.679434,-33.73415],[-70.684488,-33.732826],[-70.68891,-33.735732],[-70.688278,-33.739963],[-70.683223,-33.741288],[-70.682591,-33.745518],[-70.677536,-33.746842],[-70.673114,-33.743935],[-70.673747,-33.739705],[-70.678801,-33.738381]]]},"properties":{"comuna":"Buin","mancha_id":"13402-88b2c578e1fffff","clase":"Bajo","nivel_medio":1.452,"nivel_medio_min":1.417,"nivel_medio_max":1.488,"pct_alto":32.9,"n_hexagonos":2,"area_ha":126.71}},{"type":"Feature","geometry":{"type":"Polygon","coordinates":[[[-70.675644,-33.727012],[-70.671222,-33.724104],[-70.666168,-33.725428],[-70.661747,-33.722521],[-70.66238,-33.718289],[-70.657959,-33.715381],[-70.652906,-33.716705],[-70.648485,-33.713797],[-70.649118,-33.709565],[-70.654171,-33.708241],[-70.654804,-33.704009],[-70.659857,-33.702685],[-70.664278,-33.705593],[-70.669331,-33.704268],[-70.673752,-33.707176],[-70.67312,-33.711408],[-70.677541,-33.714316],[-70.676909,-33.718548],[-70.681331,-33.721456],[-70.680698,-33.725687],[-70.675644,-33.727012]]]},"properties":{"comuna":"Buin","mancha_id":"13402-88b2c57813fffff","clase":"Bajo","nivel_medio":1.069,"nivel_medio_min":0.863,"nivel_medio_max":1.241,"pct_alto":4.1,"n_hexagonos":7,"area_ha":443.68}},{"type":"Feature","geometry":{"type":"Polygon","coordinates":[[[-70.855845,-33.789495],[-70.851414,-33.786594],[-70.846354,-33.787924],[-70.841923,-33.785023],[-70.842554,-33.780792],[-70.838124,-33.77789],[-70.833064,-33.77922],[-70.832433,-33.783451],[-70.836863,-33.786352],[-70.836232,-33.790583],[-70.840662,-33.793484],[-70.840032,-33.797714],[-70.834971,-33.799043],[-70.83434,-33.803273],[-70.83877,-33.806174],[-70.843831,-33.804845],[-70.848262,-33.807746],[-70.847632,-33.811975],[-70.84257,-33.813304],[-70.83814,-33.810403],[-70.833079,-33.811732],[-70.832448,-33.81596],[-70.827387,-33.817288],[-70.822957,-33.814387],[-70.817897,-33.815715],[-70.813467,-33.812813],[-70.808407,-33.814141],[-70.803978,-33.811239],[-70.798918,-33.812566],[-70.798287,-33.816794],[-70.802716,-33.819695],[-70.807776,-33.818369],[-70.812205,-33.82127],[-70.811574,-33.825498],[-70.815446,-33.828033],[-70.81452,-33.82833],[-70.813519,-33.828599],[-70.812373,-33.828588],[-70.812002,-33.828774],[-70.811213,-33.82939],[-70.810866,-33.829538],[-70.809862,-33.829538],[-70.809163,-33.829451],[-70.808508,-33.82921],[-70.80759,-33.82844],[-70.80726,-33.82778],[-70.806864,-33.82726],[-70.806487,-33.827008],[-70.806514,-33.826824],[-70.802085,-33.823923],[-70.797025,-33.825249],[-70.792596,-33.822348],[-70.793227,-33.81812],[-70.788799,-33.815218],[-70.783739,-33.816544],[-70.779311,-33.813642],[-70.779943,-33.809414],[-70.775515,-33.806512],[-70.770456,-33.807837],[-70.766029,-33.804935],[-70.766661,-33.800707],[-70.771719,-33.799381],[-70.772351,-33.795152],[-70.767924,-33.792249],[-70.762865,-33.793575],[-70.758438,-33.790672],[-70.75373,-33.791906],[-70.75263,-33.784067],[-70.752427,-33.782619],[-70.751563,-33.776874],[-70.755275,-33.77931],[-70.760333,-33.777984],[-70.760965,-33.773754],[-70.766023,-33.772428],[-70.766654,-33.768197],[-70.762228,-33.765293],[-70.762859,-33.761063],[-70.758433,-33.758158],[-70.759065,-33.753927],[-70.764122,-33.7526],[-70.764754,-33.748368],[-70.760328,-33.745464],[-70.75527,-33.746791],[-70.754639,-33.751023],[-70.749582,-33.75235],[-70.74895,-33.756581],[-70.743893,-33.757907],[-70.743261,-33.762138],[-70.747687,-33.765042],[-70.747055,-33.769272],[-70.741998,-33.770598],[-70.741482,-33.774052],[-70.740315,-33.774167],[-70.738986,-33.774295],[-70.737509,-33.774446],[-70.737121,-33.774449],[-70.737385,-33.775871],[-70.737646,-33.77728],[-70.7379,-33.77923],[-70.738402,-33.78217],[-70.735677,-33.780382],[-70.73062,-33.781707],[-70.729988,-33.785936],[-70.734413,-33.78884],[-70.734364,-33.78917],[-70.724628,-33.789286],[-70.714893,-33.789402],[-70.707115,-33.789494],[-70.70244,-33.78955],[-70.70272,-33.79273],[-70.699878,-33.792335],[-70.69099,-33.7911],[-70.690888,-33.791086],[-70.690693,-33.791059],[-70.690578,-33.789552],[-70.690509,-33.788652],[-70.690464,-33.788057],[-70.690447,-33.787835],[-70.690399,-33.787205],[-70.690395,-33.78716],[-70.690324,-33.78623],[-70.690265,-33.785461],[-70.690143,-33.783864],[-70.690109,-33.783417],[-70.690088,-33.783143],[-70.690013,-33.782161],[-70.68999,-33.781859],[-70.689987,-33.781814],[-70.689931,-33.78098],[-70.689924,-33.780876],[-70.689894,-33.780421],[-70.689878,-33.780184],[-70.692065,-33.779611],[-70.696489,-33.782517],[-70.701545,-33.781193],[-70.702177,-33.776965],[-70.697753,-33.77406],[-70.692697,-33.775383],[-70.689363,-33.773193],[-70.689359,-33.773162],[-70.689335,-33.772978],[-70.689329,-33.772939],[-70.689248,-33.772334],[-70.689178,-33.771813],[-70.689138,-33.771515],[-70.689105,-33.771269],[-70.689026,-33.770699],[-70.689012,-33.770597],[-70.688951,-33.770151],[-70.688945,-33.770105],[-70.68892,-33.769927],[-70.688859,-33.769476],[-70.688839,-33.769331],[-70.688834,-33.769278],[-70.688807,-33.768978],[-70.688803,-33.768939],[-70.688793,-33.768824],[-70.688745,-33.76829],[-70.688731,-33.768133],[-70.688593,-33.766603],[-70.688584,-33.766505],[-70.688534,-33.765947],[-70.68852,-33.765778],[-70.688511,-33.765664],[-70.688443,-33.764845],[-70.688426,-33.76464],[-70.688378,-33.764047],[-70.688353,-33.76375],[-70.688085,-33.760337],[-70.690171,-33.75979],[-70.690804,-33.755561],[-70.695859,-33.754237],[-70.696491,-33.750006],[-70.701547,-33.748682],[-70.702179,-33.744451],[-70.707234,-33.743126],[-70.707867,-33.738895],[-70.703443,-33.735989],[-70.704075,-33.731758],[-70.699652,-33.728851],[-70.694598,-33.730176],[-70.690175,-33.72727],[-70.690807,-33.723038],[-70.695862,-33.721712],[-70.696494,-33.71748],[-70.692072,-33.714573],[-70.687017,-33.715898],[-70.682595,-33.712991],[-70.683228,-33.708758],[-70.678806,-33.705851],[-70.679439,-33.701618],[-70.675017,-33.69871],[-70.67565,-33.694476],[-70.680703,-33.693151],[-70.681336,-33.688917],[-70.676914,-33.686009],[-70.677547,-33.681774],[-70.673126,-33.678866],[-70.673758,-33.674631],[-70.678811,-33.673305],[-70.679444,-33.66907],[-70.675023,-33.666161],[-70.675655,-33.661925],[-70.677258,-33.661504],[-70.677334,-33.66152],[-70.677853,-33.661727],[-70.678612,-33.662007],[-70.678972,-33.662201],[-70.679355,-33.662487],[-70.679967,-33.662636],[-70.680893,-33.662691],[-70.681468,-33.662543],[-70.682006,-33.662191],[-70.682469,-33.661931],[-70.682692,-33.661903],[-70.685129,-33.663507],[-70.686201,-33.663226],[-70.686203,-33.663226],[-70.686923,-33.663503],[-70.687671,-33.663864],[-70.688104,-33.6641],[-70.688605,-33.664341],[-70.689087,-33.664675],[-70.689365,-33.664897],[-70.689754,-33.665101],[-70.690329,-33.66512],[-70.691025,-33.664948],[-70.692016,-33.664564],[-70.69285,-33.664119],[-70.692979,-33.66402],[-70.694604,-33.665088],[-70.698798,-33.663987],[-70.699235,-33.664127],[-70.699862,-33.664445],[-70.700499,-33.664556],[-70.701081,-33.664697],[-70.704079,-33.666669],[-70.707338,-33.665813],[-70.70738,-33.665835],[-70.707971,-33.665868],[-70.708496,-33.66613],[-70.709088,-33.666524],[-70.709199,-33.66657],[-70.709646,-33.666754],[-70.71027,-33.667116],[-70.71096,-33.667313],[-70.711518,-33.667707],[-70.711776,-33.668141],[-70.711795,-33.668605],[-70.711547,-33.669206],[-70.711442,-33.669698],[-70.711368,-33.670885],[-70.711535,-33.671997],[-70.711739,-33.672571],[-70.711917,-33.672749],[-70.707869,-33.673813],[-70.703447,-33.670905],[-70.698393,-33.672232],[-70.697761,-33.676468],[-70.702183,-33.679376],[-70.701551,-33.683611],[-70.696497,-33.684938],[-70.695865,-33.689172],[-70.700287,-33.69208],[-70.699655,-33.696314],[-70.704077,-33.699221],[-70.709132,-33.697895],[-70.709764,-33.69366],[-70.714819,-33.692333],[-70.71545,-33.688099],[-70.711028,-33.685191],[-70.71166,-33.680956],[-70.714347,-33.68025],[-70.715295,-33.68104],[-70.716151,-33.681432],[-70.716744,-33.681877],[-70.717133,-33.682396],[-70.7173,-33.683082],[-70.717725,-33.683832],[-70.718227,-33.684454],[-70.71882,-33.684806],[-70.719395,-33.685028],[-70.720057,-33.685605],[-70.720572,-33.686323],[-70.720505,-33.686771],[-70.721788,-33.687614],[-70.721928,-33.68774],[-70.722421,-33.68843],[-70.722979,-33.689349],[-70.723472,-33.690006],[-70.723922,-33.690773],[-70.724676,-33.69137],[-70.724296,-33.693913],[-70.72872,-33.69682],[-70.733775,-33.695492],[-70.733959,-33.694257],[-70.73435,-33.694422],[-70.735016,-33.694683],[-70.735481,-33.694972],[-70.736087,-33.695148],[-70.736495,-33.695259],[-70.737046,-33.695303],[-70.737622,-33.695291],[-70.738402,-33.695093],[-70.739185,-33.695137],[-70.73988,-33.695325],[-70.740464,-33.695622],[-70.740761,-33.695992],[-70.741244,-33.696295],[-70.741851,-33.696421],[-70.742604,-33.696594],[-70.743293,-33.696816],[-70.743255,-33.69707],[-70.747679,-33.699976],[-70.748903,-33.699654],[-70.749553,-33.700277],[-70.75,-33.700539],[-70.750187,-33.700649],[-70.75111,-33.70109],[-70.75184,-33.701462],[-70.75257,-33.701751],[-70.753204,-33.702123],[-70.753777,-33.702446],[-70.754338,-33.702577],[-70.754679,-33.702427],[-70.754817,-33.702013],[-70.754885,-33.701517],[-70.755147,-33.701131],[-70.755492,-33.700773],[-70.755585,-33.700519],[-70.75716,-33.701553],[-70.758055,-33.701318],[-70.75822,-33.701393],[-70.759143,-33.701517],[-70.759667,-33.701779],[-70.760083,-33.702065],[-70.760425,-33.702643],[-70.760806,-33.703011],[-70.761172,-33.703635],[-70.761578,-33.703968],[-70.762132,-33.704225],[-70.762615,-33.704302],[-70.763241,-33.704523],[-70.763443,-33.704612],[-70.763574,-33.704737],[-70.76361,-33.704886],[-70.763541,-33.70525],[-70.763239,-33.705766],[-70.763067,-33.706391],[-70.763115,-33.706668],[-70.763239,-33.706886],[-70.76395,-33.707295],[-70.765208,-33.707575],[-70.765328,-33.707602],[-70.767077,-33.708463],[-70.768223,-33.708996],[-70.768951,-33.709535],[-70.76943,-33.709768],[-70.769749,-33.709819],[-70.770436,-33.71027],[-70.771381,-33.710021],[-70.771504,-33.710082],[-70.771948,-33.710396],[-70.772379,-33.710832],[-70.772698,-33.711146],[-70.772996,-33.711421],[-70.773111,-33.71185],[-70.773096,-33.712142],[-70.773079,-33.712689],[-70.77311,-33.713551],[-70.773387,-33.714197],[-70.774855,-33.71538],[-70.775933,-33.715997],[-70.776606,-33.716379],[-70.777271,-33.71661],[-70.77423,-33.717409],[-70.769804,-33.714504],[-70.764747,-33.715833],[-70.764116,-33.720067],[-70.759059,-33.721395],[-70.758428,-33.725629],[-70.753371,-33.726957],[-70.75274,-33.73119],[-70.757165,-33.734095],[-70.762222,-33.732767],[-70.766648,-33.735672],[-70.771705,-33.734343],[-70.772336,-33.73011],[-70.76791,-33.727206],[-70.768542,-33.722972],[-70.773599,-33.721643],[-70.778025,-33.724548],[-70.777394,-33.728782],[-70.78182,-33.731686],[-70.781189,-33.735919],[-70.776131,-33.737248],[-70.7755,-33.741481],[-70.779926,-33.744385],[-70.784984,-33.743056],[-70.789411,-33.74596],[-70.78878,-33.750193],[-70.783722,-33.751521],[-70.783091,-33.755753],[-70.787518,-33.758656],[-70.786887,-33.762888],[-70.781828,-33.764216],[-70.781197,-33.768446],[-70.785624,-33.77135],[-70.790683,-33.770022],[-70.791314,-33.765791],[-70.796373,-33.764463],[-70.797004,-33.760231],[-70.802063,-33.758903],[-70.802694,-33.754671],[-70.807753,-33.753342],[-70.808383,-33.749109],[-70.803956,-33.746206],[-70.798897,-33.747535],[-70.79447,-33.744631],[-70.795101,-33.740399],[-70.790674,-33.737495],[-70.791305,-33.733261],[-70.786878,-33.730357],[-70.787509,-33.726124],[-70.788295,-33.725917],[-70.789134,-33.726006],[-70.789481,-33.726184],[-70.789737,-33.726316],[-70.790093,-33.72675],[-70.790255,-33.727151],[-70.790454,-33.727619],[-70.790845,-33.728011],[-70.791513,-33.728211],[-70.792508,-33.728369],[-70.793225,-33.728614],[-70.7936,-33.728842],[-70.793925,-33.729179],[-70.794114,-33.729462],[-70.794382,-33.729934],[-70.794607,-33.730177],[-70.79475,-33.730331],[-70.795197,-33.730716],[-70.795735,-33.730928],[-70.796305,-33.73096],[-70.796509,-33.73095],[-70.796363,-33.731932],[-70.80079,-33.734836],[-70.800159,-33.739069],[-70.804586,-33.741973],[-70.809645,-33.740643],[-70.813427,-33.743123],[-70.813447,-33.743228],[-70.813617,-33.74371],[-70.813908,-33.744562],[-70.813918,-33.744586],[-70.813442,-33.74778],[-70.816148,-33.749553],[-70.816136,-33.75],[-70.816135,-33.750043],[-70.816421,-33.750646],[-70.816837,-33.751319],[-70.817368,-33.752021],[-70.817626,-33.752321],[-70.81724,-33.754915],[-70.821668,-33.757818],[-70.823666,-33.757293],[-70.824486,-33.757742],[-70.825451,-33.758531],[-70.826098,-33.759021],[-70.826444,-33.759461],[-70.826804,-33.76002],[-70.827097,-33.76058],[-70.82747,-33.761499],[-70.827605,-33.762204],[-70.827926,-33.763044],[-70.827953,-33.763882],[-70.828144,-33.764249],[-70.828197,-33.764352],[-70.82871,-33.764829],[-70.829658,-33.765145],[-70.830606,-33.765227],[-70.831714,-33.765174],[-70.832821,-33.765192],[-70.833049,-33.765276],[-70.833823,-33.765561],[-70.834288,-33.766087],[-70.834553,-33.766389],[-70.834916,-33.766794],[-70.834325,-33.770757],[-70.838407,-33.773431],[-70.838604,-33.773617],[-70.83873,-33.773821],[-70.838846,-33.774008],[-70.839011,-33.774562],[-70.839542,-33.775245],[-70.839845,-33.775366],[-70.840032,-33.775441],[-70.840538,-33.775408],[-70.841061,-33.775555],[-70.841555,-33.7759],[-70.842292,-33.776602],[-70.84303,-33.777129],[-70.843702,-33.778024],[-70.843772,-33.778692],[-70.843895,-33.779623],[-70.844147,-33.780306],[-70.844208,-33.780357],[-70.844823,-33.780876],[-70.845332,-33.781391],[-70.846296,-33.781906],[-70.847582,-33.782793],[-70.848474,-33.783381],[-70.849422,-33.784365],[-70.85011,-33.784997],[-70.850714,-33.785438],[-70.851188,-33.785683],[-70.851528,-33.785833],[-70.851717,-33.785916],[-70.852192,-33.786022],[-70.853246,-33.78611],[-70.854018,-33.786307],[-70.854586,-33.786823],[-70.8554,-33.787245],[-70.855604,-33.78735],[-70.85613,-33.788044],[-70.856763,-33.788298],[-70.857887,-33.78872],[-70.8582,-33.788876],[-70.858643,-33.789098],[-70.859398,-33.789387],[-70.860336,-33.789766],[-70.861071,-33.790142],[-70.861341,-33.790669],[-70.861446,-33.79122],[-70.861332,-33.791699],[-70.861259,-33.792268],[-70.861495,-33.792853],[-70.861789,-33.79336],[-70.862018,-33.794177],[-70.862383,-33.794761],[-70.86291,-33.795077],[-70.863367,-33.795288],[-70.86381,-33.795533],[-70.859646,-33.796627],[-70.855215,-33.793726],[-70.855845,-33.789495]],[[-70.828634,-33.776318],[-70.829265,-33.772087],[-70.824836,-33.769184],[-70.825467,-33.764953],[-70.821038,-33.76205],[-70.815978,-33.763379],[-70.81155,-33.760477],[-70.806491,-33.761806],[-70.80586,-33.766037],[-70.800801,-33.767366],[-70.80017,-33.771597],[-70.795111,-33.772925],[-70.79448,-33.777156],[-70.798908,-33.780058],[-70.798277,-33.784289],[-70.802705,-33.787191],[-70.802074,-33.791421],[-70.797014,-33.792748],[-70.796383,-33.796978],[-70.800812,-33.79988],[-70.800181,-33.804109],[-70.804609,-33.80701],[-70.809669,-33.805683],[-70.8103,-33.801454],[-70.81536,-33.800127],[-70.815991,-33.795897],[-70.821051,-33.794569],[-70.821682,-33.790339],[-70.817253,-33.787437],[-70.817884,-33.783207],[-70.813455,-33.780305],[-70.814086,-33.776074],[-70.809657,-33.773171],[-70.810288,-33.76894],[-70.815347,-33.767611],[-70.819776,-33.770514],[-70.819145,-33.774745],[-70.823574,-33.777647],[-70.828634,-33.776318]],[[-70.783099,-33.78827],[-70.778041,-33.789597],[-70.777409,-33.793826],[-70.781837,-33.796729],[-70.786896,-33.795402],[-70.787527,-33.791173],[-70.783099,-33.78827]],[[-70.767917,-33.759735],[-70.772343,-33.762639],[-70.777401,-33.761312],[-70.778033,-33.757081],[-70.773606,-33.754177],[-70.768548,-33.755504],[-70.767917,-33.759735]],[[-70.711025,-33.782775],[-70.715449,-33.785679],[-70.720506,-33.784356],[-70.721138,-33.780127],[-70.716714,-33.777222],[-70.717346,-33.772993],[-70.722402,-33.771669],[-70.726827,-33.774573],[-70.731884,-33.773248],[-70.732516,-33.769019],[-70.737573,-33.767693],[-70.738204,-33.763463],[-70.733779,-33.760559],[-70.734411,-33.756328],[-70.729986,-33.753423],[-70.730618,-33.749192],[-70.735675,-33.747866],[-70.736307,-33.743635],[-70.731882,-33.740729],[-70.726826,-33.742056],[-70.722402,-33.73915],[-70.717346,-33.740476],[-70.716714,-33.744707],[-70.721138,-33.747613],[-70.720506,-33.751843],[-70.72493,-33.754749],[-70.724298,-33.758979],[-70.719242,-33.760304],[-70.71861,-33.764534],[-70.713554,-33.765859],[-70.712921,-33.770088],[-70.707865,-33.771412],[-70.707233,-33.775641],[-70.711657,-33.778546],[-70.711025,-33.782775]],[[-70.702181,-33.711922],[-70.701549,-33.716154],[-70.705972,-33.719061],[-70.711027,-33.717735],[-70.71545,-33.720642],[-70.720505,-33.719315],[-70.724929,-33.722221],[-70.729985,-33.720895],[-70.734409,-33.7238],[-70.733777,-33.728033],[-70.738202,-33.730939],[-70.73757,-33.735171],[-70.741995,-33.738076],[-70.741363,-33.742308],[-70.745788,-33.745213],[-70.750845,-33.743886],[-70.751477,-33.739654],[-70.747051,-33.736749],[-70.747683,-33.732517],[-70.743258,-33.729612],[-70.74389,-33.725379],[-70.739465,-33.722473],[-70.740097,-33.71824],[-70.735672,-33.715334],[-70.736304,-33.711101],[-70.74136,-33.709773],[-70.741992,-33.705539],[-70.737567,-33.702633],[-70.732512,-33.70396],[-70.728088,-33.701054],[-70.723033,-33.702381],[-70.722401,-33.706615],[-70.717346,-33.707942],[-70.712923,-33.705036],[-70.707868,-33.706362],[-70.703445,-33.703455],[-70.698391,-33.704781],[-70.697759,-33.709015],[-70.702181,-33.711922]],[[-70.754634,-33.71849],[-70.755266,-33.714256],[-70.750841,-33.711351],[-70.745784,-33.712679],[-70.745153,-33.716912],[-70.749578,-33.719818],[-70.754634,-33.71849]]]},"properties":{"comuna":"Buin","mancha_id":"13402-88b2c0b403fffff","clase":"Bajo","nivel_medio":1.133,"nivel_medio_min":0.507,"nivel_medio_max":1.496,"pct_alto":7.7,"n_hexagonos":165,"area_ha":9522.0}},{"type":"Feature","geometry":{"type":"Polygon","coordinates":[[[-70.686201,-33.663226],[-70.685129,-33.663507],[-70.682692,-33.661903],[-70.682914,-33.661876],[-70.683452,-33.661876],[-70.683987,-33.662007],[-70.684651,-33.662312],[-70.685289,-33.662811],[-70.686201,-33.663226]]]},"properties":{"comuna":"Buin","mancha_id":"13402-88b2c57a05fffff","clase":"Medio","nivel_medio":1.509,"nivel_medio_min":1.509,"nivel_medio_max":1.509,"pct_alto":5.7,"n_hexagonos":1,"area_ha":1.97}},{"type":"Feature","geometry":{"type":"Polygon","coordinates":[[[-70.754639,-33.751023],[-70.75527,-33.746791],[-70.760328,-33.745464],[-70.764754,-33.748368],[-70.764122,-33.7526],[-70.759065,-33.753927],[-70.758433,-33.758158],[-70.753376,-33.759485],[-70.74895,-33.756581],[-70.749582,-33.75235],[-70.754639,-33.751023]]]},"properties":{"comuna":"Buin","mancha_id":"13402-88b2c579e5fffff","clase":"Medio","nivel_medio":2.128,"nivel_medio_min":2.09,"nivel_medio_max":2.167,"pct_alto":36.5,"n_hexagonos":2,"area_ha":126.78}},{"type":"Feature","geometry":{"type":"Polygon","coordinates":[[[-70.716714,-33.744707],[-70.717346,-33.740476],[-70.722402,-33.73915],[-70.726826,-33.742056],[-70.731882,-33.740729],[-70.736307,-33.743635],[-70.735675,-33.747866],[-70.730618,-33.749192],[-70.726194,-33.746287],[-70.721138,-33.747613],[-70.716714,-33.744707]]]},"properties":{"comuna":"Buin","mancha_id":"13402-88b2c579c3fffff","clase":"Medio","nivel_medio":1.852,"nivel_medio_min":1.819,"nivel_medio_max":1.886,"pct_alto":40.2,"n_hexagonos":2,"area_ha":126.76}},{"type":"Feature","geometry":{"type":"Polygon","coordinates":[[[-70.747055,-33.769272],[-70.751481,-33.772176],[-70.756539,-33.77085],[-70.760965,-33.773754],[-70.760333,-33.777984],[-70.755275,-33.77931],[-70.751563,-33.776874],[-70.75117,-33.774259],[-70.75101,-33.773196],[-70.750009,-33.77329],[-70.748309,-33.773431],[-70.744408,-33.773763],[-70.741482,-33.774052],[-70.741998,-33.770598],[-70.747055,-33.769272]]]},"properties":{"comuna":"Buin","mancha_id":"13402-88b2c579a3fffff","clase":"Medio","nivel_medio":1.747,"nivel_medio_min":1.659,"nivel_medio_max":1.914,"pct_alto":26.6,"n_hexagonos":2,"area_ha":95.32}},{"type":"Feature","geometry":{"type":"Polygon","coordinates":[[[-70.745153,-33.716912],[-70.745784,-33.712679],[-70.750841,-33.711351],[-70.755266,-33.714256],[-70.754634,-33.71849],[-70.749578,-33.719818],[-70.745153,-33.716912]]]},"properties":{"comuna":"Buin","mancha_id":"13402-88b2c57957fffff","clase":"Medio","nivel_medio":1.635,"nivel_medio_min":1.635,"nivel_medio_max":1.635,"pct_alto":39.0,"n_hexagonos":1,"area_ha":63.44}},{"type":"Feature","geometry":{"type":"Polygon","coordinates":[[[-70.654163,-33.740767],[-70.658584,-33.743674],[-70.658287,-33.74566],[-70.657654,-33.74518],[-70.656849,-33.744721],[-70.65548,-33.744004],[-70.654714,-33.743634],[-70.65446,-33.7436],[-70.65357,-33.74363],[-70.65282,-33.7439],[-70.65214,-33.74429],[-70.65132,-33.74478],[-70.65075,-33.74508],[-70.65006,-33.74531],[-70.64918,-33.74565],[-70.64872,-33.7459],[-70.648516,-33.746056],[-70.649109,-33.74209],[-70.644688,-33.739182],[-70.645321,-33.734952],[-70.650375,-33.733629],[-70.654796,-33.736537],[-70.654163,-33.740767]]]},"properties":{"comuna":"Buin","mancha_id":"13402-88b2c5788bfffff","clase":"Medio","nivel_medio":2.483,"nivel_medio_min":2.446,"nivel_medio_max":2.498,"pct_alto":64.5,"n_hexagonos":2,"area_ha":90.89}},{"type":"Feature","geometry":{"type":"Polygon","coordinates":[[[-70.67565,-33.694476],[-70.671229,-33.691568],[-70.666175,-33.692894],[-70.661755,-33.689985],[-70.662387,-33.685751],[-70.66744,-33.684426],[-70.668073,-33.680192],[-70.663652,-33.677283],[-70.664285,-33.673048],[-70.659865,-33.670139],[-70.654812,-33.671465],[-70.653579,-33.670653],[-70.653491,-33.670437],[-70.653188,-33.669897],[-70.6527,-33.66942],[-70.652339,-33.668842],[-70.652195,-33.668361],[-70.652099,-33.667784],[-70.651978,-33.66687],[-70.651887,-33.666283],[-70.652066,-33.665795],[-70.652023,-33.665342],[-70.651763,-33.664694],[-70.651572,-33.664177],[-70.656077,-33.662995],[-70.65671,-33.658759],[-70.65229,-33.65585],[-70.652923,-33.651614],[-70.650724,-33.650166],[-70.651044,-33.650205],[-70.651931,-33.650426],[-70.652624,-33.650731],[-70.653344,-33.651147],[-70.653699,-33.65141],[-70.654092,-33.651701],[-70.654674,-33.652227],[-70.655422,-33.652781],[-70.655976,-33.653197],[-70.656586,-33.653502],[-70.657195,-33.653723],[-70.657888,-33.653945],[-70.658774,-33.654167],[-70.659495,-33.65425],[-70.660049,-33.654388],[-70.660492,-33.654471],[-70.660908,-33.654582],[-70.661545,-33.654776],[-70.662147,-33.654855],[-70.661762,-33.657433],[-70.666182,-33.660343],[-70.669395,-33.659499],[-70.669623,-33.660022],[-70.670186,-33.660408],[-70.670854,-33.660689],[-70.671477,-33.660941],[-70.672411,-33.661386],[-70.673154,-33.661536],[-70.674373,-33.661564],[-70.674955,-33.661465],[-70.675655,-33.661925],[-70.675023,-33.666161],[-70.679444,-33.66907],[-70.678811,-33.673305],[-70.673758,-33.674631],[-70.673126,-33.678866],[-70.677547,-33.681774],[-70.676914,-33.686009],[-70.681336,-33.688917],[-70.680703,-33.693151],[-70.67565,-33.694476]]]},"properties":{"comuna":"Buin","mancha_id":"13402-88b2c57859fffff","clase":"Medio","nivel_medio":2.005,"nivel_medio_min":1.559,"nivel_medio_max":2.47,"pct_alto":40.7,"n_hexagonos":11,"area_ha":600.41}},{"type":"Feature","geometry":{"type":"Polygon","coordinates":[[[-70.695865,-33.689172],[-70.696497,-33.684938],[-70.701551,-33.683611],[-70.702183,-33.679376],[-70.697761,-33.676468],[-70.698393,-33.672232],[-70.703447,-33.670905],[-70.707869,-33.673813],[-70.707237,-33.678048],[-70.71166,-33.680956],[-70.711028,-33.685191],[-70.71545,-33.688099],[-70.714819,-33.692333],[-70.709764,-33.69366],[-70.709132,-33.697895],[-70.704077,-33.699221],[-70.699655,-33.696314],[-70.700287,-33.69208],[-70.695865,-33.689172]]]},"properties":{"comuna":"Buin","mancha_id":"13402-88b2c57841fffff","clase":"Medio","nivel_medio":1.743,"nivel_medio_min":1.594,"nivel_medio_max":1.941,"pct_alto":22.6,"n_hexagonos":5,"area_ha":317.25}},{"type":"Feature","geometry":{"type":"Polygon","coordinates":[[[-70.697759,-33.709015],[-70.698391,-33.704781],[-70.703445,-33.703455],[-70.707868,-33.706362],[-70.712923,-33.705036],[-70.717346,-33.707942],[-70.722401,-33.706615],[-70.723033,-33.702381],[-70.728088,-33.701054],[-70.732512,-33.70396],[-70.737567,-33.702633],[-70.741992,-33.705539],[-70.74136,-33.709773],[-70.736304,-33.711101],[-70.73188,-33.708194],[-70.726825,-33.709522],[-70.726193,-33.713755],[-70.730617,-33.716661],[-70.729985,-33.720895],[-70.724929,-33.722221],[-70.720505,-33.719315],[-70.71545,-33.720642],[-70.711027,-33.717735],[-70.705972,-33.719061],[-70.701549,-33.716154],[-70.702181,-33.711922],[-70.697759,-33.709015]]]},"properties":{"comuna":"Buin","mancha_id":"13402-88b2c57801fffff","clase":"Medio","nivel_medio":1.795,"nivel_medio_min":1.529,"nivel_medio_max":2.248,"pct_alto":33.6,"n_hexagonos":8,"area_ha":507.39}},{"type":"Feature","geometry":{"type":"Polygon","coordinates":[[[-70.647238,-33.657175],[-70.646606,-33.661411],[-70.64535,-33.66174],[-70.645321,-33.661731],[-70.644321,-33.661512],[-70.643236,-33.661301],[-70.642994,-33.661252],[-70.642506,-33.661155],[-70.642117,-33.660797],[-70.641746,-33.660622],[-70.641395,-33.660602],[-70.640887,-33.660719],[-70.640536,-33.6607],[-70.640224,-33.660465],[-70.640121,-33.660147],[-70.639873,-33.659412],[-70.639615,-33.65886],[-70.639038,-33.658283],[-70.638629,-33.657754],[-70.638099,-33.657032],[-70.63765,-33.656375],[-70.637768,-33.655591],[-70.642819,-33.654265],[-70.647238,-33.657175]]]},"properties":{"comuna":"Buin","mancha_id":"13402-88b2c57125fffff","clase":"Medio","nivel_medio":2.42,"nivel_medio_min":2.42,"nivel_medio_max":2.42,"pct_alto":69.2,"n_hexagonos":1,"area_ha":48.88}},{"type":"Feature","geometry":{"type":"Polygon","coordinates":[[[-70.777409,-33.793826],[-70.778041,-33.789597],[-70.783099,-33.78827],[-70.787527,-33.791173],[-70.786896,-33.795402],[-70.781837,-33.796729],[-70.777409,-33.793826]]]},"properties":{"comuna":"Buin","mancha_id":"13402-88b2c56b6dfffff","clase":"Medio","nivel_medio":1.536,"nivel_medio_min":1.536,"nivel_medio_max":1.536,"pct_alto":25.3,"n_hexagonos":1,"area_ha":63.35}},{"type":"Feature","geometry":{"type":"Polygon","coordinates":[[[-70.734364,-33.78917],[-70.734413,-33.78884],[-70.729988,-33.785936],[-70.73062,-33.781707],[-70.735677,-33.780382],[-70.738402,-33.78217],[-70.73862,-33.78345],[-70.73873,-33.78453],[-70.73895,-33.78657],[-70.739117,-33.787608],[-70.73936,-33.78911],[-70.734364,-33.78917]]]},"properties":{"comuna":"Buin","mancha_id":"13402-88b2c56b5dfffff","clase":"Medio","nivel_medio":1.88,"nivel_medio_min":1.86,"nivel_medio_max":2.127,"pct_alto":37.0,"n_hexagonos":2,"area_ha":62.92}},{"type":"Feature","geometry":{"type":"Polygon","coordinates":[[[-70.711025,-33.782775],[-70.711657,-33.778546],[-70.707233,-33.775641],[-70.707865,-33.771412],[-70.712921,-33.770088],[-70.713554,-33.765859],[-70.71861,-33.764534],[-70.723034,-33.767439],[-70.728091,-33.766114],[-70.728723,-33.761884],[-70.724298,-33.758979],[-70.72493,-33.754749],[-70.729986,-33.753423],[-70.734411,-33.756328],[-70.733779,-33.760559],[-70.738204,-33.763463],[-70.737573,-33.767693],[-70.732516,-33.769019],[-70.731884,-33.773248],[-70.726827,-33.774573],[-70.722402,-33.771669],[-70.717346,-33.772993],[-70.716714,-33.777222],[-70.721138,-33.780127],[-70.720506,-33.784356],[-70.715449,-33.785679],[-70.711025,-33.782775]]]},"properties":{"comuna":"Buin","mancha_id":"13402-88b2c56a6dfffff","clase":"Medio","nivel_medio":2.042,"nivel_medio_min":1.731,"nivel_medio_max":2.221,"pct_alto":44.4,"n_hexagonos":6,"area_ha":380.06}},{"type":"Feature","geometry":{"type":"Polygon","coordinates":[[[-70.689363,-33.773193],[-70.692697,-33.775383],[-70.697753,-33.77406],[-70.702177,-33.776965],[-70.701545,-33.781193],[-70.696489,-33.782517],[-70.692065,-33.779611],[-70.689878,-33.780184],[-70.689877,-33.780171],[-70.689862,-33.779945],[-70.689823,-33.779356],[-70.689814,-33.779224],[-70.689777,-33.778663],[-70.689766,-33.778506],[-70.689729,-33.777939],[-70.689673,-33.777099],[-70.689671,-33.777078],[-70.689659,-33.776886],[-70.689583,-33.775753],[-70.689527,-33.774906],[-70.689499,-33.77448],[-70.689462,-33.773928],[-70.689363,-33.773193]]]},"properties":{"comuna":"Buin","mancha_id":"13402-88b2c56a41fffff","clase":"Medio","nivel_medio":1.981,"nivel_medio_min":1.874,"nivel_medio_max":2.008,"pct_alto":26.8,"n_hexagonos":2,"area_ha":79.11}},{"type":"Feature","geometry":{"type":"Polygon","coordinates":[[[-70.622588,-33.724642],[-70.618169,-33.721733],[-70.618244,-33.721231],[-70.618384,-33.721166],[-70.618732,-33.720945],[-70.619039,-33.720765],[-70.620013,-33.720184],[-70.620445,-33.719926],[-70.620921,-33.719536],[-70.621818,-33.718767],[-70.622186,-33.718293],[-70.622256,-33.717697],[-70.622209,-33.717387],[-70.621922,-33.716795],[-70.6219,-33.716692],[-70.623855,-33.71618],[-70.624488,-33.711949],[-70.623516,-33.711309],[-70.62357,-33.711282],[-70.624268,-33.711127],[-70.624849,-33.710933],[-70.625547,-33.710778],[-70.625896,-33.710274],[-70.625819,-33.70977],[-70.626129,-33.708956],[-70.626478,-33.708374],[-70.626749,-33.707909],[-70.627047,-33.70702],[-70.627453,-33.706668],[-70.628133,-33.706325],[-70.628998,-33.70597],[-70.629365,-33.705862],[-70.629987,-33.705679],[-70.630375,-33.705502],[-70.631151,-33.705208],[-70.631906,-33.704846],[-70.632585,-33.704425],[-70.633108,-33.704376],[-70.633698,-33.704634],[-70.634083,-33.704985],[-70.63448,-33.705111],[-70.635152,-33.705091],[-70.63525,-33.705088],[-70.639645,-33.70798],[-70.644698,-33.706657],[-70.645331,-33.702424],[-70.650384,-33.7011],[-70.651016,-33.696868],[-70.656069,-33.695543],[-70.66049,-33.698452],[-70.665543,-33.697127],[-70.669964,-33.700035],[-70.675017,-33.69871],[-70.679439,-33.701618],[-70.678806,-33.705851],[-70.683228,-33.708758],[-70.682595,-33.712991],[-70.687017,-33.715898],[-70.692072,-33.714573],[-70.696494,-33.71748],[-70.695862,-33.721712],[-70.690807,-33.723038],[-70.690175,-33.72727],[-70.694598,-33.730176],[-70.699652,-33.728851],[-70.704075,-33.731758],[-70.703443,-33.735989],[-70.707867,-33.738895],[-70.707234,-33.743126],[-70.702179,-33.744451],[-70.701547,-33.748682],[-70.696491,-33.750006],[-70.695859,-33.754237],[-70.690804,-33.755561],[-70.690171,-33.75979],[-70.688085,-33.760337],[-70.688,-33.759259],[-70.687609,-33.759218],[-70.686575,-33.759083],[-70.68534,-33.758921],[-70.684802,-33.758842],[-70.681055,-33.7583],[-70.680775,-33.758261],[-70.680589,-33.758235],[-70.679878,-33.758136],[-70.679782,-33.758123],[-70.67971,-33.758113],[-70.677821,-33.757844],[-70.677696,-33.757826],[-70.677236,-33.757761],[-70.67693,-33.757717],[-70.676914,-33.757715],[-70.676183,-33.757611],[-70.675433,-33.757499],[-70.675205,-33.757464],[-70.674132,-33.757303],[-70.674088,-33.757297],[-70.674032,-33.757288],[-70.673855,-33.757262],[-70.673813,-33.757256],[-70.673412,-33.757197],[-70.672639,-33.757085],[-70.671687,-33.756934],[-70.671246,-33.756864],[-70.67066,-33.75677],[-70.671216,-33.756624],[-70.671849,-33.752395],[-70.667427,-33.749488],[-70.66806,-33.745258],[-70.673114,-33.743935],[-70.677536,-33.746842],[-70.682591,-33.745518],[-70.687013,-33.748424],[-70.692068,-33.7471],[-70.692701,-33.74287],[-70.697756,-33.741545],[-70.698388,-33.737314],[-70.693965,-33.734408],[-70.68891,-33.735732],[-70.684488,-33.732826],[-70.679434,-33.73415],[-70.675012,-33.731243],[-70.669957,-33.732567],[-70.665536,-33.72966],[-70.660482,-33.730983],[-70.656061,-33.728076],[-70.651007,-33.729399],[-70.646587,-33.726491],[-70.64722,-33.72226],[-70.642799,-33.719352],[-70.637746,-33.720675],[-70.633327,-33.717766],[-70.628274,-33.719089],[-70.627641,-33.72332],[-70.622588,-33.724642]],[[-70.676909,-33.718548],[-70.677541,-33.714316],[-70.67312,-33.711408],[-70.673752,-33.707176],[-70.669331,-33.704268],[-70.664278,-33.705593],[-70.659857,-33.702685],[-70.654804,-33.704009],[-70.654171,-33.708241],[-70.649118,-33.709565],[-70.648485,-33.713797],[-70.652906,-33.716705],[-70.657959,-33.715381],[-70.66238,-33.718289],[-70.661747,-33.722521],[-70.666168,-33.725428],[-70.671222,-33.724104],[-70.675644,-33.727012],[-70.680698,-33.725687],[-70.681331,-33.721456],[-70.676909,-33.718548]]]},"properties":{"comuna":"Buin","mancha_id":"13402-88b2c5636dfffff","clase":"Medio","nivel_medio":1.964,"nivel_medio_min":1.511,"nivel_medio_max":2.49,"pct_alto":31.9,"n_hexagonos":32,"area_ha":1768.53}},{"type":"Feature","geometry":{"type":"Polygon","coordinates":[[[-70.821668,-33.757818],[-70.81724,-33.754915],[-70.817626,-33.752321],[-70.817879,-33.752616],[-70.818249,-33.753095],[-70.818602,-33.753679],[-70.818855,-33.75423],[-70.819196,-33.754531],[-70.819778,-33.754862],[-70.820164,-33.755387],[-70.820761,-33.755984],[-70.821742,-33.756735],[-70.822689,-33.757071],[-70.823657,-33.757288],[-70.823666,-33.757293],[-70.821668,-33.757818]]]},"properties":{"comuna":"Buin","mancha_id":"13402-88b2c0b6edfffff","clase":"Medio","nivel_medio":1.513,"nivel_medio_min":1.513,"nivel_medio_max":1.513,"pct_alto":19.9,"n_hexagonos":1,"area_ha":8.86}},{"type":"Feature","geometry":{"type":"Polygon","coordinates":[[[-70.767917,-33.759735],[-70.768548,-33.755504],[-70.773606,-33.754177],[-70.778033,-33.757081],[-70.777401,-33.761312],[-70.772343,-33.762639],[-70.767917,-33.759735]]]},"properties":{"comuna":"Buin","mancha_id":"13402-88b2c0b6d1fffff","clase":"Medio","nivel_medio":1.72,"nivel_medio_min":1.72,"nivel_medio_max":1.72,"pct_alto":1.8,"n_hexagonos":1,"area_ha":63.39}},{"type":"Feature","geometry":{"type":"Polygon","coordinates":[[[-70.786887,-33.762888],[-70.787518,-33.758656],[-70.783091,-33.755753],[-70.783722,-33.751521],[-70.78878,-33.750193],[-70.789411,-33.74596],[-70.784984,-33.743056],[-70.779926,-33.744385],[-70.7755,-33.741481],[-70.776131,-33.737248],[-70.781189,-33.735919],[-70.78182,-33.731686],[-70.777394,-33.728782],[-70.778025,-33.724548],[-70.773599,-33.721643],[-70.768542,-33.722972],[-70.76791,-33.727206],[-70.772336,-33.73011],[-70.771705,-33.734343],[-70.766648,-33.735672],[-70.762222,-33.732767],[-70.757165,-33.734095],[-70.75274,-33.73119],[-70.753371,-33.726957],[-70.758428,-33.725629],[-70.759059,-33.721395],[-70.764116,-33.720067],[-70.764747,-33.715833],[-70.769804,-33.714504],[-70.77423,-33.717409],[-70.777271,-33.71661],[-70.777531,-33.7167],[-70.778606,-33.716815],[-70.779606,-33.717034],[-70.780096,-33.717101],[-70.780661,-33.717179],[-70.78123,-33.717355],[-70.782045,-33.71789],[-70.782273,-33.718102],[-70.782697,-33.718852],[-70.782919,-33.719645],[-70.78311,-33.720451],[-70.783417,-33.720973],[-70.783082,-33.723219],[-70.785061,-33.724517],[-70.785209,-33.724734],[-70.785838,-33.725027],[-70.787509,-33.726124],[-70.786878,-33.730357],[-70.791305,-33.733261],[-70.790674,-33.737495],[-70.795101,-33.740399],[-70.79447,-33.744631],[-70.798897,-33.747535],[-70.803956,-33.746206],[-70.808383,-33.749109],[-70.807753,-33.753342],[-70.802694,-33.754671],[-70.802063,-33.758903],[-70.797004,-33.760231],[-70.796373,-33.764463],[-70.791314,-33.765791],[-70.790683,-33.770022],[-70.785624,-33.77135],[-70.781197,-33.768446],[-70.781828,-33.764216],[-70.786887,-33.762888]]]},"properties":{"comuna":"Buin","mancha_id":"13402-88b2c0b689fffff","clase":"Medio","nivel_medio":1.727,"nivel_medio_min":1.529,"nivel_medio_max":2.182,"pct_alto":26.0,"n_hexagonos":15,"area_ha":947.98}},{"type":"Feature","geometry":{"type":"Polygon","coordinates":[[[-70.821051,-33.794569],[-70.815991,-33.795897],[-70.81536,-33.800127],[-70.8103,-33.801454],[-70.809669,-33.805683],[-70.804609,-33.80701],[-70.800181,-33.804109],[-70.800812,-33.79988],[-70.796383,-33.796978],[-70.797014,-33.792748],[-70.802074,-33.791421],[-70.802705,-33.787191],[-70.798277,-33.784289],[-70.798908,-33.780058],[-70.79448,-33.777156],[-70.795111,-33.772925],[-70.80017,-33.771597],[-70.800801,-33.767366],[-70.80586,-33.766037],[-70.806491,-33.761806],[-70.81155,-33.760477],[-70.815978,-33.763379],[-70.821038,-33.76205],[-70.825467,-33.764953],[-70.824836,-33.769184],[-70.829265,-33.772087],[-70.828634,-33.776318],[-70.823574,-33.777647],[-70.819145,-33.774745],[-70.819776,-33.770514],[-70.815347,-33.767611],[-70.810288,-33.76894],[-70.809657,-33.773171],[-70.814086,-33.776074],[-70.813455,-33.780305],[-70.817884,-33.783207],[-70.817253,-33.787437],[-70.821682,-33.790339],[-70.821051,-33.794569]]]},"properties":{"comuna":"Buin","mancha_id":"13402-88b2c0b4c9fffff","clase":"Medio","nivel_medio":1.745,"nivel_medio_min":1.514,"nivel_medio_max":1.975,"pct_alto":17.7,"n_hexagonos":13,"area_ha":824.0}},{"type":"Feature","geometry":{"type":"Polygon","coordinates":[[[-70.802085,-33.823923],[-70.806514,-33.826824],[-70.806487,-33.827008],[-70.80646,-33.82699],[-70.80511,-33.82668],[-70.803926,-33.826606],[-70.80312,-33.82665],[-70.802718,-33.826822],[-70.80235,-33.82712],[-70.802022,-33.827571],[-70.801515,-33.828078],[-70.801067,-33.82842],[-70.80055,-33.82876],[-70.799644,-33.828995],[-70.798825,-33.829143],[-70.79727,-33.8293],[-70.796417,-33.829319],[-70.79592,-33.82933],[-70.79494,-33.82953],[-70.79453,-33.82958],[-70.794,-33.82945],[-70.79356,-33.82939],[-70.79296,-33.82943],[-70.79233,-33.8296],[-70.79187,-33.8299],[-70.79158,-33.83025],[-70.791428,-33.830777],[-70.791427,-33.830781],[-70.791318,-33.830909],[-70.791041,-33.831232],[-70.790542,-33.831521],[-70.789656,-33.831521],[-70.789101,-33.831718],[-70.788401,-33.831924],[-70.787773,-33.832181],[-70.787274,-33.832632],[-70.78691,-33.8331],[-70.78637,-33.83362],[-70.785681,-33.834113],[-70.78287,-33.83287],[-70.78151,-33.831467],[-70.781845,-33.829226],[-70.777417,-33.826324],[-70.778049,-33.822097],[-70.773621,-33.819195],[-70.774252,-33.814968],[-70.769825,-33.812065],[-70.764766,-33.81339],[-70.760339,-33.810488],[-70.756495,-33.811494],[-70.75581,-33.80687],[-70.75552,-33.8052],[-70.755332,-33.803674],[-70.754882,-33.800025],[-70.754502,-33.797375],[-70.754349,-33.79631],[-70.75373,-33.791906],[-70.758438,-33.790672],[-70.762865,-33.793575],[-70.767924,-33.792249],[-70.772351,-33.795152],[-70.771719,-33.799381],[-70.766661,-33.800707],[-70.766029,-33.804935],[-70.770456,-33.807837],[-70.775515,-33.806512],[-70.779943,-33.809414],[-70.779311,-33.813642],[-70.783739,-33.816544],[-70.788799,-33.815218],[-70.793227,-33.81812],[-70.792596,-33.822348],[-70.797025,-33.825249],[-70.802085,-33.823923]]]},"properties":{"comuna":"Buin","mancha_id":"13402-88b2c0b491fffff","clase":"Medio","nivel_medio":1.848,"nivel_medio_min":1.543,"nivel_medio_max":2.298,"pct_alto":21.1,"n_hexagonos":14,"area_ha":669.71}},{"type":"Feature","geometry":{"type":"Polygon","coordinates":[[[-70.836232,-33.790583],[-70.836863,-33.786352],[-70.832433,-33.783451],[-70.833064,-33.77922],[-70.838124,-33.77789],[-70.842554,-33.780792],[-70.841923,-33.785023],[-70.846354,-33.787924],[-70.851414,-33.786594],[-70.855845,-33.789495],[-70.855215,-33.793726],[-70.859646,-33.796627],[-70.86381,-33.795533],[-70.864385,-33.79585],[-70.865088,-33.796237],[-70.86586,-33.796623],[-70.866493,-33.796974],[-70.867581,-33.797782],[-70.868424,-33.798239],[-70.869089,-33.798528],[-70.869356,-33.798645],[-70.870501,-33.799257],[-70.871212,-33.79979],[-70.871621,-33.800241],[-70.871868,-33.801021],[-70.872391,-33.801805],[-70.872799,-33.802197],[-70.873273,-33.802377],[-70.873975,-33.802524],[-70.874808,-33.802622],[-70.875543,-33.802507],[-70.87636,-33.802475],[-70.877226,-33.802475],[-70.878231,-33.802459],[-70.878255,-33.802458],[-70.879284,-33.802475],[-70.880068,-33.802458],[-70.880934,-33.802442],[-70.881979,-33.802377],[-70.882796,-33.802213],[-70.883482,-33.802083],[-70.884054,-33.802066],[-70.88474,-33.801919],[-70.885099,-33.801919],[-70.885444,-33.801986],[-70.88583,-33.802212],[-70.886189,-33.802412],[-70.886651,-33.802589],[-70.887304,-33.80236],[-70.887761,-33.801968],[-70.888052,-33.801837],[-70.888268,-33.80174],[-70.888791,-33.801642],[-70.889297,-33.801707],[-70.889905,-33.801986],[-70.890531,-33.802265],[-70.891061,-33.802573],[-70.891714,-33.80272],[-70.892499,-33.802867],[-70.89325,-33.80285],[-70.893835,-33.802755],[-70.894214,-33.802605],[-70.894881,-33.802593],[-70.895539,-33.802914],[-70.895957,-33.803659],[-70.896453,-33.804021],[-70.89691,-33.80432],[-70.897226,-33.804602],[-70.897346,-33.804756],[-70.897233,-33.805515],[-70.89677,-33.80562],[-70.89602,-33.80594],[-70.89522,-33.80599],[-70.89441,-33.80599],[-70.893899,-33.806081],[-70.893492,-33.806294],[-70.893053,-33.806809],[-70.89259,-33.807213],[-70.892325,-33.807514],[-70.891865,-33.807832],[-70.89155,-33.807976],[-70.891332,-33.808076],[-70.891246,-33.808115],[-70.89054,-33.80822],[-70.889956,-33.808239],[-70.889301,-33.808469],[-70.888842,-33.808752],[-70.888452,-33.809229],[-70.888028,-33.809777],[-70.887515,-33.81006],[-70.886914,-33.810325],[-70.88619,-33.81058],[-70.885305,-33.810732],[-70.884315,-33.810785],[-70.883271,-33.81105],[-70.88244,-33.81118],[-70.881896,-33.811188],[-70.881804,-33.811127],[-70.881555,-33.811193],[-70.881362,-33.811196],[-70.880902,-33.811121],[-70.88036,-33.81121],[-70.87905,-33.81111],[-70.878515,-33.810944],[-70.87795,-33.81094],[-70.87626,-33.81085],[-70.87517,-33.81108],[-70.874807,-33.811192],[-70.87365,-33.81155],[-70.87306,-33.811547],[-70.872782,-33.811541],[-70.872417,-33.811442],[-70.871746,-33.81095],[-70.871474,-33.81084],[-70.871034,-33.810835],[-70.87056,-33.81085],[-70.869772,-33.81106],[-70.86903,-33.81132],[-70.86866,-33.811604],[-70.86815,-33.81218],[-70.867885,-33.812623],[-70.867711,-33.812965],[-70.867381,-33.813312],[-70.866829,-33.813697],[-70.86675,-33.813752],[-70.86544,-33.81436],[-70.8636,-33.81493],[-70.862211,-33.814939],[-70.861638,-33.814904],[-70.86095,-33.81469],[-70.860284,-33.814511],[-70.859588,-33.814477],[-70.859129,-33.814556],[-70.858841,-33.81467],[-70.857124,-33.813547],[-70.852062,-33.814876],[-70.851432,-33.819105],[-70.84637,-33.820433],[-70.84574,-33.824662],[-70.840678,-33.82599],[-70.840153,-33.829514],[-70.840147,-33.82952],[-70.839694,-33.829667],[-70.83914,-33.829724],[-70.83866,-33.82993],[-70.838367,-33.830272],[-70.838123,-33.830594],[-70.83743,-33.83083],[-70.8353,-33.83047],[-70.8345,-33.83027],[-70.834018,-33.830244],[-70.83362,-33.83043],[-70.833503,-33.830575],[-70.8332,-33.83095],[-70.83279,-33.83186],[-70.83221,-33.83231],[-70.83208,-33.8327],[-70.832204,-33.833408],[-70.832288,-33.833828],[-70.832246,-33.834142],[-70.832029,-33.834268],[-70.83164,-33.83434],[-70.831289,-33.834205],[-70.830625,-33.833786],[-70.829116,-33.832598],[-70.8279,-33.831361],[-70.82745,-33.83101],[-70.827173,-33.8309],[-70.82592,-33.83068],[-70.825393,-33.830655],[-70.824812,-33.830627],[-70.82412,-33.83053],[-70.823365,-33.830467],[-70.82266,-33.830404],[-70.82205,-33.83023],[-70.821025,-33.829838],[-70.820763,-33.829408],[-70.82054,-33.82875],[-70.820333,-33.82844],[-70.81956,-33.82795],[-70.818956,-33.827758],[-70.818547,-33.827732],[-70.81806,-33.8277],[-70.81614,-33.82781],[-70.815446,-33.828033],[-70.811574,-33.825498],[-70.812205,-33.82127],[-70.807776,-33.818369],[-70.802716,-33.819695],[-70.798287,-33.816794],[-70.798918,-33.812566],[-70.803978,-33.811239],[-70.808407,-33.814141],[-70.813467,-33.812813],[-70.817897,-33.815715],[-70.822957,-33.814387],[-70.827387,-33.817288],[-70.832448,-33.81596],[-70.833079,-33.811732],[-70.83814,-33.810403],[-70.84257,-33.813304],[-70.847632,-33.811975],[-70.848262,-33.807746],[-70.843831,-33.804845],[-70.83877,-33.806174],[-70.83434,-33.803273],[-70.834971,-33.799043],[-70.840032,-33.797714],[-70.840662,-33.793484],[-70.836232,-33.790583]]]},"properties":{"comuna":"Buin","mancha_id":"13402-88b2c0b411fffff","clase":"Medio","nivel_medio":1.962,"nivel_medio_min":1.505,"nivel_medio_max":2.47,"pct_alto":23.2,"n_hexagonos":30,"area_ha":1614.17}},{"type":"Feature","geometry":{"type":"Polygon","coordinates":[[[-70.624488,-33.711949],[-70.623855,-33.71618],[-70.6219,-33.716692],[-70.621799,-33.716206],[-70.621758,-33.715666],[-70.621835,-33.7153],[-70.621899,-33.714933],[-70.621981,-33.714396],[-70.622211,-33.713838],[-70.622327,-33.713182],[-70.622298,-33.712729],[-70.622313,-33.712262],[-70.62244,-33.711924],[-70.62276,-33.711734],[-70.623182,-33.711476],[-70.623516,-33.711309],[-70.624488,-33.711949]]]},"properties":{"comuna":"Buin","mancha_id":"13402-88b2c57a97fffff","clase":"Alto","nivel_medio":2.918,"nivel_medio_min":2.918,"nivel_medio_max":2.918,"pct_alto":91.8,"n_hexagonos":1,"area_ha":10.31}},{"type":"Feature","geometry":{"type":"Polygon","coordinates":[[[-70.65671,-33.658759],[-70.656077,-33.662995],[-70.651572,-33.664177],[-70.651548,-33.664111],[-70.651288,-33.663506],[-70.651008,-33.663053],[-70.650367,-33.662733],[-70.649789,-33.662663],[-70.649256,-33.662663],[-70.648676,-33.662664],[-70.648437,-33.662617],[-70.648028,-33.662535],[-70.647294,-33.662276],[-70.647032,-33.662216],[-70.646445,-33.662081],[-70.64535,-33.66174],[-70.646606,-33.661411],[-70.647238,-33.657175],[-70.65229,-33.65585],[-70.65671,-33.658759]]]},"properties":{"comuna":"Buin","mancha_id":"13402-88b2c57a19fffff","clase":"Alto","nivel_medio":2.675,"nivel_medio_min":2.674,"nivel_medio_max":2.747,"pct_alto":78.1,"n_hexagonos":2,"area_ha":62.23}},{"type":"Feature","geometry":{"type":"Polygon","coordinates":[[[-70.747055,-33.769272],[-70.747687,-33.765042],[-70.743261,-33.762138],[-70.743893,-33.757907],[-70.74895,-33.756581],[-70.753376,-33.759485],[-70.758433,-33.758158],[-70.762859,-33.761063],[-70.762228,-33.765293],[-70.766654,-33.768197],[-70.766023,-33.772428],[-70.760965,-33.773754],[-70.756539,-33.77085],[-70.751481,-33.772176],[-70.747055,-33.769272]]]},"properties":{"comuna":"Buin","mancha_id":"13402-88b2c579a1fffff","clase":"Alto","nivel_medio":2.812,"nivel_medio_min":2.559,"nivel_medio_max":3.275,"pct_alto":67.7,"n_hexagonos":4,"area_ha":253.49}},{"type":"Feature","geometry":{"type":"Polygon","coordinates":[[[-70.720506,-33.751843],[-70.721138,-33.747613],[-70.726194,-33.746287],[-70.730618,-33.749192],[-70.729986,-33.753423],[-70.72493,-33.754749],[-70.720506,-33.751843]]]},"properties":{"comuna":"Buin","mancha_id":"13402-88b2c57989fffff","clase":"Alto","nivel_medio":2.515,"nivel_medio_min":2.515,"nivel_medio_max":2.515,"pct_alto":62.1,"n_hexagonos":1,"area_ha":63.37}},{"type":"Feature","geometry":{"type":"Polygon","coordinates":[[[-70.71861,-33.764534],[-70.719242,-33.760304],[-70.724298,-33.758979],[-70.728723,-33.761884],[-70.728091,-33.766114],[-70.723034,-33.767439],[-70.71861,-33.764534]]]},"properties":{"comuna":"Buin","mancha_id":"13402-88b2c57983fffff","clase":"Alto","nivel_medio":2.885,"nivel_medio_min":2.885,"nivel_medio_max":2.885,"pct_alto":68.3,"n_hexagonos":1,"area_ha":63.35}},{"type":"Feature","geometry":{"type":"Polygon","coordinates":[[[-70.688278,-33.739963],[-70.68891,-33.735732],[-70.693965,-33.734408],[-70.698388,-33.737314],[-70.697756,-33.741545],[-70.692701,-33.74287],[-70.692068,-33.7471],[-70.687013,-33.748424],[-70.682591,-33.745518],[-70.683223,-33.741288],[-70.688278,-33.739963]]]},"properties":{"comuna":"Buin","mancha_id":"13402-88b2c578e5fffff","clase":"Alto","nivel_medio":2.582,"nivel_medio_min":2.579,"nivel_medio_max":2.585,"pct_alto":60.9,"n_hexagonos":2,"area_ha":126.72}},{"type":"Feature","geometry":{"type":"Polygon","coordinates":[[[-70.669964,-33.700035],[-70.665543,-33.697127],[-70.66049,-33.698452],[-70.656069,-33.695543],[-70.651016,-33.696868],[-70.650384,-33.7011],[-70.645331,-33.702424],[-70.644698,-33.706657],[-70.639645,-33.70798],[-70.63525,-33.705088],[-70.635551,-33.705079],[-70.63652,-33.704962],[-70.637218,-33.704691],[-70.637954,-33.704303],[-70.638381,-33.703683],[-70.638769,-33.70314],[-70.639428,-33.702791],[-70.640009,-33.702365],[-70.640707,-33.701899],[-70.64125,-33.701201],[-70.641715,-33.700775],[-70.642258,-33.700465],[-70.64227,-33.70041],[-70.642477,-33.699462],[-70.643034,-33.699185],[-70.643499,-33.698797],[-70.644042,-33.698526],[-70.644836,-33.698002],[-70.645195,-33.697343],[-70.645104,-33.696992],[-70.644994,-33.696551],[-70.644818,-33.696001],[-70.644598,-33.695516],[-70.644353,-33.695109],[-70.64416,-33.694597],[-70.644157,-33.694591],[-70.644065,-33.694098],[-70.644119,-33.693524],[-70.644236,-33.692826],[-70.644467,-33.691929],[-70.645932,-33.69027],[-70.646689,-33.689606],[-70.646779,-33.689429],[-70.647428,-33.688151],[-70.6477,-33.687259],[-70.647932,-33.686677],[-70.648049,-33.686135],[-70.64832,-33.685476],[-70.64863,-33.684506],[-70.649243,-33.683859],[-70.649755,-33.68311],[-70.650305,-33.68245],[-70.650348,-33.682397],[-70.650724,-33.681831],[-70.650802,-33.6809],[-70.651097,-33.68039],[-70.651393,-33.680052],[-70.651693,-33.679272],[-70.652042,-33.678652],[-70.652571,-33.677937],[-70.653078,-33.677466],[-70.65391,-33.676959],[-70.654635,-33.676741],[-70.655153,-33.676504],[-70.655249,-33.676403],[-70.65537,-33.676275],[-70.655634,-33.675649],[-70.655658,-33.675072],[-70.655538,-33.674302],[-70.655542,-33.673179],[-70.65525,-33.672835],[-70.655057,-33.67245],[-70.654743,-33.671948],[-70.65474,-33.671945],[-70.654462,-33.671603],[-70.65403,-33.671214],[-70.653685,-33.670912],[-70.653579,-33.670653],[-70.654812,-33.671465],[-70.659865,-33.670139],[-70.664285,-33.673048],[-70.663652,-33.677283],[-70.668073,-33.680192],[-70.66744,-33.684426],[-70.662387,-33.685751],[-70.661755,-33.689985],[-70.666175,-33.692894],[-70.671229,-33.691568],[-70.67565,-33.694476],[-70.675017,-33.69871],[-70.669964,-33.700035]]]},"properties":{"comuna":"Buin","mancha_id":"13402-88b2c5785bfffff","clase":"Alto","nivel_medio":2.756,"nivel_medio_min":2.506,"nivel_medio_max":3.078,"pct_alto":72.4,"n_hexagonos":12,"area_ha":548.09}},{"type":"Feature","geometry":{"type":"Polygon","coordinates":[[[-70.729985,-33.720895],[-70.730617,-33.716661],[-70.726193,-33.713755],[-70.726825,-33.709522],[-70.73188,-33.708194],[-70.736304,-33.711101],[-70.735672,-33.715334],[-70.740097,-33.71824],[-70.739465,-33.722473],[-70.734409,-33.7238],[-70.729985,-33.720895]]]},"properties":{"comuna":"Buin","mancha_id":"13402-88b2c57825fffff","clase":"Alto","nivel_medio":2.851,"nivel_medio_min":2.641,"nivel_medio_max":3.061,"pct_alto":79.0,"n_hexagonos":2,"area_ha":126.85}},{"type":"Feature","geometry":{"type":"Polygon","coordinates":[[[-70.636877,-33.655011],[-70.636853,-33.654988],[-70.636051,-33.65425],[-70.635646,-33.654023],[-70.635303,-33.653968],[-70.635241,-33.653958],[-70.635223,-33.653915],[-70.633705,-33.650297],[-70.632525,-33.647485],[-70.631164,-33.644244],[-70.631266,-33.643655],[-70.631917,-33.644048],[-70.632457,-33.644557],[-70.632777,-33.644675],[-70.633166,-33.644819],[-70.634015,-33.64485],[-70.634648,-33.644696],[-70.635126,-33.644634],[-70.635882,-33.644757],[-70.636499,-33.64485],[-70.636931,-33.644973],[-70.637255,-33.645205],[-70.637564,-33.645498],[-70.637764,-33.645791],[-70.638026,-33.646208],[-70.638258,-33.64647],[-70.638522,-33.646686],[-70.639067,-33.646894],[-70.639033,-33.647119],[-70.643452,-33.65003],[-70.642819,-33.654265],[-70.637768,-33.655591],[-70.63765,-33.656375],[-70.63746,-33.656095],[-70.636877,-33.655011]]]},"properties":{"comuna":"Buin","mancha_id":"13402-88b2c57121fffff","clase":"Alto","nivel_medio":2.567,"nivel_medio_min":2.518,"nivel_medio_max":2.917,"pct_alto":72.8,"n_hexagonos":4,"area_ha":82.92}},{"type":"Feature","geometry":{"type":"Polygon","coordinates":[[[-70.777417,-33.826324],[-70.781845,-33.829226],[-70.78151,-33.831467],[-70.78056,-33.830486],[-70.779106,-33.829067],[-70.778785,-33.828756],[-70.777831,-33.82783],[-70.776527,-33.826557],[-70.774998,-33.825063],[-70.774006,-33.824096],[-70.772911,-33.823009],[-70.770311,-33.820469],[-70.769985,-33.820147],[-70.769235,-33.819405],[-70.76559,-33.81544],[-70.764608,-33.814447],[-70.7621,-33.81191],[-70.76181,-33.81221],[-70.761551,-33.81248],[-70.76121,-33.812836],[-70.760653,-33.813417],[-70.76032,-33.81377],[-70.759681,-33.814436],[-70.758657,-33.815502],[-70.75814,-33.81604],[-70.75728,-33.8168],[-70.756495,-33.811494],[-70.760339,-33.810488],[-70.764766,-33.81339],[-70.769825,-33.812065],[-70.774252,-33.814968],[-70.773621,-33.819195],[-70.778049,-33.822097],[-70.777417,-33.826324]]]},"properties":{"comuna":"Buin","mancha_id":"13402-88b2c56949fffff","clase":"Alto","nivel_medio":2.75,"nivel_medio_min":2.531,"nivel_medio_max":3.012,"pct_alto":72.9,"n_hexagonos":4,"area_ha":109.23}},{"type":"Feature","geometry":{"type":"Polygon","coordinates":[[[-70.62821,-33.74411],[-70.627631,-33.743644],[-70.62708,-33.7432],[-70.62654,-33.74264],[-70.62613,-33.74215],[-70.62582,-33.74179],[-70.6257,-33.74152],[-70.62548,-33.74071],[-70.62536,-33.73992],[-70.62515,-33.73954],[-70.62489,-33.73922],[-70.62421,-33.73812],[-70.624101,-33.73709],[-70.623926,-33.736771],[-70.623432,-33.736739],[-70.62278,-33.73689],[-70.62186,-33.73705],[-70.62115,-33.73723],[-70.620669,-33.737464],[-70.62037,-33.73761],[-70.61946,-33.73792],[-70.61898,-33.73798],[-70.61817,-33.73794],[-70.617245,-33.738015],[-70.61662,-33.73808],[-70.61605,-33.73821],[-70.61505,-33.73841],[-70.61396,-33.73862],[-70.613586,-33.737712],[-70.613191,-33.736555],[-70.612401,-33.735486],[-70.612383,-33.73544],[-70.612202,-33.734992],[-70.61209,-33.734507],[-70.612333,-33.734027],[-70.612538,-33.733492],[-70.612796,-33.733133],[-70.613004,-33.732691],[-70.613526,-33.731873],[-70.613688,-33.731346],[-70.613915,-33.730514],[-70.614419,-33.728691],[-70.614412,-33.728554],[-70.614357,-33.727562],[-70.614519,-33.727005],[-70.614768,-33.726326],[-70.61505,-33.72561],[-70.615234,-33.72493],[-70.615389,-33.724271],[-70.615427,-33.723535],[-70.615505,-33.722759],[-70.615696,-33.72238],[-70.615802,-33.722169],[-70.616451,-33.72176],[-70.617245,-33.721568],[-70.617793,-33.721441],[-70.618244,-33.721231],[-70.618169,-33.721733],[-70.622588,-33.724642],[-70.627641,-33.72332],[-70.628274,-33.719089],[-70.633327,-33.717766],[-70.637746,-33.720675],[-70.642799,-33.719352],[-70.64722,-33.72226],[-70.646587,-33.726491],[-70.651007,-33.729399],[-70.656061,-33.728076],[-70.660482,-33.730983],[-70.665536,-33.72966],[-70.669957,-33.732567],[-70.675012,-33.731243],[-70.679434,-33.73415],[-70.678801,-33.738381],[-70.673747,-33.739705],[-70.673114,-33.743935],[-70.66806,-33.745258],[-70.667427,-33.749488],[-70.671849,-33.752395],[-70.671216,-33.756624],[-70.67066,-33.75677],[-70.669816,-33.756635],[-70.669797,-33.756632],[-70.669795,-33.756625],[-70.669756,-33.756465],[-70.669467,-33.755283],[-70.669433,-33.755181],[-70.669413,-33.755122],[-70.669346,-33.754927],[-70.669284,-33.754588],[-70.669108,-33.754317],[-70.668981,-33.754238],[-70.66813,-33.754107],[-70.667764,-33.754019],[-70.667403,-33.75388],[-70.666945,-33.753567],[-70.6666,-33.753218],[-70.666127,-33.75286],[-70.665827,-33.752585],[-70.665567,-33.752343],[-70.665046,-33.751871],[-70.664176,-33.751001],[-70.663718,-33.750459],[-70.663587,-33.750304],[-70.663366,-33.749975],[-70.663061,-33.749518],[-70.66269,-33.749072],[-70.662513,-33.748807],[-70.662319,-33.748524],[-70.661632,-33.747954],[-70.660431,-33.747121],[-70.65994,-33.746882],[-70.659179,-33.746341],[-70.658614,-33.745908],[-70.658287,-33.74566],[-70.658584,-33.743674],[-70.654163,-33.740767],[-70.654796,-33.736537],[-70.650375,-33.733629],[-70.645321,-33.734952],[-70.644688,-33.739182],[-70.649109,-33.74209],[-70.648516,-33.746056],[-70.648011,-33.746441],[-70.64779,-33.74661],[-70.64722,-33.74702],[-70.64623,-33.74754],[-70.64539,-33.74803],[-70.64465,-33.74845],[-70.64416,-33.74846],[-70.643555,-33.748475],[-70.643296,-33.74849],[-70.642981,-33.748507],[-70.64241,-33.74858],[-70.64175,-33.74888],[-70.64158,-33.74905],[-70.64127,-33.74917],[-70.64056,-33.74929],[-70.640159,-33.74932],[-70.639569,-33.749241],[-70.639186,-33.749049],[-70.63879,-33.74877],[-70.638277,-33.748571],[-70.63761,-33.74857],[-70.63643,-33.74871],[-70.63586,-33.74883],[-70.63509,-33.74896],[-70.63443,-33.74902],[-70.63371,-33.74891],[-70.633535,-33.748818],[-70.63318,-33.74863],[-70.63272,-33.74823],[-70.6324,-33.74792],[-70.63201,-33.74749],[-70.6316,-33.74694],[-70.63133,-33.7464],[-70.63108,-33.74605],[-70.63036,-33.7453],[-70.62969,-33.74488],[-70.62879,-33.74444],[-70.62821,-33.74411]]]},"properties":{"comuna":"Buin","mancha_id":"13402-88b2c56325fffff","clase":"Alto","nivel_medio":2.742,"nivel_medio_min":2.546,"nivel_medio_max":2.967,"pct_alto":83.3,"n_hexagonos":25,"area_ha":1197.84}},{"type":"Feature","geometry":{"type":"Polygon","coordinates":[[[-70.881555,-33.811193],[-70.881804,-33.811127],[-70.881896,-33.811188],[-70.881555,-33.811193]]]},"properties":{"comuna":"Buin","mancha_id":"13402-88b2c0b5c3fffff","clase":"Alto","nivel_medio":3.475,"nivel_medio_min":3.475,"nivel_medio_max":3.475,"pct_alto":100.0,"n_hexagonos":1,"area_ha":0.01}},{"type":"Feature","geometry":{"type":"Polygon","coordinates":[[[-70.897691,-33.805411],[-70.897233,-33.805515],[-70.897346,-33.804756],[-70.897464,-33.804908],[-70.897595,-33.805268],[-70.897691,-33.805411]]]},"properties":{"comuna":"Buin","mancha_id":"13402-88b2c0b513fffff","clase":"Alto","nivel_medio":2.8,"nivel_medio_min":2.8,"nivel_medio_max":2.8,"pct_alto":80.0,"n_hexagonos":1,"area_ha":0.18}},{"type":"Feature","geometry":{"type":"Polygon","coordinates":[[[-70.840678,-33.82599],[-70.84574,-33.824662],[-70.84637,-33.820433],[-70.851432,-33.819105],[-70.852062,-33.814876],[-70.857124,-33.813547],[-70.858841,-33.81467],[-70.85838,-33.814854],[-70.85685,-33.81582],[-70.855908,-33.816348],[-70.85515,-33.81691],[-70.85422,-33.81801],[-70.853647,-33.818451],[-70.852991,-33.818824],[-70.852369,-33.819084],[-70.851718,-33.819292],[-70.851589,-33.819333],[-70.850922,-33.819559],[-70.850243,-33.819977],[-70.849508,-33.820418],[-70.848706,-33.820667],[-70.848326,-33.820877],[-70.847869,-33.821345],[-70.84758,-33.82196],[-70.84713,-33.82291],[-70.84682,-33.82427],[-70.846392,-33.825089],[-70.84624,-33.82538],[-70.845879,-33.825755],[-70.84538,-33.82598],[-70.844567,-33.826117],[-70.843991,-33.826286],[-70.84327,-33.82655],[-70.842566,-33.826897],[-70.841345,-33.827327],[-70.840915,-33.82753],[-70.84073,-33.82797],[-70.84077,-33.82857],[-70.840655,-33.829011],[-70.840153,-33.829514],[-70.840678,-33.82599]]]},"properties":{"comuna":"Buin","mancha_id":"13402-88b2c0b4a1fffff","clase":"Alto","nivel_medio":2.73,"nivel_medio_min":2.638,"nivel_medio_max":2.778,"pct_alto":64.7,"n_hexagonos":3,"area_ha":37.26}}],"bbox":[-70.8977,-33.83434,-70.61208,-33.64365]}