{"type":"FeatureCollection","features":[{"type":"Feature","geometry":{"type":"Polygon","coordinates":[[[-70.717346,-33.675393],[-70.716714,-33.679628],[-70.714347,-33.68025],[-70.714309,-33.680219],[-70.713718,-33.679201],[-70.713357,-33.678183],[-70.71337,-33.676854],[-70.713407,-33.675649],[-70.713474,-33.674631],[-70.713226,-33.673782],[-70.712814,-33.67335],[-70.71211,-33.672942],[-70.711917,-33.672749],[-70.712923,-33.672485],[-70.717346,-33.675393]]]},"properties":{"comuna":"San Bernardo","mancha_id":"13401-88b2c57b1bfffff","clase":"Muy Bajo","nivel_medio":0.453,"nivel_medio_min":0.453,"nivel_medio_max":0.453,"pct_alto":2.3,"n_hexagonos":1,"area_ha":22.72}},{"type":"Feature","geometry":{"type":"Polygon","coordinates":[[[-70.646887,-33.649128],[-70.648504,-33.648704],[-70.650724,-33.650166],[-70.65013,-33.650094],[-70.649133,-33.649761],[-70.648163,-33.649429],[-70.647193,-33.649207],[-70.646887,-33.649128]]]},"properties":{"comuna":"San Bernardo","mancha_id":"13401-88b2c57a53fffff","clase":"Muy Bajo","nivel_medio":0.239,"nivel_medio_min":0.239,"nivel_medio_max":0.239,"pct_alto":2.1,"n_hexagonos":1,"area_ha":1.75}},{"type":"Feature","geometry":{"type":"Polygon","coordinates":[[[-70.686201,-33.663226],[-70.690182,-33.66218],[-70.692979,-33.66402],[-70.69285,-33.664119],[-70.692016,-33.664564],[-70.691025,-33.664948],[-70.690329,-33.66512],[-70.689754,-33.665101],[-70.689365,-33.664897],[-70.689087,-33.664675],[-70.688605,-33.664341],[-70.688104,-33.6641],[-70.687671,-33.663864],[-70.686923,-33.663503],[-70.686203,-33.663226],[-70.686201,-33.663226]]]},"properties":{"comuna":"San Bernardo","mancha_id":"13401-88b2c57a2bfffff","clase":"Muy Bajo","nivel_medio":0.082,"nivel_medio_min":0.082,"nivel_medio_max":0.082,"pct_alto":0.2,"n_hexagonos":1,"area_ha":10.64}},{"type":"Feature","geometry":{"type":"Polygon","coordinates":[[[-70.698798,-33.663987],[-70.699657,-33.663761],[-70.701081,-33.664697],[-70.700499,-33.664556],[-70.699862,-33.664445],[-70.699235,-33.664127],[-70.698798,-33.663987]]]},"properties":{"comuna":"San Bernardo","mancha_id":"13401-88b2c57a21fffff","clase":"Muy Bajo","nivel_medio":0.0,"nivel_medio_min":0.0,"nivel_medio_max":0.0,"pct_alto":0.0,"n_hexagonos":1,"area_ha":0.69}},{"type":"Feature","geometry":{"type":"Polygon","coordinates":[[[-70.677258,-33.661504],[-70.680708,-33.660598],[-70.682692,-33.661903],[-70.682469,-33.661931],[-70.682006,-33.662191],[-70.681468,-33.662543],[-70.680893,-33.662691],[-70.679967,-33.662636],[-70.679355,-33.662487],[-70.678972,-33.662201],[-70.678612,-33.662007],[-70.677853,-33.661727],[-70.677334,-33.66152],[-70.677258,-33.661504]]]},"properties":{"comuna":"San Bernardo","mancha_id":"13401-88b2c57a07fffff","clase":"Muy Bajo","nivel_medio":0.147,"nivel_medio_min":0.147,"nivel_medio_max":0.147,"pct_alto":0.0,"n_hexagonos":1,"area_ha":6.29}},{"type":"Feature","geometry":{"type":"Polygon","coordinates":[[[-70.669395,-33.659499],[-70.671235,-33.659016],[-70.674955,-33.661465],[-70.674373,-33.661564],[-70.673154,-33.661536],[-70.672411,-33.661386],[-70.671477,-33.660941],[-70.670854,-33.660689],[-70.670186,-33.660408],[-70.669623,-33.660022],[-70.669395,-33.659499]]]},"properties":{"comuna":"San Bernardo","mancha_id":"13401-88b2c57a03fffff","clase":"Muy Bajo","nivel_medio":0.272,"nivel_medio_min":0.272,"nivel_medio_max":0.272,"pct_alto":3.1,"n_hexagonos":1,"area_ha":6.54}},{"type":"Feature","geometry":{"type":"Polygon","coordinates":[[[-70.748903,-33.699654],[-70.752735,-33.698647],[-70.755585,-33.700519],[-70.755492,-33.700773],[-70.755147,-33.701131],[-70.754885,-33.701517],[-70.754817,-33.702013],[-70.754679,-33.702427],[-70.754338,-33.702577],[-70.753777,-33.702446],[-70.753204,-33.702123],[-70.75257,-33.701751],[-70.75184,-33.701462],[-70.75111,-33.70109],[-70.750187,-33.700649],[-70.75,-33.700539],[-70.749553,-33.700277],[-70.748903,-33.699654]]]},"properties":{"comuna":"San Bernardo","mancha_id":"13401-88b2c5795dfffff","clase":"Muy Bajo","nivel_medio":0.444,"nivel_medio_min":0.444,"nivel_medio_max":0.444,"pct_alto":9.4,"n_hexagonos":1,"area_ha":13.97}},{"type":"Feature","geometry":{"type":"Polygon","coordinates":[[[-70.765208,-33.707575],[-70.76601,-33.707365],[-70.769749,-33.709819],[-70.76943,-33.709768],[-70.768951,-33.709535],[-70.768223,-33.708996],[-70.767077,-33.708463],[-70.765328,-33.707602],[-70.765208,-33.707575]]]},"properties":{"comuna":"San Bernardo","mancha_id":"13401-88b2c57909fffff","clase":"Muy Bajo","nivel_medio":0.078,"nivel_medio_min":0.078,"nivel_medio_max":0.078,"pct_alto":0.0,"n_hexagonos":1,"area_ha":1.38}},{"type":"Feature","geometry":{"type":"Polygon","coordinates":[[[-70.777531,-33.7167],[-70.777271,-33.71661],[-70.779287,-33.71608],[-70.78123,-33.717355],[-70.780661,-33.717179],[-70.780096,-33.717101],[-70.779606,-33.717034],[-70.778606,-33.716815],[-70.777531,-33.7167]]]},"properties":{"comuna":"San Bernardo","mancha_id":"13401-88b2c57905fffff","clase":"Muy Bajo","nivel_medio":0.174,"nivel_medio_min":0.174,"nivel_medio_max":0.174,"pct_alto":1.8,"n_hexagonos":1,"area_ha":1.76}},{"type":"Feature","geometry":{"type":"Polygon","coordinates":[[[-70.782273,-33.718102],[-70.782045,-33.71789],[-70.783713,-33.718985],[-70.783417,-33.720973],[-70.78311,-33.720451],[-70.782919,-33.719645],[-70.782697,-33.718852],[-70.782273,-33.718102]]]},"properties":{"comuna":"San Bernardo","mancha_id":"13401-88b2c57905fffff-2","clase":"Muy Bajo","nivel_medio":0.174,"nivel_medio_min":0.174,"nivel_medio_max":0.174,"pct_alto":1.8,"n_hexagonos":1,"area_ha":1.6}},{"type":"Feature","geometry":{"type":"Polygon","coordinates":[[[-70.729983,-33.68835],[-70.734407,-33.691257],[-70.733959,-33.694257],[-70.733596,-33.694103],[-70.732583,-33.693901],[-70.731627,-33.693698],[-70.730874,-33.693495],[-70.730208,-33.692916],[-70.729628,-33.692597],[-70.728875,-33.692308],[-70.728122,-33.692366],[-70.727369,-33.69251],[-70.726326,-33.692423],[-70.725718,-33.691844],[-70.724762,-33.691439],[-70.724676,-33.69137],[-70.724928,-33.689678],[-70.729983,-33.68835]]]},"properties":{"comuna":"San Bernardo","mancha_id":"13401-88b2c5786dfffff","clase":"Muy Bajo","nivel_medio":0.308,"nivel_medio_min":0.308,"nivel_medio_max":0.308,"pct_alto":7.0,"n_hexagonos":1,"area_ha":34.56}},{"type":"Feature","geometry":{"type":"Polygon","coordinates":[[[-70.741345,-33.546854],[-70.741976,-33.542609],[-70.742104,-33.542576],[-70.743088,-33.543692],[-70.743837,-33.544545],[-70.744679,-33.545491],[-70.745267,-33.546148],[-70.747989,-33.549178],[-70.745766,-33.549765],[-70.745135,-33.554009],[-70.740082,-33.555343],[-70.735661,-33.552433],[-70.736292,-33.548188],[-70.741345,-33.546854]]]},"properties":{"comuna":"San Bernardo","mancha_id":"13401-88b2c54723fffff","clase":"Muy Bajo","nivel_medio":0.424,"nivel_medio_min":0.412,"nivel_medio_max":0.461,"pct_alto":12.1,"n_hexagonos":2,"area_ha":84.07}},{"type":"Feature","geometry":{"type":"Polygon","coordinates":[[[-70.727865,-33.525943],[-70.724924,-33.52672],[-70.722763,-33.525297],[-70.723387,-33.525062],[-70.724962,-33.524482],[-70.726248,-33.523977],[-70.727865,-33.525943]]]},"properties":{"comuna":"San Bernardo","mancha_id":"13401-88b2c54709fffff","clase":"Muy Bajo","nivel_medio":0.0,"nivel_medio_min":0.0,"nivel_medio_max":0.0,"pct_alto":0.0,"n_hexagonos":1,"area_ha":7.62}},{"type":"Feature","geometry":{"type":"Polygon","coordinates":[[[-70.697854,-33.566482],[-70.699664,-33.566005],[-70.700296,-33.561762],[-70.696145,-33.559028],[-70.695974,-33.558197],[-70.695856,-33.557627],[-70.695576,-33.556316],[-70.695572,-33.556111],[-70.695571,-33.556002],[-70.695544,-33.555934],[-70.695483,-33.555889],[-70.695432,-33.555866],[-70.695302,-33.555858],[-70.693332,-33.556113],[-70.693218,-33.556128],[-70.69312,-33.55614],[-70.693065,-33.556089],[-70.693034,-33.556029],[-70.692695,-33.555268],[-70.691169,-33.551938],[-70.692089,-33.551696],[-70.692721,-33.547452],[-70.688301,-33.54454],[-70.687844,-33.544661],[-70.68714,-33.5431],[-70.686192,-33.541117],[-70.686227,-33.540601],[-70.686009,-33.540266],[-70.685692,-33.539667],[-70.685404,-33.53913],[-70.686519,-33.538705],[-70.686718,-33.53863],[-70.687842,-33.538224],[-70.688953,-33.537811],[-70.690675,-33.537181],[-70.691836,-33.536759],[-70.692038,-33.536687],[-70.693187,-33.536265],[-70.694165,-33.535909],[-70.694455,-33.535804],[-70.694766,-33.535691],[-70.695515,-33.53542],[-70.696699,-33.534978],[-70.698418,-33.534324],[-70.699101,-33.534069],[-70.699498,-33.533923],[-70.700129,-33.533692],[-70.704086,-33.536299],[-70.703455,-33.540543],[-70.707874,-33.543455],[-70.712926,-33.542122],[-70.717346,-33.545033],[-70.716715,-33.549278],[-70.721135,-33.552189],[-70.720504,-33.556433],[-70.724925,-33.559343],[-70.724293,-33.563587],[-70.719241,-33.564919],[-70.718609,-33.569162],[-70.713557,-33.570495],[-70.712925,-33.574737],[-70.707873,-33.576069],[-70.707241,-33.580311],[-70.711662,-33.583221],[-70.71103,-33.587463],[-70.715451,-33.590373],[-70.71482,-33.594614],[-70.719241,-33.597524],[-70.718609,-33.601765],[-70.713556,-33.603095],[-70.712925,-33.607336],[-70.707872,-33.608666],[-70.70724,-33.612906],[-70.702187,-33.614236],[-70.701555,-33.618475],[-70.696503,-33.619805],[-70.695871,-33.624044],[-70.690818,-33.625373],[-70.686398,-33.622463],[-70.68703,-33.618224],[-70.682609,-33.615314],[-70.683241,-33.611075],[-70.678822,-33.608164],[-70.679454,-33.603925],[-70.675034,-33.601014],[-70.669983,-33.602343],[-70.668499,-33.601366],[-70.668485,-33.601329],[-70.667943,-33.599643],[-70.667354,-33.597975],[-70.667052,-33.597135],[-70.666869,-33.596528],[-70.66669,-33.595953],[-70.666484,-33.595311],[-70.666425,-33.595132],[-70.66595,-33.593692],[-70.66563,-33.592707],[-70.665298,-33.591746],[-70.664928,-33.590502],[-70.664681,-33.589712],[-70.664549,-33.589274],[-70.664128,-33.587943],[-70.664026,-33.587615],[-70.663835,-33.586998],[-70.663467,-33.585845],[-70.663382,-33.585572],[-70.663316,-33.585368],[-70.663238,-33.585197],[-70.66368,-33.58512],[-70.6654,-33.58477],[-70.667213,-33.584416],[-70.667821,-33.584292],[-70.668358,-33.584183],[-70.671324,-33.58358],[-70.674681,-33.582896],[-70.675547,-33.582725],[-70.676756,-33.582486],[-70.678299,-33.581869],[-70.680855,-33.580831],[-70.68302,-33.579996],[-70.68337,-33.579861],[-70.68522,-33.57912],[-70.68578,-33.57889],[-70.68622,-33.57872],[-70.68696,-33.57844],[-70.689005,-33.577617],[-70.689224,-33.577529],[-70.690202,-33.577155],[-70.691107,-33.576796],[-70.691704,-33.576566],[-70.693315,-33.575922],[-70.694667,-33.575418],[-70.69628,-33.574776],[-70.697889,-33.574152],[-70.697907,-33.574145],[-70.700804,-33.572994],[-70.70051,-33.572324],[-70.699887,-33.570993],[-70.699278,-33.569625],[-70.699006,-33.56901],[-70.698718,-33.56841],[-70.698243,-33.567326],[-70.697905,-33.566595],[-70.697854,-33.566482]]]},"properties":{"comuna":"San Bernardo","mancha_id":"13401-88b2c54405fffff","clase":"Muy Bajo","nivel_medio":0.179,"nivel_medio_min":0.0,"nivel_medio_max":0.49,"pct_alto":4.5,"n_hexagonos":46,"area_ha":2558.72}},{"type":"Feature","geometry":{"type":"Polygon","coordinates":[[[-70.813427,-33.743123],[-70.814073,-33.743547],[-70.813918,-33.744586],[-70.813908,-33.744562],[-70.813617,-33.74371],[-70.813447,-33.743228],[-70.813427,-33.743123]]]},"properties":{"comuna":"San Bernardo","mancha_id":"13401-88b2c0b613fffff","clase":"Muy Bajo","nivel_medio":0.0,"nivel_medio_min":0.0,"nivel_medio_max":0.0,"pct_alto":0.0,"n_hexagonos":1,"area_ha":0.39}},{"type":"Feature","geometry":{"type":"Polygon","coordinates":[[[-70.736412,-33.650711],[-70.735668,-33.650222],[-70.735904,-33.648638],[-70.735906,-33.648646],[-70.735926,-33.648763],[-70.73596,-33.648954],[-70.735983,-33.649088],[-70.735993,-33.649134],[-70.736083,-33.649516],[-70.736189,-33.649952],[-70.736326,-33.650378],[-70.736373,-33.650561],[-70.736412,-33.650711]]]},"properties":{"comuna":"San Bernardo","mancha_id":"13401-88b2c57b41fffff","clase":"Bajo","nivel_medio":1.432,"nivel_medio_min":1.432,"nivel_medio_max":1.432,"pct_alto":10.0,"n_hexagonos":1,"area_ha":0.62}},{"type":"Feature","geometry":{"type":"Polygon","coordinates":[[[-70.709133,-33.665341],[-70.713555,-33.668249],[-70.71861,-33.666921],[-70.723032,-33.669828],[-70.7224,-33.674064],[-70.726823,-33.676972],[-70.726192,-33.681208],[-70.730615,-33.684115],[-70.729983,-33.68835],[-70.724928,-33.689678],[-70.721788,-33.687614],[-70.720976,-33.686886],[-70.720572,-33.686323],[-70.720057,-33.685605],[-70.719395,-33.685028],[-70.71882,-33.684806],[-70.718227,-33.684454],[-70.717725,-33.683832],[-70.7173,-33.683082],[-70.717133,-33.682396],[-70.716744,-33.681877],[-70.716151,-33.681432],[-70.715295,-33.68104],[-70.714347,-33.68025],[-70.716714,-33.679628],[-70.717346,-33.675393],[-70.712923,-33.672485],[-70.711917,-33.672749],[-70.711739,-33.672571],[-70.711535,-33.671997],[-70.711368,-33.670885],[-70.711442,-33.669698],[-70.711547,-33.669206],[-70.711795,-33.668605],[-70.711776,-33.668141],[-70.711518,-33.667707],[-70.71096,-33.667313],[-70.71027,-33.667116],[-70.709646,-33.666754],[-70.709199,-33.66657],[-70.709088,-33.666524],[-70.708496,-33.66613],[-70.707971,-33.665868],[-70.70738,-33.665835],[-70.707338,-33.665813],[-70.709133,-33.665341]]]},"properties":{"comuna":"San Bernardo","mancha_id":"13401-88b2c57a25fffff","clase":"Bajo","nivel_medio":1.272,"nivel_medio_min":0.998,"nivel_medio_max":1.452,"pct_alto":19.5,"n_hexagonos":5,"area_ha":220.43}},{"type":"Feature","geometry":{"type":"Polygon","coordinates":[[[-70.67692,-33.653453],[-70.68134,-33.656362],[-70.686393,-33.655035],[-70.690814,-33.657944],[-70.695868,-33.656616],[-70.700289,-33.659525],[-70.699657,-33.663761],[-70.698798,-33.663987],[-70.698587,-33.663919],[-70.697856,-33.663766],[-70.697166,-33.663667],[-70.696648,-33.663476],[-70.696205,-33.663282],[-70.69582,-33.663109],[-70.694875,-33.663088],[-70.694243,-33.66324],[-70.693357,-33.663733],[-70.692979,-33.66402],[-70.690182,-33.66218],[-70.686201,-33.663226],[-70.685289,-33.662811],[-70.684651,-33.662312],[-70.683987,-33.662007],[-70.683452,-33.661876],[-70.682914,-33.661876],[-70.682692,-33.661903],[-70.680708,-33.660598],[-70.677258,-33.661504],[-70.676445,-33.661342],[-70.675509,-33.66137],[-70.674955,-33.661465],[-70.671235,-33.659016],[-70.669395,-33.659499],[-70.669302,-33.659287],[-70.669053,-33.658627],[-70.668832,-33.658073],[-70.668305,-33.657713],[-70.66771,-33.657486],[-70.667161,-33.657219],[-70.666587,-33.657131],[-70.665839,-33.656909],[-70.665174,-33.656605],[-70.664565,-33.656466],[-70.664467,-33.656421],[-70.6639,-33.656161],[-70.663207,-33.65569],[-70.662625,-33.655192],[-70.662182,-33.654859],[-70.662147,-33.654855],[-70.661545,-33.654776],[-70.660908,-33.654582],[-70.660492,-33.654471],[-70.660049,-33.654388],[-70.659495,-33.65425],[-70.658774,-33.654167],[-70.657888,-33.653945],[-70.657195,-33.653723],[-70.656586,-33.653502],[-70.655976,-33.653197],[-70.655422,-33.652781],[-70.654674,-33.652227],[-70.654092,-33.651701],[-70.653699,-33.65141],[-70.657975,-33.650288],[-70.658607,-33.646051],[-70.663659,-33.644725],[-70.668079,-33.647634],[-70.667447,-33.651871],[-70.671867,-33.65478],[-70.67692,-33.653453]]]},"properties":{"comuna":"San Bernardo","mancha_id":"13401-88b2c57a01fffff","clase":"Bajo","nivel_medio":1.014,"nivel_medio_min":0.556,"nivel_medio_max":1.433,"pct_alto":19.9,"n_hexagonos":6,"area_ha":309.53}},{"type":"Feature","geometry":{"type":"Polygon","coordinates":[[[-70.771504,-33.710082],[-70.771381,-33.710021],[-70.77106,-33.709863],[-70.770716,-33.709806],[-70.77028,-33.709809],[-70.769859,-33.709837],[-70.769749,-33.709819],[-70.76601,-33.707365],[-70.765208,-33.707575],[-70.76395,-33.707295],[-70.763239,-33.706886],[-70.763115,-33.706668],[-70.763067,-33.706391],[-70.763239,-33.705766],[-70.763541,-33.70525],[-70.76361,-33.704886],[-70.763574,-33.704737],[-70.763443,-33.704612],[-70.763241,-33.704523],[-70.762615,-33.704302],[-70.762132,-33.704225],[-70.761578,-33.703968],[-70.761172,-33.703635],[-70.760806,-33.703011],[-70.760425,-33.702643],[-70.760083,-33.702065],[-70.759667,-33.701779],[-70.759143,-33.701517],[-70.75822,-33.701393],[-70.758055,-33.701318],[-70.762216,-33.700224],[-70.762847,-33.695989],[-70.767904,-33.69466],[-70.772329,-33.697565],[-70.771698,-33.7018],[-70.776124,-33.704706],[-70.781181,-33.703376],[-70.781812,-33.699141],[-70.786869,-33.69781],[-70.791295,-33.700716],[-70.790664,-33.704951],[-70.785607,-33.706281],[-70.784976,-33.710516],[-70.789402,-33.713421],[-70.788771,-33.717655],[-70.793198,-33.72056],[-70.792567,-33.724794],[-70.796994,-33.727698],[-70.796509,-33.73095],[-70.796305,-33.73096],[-70.795735,-33.730928],[-70.795197,-33.730716],[-70.79475,-33.730331],[-70.794607,-33.730177],[-70.794382,-33.729934],[-70.794114,-33.729462],[-70.793925,-33.729179],[-70.7936,-33.728842],[-70.793225,-33.728614],[-70.792508,-33.728369],[-70.791513,-33.728211],[-70.790845,-33.728011],[-70.790454,-33.727619],[-70.790255,-33.727151],[-70.790093,-33.72675],[-70.789737,-33.726316],[-70.789481,-33.726184],[-70.789134,-33.726006],[-70.788295,-33.725917],[-70.788135,-33.7259],[-70.787651,-33.725713],[-70.78726,-33.725696],[-70.786722,-33.725468],[-70.786163,-33.725179],[-70.785838,-33.725027],[-70.785061,-33.724517],[-70.784658,-33.723928],[-70.784234,-33.723356],[-70.784043,-33.722317],[-70.783746,-33.721532],[-70.783417,-33.720973],[-70.783713,-33.718985],[-70.782045,-33.71789],[-70.781589,-33.717466],[-70.78123,-33.717355],[-70.779287,-33.71608],[-70.777271,-33.71661],[-70.776606,-33.716379],[-70.775933,-33.715997],[-70.774855,-33.71538],[-70.773387,-33.714197],[-70.77311,-33.713551],[-70.773079,-33.712689],[-70.773096,-33.712142],[-70.773111,-33.71185],[-70.772996,-33.711421],[-70.772698,-33.711146],[-70.772379,-33.710832],[-70.771948,-33.710396],[-70.771504,-33.710082]]]},"properties":{"comuna":"San Bernardo","mancha_id":"13401-88b2c5790dfffff","clase":"Bajo","nivel_medio":1.156,"nivel_medio_min":0.727,"nivel_medio_max":1.446,"pct_alto":15.4,"n_hexagonos":9,"area_ha":471.48}},{"type":"Feature","geometry":{"type":"Polygon","coordinates":[[[-70.773591,-33.689094],[-70.774223,-33.684858],[-70.769797,-33.681952],[-70.764741,-33.683282],[-70.76411,-33.687518],[-70.759054,-33.688848],[-70.758423,-33.693083],[-70.753366,-33.694412],[-70.748942,-33.691506],[-70.749573,-33.687271],[-70.745149,-33.684364],[-70.745781,-33.680128],[-70.741357,-33.677221],[-70.741988,-33.672985],[-70.737565,-33.670078],[-70.738196,-33.665841],[-70.743251,-33.664512],[-70.743421,-33.663374],[-70.743824,-33.663451],[-70.745078,-33.663749],[-70.745651,-33.663911],[-70.746136,-33.663993],[-70.746367,-33.664008],[-70.746426,-33.664012],[-70.746453,-33.664013],[-70.7465,-33.664016],[-70.746541,-33.664018],[-70.746578,-33.66402],[-70.7466,-33.664021],[-70.74661,-33.664022],[-70.746783,-33.664031],[-70.746997,-33.664032],[-70.747377,-33.664032],[-70.747703,-33.664052],[-70.748096,-33.664076],[-70.748303,-33.664095],[-70.748592,-33.664123],[-70.748958,-33.664136],[-70.749226,-33.664105],[-70.749681,-33.663944],[-70.749871,-33.663863],[-70.750292,-33.663685],[-70.750976,-33.663405],[-70.751499,-33.663244],[-70.752425,-33.662956],[-70.75253,-33.662924],[-70.752889,-33.662822],[-70.753102,-33.662762],[-70.753232,-33.662725],[-70.75273,-33.666089],[-70.747675,-33.667419],[-70.747044,-33.671656],[-70.751468,-33.674563],[-70.750836,-33.678799],[-70.755261,-33.681705],[-70.760317,-33.680376],[-70.760948,-33.676139],[-70.756523,-33.673233],[-70.757155,-33.668996],[-70.76221,-33.667666],[-70.762842,-33.663428],[-70.767897,-33.662097],[-70.768493,-33.658099],[-70.76931,-33.657809],[-70.770988,-33.657212],[-70.773584,-33.656528],[-70.773623,-33.656269],[-70.774122,-33.65609],[-70.774814,-33.65584],[-70.777851,-33.654754],[-70.780646,-33.653764],[-70.782486,-33.65307],[-70.783696,-33.653865],[-70.783065,-33.658103],[-70.778009,-33.659435],[-70.777378,-33.663673],[-70.781803,-33.666579],[-70.781172,-33.670817],[-70.785598,-33.673723],[-70.784967,-33.67796],[-70.77991,-33.679291],[-70.779279,-33.683527],[-70.783705,-33.686433],[-70.783074,-33.690669],[-70.778017,-33.692],[-70.773591,-33.689094]]]},"properties":{"comuna":"San Bernardo","mancha_id":"13401-88b2c54c9bfffff","clase":"Bajo","nivel_medio":1.163,"nivel_medio_min":0.926,"nivel_medio_max":1.495,"pct_alto":6.0,"n_hexagonos":16,"area_ha":954.15}},{"type":"Feature","geometry":{"type":"Polygon","coordinates":[[[-70.729977,-33.55801],[-70.730608,-33.553766],[-70.735661,-33.552433],[-70.740082,-33.555343],[-70.739451,-33.559587],[-70.734398,-33.560921],[-70.729977,-33.55801]]]},"properties":{"comuna":"San Bernardo","mancha_id":"13401-88b2c54737fffff","clase":"Bajo","nivel_medio":0.804,"nivel_medio_min":0.804,"nivel_medio_max":0.804,"pct_alto":22.1,"n_hexagonos":1,"area_ha":63.66}},{"type":"Feature","geometry":{"type":"Polygon","coordinates":[[[-70.741976,-33.542609],[-70.737555,-33.539699],[-70.737847,-33.537731],[-70.738751,-33.538763],[-70.74159,-33.541993],[-70.742104,-33.542576],[-70.741976,-33.542609]]]},"properties":{"comuna":"San Bernardo","mancha_id":"13401-88b2c5472bfffff","clase":"Bajo","nivel_medio":1.376,"nivel_medio_min":1.376,"nivel_medio_max":1.376,"pct_alto":40.4,"n_hexagonos":1,"area_ha":5.31}},{"type":"Feature","geometry":{"type":"Polygon","coordinates":[[[-70.73339,-33.532641],[-70.728713,-33.533876],[-70.728081,-33.538122],[-70.72303,-33.539455],[-70.722398,-33.5437],[-70.726819,-33.546611],[-70.726187,-33.550856],[-70.721135,-33.552189],[-70.716715,-33.549278],[-70.717346,-33.545033],[-70.712926,-33.542122],[-70.707874,-33.543455],[-70.703455,-33.540543],[-70.704086,-33.536299],[-70.700129,-33.533692],[-70.700254,-33.533646],[-70.701298,-33.533254],[-70.701865,-33.533052],[-70.702694,-33.53278],[-70.704804,-33.53203],[-70.705476,-33.531772],[-70.705943,-33.531585],[-70.706384,-33.531412],[-70.707437,-33.531002],[-70.708738,-33.530502],[-70.709187,-33.530337],[-70.709769,-33.530721],[-70.709138,-33.534966],[-70.713558,-33.537877],[-70.718609,-33.536544],[-70.719241,-33.532299],[-70.714821,-33.529387],[-70.715,-33.52818],[-70.715164,-33.52812],[-70.716168,-33.527739],[-70.716852,-33.527481],[-70.718562,-33.526852],[-70.720089,-33.52628],[-70.721718,-33.525675],[-70.722626,-33.525348],[-70.722763,-33.525297],[-70.724924,-33.52672],[-70.727865,-33.525943],[-70.729739,-33.52822],[-70.731416,-33.530314],[-70.73339,-33.532641]]]},"properties":{"comuna":"San Bernardo","mancha_id":"13401-88b2c54701fffff","clase":"Bajo","nivel_medio":0.853,"nivel_medio_min":0.541,"nivel_medio_max":1.305,"pct_alto":23.0,"n_hexagonos":7,"area_ha":376.15}},{"type":"Feature","geometry":{"type":"Polygon","coordinates":[[[-70.720504,-33.621634],[-70.715451,-33.622964],[-70.714819,-33.627203],[-70.719241,-33.630112],[-70.718609,-33.634351],[-70.713556,-33.63568],[-70.712924,-33.639918],[-70.717346,-33.642827],[-70.716714,-33.647065],[-70.71166,-33.648394],[-70.711029,-33.652631],[-70.705975,-33.65396],[-70.701553,-33.651051],[-70.702185,-33.646814],[-70.697764,-33.643905],[-70.698396,-33.639667],[-70.703449,-33.638339],[-70.704081,-33.634101],[-70.69966,-33.631191],[-70.700292,-33.626953],[-70.695871,-33.624044],[-70.696503,-33.619805],[-70.701555,-33.618475],[-70.702187,-33.614236],[-70.70724,-33.612906],[-70.707872,-33.608666],[-70.712925,-33.607336],[-70.717346,-33.610245],[-70.716714,-33.614485],[-70.721136,-33.617394],[-70.720504,-33.621634]]]},"properties":{"comuna":"San Bernardo","mancha_id":"13401-88b2c54581fffff","clase":"Bajo","nivel_medio":0.894,"nivel_medio_min":0.549,"nivel_medio_max":1.227,"pct_alto":21.9,"n_hexagonos":11,"area_ha":698.87}},{"type":"Feature","geometry":{"type":"Polygon","coordinates":[[[-70.656085,-33.63043],[-70.656718,-33.626193],[-70.661769,-33.624865],[-70.666189,-33.627776],[-70.671241,-33.626448],[-70.675661,-33.629358],[-70.675028,-33.633596],[-70.669976,-33.634923],[-70.665557,-33.632013],[-70.660505,-33.633341],[-70.659872,-33.637578],[-70.65482,-33.638905],[-70.650401,-33.635994],[-70.651034,-33.631757],[-70.656085,-33.63043]]]},"properties":{"comuna":"San Bernardo","mancha_id":"13401-88b2c544b5fffff","clase":"Bajo","nivel_medio":1.264,"nivel_medio_min":1.045,"nivel_medio_max":1.425,"pct_alto":12.7,"n_hexagonos":3,"area_ha":190.5}},{"type":"Feature","geometry":{"type":"Polygon","coordinates":[[[-70.676925,-33.620881],[-70.677557,-33.616643],[-70.673138,-33.613732],[-70.67377,-33.609493],[-70.670635,-33.607429],[-70.670606,-33.607323],[-70.669679,-33.60468],[-70.669647,-33.604591],[-70.669983,-33.602343],[-70.675034,-33.601014],[-70.679454,-33.603925],[-70.678822,-33.608164],[-70.683241,-33.611075],[-70.682609,-33.615314],[-70.68703,-33.618224],[-70.686398,-33.622463],[-70.690818,-33.625373],[-70.690186,-33.629611],[-70.685133,-33.630939],[-70.680713,-33.62803],[-70.681345,-33.623791],[-70.676925,-33.620881]]]},"properties":{"comuna":"San Bernardo","mancha_id":"13401-88b2c544a5fffff","clase":"Bajo","nivel_medio":0.757,"nivel_medio_min":0.517,"nivel_medio_max":0.973,"pct_alto":16.7,"n_hexagonos":4,"area_ha":252.68}},{"type":"Feature","geometry":{"type":"Polygon","coordinates":[[[-70.692721,-33.547452],[-70.692089,-33.551696],[-70.691169,-33.551938],[-70.690712,-33.550943],[-70.69049,-33.55041],[-70.69008,-33.54953],[-70.689509,-33.548289],[-70.689355,-33.54796],[-70.689237,-33.547707],[-70.689012,-33.547224],[-70.688809,-33.546789],[-70.688453,-33.546011],[-70.688077,-33.545179],[-70.687844,-33.544661],[-70.688301,-33.54454],[-70.692721,-33.547452]]]},"properties":{"comuna":"San Bernardo","mancha_id":"13401-88b2c54441fffff","clase":"Bajo","nivel_medio":0.713,"nivel_medio_min":0.713,"nivel_medio_max":0.713,"pct_alto":16.1,"n_hexagonos":1,"area_ha":16.37}},{"type":"Feature","geometry":{"type":"Polygon","coordinates":[[[-70.707241,-33.580311],[-70.707873,-33.576069],[-70.712925,-33.574737],[-70.713557,-33.570495],[-70.718609,-33.569162],[-70.719241,-33.564919],[-70.724293,-33.563587],[-70.728714,-33.566497],[-70.728083,-33.57074],[-70.72303,-33.572073],[-70.722399,-33.576315],[-70.717346,-33.577647],[-70.716715,-33.581889],[-70.711662,-33.583221],[-70.707241,-33.580311]]]},"properties":{"comuna":"San Bernardo","mancha_id":"13401-88b2c54421fffff","clase":"Bajo","nivel_medio":0.92,"nivel_medio_min":0.729,"nivel_medio_max":1.133,"pct_alto":11.2,"n_hexagonos":3,"area_ha":190.86}},{"type":"Feature","geometry":{"type":"Polygon","coordinates":[[[-70.700296,-33.561762],[-70.699664,-33.566005],[-70.697854,-33.566482],[-70.697203,-33.565041],[-70.696827,-33.564243],[-70.696727,-33.564021],[-70.696716,-33.563971],[-70.696732,-33.563912],[-70.696753,-33.563868],[-70.696819,-33.563826],[-70.696901,-33.563795],[-70.696963,-33.563768],[-70.697018,-33.563742],[-70.697061,-33.563702],[-70.697105,-33.563655],[-70.697116,-33.563596],[-70.6971,-33.563492],[-70.697043,-33.563246],[-70.696887,-33.562583],[-70.696614,-33.561296],[-70.696145,-33.559028],[-70.700296,-33.561762]]]},"properties":{"comuna":"San Bernardo","mancha_id":"13401-88b2c5440dfffff","clase":"Bajo","nivel_medio":0.546,"nivel_medio_min":0.546,"nivel_medio_max":0.546,"pct_alto":17.5,"n_hexagonos":1,"area_ha":18.4}},{"type":"Feature","geometry":{"type":"Polygon","coordinates":[[[-70.805848,-33.733506],[-70.810276,-33.73641],[-70.810135,-33.737358],[-70.809367,-33.737146],[-70.808658,-33.736987],[-70.80779,-33.736671],[-70.807218,-33.736183],[-70.806772,-33.735653],[-70.806242,-33.735017],[-70.805479,-33.734529],[-70.804694,-33.734169],[-70.804228,-33.733932],[-70.805848,-33.733506]]]},"properties":{"comuna":"San Bernardo","mancha_id":"13401-88b2c0b61bfffff","clase":"Bajo","nivel_medio":0.917,"nivel_medio_min":0.917,"nivel_medio_max":0.917,"pct_alto":5.7,"n_hexagonos":1,"area_ha":7.8}},{"type":"Feature","geometry":{"type":"Polygon","coordinates":[[[-70.82356,-33.74512],[-70.82293,-33.749353],[-70.825485,-33.751027],[-70.825489,-33.751079],[-70.824366,-33.751826],[-70.823919,-33.752126],[-70.823776,-33.752222],[-70.82366,-33.7523],[-70.823573,-33.752354],[-70.82312,-33.75264],[-70.82262,-33.75296],[-70.82243,-33.75307],[-70.822141,-33.753256],[-70.82122,-33.75385],[-70.82075,-33.75419],[-70.82046,-33.75439],[-70.82004,-33.75468],[-70.819778,-33.754862],[-70.819196,-33.754531],[-70.818855,-33.75423],[-70.818602,-33.753679],[-70.818249,-33.753095],[-70.817879,-33.752616],[-70.817626,-33.752321],[-70.817368,-33.752021],[-70.816837,-33.751319],[-70.816421,-33.750646],[-70.816135,-33.750043],[-70.816136,-33.75],[-70.816148,-33.749553],[-70.816156,-33.749235],[-70.816284,-33.748427],[-70.816291,-33.747619],[-70.816198,-33.747252],[-70.816051,-33.746979],[-70.815724,-33.746778],[-70.815165,-33.746483],[-70.814729,-33.746177],[-70.814349,-33.7457],[-70.814142,-33.745116],[-70.813918,-33.744586],[-70.814073,-33.743547],[-70.819132,-33.742216],[-70.82356,-33.74512]]]},"properties":{"comuna":"San Bernardo","mancha_id":"13401-88b2c0b617fffff","clase":"Bajo","nivel_medio":1.248,"nivel_medio_min":0.594,"nivel_medio_max":1.494,"pct_alto":12.2,"n_hexagonos":3,"area_ha":83.27}},{"type":"Feature","geometry":{"type":"Polygon","coordinates":[[[-70.773623,-33.656269],[-70.773584,-33.656528],[-70.770988,-33.657212],[-70.771151,-33.657154],[-70.771428,-33.657056],[-70.773623,-33.656269]]]},"properties":{"comuna":"San Bernardo","mancha_id":"13401-88b2c57b6dfffff","clase":"Medio","nivel_medio":2.001,"nivel_medio_min":2.001,"nivel_medio_max":2.001,"pct_alto":0.1,"n_hexagonos":1,"area_ha":0.33}},{"type":"Feature","geometry":{"type":"Polygon","coordinates":[[[-70.76411,-33.687518],[-70.764741,-33.683282],[-70.769797,-33.681952],[-70.774223,-33.684858],[-70.773591,-33.689094],[-70.768535,-33.690424],[-70.76411,-33.687518]]]},"properties":{"comuna":"San Bernardo","mancha_id":"13401-88b2c57b27fffff","clase":"Medio","nivel_medio":1.752,"nivel_medio_min":1.752,"nivel_medio_max":1.752,"pct_alto":12.3,"n_hexagonos":1,"area_ha":63.49}},{"type":"Feature","geometry":{"type":"Polygon","coordinates":[[[-70.747044,-33.671656],[-70.747675,-33.667419],[-70.75273,-33.666089],[-70.753232,-33.662725],[-70.753294,-33.662708],[-70.753396,-33.662682],[-70.753598,-33.66263],[-70.753742,-33.662594],[-70.75382,-33.662574],[-70.753886,-33.662575],[-70.753983,-33.662578],[-70.754119,-33.662581],[-70.754286,-33.662585],[-70.754422,-33.662585],[-70.754657,-33.662585],[-70.754822,-33.662585],[-70.754917,-33.662585],[-70.755057,-33.662596],[-70.755198,-33.662607],[-70.755338,-33.662618],[-70.755479,-33.662629],[-70.755596,-33.662639],[-70.755693,-33.662641],[-70.755884,-33.662646],[-70.756059,-33.66265],[-70.756183,-33.662644],[-70.756255,-33.662641],[-70.756296,-33.662639],[-70.756448,-33.662632],[-70.756623,-33.662624],[-70.756943,-33.662663],[-70.757309,-33.66265],[-70.758265,-33.66225],[-70.759759,-33.66165],[-70.759983,-33.66156],[-70.759993,-33.661556],[-70.760322,-33.661431],[-70.760488,-33.661368],[-70.760883,-33.661218],[-70.76171,-33.660906],[-70.762438,-33.66063],[-70.7626,-33.660569],[-70.762799,-33.660423],[-70.763192,-33.66022],[-70.763946,-33.659916],[-70.765032,-33.65952],[-70.765572,-33.659321],[-70.766027,-33.659072],[-70.766243,-33.658952],[-70.766804,-33.658712],[-70.767798,-33.658346],[-70.768493,-33.658099],[-70.767897,-33.662097],[-70.762842,-33.663428],[-70.76221,-33.667666],[-70.757155,-33.668996],[-70.756523,-33.673233],[-70.760948,-33.676139],[-70.760317,-33.680376],[-70.755261,-33.681705],[-70.750836,-33.678799],[-70.751468,-33.674563],[-70.747044,-33.671656]]]},"properties":{"comuna":"San Bernardo","mancha_id":"13401-88b2c57b05fffff","clase":"Medio","nivel_medio":1.579,"nivel_medio_min":1.513,"nivel_medio_max":1.691,"pct_alto":14.0,"n_hexagonos":4,"area_ha":205.17}},{"type":"Feature","geometry":{"type":"Polygon","coordinates":[[[-70.771698,-33.7018],[-70.772329,-33.697565],[-70.777386,-33.696235],[-70.781812,-33.699141],[-70.781181,-33.703376],[-70.776124,-33.704706],[-70.771698,-33.7018]]]},"properties":{"comuna":"San Bernardo","mancha_id":"13401-88b2c57945fffff","clase":"Medio","nivel_medio":2.475,"nivel_medio_min":2.475,"nivel_medio_max":2.475,"pct_alto":65.0,"n_hexagonos":1,"area_ha":63.48}},{"type":"Feature","geometry":{"type":"Polygon","coordinates":[[[-70.785209,-33.724734],[-70.785061,-33.724517],[-70.785838,-33.725027],[-70.785209,-33.724734]]]},"properties":{"comuna":"San Bernardo","mancha_id":"13401-88b2c5792bfffff","clase":"Medio","nivel_medio":1.845,"nivel_medio_min":1.845,"nivel_medio_max":1.845,"pct_alto":61.5,"n_hexagonos":1,"area_ha":0.05}},{"type":"Feature","geometry":{"type":"Polygon","coordinates":[[[-70.721788,-33.687614],[-70.724928,-33.689678],[-70.724676,-33.69137],[-70.723922,-33.690773],[-70.723472,-33.690006],[-70.722979,-33.689349],[-70.722421,-33.68843],[-70.721928,-33.68774],[-70.721788,-33.687614]]]},"properties":{"comuna":"San Bernardo","mancha_id":"13401-88b2c57869fffff","clase":"Medio","nivel_medio":1.817,"nivel_medio_min":1.817,"nivel_medio_max":1.817,"pct_alto":54.9,"n_hexagonos":1,"area_ha":3.41}},{"type":"Feature","geometry":{"type":"Polygon","coordinates":[[[-70.783998,-33.653786],[-70.783696,-33.653865],[-70.782486,-33.65307],[-70.782814,-33.652946],[-70.783339,-33.653115],[-70.783998,-33.653786]]]},"properties":{"comuna":"San Bernardo","mancha_id":"13401-88b2c54eb1fffff","clase":"Medio","nivel_medio":2.223,"nivel_medio_min":2.223,"nivel_medio_max":2.223,"pct_alto":55.1,"n_hexagonos":1,"area_ha":0.51}},{"type":"Feature","geometry":{"type":"Polygon","coordinates":[[[-70.79773,-33.681299],[-70.797565,-33.681579],[-70.797182,-33.682233],[-70.796419,-33.683172],[-70.796153,-33.683725],[-70.79579,-33.684426],[-70.795875,-33.684888],[-70.795788,-33.685245],[-70.795964,-33.685842],[-70.796069,-33.686439],[-70.796069,-33.687036],[-70.79593,-33.687286],[-70.793188,-33.688008],[-70.788762,-33.685102],[-70.783705,-33.686433],[-70.779279,-33.683527],[-70.77991,-33.679291],[-70.784967,-33.67796],[-70.785598,-33.673723],[-70.781172,-33.670817],[-70.781803,-33.666579],[-70.777378,-33.663673],[-70.778009,-33.659435],[-70.783065,-33.658103],[-70.787491,-33.66101],[-70.78686,-33.665248],[-70.791285,-33.668154],[-70.796342,-33.666822],[-70.800768,-33.669728],[-70.800137,-33.673965],[-70.801277,-33.674714],[-70.801208,-33.674843],[-70.800569,-33.675411],[-70.800511,-33.675736],[-70.800373,-33.676073],[-70.800096,-33.676389],[-70.799757,-33.67682],[-70.799739,-33.677419],[-70.799521,-33.677875],[-70.79906,-33.67829],[-70.798947,-33.678726],[-70.798961,-33.679214],[-70.798985,-33.679566],[-70.798437,-33.680739],[-70.79773,-33.681299]]]},"properties":{"comuna":"San Bernardo","mancha_id":"13401-88b2c54c8bfffff","clase":"Medio","nivel_medio":1.988,"nivel_medio_min":1.542,"nivel_medio_max":2.461,"pct_alto":47.7,"n_hexagonos":7,"area_ha":399.81}},{"type":"Feature","geometry":{"type":"Polygon","coordinates":[[[-70.709138,-33.534966],[-70.709769,-33.530721],[-70.709187,-33.530337],[-70.710548,-33.52984],[-70.711261,-33.529587],[-70.712666,-33.529064],[-70.713673,-33.528674],[-70.715,-33.52818],[-70.714821,-33.529387],[-70.719241,-33.532299],[-70.718609,-33.536544],[-70.713558,-33.537877],[-70.709138,-33.534966]]]},"properties":{"comuna":"San Bernardo","mancha_id":"13401-88b2c5471dfffff","clase":"Medio","nivel_medio":1.596,"nivel_medio_min":1.58,"nivel_medio_max":1.811,"pct_alto":37.7,"n_hexagonos":2,"area_ha":68.43}},{"type":"Feature","geometry":{"type":"Polygon","coordinates":[[[-70.733771,-33.63036],[-70.734403,-33.626121],[-70.72998,-33.623212],[-70.730612,-33.618973],[-70.735665,-33.617642],[-70.736297,-33.613402],[-70.731875,-33.610493],[-70.732506,-33.606252],[-70.73756,-33.60492],[-70.738191,-33.60068],[-70.743245,-33.599347],[-70.747667,-33.602256],[-70.747036,-33.606497],[-70.750792,-33.608968],[-70.750521,-33.609674],[-70.750094,-33.610649],[-70.75,-33.610781],[-70.749485,-33.611502],[-70.748875,-33.612112],[-70.747961,-33.613818],[-70.747305,-33.614575],[-70.74672,-33.61525],[-70.7467,-33.61757],[-70.74718,-33.61796],[-70.74771,-33.6184],[-70.748187,-33.618643],[-70.748404,-33.618753],[-70.748595,-33.61885],[-70.74887,-33.61899],[-70.7496,-33.61934],[-70.75,-33.619489],[-70.75003,-33.6195],[-70.75015,-33.61954],[-70.751197,-33.619863],[-70.751741,-33.62003],[-70.75213,-33.62015],[-70.75223,-33.62018],[-70.75286,-33.62031],[-70.75322,-33.62046],[-70.75367,-33.62063],[-70.75432,-33.62076],[-70.75456,-33.620811],[-70.754684,-33.620838],[-70.75474,-33.62085],[-70.75501,-33.62089],[-70.75527,-33.62093],[-70.75569,-33.62096],[-70.755781,-33.620983],[-70.75572,-33.62105],[-70.75568,-33.62116],[-70.75567,-33.62125],[-70.755577,-33.621425],[-70.755545,-33.621484],[-70.75544,-33.62168],[-70.75529,-33.62189],[-70.75508,-33.62205],[-70.75475,-33.62226],[-70.75403,-33.62279],[-70.7538,-33.62297],[-70.75347,-33.62341],[-70.75297,-33.62403],[-70.75299,-33.62496],[-70.75296,-33.62514],[-70.75284,-33.62556],[-70.7527,-33.62583],[-70.75213,-33.627],[-70.75107,-33.62748],[-70.75094,-33.62755],[-70.750818,-33.627606],[-70.75,-33.627982],[-70.74996,-33.628],[-70.74926,-33.6284],[-70.7488,-33.62856],[-70.74841,-33.62869],[-70.74786,-33.62911],[-70.74778,-33.62975],[-70.74757,-33.63036],[-70.74736,-33.63064],[-70.74694,-33.63121],[-70.74681,-33.63139],[-70.74589,-33.63235],[-70.74504,-33.63297],[-70.744935,-33.633047],[-70.74455,-33.63333],[-70.74433,-33.63348],[-70.74372,-33.63392],[-70.74329,-33.63434],[-70.7431,-33.63467],[-70.742948,-33.635578],[-70.74284,-33.63622],[-70.74271,-33.63686],[-70.74222,-33.63734],[-70.74137,-33.63791],[-70.7411,-33.63834],[-70.740848,-33.639284],[-70.740761,-33.63961],[-70.737562,-33.637507],[-70.738194,-33.633268],[-70.733771,-33.63036]]]},"properties":{"comuna":"San Bernardo","mancha_id":"13401-88b2c545a1fffff","clase":"Medio","nivel_medio":2.049,"nivel_medio_min":1.517,"nivel_medio_max":2.443,"pct_alto":34.7,"n_hexagonos":12,"area_ha":539.38}},{"type":"Feature","geometry":{"type":"Polygon","coordinates":[[[-70.716714,-33.614485],[-70.717346,-33.610245],[-70.712925,-33.607336],[-70.713556,-33.603095],[-70.718609,-33.601765],[-70.723031,-33.604674],[-70.722399,-33.608915],[-70.726821,-33.611824],[-70.72619,-33.616064],[-70.721136,-33.617394],[-70.716714,-33.614485]]]},"properties":{"comuna":"San Bernardo","mancha_id":"13401-88b2c5458dfffff","clase":"Medio","nivel_medio":1.974,"nivel_medio_min":1.779,"nivel_medio_max":2.168,"pct_alto":47.6,"n_hexagonos":2,"area_ha":127.14}},{"type":"Feature","geometry":{"type":"Polygon","coordinates":[[[-70.714819,-33.627203],[-70.715451,-33.622964],[-70.720504,-33.621634],[-70.724926,-33.624543],[-70.724295,-33.628782],[-70.719241,-33.630112],[-70.714819,-33.627203]]]},"properties":{"comuna":"San Bernardo","mancha_id":"13401-88b2c54587fffff","clase":"Medio","nivel_medio":2.069,"nivel_medio_min":2.069,"nivel_medio_max":2.069,"pct_alto":61.7,"n_hexagonos":1,"area_ha":63.55}},{"type":"Feature","geometry":{"type":"Polygon","coordinates":[[[-70.668499,-33.601366],[-70.669983,-33.602343],[-70.669647,-33.604591],[-70.668868,-33.602365],[-70.668499,-33.601366]]]},"properties":{"comuna":"San Bernardo","mancha_id":"13401-88b2c544e3fffff","clase":"Medio","nivel_medio":1.52,"nivel_medio_min":1.52,"nivel_medio_max":1.52,"pct_alto":40.8,"n_hexagonos":1,"area_ha":1.86}},{"type":"Feature","geometry":{"type":"Polygon","coordinates":[[[-70.667454,-33.619299],[-70.668086,-33.615061],[-70.673138,-33.613732],[-70.677557,-33.616643],[-70.676925,-33.620881],[-70.671873,-33.62221],[-70.671241,-33.626448],[-70.666189,-33.627776],[-70.661769,-33.624865],[-70.656718,-33.626193],[-70.656085,-33.63043],[-70.651034,-33.631757],[-70.650401,-33.635994],[-70.65482,-33.638905],[-70.659872,-33.637578],[-70.660505,-33.633341],[-70.665557,-33.632013],[-70.669976,-33.634923],[-70.675028,-33.633596],[-70.675661,-33.629358],[-70.680713,-33.62803],[-70.685133,-33.630939],[-70.690186,-33.629611],[-70.690818,-33.625373],[-70.695871,-33.624044],[-70.700292,-33.626953],[-70.69966,-33.631191],[-70.704081,-33.634101],[-70.703449,-33.638339],[-70.698396,-33.639667],[-70.697764,-33.643905],[-70.702185,-33.646814],[-70.701553,-33.651051],[-70.705975,-33.65396],[-70.711029,-33.652631],[-70.71166,-33.648394],[-70.716714,-33.647065],[-70.717346,-33.642827],[-70.712924,-33.639918],[-70.713556,-33.63568],[-70.718609,-33.634351],[-70.723032,-33.637259],[-70.7224,-33.641498],[-70.726822,-33.644406],[-70.731876,-33.643076],[-70.736185,-33.645909],[-70.735383,-33.646132],[-70.735475,-33.646363],[-70.735557,-33.646609],[-70.735567,-33.646705],[-70.735583,-33.647103],[-70.735618,-33.647369],[-70.735624,-33.647411],[-70.735701,-33.647832],[-70.735731,-33.647944],[-70.735828,-33.648322],[-70.735904,-33.648638],[-70.735668,-33.650222],[-70.736412,-33.650711],[-70.736537,-33.651192],[-70.736643,-33.651645],[-70.736716,-33.651898],[-70.736827,-33.652299],[-70.736855,-33.652417],[-70.736869,-33.652472],[-70.73696,-33.652853],[-70.737043,-33.653239],[-70.737166,-33.653913],[-70.737448,-33.655017],[-70.737559,-33.655433],[-70.737678,-33.655832],[-70.73783,-33.65623],[-70.737976,-33.656603],[-70.738295,-33.657147],[-70.738578,-33.657599],[-70.738678,-33.65776],[-70.739024,-33.658363],[-70.739459,-33.659114],[-70.739919,-33.659854],[-70.740186,-33.660342],[-70.74065,-33.661246],[-70.740725,-33.661393],[-70.740893,-33.661711],[-70.741042,-33.661995],[-70.741214,-33.662319],[-70.741426,-33.662655],[-70.741776,-33.663197],[-70.741836,-33.6633],[-70.742397,-33.663318],[-70.742855,-33.663312],[-70.743392,-33.663369],[-70.743421,-33.663374],[-70.743251,-33.664512],[-70.738196,-33.665841],[-70.737565,-33.670078],[-70.741988,-33.672985],[-70.741357,-33.677221],[-70.745781,-33.680128],[-70.745149,-33.684364],[-70.749573,-33.687271],[-70.748942,-33.691506],[-70.753366,-33.694412],[-70.758423,-33.693083],[-70.762847,-33.695989],[-70.762216,-33.700224],[-70.758055,-33.701318],[-70.757614,-33.701118],[-70.757035,-33.700787],[-70.756553,-33.700429],[-70.755988,-33.700181],[-70.755685,-33.700249],[-70.755585,-33.700519],[-70.752735,-33.698647],[-70.748903,-33.699654],[-70.748891,-33.699643],[-70.748368,-33.698913],[-70.747872,-33.69832],[-70.747362,-33.698086],[-70.746618,-33.697893],[-70.746223,-33.697846],[-70.745777,-33.697706],[-70.745443,-33.697376],[-70.744777,-33.697174],[-70.743995,-33.697058],[-70.743415,-33.696855],[-70.743293,-33.696816],[-70.742604,-33.696594],[-70.741851,-33.696421],[-70.741244,-33.696295],[-70.740761,-33.695992],[-70.740464,-33.695622],[-70.73988,-33.695325],[-70.739185,-33.695137],[-70.738402,-33.695093],[-70.737622,-33.695291],[-70.737046,-33.695303],[-70.736495,-33.695259],[-70.736087,-33.695148],[-70.735481,-33.694972],[-70.735016,-33.694683],[-70.73435,-33.694422],[-70.733959,-33.694257],[-70.734407,-33.691257],[-70.739462,-33.689928],[-70.740094,-33.685693],[-70.73567,-33.682786],[-70.730615,-33.684115],[-70.726192,-33.681208],[-70.726823,-33.676972],[-70.7224,-33.674064],[-70.723032,-33.669828],[-70.71861,-33.666921],[-70.713555,-33.668249],[-70.709133,-33.665341],[-70.707338,-33.665813],[-70.706887,-33.665572],[-70.706329,-33.665506],[-70.705606,-33.665441],[-70.704555,-33.665441],[-70.7038,-33.665211],[-70.702946,-33.664948],[-70.701304,-33.664751],[-70.701081,-33.664697],[-70.699657,-33.663761],[-70.700289,-33.659525],[-70.695868,-33.656616],[-70.690814,-33.657944],[-70.686393,-33.655035],[-70.68134,-33.656362],[-70.67692,-33.653453],[-70.671867,-33.65478],[-70.667447,-33.651871],[-70.668079,-33.647634],[-70.663659,-33.644725],[-70.658607,-33.646051],[-70.657975,-33.650288],[-70.653699,-33.65141],[-70.653344,-33.651147],[-70.652624,-33.650731],[-70.651931,-33.650426],[-70.651044,-33.650205],[-70.650724,-33.650166],[-70.648504,-33.648704],[-70.646887,-33.649128],[-70.646335,-33.648986],[-70.645864,-33.648625],[-70.645393,-33.64821],[-70.644783,-33.647877],[-70.644232,-33.647801],[-70.643465,-33.647904],[-70.642802,-33.647949],[-70.642108,-33.647904],[-70.64132,-33.647739],[-70.640766,-33.647536],[-70.640239,-33.647268],[-70.639755,-33.647087],[-70.639103,-33.646908],[-70.639067,-33.646894],[-70.638522,-33.646686],[-70.638258,-33.64647],[-70.638026,-33.646208],[-70.637764,-33.645791],[-70.637564,-33.645498],[-70.637255,-33.645205],[-70.636931,-33.644973],[-70.636499,-33.64485],[-70.635882,-33.644757],[-70.635126,-33.644634],[-70.634648,-33.644696],[-70.634015,-33.64485],[-70.633166,-33.644819],[-70.632777,-33.644675],[-70.632457,-33.644557],[-70.631917,-33.644048],[-70.631266,-33.643655],[-70.630901,-33.641114],[-70.630573,-33.63884],[-70.630239,-33.636225],[-70.629749,-33.633275],[-70.629743,-33.633242],[-70.629436,-33.631362],[-70.628948,-33.628965],[-70.628627,-33.627388],[-70.629669,-33.627374],[-70.630237,-33.627364],[-70.632094,-33.628588],[-70.631462,-33.632825],[-70.63588,-33.635736],[-70.640931,-33.63441],[-70.641564,-33.630173],[-70.646615,-33.628847],[-70.647248,-33.624609],[-70.652299,-33.623282],[-70.652931,-33.619044],[-70.657983,-33.617717],[-70.662402,-33.620627],[-70.667454,-33.619299]],[[-70.673132,-33.646307],[-70.677552,-33.649217],[-70.682605,-33.647889],[-70.683237,-33.643652],[-70.678816,-33.640743],[-70.673764,-33.64207],[-70.673132,-33.646307]]]},"properties":{"comuna":"San Bernardo","mancha_id":"13401-88b2c544a1fffff","clase":"Medio","nivel_medio":1.986,"nivel_medio_min":1.512,"nivel_medio_max":2.48,"pct_alto":38.8,"n_hexagonos":50,"area_ha":2998.28}},{"type":"Feature","geometry":{"type":"Polygon","coordinates":[[[-70.654196,-33.610567],[-70.649145,-33.611895],[-70.645778,-33.609676],[-70.64741,-33.609537],[-70.649814,-33.609333],[-70.651473,-33.609191],[-70.652795,-33.609076],[-70.654213,-33.608953],[-70.65444,-33.608933],[-70.654196,-33.610567]]]},"properties":{"comuna":"San Bernardo","mancha_id":"13401-88b2c54481fffff","clase":"Medio","nivel_medio":2.346,"nivel_medio_min":2.346,"nivel_medio_max":2.346,"pct_alto":52.5,"n_hexagonos":1,"area_ha":15.24}},{"type":"Feature","geometry":{"type":"Polygon","coordinates":[[[-70.716715,-33.581889],[-70.717346,-33.577647],[-70.722399,-33.576315],[-70.72682,-33.579226],[-70.731873,-33.577893],[-70.736295,-33.580803],[-70.741348,-33.57947],[-70.741979,-33.575227],[-70.747032,-33.573894],[-70.747663,-33.569651],[-70.743241,-33.566741],[-70.738188,-33.568074],[-70.733767,-33.565164],[-70.728714,-33.566497],[-70.724293,-33.563587],[-70.724925,-33.559343],[-70.720504,-33.556433],[-70.721135,-33.552189],[-70.726187,-33.550856],[-70.726819,-33.546611],[-70.731871,-33.545278],[-70.732502,-33.541033],[-70.728081,-33.538122],[-70.728713,-33.533876],[-70.73339,-33.532641],[-70.733662,-33.532962],[-70.73413,-33.533464],[-70.735066,-33.534524],[-70.73681,-33.536547],[-70.737847,-33.537731],[-70.737555,-33.539699],[-70.741976,-33.542609],[-70.741345,-33.546854],[-70.736292,-33.548188],[-70.735661,-33.552433],[-70.730608,-33.553766],[-70.729977,-33.55801],[-70.734398,-33.560921],[-70.739451,-33.559587],[-70.740082,-33.555343],[-70.745135,-33.554009],[-70.749557,-33.55692],[-70.748926,-33.561164],[-70.753348,-33.564074],[-70.758401,-33.562739],[-70.758645,-33.5611],[-70.759337,-33.561879],[-70.761705,-33.564548],[-70.762488,-33.565428],[-70.762804,-33.565783],[-70.76281,-33.56579],[-70.763614,-33.566713],[-70.764189,-33.56745],[-70.766711,-33.57106],[-70.767261,-33.571796],[-70.765925,-33.572348],[-70.762193,-33.569893],[-70.757139,-33.571227],[-70.756508,-33.57547],[-70.751455,-33.576804],[-70.750823,-33.581047],[-70.74577,-33.58238],[-70.745139,-33.586622],[-70.740085,-33.587955],[-70.735663,-33.585045],[-70.73061,-33.586378],[-70.729979,-33.590619],[-70.7344,-33.593529],[-70.733769,-33.59777],[-70.728716,-33.599102],[-70.724294,-33.596192],[-70.724925,-33.591951],[-70.720504,-33.589041],[-70.715451,-33.590373],[-70.71103,-33.587463],[-70.711662,-33.583221],[-70.716715,-33.581889]]]},"properties":{"comuna":"San Bernardo","mancha_id":"13401-88b2c54425fffff","clase":"Medio","nivel_medio":2.019,"nivel_medio_min":1.607,"nivel_medio_max":2.477,"pct_alto":48.7,"n_hexagonos":19,"area_ha":1093.29}},{"type":"Feature","geometry":{"type":"Polygon","coordinates":[[[-70.819132,-33.742216],[-70.814073,-33.743547],[-70.813427,-33.743123],[-70.813339,-33.742669],[-70.813347,-33.741852],[-70.813274,-33.741357],[-70.813261,-33.741271],[-70.813239,-33.741124],[-70.812988,-33.740533],[-70.812857,-33.740382],[-70.812479,-33.739949],[-70.812062,-33.739624],[-70.811728,-33.739123],[-70.811311,-33.738431],[-70.811094,-33.738022],[-70.810777,-33.737663],[-70.810243,-33.737388],[-70.810135,-33.737358],[-70.810276,-33.73641],[-70.805848,-33.733506],[-70.804228,-33.733932],[-70.803231,-33.733427],[-70.802277,-33.732939],[-70.801578,-33.732579],[-70.801047,-33.732388],[-70.799712,-33.732091],[-70.798673,-33.731667],[-70.798482,-33.731507],[-70.798277,-33.731335],[-70.797712,-33.731061],[-70.797019,-33.730925],[-70.796816,-33.730935],[-70.796509,-33.73095],[-70.796994,-33.727698],[-70.792567,-33.724794],[-70.793198,-33.72056],[-70.788771,-33.717655],[-70.789402,-33.713421],[-70.784976,-33.710516],[-70.785607,-33.706281],[-70.790664,-33.704951],[-70.79509,-33.707856],[-70.79446,-33.712091],[-70.798886,-33.714995],[-70.798255,-33.71923],[-70.802683,-33.722134],[-70.802052,-33.726368],[-70.806479,-33.729272],[-70.811537,-33.727942],[-70.815965,-33.730846],[-70.815335,-33.73508],[-70.819763,-33.737983],[-70.819132,-33.742216]]]},"properties":{"comuna":"San Bernardo","mancha_id":"13401-88b2c0b611fffff","clase":"Medio","nivel_medio":1.825,"nivel_medio_min":1.56,"nivel_medio_max":2.157,"pct_alto":34.6,"n_hexagonos":6,"area_ha":357.25}},{"type":"Feature","geometry":{"type":"Polygon","coordinates":[[[-70.729983,-33.68835],[-70.730615,-33.684115],[-70.73567,-33.682786],[-70.740094,-33.685693],[-70.739462,-33.689928],[-70.734407,-33.691257],[-70.729983,-33.68835]]]},"properties":{"comuna":"San Bernardo","mancha_id":"13401-88b2c57b3bfffff","clase":"Alto","nivel_medio":3.025,"nivel_medio_min":3.025,"nivel_medio_max":3.025,"pct_alto":81.8,"n_hexagonos":1,"area_ha":63.47}},{"type":"Feature","geometry":{"type":"Polygon","coordinates":[[[-70.673132,-33.646307],[-70.673764,-33.64207],[-70.678816,-33.640743],[-70.683237,-33.643652],[-70.682605,-33.647889],[-70.677552,-33.649217],[-70.673132,-33.646307]]]},"properties":{"comuna":"San Bernardo","mancha_id":"13401-88b2c57a47fffff","clase":"Alto","nivel_medio":2.969,"nivel_medio_min":2.969,"nivel_medio_max":2.969,"pct_alto":70.7,"n_hexagonos":1,"area_ha":63.49}},{"type":"Feature","geometry":{"type":"Polygon","coordinates":[[[-70.800137,-33.673965],[-70.800768,-33.669728],[-70.796342,-33.666822],[-70.791285,-33.668154],[-70.78686,-33.665248],[-70.787491,-33.66101],[-70.783065,-33.658103],[-70.783696,-33.653865],[-70.783998,-33.653786],[-70.784158,-33.653949],[-70.785297,-33.654824],[-70.7857,-33.655449],[-70.785881,-33.655949],[-70.786172,-33.656296],[-70.786825,-33.65663],[-70.787478,-33.657032],[-70.788145,-33.657477],[-70.788478,-33.657741],[-70.788839,-33.657991],[-70.789326,-33.658255],[-70.789937,-33.658616],[-70.790617,-33.659088],[-70.790909,-33.659283],[-70.791742,-33.659783],[-70.79183,-33.659867],[-70.792048,-33.660074],[-70.792409,-33.660547],[-70.792618,-33.660838],[-70.79277,-33.661283],[-70.793326,-33.661866],[-70.793382,-33.662311],[-70.793784,-33.662908],[-70.794284,-33.663311],[-70.794729,-33.663616],[-70.795173,-33.66388],[-70.795465,-33.664172],[-70.795937,-33.664519],[-70.796368,-33.664783],[-70.796507,-33.664908],[-70.796619,-33.664959],[-70.79709,-33.665172],[-70.797521,-33.665255],[-70.797813,-33.665269],[-70.798257,-33.665214],[-70.798479,-33.665311],[-70.798993,-33.665492],[-70.799507,-33.665825],[-70.799881,-33.66602],[-70.79962,-33.666605],[-70.799411,-33.667183],[-70.799625,-33.668044],[-70.800206,-33.668775],[-70.800764,-33.66961],[-70.800857,-33.669704],[-70.801543,-33.6704],[-70.802715,-33.671205],[-70.803953,-33.671545],[-70.804247,-33.671902],[-70.804404,-33.672193],[-70.80441,-33.67246],[-70.803561,-33.67244],[-70.802731,-33.672536],[-70.80195,-33.67259],[-70.801677,-33.672738],[-70.801762,-33.673246],[-70.801791,-33.674035],[-70.80133,-33.674616],[-70.801277,-33.674714],[-70.800137,-33.673965]]]},"properties":{"comuna":"San Bernardo","mancha_id":"13401-88b2c54c89fffff","clase":"Alto","nivel_medio":2.723,"nivel_medio_min":2.604,"nivel_medio_max":2.755,"pct_alto":75.4,"n_hexagonos":4,"area_ha":98.89}},{"type":"Feature","geometry":{"type":"Polygon","coordinates":[[[-70.722398,-33.5437],[-70.72303,-33.539455],[-70.728081,-33.538122],[-70.732502,-33.541033],[-70.731871,-33.545278],[-70.726819,-33.546611],[-70.722398,-33.5437]]]},"properties":{"comuna":"San Bernardo","mancha_id":"13401-88b2c54739fffff","clase":"Alto","nivel_medio":2.807,"nivel_medio_min":2.807,"nivel_medio_max":2.807,"pct_alto":87.6,"n_hexagonos":1,"area_ha":63.67}},{"type":"Feature","geometry":{"type":"Polygon","coordinates":[[[-70.728083,-33.57074],[-70.728714,-33.566497],[-70.733767,-33.565164],[-70.738188,-33.568074],[-70.743241,-33.566741],[-70.747663,-33.569651],[-70.747032,-33.573894],[-70.741979,-33.575227],[-70.741348,-33.57947],[-70.736295,-33.580803],[-70.731873,-33.577893],[-70.72682,-33.579226],[-70.722399,-33.576315],[-70.72303,-33.572073],[-70.728083,-33.57074]]]},"properties":{"comuna":"San Bernardo","mancha_id":"13401-88b2c54551fffff","clase":"Alto","nivel_medio":2.793,"nivel_medio_min":2.598,"nivel_medio_max":2.959,"pct_alto":70.8,"n_hexagonos":4,"area_ha":254.53}},{"type":"Feature","geometry":{"type":"Polygon","coordinates":[[[-70.748926,-33.561164],[-70.749557,-33.55692],[-70.745135,-33.554009],[-70.745766,-33.549765],[-70.747989,-33.549178],[-70.749039,-33.550346],[-70.749995,-33.551413],[-70.750023,-33.551448],[-70.751049,-33.552579],[-70.752082,-33.553733],[-70.753448,-33.555275],[-70.75387,-33.55575],[-70.753893,-33.555775],[-70.75513,-33.55713],[-70.755961,-33.5581],[-70.756791,-33.559021],[-70.757733,-33.560073],[-70.758645,-33.5611],[-70.758401,-33.562739],[-70.753348,-33.564074],[-70.748926,-33.561164]]]},"properties":{"comuna":"San Bernardo","mancha_id":"13401-88b2c54541fffff","clase":"Alto","nivel_medio":2.766,"nivel_medio_min":2.509,"nivel_medio_max":2.945,"pct_alto":85.6,"n_hexagonos":2,"area_ha":92.97}},{"type":"Feature","geometry":{"type":"Polygon","coordinates":[[[-70.751455,-33.576804],[-70.756508,-33.57547],[-70.757139,-33.571227],[-70.762193,-33.569893],[-70.765925,-33.572348],[-70.765263,-33.572621],[-70.764459,-33.573246],[-70.763805,-33.57402],[-70.763299,-33.574466],[-70.762644,-33.574466],[-70.761633,-33.574436],[-70.760562,-33.574049],[-70.759669,-33.57393],[-70.75721,-33.57469],[-70.756545,-33.575495],[-70.75251,-33.58038],[-70.752996,-33.581957],[-70.752734,-33.58229],[-70.752726,-33.582298],[-70.752234,-33.582743],[-70.751687,-33.583243],[-70.751116,-33.583766],[-70.750742,-33.584299],[-70.750362,-33.584761],[-70.750047,-33.58551],[-70.749814,-33.585838],[-70.749612,-33.586022],[-70.749096,-33.586411],[-70.748828,-33.586692],[-70.7483,-33.587129],[-70.747404,-33.588113],[-70.747331,-33.588193],[-70.746723,-33.588621],[-70.746165,-33.58924],[-70.745777,-33.58978],[-70.745439,-33.590567],[-70.745079,-33.591393],[-70.744849,-33.591854],[-70.744585,-33.592335],[-70.74424,-33.592769],[-70.743597,-33.593227],[-70.743156,-33.593873],[-70.743023,-33.594191],[-70.743688,-33.59481],[-70.743998,-33.595074],[-70.744559,-33.595552],[-70.745025,-33.59608],[-70.745499,-33.596619],[-70.745927,-33.596976],[-70.746498,-33.597428],[-70.747117,-33.597738],[-70.748188,-33.598095],[-70.748759,-33.598404],[-70.749569,-33.598975],[-70.75,-33.599211],[-70.750354,-33.599404],[-70.751092,-33.599784],[-70.752068,-33.600308],[-70.75252,-33.600617],[-70.752733,-33.600845],[-70.752945,-33.601071],[-70.753234,-33.601379],[-70.75411,-33.60231],[-70.752654,-33.605103],[-70.751983,-33.606382],[-70.751313,-33.607175],[-70.751069,-33.607845],[-70.750825,-33.608881],[-70.750792,-33.608968],[-70.747036,-33.606497],[-70.747667,-33.602256],[-70.743245,-33.599347],[-70.738191,-33.60068],[-70.73756,-33.60492],[-70.732506,-33.606252],[-70.731875,-33.610493],[-70.736297,-33.613402],[-70.735665,-33.617642],[-70.730612,-33.618973],[-70.72998,-33.623212],[-70.734403,-33.626121],[-70.733771,-33.63036],[-70.738194,-33.633268],[-70.737562,-33.637507],[-70.740761,-33.63961],[-70.74067,-33.63995],[-70.74014,-33.64099],[-70.73983,-33.64133],[-70.73924,-33.64197],[-70.73895,-33.64274],[-70.73837,-33.6441],[-70.73762,-33.64488],[-70.73698,-33.6456],[-70.73647,-33.64583],[-70.736185,-33.645909],[-70.731876,-33.643076],[-70.726822,-33.644406],[-70.7224,-33.641498],[-70.723032,-33.637259],[-70.718609,-33.634351],[-70.719241,-33.630112],[-70.724295,-33.628782],[-70.724926,-33.624543],[-70.720504,-33.621634],[-70.721136,-33.617394],[-70.72619,-33.616064],[-70.726821,-33.611824],[-70.722399,-33.608915],[-70.723031,-33.604674],[-70.718609,-33.601765],[-70.719241,-33.597524],[-70.71482,-33.594614],[-70.715451,-33.590373],[-70.720504,-33.589041],[-70.724925,-33.591951],[-70.724294,-33.596192],[-70.728716,-33.599102],[-70.733769,-33.59777],[-70.7344,-33.593529],[-70.729979,-33.590619],[-70.73061,-33.586378],[-70.735663,-33.585045],[-70.740085,-33.587955],[-70.745139,-33.586622],[-70.74577,-33.58238],[-70.750823,-33.581047],[-70.751455,-33.576804]]]},"properties":{"comuna":"San Bernardo","mancha_id":"13401-88b2c54501fffff","clase":"Alto","nivel_medio":2.801,"nivel_medio_min":2.507,"nivel_medio_max":3.264,"pct_alto":75.7,"n_hexagonos":20,"area_ha":991.35}},{"type":"Feature","geometry":{"type":"Polygon","coordinates":[[[-70.671241,-33.626448],[-70.671873,-33.62221],[-70.676925,-33.620881],[-70.681345,-33.623791],[-70.680713,-33.62803],[-70.675661,-33.629358],[-70.671241,-33.626448]]]},"properties":{"comuna":"San Bernardo","mancha_id":"13401-88b2c544a7fffff","clase":"Alto","nivel_medio":2.614,"nivel_medio_min":2.614,"nivel_medio_max":2.614,"pct_alto":67.2,"n_hexagonos":1,"area_ha":63.52}},{"type":"Feature","geometry":{"type":"Polygon","coordinates":[[[-70.645778,-33.609676],[-70.649145,-33.611895],[-70.654196,-33.610567],[-70.65444,-33.608933],[-70.655738,-33.608821],[-70.656661,-33.608743],[-70.656949,-33.608717],[-70.658263,-33.608602],[-70.659977,-33.608459],[-70.661825,-33.608297],[-70.663226,-33.608174],[-70.664273,-33.608084],[-70.664775,-33.608041],[-70.666446,-33.607885],[-70.667257,-33.607811],[-70.66888,-33.607657],[-70.670484,-33.607491],[-70.670644,-33.607461],[-70.670635,-33.607429],[-70.67377,-33.609493],[-70.673138,-33.613732],[-70.668086,-33.615061],[-70.667454,-33.619299],[-70.662402,-33.620627],[-70.657983,-33.617717],[-70.652931,-33.619044],[-70.652299,-33.623282],[-70.647248,-33.624609],[-70.646615,-33.628847],[-70.641564,-33.630173],[-70.640931,-33.63441],[-70.63588,-33.635736],[-70.631462,-33.632825],[-70.632094,-33.628588],[-70.630237,-33.627364],[-70.630345,-33.627362],[-70.631018,-33.627353],[-70.635433,-33.627285],[-70.637146,-33.627257],[-70.641021,-33.627194],[-70.6432,-33.62717],[-70.644748,-33.62714],[-70.64431,-33.6252],[-70.643858,-33.623169],[-70.643648,-33.622238],[-70.64349,-33.621538],[-70.646258,-33.621344],[-70.645878,-33.619838],[-70.645511,-33.618312],[-70.645288,-33.617378],[-70.645197,-33.617004],[-70.645018,-33.616267],[-70.644067,-33.612302],[-70.643721,-33.610899],[-70.643461,-33.609874],[-70.644418,-33.609792],[-70.644827,-33.609758],[-70.645778,-33.609676]]]},"properties":{"comuna":"San Bernardo","mancha_id":"13401-88b2c54483fffff","clase":"Alto","nivel_medio":2.706,"nivel_medio_min":2.557,"nivel_medio_max":2.876,"pct_alto":73.2,"n_hexagonos":9,"area_ha":404.37}},{"type":"Feature","geometry":{"type":"Polygon","coordinates":[[[-70.819132,-33.742216],[-70.819763,-33.737983],[-70.815335,-33.73508],[-70.815965,-33.730846],[-70.811537,-33.727942],[-70.806479,-33.729272],[-70.802052,-33.726368],[-70.802683,-33.722134],[-70.798255,-33.71923],[-70.798886,-33.714995],[-70.79446,-33.712091],[-70.79509,-33.707856],[-70.790664,-33.704951],[-70.791295,-33.700716],[-70.786869,-33.69781],[-70.781812,-33.699141],[-70.777386,-33.696235],[-70.772329,-33.697565],[-70.767904,-33.69466],[-70.762847,-33.695989],[-70.758423,-33.693083],[-70.759054,-33.688848],[-70.76411,-33.687518],[-70.768535,-33.690424],[-70.773591,-33.689094],[-70.778017,-33.692],[-70.783074,-33.690669],[-70.783705,-33.686433],[-70.788762,-33.685102],[-70.793188,-33.688008],[-70.79593,-33.687286],[-70.795795,-33.687529],[-70.795224,-33.687855],[-70.79468,-33.68815],[-70.794313,-33.688862],[-70.794144,-33.689296],[-70.79399,-33.6896],[-70.793821,-33.690162],[-70.79386,-33.69095],[-70.793714,-33.691391],[-70.79359,-33.691742],[-70.793484,-33.691949],[-70.793472,-33.692336],[-70.793399,-33.692615],[-70.793336,-33.692756],[-70.793237,-33.692978],[-70.792999,-33.693427],[-70.792939,-33.693827],[-70.79275,-33.69428],[-70.792512,-33.694825],[-70.792038,-33.695699],[-70.791773,-33.696294],[-70.791979,-33.697714],[-70.792089,-33.698155],[-70.79214,-33.69864],[-70.79231,-33.699132],[-70.79242,-33.69938],[-70.792585,-33.699531],[-70.792874,-33.699765],[-70.793204,-33.699876],[-70.793617,-33.700013],[-70.793722,-33.700077],[-70.793934,-33.700206],[-70.794195,-33.700412],[-70.794305,-33.700743],[-70.794539,-33.701032],[-70.79476,-33.701252],[-70.794705,-33.701527],[-70.794594,-33.701788],[-70.794734,-33.702701],[-70.794912,-33.703194],[-70.79516,-33.70338],[-70.795935,-33.703442],[-70.796615,-33.70372],[-70.79717,-33.703947],[-70.797474,-33.704317],[-70.797544,-33.704686],[-70.797627,-33.705019],[-70.797825,-33.705371],[-70.798387,-33.706424],[-70.798542,-33.706948],[-70.798557,-33.706998],[-70.798803,-33.707227],[-70.799263,-33.707527],[-70.79974,-33.70773],[-70.800024,-33.70814],[-70.800495,-33.708602],[-70.801408,-33.709094],[-70.802321,-33.709586],[-70.802883,-33.710042],[-70.803234,-33.710499],[-70.803796,-33.710991],[-70.804268,-33.711489],[-70.804428,-33.711658],[-70.80484,-33.71193],[-70.804885,-33.712376],[-70.804885,-33.712817],[-70.804765,-33.713299],[-70.804834,-33.714017],[-70.804991,-33.714301],[-70.805045,-33.714387],[-70.805128,-33.714521],[-70.805433,-33.714721],[-70.805622,-33.714984],[-70.80571,-33.71525],[-70.805732,-33.715498],[-70.805865,-33.715852],[-70.805904,-33.716259],[-70.806114,-33.717067],[-70.806431,-33.717664],[-70.806852,-33.718191],[-70.80705,-33.718767],[-70.806893,-33.719301],[-70.806685,-33.719722],[-70.8066,-33.72019],[-70.807238,-33.720544],[-70.807693,-33.720816],[-70.808469,-33.721282],[-70.80887,-33.721522],[-70.809677,-33.722001],[-70.810736,-33.722657],[-70.811276,-33.72278],[-70.811896,-33.722818],[-70.812263,-33.722843],[-70.812655,-33.722818],[-70.813086,-33.72278],[-70.813491,-33.722628],[-70.813794,-33.722261],[-70.815325,-33.720996],[-70.815844,-33.720894],[-70.817101,-33.720175],[-70.817573,-33.720054],[-70.81784,-33.719986],[-70.819189,-33.719849],[-70.820293,-33.719807],[-70.821365,-33.720127],[-70.822592,-33.720832],[-70.823656,-33.721048],[-70.82434,-33.72105],[-70.823772,-33.72161],[-70.823329,-33.722263],[-70.823081,-33.722821],[-70.822636,-33.723701],[-70.822166,-33.724373],[-70.821745,-33.72511],[-70.821655,-33.725281],[-70.821655,-33.725281],[-70.821654,-33.725282],[-70.821358,-33.725848],[-70.821196,-33.726684],[-70.821072,-33.727705],[-70.820893,-33.728679],[-70.820908,-33.729546],[-70.82091,-33.72965],[-70.82107,-33.73035],[-70.82107,-33.73078],[-70.82105,-33.731426],[-70.821036,-33.731971],[-70.820821,-33.732509],[-70.820901,-33.732901],[-70.821062,-33.733576],[-70.821014,-33.734091],[-70.820761,-33.734699],[-70.820543,-33.735464],[-70.820286,-33.735784],[-70.820154,-33.736168],[-70.820186,-33.736662],[-70.82027,-33.737051],[-70.82034,-33.737544],[-70.82046,-33.7378],[-70.820621,-33.738141],[-70.82089,-33.73881],[-70.820891,-33.739131],[-70.821016,-33.739436],[-70.821331,-33.739762],[-70.821794,-33.739919],[-70.822319,-33.740077],[-70.823191,-33.740445],[-70.824031,-33.740868],[-70.82466,-33.741127],[-70.824894,-33.741401],[-70.825011,-33.741689],[-70.825083,-33.742282],[-70.825272,-33.742704],[-70.825682,-33.743305],[-70.825925,-33.744498],[-70.82593,-33.74452],[-70.826397,-33.745304],[-70.826449,-33.745804],[-70.826397,-33.74627],[-70.826194,-33.747185],[-70.826194,-33.747947],[-70.826143,-33.748709],[-70.825819,-33.749451],[-70.825593,-33.75],[-70.825436,-33.750382],[-70.825485,-33.751027],[-70.82293,-33.749353],[-70.82356,-33.74512],[-70.819132,-33.742216]]]},"properties":{"comuna":"San Bernardo","mancha_id":"13401-88b2c0b615fffff","clase":"Alto","nivel_medio":2.783,"nivel_medio_min":2.515,"nivel_medio_max":2.975,"pct_alto":82.5,"n_hexagonos":17,"area_ha":677.56}}],"bbox":[-70.82645,-33.75487,-70.62862,-33.52397]}