{"type":"FeatureCollection","features":[{"type":"Feature","geometry":{"type":"Polygon","coordinates":[[[-71.068112,-33.439603],[-71.067485,-33.443861],[-71.063068,-33.445042],[-71.062912,-33.44454],[-71.062466,-33.443714],[-71.062003,-33.443066],[-71.061688,-33.4424],[-71.06156,-33.44175],[-71.061392,-33.440677],[-71.061022,-33.439566],[-71.06083,-33.43894],[-71.060677,-33.438681],[-71.060475,-33.438391],[-71.059887,-33.437711],[-71.063678,-33.436697],[-71.068112,-33.439603]]]},"properties":{"comuna":"María Pinto","mancha_id":"13504-88b2c55963fffff","clase":"Bajo","nivel_medio":1.453,"nivel_medio_min":1.453,"nivel_medio_max":1.453,"pct_alto":12.8,"n_hexagonos":1,"area_ha":44.67}},{"type":"Feature","geometry":{"type":"Polygon","coordinates":[[[-71.075099,-33.458187],[-71.070038,-33.459539],[-71.069703,-33.461814],[-71.06841,-33.46077],[-71.066522,-33.458862],[-71.066224,-33.458445],[-71.06603,-33.458019],[-71.065998,-33.457567],[-71.065979,-33.45688],[-71.06597,-33.45658],[-71.06605,-33.45478],[-71.066028,-33.453784],[-71.066026,-33.453773],[-71.066231,-33.452377],[-71.071292,-33.451024],[-71.075726,-33.453929],[-71.075099,-33.458187]]]},"properties":{"comuna":"María Pinto","mancha_id":"13504-88b2c55921fffff","clase":"Bajo","nivel_medio":1.165,"nivel_medio_min":1.15,"nivel_medio_max":1.285,"pct_alto":6.3,"n_hexagonos":2,"area_ha":71.58}},{"type":"Feature","geometry":{"type":"Polygon","coordinates":[[[-71.202419,-33.485466],[-71.203044,-33.481208],[-71.208109,-33.47985],[-71.21255,-33.48275],[-71.211925,-33.487009],[-71.206859,-33.488366],[-71.202419,-33.485466]]]},"properties":{"comuna":"María Pinto","mancha_id":"13504-88b2c09727fffff","clase":"Bajo","nivel_medio":1.485,"nivel_medio_min":1.485,"nivel_medio_max":1.485,"pct_alto":10.0,"n_hexagonos":1,"area_ha":64.08}},{"type":"Feature","geometry":{"type":"Polygon","coordinates":[[[-71.054273,-33.500543],[-71.058707,-33.503447],[-71.063769,-33.502097],[-71.068204,-33.505001],[-71.067577,-33.509255],[-71.072012,-33.512158],[-71.071385,-33.516412],[-71.066323,-33.517762],[-71.061888,-33.514858],[-71.056826,-33.516208],[-71.056199,-33.520461],[-71.051137,-33.521811],[-71.046703,-33.518907],[-71.04733,-33.514654],[-71.042896,-33.51175],[-71.040438,-33.512405],[-71.040543,-33.511906],[-71.040747,-33.511167],[-71.041329,-33.510279],[-71.042241,-33.508902],[-71.042585,-33.508051],[-71.042779,-33.50735],[-71.042881,-33.507076],[-71.042984,-33.5068],[-71.043274,-33.506309],[-71.043518,-33.505846],[-71.043722,-33.505302],[-71.043816,-33.504715],[-71.043935,-33.504316],[-71.044145,-33.50404],[-71.044431,-33.503801],[-71.044683,-33.5035],[-71.045158,-33.502865],[-71.045448,-33.502599],[-71.045786,-33.502379],[-71.04646,-33.50201],[-71.04681,-33.5018],[-71.047569,-33.501366],[-71.048185,-33.501221],[-71.048368,-33.501177],[-71.048626,-33.501069],[-71.048865,-33.500925],[-71.049154,-33.500721],[-71.049476,-33.500482],[-71.049744,-33.500338],[-71.049899,-33.500291],[-71.050174,-33.500279],[-71.050607,-33.500236],[-71.051194,-33.500092],[-71.051381,-33.5],[-71.051559,-33.499913],[-71.051976,-33.499624],[-71.05222,-33.49934],[-71.052688,-33.498883],[-71.053098,-33.498375],[-71.053412,-33.49806],[-71.053761,-33.497822],[-71.054163,-33.497698],[-71.054712,-33.497564],[-71.054273,-33.500543]]]},"properties":{"comuna":"María Pinto","mancha_id":"13504-88b2c09691fffff","clase":"Bajo","nivel_medio":1.078,"nivel_medio_min":0.967,"nivel_medio_max":1.442,"pct_alto":4.0,"n_hexagonos":9,"area_ha":426.29}},{"type":"Feature","geometry":{"type":"Polygon","coordinates":[[[-71.092212,-33.474061],[-71.08715,-33.475414],[-71.086523,-33.47967],[-71.090959,-33.482574],[-71.090332,-33.48683],[-71.08527,-33.488182],[-71.080835,-33.485278],[-71.075773,-33.48663],[-71.071338,-33.483726],[-71.071965,-33.47947],[-71.067531,-33.476566],[-71.067953,-33.473701],[-71.068431,-33.473208],[-71.068787,-33.472687],[-71.069082,-33.472392],[-71.069345,-33.472237],[-71.070042,-33.471959],[-71.071051,-33.471737],[-71.071566,-33.471543],[-71.071904,-33.471309],[-71.071989,-33.47125],[-71.072729,-33.470663],[-71.07289,-33.470399],[-71.073096,-33.469944],[-71.073377,-33.469535],[-71.073441,-33.469452],[-71.073646,-33.46918],[-71.073939,-33.46868],[-71.074076,-33.468291],[-71.074105,-33.467976],[-71.074019,-33.467765],[-71.073832,-33.467457],[-71.073769,-33.467219],[-71.073766,-33.467205],[-71.073787,-33.466874],[-71.073776,-33.466656],[-71.073846,-33.466701],[-71.078907,-33.465349],[-71.083342,-33.468253],[-71.088403,-33.4669],[-71.092839,-33.469804],[-71.092212,-33.474061]]]},"properties":{"comuna":"María Pinto","mancha_id":"13504-88b2c09613fffff","clase":"Bajo","nivel_medio":1.166,"nivel_medio_min":1.032,"nivel_medio_max":1.333,"pct_alto":2.2,"n_hexagonos":7,"area_ha":382.79}},{"type":"Feature","geometry":{"type":"Polygon","coordinates":[[[-71.103589,-33.46284],[-71.104215,-33.458582],[-71.109277,-33.457228],[-71.113713,-33.460132],[-71.113087,-33.464389],[-71.108025,-33.465744],[-71.103589,-33.46284]]]},"properties":{"comuna":"María Pinto","mancha_id":"13504-88b2c09603fffff","clase":"Bajo","nivel_medio":1.326,"nivel_medio_min":1.326,"nivel_medio_max":1.326,"pct_alto":0.9,"n_hexagonos":1,"area_ha":64.05}},{"type":"Feature","geometry":{"type":"Polygon","coordinates":[[[-71.158827,-33.550275],[-71.159453,-33.546022],[-71.164519,-33.544669],[-71.165145,-33.540415],[-71.17021,-33.539061],[-71.17465,-33.541961],[-71.174025,-33.546215],[-71.178465,-33.549114],[-71.177839,-33.553368],[-71.175732,-33.553931],[-71.17572,-33.55393],[-71.174744,-33.553824],[-71.173862,-33.553632],[-71.172953,-33.553714],[-71.172264,-33.553604],[-71.171713,-33.553328],[-71.17065,-33.55316],[-71.17046,-33.553211],[-71.168333,-33.551822],[-71.163267,-33.553175],[-71.158827,-33.550275]]]},"properties":{"comuna":"María Pinto","mancha_id":"13504-88b2c09589fffff","clase":"Bajo","nivel_medio":1.207,"nivel_medio_min":0.965,"nivel_medio_max":1.334,"pct_alto":7.4,"n_hexagonos":3,"area_ha":188.78}},{"type":"Feature","geometry":{"type":"Polygon","coordinates":[[[-71.233507,-33.505766],[-71.232882,-33.510023],[-71.237324,-33.512922],[-71.236699,-33.517179],[-71.231632,-33.518537],[-71.22719,-33.515638],[-71.222123,-33.516995],[-71.217681,-33.514096],[-71.218307,-33.509839],[-71.213865,-33.506939],[-71.21449,-33.502682],[-71.219557,-33.501325],[-71.220182,-33.497067],[-71.225248,-33.495709],[-71.22969,-33.498609],[-71.234756,-33.49725],[-71.239198,-33.50015],[-71.238574,-33.504408],[-71.233507,-33.505766]]]},"properties":{"comuna":"María Pinto","mancha_id":"13504-88b2c09561fffff","clase":"Bajo","nivel_medio":1.137,"nivel_medio_min":0.946,"nivel_medio_max":1.368,"pct_alto":1.7,"n_hexagonos":6,"area_ha":384.38}},{"type":"Feature","geometry":{"type":"Polygon","coordinates":[[[-71.194915,-33.536543],[-71.19554,-33.532288],[-71.200606,-33.530932],[-71.205048,-33.533832],[-71.204422,-33.538086],[-71.199356,-33.539442],[-71.194915,-33.536543]]]},"properties":{"comuna":"María Pinto","mancha_id":"13504-88b2c0953bfffff","clase":"Bajo","nivel_medio":1.427,"nivel_medio_min":1.427,"nivel_medio_max":1.427,"pct_alto":6.5,"n_hexagonos":1,"area_ha":64.0}},{"type":"Feature","geometry":{"type":"Polygon","coordinates":[[[-71.196791,-33.523777],[-71.197416,-33.519522],[-71.202482,-33.518166],[-71.206923,-33.521065],[-71.206298,-33.525321],[-71.201232,-33.526677],[-71.196791,-33.523777]]]},"properties":{"comuna":"María Pinto","mancha_id":"13504-88b2c09503fffff","clase":"Bajo","nivel_medio":1.368,"nivel_medio_min":1.368,"nivel_medio_max":1.368,"pct_alto":8.1,"n_hexagonos":1,"area_ha":64.02}},{"type":"Feature","geometry":{"type":"Polygon","coordinates":[[[-71.10181,-33.540981],[-71.096747,-33.542332],[-71.09612,-33.546584],[-71.091057,-33.547934],[-71.08662,-33.545033],[-71.081557,-33.546382],[-71.077121,-33.54348],[-71.072058,-33.54483],[-71.067623,-33.541927],[-71.06825,-33.537675],[-71.073312,-33.536326],[-71.073939,-33.532073],[-71.069504,-33.529171],[-71.070131,-33.524918],[-71.075193,-33.523568],[-71.079629,-33.526471],[-71.084691,-33.52512],[-71.085318,-33.520867],[-71.090381,-33.519516],[-71.094817,-33.522418],[-71.09988,-33.521067],[-71.104317,-33.523969],[-71.10369,-33.528223],[-71.098627,-33.529574],[-71.098,-33.533827],[-71.102437,-33.536729],[-71.10181,-33.540981]]]},"properties":{"comuna":"María Pinto","mancha_id":"13504-88b2c09489fffff","clase":"Bajo","nivel_medio":1.119,"nivel_medio_min":0.949,"nivel_medio_max":1.438,"pct_alto":3.7,"n_hexagonos":11,"area_ha":703.23}},{"type":"Feature","geometry":{"type":"Polygon","coordinates":[[[-71.153022,-33.490513],[-71.153647,-33.486256],[-71.149209,-33.483355],[-71.149835,-33.479097],[-71.154899,-33.477742],[-71.155525,-33.473484],[-71.151087,-33.470581],[-71.151713,-33.466323],[-71.156776,-33.464967],[-71.157402,-33.460708],[-71.162466,-33.459352],[-71.166904,-33.462254],[-71.171968,-33.460897],[-71.176407,-33.463799],[-71.175781,-33.468058],[-71.18022,-33.47096],[-71.179595,-33.475219],[-71.17453,-33.476575],[-71.173905,-33.480833],[-71.16884,-33.48219],[-71.164402,-33.479288],[-71.159337,-33.480644],[-71.158712,-33.484901],[-71.16315,-33.487803],[-71.162524,-33.49206],[-71.15746,-33.493415],[-71.153022,-33.490513]]]},"properties":{"comuna":"María Pinto","mancha_id":"13504-88b2c09469fffff","clase":"Bajo","nivel_medio":1.196,"nivel_medio_min":1.006,"nivel_medio_max":1.452,"pct_alto":5.0,"n_hexagonos":9,"area_ha":576.61}},{"type":"Feature","geometry":{"type":"Polygon","coordinates":[[[-71.108076,-33.498442],[-71.10364,-33.495539],[-71.098577,-33.496892],[-71.094141,-33.493989],[-71.094768,-33.489733],[-71.09983,-33.488381],[-71.104266,-33.491284],[-71.109329,-33.489931],[-71.113765,-33.492834],[-71.113139,-33.497089],[-71.108076,-33.498442]]]},"properties":{"comuna":"María Pinto","mancha_id":"13504-88b2c0945bfffff","clase":"Bajo","nivel_medio":1.346,"nivel_medio_min":1.265,"nivel_medio_max":1.428,"pct_alto":0.0,"n_hexagonos":2,"area_ha":128.0}},{"type":"Feature","geometry":{"type":"Polygon","coordinates":[[[-71.11507,-33.517011],[-71.115697,-33.512757],[-71.12076,-33.511404],[-71.125198,-33.514306],[-71.124571,-33.518561],[-71.119507,-33.519913],[-71.118881,-33.524167],[-71.123319,-33.527069],[-71.122692,-33.531323],[-71.12713,-33.534224],[-71.132194,-33.532872],[-71.136633,-33.535773],[-71.141697,-33.53442],[-71.142323,-33.530166],[-71.147388,-33.528813],[-71.151827,-33.531714],[-71.156892,-33.53036],[-71.161331,-33.533261],[-71.160705,-33.537515],[-71.15564,-33.538868],[-71.151201,-33.535968],[-71.146136,-33.537321],[-71.14551,-33.541574],[-71.140445,-33.542927],[-71.136006,-33.540026],[-71.130942,-33.541378],[-71.130316,-33.545631],[-71.125251,-33.546983],[-71.12495,-33.54903],[-71.12287,-33.5496],[-71.12155,-33.55014],[-71.12038,-33.55094],[-71.11882,-33.552103],[-71.115122,-33.549686],[-71.115749,-33.545433],[-71.111311,-33.542532],[-71.111938,-33.538279],[-71.107501,-33.535378],[-71.108127,-33.531125],[-71.113191,-33.529773],[-71.113817,-33.525519],[-71.10938,-33.522618],[-71.110007,-33.518364],[-71.11507,-33.517011]]]},"properties":{"comuna":"María Pinto","mancha_id":"13504-88b2c09411fffff","clase":"Bajo","nivel_medio":1.094,"nivel_medio_min":0.969,"nivel_medio_max":1.394,"pct_alto":9.0,"n_hexagonos":12,"area_ha":757.14}},{"type":"Feature","geometry":{"type":"Polygon","coordinates":[[[-71.276543,-33.477854],[-71.277167,-33.473594],[-71.282234,-33.472232],[-71.286678,-33.475131],[-71.286054,-33.479391],[-71.280986,-33.480753],[-71.276543,-33.477854]]]},"properties":{"comuna":"María Pinto","mancha_id":"13504-88b2c091dbfffff","clase":"Bajo","nivel_medio":1.294,"nivel_medio_min":1.294,"nivel_medio_max":1.294,"pct_alto":11.4,"n_hexagonos":1,"area_ha":64.14}},{"type":"Feature","geometry":{"type":"Polygon","coordinates":[[[-71.221432,-33.488551],[-71.222057,-33.484293],[-71.227123,-33.482934],[-71.231564,-33.485834],[-71.230939,-33.490093],[-71.225873,-33.491451],[-71.221432,-33.488551]]]},"properties":{"comuna":"María Pinto","mancha_id":"13504-88b2c09091fffff","clase":"Bajo","nivel_medio":1.246,"nivel_medio_min":1.246,"nivel_medio_max":1.246,"pct_alto":0.1,"n_hexagonos":1,"area_ha":64.09}},{"type":"Feature","geometry":{"type":"Polygon","coordinates":[[[-71.242947,-33.474597],[-71.238505,-33.471697],[-71.233439,-33.473057],[-71.228998,-33.470156],[-71.229622,-33.465896],[-71.225181,-33.462996],[-71.220116,-33.464355],[-71.215675,-33.461454],[-71.21061,-33.462813],[-71.20617,-33.459912],[-71.206795,-33.455652],[-71.202355,-33.45275],[-71.20298,-33.44849],[-71.208045,-33.447131],[-71.212485,-33.450032],[-71.21755,-33.448673],[-71.221991,-33.451574],[-71.227056,-33.450214],[-71.231497,-33.453115],[-71.230872,-33.457376],[-71.235313,-33.460276],[-71.240379,-33.458916],[-71.244821,-33.461817],[-71.244196,-33.466077],[-71.248638,-33.468977],[-71.253705,-33.467617],[-71.258147,-33.470517],[-71.257522,-33.474777],[-71.252455,-33.476137],[-71.248013,-33.473237],[-71.242947,-33.474597]]]},"properties":{"comuna":"María Pinto","mancha_id":"13504-88b2c09089fffff","clase":"Bajo","nivel_medio":1.112,"nivel_medio_min":0.994,"nivel_medio_max":1.37,"pct_alto":2.5,"n_hexagonos":10,"area_ha":641.3}},{"type":"Feature","geometry":{"type":"Polygon","coordinates":[[[-71.301181,-33.442573],[-71.301805,-33.43831],[-71.306873,-33.436946],[-71.311317,-33.439846],[-71.310693,-33.444109],[-71.305625,-33.445473],[-71.301181,-33.442573]]]},"properties":{"comuna":"María Pinto","mancha_id":"13504-88b2c09029fffff","clase":"Bajo","nivel_medio":1.485,"nivel_medio_min":1.485,"nivel_medio_max":1.485,"pct_alto":3.4,"n_hexagonos":1,"area_ha":64.21}},{"type":"Feature","geometry":{"type":"Polygon","coordinates":[[[-71.273494,-33.531852],[-71.26905,-33.528954],[-71.263982,-33.530313],[-71.259538,-33.527415],[-71.25447,-33.528773],[-71.253845,-33.533029],[-71.248778,-33.534387],[-71.244335,-33.531489],[-71.244959,-33.527233],[-71.250027,-33.525875],[-71.250652,-33.521618],[-71.255719,-33.52026],[-71.256344,-33.516003],[-71.261412,-33.514644],[-71.265855,-33.517542],[-71.265231,-33.521799],[-71.269675,-33.524697],[-71.274743,-33.523338],[-71.279187,-33.526236],[-71.278563,-33.530493],[-71.273494,-33.531852]]]},"properties":{"comuna":"María Pinto","mancha_id":"13504-88b2c08201fffff","clase":"Bajo","nivel_medio":1.281,"nivel_medio_min":1.079,"nivel_medio_max":1.463,"pct_alto":8.3,"n_hexagonos":5,"area_ha":320.3}},{"type":"Feature","geometry":{"type":"Polygon","coordinates":[[[-71.064188,-33.433235],[-71.063678,-33.436697],[-71.059887,-33.437711],[-71.05986,-33.43768],[-71.05954,-33.437137],[-71.059256,-33.436777],[-71.059079,-33.436397],[-71.058966,-33.435671],[-71.058933,-33.434796],[-71.05895,-33.434283],[-71.059127,-33.43367],[-71.059276,-33.433311],[-71.059337,-33.432669],[-71.05933,-33.43183],[-71.05932,-33.43128],[-71.059333,-33.430011],[-71.05972,-33.43005],[-71.05995,-33.43018],[-71.06028,-33.43059],[-71.061747,-33.431665],[-71.063617,-33.433019],[-71.063822,-33.433202],[-71.064188,-33.433235]]]},"properties":{"comuna":"María Pinto","mancha_id":"13504-88b2c5596bfffff","clase":"Medio","nivel_medio":1.59,"nivel_medio_min":1.59,"nivel_medio_max":1.59,"pct_alto":17.8,"n_hexagonos":1,"area_ha":27.79}},{"type":"Feature","geometry":{"type":"Polygon","coordinates":[[[-71.077606,-33.441155],[-71.073172,-33.43825],[-71.073362,-33.436958],[-71.07519,-33.43821],[-71.076499,-33.438836],[-71.077339,-33.439038],[-71.078207,-33.439125],[-71.078469,-33.439226],[-71.07867,-33.439386],[-71.079088,-33.439845],[-71.079944,-33.440254],[-71.080356,-33.440419],[-71.077606,-33.441155]]]},"properties":{"comuna":"María Pinto","mancha_id":"13504-88b2c55965fffff","clase":"Medio","nivel_medio":2.249,"nivel_medio_min":2.249,"nivel_medio_max":2.249,"pct_alto":25.3,"n_hexagonos":1,"area_ha":9.98}},{"type":"Feature","geometry":{"type":"Polygon","coordinates":[[[-71.065707,-33.452034],[-71.066231,-33.452377],[-71.066026,-33.453773],[-71.065966,-33.453467],[-71.065778,-33.452789],[-71.065707,-33.452066],[-71.065707,-33.452034]]]},"properties":{"comuna":"María Pinto","mancha_id":"13504-88b2c5592bfffff","clase":"Medio","nivel_medio":2.311,"nivel_medio_min":2.311,"nivel_medio_max":2.311,"pct_alto":76.6,"n_hexagonos":1,"area_ha":0.47}},{"type":"Feature","geometry":{"type":"Polygon","coordinates":[[[-71.09091,-33.449869],[-71.086475,-33.446965],[-71.087064,-33.442963],[-71.087845,-33.443293],[-71.088685,-33.443641],[-71.089288,-33.443883],[-71.089958,-33.443959],[-71.09114,-33.44403],[-71.09249,-33.44413],[-71.093431,-33.444393],[-71.094358,-33.444711],[-71.09517,-33.44462],[-71.095747,-33.444885],[-71.096479,-33.445066],[-71.095971,-33.448515],[-71.09091,-33.449869]]]},"properties":{"comuna":"María Pinto","mancha_id":"13504-88b2c09651fffff","clase":"Medio","nivel_medio":2.362,"nivel_medio_min":2.362,"nivel_medio_max":2.362,"pct_alto":36.2,"n_hexagonos":1,"area_ha":46.92}},{"type":"Feature","geometry":{"type":"Polygon","coordinates":[[[-71.115592,-33.447356],[-71.111156,-33.444452],[-71.11141,-33.442729],[-71.111932,-33.443416],[-71.112415,-33.443859],[-71.11303,-33.44426],[-71.11375,-33.44489],[-71.11527,-33.44568],[-71.11636,-33.445952],[-71.11708,-33.44606],[-71.117708,-33.446274],[-71.118835,-33.446435],[-71.119069,-33.446425],[-71.115592,-33.447356]]]},"properties":{"comuna":"María Pinto","mancha_id":"13504-88b2c09647fffff","clase":"Medio","nivel_medio":2.46,"nivel_medio_min":2.46,"nivel_medio_max":2.46,"pct_alto":46.0,"n_hexagonos":1,"area_ha":9.13}},{"type":"Feature","geometry":{"type":"Polygon","coordinates":[[[-71.083342,-33.468253],[-71.078907,-33.465349],[-71.073846,-33.466701],[-71.073776,-33.466656],[-71.07377,-33.466523],[-71.073688,-33.466282],[-71.073508,-33.46604],[-71.07327,-33.465714],[-71.073134,-33.465383],[-71.073035,-33.464957],[-71.07288,-33.46464],[-71.072493,-33.463841],[-71.072294,-33.463586],[-71.072076,-33.463445],[-71.071638,-33.46322],[-71.070944,-33.462792],[-71.070233,-33.462242],[-71.069703,-33.461814],[-71.070038,-33.459539],[-71.075099,-33.458187],[-71.075726,-33.453929],[-71.071292,-33.451024],[-71.071919,-33.446766],[-71.076979,-33.445413],[-71.081414,-33.448318],[-71.080787,-33.452576],[-71.085222,-33.455481],[-71.084595,-33.459739],[-71.08903,-33.462643],[-71.088403,-33.4669],[-71.083342,-33.468253]]]},"properties":{"comuna":"María Pinto","mancha_id":"13504-88b2c0961bfffff","clase":"Medio","nivel_medio":1.929,"nivel_medio_min":1.824,"nivel_medio_max":2.035,"pct_alto":37.0,"n_hexagonos":4,"area_ha":248.55}},{"type":"Feature","geometry":{"type":"Polygon","coordinates":[[[-71.125251,-33.546983],[-71.130316,-33.545631],[-71.130942,-33.541378],[-71.136006,-33.540026],[-71.140445,-33.542927],[-71.139819,-33.54718],[-71.134754,-33.548532],[-71.134686,-33.548993],[-71.1345,-33.54899],[-71.13167,-33.54829],[-71.130296,-33.548286],[-71.12945,-33.5481],[-71.128918,-33.547817],[-71.128505,-33.547679],[-71.127789,-33.54801],[-71.126879,-33.548313],[-71.12506,-33.549],[-71.12495,-33.54903],[-71.125251,-33.546983]]]},"properties":{"comuna":"María Pinto","mancha_id":"13504-88b2c094adfffff","clase":"Medio","nivel_medio":1.818,"nivel_medio_min":1.695,"nivel_medio_max":2.279,"pct_alto":42.4,"n_hexagonos":2,"area_ha":80.91}},{"type":"Feature","geometry":{"type":"Polygon","coordinates":[[[-71.240311,-33.426183],[-71.235245,-33.427544],[-71.234205,-33.426865],[-71.235536,-33.426729],[-71.237171,-33.42654],[-71.23886,-33.42611],[-71.239569,-33.425666],[-71.24011,-33.42523],[-71.240574,-33.424386],[-71.240311,-33.426183]]]},"properties":{"comuna":"María Pinto","mancha_id":"13504-88b2c092e3fffff","clase":"Medio","nivel_medio":2.486,"nivel_medio_min":2.486,"nivel_medio_max":2.486,"pct_alto":48.6,"n_hexagonos":1,"area_ha":3.84}},{"type":"Feature","geometry":{"type":"Polygon","coordinates":[[[-71.193476,-33.446947],[-71.189037,-33.444044],[-71.18891,-33.444079],[-71.188859,-33.443496],[-71.188888,-33.443004],[-71.189197,-33.442952],[-71.189784,-33.442854],[-71.190683,-33.442599],[-71.191366,-33.442053],[-71.191985,-33.44173],[-71.192969,-33.440978],[-71.193866,-33.440341],[-71.194532,-33.440196],[-71.19514,-33.440254],[-71.1957,-33.44042],[-71.197282,-33.440399],[-71.19773,-33.440389],[-71.199166,-33.441327],[-71.198541,-33.445588],[-71.20298,-33.44849],[-71.202355,-33.45275],[-71.206795,-33.455652],[-71.20617,-33.459912],[-71.201105,-33.46127],[-71.196665,-33.458369],[-71.19729,-33.454109],[-71.192851,-33.451207],[-71.193476,-33.446947]]]},"properties":{"comuna":"María Pinto","mancha_id":"13504-88b2c09293fffff","clase":"Medio","nivel_medio":2.161,"nivel_medio_min":1.967,"nivel_medio_max":2.319,"pct_alto":45.4,"n_hexagonos":4,"area_ha":176.3}},{"type":"Feature","geometry":{"type":"Polygon","coordinates":[[[-71.328472,-33.455704],[-71.33354,-33.454339],[-71.336151,-33.456041],[-71.336103,-33.456171],[-71.336164,-33.456664],[-71.336391,-33.457179],[-71.336831,-33.457713],[-71.337337,-33.458217],[-71.337772,-33.4587],[-71.337961,-33.458911],[-71.338431,-33.459415],[-71.339051,-33.460263],[-71.339632,-33.460728],[-71.340092,-33.46114],[-71.340411,-33.462603],[-71.340711,-33.463133],[-71.341053,-33.463905],[-71.337362,-33.4615],[-71.332293,-33.462864],[-71.327848,-33.459966],[-71.328472,-33.455704]]]},"properties":{"comuna":"María Pinto","mancha_id":"13504-88b2c09111fffff","clase":"Medio","nivel_medio":2.382,"nivel_medio_min":2.372,"nivel_medio_max":2.491,"pct_alto":38.2,"n_hexagonos":2,"area_ha":69.46}},{"type":"Feature","geometry":{"type":"Polygon","coordinates":[[[-71.34002,-33.509903],[-71.34509,-33.50854],[-71.348361,-33.51067],[-71.348435,-33.511772],[-71.348372,-33.512302],[-71.348453,-33.512804],[-71.348711,-33.513236],[-71.348966,-33.513639],[-71.349163,-33.513992],[-71.348913,-33.515695],[-71.343843,-33.517058],[-71.339396,-33.514162],[-71.34002,-33.509903]]]},"properties":{"comuna":"María Pinto","mancha_id":"13504-88b2c0834dfffff","clase":"Medio","nivel_medio":2.468,"nivel_medio_min":2.468,"nivel_medio_max":2.468,"pct_alto":46.8,"n_hexagonos":1,"area_ha":61.71}},{"type":"Feature","geometry":{"type":"Polygon","coordinates":[[[-71.303361,-33.560641],[-71.303985,-33.556385],[-71.299539,-33.553489],[-71.300163,-33.549234],[-71.295718,-33.546337],[-71.296342,-33.542081],[-71.291897,-33.539184],[-71.292521,-33.534928],[-71.288076,-33.532031],[-71.283007,-33.53339],[-71.278563,-33.530493],[-71.279187,-33.526236],[-71.284256,-33.524876],[-71.28488,-33.520619],[-71.280436,-33.517721],[-71.275367,-33.519081],[-71.274743,-33.523338],[-71.269675,-33.524697],[-71.265231,-33.521799],[-71.265855,-33.517542],[-71.261412,-33.514644],[-71.256344,-33.516003],[-71.255719,-33.52026],[-71.250652,-33.521618],[-71.250027,-33.525875],[-71.244959,-33.527233],[-71.244335,-33.531489],[-71.248778,-33.534387],[-71.253845,-33.533029],[-71.25447,-33.528773],[-71.259538,-33.527415],[-71.263982,-33.530313],[-71.26905,-33.528954],[-71.273494,-33.531852],[-71.27287,-33.536108],[-71.267801,-33.537467],[-71.263357,-33.534569],[-71.258289,-33.535927],[-71.257664,-33.540183],[-71.262108,-33.543081],[-71.267177,-33.541723],[-71.271621,-33.54462],[-71.27669,-33.543261],[-71.281134,-33.546158],[-71.28051,-33.550414],[-71.284955,-33.553311],[-71.290024,-33.551952],[-71.294469,-33.554848],[-71.293845,-33.559104],[-71.288775,-33.560462],[-71.288151,-33.564717],[-71.283082,-33.566075],[-71.278636,-33.563179],[-71.273567,-33.564537],[-71.272943,-33.568791],[-71.267873,-33.570148],[-71.267249,-33.574402],[-71.271694,-33.577298],[-71.271247,-33.580342],[-71.27087,-33.58036],[-71.271,-33.58134],[-71.27005,-33.58136],[-71.26757,-33.58197],[-71.26591,-33.58247],[-71.26555,-33.58248],[-71.26503,-33.58209],[-71.26478,-33.58198],[-71.26455,-33.581964],[-71.26364,-33.5819],[-71.2621,-33.58218],[-71.26096,-33.58225],[-71.26075,-33.58225],[-71.258291,-33.582314],[-71.25727,-33.58234],[-71.256335,-33.582391],[-71.25508,-33.58246],[-71.25263,-33.58253],[-71.251236,-33.582557],[-71.251135,-33.582249],[-71.251068,-33.581866],[-71.251149,-33.581417],[-71.251345,-33.580988],[-71.251598,-33.580699],[-71.25193,-33.58055],[-71.252336,-33.580364],[-71.252638,-33.580136],[-71.252745,-33.579935],[-71.252839,-33.57966],[-71.252954,-33.579067],[-71.25298,-33.578935],[-71.253134,-33.57809],[-71.253237,-33.577745],[-71.253476,-33.577346],[-71.25359,-33.577051],[-71.25357,-33.57679],[-71.253469,-33.57636],[-71.25321,-33.57587],[-71.25294,-33.57549],[-71.252698,-33.575293],[-71.252519,-33.575218],[-71.25238,-33.57516],[-71.25203,-33.57501],[-71.251491,-33.574529],[-71.251203,-33.574404],[-71.25,-33.57424],[-71.24956,-33.57418],[-71.248989,-33.574166],[-71.248499,-33.574207],[-71.247486,-33.574274],[-71.24693,-33.574334],[-71.246675,-33.574307],[-71.24646,-33.57422],[-71.245977,-33.573979],[-71.245528,-33.573764],[-71.245226,-33.57365],[-71.244864,-33.57363],[-71.244582,-33.573717],[-71.24422,-33.573844],[-71.243831,-33.573911],[-71.243576,-33.573838],[-71.24336,-33.57368],[-71.243254,-33.573355],[-71.24327,-33.57301],[-71.243328,-33.572631],[-71.24341,-33.5721],[-71.24448,-33.56991],[-71.244703,-33.569317],[-71.24478,-33.56891],[-71.244777,-33.567814],[-71.244703,-33.567432],[-71.244461,-33.567103],[-71.24361,-33.5664],[-71.243321,-33.566245],[-71.243006,-33.566144],[-71.242704,-33.566124],[-71.242409,-33.566205],[-71.242033,-33.566371],[-71.24103,-33.56685],[-71.23954,-33.56789],[-71.238913,-33.568401],[-71.238794,-33.568499],[-71.238371,-33.568747],[-71.237848,-33.568774],[-71.23718,-33.56858],[-71.23611,-33.56789],[-71.23494,-33.56667],[-71.234172,-33.565668],[-71.234105,-33.565474],[-71.234125,-33.565212],[-71.234226,-33.565004],[-71.234534,-33.564789],[-71.234823,-33.564622],[-71.23521,-33.56448],[-71.236252,-33.564159],[-71.23661,-33.56398],[-71.236807,-33.563878],[-71.237727,-33.563401],[-71.238331,-33.562965],[-71.2386,-33.56269],[-71.238894,-33.562408],[-71.238968,-33.562288],[-71.238975,-33.562167],[-71.238888,-33.562033],[-71.238606,-33.561892],[-71.23829,-33.56178],[-71.237345,-33.561624],[-71.236486,-33.561637],[-71.235192,-33.561657],[-71.235035,-33.561661],[-71.23386,-33.56169],[-71.233079,-33.561865],[-71.232428,-33.562127],[-71.232093,-33.562301],[-71.231778,-33.562361],[-71.23153,-33.562348],[-71.23108,-33.562187],[-71.23018,-33.56163],[-71.2291,-33.56067],[-71.22825,-33.5594],[-71.22635,-33.55773],[-71.225936,-33.557492],[-71.225911,-33.557483],[-71.225151,-33.55721],[-71.22409,-33.55674],[-71.223212,-33.556258],[-71.222723,-33.555936],[-71.221951,-33.555446],[-71.22139,-33.55501],[-71.221234,-33.554695],[-71.2212,-33.55444],[-71.221188,-33.554036],[-71.22118,-33.553789],[-71.221254,-33.553112],[-71.22124,-33.552803],[-71.221126,-33.552354],[-71.220912,-33.551891],[-71.220804,-33.551603],[-71.220737,-33.551194],[-71.220711,-33.550724],[-71.220677,-33.550496],[-71.220536,-33.550295],[-71.220228,-33.55008],[-71.219295,-33.549503],[-71.21878,-33.54931],[-71.218497,-33.549282],[-71.21821,-33.54934],[-71.217994,-33.549577],[-71.217847,-33.549872],[-71.21764,-33.55025],[-71.217303,-33.550731],[-71.21676,-33.55121],[-71.216324,-33.551489],[-71.215962,-33.55163],[-71.2156,-33.551656],[-71.215231,-33.551529],[-71.214922,-33.551314],[-71.21457,-33.551],[-71.214231,-33.550483],[-71.214169,-33.550018],[-71.214245,-33.549572],[-71.21433,-33.54907],[-71.214674,-33.548511],[-71.215291,-33.547947],[-71.216053,-33.547236],[-71.216089,-33.547203],[-71.216357,-33.546961],[-71.216458,-33.54674],[-71.216472,-33.546425],[-71.216378,-33.545432],[-71.216351,-33.544969],[-71.21625,-33.544634],[-71.216036,-33.544473],[-71.215693,-33.544325],[-71.21403,-33.54364],[-71.212582,-33.543101],[-71.21234,-33.543037],[-71.211817,-33.54299],[-71.21096,-33.54293],[-71.210395,-33.542709],[-71.209885,-33.542387],[-71.20965,-33.54217],[-71.20927,-33.54236],[-71.208634,-33.54255],[-71.20596,-33.54335],[-71.20455,-33.54385],[-71.20319,-33.54428],[-71.20164,-33.54487],[-71.200956,-33.545149],[-71.19873,-33.543696],[-71.193664,-33.545051],[-71.189223,-33.542152],[-71.184157,-33.543506],[-71.183531,-33.54776],[-71.178465,-33.549114],[-71.174025,-33.546215],[-71.17465,-33.541961],[-71.17021,-33.539061],[-71.165145,-33.540415],[-71.164519,-33.544669],[-71.159453,-33.546022],[-71.158827,-33.550275],[-71.163267,-33.553175],[-71.168333,-33.551822],[-71.17046,-33.553211],[-71.169952,-33.553346],[-71.16926,-33.55372],[-71.168258,-33.553911],[-71.167387,-33.554293],[-71.16625,-33.55501],[-71.16477,-33.55502],[-71.163556,-33.555175],[-71.162977,-33.555149],[-71.162923,-33.555147],[-71.162344,-33.555037],[-71.1618,-33.55486],[-71.158975,-33.554561],[-71.15818,-33.55429],[-71.15762,-33.55411],[-71.156753,-33.553929],[-71.156067,-33.553911],[-71.155372,-33.554045],[-71.154798,-33.554007],[-71.154546,-33.55399],[-71.153636,-33.553907],[-71.153415,-33.553985],[-71.153762,-33.551628],[-71.149323,-33.548728],[-71.149949,-33.544475],[-71.155014,-33.543122],[-71.15564,-33.538868],[-71.160705,-33.537515],[-71.161331,-33.533261],[-71.166396,-33.531907],[-71.170836,-33.534807],[-71.175902,-33.533453],[-71.176527,-33.529198],[-71.181593,-33.527843],[-71.182219,-33.523588],[-71.177779,-33.520688],[-71.172713,-33.522043],[-71.172088,-33.526298],[-71.167022,-33.527652],[-71.162583,-33.524752],[-71.157518,-33.526106],[-71.156892,-33.53036],[-71.151827,-33.531714],[-71.147388,-33.528813],[-71.148014,-33.524559],[-71.143576,-33.521658],[-71.138511,-33.523011],[-71.137885,-33.527265],[-71.142323,-33.530166],[-71.141697,-33.53442],[-71.136633,-33.535773],[-71.132194,-33.532872],[-71.12713,-33.534224],[-71.122692,-33.531323],[-71.123319,-33.527069],[-71.118881,-33.524167],[-71.119507,-33.519913],[-71.124571,-33.518561],[-71.129009,-33.521462],[-71.134073,-33.52011],[-71.134699,-33.515855],[-71.130261,-33.512953],[-71.130888,-33.508698],[-71.12645,-33.505796],[-71.121386,-33.507149],[-71.116949,-33.504247],[-71.111886,-33.5056],[-71.10745,-33.502697],[-71.102387,-33.50405],[-71.10176,-33.508305],[-71.106197,-33.511207],[-71.11126,-33.509855],[-71.115697,-33.512757],[-71.11507,-33.517011],[-71.110007,-33.518364],[-71.10938,-33.522618],[-71.113817,-33.525519],[-71.113191,-33.529773],[-71.108127,-33.531125],[-71.107501,-33.535378],[-71.111938,-33.538279],[-71.111311,-33.542532],[-71.115749,-33.545433],[-71.115122,-33.549686],[-71.11882,-33.552103],[-71.11873,-33.55217],[-71.11712,-33.55294],[-71.11632,-33.55364],[-71.116077,-33.55399],[-71.115664,-33.554265],[-71.115223,-33.55421],[-71.11479,-33.55388],[-71.112715,-33.552584],[-71.112302,-33.552006],[-71.11207,-33.55138],[-71.111797,-33.550573],[-71.111751,-33.550435],[-71.111283,-33.549774],[-71.11042,-33.54874],[-71.10869,-33.54782],[-71.10793,-33.54781],[-71.10695,-33.54799],[-71.106019,-33.548396],[-71.106019,-33.548396],[-71.101693,-33.549719],[-71.100468,-33.550092],[-71.100067,-33.550215],[-71.09891,-33.550463],[-71.09771,-33.55056],[-71.096457,-33.550655],[-71.09528,-33.55095],[-71.09399,-33.5518],[-71.09246,-33.55331],[-71.092144,-33.553307],[-71.09043,-33.552186],[-71.089546,-33.552422],[-71.089431,-33.552364],[-71.08851,-33.552],[-71.086537,-33.550545],[-71.08586,-33.55038],[-71.08537,-33.55046],[-71.08432,-33.55078],[-71.0828,-33.55069],[-71.0818,-33.55032],[-71.081023,-33.550001],[-71.07961,-33.54942],[-71.078793,-33.54931],[-71.078105,-33.549167],[-71.07714,-33.549278],[-71.07644,-33.5498],[-71.07592,-33.55079],[-71.075184,-33.551455],[-71.075094,-33.551477],[-71.071431,-33.549081],[-71.066368,-33.55043],[-71.061933,-33.547528],[-71.06256,-33.543276],[-71.067623,-33.541927],[-71.072058,-33.54483],[-71.077121,-33.54348],[-71.081557,-33.546382],[-71.08662,-33.545033],[-71.091057,-33.547934],[-71.09612,-33.546584],[-71.096747,-33.542332],[-71.10181,-33.540981],[-71.102437,-33.536729],[-71.098,-33.533827],[-71.098627,-33.529574],[-71.10369,-33.528223],[-71.104317,-33.523969],[-71.09988,-33.521067],[-71.094817,-33.522418],[-71.090381,-33.519516],[-71.085318,-33.520867],[-71.084691,-33.52512],[-71.079629,-33.526471],[-71.075193,-33.523568],[-71.070131,-33.524918],[-71.069504,-33.529171],[-71.073939,-33.532073],[-71.073312,-33.536326],[-71.06825,-33.537675],[-71.063814,-33.534773],[-71.064441,-33.53052],[-71.060006,-33.527617],[-71.054944,-33.528967],[-71.054317,-33.533219],[-71.049255,-33.534568],[-71.048628,-33.538819],[-71.043566,-33.540168],[-71.039132,-33.537264],[-71.039759,-33.533013],[-71.035325,-33.530109],[-71.035953,-33.525857],[-71.041014,-33.524509],[-71.041641,-33.520256],[-71.038242,-33.51803],[-71.038331,-33.517896],[-71.038476,-33.517539],[-71.038554,-33.517207],[-71.038635,-33.516559],[-71.038858,-33.51587],[-71.039562,-33.514799],[-71.040101,-33.514133],[-71.04028,-33.513751],[-71.040365,-33.513351],[-71.040357,-33.512791],[-71.040438,-33.512405],[-71.042896,-33.51175],[-71.04733,-33.514654],[-71.046703,-33.518907],[-71.051137,-33.521811],[-71.056199,-33.520461],[-71.056826,-33.516208],[-71.061888,-33.514858],[-71.066323,-33.517762],[-71.071385,-33.516412],[-71.072012,-33.512158],[-71.067577,-33.509255],[-71.068204,-33.505001],[-71.063769,-33.502097],[-71.058707,-33.503447],[-71.054273,-33.500543],[-71.054712,-33.497564],[-71.054874,-33.497525],[-71.055494,-33.497406],[-71.056047,-33.497287],[-71.05665,-33.497193],[-71.05694,-33.497134],[-71.05718,-33.49703],[-71.05785,-33.49677],[-71.05826,-33.49647],[-71.058614,-33.496156],[-71.058963,-33.49594],[-71.059527,-33.495591],[-71.060303,-33.495162],[-71.060307,-33.49516],[-71.060706,-33.49511],[-71.061304,-33.495027],[-71.061968,-33.494877],[-71.062565,-33.494662],[-71.06309,-33.49426],[-71.063827,-33.492769],[-71.06376,-33.492537],[-71.063561,-33.492122],[-71.06332,-33.49113],[-71.06315,-33.49012],[-71.063088,-33.490017],[-71.062847,-33.489615],[-71.062748,-33.489217],[-71.0628,-33.48883],[-71.06289,-33.48713],[-71.06302,-33.48549],[-71.06284,-33.48469],[-71.062646,-33.48437],[-71.062465,-33.484127],[-71.062388,-33.483998],[-71.062336,-33.483879],[-71.062305,-33.483667],[-71.062201,-33.483306],[-71.061985,-33.482815],[-71.06177,-33.48223],[-71.06176,-33.482195],[-71.061685,-33.481927],[-71.061613,-33.481513],[-71.061587,-33.481116],[-71.061598,-33.480749],[-71.061629,-33.480532],[-71.061727,-33.480274],[-71.061711,-33.480005],[-71.061598,-33.47967],[-71.061474,-33.479287],[-71.061432,-33.478993],[-71.061437,-33.478755],[-71.061582,-33.478415],[-71.061913,-33.478022],[-71.062208,-33.477746],[-71.062469,-33.477918],[-71.067531,-33.476566],[-71.071965,-33.47947],[-71.071338,-33.483726],[-71.075773,-33.48663],[-71.080835,-33.485278],[-71.08527,-33.488182],[-71.090332,-33.48683],[-71.090959,-33.482574],[-71.086523,-33.47967],[-71.08715,-33.475414],[-71.092212,-33.474061],[-71.092839,-33.469804],[-71.0979,-33.468451],[-71.098527,-33.464194],[-71.103589,-33.46284],[-71.108025,-33.465744],[-71.113087,-33.464389],[-71.113713,-33.460132],[-71.109277,-33.457228],[-71.104215,-33.458582],[-71.09978,-33.455678],[-71.100406,-33.45142],[-71.105468,-33.450065],[-71.109904,-33.452969],[-71.114966,-33.451615],[-71.119402,-33.454519],[-71.118776,-33.458777],[-71.123212,-33.46168],[-71.122586,-33.465938],[-71.127023,-33.468842],[-71.126396,-33.473099],[-71.130833,-33.476002],[-71.135897,-33.474647],[-71.140334,-33.47755],[-71.139708,-33.481807],[-71.144146,-33.484709],[-71.14352,-33.488966],[-71.138456,-33.490321],[-71.13783,-33.494577],[-71.142268,-33.497479],[-71.141642,-33.501735],[-71.14608,-33.504637],[-71.151144,-33.503283],[-71.15177,-33.499027],[-71.156834,-33.497672],[-71.15746,-33.493415],[-71.162524,-33.49206],[-71.16315,-33.487803],[-71.158712,-33.484901],[-71.159337,-33.480644],[-71.164402,-33.479288],[-71.16884,-33.48219],[-71.173905,-33.480833],[-71.178344,-33.483735],[-71.183409,-33.482378],[-71.187848,-33.485279],[-71.192913,-33.483922],[-71.193539,-33.479664],[-71.189099,-33.476763],[-71.184034,-33.47812],[-71.179595,-33.475219],[-71.18022,-33.47096],[-71.175781,-33.468058],[-71.176407,-33.463799],[-71.171968,-33.460897],[-71.166904,-33.462254],[-71.162466,-33.459352],[-71.157402,-33.460708],[-71.156776,-33.464967],[-71.151713,-33.466323],[-71.151087,-33.470581],[-71.155525,-33.473484],[-71.154899,-33.477742],[-71.149835,-33.479097],[-71.145397,-33.476195],[-71.146023,-33.471937],[-71.141586,-33.469034],[-71.142212,-33.464776],[-71.137775,-33.461873],[-71.138401,-33.457615],[-71.133964,-33.454712],[-71.13459,-33.450453],[-71.130153,-33.447549],[-71.130267,-33.446775],[-71.131058,-33.446824],[-71.13197,-33.44701],[-71.132592,-33.447201],[-71.133868,-33.447663],[-71.134975,-33.447944],[-71.13586,-33.44798],[-71.137007,-33.448045],[-71.137918,-33.448069],[-71.138671,-33.447953],[-71.13949,-33.44729],[-71.13959,-33.44726],[-71.13991,-33.447342],[-71.139652,-33.449097],[-71.14409,-33.452],[-71.143464,-33.456259],[-71.147901,-33.459162],[-71.152964,-33.457806],[-71.15359,-33.453547],[-71.158654,-33.45219],[-71.159216,-33.448362],[-71.16011,-33.44863],[-71.161449,-33.448561],[-71.161999,-33.44804],[-71.16245,-33.4474],[-71.162687,-33.447017],[-71.163128,-33.446303],[-71.163794,-33.445609],[-71.164533,-33.445219],[-71.164542,-33.445219],[-71.165634,-33.44525],[-71.1668,-33.446],[-71.169,-33.44719],[-71.17071,-33.44823],[-71.171475,-33.448754],[-71.172419,-33.4494],[-71.173808,-33.449979],[-71.174966,-33.450153],[-71.17624,-33.450384],[-71.177152,-33.450281],[-71.177774,-33.450211],[-71.17936,-33.45012],[-71.180321,-33.450269],[-71.180633,-33.450391],[-71.18099,-33.45053],[-71.181913,-33.450876],[-71.182578,-33.451282],[-71.183128,-33.451861],[-71.183649,-33.451976],[-71.184228,-33.451861],[-71.18491,-33.45178],[-71.185878,-33.451716],[-71.186262,-33.451569],[-71.187786,-33.452565],[-71.187161,-33.456825],[-71.1916,-33.459727],[-71.190975,-33.463986],[-71.195415,-33.466888],[-71.194789,-33.471147],[-71.199229,-33.474048],[-71.204294,-33.47269],[-71.208735,-33.475591],[-71.2138,-33.474233],[-71.214425,-33.469973],[-71.209985,-33.467073],[-71.21061,-33.462813],[-71.215675,-33.461454],[-71.220116,-33.464355],[-71.225181,-33.462996],[-71.229622,-33.465896],[-71.228998,-33.470156],[-71.223932,-33.471515],[-71.223307,-33.475775],[-71.227748,-33.478675],[-71.232814,-33.477316],[-71.233439,-33.473057],[-71.238505,-33.471697],[-71.242947,-33.474597],[-71.248013,-33.473237],[-71.252455,-33.476137],[-71.257522,-33.474777],[-71.258147,-33.470517],[-71.253705,-33.467617],[-71.248638,-33.468977],[-71.244196,-33.466077],[-71.244821,-33.461817],[-71.240379,-33.458916],[-71.235313,-33.460276],[-71.230872,-33.457376],[-71.231497,-33.453115],[-71.227056,-33.450214],[-71.221991,-33.451574],[-71.21755,-33.448673],[-71.218175,-33.444412],[-71.213735,-33.44151],[-71.21436,-33.437249],[-71.210493,-33.434721],[-71.210914,-33.434581],[-71.211667,-33.434234],[-71.212911,-33.433973],[-71.213895,-33.433829],[-71.214706,-33.433858],[-71.216356,-33.433886],[-71.217369,-33.434002],[-71.21822,-33.43401],[-71.218787,-33.434176],[-71.219389,-33.434495],[-71.219622,-33.434541],[-71.219829,-33.434581],[-71.220408,-33.434523],[-71.2225,-33.43418],[-71.224084,-33.434147],[-71.22525,-33.4342],[-71.225907,-33.434234],[-71.226515,-33.434089],[-71.227268,-33.433742],[-71.228483,-33.433568],[-71.229525,-33.43325],[-71.229543,-33.43325],[-71.22893,-33.43743],[-71.233371,-33.440331],[-71.238437,-33.43897],[-71.242878,-33.441871],[-71.242253,-33.446133],[-71.246695,-33.449034],[-71.251761,-33.447673],[-71.256203,-33.450573],[-71.261269,-33.449212],[-71.265711,-33.452112],[-71.270778,-33.45075],[-71.275221,-33.45365],[-71.280288,-33.452288],[-71.280912,-33.448026],[-71.276469,-33.445126],[-71.277093,-33.440863],[-71.272651,-33.437963],[-71.273275,-33.4337],[-71.268833,-33.4308],[-71.263766,-33.432162],[-71.259325,-33.429262],[-71.254259,-33.430624],[-71.249817,-33.427723],[-71.250442,-33.42346],[-71.246001,-33.420558],[-71.24175,-33.421701],[-71.241768,-33.421643],[-71.24232,-33.42086],[-71.24298,-33.42025],[-71.243684,-33.419947],[-71.244721,-33.419501],[-71.24556,-33.41898],[-71.24582,-33.418228],[-71.24611,-33.417475],[-71.246544,-33.416723],[-71.246564,-33.416714],[-71.24727,-33.416386],[-71.24809,-33.41619],[-71.249699,-33.415623],[-71.25,-33.415545],[-71.250387,-33.415444],[-71.250551,-33.41526],[-71.250556,-33.415238],[-71.251691,-33.414933],[-71.256132,-33.417834],[-71.255507,-33.422098],[-71.259949,-33.424999],[-71.265015,-33.423636],[-71.265639,-33.419372],[-71.270705,-33.418009],[-71.275148,-33.42091],[-71.280214,-33.419547],[-71.280838,-33.415282],[-71.276396,-33.412382],[-71.27133,-33.413745],[-71.266888,-33.410844],[-71.261822,-33.412207],[-71.258941,-33.410326],[-71.26002,-33.41038],[-71.261797,-33.410731],[-71.2631,-33.410789],[-71.264142,-33.410674],[-71.265329,-33.410153],[-71.266457,-33.409574],[-71.267119,-33.409267],[-71.267644,-33.409024],[-71.27043,-33.40763],[-71.271494,-33.406737],[-71.272507,-33.406158],[-71.273272,-33.405669],[-71.27702,-33.408117],[-71.279052,-33.40757],[-71.279488,-33.407878],[-71.279918,-33.408236],[-71.280582,-33.408787],[-71.281011,-33.409324],[-71.281647,-33.410034],[-71.282061,-33.41053],[-71.282631,-33.410724],[-71.283034,-33.410813],[-71.283415,-33.410886],[-71.283647,-33.410937],[-71.284317,-33.410907],[-71.284709,-33.410723],[-71.285097,-33.410544],[-71.285837,-33.410299],[-71.286432,-33.410313],[-71.286627,-33.410317],[-71.287827,-33.410759],[-71.288239,-33.410864],[-71.28886,-33.410958],[-71.289453,-33.411075],[-71.289872,-33.411284],[-71.290399,-33.411465],[-71.290662,-33.411576],[-71.290994,-33.411818],[-71.291444,-33.411881],[-71.292196,-33.41187],[-71.292718,-33.411901],[-71.293196,-33.411844],[-71.293875,-33.411798],[-71.294467,-33.411757],[-71.294939,-33.411595],[-71.295467,-33.411467],[-71.295771,-33.411447],[-71.295977,-33.411608],[-71.295414,-33.415455],[-71.299857,-33.418355],[-71.299233,-33.422619],[-71.303677,-33.425519],[-71.308744,-33.424155],[-71.309368,-33.41989],[-71.314435,-33.418525],[-71.315059,-33.41426],[-71.320126,-33.412895],[-71.320548,-33.410009],[-71.320821,-33.409993],[-71.321982,-33.40992],[-71.322876,-33.409799],[-71.323996,-33.409634],[-71.324646,-33.409436],[-71.325157,-33.408997],[-71.325533,-33.408359],[-71.325687,-33.408097],[-71.32591,-33.407338],[-71.325918,-33.407329],[-71.326267,-33.406917],[-71.326657,-33.406837],[-71.327157,-33.407137],[-71.327649,-33.407228],[-71.328237,-33.407337],[-71.329297,-33.407427],[-71.330404,-33.407714],[-71.331512,-33.408041],[-71.332137,-33.408417],[-71.332418,-33.40906],[-71.332471,-33.409499],[-71.332488,-33.409563],[-71.332669,-33.41023],[-71.332897,-33.410737],[-71.333152,-33.411321],[-71.33339,-33.411791],[-71.33364,-33.412322],[-71.334144,-33.412749],[-71.334375,-33.413057],[-71.334681,-33.413163],[-71.335036,-33.41314],[-71.336227,-33.413037],[-71.337035,-33.413056],[-71.337787,-33.413075],[-71.338676,-33.413481],[-71.339461,-33.413838],[-71.33961,-33.413905],[-71.34043,-33.414669],[-71.34159,-33.414952],[-71.342664,-33.415518],[-71.343174,-33.415829],[-71.343428,-33.416366],[-71.343343,-33.417356],[-71.343393,-33.418161],[-71.343414,-33.418742],[-71.343429,-33.419157],[-71.343507,-33.419468],[-71.343673,-33.420123],[-71.343813,-33.420934],[-71.34386,-33.422103],[-71.343642,-33.422898],[-71.343505,-33.423473],[-71.342973,-33.423126],[-71.337904,-33.424492],[-71.337281,-33.428757],[-71.341726,-33.431656],[-71.343205,-33.431257],[-71.343107,-33.432508],[-71.342758,-33.433852],[-71.342276,-33.434535],[-71.34181,-33.435136],[-71.341265,-33.435625],[-71.34111,-33.43587],[-71.341074,-33.435928],[-71.340979,-33.436078],[-71.340812,-33.436621],[-71.340737,-33.437394],[-71.340624,-33.437877],[-71.340357,-33.438387],[-71.339727,-33.438891],[-71.339113,-33.439579],[-71.338476,-33.440353],[-71.338071,-33.44072],[-71.337637,-33.441087],[-71.337227,-33.441447],[-71.337236,-33.441765],[-71.337247,-33.442157],[-71.337453,-33.442822],[-71.337477,-33.442896],[-71.337657,-33.443477],[-71.337752,-33.44402],[-71.337847,-33.444567],[-71.337757,-33.445287],[-71.337624,-33.445878],[-71.337468,-33.446361],[-71.337359,-33.446735],[-71.337317,-33.446997],[-71.337421,-33.447608],[-71.337624,-33.447982],[-71.337996,-33.448403],[-71.338255,-33.448975],[-71.334164,-33.450076],[-71.329719,-33.447178],[-71.32465,-33.448542],[-71.320206,-33.445644],[-71.315137,-33.447008],[-71.314514,-33.451271],[-71.318958,-33.454169],[-71.318335,-33.458432],[-71.322779,-33.46133],[-71.322156,-33.465592],[-71.326601,-33.46849],[-71.325977,-33.472752],[-71.320908,-33.474115],[-71.320285,-33.478376],[-71.32473,-33.481274],[-71.329799,-33.479911],[-71.330423,-33.47565],[-71.335492,-33.474286],[-71.339938,-33.477183],[-71.340465,-33.477041],[-71.340509,-33.477142],[-71.34077,-33.477638],[-71.341144,-33.47802],[-71.34137,-33.478133],[-71.341883,-33.478403],[-71.342352,-33.479142],[-71.34282,-33.479685],[-71.343298,-33.479892],[-71.34383,-33.480174],[-71.344048,-33.480609],[-71.344091,-33.481228],[-71.344167,-33.48163],[-71.34445,-33.481913],[-71.344891,-33.482363],[-71.345716,-33.482976],[-71.346637,-33.483519],[-71.346698,-33.483551],[-71.346997,-33.483713],[-71.347199,-33.48388],[-71.347405,-33.484043],[-71.348014,-33.484977],[-71.348549,-33.485697],[-71.348916,-33.486186],[-71.349228,-33.486662],[-71.349785,-33.487816],[-71.349989,-33.488387],[-71.350901,-33.489313],[-71.351558,-33.490038],[-71.351845,-33.490353],[-71.347584,-33.4915],[-71.34696,-33.49576],[-71.350149,-33.497837],[-71.349652,-33.498196],[-71.349302,-33.498796],[-71.349239,-33.499162],[-71.349212,-33.499423],[-71.349162,-33.499906],[-71.34919,-33.5],[-71.349364,-33.500595],[-71.349586,-33.50108],[-71.349799,-33.501567],[-71.350197,-33.502815],[-71.350324,-33.50304],[-71.345713,-33.50428],[-71.341267,-33.501384],[-71.34189,-33.497124],[-71.337444,-33.494227],[-71.332374,-33.49559],[-71.327928,-33.492693],[-71.322859,-33.494055],[-71.318414,-33.491158],[-71.313344,-33.49252],[-71.312721,-33.49678],[-71.307652,-33.498142],[-71.303207,-33.495244],[-71.298138,-33.496606],[-71.293694,-33.493708],[-71.294318,-33.489448],[-71.289874,-33.48655],[-71.290498,-33.48229],[-71.286054,-33.479391],[-71.286678,-33.475131],[-71.282234,-33.472232],[-71.277167,-33.473594],[-71.276543,-33.477854],[-71.280986,-33.480753],[-71.280362,-33.485013],[-71.284806,-33.487911],[-71.284181,-33.492171],[-71.288625,-33.495069],[-71.288001,-33.499328],[-71.292445,-33.502226],[-71.291821,-33.506485],[-71.286753,-33.507845],[-71.286129,-33.512104],[-71.290573,-33.515001],[-71.295642,-33.513641],[-71.300087,-33.516538],[-71.305156,-33.515177],[-71.309601,-33.518074],[-71.308977,-33.522332],[-71.313423,-33.525229],[-71.318493,-33.523868],[-71.322939,-33.526765],[-71.322315,-33.531022],[-71.326761,-33.533918],[-71.331831,-33.532557],[-71.334053,-33.534004],[-71.333188,-33.534307],[-71.33216,-33.534771],[-71.331355,-33.53528],[-71.331367,-33.535755],[-71.331638,-33.536185],[-71.332267,-33.536824],[-71.332691,-33.537183],[-71.333391,-33.537973],[-71.333812,-33.538822],[-71.334013,-33.539121],[-71.3343,-33.539603],[-71.334306,-33.540072],[-71.33431,-33.5404],[-71.334384,-33.540892],[-71.334189,-33.54128],[-71.333679,-33.54153],[-71.333216,-33.541762],[-71.332799,-33.541929],[-71.332196,-33.54217],[-71.33177,-33.542225],[-71.331353,-33.542457],[-71.331057,-33.542707],[-71.330964,-33.542939],[-71.330812,-33.543751],[-71.330614,-33.545092],[-71.330673,-33.545793],[-71.330723,-33.546385],[-71.33071,-33.54724],[-71.330596,-33.549039],[-71.330069,-33.551377],[-71.329509,-33.553583],[-71.329502,-33.55363],[-71.328713,-33.553841],[-71.328089,-33.558097],[-71.32853,-33.558385],[-71.328084,-33.559602],[-71.327914,-33.561022],[-71.328202,-33.56137],[-71.328624,-33.561882],[-71.328596,-33.562809],[-71.328734,-33.563412],[-71.329489,-33.564623],[-71.329819,-33.565135],[-71.330153,-33.565597],[-71.33019,-33.56571],[-71.326841,-33.566608],[-71.322394,-33.563713],[-71.317324,-33.565073],[-71.312877,-33.562177],[-71.307807,-33.563537],[-71.303361,-33.560641]],[[-71.302036,-33.536465],[-71.301412,-33.540721],[-71.305857,-33.543618],[-71.310927,-33.542258],[-71.311551,-33.538001],[-71.307105,-33.535104],[-71.302036,-33.536465]],[[-71.267104,-33.509027],[-71.271548,-33.511925],[-71.276616,-33.510566],[-71.27724,-33.506308],[-71.272797,-33.503409],[-71.267729,-33.504769],[-71.267104,-33.509027]],[[-71.236699,-33.517179],[-71.237324,-33.512922],[-71.232882,-33.510023],[-71.233507,-33.505766],[-71.238574,-33.504408],[-71.239198,-33.50015],[-71.234756,-33.49725],[-71.22969,-33.498609],[-71.225248,-33.495709],[-71.220182,-33.497067],[-71.219557,-33.501325],[-71.21449,-33.502682],[-71.213865,-33.506939],[-71.218307,-33.509839],[-71.217681,-33.514096],[-71.222123,-33.516995],[-71.22719,-33.515638],[-71.231632,-33.518537],[-71.236699,-33.517179]],[[-71.28216,-33.439501],[-71.286603,-33.4424],[-71.29167,-33.441037],[-71.292294,-33.436774],[-71.287851,-33.433875],[-71.288475,-33.429611],[-71.284032,-33.426711],[-71.278966,-33.428074],[-71.278342,-33.432338],[-71.282784,-33.435238],[-71.28216,-33.439501]],[[-71.301805,-33.43831],[-71.301181,-33.442573],[-71.305625,-33.445473],[-71.310693,-33.444109],[-71.311317,-33.439846],[-71.306873,-33.436946],[-71.301805,-33.43831]],[[-71.265087,-33.456373],[-71.26002,-33.457735],[-71.259396,-33.461996],[-71.263838,-33.464895],[-71.268905,-33.463534],[-71.269529,-33.459273],[-71.265087,-33.456373]],[[-71.316385,-33.438481],[-71.320829,-33.44138],[-71.325897,-33.440016],[-71.326521,-33.435752],[-71.322076,-33.432853],[-71.317008,-33.434218],[-71.316385,-33.438481]],[[-71.221432,-33.488551],[-71.225873,-33.491451],[-71.230939,-33.490093],[-71.231564,-33.485834],[-71.227123,-33.482934],[-71.222057,-33.484293],[-71.221432,-33.488551]],[[-71.211925,-33.487009],[-71.21255,-33.48275],[-71.208109,-33.47985],[-71.203044,-33.481208],[-71.202419,-33.485466],[-71.206859,-33.488366],[-71.211925,-33.487009]],[[-71.113139,-33.497089],[-71.113765,-33.492834],[-71.109329,-33.489931],[-71.104266,-33.491284],[-71.09983,-33.488381],[-71.094768,-33.489733],[-71.094141,-33.493989],[-71.098577,-33.496892],[-71.10364,-33.495539],[-71.108076,-33.498442],[-71.113139,-33.497089]],[[-71.206923,-33.521065],[-71.202482,-33.518166],[-71.197416,-33.519522],[-71.196791,-33.523777],[-71.201232,-33.526677],[-71.206298,-33.525321],[-71.206923,-33.521065]],[[-71.200606,-33.530932],[-71.19554,-33.532288],[-71.194915,-33.536543],[-71.199356,-33.539442],[-71.204422,-33.538086],[-71.205048,-33.533832],[-71.200606,-33.530932]],[[-71.111208,-33.477161],[-71.115644,-33.480065],[-71.120707,-33.478711],[-71.121333,-33.474454],[-71.116897,-33.47155],[-71.111834,-33.472904],[-71.111208,-33.477161]]]},"properties":{"comuna":"María Pinto","mancha_id":"13504-88b2c08045fffff","clase":"Medio","nivel_medio":2.091,"nivel_medio_min":1.504,"nivel_medio_max":2.5,"pct_alto":24.3,"n_hexagonos":387,"area_ha":23030.42}},{"type":"Feature","geometry":{"type":"Polygon","coordinates":[[[-71.34696,-33.49576],[-71.347584,-33.4915],[-71.351845,-33.490353],[-71.352661,-33.491253],[-71.352984,-33.491715],[-71.353243,-33.492198],[-71.35316,-33.492823],[-71.352977,-33.493328],[-71.352871,-33.494368],[-71.352808,-33.495174],[-71.35284,-33.49583],[-71.352123,-33.496335],[-71.351147,-33.497115],[-71.350149,-33.497837],[-71.34696,-33.49576]]]},"properties":{"comuna":"María Pinto","mancha_id":"13504-88b2c09ad3fffff","clase":"Alto","nivel_medio":2.543,"nivel_medio_min":2.543,"nivel_medio_max":2.543,"pct_alto":54.3,"n_hexagonos":1,"area_ha":34.55}},{"type":"Feature","geometry":{"type":"Polygon","coordinates":[[[-71.173905,-33.480833],[-71.17453,-33.476575],[-71.179595,-33.475219],[-71.184034,-33.47812],[-71.189099,-33.476763],[-71.193539,-33.479664],[-71.192913,-33.483922],[-71.187848,-33.485279],[-71.183409,-33.482378],[-71.178344,-33.483735],[-71.173905,-33.480833]]]},"properties":{"comuna":"María Pinto","mancha_id":"13504-88b2c09739fffff","clase":"Alto","nivel_medio":2.53,"nivel_medio_min":2.525,"nivel_medio_max":2.535,"pct_alto":56.7,"n_hexagonos":2,"area_ha":128.15}},{"type":"Feature","geometry":{"type":"Polygon","coordinates":[[[-71.194789,-33.471147],[-71.195415,-33.466888],[-71.190975,-33.463986],[-71.1916,-33.459727],[-71.187161,-33.456825],[-71.187786,-33.452565],[-71.186262,-33.451569],[-71.18686,-33.45134],[-71.18741,-33.45102],[-71.188193,-33.450269],[-71.18847,-33.4499],[-71.188599,-33.448908],[-71.18861,-33.44814],[-71.18891,-33.44634],[-71.188946,-33.445059],[-71.188917,-33.444162],[-71.18891,-33.444079],[-71.189037,-33.444044],[-71.193476,-33.446947],[-71.192851,-33.451207],[-71.19729,-33.454109],[-71.196665,-33.458369],[-71.201105,-33.46127],[-71.20617,-33.459912],[-71.21061,-33.462813],[-71.209985,-33.467073],[-71.214425,-33.469973],[-71.2138,-33.474233],[-71.208735,-33.475591],[-71.204294,-33.47269],[-71.199229,-33.474048],[-71.194789,-33.471147]]]},"properties":{"comuna":"María Pinto","mancha_id":"13504-88b2c09729fffff","clase":"Alto","nivel_medio":2.721,"nivel_medio_min":2.566,"nivel_medio_max":2.988,"pct_alto":73.8,"n_hexagonos":6,"area_ha":353.23}},{"type":"Feature","geometry":{"type":"Polygon","coordinates":[[[-71.067531,-33.476566],[-71.062469,-33.477918],[-71.062208,-33.477746],[-71.062553,-33.477423],[-71.06293,-33.47718],[-71.063235,-33.47703],[-71.06354,-33.476932],[-71.06387,-33.476813],[-71.06433,-33.47654],[-71.065218,-33.475842],[-71.067139,-33.474438],[-71.067775,-33.473885],[-71.067953,-33.473701],[-71.067531,-33.476566]]]},"properties":{"comuna":"María Pinto","mancha_id":"13504-88b2c096cbfffff","clase":"Alto","nivel_medio":2.567,"nivel_medio_min":2.567,"nivel_medio_max":2.567,"pct_alto":51.6,"n_hexagonos":1,"area_ha":7.39}},{"type":"Feature","geometry":{"type":"Polygon","coordinates":[[[-71.14409,-33.452],[-71.139652,-33.449097],[-71.13991,-33.447342],[-71.140262,-33.447432],[-71.140803,-33.447435],[-71.141739,-33.447085],[-71.142341,-33.446958],[-71.142824,-33.447099],[-71.143146,-33.447562],[-71.144517,-33.448272],[-71.146109,-33.448677],[-71.147701,-33.44914],[-71.14883,-33.449342],[-71.149344,-33.449342],[-71.1502,-33.44934],[-71.1521,-33.448619],[-71.152882,-33.448098],[-71.15337,-33.44764],[-71.153924,-33.447403],[-71.15468,-33.44741],[-71.155458,-33.447664],[-71.156037,-33.447982],[-71.15706,-33.44806],[-71.15864,-33.44819],[-71.159216,-33.448362],[-71.158654,-33.45219],[-71.15359,-33.453547],[-71.152964,-33.457806],[-71.147901,-33.459162],[-71.143464,-33.456259],[-71.14409,-33.452]]]},"properties":{"comuna":"María Pinto","mancha_id":"13504-88b2c09665fffff","clase":"Alto","nivel_medio":2.525,"nivel_medio_min":2.513,"nivel_medio_max":2.536,"pct_alto":52.5,"n_hexagonos":3,"area_ha":134.27}},{"type":"Feature","geometry":{"type":"Polygon","coordinates":[[[-71.111208,-33.477161],[-71.111834,-33.472904],[-71.116897,-33.47155],[-71.121333,-33.474454],[-71.120707,-33.478711],[-71.115644,-33.480065],[-71.111208,-33.477161]]]},"properties":{"comuna":"María Pinto","mancha_id":"13504-88b2c09631fffff","clase":"Alto","nivel_medio":2.713,"nivel_medio_min":2.713,"nivel_medio_max":2.713,"pct_alto":74.3,"n_hexagonos":1,"area_ha":64.03}},{"type":"Feature","geometry":{"type":"Polygon","coordinates":[[[-71.149949,-33.544475],[-71.149323,-33.548728],[-71.153762,-33.551628],[-71.153415,-33.553985],[-71.15264,-33.55426],[-71.15205,-33.55427],[-71.151569,-33.554092],[-71.151298,-33.553947],[-71.151045,-33.55364],[-71.150847,-33.553279],[-71.150341,-33.552629],[-71.150032,-33.551407],[-71.149837,-33.550889],[-71.149449,-33.550566],[-71.148964,-33.550371],[-71.1481,-33.55004],[-71.14703,-33.54978],[-71.145712,-33.549692],[-71.1457,-33.549691],[-71.144873,-33.549774],[-71.144048,-33.549943],[-71.144012,-33.549951],[-71.143365,-33.550048],[-71.142718,-33.550242],[-71.141732,-33.550573],[-71.141071,-33.550683],[-71.14052,-33.550655],[-71.139941,-33.5506],[-71.139417,-33.550325],[-71.139087,-33.549939],[-71.138894,-33.549305],[-71.13862,-33.54851],[-71.13766,-33.54862],[-71.13599,-33.54901],[-71.134686,-33.548993],[-71.134754,-33.548532],[-71.139819,-33.54718],[-71.140445,-33.542927],[-71.14551,-33.541574],[-71.146136,-33.537321],[-71.151201,-33.535968],[-71.15564,-33.538868],[-71.155014,-33.543122],[-71.149949,-33.544475]]]},"properties":{"comuna":"María Pinto","mancha_id":"13504-88b2c095d1fffff","clase":"Alto","nivel_medio":2.671,"nivel_medio_min":2.542,"nivel_medio_max":2.858,"pct_alto":73.1,"n_hexagonos":4,"area_ha":158.64}},{"type":"Feature","geometry":{"type":"Polygon","coordinates":[[[-71.175732,-33.553931],[-71.177839,-33.553368],[-71.178465,-33.549114],[-71.183531,-33.54776],[-71.184157,-33.543506],[-71.189223,-33.542152],[-71.193664,-33.545051],[-71.19873,-33.543696],[-71.200956,-33.545149],[-71.200564,-33.54531],[-71.199875,-33.545475],[-71.199269,-33.545475],[-71.19858,-33.545585],[-71.198002,-33.545833],[-71.197395,-33.546274],[-71.196762,-33.546577],[-71.195659,-33.547073],[-71.195108,-33.547128],[-71.194337,-33.547018],[-71.193482,-33.54688],[-71.193395,-33.546879],[-71.19263,-33.54687],[-71.191746,-33.54688],[-71.19089,-33.54704],[-71.190093,-33.547349],[-71.18924,-33.54803],[-71.188522,-33.548837],[-71.187613,-33.549829],[-71.187206,-33.550159],[-71.18591,-33.55121],[-71.184742,-33.55213],[-71.183948,-33.552557],[-71.183314,-33.552667],[-71.182708,-33.55297],[-71.18206,-33.55344],[-71.17962,-33.55416],[-71.178997,-33.554123],[-71.175732,-33.553931]]]},"properties":{"comuna":"María Pinto","mancha_id":"13504-88b2c09585fffff","clase":"Alto","nivel_medio":2.729,"nivel_medio_min":2.686,"nivel_medio_max":2.968,"pct_alto":77.9,"n_hexagonos":4,"area_ha":104.09}},{"type":"Feature","geometry":{"type":"Polygon","coordinates":[[[-71.172088,-33.526298],[-71.172713,-33.522043],[-71.177779,-33.520688],[-71.182219,-33.523588],[-71.181593,-33.527843],[-71.176527,-33.529198],[-71.175902,-33.533453],[-71.170836,-33.534807],[-71.166396,-33.531907],[-71.161331,-33.533261],[-71.156892,-33.53036],[-71.157518,-33.526106],[-71.162583,-33.524752],[-71.167022,-33.527652],[-71.172088,-33.526298]]]},"properties":{"comuna":"María Pinto","mancha_id":"13504-88b2c0951bfffff","clase":"Alto","nivel_medio":2.71,"nivel_medio_min":2.589,"nivel_medio_max":2.783,"pct_alto":74.1,"n_hexagonos":3,"area_ha":191.98}},{"type":"Feature","geometry":{"type":"Polygon","coordinates":[[[-71.066368,-33.55043],[-71.071431,-33.549081],[-71.075094,-33.551477],[-71.074412,-33.551647],[-71.073696,-33.55162],[-71.07309,-33.55173],[-71.07263,-33.55209],[-71.07222,-33.55276],[-71.07192,-33.55339],[-71.07124,-33.55399],[-71.0702,-33.55443],[-71.06881,-33.55503],[-71.067123,-33.555585],[-71.066862,-33.555671],[-71.06572,-33.55599],[-71.064713,-33.555836],[-71.06419,-33.55588],[-71.063528,-33.555726],[-71.062922,-33.555616],[-71.062453,-33.555753],[-71.061744,-33.555922],[-71.060745,-33.556139],[-71.060664,-33.556128],[-71.05841,-33.55583],[-71.05688,-33.55558],[-71.05617,-33.55545],[-71.055619,-33.55512],[-71.055178,-33.554624],[-71.054739,-33.554436],[-71.05408,-33.55441],[-71.053139,-33.554431],[-71.05229,-33.55434],[-71.051972,-33.554265],[-71.050227,-33.553851],[-71.04976,-33.55374],[-71.04832,-33.55362],[-71.047766,-33.553687],[-71.047159,-33.553962],[-71.04668,-33.55465],[-71.0457,-33.55514],[-71.044294,-33.554816],[-71.043412,-33.554706],[-71.041924,-33.554458],[-71.04148,-33.554299],[-71.04112,-33.55417],[-71.03835,-33.55247],[-71.03764,-33.551823],[-71.03687,-33.55128],[-71.036383,-33.551009],[-71.03564,-33.55081],[-71.034772,-33.550743],[-71.034411,-33.550773],[-71.03396,-33.55081],[-71.033179,-33.551079],[-71.033039,-33.551138],[-71.03263,-33.55131],[-71.032205,-33.551451],[-71.032175,-33.551447],[-71.031656,-33.55138],[-71.03132,-33.551168],[-71.03099,-33.55081],[-71.030634,-33.550348],[-71.03049,-33.55016],[-71.029833,-33.549592],[-71.02907,-33.549323],[-71.02872,-33.5492],[-71.027939,-33.549008],[-71.027266,-33.54892],[-71.026682,-33.54892],[-71.026121,-33.548988],[-71.025968,-33.548937],[-71.025602,-33.548815],[-71.025049,-33.5484],[-71.024288,-33.547743],[-71.02251,-33.54595],[-71.02176,-33.54533],[-71.0204,-33.54516],[-71.018571,-33.544789],[-71.01828,-33.54473],[-71.01772,-33.54372],[-71.01682,-33.54293],[-71.01609,-33.5426],[-71.01393,-33.54207],[-71.013699,-33.54131],[-71.013646,-33.540675],[-71.013417,-33.540234],[-71.013296,-33.540058],[-71.013188,-33.5399],[-71.013029,-33.539635],[-71.012747,-33.539494],[-71.013334,-33.539125],[-71.013942,-33.538477],[-71.014266,-33.538092],[-71.014769,-33.537608],[-71.014792,-33.537586],[-71.015258,-33.537221],[-71.015846,-33.536715],[-71.016535,-33.536026],[-71.01696,-33.535459],[-71.017507,-33.535155],[-71.018074,-33.535094],[-71.018662,-33.535114],[-71.019208,-33.534851],[-71.019836,-33.534385],[-71.020131,-33.534155],[-71.020142,-33.534152],[-71.020142,-33.534146],[-71.020485,-33.533879],[-71.02087,-33.533494],[-71.021336,-33.533109],[-71.021801,-33.532825],[-71.022369,-33.53238],[-71.022632,-33.531995],[-71.022936,-33.531387],[-71.022997,-33.53084],[-71.023118,-33.53003],[-71.02326,-33.529361],[-71.023319,-33.529222],[-71.023483,-33.528835],[-71.023726,-33.528247],[-71.024273,-33.52764],[-71.024496,-33.527396],[-71.025043,-33.526951],[-71.025448,-33.526485],[-71.026076,-33.52608],[-71.026206,-33.52601],[-71.026643,-33.525776],[-71.027514,-33.525573],[-71.028,-33.525371],[-71.028426,-33.525047],[-71.02879,-33.524763],[-71.029216,-33.524439],[-71.029479,-33.524054],[-71.029844,-33.523689],[-71.03035,-33.523325],[-71.030674,-33.523203],[-71.031059,-33.523203],[-71.031606,-33.523244],[-71.032207,-33.523404],[-71.032214,-33.523406],[-71.032943,-33.523426],[-71.033692,-33.523203],[-71.03417,-33.522893],[-71.03432,-33.522818],[-71.034888,-33.522677],[-71.035382,-33.522414],[-71.035669,-33.522256],[-71.035934,-33.522066],[-71.036126,-33.521935],[-71.036278,-33.521704],[-71.036427,-33.521421],[-71.036639,-33.520954],[-71.036711,-33.520772],[-71.036761,-33.520324],[-71.036857,-33.51988],[-71.036945,-33.519734],[-71.037022,-33.519645],[-71.037205,-33.519397],[-71.037622,-33.518807],[-71.03798,-33.518426],[-71.038242,-33.51803],[-71.041641,-33.520256],[-71.041014,-33.524509],[-71.035953,-33.525857],[-71.035325,-33.530109],[-71.039759,-33.533013],[-71.039132,-33.537264],[-71.043566,-33.540168],[-71.048628,-33.538819],[-71.049255,-33.534568],[-71.054317,-33.533219],[-71.054944,-33.528967],[-71.060006,-33.527617],[-71.064441,-33.53052],[-71.063814,-33.534773],[-71.06825,-33.537675],[-71.067623,-33.541927],[-71.06256,-33.543276],[-71.061933,-33.547528],[-71.066368,-33.55043]]]},"properties":{"comuna":"María Pinto","mancha_id":"13504-88b2c0949bfffff","clase":"Alto","nivel_medio":2.85,"nivel_medio_min":2.583,"nivel_medio_max":3.0,"pct_alto":87.8,"n_hexagonos":26,"area_ha":1115.9}},{"type":"Feature","geometry":{"type":"Polygon","coordinates":[[[-71.089546,-33.552422],[-71.09043,-33.552186],[-71.092144,-33.553307],[-71.09144,-33.5533],[-71.090643,-33.553025],[-71.090037,-33.552667],[-71.089546,-33.552422]]]},"properties":{"comuna":"María Pinto","mancha_id":"13504-88b2c09495fffff","clase":"Alto","nivel_medio":2.915,"nivel_medio_min":2.915,"nivel_medio_max":2.915,"pct_alto":91.5,"n_hexagonos":1,"area_ha":1.11}},{"type":"Feature","geometry":{"type":"Polygon","coordinates":[[[-71.137885,-33.527265],[-71.138511,-33.523011],[-71.143576,-33.521658],[-71.148014,-33.524559],[-71.147388,-33.528813],[-71.142323,-33.530166],[-71.137885,-33.527265]]]},"properties":{"comuna":"María Pinto","mancha_id":"13504-88b2c09431fffff","clase":"Alto","nivel_medio":2.848,"nivel_medio_min":2.848,"nivel_medio_max":2.848,"pct_alto":47.0,"n_hexagonos":1,"area_ha":63.98}},{"type":"Feature","geometry":{"type":"Polygon","coordinates":[[[-71.124571,-33.518561],[-71.125198,-33.514306],[-71.12076,-33.511404],[-71.115697,-33.512757],[-71.11126,-33.509855],[-71.106197,-33.511207],[-71.10176,-33.508305],[-71.102387,-33.50405],[-71.10745,-33.502697],[-71.111886,-33.5056],[-71.116949,-33.504247],[-71.121386,-33.507149],[-71.12645,-33.505796],[-71.130888,-33.508698],[-71.130261,-33.512953],[-71.134699,-33.515855],[-71.134073,-33.52011],[-71.129009,-33.521462],[-71.124571,-33.518561]]]},"properties":{"comuna":"María Pinto","mancha_id":"13504-88b2c09415fffff","clase":"Alto","nivel_medio":2.754,"nivel_medio_min":2.559,"nivel_medio_max":3.133,"pct_alto":62.8,"n_hexagonos":4,"area_ha":255.94}},{"type":"Feature","geometry":{"type":"Polygon","coordinates":[[[-71.141642,-33.501735],[-71.142268,-33.497479],[-71.13783,-33.494577],[-71.138456,-33.490321],[-71.14352,-33.488966],[-71.144146,-33.484709],[-71.139708,-33.481807],[-71.140334,-33.47755],[-71.135897,-33.474647],[-71.130833,-33.476002],[-71.126396,-33.473099],[-71.127023,-33.468842],[-71.122586,-33.465938],[-71.123212,-33.46168],[-71.118776,-33.458777],[-71.119402,-33.454519],[-71.114966,-33.451615],[-71.109904,-33.452969],[-71.105468,-33.450065],[-71.100406,-33.45142],[-71.09978,-33.455678],[-71.104215,-33.458582],[-71.103589,-33.46284],[-71.098527,-33.464194],[-71.0979,-33.468451],[-71.092839,-33.469804],[-71.088403,-33.4669],[-71.08903,-33.462643],[-71.084595,-33.459739],[-71.085222,-33.455481],[-71.080787,-33.452576],[-71.081414,-33.448318],[-71.076979,-33.445413],[-71.071919,-33.446766],[-71.071292,-33.451024],[-71.066231,-33.452377],[-71.065707,-33.452034],[-71.06571,-33.45105],[-71.065577,-33.450011],[-71.065355,-33.449029],[-71.06526,-33.448527],[-71.065107,-33.448131],[-71.064857,-33.447687],[-71.064466,-33.447177],[-71.063762,-33.446474],[-71.063315,-33.446002],[-71.063162,-33.445646],[-71.06309,-33.445113],[-71.063068,-33.445042],[-71.067485,-33.443861],[-71.068112,-33.439603],[-71.063678,-33.436697],[-71.064188,-33.433235],[-71.065616,-33.433365],[-71.066687,-33.433365],[-71.068019,-33.433626],[-71.068916,-33.433973],[-71.069698,-33.434349],[-71.07135,-33.43558],[-71.073362,-33.436958],[-71.073172,-33.43825],[-71.077606,-33.441155],[-71.080356,-33.440419],[-71.080667,-33.440544],[-71.08179,-33.44083],[-71.082346,-33.441383],[-71.08315,-33.44172],[-71.084111,-33.441904],[-71.084922,-33.442251],[-71.08689,-33.44289],[-71.087064,-33.442963],[-71.086475,-33.446965],[-71.09091,-33.449869],[-71.095971,-33.448515],[-71.096479,-33.445066],[-71.09698,-33.44519],[-71.09812,-33.445464],[-71.099133,-33.445464],[-71.100754,-33.445869],[-71.10209,-33.44592],[-71.102795,-33.445751],[-71.103399,-33.445288],[-71.10412,-33.44477],[-71.104275,-33.444615],[-71.1054,-33.44349],[-71.10724,-33.44226],[-71.10805,-33.44146],[-71.10893,-33.44111],[-71.109698,-33.441283],[-71.11057,-33.44189],[-71.11138,-33.44269],[-71.11141,-33.442729],[-71.111156,-33.444452],[-71.115592,-33.447356],[-71.119069,-33.446425],[-71.119821,-33.446395],[-71.12073,-33.44655],[-71.12186,-33.44682],[-71.121959,-33.446855],[-71.12282,-33.447159],[-71.124007,-33.447381],[-71.125154,-33.447481],[-71.125778,-33.447522],[-71.126301,-33.4473],[-71.126744,-33.446797],[-71.127569,-33.446475],[-71.12828,-33.446448],[-71.12971,-33.44674],[-71.130267,-33.446775],[-71.130153,-33.447549],[-71.13459,-33.450453],[-71.133964,-33.454712],[-71.138401,-33.457615],[-71.137775,-33.461873],[-71.142212,-33.464776],[-71.141586,-33.469034],[-71.146023,-33.471937],[-71.145397,-33.476195],[-71.149835,-33.479097],[-71.149209,-33.483355],[-71.153647,-33.486256],[-71.153022,-33.490513],[-71.15746,-33.493415],[-71.156834,-33.497672],[-71.15177,-33.499027],[-71.151144,-33.503283],[-71.14608,-33.504637],[-71.141642,-33.501735]]]},"properties":{"comuna":"María Pinto","mancha_id":"13504-88b2c0940dfffff","clase":"Alto","nivel_medio":2.706,"nivel_medio_min":2.512,"nivel_medio_max":3.025,"pct_alto":67.5,"n_hexagonos":26,"area_ha":1506.61}},{"type":"Feature","geometry":{"type":"Polygon","coordinates":[[[-71.204278,-33.438291],[-71.204486,-33.438224],[-71.205183,-33.437997],[-71.206052,-33.437273],[-71.206486,-33.436723],[-71.207181,-33.436057],[-71.207896,-33.435628],[-71.208399,-33.435125],[-71.208776,-33.434747],[-71.209409,-33.434697],[-71.210133,-33.434842],[-71.210493,-33.434721],[-71.21436,-33.437249],[-71.213735,-33.44151],[-71.218175,-33.444412],[-71.21755,-33.448673],[-71.212485,-33.450032],[-71.208045,-33.447131],[-71.20298,-33.44849],[-71.198541,-33.445588],[-71.199166,-33.441327],[-71.19773,-33.440389],[-71.198555,-33.44037],[-71.199539,-33.440544],[-71.200494,-33.440544],[-71.20109,-33.44072],[-71.20186,-33.43982],[-71.202694,-33.438865],[-71.203399,-33.438578],[-71.204278,-33.438291]]]},"properties":{"comuna":"María Pinto","mancha_id":"13504-88b2c09291fffff","clase":"Alto","nivel_medio":2.593,"nivel_medio_min":2.531,"nivel_medio_max":2.846,"pct_alto":60.0,"n_hexagonos":4,"area_ha":191.98}},{"type":"Feature","geometry":{"type":"Polygon","coordinates":[[[-71.279052,-33.40757],[-71.27702,-33.408117],[-71.273272,-33.405669],[-71.273549,-33.405493],[-71.27576,-33.40409],[-71.27586,-33.404442],[-71.276316,-33.405224],[-71.276657,-33.405807],[-71.276918,-33.406002],[-71.27765,-33.406553],[-71.278556,-33.407219],[-71.279052,-33.40757]]]},"properties":{"comuna":"María Pinto","mancha_id":"13504-88b2c09223fffff","clase":"Alto","nivel_medio":2.589,"nivel_medio_min":2.589,"nivel_medio_max":2.589,"pct_alto":58.9,"n_hexagonos":1,"area_ha":9.37}},{"type":"Feature","geometry":{"type":"Polygon","coordinates":[[[-71.316385,-33.438481],[-71.317008,-33.434218],[-71.322076,-33.432853],[-71.326521,-33.435752],[-71.325897,-33.440016],[-71.320829,-33.44138],[-71.316385,-33.438481]]]},"properties":{"comuna":"María Pinto","mancha_id":"13504-88b2c0915bfffff","clase":"Alto","nivel_medio":2.523,"nivel_medio_min":2.523,"nivel_medio_max":2.523,"pct_alto":52.3,"n_hexagonos":1,"area_ha":64.23}},{"type":"Feature","geometry":{"type":"Polygon","coordinates":[[[-71.337904,-33.424492],[-71.342973,-33.423126],[-71.343505,-33.423473],[-71.343423,-33.423818],[-71.34308,-33.424675],[-71.342862,-33.425392],[-71.342411,-33.425942],[-71.341969,-33.426534],[-71.341635,-33.426945],[-71.341287,-33.427436],[-71.341397,-33.427715],[-71.341589,-33.427864],[-71.341913,-33.427989],[-71.342304,-33.428233],[-71.342613,-33.428432],[-71.342873,-33.428795],[-71.343016,-33.429156],[-71.343174,-33.42957],[-71.343268,-33.430117],[-71.343215,-33.431138],[-71.343205,-33.431257],[-71.341726,-33.431656],[-71.337281,-33.428757],[-71.337904,-33.424492]]]},"properties":{"comuna":"María Pinto","mancha_id":"13504-88b2c0914bfffff","clase":"Alto","nivel_medio":2.573,"nivel_medio_min":2.573,"nivel_medio_max":2.573,"pct_alto":57.3,"n_hexagonos":1,"area_ha":35.22}},{"type":"Feature","geometry":{"type":"Polygon","coordinates":[[[-71.259396,-33.461996],[-71.26002,-33.457735],[-71.265087,-33.456373],[-71.269529,-33.459273],[-71.268905,-33.463534],[-71.263838,-33.464895],[-71.259396,-33.461996]]]},"properties":{"comuna":"María Pinto","mancha_id":"13504-88b2c090e9fffff","clase":"Alto","nivel_medio":2.595,"nivel_medio_min":2.595,"nivel_medio_max":2.595,"pct_alto":59.5,"n_hexagonos":1,"area_ha":64.16}},{"type":"Feature","geometry":{"type":"Polygon","coordinates":[[[-71.223307,-33.475775],[-71.223932,-33.471515],[-71.228998,-33.470156],[-71.233439,-33.473057],[-71.232814,-33.477316],[-71.227748,-33.478675],[-71.223307,-33.475775]]]},"properties":{"comuna":"María Pinto","mancha_id":"13504-88b2c090d7fffff","clase":"Alto","nivel_medio":2.71,"nivel_medio_min":2.71,"nivel_medio_max":2.71,"pct_alto":70.9,"n_hexagonos":1,"area_ha":64.11}},{"type":"Feature","geometry":{"type":"Polygon","coordinates":[[[-71.299233,-33.422619],[-71.299857,-33.418355],[-71.295414,-33.415455],[-71.295977,-33.411608],[-71.296093,-33.411699],[-71.296317,-33.411922],[-71.296677,-33.412338],[-71.297001,-33.412651],[-71.297417,-33.412937],[-71.297621,-33.412917],[-71.298127,-33.412867],[-71.298438,-33.412675],[-71.299181,-33.412194],[-71.300007,-33.411607],[-71.300551,-33.41141],[-71.301797,-33.410957],[-71.302388,-33.410663],[-71.302528,-33.410594],[-71.303228,-33.410146],[-71.304437,-33.409695],[-71.305268,-33.40932],[-71.305556,-33.409208],[-71.305975,-33.409146],[-71.306637,-33.409047],[-71.307226,-33.409099],[-71.307887,-33.409157],[-71.308363,-33.409349],[-71.309145,-33.409646],[-71.30987,-33.40985],[-71.310693,-33.410107],[-71.310795,-33.410131],[-71.311471,-33.410293],[-71.312279,-33.410305],[-71.313127,-33.410329],[-71.313784,-33.410354],[-71.314566,-33.410529],[-71.316097,-33.410537],[-71.317142,-33.410397],[-71.318437,-33.410227],[-71.319429,-33.410071],[-71.320548,-33.410009],[-71.320126,-33.412895],[-71.315059,-33.41426],[-71.314435,-33.418525],[-71.309368,-33.41989],[-71.308744,-33.424155],[-71.303677,-33.425519],[-71.299233,-33.422619]]]},"properties":{"comuna":"María Pinto","mancha_id":"13504-88b2c09069fffff","clase":"Alto","nivel_medio":2.662,"nivel_medio_min":2.545,"nivel_medio_max":2.807,"pct_alto":66.2,"n_hexagonos":5,"area_ha":231.68}},{"type":"Feature","geometry":{"type":"Polygon","coordinates":[[[-71.275148,-33.42091],[-71.270705,-33.418009],[-71.265639,-33.419372],[-71.265015,-33.423636],[-71.259949,-33.424999],[-71.255507,-33.422098],[-71.256132,-33.417834],[-71.251691,-33.414933],[-71.250556,-33.415238],[-71.250623,-33.414932],[-71.250604,-33.414242],[-71.250365,-33.413105],[-71.25077,-33.412642],[-71.251609,-33.412034],[-71.252145,-33.411829],[-71.252593,-33.411658],[-71.253317,-33.411368],[-71.254041,-33.411223],[-71.254793,-33.410963],[-71.2555,-33.41067],[-71.256211,-33.410529],[-71.25692,-33.41027],[-71.258151,-33.41021],[-71.25883,-33.41032],[-71.258941,-33.410326],[-71.261822,-33.412207],[-71.266888,-33.410844],[-71.27133,-33.413745],[-71.276396,-33.412382],[-71.280838,-33.415282],[-71.280214,-33.419547],[-71.275148,-33.42091]]]},"properties":{"comuna":"María Pinto","mancha_id":"13504-88b2c0904bfffff","clase":"Alto","nivel_medio":2.611,"nivel_medio_min":2.536,"nivel_medio_max":2.83,"pct_alto":61.1,"n_hexagonos":5,"area_ha":255.01}},{"type":"Feature","geometry":{"type":"Polygon","coordinates":[[[-71.314514,-33.451271],[-71.315137,-33.447008],[-71.320206,-33.445644],[-71.32465,-33.448542],[-71.329719,-33.447178],[-71.334164,-33.450076],[-71.338255,-33.448975],[-71.338279,-33.449027],[-71.338684,-33.449666],[-71.338668,-33.450399],[-71.338528,-33.451163],[-71.33855,-33.452038],[-71.338297,-33.452898],[-71.338138,-33.453657],[-71.337961,-33.454174],[-71.337759,-33.454611],[-71.337356,-33.454981],[-71.337054,-33.455182],[-71.336679,-33.455615],[-71.336247,-33.45578],[-71.336151,-33.456041],[-71.33354,-33.454339],[-71.328472,-33.455704],[-71.327848,-33.459966],[-71.332293,-33.462864],[-71.337362,-33.4615],[-71.341053,-33.463905],[-71.341061,-33.463923],[-71.34126,-33.464693],[-71.341309,-33.465425],[-71.341322,-33.466197],[-71.341229,-33.466917],[-71.341315,-33.467677],[-71.341325,-33.467701],[-71.341185,-33.46866],[-71.341907,-33.46913],[-71.342058,-33.469629],[-71.342032,-33.470092],[-71.342078,-33.470709],[-71.342101,-33.471156],[-71.342101,-33.471349],[-71.341769,-33.471565],[-71.341376,-33.471758],[-71.340521,-33.472237],[-71.340183,-33.472599],[-71.339854,-33.473732],[-71.339643,-33.474113],[-71.339393,-33.474364],[-71.339257,-33.474847],[-71.339182,-33.475444],[-71.339247,-33.475706],[-71.339397,-33.475838],[-71.33984,-33.476221],[-71.340275,-33.476603],[-71.340465,-33.477041],[-71.339938,-33.477183],[-71.335492,-33.474286],[-71.330423,-33.47565],[-71.329799,-33.479911],[-71.32473,-33.481274],[-71.320285,-33.478376],[-71.320908,-33.474115],[-71.325977,-33.472752],[-71.326601,-33.46849],[-71.322156,-33.465592],[-71.322779,-33.46133],[-71.318335,-33.458432],[-71.318958,-33.454169],[-71.314514,-33.451271]]]},"properties":{"comuna":"María Pinto","mancha_id":"13504-88b2c09025fffff","clase":"Alto","nivel_medio":2.596,"nivel_medio_min":2.501,"nivel_medio_max":2.779,"pct_alto":61.0,"n_hexagonos":9,"area_ha":507.45}},{"type":"Feature","geometry":{"type":"Polygon","coordinates":[[[-71.265711,-33.452112],[-71.261269,-33.449212],[-71.256203,-33.450573],[-71.251761,-33.447673],[-71.246695,-33.449034],[-71.242253,-33.446133],[-71.242878,-33.441871],[-71.238437,-33.43897],[-71.233371,-33.440331],[-71.22893,-33.43743],[-71.229543,-33.43325],[-71.23033,-33.43327],[-71.230354,-33.432953],[-71.23045,-33.43169],[-71.230857,-33.4305],[-71.231414,-33.429808],[-71.231812,-33.429342],[-71.231841,-33.428821],[-71.231638,-33.428156],[-71.231812,-33.427606],[-71.231899,-33.427056],[-71.232297,-33.426729],[-71.23288,-33.42672],[-71.233995,-33.426886],[-71.234205,-33.426865],[-71.235245,-33.427544],[-71.240311,-33.426183],[-71.240574,-33.424386],[-71.24072,-33.42412],[-71.24154,-33.42238],[-71.24175,-33.421701],[-71.246001,-33.420558],[-71.250442,-33.42346],[-71.249817,-33.427723],[-71.254259,-33.430624],[-71.259325,-33.429262],[-71.263766,-33.432162],[-71.268833,-33.4308],[-71.273275,-33.4337],[-71.272651,-33.437963],[-71.277093,-33.440863],[-71.276469,-33.445126],[-71.280912,-33.448026],[-71.280288,-33.452288],[-71.275221,-33.45365],[-71.270778,-33.45075],[-71.265711,-33.452112]]]},"properties":{"comuna":"María Pinto","mancha_id":"13504-88b2c09011fffff","clase":"Alto","nivel_medio":2.81,"nivel_medio_min":2.527,"nivel_medio_max":2.947,"pct_alto":81.6,"n_hexagonos":15,"area_ha":917.82}},{"type":"Feature","geometry":{"type":"Polygon","coordinates":[[[-71.28216,-33.439501],[-71.282784,-33.435238],[-71.278342,-33.432338],[-71.278966,-33.428074],[-71.284032,-33.426711],[-71.288475,-33.429611],[-71.287851,-33.433875],[-71.292294,-33.436774],[-71.29167,-33.441037],[-71.286603,-33.4424],[-71.28216,-33.439501]]]},"properties":{"comuna":"María Pinto","mancha_id":"13504-88b2c09001fffff","clase":"Alto","nivel_medio":2.793,"nivel_medio_min":2.758,"nivel_medio_max":2.829,"pct_alto":79.3,"n_hexagonos":2,"area_ha":128.41}},{"type":"Feature","geometry":{"type":"Polygon","coordinates":[[[-71.328089,-33.558097],[-71.328713,-33.553841],[-71.329502,-33.55363],[-71.32918,-33.555592],[-71.328818,-33.5576],[-71.32853,-33.558385],[-71.328089,-33.558097]]]},"properties":{"comuna":"María Pinto","mancha_id":"13504-88b2c0833bfffff","clase":"Alto","nivel_medio":2.586,"nivel_medio_min":2.586,"nivel_medio_max":2.586,"pct_alto":58.6,"n_hexagonos":1,"area_ha":3.23}},{"type":"Feature","geometry":{"type":"Polygon","coordinates":[[[-71.286129,-33.512104],[-71.286753,-33.507845],[-71.291821,-33.506485],[-71.292445,-33.502226],[-71.288001,-33.499328],[-71.288625,-33.495069],[-71.284181,-33.492171],[-71.284806,-33.487911],[-71.280362,-33.485013],[-71.280986,-33.480753],[-71.286054,-33.479391],[-71.290498,-33.48229],[-71.289874,-33.48655],[-71.294318,-33.489448],[-71.293694,-33.493708],[-71.298138,-33.496606],[-71.303207,-33.495244],[-71.307652,-33.498142],[-71.312721,-33.49678],[-71.313344,-33.49252],[-71.318414,-33.491158],[-71.322859,-33.494055],[-71.327928,-33.492693],[-71.332374,-33.49559],[-71.337444,-33.494227],[-71.34189,-33.497124],[-71.341267,-33.501384],[-71.345713,-33.50428],[-71.350324,-33.50304],[-71.350579,-33.503494],[-71.350894,-33.50412],[-71.351279,-33.504619],[-71.35149,-33.50522],[-71.35094,-33.505617],[-71.350346,-33.505977],[-71.349773,-33.506169],[-71.349195,-33.506753],[-71.348966,-33.507442],[-71.348775,-33.508164],[-71.348478,-33.508885],[-71.348329,-33.509586],[-71.348329,-33.510201],[-71.348361,-33.51067],[-71.34509,-33.50854],[-71.34002,-33.509903],[-71.339396,-33.514162],[-71.343843,-33.517058],[-71.348913,-33.515695],[-71.349163,-33.513992],[-71.34931,-33.514256],[-71.34952,-33.514701],[-71.349488,-33.516069],[-71.349486,-33.516142],[-71.349732,-33.517266],[-71.350382,-33.518962],[-71.349982,-33.519946],[-71.349938,-33.521159],[-71.350016,-33.522257],[-71.349957,-33.523396],[-71.34997,-33.523594],[-71.350022,-33.524376],[-71.350033,-33.525316],[-71.350282,-33.52659],[-71.350789,-33.527475],[-71.350895,-33.528033],[-71.350871,-33.528641],[-71.350762,-33.528926],[-71.350223,-33.529419],[-71.349368,-33.5298],[-71.349257,-33.529913],[-71.348918,-33.530258],[-71.348421,-33.530493],[-71.347742,-33.530728],[-71.347201,-33.530943],[-71.346531,-33.531113],[-71.345899,-33.530991],[-71.345422,-33.530766],[-71.344743,-33.53077],[-71.344132,-33.53064],[-71.3434,-33.530417],[-71.342319,-33.530199],[-71.341918,-33.530206],[-71.341175,-33.530218],[-71.340164,-33.530409],[-71.339755,-33.530957],[-71.339257,-33.531654],[-71.33813,-33.53225],[-71.337367,-33.532814],[-71.335875,-33.533411],[-71.334515,-33.533842],[-71.334053,-33.534004],[-71.331831,-33.532557],[-71.326761,-33.533918],[-71.322315,-33.531022],[-71.322939,-33.526765],[-71.318493,-33.523868],[-71.313423,-33.525229],[-71.308977,-33.522332],[-71.309601,-33.518074],[-71.305156,-33.515177],[-71.300087,-33.516538],[-71.295642,-33.513641],[-71.290573,-33.515001],[-71.286129,-33.512104]]]},"properties":{"comuna":"María Pinto","mancha_id":"13504-88b2c08269fffff","clase":"Alto","nivel_medio":2.74,"nivel_medio_min":2.517,"nivel_medio_max":2.987,"pct_alto":73.1,"n_hexagonos":33,"area_ha":1877.46}},{"type":"Feature","geometry":{"type":"Polygon","coordinates":[[[-71.267104,-33.509027],[-71.267729,-33.504769],[-71.272797,-33.503409],[-71.27724,-33.506308],[-71.276616,-33.510566],[-71.271548,-33.511925],[-71.267104,-33.509027]]]},"properties":{"comuna":"María Pinto","mancha_id":"13504-88b2c08241fffff","clase":"Alto","nivel_medio":2.7,"nivel_medio_min":2.7,"nivel_medio_max":2.7,"pct_alto":70.3,"n_hexagonos":1,"area_ha":64.09}},{"type":"Feature","geometry":{"type":"Polygon","coordinates":[[[-71.301412,-33.540721],[-71.302036,-33.536465],[-71.307105,-33.535104],[-71.311551,-33.538001],[-71.310927,-33.542258],[-71.305857,-33.543618],[-71.301412,-33.540721]]]},"properties":{"comuna":"María Pinto","mancha_id":"13504-88b2c08225fffff","clase":"Alto","nivel_medio":2.501,"nivel_medio_min":2.501,"nivel_medio_max":2.501,"pct_alto":50.1,"n_hexagonos":1,"area_ha":64.07}},{"type":"Feature","geometry":{"type":"Polygon","coordinates":[[[-71.274743,-33.523338],[-71.275367,-33.519081],[-71.280436,-33.517721],[-71.28488,-33.520619],[-71.284256,-33.524876],[-71.279187,-33.526236],[-71.274743,-33.523338]]]},"properties":{"comuna":"María Pinto","mancha_id":"13504-88b2c0820dfffff","clase":"Alto","nivel_medio":2.55,"nivel_medio_min":2.55,"nivel_medio_max":2.55,"pct_alto":55.0,"n_hexagonos":1,"area_ha":64.08}},{"type":"Feature","geometry":{"type":"Polygon","coordinates":[[[-71.300002,-33.586349],[-71.299949,-33.586383],[-71.299455,-33.586701],[-71.299181,-33.58713],[-71.299103,-33.587717],[-71.298889,-33.588023],[-71.298595,-33.588225],[-71.298062,-33.588437],[-71.29754,-33.588576],[-71.296983,-33.588334],[-71.296274,-33.588201],[-71.295767,-33.588211],[-71.294825,-33.588252],[-71.294439,-33.588246],[-71.293979,-33.588238],[-71.29305,-33.587836],[-71.29244,-33.58767],[-71.29182,-33.58766],[-71.290874,-33.587684],[-71.290139,-33.587864],[-71.289446,-33.588114],[-71.288781,-33.588114],[-71.287879,-33.587795],[-71.287297,-33.587324],[-71.286729,-33.5867],[-71.286202,-33.585951],[-71.285928,-33.585746],[-71.285648,-33.585535],[-71.284913,-33.585106],[-71.283859,-33.58462],[-71.283097,-33.584163],[-71.282445,-33.58383],[-71.282127,-33.583525],[-71.281322,-33.582666],[-71.28071,-33.58223],[-71.280699,-33.582222],[-71.280144,-33.581917],[-71.27956,-33.58168],[-71.27684,-33.58098],[-71.27663,-33.58014],[-71.27486,-33.58015],[-71.27273,-33.58027],[-71.271662,-33.580322],[-71.271247,-33.580342],[-71.271694,-33.577298],[-71.267249,-33.574402],[-71.267873,-33.570148],[-71.272943,-33.568791],[-71.273567,-33.564537],[-71.278636,-33.563179],[-71.283082,-33.566075],[-71.288151,-33.564717],[-71.288775,-33.560462],[-71.293845,-33.559104],[-71.294469,-33.554848],[-71.290024,-33.551952],[-71.284955,-33.553311],[-71.28051,-33.550414],[-71.281134,-33.546158],[-71.27669,-33.543261],[-71.271621,-33.54462],[-71.267177,-33.541723],[-71.262108,-33.543081],[-71.257664,-33.540183],[-71.258289,-33.535927],[-71.263357,-33.534569],[-71.267801,-33.537467],[-71.27287,-33.536108],[-71.273494,-33.531852],[-71.278563,-33.530493],[-71.283007,-33.53339],[-71.288076,-33.532031],[-71.292521,-33.534928],[-71.291897,-33.539184],[-71.296342,-33.542081],[-71.295718,-33.546337],[-71.300163,-33.549234],[-71.299539,-33.553489],[-71.303985,-33.556385],[-71.303361,-33.560641],[-71.307807,-33.563537],[-71.312877,-33.562177],[-71.317324,-33.565073],[-71.322394,-33.563713],[-71.326841,-33.566608],[-71.33019,-33.56571],[-71.330495,-33.566645],[-71.330754,-33.567352],[-71.330804,-33.568079],[-71.330804,-33.568552],[-71.330513,-33.569116],[-71.330292,-33.569506],[-71.329962,-33.569685],[-71.329578,-33.569863],[-71.329331,-33.57011],[-71.329138,-33.570701],[-71.329024,-33.571286],[-71.328917,-33.5718],[-71.328919,-33.572403],[-71.329191,-33.572799],[-71.329249,-33.572883],[-71.329523,-33.57335],[-71.329413,-33.573871],[-71.329274,-33.574333],[-71.329296,-33.575319],[-71.329465,-33.575931],[-71.329362,-33.576749],[-71.329124,-33.577225],[-71.329034,-33.577683],[-71.329052,-33.578085],[-71.329102,-33.578265],[-71.329217,-33.578671],[-71.329107,-33.579531],[-71.329107,-33.580263],[-71.329052,-33.58094],[-71.328851,-33.581483],[-71.328649,-33.582144],[-71.328563,-33.582385],[-71.32854,-33.582572],[-71.328447,-33.582759],[-71.328299,-33.583],[-71.328213,-33.583227],[-71.328213,-33.583441],[-71.328307,-33.583637],[-71.328315,-33.583648],[-71.32786,-33.58385],[-71.326747,-33.584328],[-71.32592,-33.584652],[-71.325588,-33.584781],[-71.32466,-33.585411],[-71.324173,-33.585652],[-71.323547,-33.585892],[-71.322589,-33.586193],[-71.32167,-33.58659],[-71.320515,-33.587119],[-71.319625,-33.587336],[-71.318916,-33.58743],[-71.31835,-33.587504],[-71.3176,-33.58762],[-71.316954,-33.587986],[-71.316376,-33.588106],[-71.315646,-33.587966],[-71.31459,-33.58776],[-71.312898,-33.587443],[-71.311843,-33.58717],[-71.310866,-33.586701],[-71.309889,-33.586349],[-71.309389,-33.585955],[-71.309146,-33.585763],[-71.308287,-33.585489],[-71.306763,-33.585489],[-71.30559,-33.58508],[-71.305259,-33.584689],[-71.304995,-33.584208],[-71.30468,-33.58391],[-71.304225,-33.584088],[-71.303768,-33.584497],[-71.30239,-33.58525],[-71.301253,-33.585802],[-71.300002,-33.586349]]]},"properties":{"comuna":"María Pinto","mancha_id":"13504-88b2c08001fffff","clase":"Alto","nivel_medio":2.684,"nivel_medio_min":2.512,"nivel_medio_max":2.95,"pct_alto":68.9,"n_hexagonos":35,"area_ha":1918.7}}],"bbox":[-71.35325,-33.58858,-71.01274,-33.40408]}