{"type":"FeatureCollection","features":[{"type":"Feature","geometry":{"type":"Polygon","coordinates":[[[-70.824752,-33.573751],[-70.825382,-33.569506],[-70.820956,-33.566598],[-70.821587,-33.562353],[-70.826642,-33.561016],[-70.831068,-33.563924],[-70.830438,-33.568169],[-70.834863,-33.571077],[-70.834233,-33.575322],[-70.829177,-33.576659],[-70.824752,-33.573751]]]},"properties":{"comuna":"Padre Hurtado","mancha_id":"13604-88b2c54e45fffff","clase":"Muy Bajo","nivel_medio":0.406,"nivel_medio_min":0.329,"nivel_medio_max":0.484,"pct_alto":10.8,"n_hexagonos":2,"area_ha":127.41}},{"type":"Feature","geometry":{"type":"Polygon","coordinates":[[[-70.802627,-33.55921],[-70.801996,-33.563455],[-70.806421,-33.566364],[-70.811476,-33.565027],[-70.815901,-33.567935],[-70.815271,-33.57218],[-70.810215,-33.573516],[-70.809585,-33.577761],[-70.81401,-33.580669],[-70.81338,-33.584913],[-70.808324,-33.586248],[-70.803899,-33.58334],[-70.80453,-33.579097],[-70.800105,-33.576188],[-70.800735,-33.571944],[-70.796311,-33.569036],[-70.791256,-33.570371],[-70.786832,-33.567463],[-70.787222,-33.564839],[-70.787786,-33.564372],[-70.789928,-33.562567],[-70.792518,-33.561882],[-70.792777,-33.560137],[-70.793595,-33.559418],[-70.795787,-33.55748],[-70.79602,-33.557273],[-70.796723,-33.556692],[-70.797995,-33.555643],[-70.798138,-33.555525],[-70.798333,-33.555422],[-70.798203,-33.556301],[-70.802627,-33.55921]]]},"properties":{"comuna":"Padre Hurtado","mancha_id":"13604-88b2c540b1fffff","clase":"Muy Bajo","nivel_medio":0.198,"nivel_medio_min":0.04,"nivel_medio_max":0.35,"pct_alto":5.3,"n_hexagonos":7,"area_ha":376.45}},{"type":"Feature","geometry":{"type":"Polygon","coordinates":[[[-70.834743,-33.585425],[-70.832465,-33.587235],[-70.832936,-33.58406],[-70.834743,-33.585425]]]},"properties":{"comuna":"Padre Hurtado","mancha_id":"13604-88b2c54e63fffff","clase":"Bajo","nivel_medio":1.252,"nivel_medio_min":1.252,"nivel_medio_max":1.252,"pct_alto":32.2,"n_hexagonos":1,"area_ha":3.29}},{"type":"Feature","geometry":{"type":"Polygon","coordinates":[[[-70.807694,-33.590492],[-70.812119,-33.593399],[-70.811872,-33.595057],[-70.81164,-33.59526],[-70.8105,-33.596232],[-70.809408,-33.594852],[-70.808405,-33.593536],[-70.808252,-33.593244],[-70.807857,-33.592515],[-70.807682,-33.592085],[-70.807216,-33.591079],[-70.807037,-33.590665],[-70.80683,-33.590186],[-70.806392,-33.589272],[-70.806128,-33.588577],[-70.804929,-33.58616],[-70.804534,-33.585318],[-70.804239,-33.584684],[-70.803609,-33.583417],[-70.803557,-33.583314],[-70.803166,-33.582601],[-70.802885,-33.582109],[-70.802381,-33.581229],[-70.801344,-33.579404],[-70.80032,-33.577575],[-70.799618,-33.576317],[-70.799429,-33.575979],[-70.799157,-33.5755],[-70.797747,-33.573027],[-70.795806,-33.574036],[-70.794819,-33.574526],[-70.793549,-33.575153],[-70.79235,-33.575749],[-70.790626,-33.574616],[-70.791256,-33.570371],[-70.796311,-33.569036],[-70.800735,-33.571944],[-70.800105,-33.576188],[-70.80453,-33.579097],[-70.803899,-33.58334],[-70.808324,-33.586248],[-70.807694,-33.590492]]]},"properties":{"comuna":"Padre Hurtado","mancha_id":"13604-88b2c54e1dfffff","clase":"Bajo","nivel_medio":1.0,"nivel_medio_min":0.609,"nivel_medio_max":1.15,"pct_alto":28.0,"n_hexagonos":4,"area_ha":87.75}},{"type":"Feature","geometry":{"type":"Polygon","coordinates":[[[-70.821437,-33.596071],[-70.8216,-33.594971],[-70.823419,-33.59449],[-70.82271,-33.59506],[-70.821437,-33.596071]]]},"properties":{"comuna":"Padre Hurtado","mancha_id":"13604-88b2c54e07fffff","clase":"Bajo","nivel_medio":1.063,"nivel_medio_min":1.063,"nivel_medio_max":1.063,"pct_alto":6.1,"n_hexagonos":1,"area_ha":0.99}},{"type":"Feature","geometry":{"type":"Polygon","coordinates":[[[-70.786832,-33.567463],[-70.781778,-33.568798],[-70.781134,-33.568374],[-70.781685,-33.568232],[-70.783635,-33.567722],[-70.784733,-33.566904],[-70.787222,-33.564839],[-70.786832,-33.567463]]]},"properties":{"comuna":"Padre Hurtado","mancha_id":"13604-88b2c5456dfffff","clase":"Bajo","nivel_medio":0.99,"nivel_medio_min":0.99,"nivel_medio_max":0.99,"pct_alto":24.2,"n_hexagonos":1,"area_ha":6.43}},{"type":"Feature","geometry":{"type":"Polygon","coordinates":[[[-70.868999,-33.5702],[-70.86837,-33.574445],[-70.863663,-33.575692],[-70.863604,-33.575304],[-70.863055,-33.575339],[-70.862672,-33.575363],[-70.858886,-33.572877],[-70.859515,-33.568632],[-70.864572,-33.567293],[-70.865202,-33.563047],[-70.870259,-33.561708],[-70.874686,-33.564614],[-70.874057,-33.568861],[-70.868999,-33.5702]]]},"properties":{"comuna":"Padre Hurtado","mancha_id":"13604-88b2c541b1fffff","clase":"Bajo","nivel_medio":1.418,"nivel_medio_min":1.345,"nivel_medio_max":1.492,"pct_alto":8.2,"n_hexagonos":2,"area_ha":127.17}},{"type":"Feature","geometry":{"type":"Polygon","coordinates":[[[-70.792777,-33.560137],[-70.792518,-33.561882],[-70.789928,-33.562567],[-70.79194,-33.560872],[-70.792777,-33.560137]]]},"properties":{"comuna":"Padre Hurtado","mancha_id":"13604-88b2c540bbfffff","clase":"Bajo","nivel_medio":0.712,"nivel_medio_min":0.712,"nivel_medio_max":0.712,"pct_alto":22.2,"n_hexagonos":1,"area_ha":2.21}},{"type":"Feature","geometry":{"type":"Polygon","coordinates":[[[-70.817162,-33.559445],[-70.817792,-33.555199],[-70.822847,-33.553862],[-70.827272,-33.55677],[-70.832328,-33.555432],[-70.836754,-33.55834],[-70.836123,-33.562586],[-70.831068,-33.563924],[-70.826642,-33.561016],[-70.821587,-33.562353],[-70.820956,-33.566598],[-70.825382,-33.569506],[-70.824752,-33.573751],[-70.819696,-33.575088],[-70.819066,-33.579332],[-70.81401,-33.580669],[-70.809585,-33.577761],[-70.810215,-33.573516],[-70.815271,-33.57218],[-70.815901,-33.567935],[-70.811476,-33.565027],[-70.806421,-33.566364],[-70.801996,-33.563455],[-70.802627,-33.55921],[-70.807682,-33.557873],[-70.812106,-33.560782],[-70.817162,-33.559445]]]},"properties":{"comuna":"Padre Hurtado","mancha_id":"13604-88b2c540a7fffff","clase":"Bajo","nivel_medio":0.942,"nivel_medio_min":0.656,"nivel_medio_max":1.22,"pct_alto":18.4,"n_hexagonos":6,"area_ha":382.21}},{"type":"Feature","geometry":{"type":"Polygon","coordinates":[[[-70.822861,-33.586484],[-70.827287,-33.589391],[-70.830978,-33.588416],[-70.830926,-33.588457],[-70.826951,-33.591651],[-70.823419,-33.59449],[-70.8216,-33.594971],[-70.821437,-33.596071],[-70.818976,-33.598026],[-70.81699,-33.596357],[-70.813543,-33.593603],[-70.812522,-33.594488],[-70.811872,-33.595057],[-70.812119,-33.593399],[-70.807694,-33.590492],[-70.808324,-33.586248],[-70.81338,-33.584913],[-70.81401,-33.580669],[-70.819066,-33.579332],[-70.819696,-33.575088],[-70.824752,-33.573751],[-70.829177,-33.576659],[-70.828547,-33.580903],[-70.823491,-33.58224],[-70.822861,-33.586484]]]},"properties":{"comuna":"Padre Hurtado","mancha_id":"13604-88b2c54e01fffff","clase":"Medio","nivel_medio":1.96,"nivel_medio_min":1.588,"nivel_medio_max":2.435,"pct_alto":40.5,"n_hexagonos":6,"area_ha":282.94}},{"type":"Feature","geometry":{"type":"Polygon","coordinates":[[[-70.925291,-33.58384],[-70.92592,-33.579594],[-70.930979,-33.578253],[-70.931608,-33.574006],[-70.936667,-33.572664],[-70.93983,-33.574738],[-70.939346,-33.575078],[-70.938783,-33.57539],[-70.938268,-33.575695],[-70.937815,-33.575999],[-70.937351,-33.57672],[-70.936919,-33.577314],[-70.936757,-33.577908],[-70.936757,-33.578502],[-70.936847,-33.578888],[-70.937189,-33.580391],[-70.937279,-33.580662],[-70.935409,-33.581157],[-70.934781,-33.585404],[-70.929721,-33.586745],[-70.925291,-33.58384]]]},"properties":{"comuna":"Padre Hurtado","mancha_id":"13604-88b2c54ab1fffff","clase":"Medio","nivel_medio":2.432,"nivel_medio_min":2.41,"nivel_medio_max":2.463,"pct_alto":51.8,"n_hexagonos":2,"area_ha":109.04}},{"type":"Feature","geometry":{"type":"Polygon","coordinates":[[[-70.791256,-33.570371],[-70.790626,-33.574616],[-70.79235,-33.575749],[-70.79007,-33.576881],[-70.788453,-33.57768],[-70.787204,-33.576727],[-70.786299,-33.575943],[-70.786135,-33.575802],[-70.783246,-33.5733],[-70.782837,-33.572941],[-70.78207,-33.572262],[-70.781357,-33.571633],[-70.781778,-33.568798],[-70.786832,-33.567463],[-70.791256,-33.570371]]]},"properties":{"comuna":"Padre Hurtado","mancha_id":"13604-88b2c54565fffff","clase":"Medio","nivel_medio":2.041,"nivel_medio_min":1.966,"nivel_medio_max":2.054,"pct_alto":40.1,"n_hexagonos":2,"area_ha":68.44}},{"type":"Feature","geometry":{"type":"Polygon","coordinates":[[[-70.861405,-33.555893],[-70.856978,-33.552986],[-70.851922,-33.554325],[-70.847495,-33.551417],[-70.848125,-33.54717],[-70.853181,-33.545831],[-70.853811,-33.541584],[-70.858867,-33.540244],[-70.859497,-33.535997],[-70.864553,-33.534656],[-70.86898,-33.537564],[-70.874036,-33.536224],[-70.874655,-33.532047],[-70.874815,-33.532022],[-70.875431,-33.531985],[-70.875692,-33.531947],[-70.876046,-33.531798],[-70.876333,-33.531533],[-70.879722,-33.530635],[-70.884149,-33.533542],[-70.88352,-33.53779],[-70.887948,-33.540698],[-70.887318,-33.544946],[-70.891746,-33.547853],[-70.891117,-33.5521],[-70.895545,-33.555007],[-70.900603,-33.553666],[-70.905031,-33.556572],[-70.910089,-33.555231],[-70.910718,-33.550983],[-70.915776,-33.549641],[-70.916405,-33.545393],[-70.921463,-33.54405],[-70.925893,-33.546956],[-70.929564,-33.545982],[-70.929564,-33.546491],[-70.929901,-33.546828],[-70.930644,-33.547166],[-70.931251,-33.547773],[-70.931588,-33.548245],[-70.932061,-33.548988],[-70.932255,-33.549461],[-70.9326,-33.550067],[-70.93314,-33.550607],[-70.93368,-33.551079],[-70.934625,-33.551214],[-70.934966,-33.551324],[-70.934752,-33.552768],[-70.93801,-33.554905],[-70.93816,-33.555074],[-70.938754,-33.555506],[-70.939178,-33.555705],[-70.938553,-33.559922],[-70.933495,-33.561264],[-70.929065,-33.558359],[-70.924006,-33.559701],[-70.923377,-33.563948],[-70.918318,-33.56529],[-70.917689,-33.569537],[-70.912631,-33.570878],[-70.908202,-33.567972],[-70.903144,-33.569313],[-70.902514,-33.573559],[-70.897456,-33.5749],[-70.896827,-33.579146],[-70.901256,-33.582051],[-70.900627,-33.586297],[-70.895568,-33.587637],[-70.89114,-33.584731],[-70.890835,-33.584812],[-70.890494,-33.584266],[-70.889352,-33.583101],[-70.887477,-33.581229],[-70.885949,-33.580075],[-70.884859,-33.581505],[-70.884208,-33.581264],[-70.883142,-33.580347],[-70.882675,-33.579834],[-70.882422,-33.579307],[-70.882266,-33.579032],[-70.882262,-33.579026],[-70.881927,-33.578777],[-70.881373,-33.578618],[-70.880806,-33.57861],[-70.880214,-33.578628],[-70.879613,-33.578407],[-70.879069,-33.577897],[-70.878685,-33.577067],[-70.878422,-33.576385],[-70.878365,-33.576239],[-70.878319,-33.576317],[-70.876772,-33.578906],[-70.875342,-33.581298],[-70.875154,-33.581129],[-70.873072,-33.579284],[-70.872575,-33.578848],[-70.872797,-33.577352],[-70.86837,-33.574445],[-70.868999,-33.5702],[-70.874057,-33.568861],[-70.874686,-33.564614],[-70.870259,-33.561708],[-70.865202,-33.563047],[-70.864572,-33.567293],[-70.859515,-33.568632],[-70.858886,-33.572877],[-70.853829,-33.574216],[-70.853517,-33.576318],[-70.853118,-33.576404],[-70.850893,-33.576888],[-70.849307,-33.5772],[-70.84965,-33.578286],[-70.850188,-33.579257],[-70.848142,-33.579799],[-70.843716,-33.576892],[-70.844346,-33.572647],[-70.839919,-33.569739],[-70.834863,-33.571077],[-70.830438,-33.568169],[-70.831068,-33.563924],[-70.836123,-33.562586],[-70.836754,-33.55834],[-70.841809,-33.557002],[-70.846236,-33.55991],[-70.851292,-33.558571],[-70.855718,-33.561479],[-70.860775,-33.56014],[-70.861405,-33.555893]],[[-70.872147,-33.548967],[-70.876575,-33.551874],[-70.881632,-33.550534],[-70.882261,-33.546286],[-70.877834,-33.543379],[-70.872777,-33.54472],[-70.872147,-33.548967]]]},"properties":{"comuna":"Padre Hurtado","mancha_id":"13604-88b2c54181fffff","clase":"Medio","nivel_medio":2.063,"nivel_medio_min":1.52,"nivel_medio_max":2.471,"pct_alto":23.7,"n_hexagonos":42,"area_ha":2575.91}},{"type":"Feature","geometry":{"type":"Polygon","coordinates":[[[-70.898691,-33.533766],[-70.89932,-33.529517],[-70.904378,-33.528175],[-70.908806,-33.531082],[-70.908177,-33.535331],[-70.903119,-33.536673],[-70.898691,-33.533766]]]},"properties":{"comuna":"Padre Hurtado","mancha_id":"13604-88b2c54131fffff","clase":"Medio","nivel_medio":2.42,"nivel_medio_min":2.42,"nivel_medio_max":2.42,"pct_alto":69.3,"n_hexagonos":1,"area_ha":63.81}},{"type":"Feature","geometry":{"type":"Polygon","coordinates":[[[-70.819052,-33.546707],[-70.813997,-33.548045],[-70.811558,-33.546441],[-70.812245,-33.545983],[-70.81459,-33.544354],[-70.815046,-33.544034],[-70.815211,-33.543916],[-70.815867,-33.543465],[-70.815085,-33.542861],[-70.814307,-33.542056],[-70.813843,-33.541528],[-70.813273,-33.540879],[-70.812863,-33.540412],[-70.812648,-33.540242],[-70.812404,-33.540049],[-70.812079,-33.539958],[-70.811497,-33.539693],[-70.811049,-33.539527],[-70.810693,-33.539253],[-70.810129,-33.539087],[-70.809635,-33.538775],[-70.809176,-33.538547],[-70.808772,-33.538373],[-70.808325,-33.538194],[-70.807804,-33.537861],[-70.807537,-33.537608],[-70.807192,-33.53733],[-70.806858,-33.536965],[-70.806514,-33.536734],[-70.806261,-33.536503],[-70.806024,-33.536328],[-70.806409,-33.533734],[-70.804533,-33.5325],[-70.804517,-33.53245],[-70.804467,-33.532129],[-70.80448,-33.531921],[-70.8045,-33.531642],[-70.804572,-33.531383],[-70.804583,-33.531125],[-70.804629,-33.53086],[-70.804617,-33.530674],[-70.804672,-33.530444],[-70.804834,-33.530146],[-70.805114,-33.529915],[-70.805409,-33.529746],[-70.805825,-33.52959],[-70.806421,-33.529466],[-70.807153,-33.529348],[-70.807313,-33.529232],[-70.807335,-33.529059],[-70.807357,-33.528894],[-70.807475,-33.528785],[-70.807695,-33.528696],[-70.808149,-33.528754],[-70.808589,-33.528962],[-70.80984,-33.52965],[-70.810494,-33.530116],[-70.811403,-33.530696],[-70.811676,-33.530967],[-70.811464,-33.532396],[-70.815888,-33.535305],[-70.815258,-33.539552],[-70.819683,-33.542461],[-70.824738,-33.541123],[-70.825305,-33.5373],[-70.82613,-33.537336],[-70.826391,-33.537317],[-70.827081,-33.537075],[-70.827641,-33.536795],[-70.828629,-33.53659],[-70.829151,-33.536422],[-70.829655,-33.536199],[-70.830307,-33.535788],[-70.830582,-33.535642],[-70.830867,-33.53549],[-70.831594,-33.535322],[-70.832041,-33.535266],[-70.832768,-33.535154],[-70.833291,-33.535117],[-70.833831,-33.534968],[-70.834465,-33.53467],[-70.835081,-33.534465],[-70.835547,-33.534297],[-70.835994,-33.534203],[-70.836535,-33.534222],[-70.837169,-33.534353],[-70.83784,-33.534502],[-70.838567,-33.534576],[-70.839602,-33.534642],[-70.839976,-33.534512],[-70.840304,-33.534408],[-70.839903,-33.537107],[-70.844329,-33.540015],[-70.843699,-33.544262],[-70.838644,-33.545601],[-70.834218,-33.542693],[-70.829163,-33.544031],[-70.828533,-33.548278],[-70.823477,-33.549616],[-70.819052,-33.546707]]]},"properties":{"comuna":"Padre Hurtado","mancha_id":"13604-88b2c540a9fffff","clase":"Medio","nivel_medio":1.942,"nivel_medio_min":1.603,"nivel_medio_max":2.393,"pct_alto":40.2,"n_hexagonos":7,"area_ha":333.76}},{"type":"Feature","geometry":{"type":"Polygon","coordinates":[[[-70.807682,-33.557873],[-70.808312,-33.553628],[-70.813367,-33.552291],[-70.817792,-33.555199],[-70.817162,-33.559445],[-70.812106,-33.560782],[-70.807682,-33.557873]]]},"properties":{"comuna":"Padre Hurtado","mancha_id":"13604-88b2c540a3fffff","clase":"Medio","nivel_medio":1.624,"nivel_medio_min":1.624,"nivel_medio_max":1.624,"pct_alto":22.6,"n_hexagonos":1,"area_ha":63.71}},{"type":"Feature","geometry":{"type":"Polygon","coordinates":[[[-70.823491,-33.58224],[-70.828547,-33.580903],[-70.829177,-33.576659],[-70.834233,-33.575322],[-70.834863,-33.571077],[-70.839919,-33.569739],[-70.844346,-33.572647],[-70.843716,-33.576892],[-70.848142,-33.579799],[-70.850188,-33.579257],[-70.850891,-33.580523],[-70.850895,-33.580531],[-70.847988,-33.580838],[-70.847781,-33.58086],[-70.841539,-33.581536],[-70.839429,-33.58177],[-70.838863,-33.581833],[-70.838343,-33.58189],[-70.838112,-33.581915],[-70.837504,-33.581979],[-70.836609,-33.582078],[-70.835797,-33.582153],[-70.834958,-33.582233],[-70.834208,-33.582308],[-70.833628,-33.582361],[-70.833562,-33.582421],[-70.832362,-33.583409],[-70.832224,-33.583522],[-70.832936,-33.58406],[-70.832465,-33.587235],[-70.832327,-33.587344],[-70.830978,-33.588416],[-70.827287,-33.589391],[-70.822861,-33.586484],[-70.823491,-33.58224]]]},"properties":{"comuna":"Padre Hurtado","mancha_id":"13604-88b2c54e0dfffff","clase":"Alto","nivel_medio":2.737,"nivel_medio_min":2.604,"nivel_medio_max":2.88,"pct_alto":67.7,"n_hexagonos":5,"area_ha":222.5}},{"type":"Feature","geometry":{"type":"Polygon","coordinates":[[[-70.93801,-33.554905],[-70.934752,-33.552768],[-70.934966,-33.551324],[-70.935428,-33.551473],[-70.936055,-33.551727],[-70.936703,-33.552321],[-70.937081,-33.552969],[-70.937459,-33.553886],[-70.937729,-33.554588],[-70.93801,-33.554905]]]},"properties":{"comuna":"Padre Hurtado","mancha_id":"13604-88b2c54aebfffff","clase":"Alto","nivel_medio":2.571,"nivel_medio_min":2.571,"nivel_medio_max":2.571,"pct_alto":57.1,"n_hexagonos":1,"area_ha":4.46}},{"type":"Feature","geometry":{"type":"Polygon","coordinates":[[[-70.923377,-33.563948],[-70.924006,-33.559701],[-70.929065,-33.558359],[-70.933495,-33.561264],[-70.938553,-33.559922],[-70.939178,-33.555705],[-70.939672,-33.555938],[-70.940482,-33.556423],[-70.941237,-33.556801],[-70.941939,-33.557233],[-70.942473,-33.557791],[-70.943001,-33.558367],[-70.943729,-33.558715],[-70.945394,-33.559446],[-70.94615,-33.559608],[-70.947121,-33.559716],[-70.94808,-33.55995],[-70.94808,-33.55995],[-70.948209,-33.560365],[-70.948309,-33.560688],[-70.948447,-33.561749],[-70.948471,-33.561929],[-70.948633,-33.563009],[-70.948633,-33.564035],[-70.948608,-33.564552],[-70.94864,-33.565203],[-70.9486,-33.566084],[-70.948539,-33.566429],[-70.948396,-33.566904],[-70.948224,-33.56725],[-70.947734,-33.567494],[-70.947203,-33.567824],[-70.946577,-33.5683],[-70.946119,-33.568672],[-70.945772,-33.569109],[-70.945655,-33.569238],[-70.945286,-33.569649],[-70.945018,-33.57025],[-70.944877,-33.570531],[-70.94467,-33.57103],[-70.94443,-33.571536],[-70.944257,-33.571817],[-70.94395,-33.572143],[-70.943558,-33.572672],[-70.942857,-33.573211],[-70.942155,-33.573589],[-70.941422,-33.573813],[-70.940876,-33.574063],[-70.940158,-33.574507],[-70.93983,-33.574738],[-70.936667,-33.572664],[-70.931608,-33.574006],[-70.930979,-33.578253],[-70.92592,-33.579594],[-70.925291,-33.58384],[-70.929721,-33.586745],[-70.934781,-33.585404],[-70.935409,-33.581157],[-70.937279,-33.580662],[-70.937405,-33.581039],[-70.937513,-33.581471],[-70.937729,-33.58201],[-70.937243,-33.582604],[-70.936649,-33.583252],[-70.936271,-33.583684],[-70.935785,-33.584493],[-70.935623,-33.585681],[-70.935548,-33.585907],[-70.935299,-33.586653],[-70.935245,-33.58784],[-70.935365,-33.588439],[-70.934444,-33.588479],[-70.93321,-33.58858],[-70.93159,-33.58868],[-70.93046,-33.58878],[-70.9295,-33.588763],[-70.929425,-33.588748],[-70.928548,-33.588578],[-70.928031,-33.588383],[-70.927137,-33.587794],[-70.925753,-33.587673],[-70.924791,-33.587502],[-70.923016,-33.586914],[-70.921476,-33.586122],[-70.92013,-33.585873],[-70.92012,-33.585871],[-70.918544,-33.585766],[-70.917162,-33.585931],[-70.91608,-33.585935],[-70.915514,-33.586218],[-70.914927,-33.586602],[-70.914078,-33.587027],[-70.91338,-33.58726],[-70.91284,-33.5873],[-70.911114,-33.58708],[-70.910559,-33.586672],[-70.910355,-33.586242],[-70.910297,-33.586121],[-70.910169,-33.586053],[-70.909735,-33.586164],[-70.909398,-33.586231],[-70.908751,-33.586385],[-70.907771,-33.58641],[-70.906359,-33.586489],[-70.905525,-33.586707],[-70.90433,-33.58698],[-70.901947,-33.587163],[-70.901811,-33.587174],[-70.89998,-33.58742],[-70.898263,-33.587566],[-70.89718,-33.587742],[-70.896473,-33.588082],[-70.895921,-33.588394],[-70.895418,-33.58865],[-70.895068,-33.588828],[-70.894284,-33.589137],[-70.89337,-33.58925],[-70.89214,-33.58693],[-70.891706,-33.585967],[-70.891077,-33.585198],[-70.890835,-33.584812],[-70.89114,-33.584731],[-70.895568,-33.587637],[-70.900627,-33.586297],[-70.901256,-33.582051],[-70.896827,-33.579146],[-70.897456,-33.5749],[-70.902514,-33.573559],[-70.903144,-33.569313],[-70.908202,-33.567972],[-70.912631,-33.570878],[-70.917689,-33.569537],[-70.918318,-33.56529],[-70.923377,-33.563948]]]},"properties":{"comuna":"Padre Hurtado","mancha_id":"13604-88b2c54a81fffff","clase":"Alto","nivel_medio":2.809,"nivel_medio_min":2.538,"nivel_medio_max":3.323,"pct_alto":70.5,"n_hexagonos":21,"area_ha":896.27}},{"type":"Feature","geometry":{"type":"Polygon","coordinates":[[[-70.781134,-33.568374],[-70.781778,-33.568798],[-70.781357,-33.571633],[-70.780771,-33.571117],[-70.778425,-33.569074],[-70.781134,-33.568374]]]},"properties":{"comuna":"Padre Hurtado","mancha_id":"13604-88b2c54561fffff","clase":"Alto","nivel_medio":2.803,"nivel_medio_min":2.803,"nivel_medio_max":2.803,"pct_alto":93.1,"n_hexagonos":1,"area_ha":5.65}},{"type":"Feature","geometry":{"type":"Polygon","coordinates":[[[-70.872147,-33.548967],[-70.872777,-33.54472],[-70.877834,-33.543379],[-70.882261,-33.546286],[-70.881632,-33.550534],[-70.876575,-33.551874],[-70.872147,-33.548967]]]},"properties":{"comuna":"Padre Hurtado","mancha_id":"13604-88b2c541e3fffff","clase":"Alto","nivel_medio":2.552,"nivel_medio_min":2.552,"nivel_medio_max":2.552,"pct_alto":37.9,"n_hexagonos":1,"area_ha":63.77}},{"type":"Feature","geometry":{"type":"Polygon","coordinates":[[[-70.86837,-33.574445],[-70.872797,-33.577352],[-70.872575,-33.578848],[-70.869062,-33.575762],[-70.868156,-33.575794],[-70.866938,-33.575834],[-70.863697,-33.57592],[-70.863663,-33.575692],[-70.86837,-33.574445]]]},"properties":{"comuna":"Padre Hurtado","mancha_id":"13604-88b2c541b7fffff","clase":"Alto","nivel_medio":2.825,"nivel_medio_min":2.825,"nivel_medio_max":2.825,"pct_alto":68.4,"n_hexagonos":1,"area_ha":9.32}},{"type":"Feature","geometry":{"type":"Polygon","coordinates":[[[-70.853829,-33.574216],[-70.858886,-33.572877],[-70.862672,-33.575363],[-70.859416,-33.57557],[-70.859038,-33.575593],[-70.858179,-33.575647],[-70.857027,-33.575723],[-70.855993,-33.575792],[-70.855927,-33.575807],[-70.85482,-33.57604],[-70.853517,-33.576318],[-70.853829,-33.574216]]]},"properties":{"comuna":"Padre Hurtado","mancha_id":"13604-88b2c541b3fffff","clase":"Alto","nivel_medio":2.633,"nivel_medio_min":2.633,"nivel_medio_max":2.633,"pct_alto":56.6,"n_hexagonos":1,"area_ha":17.56}},{"type":"Feature","geometry":{"type":"Polygon","coordinates":[[[-70.906894,-33.511175],[-70.906265,-33.515426],[-70.910693,-33.518333],[-70.91575,-33.51699],[-70.916379,-33.512739],[-70.912369,-33.510107],[-70.912835,-33.510187],[-70.91332,-33.510299],[-70.914028,-33.510336],[-70.915128,-33.510467],[-70.915676,-33.510538],[-70.916139,-33.510585],[-70.916446,-33.510613],[-70.916631,-33.510613],[-70.916823,-33.510557],[-70.91697,-33.51048],[-70.917066,-33.510457],[-70.917246,-33.510455],[-70.917482,-33.510507],[-70.918019,-33.510691],[-70.918565,-33.511002],[-70.918777,-33.511111],[-70.919021,-33.511143],[-70.919305,-33.511287],[-70.919547,-33.511473],[-70.919753,-33.511735],[-70.919843,-33.511819],[-70.920014,-33.511977],[-70.92041,-33.51206],[-70.920387,-33.513225],[-70.920725,-33.514575],[-70.921197,-33.515587],[-70.921602,-33.516464],[-70.922546,-33.517071],[-70.922884,-33.517881],[-70.922884,-33.518317],[-70.922884,-33.518584],[-70.922884,-33.518758],[-70.92283,-33.519193],[-70.922749,-33.519838],[-70.922479,-33.520715],[-70.922142,-33.521727],[-70.922681,-33.522402],[-70.922884,-33.523077],[-70.922884,-33.524089],[-70.923019,-33.524899],[-70.923356,-33.525776],[-70.923896,-33.526518],[-70.923947,-33.527033],[-70.923961,-33.527172],[-70.923963,-33.527193],[-70.924301,-33.528138],[-70.924706,-33.52888],[-70.924841,-33.529622],[-70.925178,-33.530567],[-70.92565,-33.531376],[-70.925675,-33.53145],[-70.925773,-33.531744],[-70.925988,-33.532389],[-70.926393,-33.532793],[-70.926865,-33.533468],[-70.926865,-33.53361],[-70.926865,-33.534008],[-70.926797,-33.534683],[-70.92646,-33.535425],[-70.926123,-33.536167],[-70.926258,-33.536909],[-70.926595,-33.537922],[-70.9271,-33.538472],[-70.927337,-33.538731],[-70.927742,-33.539473],[-70.928079,-33.540486],[-70.928349,-33.541363],[-70.928417,-33.542577],[-70.928687,-33.543387],[-70.928889,-33.543927],[-70.929159,-33.544534],[-70.929496,-33.545209],[-70.929564,-33.545816],[-70.929564,-33.545982],[-70.925893,-33.546956],[-70.921463,-33.54405],[-70.916405,-33.545393],[-70.915776,-33.549641],[-70.910718,-33.550983],[-70.910089,-33.555231],[-70.905031,-33.556572],[-70.900603,-33.553666],[-70.895545,-33.555007],[-70.891117,-33.5521],[-70.891746,-33.547853],[-70.887318,-33.544946],[-70.887948,-33.540698],[-70.88352,-33.53779],[-70.884149,-33.533542],[-70.879722,-33.530635],[-70.876333,-33.531533],[-70.876531,-33.531351],[-70.876922,-33.530978],[-70.87709,-33.530791],[-70.877258,-33.530623],[-70.877482,-33.530437],[-70.877743,-33.53025],[-70.878246,-33.530195],[-70.878675,-33.530083],[-70.879291,-33.529934],[-70.87957,-33.529878],[-70.879837,-33.529857],[-70.880055,-33.52984],[-70.880577,-33.529747],[-70.881174,-33.529635],[-70.881547,-33.529505],[-70.881696,-33.529393],[-70.881901,-33.529038],[-70.882032,-33.528815],[-70.882237,-33.528498],[-70.882423,-33.528293],[-70.882647,-33.528106],[-70.882889,-33.527901],[-70.88323,-33.52781],[-70.883766,-33.52805],[-70.884232,-33.528199],[-70.884661,-33.528274],[-70.885034,-33.528367],[-70.885556,-33.528349],[-70.88591,-33.528311],[-70.886357,-33.528106],[-70.886674,-33.52792],[-70.887103,-33.527659],[-70.88742,-33.527398],[-70.888017,-33.526913],[-70.888136,-33.526836],[-70.888278,-33.526745],[-70.888707,-33.526428],[-70.888875,-33.526111],[-70.888912,-33.525887],[-70.888912,-33.525533],[-70.888912,-33.525123],[-70.889117,-33.524862],[-70.889453,-33.524414],[-70.889602,-33.52419],[-70.889695,-33.523911],[-70.890012,-33.523538],[-70.890273,-33.523072],[-70.89046,-33.522792],[-70.890795,-33.522624],[-70.891224,-33.522363],[-70.891485,-33.522139],[-70.891709,-33.521916],[-70.891877,-33.521655],[-70.892044,-33.5213],[-70.892063,-33.520927],[-70.892212,-33.520517],[-70.892342,-33.520273],[-70.89238,-33.5202],[-70.892492,-33.520032],[-70.892753,-33.519846],[-70.893275,-33.519734],[-70.893928,-33.519641],[-70.894375,-33.519417],[-70.895028,-33.519212],[-70.895755,-33.518988],[-70.896035,-33.518764],[-70.896631,-33.518447],[-70.897284,-33.51828],[-70.897806,-33.518112],[-70.898104,-33.517944],[-70.898272,-33.51772],[-70.89844,-33.517422],[-70.898533,-33.517198],[-70.898627,-33.516919],[-70.898832,-33.516546],[-70.899037,-33.516303],[-70.899372,-33.515912],[-70.899466,-33.515688],[-70.899491,-33.515641],[-70.899652,-33.515352],[-70.899857,-33.515091],[-70.9001,-33.514718],[-70.900342,-33.514364],[-70.900547,-33.514047],[-70.900678,-33.513842],[-70.901051,-33.513413],[-70.901461,-33.513133],[-70.90174,-33.512928],[-70.902337,-33.512555],[-70.90258,-33.512313],[-70.902822,-33.512126],[-70.903288,-33.511847],[-70.903586,-33.511567],[-70.903717,-33.511455],[-70.903736,-33.511082],[-70.903698,-33.510859],[-70.903698,-33.510747],[-70.90384,-33.51057],[-70.904183,-33.510597],[-70.904481,-33.510653],[-70.904761,-33.510765],[-70.904966,-33.510859],[-70.905432,-33.510914],[-70.905787,-33.510914],[-70.90635,-33.510818],[-70.906894,-33.511175]],[[-70.898691,-33.533766],[-70.903119,-33.536673],[-70.908177,-33.535331],[-70.908806,-33.531082],[-70.904378,-33.528175],[-70.89932,-33.529517],[-70.898691,-33.533766]]]},"properties":{"comuna":"Padre Hurtado","mancha_id":"13604-88b2c54101fffff","clase":"Alto","nivel_medio":2.957,"nivel_medio_min":2.507,"nivel_medio_max":3.481,"pct_alto":79.1,"n_hexagonos":27,"area_ha":1336.34}},{"type":"Feature","geometry":{"type":"Polygon","coordinates":[[[-70.815888,-33.535305],[-70.811464,-33.532396],[-70.811676,-33.530967],[-70.812817,-33.5321],[-70.81336,-33.532722],[-70.813787,-33.533144],[-70.815039,-33.53412],[-70.815681,-33.534591],[-70.815994,-33.535024],[-70.81615,-33.535236],[-70.816323,-33.535471],[-70.81671,-33.535919],[-70.816874,-33.536202],[-70.816994,-33.536575],[-70.817277,-33.536933],[-70.817486,-33.537276],[-70.817665,-33.53753],[-70.817889,-33.537769],[-70.818053,-33.537873],[-70.818411,-33.537918],[-70.819589,-33.537754],[-70.820067,-33.537634],[-70.820469,-33.537545],[-70.820947,-33.537455],[-70.821663,-33.537396],[-70.822364,-33.537381],[-70.822886,-33.537351],[-70.823647,-33.537306],[-70.824258,-33.537187],[-70.825273,-33.537299],[-70.825305,-33.5373],[-70.824738,-33.541123],[-70.819683,-33.542461],[-70.815258,-33.539552],[-70.815888,-33.535305]]]},"properties":{"comuna":"Padre Hurtado","mancha_id":"13604-88b2c540e1fffff","clase":"Alto","nivel_medio":2.524,"nivel_medio_min":2.5,"nivel_medio_max":2.764,"pct_alto":61.6,"n_hexagonos":2,"area_ha":46.01}},{"type":"Feature","geometry":{"type":"Polygon","coordinates":[[[-70.817792,-33.555199],[-70.813367,-33.552291],[-70.808312,-33.553628],[-70.807682,-33.557873],[-70.802627,-33.55921],[-70.798203,-33.556301],[-70.798333,-33.555422],[-70.798536,-33.555314],[-70.79981,-33.55441],[-70.800751,-33.553741],[-70.802584,-33.552441],[-70.804233,-33.551336],[-70.804527,-33.551139],[-70.805606,-33.550415],[-70.806705,-33.549686],[-70.808526,-33.548468],[-70.809934,-33.54753],[-70.811341,-33.546586],[-70.811558,-33.546441],[-70.813997,-33.548045],[-70.819052,-33.546707],[-70.823477,-33.549616],[-70.828533,-33.548278],[-70.829163,-33.544031],[-70.834218,-33.542693],[-70.838644,-33.545601],[-70.843699,-33.544262],[-70.844329,-33.540015],[-70.839903,-33.537107],[-70.840304,-33.534408],[-70.840656,-33.534297],[-70.84126,-33.534123],[-70.841664,-33.533906],[-70.842379,-33.533742],[-70.842903,-33.533883],[-70.843415,-33.534166],[-70.844335,-33.534481],[-70.844944,-33.534819],[-70.845435,-33.535005],[-70.84576,-33.535116],[-70.845952,-33.535256],[-70.846077,-33.535352],[-70.846203,-33.53561],[-70.847058,-33.536007],[-70.847266,-33.536042],[-70.84767,-33.536042],[-70.848364,-33.536146],[-70.848902,-33.536281],[-70.849229,-33.536377],[-70.849595,-33.53655],[-70.849692,-33.536605],[-70.849902,-33.536723],[-70.850171,-33.536877],[-70.85052,-33.537056],[-70.850887,-33.537293],[-70.851369,-33.537493],[-70.851591,-33.537388],[-70.851829,-33.537193],[-70.852043,-33.536833],[-70.852254,-33.53646],[-70.852302,-33.536326],[-70.852291,-33.536031],[-70.85255,-33.535751],[-70.85273,-33.535593],[-70.852959,-33.535435],[-70.853324,-33.535377],[-70.853574,-33.535243],[-70.853844,-33.53505],[-70.854151,-33.534781],[-70.854363,-33.53458],[-70.854566,-33.534366],[-70.854836,-33.534242],[-70.85514,-33.534118],[-70.855253,-33.533859],[-70.855312,-33.533588],[-70.855478,-33.533356],[-70.85549,-33.53334],[-70.855828,-33.533115],[-70.856019,-33.532788],[-70.856244,-33.532469],[-70.856617,-33.532041],[-70.856934,-33.531724],[-70.857176,-33.531462],[-70.8574,-33.531239],[-70.857493,-33.53109],[-70.857642,-33.530866],[-70.857833,-33.530783],[-70.858069,-33.530761],[-70.85843,-33.530783],[-70.858724,-33.530698],[-70.859414,-33.530717],[-70.859749,-33.530717],[-70.860234,-33.530717],[-70.861092,-33.530717],[-70.861894,-33.530642],[-70.86318,-33.530493],[-70.863982,-33.530549],[-70.865082,-33.530493],[-70.86517,-33.530494],[-70.86551,-33.5305],[-70.866369,-33.53053],[-70.866928,-33.530642],[-70.86742,-33.53074],[-70.867927,-33.530895],[-70.868561,-33.53112],[-70.868923,-33.531239],[-70.869406,-33.531472],[-70.869856,-33.531683],[-70.870335,-33.53188],[-70.870786,-33.532134],[-70.871335,-33.532289],[-70.871898,-33.532303],[-70.872673,-33.532035],[-70.872969,-33.53219],[-70.873286,-33.53219],[-70.873529,-33.532208],[-70.873902,-33.532152],[-70.874219,-33.532115],[-70.874655,-33.532047],[-70.874036,-33.536224],[-70.86898,-33.537564],[-70.864553,-33.534656],[-70.859497,-33.535997],[-70.858867,-33.540244],[-70.853811,-33.541584],[-70.853181,-33.545831],[-70.848125,-33.54717],[-70.847495,-33.551417],[-70.851922,-33.554325],[-70.856978,-33.552986],[-70.861405,-33.555893],[-70.860775,-33.56014],[-70.855718,-33.561479],[-70.851292,-33.558571],[-70.846236,-33.55991],[-70.841809,-33.557002],[-70.836754,-33.55834],[-70.832328,-33.555432],[-70.827272,-33.55677],[-70.822847,-33.553862],[-70.817792,-33.555199]]]},"properties":{"comuna":"Padre Hurtado","mancha_id":"13604-88b2c540a1fffff","clase":"Alto","nivel_medio":2.766,"nivel_medio_min":2.503,"nivel_medio_max":3.286,"pct_alto":76.1,"n_hexagonos":14,"area_ha":782.82}},{"type":"Feature","geometry":{"type":"Polygon","coordinates":[[[-70.804533,-33.5325],[-70.806409,-33.533734],[-70.806024,-33.536328],[-70.805955,-33.536277],[-70.805776,-33.536128],[-70.805605,-33.536019],[-70.805434,-33.535892],[-70.805205,-33.535518],[-70.805144,-33.535083],[-70.805135,-33.534653],[-70.80509,-33.53411],[-70.805004,-33.533696],[-70.804726,-33.533077],[-70.804533,-33.5325]]]},"properties":{"comuna":"Padre Hurtado","mancha_id":"13604-88b2c5408dfffff","clase":"Alto","nivel_medio":3.212,"nivel_medio_min":3.212,"nivel_medio_max":3.212,"pct_alto":88.7,"n_hexagonos":1,"area_ha":3.48}},{"type":"Feature","geometry":{"type":"Polygon","coordinates":[[[-70.906265,-33.515426],[-70.906894,-33.511175],[-70.90635,-33.510818],[-70.906397,-33.51081],[-70.906642,-33.510673],[-70.90698,-33.510486],[-70.907166,-33.510243],[-70.907316,-33.510113],[-70.907782,-33.509982],[-70.908416,-33.509852],[-70.908714,-33.50974],[-70.909404,-33.509423],[-70.909833,-33.509236],[-70.91015,-33.509087],[-70.910336,-33.508901],[-70.910523,-33.508714],[-70.910672,-33.508621],[-70.910873,-33.50871],[-70.91103,-33.508847],[-70.911194,-33.509106],[-70.911362,-33.509404],[-70.911492,-33.509591],[-70.911791,-33.509814],[-70.911864,-33.509855],[-70.912294,-33.510094],[-70.912369,-33.510107],[-70.916379,-33.512739],[-70.91575,-33.51699],[-70.910693,-33.518333],[-70.906265,-33.515426]]]},"properties":{"comuna":"Padre Hurtado","mancha_id":"13604-88b2c54105fffff","clase":"Muy Alto","nivel_medio":3.734,"nivel_medio_min":3.72,"nivel_medio_max":3.912,"pct_alto":100.0,"n_hexagonos":2,"area_ha":69.03}}],"bbox":[-70.94864,-33.59803,-70.77842,-33.50862]}