{"type":"FeatureCollection","features":[{"type":"Feature","geometry":{"type":"Polygon","coordinates":[[[-71.062114,-33.678043],[-71.062741,-33.6738],[-71.067806,-33.672456],[-71.072244,-33.675355],[-71.071617,-33.679598],[-71.066552,-33.680942],[-71.062114,-33.678043]]]},"properties":{"comuna":"El Monte","mancha_id":"13602-88b2c0b329fffff","clase":"Bajo","nivel_medio":1.259,"nivel_medio_min":1.259,"nivel_medio_max":1.259,"pct_alto":9.8,"n_hexagonos":1,"area_ha":63.71}},{"type":"Feature","geometry":{"type":"Polygon","coordinates":[[[-70.984195,-33.64571],[-70.984823,-33.641466],[-70.980389,-33.638565],[-70.975328,-33.639906],[-70.970894,-33.637004],[-70.971523,-33.63276],[-70.976585,-33.631419],[-70.981018,-33.634321],[-70.98608,-33.632979],[-70.986708,-33.628735],[-70.99177,-33.627393],[-70.996204,-33.630294],[-70.995576,-33.634539],[-71.00001,-33.63744],[-71.005072,-33.636098],[-71.009507,-33.638999],[-71.008879,-33.643243],[-71.013314,-33.646144],[-71.012686,-33.650388],[-71.007623,-33.65173],[-71.003188,-33.648829],[-71.003816,-33.644586],[-70.999382,-33.641684],[-70.994319,-33.643026],[-70.993691,-33.64727],[-70.988629,-33.648611],[-70.984195,-33.64571]]]},"properties":{"comuna":"El Monte","mancha_id":"13602-88b2c0b245fffff","clase":"Bajo","nivel_medio":1.246,"nivel_medio_min":1.088,"nivel_medio_max":1.392,"pct_alto":4.7,"n_hexagonos":7,"area_ha":446.01}},{"type":"Feature","geometry":{"type":"Polygon","coordinates":[[[-70.998162,-33.682766],[-70.993727,-33.679866],[-70.988664,-33.681206],[-70.98423,-33.678305],[-70.984858,-33.674064],[-70.989921,-33.672724],[-70.994356,-33.675624],[-70.999419,-33.674283],[-71.003854,-33.677184],[-71.003225,-33.681425],[-70.998162,-33.682766]]]},"properties":{"comuna":"El Monte","mancha_id":"13602-88b2c0b223fffff","clase":"Bajo","nivel_medio":1.007,"nivel_medio_min":0.638,"nivel_medio_max":1.377,"pct_alto":24.8,"n_hexagonos":2,"area_ha":127.32}},{"type":"Feature","geometry":{"type":"Polygon","coordinates":[[[-71.067852,-33.705048],[-71.06848,-33.700807],[-71.073546,-33.699464],[-71.077985,-33.702362],[-71.083051,-33.701018],[-71.08749,-33.703915],[-71.086863,-33.708157],[-71.081796,-33.7095],[-71.081169,-33.713741],[-71.076102,-33.715084],[-71.071664,-33.712186],[-71.072291,-33.707946],[-71.067852,-33.705048]]]},"properties":{"comuna":"El Monte","mancha_id":"13602-88b2c0b141fffff","clase":"Bajo","nivel_medio":1.321,"nivel_medio_min":1.31,"nivel_medio_max":1.342,"pct_alto":5.5,"n_hexagonos":3,"area_ha":191.03}},{"type":"Feature","geometry":{"type":"Polygon","coordinates":[[[-71.100574,-33.65189],[-71.100597,-33.651989],[-71.10069,-33.652402],[-71.100788,-33.653048],[-71.100911,-33.653629],[-71.100998,-33.654168],[-71.101056,-33.654644],[-71.101076,-33.654821],[-71.101084,-33.654897],[-71.10114,-33.655412],[-71.10123,-33.655905],[-71.101252,-33.656189],[-71.101282,-33.656535],[-71.101371,-33.657068],[-71.10156,-33.657976],[-71.101725,-33.658995],[-71.101783,-33.659356],[-71.098827,-33.660142],[-71.094388,-33.657243],[-71.095015,-33.652998],[-71.090577,-33.6501],[-71.091204,-33.645854],[-71.096269,-33.644508],[-71.099788,-33.646806],[-71.099817,-33.646988],[-71.09984,-33.647118],[-71.099909,-33.647499],[-71.100009,-33.648089],[-71.100098,-33.648599],[-71.100139,-33.648829],[-71.100205,-33.649417],[-71.100282,-33.650035],[-71.1003,-33.650168],[-71.100369,-33.650683],[-71.100506,-33.651402],[-71.100574,-33.65189]]]},"properties":{"comuna":"El Monte","mancha_id":"13602-88b2c086a3fffff","clase":"Bajo","nivel_medio":1.252,"nivel_medio_min":1.0,"nivel_medio_max":1.276,"pct_alto":11.9,"n_hexagonos":3,"area_ha":108.9}},{"type":"Feature","geometry":{"type":"Polygon","coordinates":[[[-71.111061,-33.686193],[-71.110607,-33.686443],[-71.109981,-33.686787],[-71.109117,-33.687219],[-71.108254,-33.687975],[-71.107444,-33.688622],[-71.10658,-33.689],[-71.105663,-33.689378],[-71.104961,-33.690026],[-71.104091,-33.690404],[-71.104571,-33.687156],[-71.109638,-33.68581],[-71.109957,-33.683651],[-71.115125,-33.682443],[-71.114674,-33.683147],[-71.114138,-33.683926],[-71.113274,-33.684844],[-71.112464,-33.685545],[-71.111061,-33.686193]]]},"properties":{"comuna":"El Monte","mancha_id":"13602-88b2c08481fffff","clase":"Bajo","nivel_medio":1.205,"nivel_medio_min":1.096,"nivel_medio_max":1.327,"pct_alto":3.7,"n_hexagonos":2,"area_ha":23.8}},{"type":"Feature","geometry":{"type":"Polygon","coordinates":[[[-71.011391,-33.626266],[-71.006957,-33.623364],[-71.007353,-33.620684],[-71.00785,-33.621038],[-71.008659,-33.621686],[-71.009199,-33.622496],[-71.009955,-33.623953],[-71.010279,-33.624547],[-71.010657,-33.624871],[-71.011412,-33.625303],[-71.011898,-33.625411],[-71.012654,-33.625681],[-71.013092,-33.625814],[-71.011391,-33.626266]]]},"properties":{"comuna":"El Monte","mancha_id":"13602-88b2c5498bfffff","clase":"Medio","nivel_medio":2.439,"nivel_medio_min":2.439,"nivel_medio_max":2.439,"pct_alto":43.9,"n_hexagonos":1,"area_ha":9.69}},{"type":"Feature","geometry":{"type":"Polygon","coordinates":[[[-70.974699,-33.644149],[-70.975328,-33.639906],[-70.980389,-33.638565],[-70.984823,-33.641466],[-70.984195,-33.64571],[-70.979133,-33.647051],[-70.974699,-33.644149]]]},"properties":{"comuna":"El Monte","mancha_id":"13602-88b2c0b241fffff","clase":"Medio","nivel_medio":1.878,"nivel_medio_min":1.878,"nivel_medio_max":1.878,"pct_alto":38.8,"n_hexagonos":1,"area_ha":63.7}},{"type":"Feature","geometry":{"type":"Polygon","coordinates":[[[-70.981052,-33.666922],[-70.976619,-33.66402],[-70.971556,-33.665361],[-70.970928,-33.669602],[-70.965866,-33.670942],[-70.961432,-33.66804],[-70.95637,-33.66938],[-70.951938,-33.666478],[-70.952566,-33.662236],[-70.948134,-33.659334],[-70.948763,-33.655093],[-70.953824,-33.653753],[-70.958257,-33.656655],[-70.963318,-33.655315],[-70.963947,-33.651073],[-70.969009,-33.649733],[-70.973442,-33.652635],[-70.978504,-33.651294],[-70.982938,-33.654195],[-70.982309,-33.658438],[-70.986743,-33.661339],[-70.986115,-33.665581],[-70.981052,-33.666922]]]},"properties":{"comuna":"El Monte","mancha_id":"13602-88b2c0b201fffff","clase":"Medio","nivel_medio":2.094,"nivel_medio_min":1.53,"nivel_medio_max":2.407,"pct_alto":27.5,"n_hexagonos":8,"area_ha":509.34}},{"type":"Feature","geometry":{"type":"Polygon","coordinates":[[[-71.024149,-33.704404],[-71.024777,-33.700164],[-71.029841,-33.698823],[-71.034278,-33.701722],[-71.03365,-33.705962],[-71.028585,-33.707303],[-71.024149,-33.704404]]]},"properties":{"comuna":"El Monte","mancha_id":"13602-88b2c0b061fffff","clase":"Medio","nivel_medio":2.496,"nivel_medio_min":2.496,"nivel_medio_max":2.496,"pct_alto":72.7,"n_hexagonos":1,"area_ha":63.65}},{"type":"Feature","geometry":{"type":"Polygon","coordinates":[[[-71.057004,-33.646783],[-71.052567,-33.643883],[-71.047503,-33.645228],[-71.043067,-33.642327],[-71.043694,-33.638083],[-71.043379,-33.637877],[-71.044125,-33.63761],[-71.044988,-33.637503],[-71.045852,-33.637287],[-71.046338,-33.637071],[-71.047094,-33.636693],[-71.047579,-33.636261],[-71.048551,-33.635883],[-71.048906,-33.635741],[-71.049091,-33.635667],[-71.049847,-33.635613],[-71.050278,-33.635991],[-71.050602,-33.636207],[-71.051034,-33.636315],[-71.051466,-33.636369],[-71.051952,-33.636585],[-71.052708,-33.637017],[-71.053247,-33.637395],[-71.053841,-33.63761],[-71.054381,-33.637718],[-71.054975,-33.63788],[-71.056108,-33.637988],[-71.05681,-33.637988],[-71.057728,-33.637988],[-71.058304,-33.637988],[-71.058259,-33.638293],[-71.062696,-33.641193],[-71.062069,-33.645438],[-71.057004,-33.646783]]]},"properties":{"comuna":"El Monte","mancha_id":"13602-88b2c0869bfffff","clase":"Medio","nivel_medio":2.395,"nivel_medio_min":2.017,"nivel_medio_max":2.469,"pct_alto":39.5,"n_hexagonos":4,"area_ha":144.47}},{"type":"Feature","geometry":{"type":"Polygon","coordinates":[[[-71.082955,-33.635811],[-71.083582,-33.631565],[-71.079144,-33.628665],[-71.079321,-33.627471],[-71.079428,-33.627462],[-71.080022,-33.627462],[-71.081425,-33.62757],[-71.082127,-33.627678],[-71.082775,-33.627678],[-71.083369,-33.627678],[-71.083962,-33.627732],[-71.08434,-33.627894],[-71.084664,-33.628434],[-71.084988,-33.629136],[-71.085366,-33.629729],[-71.086122,-33.630593],[-71.086413,-33.630812],[-71.086985,-33.631241],[-71.087795,-33.631781],[-71.088443,-33.632374],[-71.088983,-33.632752],[-71.0899,-33.633238],[-71.09071,-33.633238],[-71.092167,-33.633346],[-71.092653,-33.633346],[-71.093028,-33.633502],[-71.093301,-33.633616],[-71.094273,-33.633994],[-71.095568,-33.634048],[-71.096378,-33.634048],[-71.097786,-33.634064],[-71.097944,-33.635016],[-71.097983,-33.635258],[-71.098019,-33.635476],[-71.09807,-33.635794],[-71.098122,-33.636112],[-71.098222,-33.63668],[-71.098288,-33.637054],[-71.098422,-33.638085],[-71.098569,-33.638915],[-71.098696,-33.639784],[-71.098701,-33.639822],[-71.098807,-33.640626],[-71.098953,-33.641428],[-71.099054,-33.64222],[-71.099196,-33.643128],[-71.099317,-33.643821],[-71.099431,-33.64472],[-71.099605,-33.64554],[-71.0997,-33.646237],[-71.099724,-33.64639],[-71.099779,-33.646749],[-71.099788,-33.646806],[-71.096269,-33.644508],[-71.091204,-33.645854],[-71.086766,-33.642955],[-71.087393,-33.63871],[-71.082955,-33.635811]]]},"properties":{"comuna":"El Monte","mancha_id":"13602-88b2c08681fffff","clase":"Medio","nivel_medio":2.2,"nivel_medio_min":1.747,"nivel_medio_max":2.401,"pct_alto":31.9,"n_hexagonos":5,"area_ha":180.54}},{"type":"Feature","geometry":{"type":"Polygon","coordinates":[[[-71.109638,-33.68581],[-71.104571,-33.687156],[-71.104091,-33.690404],[-71.103719,-33.690566],[-71.101398,-33.691807],[-71.101035,-33.69217],[-71.100858,-33.692347],[-71.101007,-33.69259],[-71.100925,-33.692802],[-71.101018,-33.693111],[-71.101333,-33.693855],[-71.101967,-33.695483],[-71.102427,-33.696678],[-71.102658,-33.69722],[-71.103162,-33.698381],[-71.103556,-33.699421],[-71.103636,-33.699631],[-71.10269,-33.699883],[-71.102063,-33.704124],[-71.103451,-33.70503],[-71.102424,-33.70568],[-71.101074,-33.706706],[-71.100049,-33.707677],[-71.099131,-33.708217],[-71.097835,-33.708811],[-71.096972,-33.709621],[-71.096613,-33.709869],[-71.09627,-33.710107],[-71.095268,-33.710812],[-71.094292,-33.711301],[-71.093176,-33.712068],[-71.09251,-33.712488],[-71.091961,-33.712807],[-71.091007,-33.713052],[-71.090724,-33.713125],[-71.089522,-33.713266],[-71.088691,-33.713266],[-71.087966,-33.713461],[-71.086967,-33.714021],[-71.085844,-33.714681],[-71.08473,-33.715193],[-71.08389,-33.715517],[-71.083351,-33.715724],[-71.08184,-33.716253],[-71.079538,-33.716951],[-71.078108,-33.717125],[-71.076783,-33.717021],[-71.075819,-33.716997],[-71.075353,-33.716986],[-71.073783,-33.716951],[-71.072284,-33.716846],[-71.070784,-33.716916],[-71.069389,-33.717055],[-71.067715,-33.716986],[-71.066319,-33.717055],[-71.066078,-33.717038],[-71.064889,-33.716951],[-71.06339,-33.716637],[-71.062343,-33.716358],[-71.061159,-33.716434],[-71.060286,-33.716672],[-71.058646,-33.717439],[-71.058491,-33.717536],[-71.056466,-33.716214],[-71.053548,-33.716987],[-71.05338,-33.716881],[-71.052089,-33.716497],[-71.050834,-33.716637],[-71.050249,-33.716804],[-71.049613,-33.716986],[-71.048427,-33.717579],[-71.046753,-33.717823],[-71.045114,-33.717579],[-71.044207,-33.717125],[-71.042533,-33.716044],[-71.042038,-33.715962],[-71.041771,-33.715917],[-71.037459,-33.713101],[-71.038087,-33.708861],[-71.043152,-33.707519],[-71.04759,-33.710418],[-71.052655,-33.709076],[-71.053283,-33.704835],[-71.058349,-33.703493],[-71.058976,-33.699252],[-71.064042,-33.697909],[-71.064669,-33.693668],[-71.069735,-33.692324],[-71.074173,-33.695222],[-71.079239,-33.693879],[-71.083678,-33.696776],[-71.088744,-33.695432],[-71.089372,-33.69119],[-71.084933,-33.688292],[-71.08556,-33.68405],[-71.090626,-33.682705],[-71.091253,-33.678462],[-71.086814,-33.675564],[-71.081748,-33.676909],[-71.081121,-33.681152],[-71.076055,-33.682496],[-71.075428,-33.686738],[-71.070362,-33.688082],[-71.065924,-33.685184],[-71.060859,-33.686527],[-71.060231,-33.690769],[-71.055166,-33.692112],[-71.050728,-33.689213],[-71.051356,-33.684972],[-71.046919,-33.682073],[-71.047546,-33.677831],[-71.04311,-33.674931],[-71.038045,-33.676274],[-71.033609,-33.673375],[-71.028544,-33.674717],[-71.027916,-33.678959],[-71.032353,-33.681859],[-71.031725,-33.6861],[-71.036162,-33.688999],[-71.041226,-33.687657],[-71.045663,-33.690556],[-71.045036,-33.694797],[-71.039971,-33.696139],[-71.035534,-33.693241],[-71.030469,-33.694582],[-71.026033,-33.691683],[-71.020968,-33.693024],[-71.016532,-33.690125],[-71.011468,-33.691466],[-71.007033,-33.688566],[-71.001969,-33.689907],[-70.997534,-33.687007],[-70.99247,-33.688347],[-70.988036,-33.685447],[-70.982973,-33.686787],[-70.978538,-33.683886],[-70.979167,-33.679645],[-70.974733,-33.676744],[-70.975361,-33.672503],[-70.980424,-33.671163],[-70.984858,-33.674064],[-70.98423,-33.678305],[-70.988664,-33.681206],[-70.993727,-33.679866],[-70.998162,-33.682766],[-71.003225,-33.681425],[-71.007661,-33.684325],[-71.012725,-33.682984],[-71.01716,-33.685884],[-71.022224,-33.684542],[-71.022852,-33.680301],[-71.018416,-33.677401],[-71.019044,-33.673159],[-71.014609,-33.670259],[-71.009545,-33.671601],[-71.00511,-33.6687],[-71.000047,-33.670042],[-70.995612,-33.667141],[-70.99624,-33.662899],[-70.991806,-33.659998],[-70.992434,-33.655756],[-70.988,-33.652854],[-70.988629,-33.648611],[-70.993691,-33.64727],[-70.994319,-33.643026],[-70.999382,-33.641684],[-71.003816,-33.644586],[-71.003188,-33.648829],[-71.007623,-33.65173],[-71.012686,-33.650388],[-71.013314,-33.646144],[-71.008879,-33.643243],[-71.009507,-33.638999],[-71.005072,-33.636098],[-71.00001,-33.63744],[-70.995576,-33.634539],[-70.996204,-33.630294],[-70.99177,-33.627393],[-70.986708,-33.628735],[-70.98608,-33.632979],[-70.981018,-33.634321],[-70.976585,-33.631419],[-70.977213,-33.627175],[-70.982275,-33.625833],[-70.982903,-33.621588],[-70.987965,-33.620246],[-70.988593,-33.616001],[-70.988556,-33.615976],[-70.98901,-33.61537],[-70.989496,-33.615101],[-70.990036,-33.614831],[-70.991277,-33.614507],[-70.991925,-33.614507],[-70.992465,-33.614291],[-70.993491,-33.613805],[-70.993826,-33.613497],[-70.994138,-33.613211],[-70.99457,-33.613103],[-70.99565,-33.613265],[-70.996298,-33.613427],[-70.996783,-33.613643],[-70.997863,-33.614345],[-70.998565,-33.614669],[-70.999159,-33.614939],[-70.999806,-33.614939],[-71.0,-33.614987],[-71.00067,-33.615154],[-71.00094,-33.615802],[-71.001318,-33.61645],[-71.00147,-33.616663],[-70.998088,-33.61756],[-70.99746,-33.621805],[-71.001894,-33.624707],[-71.001266,-33.628952],[-71.0057,-33.631853],[-71.010763,-33.63051],[-71.015198,-33.633412],[-71.020261,-33.632068],[-71.024696,-33.634969],[-71.024068,-33.639214],[-71.028504,-33.642115],[-71.027876,-33.646359],[-71.022812,-33.647702],[-71.022184,-33.651946],[-71.017121,-33.653288],[-71.016493,-33.657532],[-71.020928,-33.660432],[-71.0203,-33.664675],[-71.024736,-33.667575],[-71.0298,-33.666232],[-71.030428,-33.66199],[-71.035492,-33.660646],[-71.03612,-33.656403],[-71.041184,-33.65506],[-71.041811,-33.650816],[-71.046876,-33.649472],[-71.051312,-33.652372],[-71.056377,-33.651027],[-71.060814,-33.653927],[-71.060186,-33.658171],[-71.064624,-33.66107],[-71.063996,-33.665314],[-71.058931,-33.666658],[-71.058304,-33.670901],[-71.062741,-33.6738],[-71.062114,-33.678043],[-71.066552,-33.680942],[-71.071617,-33.679598],[-71.072244,-33.675355],[-71.067806,-33.672456],[-71.068434,-33.668213],[-71.073499,-33.666868],[-71.074126,-33.662625],[-71.079192,-33.66128],[-71.08363,-33.664179],[-71.088696,-33.662833],[-71.093134,-33.665732],[-71.0982,-33.664386],[-71.098827,-33.660142],[-71.101783,-33.659356],[-71.101878,-33.659945],[-71.101976,-33.660698],[-71.102014,-33.660964],[-71.102061,-33.661286],[-71.102086,-33.661542],[-71.102121,-33.6619],[-71.102127,-33.661957],[-71.102316,-33.662756],[-71.102362,-33.663041],[-71.102421,-33.663392],[-71.102508,-33.664267],[-71.102602,-33.664881],[-71.102635,-33.665099],[-71.102693,-33.665704],[-71.10279,-33.666494],[-71.102846,-33.666779],[-71.10292,-33.667152],[-71.102926,-33.667208],[-71.102639,-33.667284],[-71.102012,-33.671528],[-71.103726,-33.672647],[-71.103801,-33.673129],[-71.103911,-33.673879],[-71.103957,-33.67419],[-71.103979,-33.674325],[-71.104015,-33.674541],[-71.104053,-33.674775],[-71.104316,-33.676366],[-71.104706,-33.678967],[-71.104783,-33.679483],[-71.104911,-33.680305],[-71.10537,-33.68328],[-71.105502,-33.684065],[-71.105605,-33.684668],[-71.109957,-33.683651],[-71.109638,-33.68581]],[[-71.08749,-33.703915],[-71.083051,-33.701018],[-71.077985,-33.702362],[-71.073546,-33.699464],[-71.06848,-33.700807],[-71.067852,-33.705048],[-71.072291,-33.707946],[-71.071664,-33.712186],[-71.076102,-33.715084],[-71.081169,-33.713741],[-71.081796,-33.7095],[-71.086863,-33.708157],[-71.08749,-33.703915]]]},"properties":{"comuna":"El Monte","mancha_id":"13602-88b2c0848bfffff","clase":"Medio","nivel_medio":2.088,"nivel_medio_min":1.501,"nivel_medio_max":2.485,"pct_alto":34.1,"n_hexagonos":80,"area_ha":4623.44}},{"type":"Feature","geometry":{"type":"Polygon","coordinates":[[[-70.980424,-33.671163],[-70.975361,-33.672503],[-70.974733,-33.676744],[-70.979167,-33.679645],[-70.978538,-33.683886],[-70.977303,-33.684213],[-70.977203,-33.684179],[-70.976598,-33.684078],[-70.97588,-33.683902],[-70.975237,-33.683637],[-70.974468,-33.683183],[-70.973309,-33.682591],[-70.972628,-33.682162],[-70.972523,-33.682064],[-70.971872,-33.681456],[-70.971557,-33.680851],[-70.971342,-33.680158],[-70.971254,-33.679604],[-70.971088,-33.679265],[-70.970914,-33.679087],[-70.970763,-33.678847],[-70.970578,-33.678651],[-70.970366,-33.678532],[-70.970132,-33.678431],[-70.969805,-33.678356],[-70.969632,-33.678346],[-70.969351,-33.678331],[-70.968998,-33.678305],[-70.968763,-33.678266],[-70.968557,-33.678142],[-70.968317,-33.677915],[-70.968122,-33.67776],[-70.967937,-33.67763],[-70.967779,-33.677467],[-70.967649,-33.677259],[-70.967422,-33.676957],[-70.967183,-33.676755],[-70.966956,-33.676553],[-70.966641,-33.676276],[-70.966313,-33.676049],[-70.966061,-33.675923],[-70.965796,-33.675873],[-70.965544,-33.675785],[-70.965204,-33.675621],[-70.964788,-33.675381],[-70.964701,-33.675324],[-70.96446,-33.675167],[-70.96407,-33.675003],[-70.963717,-33.67489],[-70.963376,-33.674776],[-70.963137,-33.67465],[-70.96291,-33.674461],[-70.962771,-33.674297],[-70.962582,-33.674032],[-70.962404,-33.673845],[-70.962196,-33.673687],[-70.961929,-33.673567],[-70.961562,-33.673377],[-70.961324,-33.673214],[-70.961087,-33.672983],[-70.960931,-33.672772],[-70.960629,-33.672419],[-70.960238,-33.672205],[-70.959872,-33.672117],[-70.959532,-33.672066],[-70.959343,-33.672066],[-70.959053,-33.672003],[-70.958776,-33.671953],[-70.958473,-33.671852],[-70.958196,-33.671688],[-70.95802,-33.671499],[-70.957805,-33.671197],[-70.957578,-33.670844],[-70.957326,-33.670541],[-70.956973,-33.670302],[-70.956583,-33.67005],[-70.956289,-33.66993],[-70.956116,-33.66986],[-70.955576,-33.669707],[-70.955132,-33.669618],[-70.954747,-33.669554],[-70.954201,-33.669594],[-70.953672,-33.66959],[-70.953171,-33.669573],[-70.95262,-33.669456],[-70.952052,-33.669351],[-70.951581,-33.669362],[-70.951116,-33.669456],[-70.950382,-33.669573],[-70.949914,-33.66959],[-70.949496,-33.669606],[-70.949162,-33.669673],[-70.948979,-33.669769],[-70.948795,-33.669907],[-70.948607,-33.669967],[-70.948304,-33.669956],[-70.947927,-33.669874],[-70.947734,-33.66966],[-70.947616,-33.669369],[-70.947595,-33.669196],[-70.947578,-33.669018],[-70.947476,-33.668899],[-70.947216,-33.668869],[-70.946952,-33.668832],[-70.946788,-33.668721],[-70.946768,-33.668546],[-70.946876,-33.667817],[-70.942444,-33.664915],[-70.943073,-33.660673],[-70.938765,-33.657852],[-70.938798,-33.657847],[-70.939289,-33.657648],[-70.93989,-33.65721],[-70.940662,-33.65688],[-70.941303,-33.656479],[-70.941809,-33.655909],[-70.94225,-33.65539],[-70.943347,-33.655376],[-70.94533,-33.65488],[-70.946265,-33.654505],[-70.947248,-33.654101],[-70.947538,-33.653981],[-70.949786,-33.653082],[-70.95151,-33.652557],[-70.95388,-33.65221],[-70.954063,-33.652141],[-70.954799,-33.651864],[-70.955339,-33.651361],[-70.955745,-33.650521],[-70.956109,-33.64941],[-70.956401,-33.648995],[-70.956424,-33.648962],[-70.95691,-33.64857],[-70.957718,-33.648232],[-70.958381,-33.647818],[-70.958778,-33.647087],[-70.95916,-33.645994],[-70.959409,-33.64553],[-70.960029,-33.644695],[-70.96071,-33.643778],[-70.960982,-33.643412],[-70.9621,-33.640884],[-70.962189,-33.640262],[-70.962327,-33.639953],[-70.962403,-33.639156],[-70.962691,-33.638692],[-70.963504,-33.638047],[-70.963981,-33.637403],[-70.964087,-33.637201],[-70.964274,-33.636845],[-70.96467,-33.635966],[-70.964962,-33.634992],[-70.965242,-33.634404],[-70.96569,-33.633787],[-70.966279,-33.633114],[-70.966559,-33.632554],[-70.966607,-33.631894],[-70.966717,-33.63141],[-70.966673,-33.630903],[-70.966695,-33.630353],[-70.966845,-33.629923],[-70.96701,-33.62945],[-70.966559,-33.628602],[-70.966496,-33.628108],[-70.966563,-33.62758],[-70.96684,-33.627032],[-70.967148,-33.625603],[-70.967288,-33.625331],[-70.9679,-33.62414],[-70.968086,-33.6241],[-70.968713,-33.624007],[-70.969793,-33.623791],[-70.970603,-33.623414],[-70.971035,-33.623252],[-70.971466,-33.622928],[-70.971952,-33.62255],[-70.973125,-33.621943],[-70.973518,-33.62174],[-70.974489,-33.6212],[-70.975137,-33.620607],[-70.975785,-33.619851],[-70.976184,-33.619292],[-70.976595,-33.618717],[-70.976919,-33.617908],[-70.977188,-33.617692],[-70.978376,-33.61753],[-70.978641,-33.61753],[-70.97897,-33.61753],[-70.979456,-33.61753],[-70.979995,-33.617368],[-70.980373,-33.617368],[-70.980805,-33.617152],[-70.981993,-33.616936],[-70.982748,-33.616558],[-70.983234,-33.61645],[-70.984314,-33.616234],[-70.985232,-33.616234],[-70.985609,-33.61645],[-70.986149,-33.616558],[-70.987175,-33.616504],[-70.987661,-33.61645],[-70.988524,-33.616018],[-70.988556,-33.615976],[-70.988593,-33.616001],[-70.987965,-33.620246],[-70.982903,-33.621588],[-70.982275,-33.625833],[-70.977213,-33.627175],[-70.976585,-33.631419],[-70.971523,-33.63276],[-70.970894,-33.637004],[-70.975328,-33.639906],[-70.974699,-33.644149],[-70.979133,-33.647051],[-70.984195,-33.64571],[-70.988629,-33.648611],[-70.988,-33.652854],[-70.992434,-33.655756],[-70.991806,-33.659998],[-70.99624,-33.662899],[-70.995612,-33.667141],[-71.000047,-33.670042],[-71.00511,-33.6687],[-71.009545,-33.671601],[-71.014609,-33.670259],[-71.019044,-33.673159],[-71.018416,-33.677401],[-71.022852,-33.680301],[-71.022224,-33.684542],[-71.01716,-33.685884],[-71.012725,-33.682984],[-71.007661,-33.684325],[-71.003225,-33.681425],[-71.003854,-33.677184],[-70.999419,-33.674283],[-70.994356,-33.675624],[-70.989921,-33.672724],[-70.984858,-33.674064],[-70.980424,-33.671163]],[[-70.970928,-33.669602],[-70.971556,-33.665361],[-70.976619,-33.66402],[-70.981052,-33.666922],[-70.986115,-33.665581],[-70.986743,-33.661339],[-70.982309,-33.658438],[-70.982938,-33.654195],[-70.978504,-33.651294],[-70.973442,-33.652635],[-70.969009,-33.649733],[-70.963947,-33.651073],[-70.963318,-33.655315],[-70.958257,-33.656655],[-70.953824,-33.653753],[-70.948763,-33.655093],[-70.948134,-33.659334],[-70.952566,-33.662236],[-70.951938,-33.666478],[-70.95637,-33.66938],[-70.961432,-33.66804],[-70.965866,-33.670942],[-70.970928,-33.669602]]]},"properties":{"comuna":"El Monte","mancha_id":"13602-88b2c0b203fffff","clase":"Alto","nivel_medio":2.83,"nivel_medio_min":2.543,"nivel_medio_max":3.391,"pct_alto":79.9,"n_hexagonos":31,"area_ha":1406.72}},{"type":"Feature","geometry":{"type":"Polygon","coordinates":[[[-71.053548,-33.716987],[-71.056466,-33.716214],[-71.058491,-33.717536],[-71.057426,-33.718206],[-71.055996,-33.718311],[-71.0546,-33.717648],[-71.053548,-33.716987]]]},"properties":{"comuna":"El Monte","mancha_id":"13602-88b2c0b157fffff","clase":"Alto","nivel_medio":2.726,"nivel_medio_min":2.726,"nivel_medio_max":2.726,"pct_alto":78.3,"n_hexagonos":1,"area_ha":6.01}},{"type":"Feature","geometry":{"type":"Polygon","coordinates":[[[-71.087393,-33.63871],[-71.086766,-33.642955],[-71.091204,-33.645854],[-71.090577,-33.6501],[-71.095015,-33.652998],[-71.094388,-33.657243],[-71.098827,-33.660142],[-71.0982,-33.664386],[-71.093134,-33.665732],[-71.088696,-33.662833],[-71.08363,-33.664179],[-71.079192,-33.66128],[-71.074126,-33.662625],[-71.073499,-33.666868],[-71.068434,-33.668213],[-71.067806,-33.672456],[-71.062741,-33.6738],[-71.058304,-33.670901],[-71.058931,-33.666658],[-71.063996,-33.665314],[-71.064624,-33.66107],[-71.060186,-33.658171],[-71.060814,-33.653927],[-71.056377,-33.651027],[-71.051312,-33.652372],[-71.046876,-33.649472],[-71.041811,-33.650816],[-71.041184,-33.65506],[-71.03612,-33.656403],[-71.035492,-33.660646],[-71.030428,-33.66199],[-71.0298,-33.666232],[-71.024736,-33.667575],[-71.0203,-33.664675],[-71.020928,-33.660432],[-71.016493,-33.657532],[-71.017121,-33.653288],[-71.022184,-33.651946],[-71.022812,-33.647702],[-71.027876,-33.646359],[-71.028504,-33.642115],[-71.024068,-33.639214],[-71.024696,-33.634969],[-71.020261,-33.632068],[-71.015198,-33.633412],[-71.010763,-33.63051],[-71.0057,-33.631853],[-71.001266,-33.628952],[-71.001894,-33.624707],[-70.99746,-33.621805],[-70.998088,-33.61756],[-71.00147,-33.616663],[-71.002128,-33.617584],[-71.003153,-33.617908],[-71.004125,-33.618501],[-71.004611,-33.618933],[-71.005744,-33.619581],[-71.006392,-33.620013],[-71.007094,-33.620499],[-71.007353,-33.620684],[-71.006957,-33.623364],[-71.011391,-33.626266],[-71.013092,-33.625814],[-71.013895,-33.626059],[-71.015299,-33.626598],[-71.016486,-33.62703],[-71.017134,-33.627354],[-71.018106,-33.62757],[-71.018916,-33.627678],[-71.019887,-33.627786],[-71.020643,-33.627786],[-71.020887,-33.627835],[-71.021723,-33.628002],[-71.022478,-33.628056],[-71.023828,-33.628056],[-71.024692,-33.628002],[-71.026473,-33.627408],[-71.027054,-33.627201],[-71.027229,-33.627138],[-71.027984,-33.627246],[-71.028254,-33.62757],[-71.028578,-33.627948],[-71.029064,-33.628434],[-71.03009,-33.629136],[-71.030236,-33.629282],[-71.03038,-33.629426],[-71.030575,-33.629621],[-71.031277,-33.630215],[-71.031601,-33.631025],[-71.032087,-33.631943],[-71.032249,-33.632752],[-71.032519,-33.63367],[-71.032789,-33.634588],[-71.033274,-33.635343],[-71.033491,-33.636066],[-71.033598,-33.636423],[-71.033598,-33.637449],[-71.033544,-33.637988],[-71.033436,-33.63869],[-71.033274,-33.639176],[-71.033274,-33.639716],[-71.033382,-33.640256],[-71.0336,-33.640546],[-71.033706,-33.640687],[-71.033924,-33.641005],[-71.0343,-33.641551],[-71.034624,-33.642253],[-71.034894,-33.642577],[-71.035542,-33.642739],[-71.036081,-33.642901],[-71.036562,-33.642729],[-71.036837,-33.642631],[-71.037431,-33.642091],[-71.037917,-33.641605],[-71.038565,-33.640957],[-71.039104,-33.640417],[-71.039914,-33.639986],[-71.040562,-33.639824],[-71.041264,-33.6395],[-71.041749,-33.638906],[-71.042127,-33.638474],[-71.043369,-33.63788],[-71.043379,-33.637877],[-71.043694,-33.638083],[-71.043067,-33.642327],[-71.047503,-33.645228],[-71.052567,-33.643883],[-71.057004,-33.646783],[-71.062069,-33.645438],[-71.062696,-33.641193],[-71.058259,-33.638293],[-71.058304,-33.637988],[-71.058699,-33.637988],[-71.059347,-33.637988],[-71.059995,-33.637826],[-71.060535,-33.637395],[-71.060967,-33.636855],[-71.061344,-33.636423],[-71.061776,-33.635991],[-71.062262,-33.635181],[-71.062316,-33.634534],[-71.062424,-33.633508],[-71.063072,-33.63313],[-71.064043,-33.632914],[-71.06421,-33.632872],[-71.064475,-33.632806],[-71.064853,-33.632698],[-71.065231,-33.632428],[-71.065771,-33.631996],[-71.066257,-33.631727],[-71.067336,-33.631403],[-71.068038,-33.631133],[-71.068686,-33.630917],[-71.069603,-33.630377],[-71.070251,-33.630107],[-71.070683,-33.629783],[-71.071169,-33.629459],[-71.071547,-33.629028],[-71.071979,-33.628638],[-71.072087,-33.628542],[-71.072464,-33.628272],[-71.073274,-33.62811],[-71.073976,-33.628164],[-71.07457,-33.628164],[-71.075325,-33.628002],[-71.076297,-33.62784],[-71.077269,-33.627516],[-71.077917,-33.627516],[-71.07878,-33.627516],[-71.079321,-33.627471],[-71.079144,-33.628665],[-71.083582,-33.631565],[-71.082955,-33.635811],[-71.087393,-33.63871]]]},"properties":{"comuna":"El Monte","mancha_id":"13602-88b2c08683fffff","clase":"Alto","nivel_medio":2.727,"nivel_medio_min":2.502,"nivel_medio_max":2.981,"pct_alto":71.3,"n_hexagonos":35,"area_ha":1952.69}},{"type":"Feature","geometry":{"type":"Polygon","coordinates":[[[-71.102012,-33.671528],[-71.102639,-33.667284],[-71.102926,-33.667208],[-71.102941,-33.66735],[-71.10299,-33.667833],[-71.103074,-33.668577],[-71.103097,-33.668779],[-71.10321,-33.66955],[-71.103227,-33.669666],[-71.103267,-33.669934],[-71.103307,-33.67016],[-71.103374,-33.670529],[-71.103464,-33.67103],[-71.103474,-33.6711],[-71.103642,-33.672101],[-71.103726,-33.672647],[-71.102012,-33.671528]]]},"properties":{"comuna":"El Monte","mancha_id":"13602-88b2c084c3fffff","clase":"Alto","nivel_medio":2.974,"nivel_medio_min":2.974,"nivel_medio_max":2.974,"pct_alto":57.0,"n_hexagonos":1,"area_ha":4.75}},{"type":"Feature","geometry":{"type":"Polygon","coordinates":[[[-71.102063,-33.704124],[-71.10269,-33.699883],[-71.103636,-33.699631],[-71.103874,-33.700259],[-71.104119,-33.700872],[-71.104581,-33.702025],[-71.105248,-33.703567],[-71.104043,-33.704655],[-71.103451,-33.70503],[-71.102063,-33.704124]]]},"properties":{"comuna":"El Monte","mancha_id":"13602-88b2c084bbfffff","clase":"Alto","nivel_medio":2.543,"nivel_medio_min":2.543,"nivel_medio_max":2.543,"pct_alto":82.6,"n_hexagonos":1,"area_ha":10.78}},{"type":"Feature","geometry":{"type":"Polygon","coordinates":[[[-71.083678,-33.696776],[-71.079239,-33.693879],[-71.074173,-33.695222],[-71.069735,-33.692324],[-71.064669,-33.693668],[-71.064042,-33.697909],[-71.058976,-33.699252],[-71.058349,-33.703493],[-71.053283,-33.704835],[-71.052655,-33.709076],[-71.04759,-33.710418],[-71.043152,-33.707519],[-71.038087,-33.708861],[-71.037459,-33.713101],[-71.041771,-33.715917],[-71.040858,-33.715765],[-71.039882,-33.715102],[-71.039045,-33.714614],[-71.038382,-33.714474],[-71.03758,-33.714649],[-71.03608,-33.715172],[-71.034945,-33.715473],[-71.033673,-33.7158],[-71.032592,-33.716358],[-71.032085,-33.716527],[-71.030813,-33.716951],[-71.029139,-33.717893],[-71.027605,-33.718067],[-71.026175,-33.717823],[-71.025163,-33.71716],[-71.024291,-33.716253],[-71.023733,-33.715312],[-71.023175,-33.714265],[-71.022754,-33.713817],[-71.02256,-33.71361],[-71.021588,-33.713172],[-71.020517,-33.713044],[-71.020042,-33.712961],[-71.020008,-33.712438],[-71.019952,-33.711981],[-71.019821,-33.711589],[-71.019615,-33.71122],[-71.019289,-33.710833],[-71.018841,-33.710478],[-71.018389,-33.710003],[-71.018456,-33.709985],[-71.019084,-33.705745],[-71.014648,-33.702846],[-71.010546,-33.703932],[-71.010214,-33.703327],[-71.009549,-33.702418],[-71.008839,-33.700866],[-71.008396,-33.70009],[-71.007997,-33.699469],[-71.007287,-33.698782],[-71.006644,-33.698582],[-71.006156,-33.698272],[-71.005688,-33.697641],[-71.005646,-33.697584],[-71.005025,-33.69683],[-71.004598,-33.69645],[-71.003806,-33.696076],[-71.00252,-33.695966],[-71.001692,-33.695838],[-71.000988,-33.695636],[-71.00037,-33.695422],[-71.0,-33.695334],[-70.999576,-33.695233],[-70.998555,-33.695006],[-70.998382,-33.69493],[-70.997837,-33.694691],[-70.997169,-33.694439],[-70.996526,-33.694288],[-70.996009,-33.694174],[-70.995392,-33.693872],[-70.995013,-33.693431],[-70.994698,-33.692952],[-70.994219,-33.692183],[-70.993602,-33.691603],[-70.992656,-33.690948],[-70.99214,-33.690577],[-70.9919,-33.690406],[-70.99132,-33.689964],[-70.990614,-33.689599],[-70.989687,-33.689223],[-70.988766,-33.688904],[-70.987946,-33.688503],[-70.987075,-33.688184],[-70.985812,-33.688049],[-70.984867,-33.687973],[-70.983707,-33.687796],[-70.982901,-33.687658],[-70.982846,-33.687638],[-70.982973,-33.686787],[-70.988036,-33.685447],[-70.99247,-33.688347],[-70.997534,-33.687007],[-71.001969,-33.689907],[-71.007033,-33.688566],[-71.011468,-33.691466],[-71.016532,-33.690125],[-71.020968,-33.693024],[-71.026033,-33.691683],[-71.030469,-33.694582],[-71.035534,-33.693241],[-71.039971,-33.696139],[-71.045036,-33.694797],[-71.045663,-33.690556],[-71.041226,-33.687657],[-71.036162,-33.688999],[-71.031725,-33.6861],[-71.032353,-33.681859],[-71.027916,-33.678959],[-71.028544,-33.674717],[-71.033609,-33.673375],[-71.038045,-33.676274],[-71.04311,-33.674931],[-71.047546,-33.677831],[-71.046919,-33.682073],[-71.051356,-33.684972],[-71.050728,-33.689213],[-71.055166,-33.692112],[-71.060231,-33.690769],[-71.060859,-33.686527],[-71.065924,-33.685184],[-71.070362,-33.688082],[-71.075428,-33.686738],[-71.076055,-33.682496],[-71.081121,-33.681152],[-71.081748,-33.676909],[-71.086814,-33.675564],[-71.091253,-33.678462],[-71.090626,-33.682705],[-71.08556,-33.68405],[-71.084933,-33.688292],[-71.089372,-33.69119],[-71.088744,-33.695432],[-71.083678,-33.696776]],[[-71.024149,-33.704404],[-71.028585,-33.707303],[-71.03365,-33.705962],[-71.034278,-33.701722],[-71.029841,-33.698823],[-71.024777,-33.700164],[-71.024149,-33.704404]]]},"properties":{"comuna":"El Monte","mancha_id":"13602-88b2c0849bfffff","clase":"Alto","nivel_medio":2.919,"nivel_medio_min":2.518,"nivel_medio_max":3.491,"pct_alto":81.9,"n_hexagonos":29,"area_ha":1590.54}},{"type":"Feature","geometry":{"type":"Polygon","coordinates":[[[-70.943073,-33.660673],[-70.942444,-33.664915],[-70.946876,-33.667817],[-70.946768,-33.668546],[-70.946763,-33.6685],[-70.946567,-33.668347],[-70.946355,-33.668262],[-70.945956,-33.66807],[-70.945021,-33.667636],[-70.944737,-33.667435],[-70.944419,-33.667151],[-70.944102,-33.666767],[-70.943785,-33.666249],[-70.943655,-33.66608],[-70.943504,-33.665993],[-70.943213,-33.665906],[-70.94295,-33.665865],[-70.942608,-33.665813],[-70.942198,-33.665698],[-70.941964,-33.665598],[-70.941597,-33.665398],[-70.941334,-33.665208],[-70.941296,-33.665181],[-70.941096,-33.66498],[-70.940812,-33.664713],[-70.940461,-33.664379],[-70.940328,-33.664212],[-70.940144,-33.663978],[-70.939944,-33.663761],[-70.93971,-33.663494],[-70.939309,-33.663043],[-70.939127,-33.66283],[-70.938973,-33.662727],[-70.938808,-33.662675],[-70.938518,-33.662605],[-70.938325,-33.662503],[-70.938157,-33.662325],[-70.938006,-33.661991],[-70.937889,-33.66169],[-70.937819,-33.661451],[-70.93778,-33.661322],[-70.937713,-33.661198],[-70.937613,-33.661053],[-70.93753,-33.660918],[-70.937434,-33.660701],[-70.93731,-33.660418],[-70.937138,-33.659929],[-70.937068,-33.659724],[-70.937002,-33.65951],[-70.936982,-33.659371],[-70.936971,-33.659235],[-70.936954,-33.659018],[-70.936937,-33.658818],[-70.936904,-33.658701],[-70.936804,-33.6586],[-70.93667,-33.658484],[-70.936571,-33.658406],[-70.936507,-33.658335],[-70.936489,-33.658315],[-70.936415,-33.6582],[-70.936395,-33.658094],[-70.936806,-33.658031],[-70.937851,-33.65798],[-70.938105,-33.657967],[-70.938765,-33.657852],[-70.943073,-33.660673]]]},"properties":{"comuna":"El Monte","mancha_id":"13602-88b2c54d21fffff","clase":"Muy Alto","nivel_medio":3.615,"nivel_medio_min":3.597,"nivel_medio_max":4.0,"pct_alto":93.3,"n_hexagonos":3,"area_ha":31.89}},{"type":"Feature","geometry":{"type":"Polygon","coordinates":[[[-70.978538,-33.683886],[-70.982973,-33.686787],[-70.982846,-33.687638],[-70.981955,-33.687305],[-70.981237,-33.687002],[-70.980569,-33.686599],[-70.980065,-33.686082],[-70.979271,-33.685276],[-70.978489,-33.684685],[-70.97772,-33.684355],[-70.977303,-33.684213],[-70.978538,-33.683886]]]},"properties":{"comuna":"El Monte","mancha_id":"13602-88b2c0b233fffff","clase":"Muy Alto","nivel_medio":3.642,"nivel_medio_min":3.642,"nivel_medio_max":3.642,"pct_alto":97.9,"n_hexagonos":1,"area_ha":5.6}},{"type":"Feature","geometry":{"type":"Polygon","coordinates":[[[-71.019084,-33.705745],[-71.018456,-33.709985],[-71.018389,-33.710003],[-71.018218,-33.709823],[-71.017442,-33.709247],[-71.016577,-33.708715],[-71.01558,-33.708183],[-71.014161,-33.707473],[-71.013074,-33.706852],[-71.012583,-33.706607],[-71.012094,-33.706179],[-71.011877,-33.705744],[-71.011544,-33.705167],[-71.011189,-33.704857],[-71.010879,-33.704458],[-71.010591,-33.704014],[-71.010546,-33.703932],[-71.014648,-33.702846],[-71.019084,-33.705745]]]},"properties":{"comuna":"El Monte","mancha_id":"13602-88b2c0b00dfffff","clase":"Muy Alto","nivel_medio":3.505,"nivel_medio_min":3.505,"nivel_medio_max":3.505,"pct_alto":89.0,"n_hexagonos":1,"area_ha":31.87}}],"bbox":[-71.11513,-33.71832,-70.93639,-33.6131]}