{"type":"FeatureCollection","features":[{"type":"Feature","geometry":{"type":"Polygon","coordinates":[[[-70.913966,-33.660221],[-70.914596,-33.65598],[-70.919656,-33.654642],[-70.924087,-33.657545],[-70.929148,-33.656207],[-70.93358,-33.65911],[-70.93295,-33.663351],[-70.937382,-33.666253],[-70.936753,-33.670494],[-70.931692,-33.671832],[-70.92726,-33.66893],[-70.9222,-33.670267],[-70.917768,-33.667365],[-70.918397,-33.663124],[-70.913966,-33.660221]]]},"properties":{"comuna":"Talagante","mancha_id":"13601-88b2c54d07fffff","clase":"Muy Bajo","nivel_medio":0.28,"nivel_medio_min":0.18,"nivel_medio_max":0.356,"pct_alto":7.1,"n_hexagonos":4,"area_ha":254.54}},{"type":"Feature","geometry":{"type":"Polygon","coordinates":[[[-70.940557,-33.677636],[-70.941186,-33.673396],[-70.946247,-33.672057],[-70.95068,-33.674959],[-70.950051,-33.6792],[-70.944989,-33.680538],[-70.940557,-33.677636]]]},"properties":{"comuna":"Talagante","mancha_id":"13601-88b2c0b2cdfffff","clase":"Muy Bajo","nivel_medio":0.215,"nivel_medio_min":0.215,"nivel_medio_max":0.215,"pct_alto":6.8,"n_hexagonos":1,"area_ha":63.63}},{"type":"Feature","geometry":{"type":"Polygon","coordinates":[[[-70.885518,-33.688101],[-70.886148,-33.683863],[-70.881718,-33.68096],[-70.882348,-33.676721],[-70.887407,-33.675385],[-70.891837,-33.678288],[-70.891208,-33.682527],[-70.895638,-33.68543],[-70.895009,-33.689669],[-70.889948,-33.691004],[-70.885518,-33.688101]]]},"properties":{"comuna":"Talagante","mancha_id":"13601-88b2c54de3fffff","clase":"Bajo","nivel_medio":1.187,"nivel_medio_min":1.158,"nivel_medio_max":1.216,"pct_alto":0.2,"n_hexagonos":2,"area_ha":127.16}},{"type":"Feature","geometry":{"type":"Polygon","coordinates":[[[-70.936753,-33.670494],[-70.937382,-33.666253],[-70.941334,-33.665208],[-70.941597,-33.665398],[-70.941964,-33.665598],[-70.942198,-33.665698],[-70.942608,-33.665813],[-70.94295,-33.665865],[-70.943213,-33.665906],[-70.943504,-33.665993],[-70.943655,-33.66608],[-70.943785,-33.666249],[-70.944102,-33.666767],[-70.944419,-33.667151],[-70.944737,-33.667435],[-70.945021,-33.667636],[-70.945956,-33.66807],[-70.946355,-33.668262],[-70.946567,-33.668347],[-70.946763,-33.6685],[-70.946768,-33.668546],[-70.946247,-33.672057],[-70.941186,-33.673396],[-70.936753,-33.670494]]]},"properties":{"comuna":"Talagante","mancha_id":"13601-88b2c54d27fffff","clase":"Bajo","nivel_medio":1.327,"nivel_medio_min":1.327,"nivel_medio_max":1.327,"pct_alto":35.2,"n_hexagonos":1,"area_ha":59.61}},{"type":"Feature","geometry":{"type":"Polygon","coordinates":[[[-70.919656,-33.654642],[-70.920285,-33.650401],[-70.925346,-33.649063],[-70.929777,-33.651966],[-70.929148,-33.656207],[-70.924087,-33.657545],[-70.919656,-33.654642]]]},"properties":{"comuna":"Talagante","mancha_id":"13601-88b2c54d05fffff","clase":"Bajo","nivel_medio":0.783,"nivel_medio_min":0.783,"nivel_medio_max":0.783,"pct_alto":19.8,"n_hexagonos":1,"area_ha":63.65}},{"type":"Feature","geometry":{"type":"Polygon","coordinates":[[[-70.904476,-33.658656],[-70.905105,-33.654415],[-70.910165,-33.653077],[-70.914596,-33.65598],[-70.913966,-33.660221],[-70.908906,-33.661559],[-70.904476,-33.658656]]]},"properties":{"comuna":"Talagante","mancha_id":"13601-88b2c54d03fffff","clase":"Bajo","nivel_medio":1.492,"nivel_medio_min":1.492,"nivel_medio_max":1.492,"pct_alto":27.1,"n_hexagonos":1,"area_ha":63.63}},{"type":"Feature","geometry":{"type":"Polygon","coordinates":[[[-70.793336,-33.692756],[-70.796983,-33.695149],[-70.802041,-33.693818],[-70.806467,-33.696723],[-70.805837,-33.700959],[-70.800779,-33.70229],[-70.796352,-33.699385],[-70.793722,-33.700077],[-70.793617,-33.700013],[-70.793204,-33.699876],[-70.792874,-33.699765],[-70.792585,-33.699531],[-70.79242,-33.69938],[-70.79231,-33.699132],[-70.79214,-33.69864],[-70.792089,-33.698155],[-70.791979,-33.697714],[-70.791773,-33.696294],[-70.792038,-33.695699],[-70.792512,-33.694825],[-70.79275,-33.69428],[-70.792939,-33.693827],[-70.792999,-33.693427],[-70.793237,-33.692978],[-70.793336,-33.692756]]]},"properties":{"comuna":"Talagante","mancha_id":"13601-88b2c54c97fffff","clase":"Bajo","nivel_medio":1.141,"nivel_medio_min":1.053,"nivel_medio_max":1.345,"pct_alto":29.3,"n_hexagonos":2,"area_ha":90.85}},{"type":"Feature","geometry":{"type":"Polygon","coordinates":[[[-70.876007,-33.653954],[-70.870949,-33.65529],[-70.870319,-33.65953],[-70.86526,-33.660866],[-70.86463,-33.665106],[-70.859571,-33.666441],[-70.855143,-33.663536],[-70.850084,-33.664871],[-70.845656,-33.661966],[-70.846146,-33.658667],[-70.847215,-33.658259],[-70.84821,-33.657879],[-70.851627,-33.656577],[-70.855773,-33.659297],[-70.860831,-33.657962],[-70.861461,-33.653722],[-70.86652,-33.652386],[-70.866755,-33.650802],[-70.867241,-33.650651],[-70.86709,-33.650227],[-70.866887,-33.649916],[-70.86715,-33.648146],[-70.872208,-33.646809],[-70.876637,-33.649714],[-70.876007,-33.653954]]]},"properties":{"comuna":"Talagante","mancha_id":"13601-88b2c54c21fffff","clase":"Bajo","nivel_medio":1.456,"nivel_medio_min":1.413,"nivel_medio_max":1.498,"pct_alto":8.9,"n_hexagonos":4,"area_ha":250.99}},{"type":"Feature","geometry":{"type":"Polygon","coordinates":[[[-70.917794,-33.699942],[-70.918424,-33.695704],[-70.923485,-33.694367],[-70.927917,-33.697269],[-70.927288,-33.701507],[-70.922226,-33.702844],[-70.917794,-33.699942]]]},"properties":{"comuna":"Talagante","mancha_id":"13601-88b2c0b2d7fffff","clase":"Bajo","nivel_medio":1.366,"nivel_medio_min":1.366,"nivel_medio_max":1.366,"pct_alto":10.0,"n_hexagonos":1,"area_ha":63.58}},{"type":"Feature","geometry":{"type":"Polygon","coordinates":[[[-70.936782,-33.703072],[-70.937411,-33.698833],[-70.942473,-33.697496],[-70.943102,-33.693257],[-70.948164,-33.691919],[-70.952597,-33.69482],[-70.951968,-33.699059],[-70.956402,-33.70196],[-70.955773,-33.706199],[-70.95071,-33.707536],[-70.950081,-33.711775],[-70.945019,-33.713112],[-70.940586,-33.710211],[-70.935524,-33.711548],[-70.931091,-33.708647],[-70.93172,-33.704409],[-70.936782,-33.703072]]]},"properties":{"comuna":"Talagante","mancha_id":"13601-88b2c0b281fffff","clase":"Bajo","nivel_medio":1.296,"nivel_medio_min":0.948,"nivel_medio_max":1.454,"pct_alto":13.6,"n_hexagonos":5,"area_ha":317.95}},{"type":"Feature","geometry":{"type":"Polygon","coordinates":[[[-70.976653,-33.696606],[-70.977281,-33.692366],[-70.982344,-33.691027],[-70.986779,-33.693927],[-70.98615,-33.698167],[-70.981087,-33.699506],[-70.976653,-33.696606]]]},"properties":{"comuna":"Talagante","mancha_id":"13601-88b2c0b059fffff","clase":"Bajo","nivel_medio":1.456,"nivel_medio_min":1.456,"nivel_medio_max":1.456,"pct_alto":5.4,"n_hexagonos":1,"area_ha":63.63}},{"type":"Feature","geometry":{"type":"Polygon","coordinates":[[[-70.998034,-33.719886],[-70.997571,-33.719583],[-70.992507,-33.720922],[-70.988071,-33.718023],[-70.983007,-33.719362],[-70.982959,-33.71969],[-70.980168,-33.719171],[-70.979641,-33.71889],[-70.979436,-33.718333],[-70.97912,-33.717738],[-70.978791,-33.717407],[-70.978473,-33.717156],[-70.978079,-33.716846],[-70.977886,-33.716643],[-70.977426,-33.71616],[-70.976909,-33.715675],[-70.976349,-33.715376],[-70.97537,-33.715156],[-70.974233,-33.715267],[-70.973155,-33.715508],[-70.972095,-33.715713],[-70.971447,-33.715941],[-70.971056,-33.716196],[-70.969075,-33.7149],[-70.969704,-33.710662],[-70.974767,-33.709323],[-70.979201,-33.712223],[-70.984265,-33.710885],[-70.9887,-33.713784],[-70.993763,-33.712445],[-70.994392,-33.708206],[-70.999456,-33.706867],[-71.003891,-33.709766],[-71.003263,-33.714005],[-71.006068,-33.715838],[-71.005492,-33.716009],[-71.004271,-33.716811],[-71.00319,-33.71723],[-71.002109,-33.717439],[-71.001132,-33.717544],[-71.0,-33.717932],[-70.999911,-33.717962],[-70.999039,-33.719078],[-70.998098,-33.719846],[-70.998034,-33.719886]]]},"properties":{"comuna":"Talagante","mancha_id":"13601-88b2c0b003fffff","clase":"Bajo","nivel_medio":1.289,"nivel_medio_min":1.114,"nivel_medio_max":1.403,"pct_alto":14.4,"n_hexagonos":6,"area_ha":272.18}},{"type":"Feature","geometry":{"type":"Polygon","coordinates":[[[-70.800779,-33.70229],[-70.800148,-33.706525],[-70.798542,-33.706948],[-70.798387,-33.706424],[-70.797825,-33.705371],[-70.797627,-33.705019],[-70.797544,-33.704686],[-70.797474,-33.704317],[-70.79717,-33.703947],[-70.796615,-33.70372],[-70.795935,-33.703442],[-70.79516,-33.70338],[-70.794912,-33.703194],[-70.794734,-33.702701],[-70.794594,-33.701788],[-70.794705,-33.701527],[-70.79476,-33.701252],[-70.794539,-33.701032],[-70.794305,-33.700743],[-70.794195,-33.700412],[-70.793934,-33.700206],[-70.793722,-33.700077],[-70.796352,-33.699385],[-70.800779,-33.70229]]]},"properties":{"comuna":"Talagante","mancha_id":"13601-88b2c5796dfffff","clase":"Medio","nivel_medio":2.498,"nivel_medio_min":2.498,"nivel_medio_max":2.498,"pct_alto":82.1,"n_hexagonos":1,"area_ha":27.96}},{"type":"Feature","geometry":{"type":"Polygon","coordinates":[[[-70.874769,-33.695009],[-70.870339,-33.692106],[-70.865279,-33.69344],[-70.864649,-33.697678],[-70.869079,-33.700581],[-70.868449,-33.704818],[-70.863389,-33.706151],[-70.85896,-33.703248],[-70.8539,-33.704582],[-70.849471,-33.701678],[-70.850101,-33.697441],[-70.845673,-33.694538],[-70.846303,-33.6903],[-70.851362,-33.688967],[-70.855791,-33.691871],[-70.86085,-33.690537],[-70.86148,-33.686299],[-70.866539,-33.684965],[-70.867169,-33.680726],[-70.872228,-33.679391],[-70.876658,-33.682295],[-70.881718,-33.68096],[-70.886148,-33.683863],[-70.885518,-33.688101],[-70.889948,-33.691004],[-70.889319,-33.695242],[-70.884259,-33.696577],[-70.879828,-33.693674],[-70.874769,-33.695009]]]},"properties":{"comuna":"Talagante","mancha_id":"13601-88b2c54d81fffff","clase":"Medio","nivel_medio":2.04,"nivel_medio_min":1.667,"nivel_medio_max":2.357,"pct_alto":32.5,"n_hexagonos":9,"area_ha":571.98}},{"type":"Feature","geometry":{"type":"Polygon","coordinates":[[[-70.925975,-33.644821],[-70.931035,-33.643482],[-70.935047,-33.64611],[-70.934902,-33.647148],[-70.9348,-33.647663],[-70.93461,-33.648119],[-70.935257,-33.647801],[-70.934838,-33.650627],[-70.929777,-33.651966],[-70.925346,-33.649063],[-70.925975,-33.644821]]]},"properties":{"comuna":"Talagante","mancha_id":"13601-88b2c54d63fffff","clase":"Medio","nivel_medio":2.384,"nivel_medio_min":2.384,"nivel_medio_max":2.384,"pct_alto":65.6,"n_hexagonos":1,"area_ha":62.84}},{"type":"Feature","geometry":{"type":"Polygon","coordinates":[[[-70.921821,-33.640044],[-70.921734,-33.63966],[-70.921879,-33.639658],[-70.921821,-33.640044]]]},"properties":{"comuna":"Talagante","mancha_id":"13601-88b2c54d47fffff","clase":"Medio","nivel_medio":2.432,"nivel_medio_min":2.432,"nivel_medio_max":2.432,"pct_alto":64.7,"n_hexagonos":1,"area_ha":0.03}},{"type":"Feature","geometry":{"type":"Polygon","coordinates":[[[-70.826699,-33.691395],[-70.82733,-33.687158],[-70.832388,-33.685825],[-70.836816,-33.68873],[-70.836186,-33.692967],[-70.831127,-33.694299],[-70.830497,-33.698536],[-70.825438,-33.699868],[-70.821011,-33.696964],[-70.821641,-33.692727],[-70.826699,-33.691395]]]},"properties":{"comuna":"Talagante","mancha_id":"13601-88b2c54ca1fffff","clase":"Medio","nivel_medio":2.365,"nivel_medio_min":2.29,"nivel_medio_max":2.44,"pct_alto":59.9,"n_hexagonos":2,"area_ha":127.05}},{"type":"Feature","geometry":{"type":"Polygon","coordinates":[[[-70.802041,-33.693818],[-70.796983,-33.695149],[-70.793336,-33.692756],[-70.793399,-33.692615],[-70.793472,-33.692336],[-70.793484,-33.691949],[-70.79359,-33.691742],[-70.793714,-33.691391],[-70.79386,-33.69095],[-70.793821,-33.690162],[-70.79399,-33.6896],[-70.794144,-33.689296],[-70.794313,-33.688862],[-70.79468,-33.68815],[-70.795224,-33.687855],[-70.795795,-33.687529],[-70.79593,-33.687286],[-70.798245,-33.686676],[-70.802671,-33.689582],[-70.802041,-33.693818]]]},"properties":{"comuna":"Talagante","mancha_id":"13601-88b2c54c95fffff","clase":"Medio","nivel_medio":2.085,"nivel_medio_min":2.085,"nivel_medio_max":2.085,"pct_alto":62.0,"n_hexagonos":1,"area_ha":57.67}},{"type":"Feature","geometry":{"type":"Polygon","coordinates":[[[-70.860187,-33.64591],[-70.862721,-33.645241],[-70.86715,-33.648146],[-70.866887,-33.649916],[-70.866774,-33.649743],[-70.866398,-33.649357],[-70.865957,-33.649037],[-70.865495,-33.648773],[-70.864668,-33.648359],[-70.863964,-33.647975],[-70.863795,-33.647893],[-70.863404,-33.647715],[-70.862626,-33.647366],[-70.861898,-33.647075],[-70.860865,-33.646636],[-70.860187,-33.64591]]]},"properties":{"comuna":"Talagante","mancha_id":"13601-88b2c54c2bfffff","clase":"Medio","nivel_medio":2.382,"nivel_medio_min":2.382,"nivel_medio_max":2.382,"pct_alto":46.1,"n_hexagonos":1,"area_ha":11.48}},{"type":"Feature","geometry":{"type":"Polygon","coordinates":[[[-70.866755,-33.650802],[-70.86652,-33.652386],[-70.861461,-33.653722],[-70.860831,-33.657962],[-70.855773,-33.659297],[-70.851627,-33.656577],[-70.852571,-33.656218],[-70.853205,-33.655978],[-70.853321,-33.655936],[-70.857084,-33.654527],[-70.857761,-33.654273],[-70.858633,-33.653948],[-70.860639,-33.6532],[-70.860656,-33.653194],[-70.861866,-33.652741],[-70.863889,-33.651943],[-70.865655,-33.651254],[-70.866077,-33.651043],[-70.866618,-33.650844],[-70.866755,-33.650802]]]},"properties":{"comuna":"Talagante","mancha_id":"13601-88b2c54c2bfffff-2","clase":"Medio","nivel_medio":1.67,"nivel_medio_min":1.535,"nivel_medio_max":2.382,"pct_alto":8.3,"n_hexagonos":2,"area_ha":40.88}},{"type":"Feature","geometry":{"type":"Polygon","coordinates":[[[-70.870319,-33.65953],[-70.870949,-33.65529],[-70.876007,-33.653954],[-70.880437,-33.656858],[-70.879807,-33.661099],[-70.884237,-33.664002],[-70.883607,-33.668242],[-70.888037,-33.671146],[-70.887407,-33.675385],[-70.882348,-33.676721],[-70.877918,-33.673817],[-70.878548,-33.669578],[-70.874118,-33.666674],[-70.869059,-33.66801],[-70.868429,-33.672249],[-70.86337,-33.673584],[-70.858941,-33.67068],[-70.853882,-33.672014],[-70.849454,-33.66911],[-70.850084,-33.664871],[-70.855143,-33.663536],[-70.859571,-33.666441],[-70.86463,-33.665106],[-70.86526,-33.660866],[-70.870319,-33.65953]]]},"properties":{"comuna":"Talagante","mancha_id":"13601-88b2c54c27fffff","clase":"Medio","nivel_medio":2.031,"nivel_medio_min":1.557,"nivel_medio_max":2.462,"pct_alto":31.4,"n_hexagonos":6,"area_ha":381.56}},{"type":"Feature","geometry":{"type":"Polygon","coordinates":[[[-70.82868,-33.654225],[-70.827315,-33.654585],[-70.826685,-33.658824],[-70.831112,-33.66173],[-70.834687,-33.660787],[-70.836277,-33.662405],[-70.836837,-33.662192],[-70.838154,-33.661697],[-70.840598,-33.663301],[-70.839968,-33.66754],[-70.844396,-33.670444],[-70.843765,-33.674683],[-70.838707,-33.676016],[-70.834279,-33.673112],[-70.829221,-33.674445],[-70.824794,-33.67154],[-70.819736,-33.672873],[-70.815309,-33.669968],[-70.81594,-33.66573],[-70.811513,-33.662824],[-70.812143,-33.658586],[-70.817201,-33.657253],[-70.817831,-33.653013],[-70.822888,-33.65168],[-70.823392,-33.648291],[-70.823783,-33.648746],[-70.824469,-33.649522],[-70.82486,-33.649948],[-70.825308,-33.650443],[-70.825693,-33.650873],[-70.826112,-33.65133],[-70.826879,-33.652178],[-70.827394,-33.652766],[-70.82868,-33.654225]]]},"properties":{"comuna":"Talagante","mancha_id":"13601-88b2c54c11fffff","clase":"Medio","nivel_medio":2.073,"nivel_medio_min":1.588,"nivel_medio_max":2.483,"pct_alto":38.5,"n_hexagonos":8,"area_ha":455.05}},{"type":"Feature","geometry":{"type":"Polygon","coordinates":[[[-70.858923,-33.638095],[-70.853865,-33.639431],[-70.851332,-33.637769],[-70.851328,-33.637764],[-70.851078,-33.637354],[-70.850716,-33.636945],[-70.850146,-33.636409],[-70.849492,-33.636156],[-70.849526,-33.635925],[-70.849534,-33.635924],[-70.851769,-33.635506],[-70.855371,-33.634835],[-70.855542,-33.634806],[-70.855735,-33.634771],[-70.856311,-33.634679],[-70.856676,-33.634622],[-70.858903,-33.634187],[-70.859496,-33.634069],[-70.859521,-33.634064],[-70.858923,-33.638095]]]},"properties":{"comuna":"Talagante","mancha_id":"13601-88b2c54c0dfffff","clase":"Medio","nivel_medio":2.323,"nivel_medio_min":2.323,"nivel_medio_max":2.323,"pct_alto":50.7,"n_hexagonos":1,"area_ha":32.92}},{"type":"Feature","geometry":{"type":"Polygon","coordinates":[[[-70.848211,-33.710151],[-70.85327,-33.708818],[-70.856808,-33.711137],[-70.85581,-33.7115],[-70.855297,-33.711663],[-70.85433,-33.71197],[-70.85298,-33.71237],[-70.85207,-33.71272],[-70.8516,-33.71288],[-70.85056,-33.71333],[-70.84934,-33.7139],[-70.8486,-33.71442],[-70.847776,-33.713073],[-70.848211,-33.710151]]]},"properties":{"comuna":"Talagante","mancha_id":"13601-88b2c0b669fffff","clase":"Medio","nivel_medio":1.501,"nivel_medio_min":1.501,"nivel_medio_max":1.501,"pct_alto":40.6,"n_hexagonos":1,"area_ha":26.98}},{"type":"Feature","geometry":{"type":"Polygon","coordinates":[[[-70.807693,-33.720816],[-70.807741,-33.720804],[-70.808469,-33.721282],[-70.807693,-33.720816]]]},"properties":{"comuna":"Talagante","mancha_id":"13601-88b2c0b653fffff","clase":"Medio","nivel_medio":2.379,"nivel_medio_min":2.379,"nivel_medio_max":2.379,"pct_alto":37.9,"n_hexagonos":1,"area_ha":0.02}},{"type":"Feature","geometry":{"type":"Polygon","coordinates":[[[-70.827312,-33.719932],[-70.827344,-33.719715],[-70.830194,-33.718965],[-70.830174,-33.719012],[-70.827792,-33.719722],[-70.827312,-33.719932]]]},"properties":{"comuna":"Talagante","mancha_id":"13601-88b2c0b609fffff","clase":"Medio","nivel_medio":2.419,"nivel_medio_min":2.419,"nivel_medio_max":2.419,"pct_alto":41.9,"n_hexagonos":1,"area_ha":0.28}},{"type":"Feature","geometry":{"type":"Polygon","coordinates":[[[-70.921597,-33.707082],[-70.926029,-33.709983],[-70.931091,-33.708647],[-70.935524,-33.711548],[-70.940586,-33.710211],[-70.945019,-33.713112],[-70.950081,-33.711775],[-70.95071,-33.707536],[-70.955773,-33.706199],[-70.960207,-33.709099],[-70.965269,-33.707761],[-70.965898,-33.703523],[-70.961464,-33.700622],[-70.962093,-33.696383],[-70.967156,-33.695044],[-70.97159,-33.697945],[-70.970961,-33.702184],[-70.975395,-33.705085],[-70.974767,-33.709323],[-70.969704,-33.710662],[-70.969075,-33.7149],[-70.971056,-33.716196],[-70.970999,-33.716233],[-70.970462,-33.716691],[-70.969841,-33.717269],[-70.969198,-33.717783],[-70.968062,-33.718319],[-70.967248,-33.718598],[-70.966198,-33.718662],[-70.965062,-33.718533],[-70.964055,-33.718341],[-70.963731,-33.718128],[-70.963369,-33.717891],[-70.962727,-33.717355],[-70.961912,-33.716691],[-70.961141,-33.716176],[-70.960927,-33.716036],[-70.960742,-33.715914],[-70.960256,-33.715829],[-70.959898,-33.715876],[-70.959255,-33.716069],[-70.958477,-33.716504],[-70.958049,-33.716752],[-70.957649,-33.716923],[-70.957027,-33.716969],[-70.95647,-33.716967],[-70.955849,-33.716871],[-70.955443,-33.71667],[-70.955012,-33.716403],[-70.954362,-33.71616],[-70.954297,-33.716147],[-70.95374,-33.716034],[-70.952401,-33.7159],[-70.951721,-33.715932],[-70.951195,-33.7159],[-70.950595,-33.715636],[-70.94999,-33.715549],[-70.94845,-33.715766],[-70.947609,-33.715763],[-70.946562,-33.715616],[-70.946026,-33.715434],[-70.945604,-33.71513],[-70.945071,-33.714675],[-70.944835,-33.714349],[-70.944685,-33.714142],[-70.944004,-33.713757],[-70.943669,-33.713692],[-70.943139,-33.71371],[-70.942524,-33.713812],[-70.94194,-33.714052],[-70.941623,-33.714124],[-70.94124,-33.714143],[-70.940393,-33.714104],[-70.940058,-33.714094],[-70.939833,-33.714131],[-70.939534,-33.714224],[-70.939279,-33.714228],[-70.93895,-33.714216],[-70.938554,-33.714222],[-70.93842,-33.714271],[-70.938222,-33.714398],[-70.937888,-33.714659],[-70.93761,-33.714825],[-70.937147,-33.715015],[-70.936806,-33.715131],[-70.936557,-33.71516],[-70.936152,-33.715138],[-70.935404,-33.715138],[-70.934998,-33.715086],[-70.934896,-33.715073],[-70.934498,-33.714876],[-70.934221,-33.714637],[-70.933974,-33.714492],[-70.93364,-33.71439],[-70.933386,-33.714391],[-70.933221,-33.714409],[-70.933015,-33.714441],[-70.93282,-33.714557],[-70.932529,-33.714739],[-70.932297,-33.714855],[-70.932083,-33.715008],[-70.932011,-33.715123],[-70.931992,-33.715248],[-70.93205,-33.715472],[-70.932035,-33.715719],[-70.931992,-33.715879],[-70.931876,-33.716017],[-70.931701,-33.716126],[-70.93144,-33.716184],[-70.931026,-33.716198],[-70.93057,-33.716184],[-70.930321,-33.716215],[-70.930191,-33.716264],[-70.930024,-33.716409],[-70.9299,-33.716589],[-70.929794,-33.716739],[-70.929685,-33.716854],[-70.929552,-33.716938],[-70.929414,-33.717026],[-70.9289,-33.71726],[-70.92863,-33.71736],[-70.928457,-33.717403],[-70.9282,-33.71743],[-70.927864,-33.717415],[-70.927699,-33.717396],[-70.927549,-33.717353],[-70.927147,-33.717188],[-70.926941,-33.717085],[-70.92671,-33.71701],[-70.926405,-33.716988],[-70.926003,-33.716982],[-70.925841,-33.717007],[-70.925719,-33.717047],[-70.9256,-33.71707],[-70.92458,-33.71708],[-70.924323,-33.717022],[-70.92402,-33.71689],[-70.92357,-33.71675],[-70.92321,-33.71651],[-70.923073,-33.716491],[-70.922745,-33.716498],[-70.92253,-33.71655],[-70.922411,-33.716602],[-70.92228,-33.716662],[-70.922216,-33.71668],[-70.922065,-33.71668],[-70.921928,-33.716683],[-70.921651,-33.716682],[-70.921423,-33.716689],[-70.921372,-33.716688],[-70.921307,-33.71668],[-70.921205,-33.716659],[-70.921092,-33.71662],[-70.920969,-33.716495],[-70.920874,-33.716411],[-70.920798,-33.716354],[-70.920715,-33.716313],[-70.920649,-33.716292],[-70.920437,-33.716231],[-70.920338,-33.716204],[-70.920243,-33.716197],[-70.920238,-33.716197],[-70.920081,-33.716201],[-70.919958,-33.716186],[-70.91985,-33.716159],[-70.919497,-33.716068],[-70.919402,-33.71604],[-70.919314,-33.716028],[-70.919163,-33.716031],[-70.918833,-33.716023],[-70.918468,-33.716019],[-70.91802,-33.71601],[-70.917632,-33.716009],[-70.917398,-33.716015],[-70.917297,-33.71604],[-70.917072,-33.716095],[-70.916878,-33.716146],[-70.916651,-33.716228],[-70.916418,-33.716301],[-70.916159,-33.716297],[-70.91591,-33.716246],[-70.91566,-33.716116],[-70.915567,-33.715506],[-70.915332,-33.714149],[-70.915157,-33.713622],[-70.915025,-33.71346],[-70.91467,-33.71319],[-70.914481,-33.713031],[-70.913961,-33.712596],[-70.913138,-33.711786],[-70.912399,-33.710909],[-70.911334,-33.709602],[-70.910534,-33.708618],[-70.909275,-33.707403],[-70.908678,-33.706703],[-70.908457,-33.706478],[-70.90794,-33.70595],[-70.906998,-33.704957],[-70.906296,-33.704218],[-70.905269,-33.703318],[-70.904244,-33.702031],[-70.903086,-33.700754],[-70.903241,-33.699712],[-70.908302,-33.698376],[-70.908931,-33.694138],[-70.913992,-33.692801],[-70.918424,-33.695704],[-70.917794,-33.699942],[-70.922226,-33.702844],[-70.921597,-33.707082]]]},"properties":{"comuna":"Talagante","mancha_id":"13601-88b2c0b291fffff","clase":"Medio","nivel_medio":2.159,"nivel_medio_min":1.657,"nivel_medio_max":2.458,"pct_alto":43.2,"n_hexagonos":16,"area_ha":713.16}},{"type":"Feature","geometry":{"type":"Polygon","coordinates":[[[-70.960029,-33.644695],[-70.960143,-33.643928],[-70.959225,-33.643327],[-70.959819,-33.643016],[-70.96034,-33.64279],[-70.961302,-33.641889],[-70.9621,-33.640884],[-70.960982,-33.643412],[-70.96071,-33.643778],[-70.960029,-33.644695]]]},"properties":{"comuna":"Talagante","mancha_id":"13601-88b2c0b25dfffff","clase":"Medio","nivel_medio":2.334,"nivel_medio_min":2.01,"nivel_medio_max":2.365,"pct_alto":33.4,"n_hexagonos":2,"area_ha":2.42}},{"type":"Feature","geometry":{"type":"Polygon","coordinates":[[[-70.950051,-33.6792],[-70.95068,-33.674959],[-70.946247,-33.672057],[-70.946768,-33.668546],[-70.946788,-33.668721],[-70.946952,-33.668832],[-70.947216,-33.668869],[-70.947476,-33.668899],[-70.947578,-33.669018],[-70.947595,-33.669196],[-70.947616,-33.669369],[-70.947734,-33.66966],[-70.947927,-33.669874],[-70.948304,-33.669956],[-70.948607,-33.669967],[-70.948795,-33.669907],[-70.948979,-33.669769],[-70.949162,-33.669673],[-70.949496,-33.669606],[-70.949914,-33.66959],[-70.950382,-33.669573],[-70.951116,-33.669456],[-70.951581,-33.669362],[-70.952052,-33.669351],[-70.95262,-33.669456],[-70.953171,-33.669573],[-70.953672,-33.66959],[-70.954201,-33.669594],[-70.954747,-33.669554],[-70.955132,-33.669618],[-70.955576,-33.669707],[-70.956116,-33.66986],[-70.956289,-33.66993],[-70.955742,-33.67362],[-70.960175,-33.676522],[-70.959546,-33.680762],[-70.954484,-33.682101],[-70.953855,-33.686341],[-70.958288,-33.689242],[-70.957659,-33.693482],[-70.952597,-33.69482],[-70.948164,-33.691919],[-70.943102,-33.693257],[-70.942473,-33.697496],[-70.937411,-33.698833],[-70.936782,-33.703072],[-70.93172,-33.704409],[-70.927288,-33.701507],[-70.927917,-33.697269],[-70.923485,-33.694367],[-70.924114,-33.690128],[-70.919683,-33.687226],[-70.920312,-33.682987],[-70.925373,-33.68165],[-70.926002,-33.67741],[-70.92157,-33.674508],[-70.91651,-33.675845],[-70.91588,-33.680084],[-70.91082,-33.681421],[-70.906389,-33.678519],[-70.907018,-33.674279],[-70.912078,-33.672942],[-70.912708,-33.668702],[-70.908277,-33.665799],[-70.903217,-33.667136],[-70.898786,-33.664233],[-70.899416,-33.659993],[-70.894985,-33.657089],[-70.889926,-33.658426],[-70.885496,-33.655522],[-70.886126,-33.651281],[-70.881696,-33.648377],[-70.876637,-33.649714],[-70.872208,-33.646809],[-70.872838,-33.642568],[-70.868409,-33.639664],[-70.869039,-33.635422],[-70.865257,-33.632942],[-70.867729,-33.632445],[-70.868243,-33.632354],[-70.87311,-33.631371],[-70.873404,-33.631295],[-70.873702,-33.631245],[-70.873905,-33.631224],[-70.874093,-33.631203],[-70.874371,-33.631222],[-70.874521,-33.631234],[-70.874098,-33.634086],[-70.878526,-33.63699],[-70.883585,-33.635653],[-70.88406,-33.632453],[-70.885993,-33.632714],[-70.887557,-33.632926],[-70.888167,-33.633008],[-70.888696,-33.633077],[-70.889954,-33.633234],[-70.891997,-33.633487],[-70.892865,-33.633604],[-70.893595,-33.633706],[-70.893948,-33.633754],[-70.894868,-33.63388],[-70.895865,-33.634014],[-70.897383,-33.63422],[-70.897701,-33.634265],[-70.901204,-33.634734],[-70.901835,-33.634819],[-70.903005,-33.634968],[-70.903127,-33.634984],[-70.904616,-33.635178],[-70.906363,-33.635403],[-70.908188,-33.635641],[-70.91189,-33.636143],[-70.911895,-33.636364],[-70.911968,-33.636511],[-70.912322,-33.637215],[-70.912472,-33.637525],[-70.912635,-33.637863],[-70.91277,-33.63814],[-70.913662,-33.639989],[-70.913902,-33.640481],[-70.915611,-33.640513],[-70.916738,-33.640532],[-70.91697,-33.640536],[-70.917643,-33.640545],[-70.919938,-33.640572],[-70.921739,-33.640597],[-70.921544,-33.641917],[-70.916484,-33.643256],[-70.912053,-33.640352],[-70.906993,-33.641691],[-70.902563,-33.638787],[-70.897503,-33.640125],[-70.893074,-33.63722],[-70.888015,-33.638558],[-70.887385,-33.642799],[-70.891815,-33.645703],[-70.891185,-33.649945],[-70.895615,-33.652848],[-70.900675,-33.651511],[-70.901304,-33.64727],[-70.906364,-33.645932],[-70.910794,-33.648836],[-70.910165,-33.653077],[-70.905105,-33.654415],[-70.904476,-33.658656],[-70.908906,-33.661559],[-70.913966,-33.660221],[-70.918397,-33.663124],[-70.917768,-33.667365],[-70.9222,-33.670267],[-70.92726,-33.66893],[-70.931692,-33.671832],[-70.936753,-33.670494],[-70.941186,-33.673396],[-70.940557,-33.677636],[-70.944989,-33.680538],[-70.950051,-33.6792]],[[-70.933608,-33.691693],[-70.938669,-33.690355],[-70.939299,-33.686116],[-70.934866,-33.683214],[-70.929805,-33.684552],[-70.929176,-33.688791],[-70.933608,-33.691693]]]},"properties":{"comuna":"Talagante","mancha_id":"13601-88b2c0b213fffff","clase":"Medio","nivel_medio":2.001,"nivel_medio_min":1.514,"nivel_medio_max":2.432,"pct_alto":42.5,"n_hexagonos":29,"area_ha":1690.21}},{"type":"Feature","geometry":{"type":"Polygon","coordinates":[[[-70.992507,-33.720922],[-70.997571,-33.719583],[-70.998034,-33.719886],[-70.996842,-33.720648],[-70.996251,-33.72083],[-70.995995,-33.721046],[-70.995621,-33.721694],[-70.994819,-33.722462],[-70.994305,-33.722825],[-70.993263,-33.723109],[-70.992202,-33.722976],[-70.992507,-33.720922]]]},"properties":{"comuna":"Talagante","mancha_id":"13601-88b2c0b015fffff","clase":"Medio","nivel_medio":2.306,"nivel_medio_min":2.306,"nivel_medio_max":2.306,"pct_alto":62.5,"n_hexagonos":1,"area_ha":9.36}},{"type":"Feature","geometry":{"type":"Polygon","coordinates":[[[-71.003263,-33.714005],[-71.003891,-33.709766],[-70.999456,-33.706867],[-70.994392,-33.708206],[-70.993763,-33.712445],[-70.9887,-33.713784],[-70.984265,-33.710885],[-70.984893,-33.706646],[-70.980458,-33.703746],[-70.981087,-33.699506],[-70.98615,-33.698167],[-70.986779,-33.693927],[-70.982344,-33.691027],[-70.982846,-33.687638],[-70.982901,-33.687658],[-70.983707,-33.687796],[-70.984867,-33.687973],[-70.985812,-33.688049],[-70.987075,-33.688184],[-70.987946,-33.688503],[-70.988766,-33.688904],[-70.989687,-33.689223],[-70.990614,-33.689599],[-70.99132,-33.689964],[-70.9919,-33.690406],[-70.99214,-33.690577],[-70.992656,-33.690948],[-70.993602,-33.691603],[-70.994219,-33.692183],[-70.994698,-33.692952],[-70.995013,-33.693431],[-70.995392,-33.693872],[-70.996009,-33.694174],[-70.996526,-33.694288],[-70.997169,-33.694439],[-70.997837,-33.694691],[-70.998382,-33.69493],[-70.998555,-33.695006],[-70.999576,-33.695233],[-71.0,-33.695334],[-71.00037,-33.695422],[-71.000988,-33.695636],[-71.001692,-33.695838],[-71.00252,-33.695966],[-71.003806,-33.696076],[-71.004598,-33.69645],[-71.005025,-33.69683],[-71.005646,-33.697584],[-71.005688,-33.697641],[-71.005148,-33.701287],[-71.009584,-33.704187],[-71.010546,-33.703932],[-71.010591,-33.704014],[-71.010879,-33.704458],[-71.011189,-33.704857],[-71.011544,-33.705167],[-71.011877,-33.705744],[-71.012094,-33.706179],[-71.012583,-33.706607],[-71.013074,-33.706852],[-71.014161,-33.707473],[-71.01558,-33.708183],[-71.016577,-33.708715],[-71.017442,-33.709247],[-71.018218,-33.709823],[-71.018389,-33.710003],[-71.013392,-33.711325],[-71.012937,-33.714391],[-71.01258,-33.71469],[-71.01082,-33.71545],[-71.009224,-33.715695],[-71.007306,-33.715765],[-71.006179,-33.715805],[-71.006068,-33.715838],[-71.003263,-33.714005]]]},"properties":{"comuna":"Talagante","mancha_id":"13601-88b2c0b001fffff","clase":"Medio","nivel_medio":2.065,"nivel_medio_min":1.556,"nivel_medio_max":2.443,"pct_alto":36.9,"n_hexagonos":10,"area_ha":517.29}},{"type":"Feature","geometry":{"type":"Polygon","coordinates":[[[-70.910165,-33.653077],[-70.910794,-33.648836],[-70.906364,-33.645932],[-70.901304,-33.64727],[-70.900675,-33.651511],[-70.895615,-33.652848],[-70.891185,-33.649945],[-70.891815,-33.645703],[-70.887385,-33.642799],[-70.888015,-33.638558],[-70.893074,-33.63722],[-70.897503,-33.640125],[-70.902563,-33.638787],[-70.906993,-33.641691],[-70.912053,-33.640352],[-70.916484,-33.643256],[-70.921544,-33.641917],[-70.921739,-33.640597],[-70.921948,-33.640599],[-70.921821,-33.640044],[-70.921879,-33.639658],[-70.924737,-33.639614],[-70.927915,-33.639564],[-70.928376,-33.639549],[-70.930782,-33.63947],[-70.931629,-33.639475],[-70.93221,-33.639479],[-70.932709,-33.639766],[-70.933183,-33.64036],[-70.933878,-33.640988],[-70.934305,-33.641509],[-70.934494,-33.641812],[-70.934779,-33.642641],[-70.93502,-33.64379],[-70.935043,-33.644498],[-70.935173,-33.645212],[-70.935047,-33.64611],[-70.931035,-33.643482],[-70.925975,-33.644821],[-70.925346,-33.649063],[-70.920285,-33.650401],[-70.919656,-33.654642],[-70.914596,-33.65598],[-70.910165,-33.653077]]]},"properties":{"comuna":"Talagante","mancha_id":"13601-88b2c54d01fffff","clase":"Alto","nivel_medio":2.887,"nivel_medio_min":2.583,"nivel_medio_max":3.264,"pct_alto":82.3,"n_hexagonos":8,"area_ha":440.28}},{"type":"Feature","geometry":{"type":"Polygon","coordinates":[[[-70.878526,-33.63699],[-70.874098,-33.634086],[-70.874521,-33.631234],[-70.874735,-33.631252],[-70.877387,-33.631579],[-70.879141,-33.631794],[-70.880699,-33.632],[-70.88406,-33.632453],[-70.883585,-33.635653],[-70.878526,-33.63699]]]},"properties":{"comuna":"Talagante","mancha_id":"13601-88b2c54c65fffff","clase":"Alto","nivel_medio":2.737,"nivel_medio_min":2.737,"nivel_medio_max":2.737,"pct_alto":66.8,"n_hexagonos":1,"area_ha":41.05}},{"type":"Feature","geometry":{"type":"Polygon","coordinates":[[[-70.826685,-33.658824],[-70.827315,-33.654585],[-70.82868,-33.654225],[-70.829825,-33.655523],[-70.830282,-33.656034],[-70.830568,-33.656366],[-70.830908,-33.656735],[-70.832339,-33.658291],[-70.833868,-33.659952],[-70.834687,-33.660787],[-70.831112,-33.66173],[-70.826685,-33.658824]]]},"properties":{"comuna":"Talagante","mancha_id":"13601-88b2c54c17fffff","clase":"Alto","nivel_medio":3.172,"nivel_medio_min":3.172,"nivel_medio_max":3.172,"pct_alto":78.5,"n_hexagonos":1,"area_ha":30.96}},{"type":"Feature","geometry":{"type":"Polygon","coordinates":[[[-70.849175,-33.635992],[-70.849526,-33.635925],[-70.849492,-33.636156],[-70.849396,-33.636119],[-70.849175,-33.635992]]]},"properties":{"comuna":"Talagante","mancha_id":"13601-88b2c54c09fffff","clase":"Alto","nivel_medio":3.0,"nivel_medio_min":3.0,"nivel_medio_max":3.0,"pct_alto":100.0,"n_hexagonos":1,"area_ha":0.04}},{"type":"Feature","geometry":{"type":"Polygon","coordinates":[[[-70.851332,-33.637769],[-70.853865,-33.639431],[-70.858923,-33.638095],[-70.859521,-33.634064],[-70.86028,-33.633916],[-70.864578,-33.633078],[-70.864812,-33.63303],[-70.865212,-33.632951],[-70.865257,-33.632942],[-70.869039,-33.635422],[-70.868409,-33.639664],[-70.872838,-33.642568],[-70.872208,-33.646809],[-70.86715,-33.648146],[-70.862721,-33.645241],[-70.860187,-33.64591],[-70.859913,-33.645618],[-70.859024,-33.644753],[-70.858135,-33.643923],[-70.857503,-33.643388],[-70.856323,-33.642345],[-70.855404,-33.641484],[-70.854978,-33.641064],[-70.854491,-33.640542],[-70.853891,-33.63996],[-70.853801,-33.639856],[-70.853486,-33.639487],[-70.853007,-33.639164],[-70.852807,-33.639065],[-70.852101,-33.638571],[-70.85165,-33.638192],[-70.851516,-33.638032],[-70.851332,-33.637769]]]},"properties":{"comuna":"Talagante","mancha_id":"13601-88b2c54c01fffff","clase":"Alto","nivel_medio":2.811,"nivel_medio_min":2.569,"nivel_medio_max":3.024,"pct_alto":76.8,"n_hexagonos":4,"area_ha":170.02}},{"type":"Feature","geometry":{"type":"Polygon","coordinates":[[[-70.918424,-33.695704],[-70.913992,-33.692801],[-70.908931,-33.694138],[-70.908302,-33.698376],[-70.903241,-33.699712],[-70.903086,-33.700754],[-70.90301,-33.70067],[-70.901885,-33.699515],[-70.90015,-33.69772],[-70.90008,-33.697641],[-70.89924,-33.6967],[-70.89909,-33.69644],[-70.899113,-33.696334],[-70.899064,-33.696362],[-70.898996,-33.6964],[-70.898861,-33.696464],[-70.898599,-33.69659],[-70.898085,-33.69678],[-70.897227,-33.697066],[-70.89524,-33.697747],[-70.895192,-33.697764],[-70.893784,-33.698269],[-70.893728,-33.698288],[-70.893097,-33.698498],[-70.892364,-33.698747],[-70.890793,-33.699289],[-70.8892,-33.699853],[-70.887735,-33.700356],[-70.887089,-33.700564],[-70.886573,-33.700601],[-70.886386,-33.700694],[-70.886193,-33.700834],[-70.885726,-33.701068],[-70.885233,-33.701291],[-70.885111,-33.701335],[-70.885037,-33.701362],[-70.884939,-33.701397],[-70.88489,-33.701415],[-70.884665,-33.701494],[-70.88444,-33.701573],[-70.883755,-33.701787],[-70.883331,-33.701918],[-70.882768,-33.702116],[-70.881949,-33.702393],[-70.880376,-33.702924],[-70.87916,-33.703355],[-70.878347,-33.703643],[-70.877857,-33.703816],[-70.876265,-33.704379],[-70.874567,-33.704979],[-70.873293,-33.705429],[-70.872194,-33.70581],[-70.870736,-33.706316],[-70.87012,-33.70653],[-70.868672,-33.707045],[-70.867663,-33.707386],[-70.866871,-33.707647],[-70.865178,-33.708202],[-70.863834,-33.708672],[-70.863341,-33.708844],[-70.862969,-33.708974],[-70.862895,-33.709],[-70.862259,-33.709222],[-70.86189,-33.709351],[-70.861597,-33.709458],[-70.861429,-33.709512],[-70.861265,-33.709564],[-70.861221,-33.709576],[-70.861194,-33.709584],[-70.859997,-33.710016],[-70.85713,-33.71102],[-70.856808,-33.711137],[-70.85327,-33.708818],[-70.848211,-33.710151],[-70.847776,-33.713073],[-70.84748,-33.71259],[-70.8468,-33.7114],[-70.84624,-33.71049],[-70.84618,-33.71022],[-70.84619,-33.71013],[-70.84624,-33.70983],[-70.84643,-33.70983],[-70.84646,-33.70959],[-70.84648,-33.70944],[-70.84647,-33.70907],[-70.846452,-33.708998],[-70.84636,-33.70862],[-70.845983,-33.708506],[-70.84562,-33.708452],[-70.845331,-33.70841],[-70.844463,-33.708433],[-70.843643,-33.70857],[-70.842817,-33.708824],[-70.84204,-33.70918],[-70.84048,-33.70992],[-70.840129,-33.71036],[-70.839685,-33.710766],[-70.839159,-33.711312],[-70.838495,-33.711687],[-70.838238,-33.71184],[-70.837258,-33.712422],[-70.836355,-33.712982],[-70.835433,-33.713299],[-70.834842,-33.713657],[-70.834815,-33.713679],[-70.83332,-33.71493],[-70.832837,-33.715466],[-70.831941,-33.716462],[-70.831452,-33.716849],[-70.830901,-33.717506],[-70.830513,-33.71822],[-70.830194,-33.718965],[-70.827344,-33.719715],[-70.827312,-33.719932],[-70.82666,-33.720216],[-70.82434,-33.72105],[-70.823656,-33.721048],[-70.822592,-33.720832],[-70.821365,-33.720127],[-70.820293,-33.719807],[-70.819189,-33.719849],[-70.81784,-33.719986],[-70.817573,-33.720054],[-70.817101,-33.720175],[-70.815844,-33.720894],[-70.815325,-33.720996],[-70.813794,-33.722261],[-70.813491,-33.722628],[-70.813086,-33.72278],[-70.812655,-33.722818],[-70.812263,-33.722843],[-70.811896,-33.722818],[-70.811276,-33.72278],[-70.810736,-33.722657],[-70.809677,-33.722001],[-70.80887,-33.721522],[-70.808469,-33.721282],[-70.807741,-33.720804],[-70.807693,-33.720816],[-70.807238,-33.720544],[-70.8066,-33.72019],[-70.806685,-33.719722],[-70.806893,-33.719301],[-70.80705,-33.718767],[-70.806852,-33.718191],[-70.806431,-33.717664],[-70.806114,-33.717067],[-70.805904,-33.716259],[-70.805865,-33.715852],[-70.805732,-33.715498],[-70.80571,-33.71525],[-70.805622,-33.714984],[-70.805433,-33.714721],[-70.805128,-33.714521],[-70.805045,-33.714387],[-70.804991,-33.714301],[-70.804834,-33.714017],[-70.804765,-33.713299],[-70.804885,-33.712817],[-70.804885,-33.712376],[-70.80484,-33.71193],[-70.804428,-33.711658],[-70.804268,-33.711489],[-70.803796,-33.710991],[-70.803234,-33.710499],[-70.802883,-33.710042],[-70.802321,-33.709586],[-70.801408,-33.709094],[-70.800495,-33.708602],[-70.800024,-33.70814],[-70.79974,-33.70773],[-70.799263,-33.707527],[-70.798803,-33.707227],[-70.798557,-33.706998],[-70.798542,-33.706948],[-70.800148,-33.706525],[-70.800779,-33.70229],[-70.805837,-33.700959],[-70.806467,-33.696723],[-70.802041,-33.693818],[-70.802671,-33.689582],[-70.798245,-33.686676],[-70.79593,-33.687286],[-70.796069,-33.687036],[-70.796069,-33.686439],[-70.795964,-33.685842],[-70.795788,-33.685245],[-70.795875,-33.684888],[-70.79579,-33.684426],[-70.796153,-33.683725],[-70.796419,-33.683172],[-70.797182,-33.682233],[-70.797565,-33.681579],[-70.79773,-33.681299],[-70.798437,-33.680739],[-70.798985,-33.679566],[-70.798961,-33.679214],[-70.798947,-33.678726],[-70.79906,-33.67829],[-70.799521,-33.677875],[-70.799739,-33.677419],[-70.799757,-33.67682],[-70.800096,-33.676389],[-70.800373,-33.676073],[-70.800511,-33.675736],[-70.800569,-33.675411],[-70.801208,-33.674843],[-70.801277,-33.674714],[-70.80133,-33.674616],[-70.801791,-33.674035],[-70.801762,-33.673246],[-70.801677,-33.672738],[-70.80195,-33.67259],[-70.802731,-33.672536],[-70.803561,-33.67244],[-70.80441,-33.67246],[-70.804404,-33.672193],[-70.804247,-33.671902],[-70.803953,-33.671545],[-70.802715,-33.671205],[-70.801543,-33.6704],[-70.800857,-33.669704],[-70.800764,-33.66961],[-70.800206,-33.668775],[-70.799625,-33.668044],[-70.799411,-33.667183],[-70.79962,-33.666605],[-70.799881,-33.66602],[-70.800605,-33.66602],[-70.801314,-33.666056],[-70.801978,-33.665875],[-70.802991,-33.665201],[-70.80341,-33.664766],[-70.803903,-33.66439],[-70.80481,-33.663758],[-70.805225,-33.663375],[-70.805242,-33.66336],[-70.806407,-33.662317],[-70.806926,-33.66178],[-70.807221,-33.661343],[-70.807596,-33.660855],[-70.807858,-33.660181],[-70.807963,-33.659601],[-70.808196,-33.658907],[-70.80837,-33.65814],[-70.808533,-33.657371],[-70.808795,-33.656397],[-70.808797,-33.656389],[-70.808945,-33.655722],[-70.809253,-33.655175],[-70.809649,-33.654536],[-70.810329,-33.653809],[-70.810972,-33.653088],[-70.811026,-33.652053],[-70.811113,-33.651342],[-70.811155,-33.650701],[-70.811172,-33.650437],[-70.811207,-33.649629],[-70.811218,-33.649082],[-70.811312,-33.648682],[-70.811508,-33.648339],[-70.811892,-33.647545],[-70.811939,-33.647057],[-70.811916,-33.6465],[-70.811776,-33.645827],[-70.811698,-33.645205],[-70.811743,-33.644825],[-70.811937,-33.644491],[-70.81195,-33.644468],[-70.812294,-33.643992],[-70.812993,-33.643646],[-70.813433,-33.643329],[-70.814037,-33.643098],[-70.814562,-33.643022],[-70.815079,-33.642962],[-70.815368,-33.642931],[-70.81587,-33.642832],[-70.816413,-33.642675],[-70.816854,-33.642474],[-70.817401,-33.642527],[-70.817935,-33.642503],[-70.818314,-33.642369],[-70.819248,-33.643488],[-70.819784,-33.644129],[-70.82128,-33.645835],[-70.821556,-33.646151],[-70.821637,-33.646246],[-70.823392,-33.648291],[-70.822888,-33.65168],[-70.817831,-33.653013],[-70.817201,-33.657253],[-70.812143,-33.658586],[-70.811513,-33.662824],[-70.81594,-33.66573],[-70.815309,-33.669968],[-70.819736,-33.672873],[-70.824794,-33.67154],[-70.829221,-33.674445],[-70.834279,-33.673112],[-70.838707,-33.676016],[-70.838077,-33.680254],[-70.842505,-33.683159],[-70.847563,-33.681825],[-70.848194,-33.677587],[-70.843765,-33.674683],[-70.844396,-33.670444],[-70.839968,-33.66754],[-70.840598,-33.663301],[-70.838154,-33.661697],[-70.838612,-33.661525],[-70.840183,-33.660933],[-70.840467,-33.660821],[-70.843244,-33.659771],[-70.844965,-33.659118],[-70.845323,-33.658982],[-70.846146,-33.658667],[-70.845656,-33.661966],[-70.850084,-33.664871],[-70.849454,-33.66911],[-70.853882,-33.672014],[-70.858941,-33.67068],[-70.86337,-33.673584],[-70.868429,-33.672249],[-70.869059,-33.66801],[-70.874118,-33.666674],[-70.878548,-33.669578],[-70.877918,-33.673817],[-70.882348,-33.676721],[-70.881718,-33.68096],[-70.876658,-33.682295],[-70.872228,-33.679391],[-70.867169,-33.680726],[-70.866539,-33.684965],[-70.86148,-33.686299],[-70.86085,-33.690537],[-70.855791,-33.691871],[-70.851362,-33.688967],[-70.846303,-33.6903],[-70.845673,-33.694538],[-70.850101,-33.697441],[-70.849471,-33.701678],[-70.8539,-33.704582],[-70.85896,-33.703248],[-70.863389,-33.706151],[-70.868449,-33.704818],[-70.869079,-33.700581],[-70.864649,-33.697678],[-70.865279,-33.69344],[-70.870339,-33.692106],[-70.874769,-33.695009],[-70.879828,-33.693674],[-70.884259,-33.696577],[-70.889319,-33.695242],[-70.889948,-33.691004],[-70.895009,-33.689669],[-70.895638,-33.68543],[-70.891208,-33.682527],[-70.891837,-33.678288],[-70.887407,-33.675385],[-70.888037,-33.671146],[-70.883607,-33.668242],[-70.884237,-33.664002],[-70.879807,-33.661099],[-70.880437,-33.656858],[-70.876007,-33.653954],[-70.876637,-33.649714],[-70.881696,-33.648377],[-70.886126,-33.651281],[-70.885496,-33.655522],[-70.889926,-33.658426],[-70.894985,-33.657089],[-70.899416,-33.659993],[-70.898786,-33.664233],[-70.903217,-33.667136],[-70.908277,-33.665799],[-70.912708,-33.668702],[-70.912078,-33.672942],[-70.907018,-33.674279],[-70.906389,-33.678519],[-70.91082,-33.681421],[-70.91588,-33.680084],[-70.91651,-33.675845],[-70.92157,-33.674508],[-70.926002,-33.67741],[-70.925373,-33.68165],[-70.920312,-33.682987],[-70.919683,-33.687226],[-70.924114,-33.690128],[-70.923485,-33.694367],[-70.918424,-33.695704]],[[-70.825438,-33.699868],[-70.830497,-33.698536],[-70.831127,-33.694299],[-70.836186,-33.692967],[-70.836816,-33.68873],[-70.832388,-33.685825],[-70.82733,-33.687158],[-70.826699,-33.691395],[-70.821641,-33.692727],[-70.821011,-33.696964],[-70.825438,-33.699868]]]},"properties":{"comuna":"Talagante","mancha_id":"13601-88b2c0b2d1fffff","clase":"Alto","nivel_medio":2.876,"nivel_medio_min":2.502,"nivel_medio_max":3.479,"pct_alto":77.1,"n_hexagonos":80,"area_ha":4212.54}},{"type":"Feature","geometry":{"type":"Polygon","coordinates":[[[-70.929176,-33.688791],[-70.929805,-33.684552],[-70.934866,-33.683214],[-70.939299,-33.686116],[-70.938669,-33.690355],[-70.933608,-33.691693],[-70.929176,-33.688791]]]},"properties":{"comuna":"Talagante","mancha_id":"13601-88b2c0b2c3fffff","clase":"Alto","nivel_medio":2.53,"nivel_medio_min":2.53,"nivel_medio_max":2.53,"pct_alto":57.1,"n_hexagonos":1,"area_ha":63.61}},{"type":"Feature","geometry":{"type":"Polygon","coordinates":[[[-70.921597,-33.707082],[-70.922226,-33.702844],[-70.927288,-33.701507],[-70.93172,-33.704409],[-70.931091,-33.708647],[-70.926029,-33.709983],[-70.921597,-33.707082]]]},"properties":{"comuna":"Talagante","mancha_id":"13601-88b2c0b29dfffff","clase":"Alto","nivel_medio":2.568,"nivel_medio_min":2.568,"nivel_medio_max":2.568,"pct_alto":57.8,"n_hexagonos":1,"area_ha":63.57}},{"type":"Feature","geometry":{"type":"Polygon","coordinates":[[[-70.954799,-33.651864],[-70.954063,-33.652141],[-70.95388,-33.65221],[-70.95151,-33.652557],[-70.949786,-33.653082],[-70.947538,-33.653981],[-70.947248,-33.654101],[-70.94433,-33.65219],[-70.939269,-33.653529],[-70.93864,-33.657771],[-70.938765,-33.657852],[-70.938105,-33.657967],[-70.937851,-33.65798],[-70.936806,-33.658031],[-70.936395,-33.658094],[-70.936415,-33.6582],[-70.936489,-33.658315],[-70.936507,-33.658335],[-70.936571,-33.658406],[-70.93667,-33.658484],[-70.936804,-33.6586],[-70.936904,-33.658701],[-70.936937,-33.658818],[-70.936954,-33.659018],[-70.936971,-33.659235],[-70.936982,-33.659371],[-70.937002,-33.65951],[-70.937068,-33.659724],[-70.937138,-33.659929],[-70.93731,-33.660418],[-70.937434,-33.660701],[-70.93753,-33.660918],[-70.937613,-33.661053],[-70.937713,-33.661198],[-70.93778,-33.661322],[-70.937819,-33.661451],[-70.937889,-33.66169],[-70.938006,-33.661991],[-70.938157,-33.662325],[-70.938325,-33.662503],[-70.938518,-33.662605],[-70.938808,-33.662675],[-70.938973,-33.662727],[-70.939127,-33.66283],[-70.939309,-33.663043],[-70.93971,-33.663494],[-70.939944,-33.663761],[-70.940144,-33.663978],[-70.940328,-33.664212],[-70.940461,-33.664379],[-70.940812,-33.664713],[-70.941096,-33.66498],[-70.941296,-33.665181],[-70.941334,-33.665208],[-70.937382,-33.666253],[-70.93295,-33.663351],[-70.93358,-33.65911],[-70.929148,-33.656207],[-70.929777,-33.651966],[-70.934838,-33.650627],[-70.935257,-33.647801],[-70.935711,-33.647577],[-70.936273,-33.647222],[-70.936448,-33.646743],[-70.937127,-33.645945],[-70.937129,-33.645943],[-70.937836,-33.645695],[-70.938701,-33.645465],[-70.938898,-33.645477],[-70.939525,-33.645514],[-70.940076,-33.645684],[-70.940714,-33.646163],[-70.941223,-33.646498],[-70.941642,-33.646535],[-70.942207,-33.646473],[-70.942526,-33.646354],[-70.943209,-33.6461],[-70.944879,-33.645548],[-70.945984,-33.645209],[-70.946639,-33.645175],[-70.947619,-33.645451],[-70.9478,-33.6455],[-70.94807,-33.645613],[-70.948585,-33.645743],[-70.949053,-33.645775],[-70.949711,-33.645775],[-70.950156,-33.645694],[-70.950205,-33.645685],[-70.950579,-33.645575],[-70.950863,-33.645419],[-70.951619,-33.644997],[-70.952183,-33.644779],[-70.953858,-33.644285],[-70.954857,-33.644173],[-70.95597,-33.644209],[-70.957571,-33.643914],[-70.958492,-33.643648],[-70.958761,-33.643571],[-70.959225,-33.643327],[-70.960143,-33.643928],[-70.960029,-33.644695],[-70.959409,-33.64553],[-70.95916,-33.645994],[-70.958778,-33.647087],[-70.958381,-33.647818],[-70.957718,-33.648232],[-70.95691,-33.64857],[-70.956424,-33.648962],[-70.956401,-33.648995],[-70.956109,-33.64941],[-70.955745,-33.650521],[-70.955339,-33.651361],[-70.954799,-33.651864]]]},"properties":{"comuna":"Talagante","mancha_id":"13601-88b2c0b251fffff","clase":"Alto","nivel_medio":2.944,"nivel_medio_min":2.643,"nivel_medio_max":3.201,"pct_alto":82.0,"n_hexagonos":8,"area_ha":267.21}},{"type":"Feature","geometry":{"type":"Polygon","coordinates":[[[-70.974767,-33.709323],[-70.975395,-33.705085],[-70.970961,-33.702184],[-70.97159,-33.697945],[-70.967156,-33.695044],[-70.962093,-33.696383],[-70.961464,-33.700622],[-70.965898,-33.703523],[-70.965269,-33.707761],[-70.960207,-33.709099],[-70.955773,-33.706199],[-70.956402,-33.70196],[-70.951968,-33.699059],[-70.952597,-33.69482],[-70.957659,-33.693482],[-70.958288,-33.689242],[-70.953855,-33.686341],[-70.954484,-33.682101],[-70.959546,-33.680762],[-70.960175,-33.676522],[-70.955742,-33.67362],[-70.956289,-33.66993],[-70.956583,-33.67005],[-70.956973,-33.670302],[-70.957326,-33.670541],[-70.957578,-33.670844],[-70.957805,-33.671197],[-70.95802,-33.671499],[-70.958196,-33.671688],[-70.958473,-33.671852],[-70.958776,-33.671953],[-70.959053,-33.672003],[-70.959343,-33.672066],[-70.959532,-33.672066],[-70.959872,-33.672117],[-70.960238,-33.672205],[-70.960629,-33.672419],[-70.960931,-33.672772],[-70.961087,-33.672983],[-70.961324,-33.673214],[-70.961562,-33.673377],[-70.961929,-33.673567],[-70.962196,-33.673687],[-70.962404,-33.673845],[-70.962582,-33.674032],[-70.962771,-33.674297],[-70.96291,-33.674461],[-70.963137,-33.67465],[-70.963376,-33.674776],[-70.963717,-33.67489],[-70.96407,-33.675003],[-70.96446,-33.675167],[-70.964701,-33.675324],[-70.964788,-33.675381],[-70.965204,-33.675621],[-70.965544,-33.675785],[-70.965796,-33.675873],[-70.966061,-33.675923],[-70.966313,-33.676049],[-70.966641,-33.676276],[-70.966956,-33.676553],[-70.967183,-33.676755],[-70.967422,-33.676957],[-70.967649,-33.677259],[-70.967779,-33.677467],[-70.967937,-33.67763],[-70.968122,-33.67776],[-70.968317,-33.677915],[-70.968557,-33.678142],[-70.968763,-33.678266],[-70.968998,-33.678305],[-70.969351,-33.678331],[-70.969632,-33.678346],[-70.969042,-33.682324],[-70.973476,-33.685225],[-70.977303,-33.684213],[-70.97772,-33.684355],[-70.978489,-33.684685],[-70.979271,-33.685276],[-70.980065,-33.686082],[-70.980569,-33.686599],[-70.981237,-33.687002],[-70.981955,-33.687305],[-70.982846,-33.687638],[-70.982344,-33.691027],[-70.977281,-33.692366],[-70.976653,-33.696606],[-70.981087,-33.699506],[-70.980458,-33.703746],[-70.984893,-33.706646],[-70.984265,-33.710885],[-70.979201,-33.712223],[-70.974767,-33.709323]]]},"properties":{"comuna":"Talagante","mancha_id":"13601-88b2c0b053fffff","clase":"Alto","nivel_medio":2.913,"nivel_medio_min":2.622,"nivel_medio_max":3.483,"pct_alto":65.8,"n_hexagonos":11,"area_ha":654.65}},{"type":"Feature","geometry":{"type":"Polygon","coordinates":[[[-71.009584,-33.704187],[-71.005148,-33.701287],[-71.005688,-33.697641],[-71.006156,-33.698272],[-71.006644,-33.698582],[-71.007287,-33.698782],[-71.007997,-33.699469],[-71.008396,-33.70009],[-71.008839,-33.700866],[-71.009549,-33.702418],[-71.010214,-33.703327],[-71.010546,-33.703932],[-71.009584,-33.704187]]]},"properties":{"comuna":"Talagante","mancha_id":"13601-88b2c0b047fffff","clase":"Alto","nivel_medio":2.622,"nivel_medio_min":2.622,"nivel_medio_max":2.622,"pct_alto":64.3,"n_hexagonos":1,"area_ha":15.55}},{"type":"Feature","geometry":{"type":"Polygon","coordinates":[[[-70.988071,-33.718023],[-70.992507,-33.720922],[-70.992202,-33.722976],[-70.991994,-33.72295],[-70.990738,-33.722636],[-70.989692,-33.722462],[-70.988471,-33.722252],[-70.987989,-33.721962],[-70.987634,-33.721624],[-70.987348,-33.721166],[-70.986972,-33.720822],[-70.986474,-33.720563],[-70.985982,-33.720416],[-70.985507,-33.720264],[-70.983798,-33.719846],[-70.982959,-33.71969],[-70.983007,-33.719362],[-70.988071,-33.718023]]]},"properties":{"comuna":"Talagante","mancha_id":"13601-88b2c0b011fffff","clase":"Alto","nivel_medio":2.567,"nivel_medio_min":2.567,"nivel_medio_max":2.567,"pct_alto":82.5,"n_hexagonos":1,"area_ha":22.94}},{"type":"Feature","geometry":{"type":"Polygon","coordinates":[[[-71.012937,-33.714391],[-71.013392,-33.711325],[-71.018389,-33.710003],[-71.018841,-33.710478],[-71.019289,-33.710833],[-71.019615,-33.71122],[-71.019821,-33.711589],[-71.019952,-33.711981],[-71.020008,-33.712438],[-71.020042,-33.712961],[-71.019319,-33.712835],[-71.017595,-33.712242],[-71.016304,-33.712138],[-71.015153,-33.712452],[-71.014211,-33.713323],[-71.012937,-33.714391]]]},"properties":{"comuna":"Talagante","mancha_id":"13601-88b2c0b005fffff","clase":"Alto","nivel_medio":2.907,"nivel_medio_min":2.907,"nivel_medio_max":2.907,"pct_alto":95.4,"n_hexagonos":1,"area_ha":13.86}},{"type":"Feature","geometry":{"type":"Polygon","coordinates":[[[-70.838077,-33.680254],[-70.838707,-33.676016],[-70.843765,-33.674683],[-70.848194,-33.677587],[-70.847563,-33.681825],[-70.842505,-33.683159],[-70.838077,-33.680254]]]},"properties":{"comuna":"Talagante","mancha_id":"13601-88b2c54ddbfffff","clase":"Muy Alto","nivel_medio":3.684,"nivel_medio_min":3.684,"nivel_medio_max":3.684,"pct_alto":94.7,"n_hexagonos":1,"area_ha":63.56}},{"type":"Feature","geometry":{"type":"Polygon","coordinates":[[[-70.939269,-33.653529],[-70.94433,-33.65219],[-70.947248,-33.654101],[-70.946265,-33.654505],[-70.94533,-33.65488],[-70.943347,-33.655376],[-70.94225,-33.65539],[-70.941809,-33.655909],[-70.941303,-33.656479],[-70.940662,-33.65688],[-70.93989,-33.65721],[-70.939289,-33.657648],[-70.938798,-33.657847],[-70.938765,-33.657852],[-70.93864,-33.657771],[-70.939269,-33.653529]]]},"properties":{"comuna":"Talagante","mancha_id":"13601-88b2c54d2dfffff","clase":"Muy Alto","nivel_medio":3.536,"nivel_medio_min":3.536,"nivel_medio_max":3.536,"pct_alto":94.5,"n_hexagonos":1,"area_ha":22.98}},{"type":"Feature","geometry":{"type":"Polygon","coordinates":[[[-70.973476,-33.685225],[-70.969042,-33.682324],[-70.969632,-33.678346],[-70.969805,-33.678356],[-70.970132,-33.678431],[-70.970366,-33.678532],[-70.970578,-33.678651],[-70.970763,-33.678847],[-70.970914,-33.679087],[-70.971088,-33.679265],[-70.971254,-33.679604],[-70.971342,-33.680158],[-70.971557,-33.680851],[-70.971872,-33.681456],[-70.972523,-33.682064],[-70.972628,-33.682162],[-70.973309,-33.682591],[-70.974468,-33.683183],[-70.975237,-33.683637],[-70.97588,-33.683902],[-70.976598,-33.684078],[-70.977203,-33.684179],[-70.977303,-33.684213],[-70.973476,-33.685225]]]},"properties":{"comuna":"Talagante","mancha_id":"13601-88b2c0b23bfffff","clase":"Muy Alto","nivel_medio":3.594,"nivel_medio_min":3.594,"nivel_medio_max":3.594,"pct_alto":92.7,"n_hexagonos":1,"area_ha":19.61}}],"bbox":[-71.02005,-33.72311,-70.79177,-33.6312]}