{"type":"FeatureCollection","features":[{"type":"Feature","geometry":{"type":"Polygon","coordinates":[[[-72.10014,-36.902752],[-72.101139,-36.902507],[-72.101447,-36.902787],[-72.10014,-36.902752]]]},"properties":{"comuna":"San Ignacio","mancha_id":"16108-88b2d940c7fffff","clase":"Muy Bajo","nivel_medio":0.194,"nivel_medio_min":0.194,"nivel_medio_max":0.194,"pct_alto":0.0,"n_hexagonos":1,"area_ha":0.18}},{"type":"Feature","geometry":{"type":"Polygon","coordinates":[[[-72.047004,-36.751101],[-72.043625,-36.748015],[-72.044515,-36.745852],[-72.04491,-36.74575],[-72.04557,-36.74577],[-72.04722,-36.74593],[-72.04848,-36.74604],[-72.05002,-36.74634],[-72.05086,-36.74673],[-72.05271,-36.74775],[-72.052919,-36.748029],[-72.052179,-36.749826],[-72.047004,-36.751101]]]},"properties":{"comuna":"San Ignacio","mancha_id":"16108-88b2d9575dfffff","clase":"Bajo","nivel_medio":1.349,"nivel_medio_min":1.349,"nivel_medio_max":1.349,"pct_alto":5.1,"n_hexagonos":1,"area_ha":33.23}},{"type":"Feature","geometry":{"type":"Polygon","coordinates":[[[-72.035448,-36.745289],[-72.035071,-36.746205],[-72.03845,-36.74929],[-72.036654,-36.75365],[-72.031479,-36.754924],[-72.028101,-36.751838],[-72.029897,-36.747479],[-72.027133,-36.744954],[-72.02808,-36.74507],[-72.02881,-36.74499],[-72.0302,-36.74463],[-72.03134,-36.74431],[-72.03221,-36.74422],[-72.03276,-36.74422],[-72.03342,-36.74458],[-72.03411,-36.74489],[-72.0347,-36.7451],[-72.035448,-36.745289]]]},"properties":{"comuna":"San Ignacio","mancha_id":"16108-88b2d95665fffff","clase":"Bajo","nivel_medio":1.309,"nivel_medio_min":1.0,"nivel_medio_max":1.388,"pct_alto":6.8,"n_hexagonos":2,"area_ha":75.64}},{"type":"Feature","geometry":{"type":"Polygon","coordinates":[[[-72.010999,-36.748214],[-72.005826,-36.749486],[-72.004786,-36.748536],[-72.00493,-36.74848],[-72.00645,-36.74806],[-72.00803,-36.74766],[-72.00946,-36.74721],[-72.01039,-36.7469],[-72.01106,-36.74685],[-72.011524,-36.746941],[-72.010999,-36.748214]]]},"properties":{"comuna":"San Ignacio","mancha_id":"16108-88b2d9560dfffff","clase":"Bajo","nivel_medio":1.304,"nivel_medio_min":1.304,"nivel_medio_max":1.304,"pct_alto":4.3,"n_hexagonos":1,"area_ha":7.85}},{"type":"Feature","geometry":{"type":"Polygon","coordinates":[[[-71.990544,-36.831584],[-71.988743,-36.835944],[-71.983562,-36.837213],[-71.98176,-36.841573],[-71.97658,-36.842843],[-71.973202,-36.839752],[-71.975004,-36.835393],[-71.971627,-36.832302],[-71.973429,-36.827943],[-71.978608,-36.826674],[-71.981986,-36.829764],[-71.987165,-36.828494],[-71.990544,-36.831584]]]},"properties":{"comuna":"San Ignacio","mancha_id":"16108-88b2d954e1fffff","clase":"Bajo","nivel_medio":1.237,"nivel_medio_min":1.153,"nivel_medio_max":1.393,"pct_alto":0.8,"n_hexagonos":3,"area_ha":180.82}},{"type":"Feature","geometry":{"type":"Polygon","coordinates":[[[-71.934535,-36.853134],[-71.935139,-36.852986],[-71.936114,-36.853879],[-71.935709,-36.853806],[-71.93481,-36.85321],[-71.934535,-36.853134]]]},"properties":{"comuna":"San Ignacio","mancha_id":"16108-88b2d95493fffff","clase":"Bajo","nivel_medio":1.284,"nivel_medio_min":1.284,"nivel_medio_max":1.284,"pct_alto":0.0,"n_hexagonos":1,"area_ha":0.38}},{"type":"Feature","geometry":{"type":"Polygon","coordinates":[[[-72.040979,-36.799607],[-72.039181,-36.803968],[-72.034001,-36.805241],[-72.03062,-36.802153],[-72.032418,-36.797792],[-72.037597,-36.796519],[-72.040979,-36.799607]]]},"properties":{"comuna":"San Ignacio","mancha_id":"16108-88b2d95467fffff","clase":"Bajo","nivel_medio":1.282,"nivel_medio_min":1.282,"nivel_medio_max":1.282,"pct_alto":37.4,"n_hexagonos":1,"area_ha":60.31}},{"type":"Feature","geometry":{"type":"Polygon","coordinates":[[[-72.133008,-36.733476],[-72.133119,-36.733669],[-72.132296,-36.732919],[-72.132611,-36.732968],[-72.132731,-36.733042],[-72.132814,-36.733208],[-72.133008,-36.733476]]]},"properties":{"comuna":"San Ignacio","mancha_id":"16108-88b2d952adfffff","clase":"Bajo","nivel_medio":1.012,"nivel_medio_min":1.012,"nivel_medio_max":1.012,"pct_alto":0.0,"n_hexagonos":1,"area_ha":0.12}},{"type":"Feature","geometry":{"type":"Polygon","coordinates":[[[-72.114292,-36.734504],[-72.109115,-36.735782],[-72.108098,-36.734856],[-72.10827,-36.73482],[-72.10959,-36.73452],[-72.1108,-36.73422],[-72.11167,-36.73379],[-72.11211,-36.73338],[-72.11254,-36.7326],[-72.112765,-36.732243],[-72.112935,-36.731657],[-72.113126,-36.730998],[-72.113226,-36.730726],[-72.1134,-36.73034],[-72.113721,-36.729911],[-72.114064,-36.729587],[-72.11428,-36.72948],[-72.114642,-36.729404],[-72.115,-36.72942],[-72.115296,-36.729424],[-72.116083,-36.730141],[-72.114292,-36.734504]]]},"properties":{"comuna":"San Ignacio","mancha_id":"16108-88b2d95287fffff","clase":"Bajo","nivel_medio":1.42,"nivel_medio_min":1.42,"nivel_medio_max":1.42,"pct_alto":13.6,"n_hexagonos":1,"area_ha":17.01}},{"type":"Feature","geometry":{"type":"Polygon","coordinates":[[[-72.05381,-36.894492],[-72.058228,-36.893409],[-72.058631,-36.893777],[-72.05824,-36.89402],[-72.05711,-36.89418],[-72.05413,-36.89446],[-72.05381,-36.894492]]]},"properties":{"comuna":"San Ignacio","mancha_id":"16108-88b2d94761fffff","clase":"Bajo","nivel_medio":1.318,"nivel_medio_min":1.318,"nivel_medio_max":1.318,"pct_alto":5.4,"n_hexagonos":1,"area_ha":1.54}},{"type":"Feature","geometry":{"type":"Polygon","coordinates":[[[-72.171177,-36.834238],[-72.176366,-36.832958],[-72.177861,-36.834317],[-72.178345,-36.835353],[-72.171696,-36.836746],[-72.173369,-36.841078],[-72.175342,-36.840606],[-72.176249,-36.84084],[-72.172783,-36.841695],[-72.169386,-36.838606],[-72.171177,-36.834238]]]},"properties":{"comuna":"San Ignacio","mancha_id":"16108-88b2d94357fffff","clase":"Bajo","nivel_medio":1.482,"nivel_medio_min":1.482,"nivel_medio_max":1.482,"pct_alto":5.6,"n_hexagonos":1,"area_ha":29.48}},{"type":"Feature","geometry":{"type":"Polygon","coordinates":[[[-72.098147,-36.875764],[-72.09635,-36.88013],[-72.091161,-36.881405],[-72.087769,-36.878313],[-72.089567,-36.873947],[-72.094755,-36.872673],[-72.098147,-36.875764]]]},"properties":{"comuna":"San Ignacio","mancha_id":"16108-88b2d942abfffff","clase":"Bajo","nivel_medio":1.265,"nivel_medio_min":1.265,"nivel_medio_max":1.265,"pct_alto":30.3,"n_hexagonos":1,"area_ha":60.44}},{"type":"Feature","geometry":{"type":"Polygon","coordinates":[[[-72.147029,-36.836264],[-72.145236,-36.840631],[-72.140048,-36.841909],[-72.136654,-36.838819],[-72.138447,-36.834453],[-72.143634,-36.833175],[-72.147029,-36.836264]]]},"properties":{"comuna":"San Ignacio","mancha_id":"16108-88b2d9422bfffff","clase":"Bajo","nivel_medio":1.293,"nivel_medio_min":1.293,"nivel_medio_max":1.293,"pct_alto":0.0,"n_hexagonos":1,"area_ha":60.47}},{"type":"Feature","geometry":{"type":"Polygon","coordinates":[[[-72.149663,-36.886658],[-72.147869,-36.891026],[-72.151267,-36.894118],[-72.149473,-36.898487],[-72.144279,-36.899764],[-72.143578,-36.90147],[-72.143214,-36.901437],[-72.142268,-36.901028],[-72.141863,-36.900817],[-72.141371,-36.900562],[-72.140849,-36.900733],[-72.140065,-36.900808],[-72.139343,-36.900746],[-72.138175,-36.900685],[-72.13744,-36.900935],[-72.136562,-36.901099],[-72.135334,-36.9015],[-72.134202,-36.901563],[-72.135688,-36.897948],[-72.132291,-36.894856],[-72.134086,-36.890488],[-72.139279,-36.889211],[-72.141073,-36.884843],[-72.146265,-36.883566],[-72.149663,-36.886658]]]},"properties":{"comuna":"San Ignacio","mancha_id":"16108-88b2d94007fffff","clase":"Bajo","nivel_medio":1.321,"nivel_medio_min":1.216,"nivel_medio_max":1.47,"pct_alto":2.3,"n_hexagonos":4,"area_ha":211.61}},{"type":"Feature","geometry":{"type":"Polygon","coordinates":[[[-71.876038,-36.804804],[-71.870866,-36.806069],[-71.870769,-36.80598],[-71.870866,-36.805955],[-71.871422,-36.805865],[-71.871919,-36.805654],[-71.87222,-36.8052],[-71.872445,-36.804858],[-71.872791,-36.804527],[-71.873061,-36.804392],[-71.8735,-36.80438],[-71.87405,-36.80434],[-71.87452,-36.804422],[-71.87485,-36.80435],[-71.87521,-36.80425],[-71.87578,-36.80392],[-71.87657,-36.80349],[-71.876585,-36.803485],[-71.876038,-36.804804]]]},"properties":{"comuna":"San Ignacio","mancha_id":"16108-88b2d90a6dfffff","clase":"Bajo","nivel_medio":1.362,"nivel_medio_min":1.362,"nivel_medio_max":1.362,"pct_alto":0.0,"n_hexagonos":1,"area_ha":3.92}},{"type":"Feature","geometry":{"type":"Polygon","coordinates":[[[-71.84369,-36.84804],[-71.842611,-36.84818],[-71.844244,-36.847782],[-71.844941,-36.848422],[-71.84456,-36.84826],[-71.84369,-36.84804]]]},"properties":{"comuna":"San Ignacio","mancha_id":"16108-88b2d9085dfffff","clase":"Bajo","nivel_medio":1.28,"nivel_medio_min":1.28,"nivel_medio_max":1.28,"pct_alto":3.1,"n_hexagonos":1,"area_ha":0.34}},{"type":"Feature","geometry":{"type":"Polygon","coordinates":[[[-71.839475,-36.849306],[-71.838839,-36.849598],[-71.839069,-36.849044],[-71.841889,-36.848356],[-71.84069,-36.84889],[-71.839475,-36.849306]]]},"properties":{"comuna":"San Ignacio","mancha_id":"16108-88b2d9085dfffff-2","clase":"Bajo","nivel_medio":1.28,"nivel_medio_min":1.28,"nivel_medio_max":1.28,"pct_alto":3.1,"n_hexagonos":1,"area_ha":0.72}},{"type":"Feature","geometry":{"type":"Polygon","coordinates":[[[-71.848257,-36.850716],[-71.852785,-36.849611],[-71.853657,-36.850412],[-71.85282,-36.85061],[-71.85148,-36.85083],[-71.85019,-36.85094],[-71.84913,-36.85093],[-71.848257,-36.850716]]]},"properties":{"comuna":"San Ignacio","mancha_id":"16108-88b2d90843fffff","clase":"Bajo","nivel_medio":1.312,"nivel_medio_min":1.312,"nivel_medio_max":1.312,"pct_alto":0.7,"n_hexagonos":1,"area_ha":3.46}},{"type":"Feature","geometry":{"type":"Polygon","coordinates":[[[-71.789935,-36.821911],[-71.784765,-36.823171],[-71.783958,-36.822428],[-71.78501,-36.8224],[-71.78509,-36.8224],[-71.786,-36.82199],[-71.78744,-36.82186],[-71.78888,-36.82183],[-71.78925,-36.82182],[-71.789956,-36.821862],[-71.789935,-36.821911]]]},"properties":{"comuna":"San Ignacio","mancha_id":"16108-88b2d9013dfffff","clase":"Bajo","nivel_medio":1.234,"nivel_medio_min":1.234,"nivel_medio_max":1.234,"pct_alto":4.2,"n_hexagonos":1,"area_ha":3.27}},{"type":"Feature","geometry":{"type":"Polygon","coordinates":[[[-71.758359,-36.819665],[-71.757375,-36.822024],[-71.757149,-36.822079],[-71.7566,-36.82176],[-71.75639,-36.82022],[-71.75673,-36.81954],[-71.75704,-36.81941],[-71.75798,-36.81947],[-71.758359,-36.819665]]]},"properties":{"comuna":"San Ignacio","mancha_id":"16108-88b2d90113fffff","clase":"Bajo","nivel_medio":1.382,"nivel_medio_min":1.382,"nivel_medio_max":1.382,"pct_alto":0.0,"n_hexagonos":1,"area_ha":3.42}},{"type":"Feature","geometry":{"type":"Polygon","coordinates":[[[-71.75868,-36.82297],[-71.757925,-36.822531],[-71.757149,-36.822079],[-71.757375,-36.822024],[-71.758359,-36.819665],[-71.75942,-36.82021],[-71.76032,-36.82022],[-71.76139,-36.82061],[-71.76215,-36.82089],[-71.76316,-36.82115],[-71.76408,-36.82124],[-71.7648,-36.82107],[-71.76583,-36.82088],[-71.76707,-36.82084],[-71.767157,-36.82084],[-71.76778,-36.82084],[-71.76867,-36.82084],[-71.76902,-36.82095],[-71.76946,-36.82112],[-71.76993,-36.82129],[-71.77053,-36.82171],[-71.77164,-36.82219],[-71.77315,-36.82262],[-71.77432,-36.82284],[-71.775,-36.82288],[-71.775581,-36.822916],[-71.77596,-36.82294],[-71.77765,-36.8228],[-71.77874,-36.82259],[-71.77926,-36.82245],[-71.78001,-36.82234],[-71.78074,-36.82256],[-71.78155,-36.82281],[-71.78225,-36.82286],[-71.78324,-36.8226],[-71.78387,-36.82243],[-71.783958,-36.822428],[-71.784765,-36.823171],[-71.789935,-36.821911],[-71.789956,-36.821862],[-71.79009,-36.82187],[-71.79034,-36.82169],[-71.7907,-36.82137],[-71.79106,-36.82104],[-71.79131,-36.82081],[-71.79189,-36.82079],[-71.79317,-36.81997],[-71.79407,-36.8197],[-71.79471,-36.81974],[-71.79515,-36.81959],[-71.79568,-36.81911],[-71.79825,-36.81836],[-71.798657,-36.817901],[-71.79957,-36.81687],[-71.80027,-36.81647],[-71.80067,-36.81602],[-71.80112,-36.81561],[-71.80197,-36.81542],[-71.803,-36.8154],[-71.80362,-36.81514],[-71.80406,-36.81514],[-71.80514,-36.81543],[-71.80615,-36.81569],[-71.806434,-36.815757],[-71.80751,-36.81601],[-71.80835,-36.81618],[-71.80932,-36.8165],[-71.80982,-36.81647],[-71.81035,-36.81658],[-71.81045,-36.81649],[-71.81091,-36.81577],[-71.81146,-36.81528],[-71.81305,-36.81463],[-71.815035,-36.817415],[-71.81506,-36.81745],[-71.814956,-36.817605],[-71.8149,-36.81769],[-71.81428,-36.81815],[-71.81377,-36.81846],[-71.81359,-36.81875],[-71.81348,-36.81909],[-71.81339,-36.81933],[-71.813225,-36.820143],[-71.81322,-36.82017],[-71.81323,-36.82094],[-71.81332,-36.82272],[-71.81331,-36.82303],[-71.816757,-36.824448],[-71.81754,-36.82477],[-71.81861,-36.82416],[-71.81948,-36.8238],[-71.82011,-36.8237],[-71.8213,-36.82368],[-71.82146,-36.82367],[-71.822855,-36.829527],[-71.82344,-36.83198],[-71.82396,-36.83169],[-71.82508,-36.83154],[-71.82592,-36.83157],[-71.826596,-36.831563],[-71.82688,-36.83156],[-71.82881,-36.83148],[-71.83002,-36.83136],[-71.83193,-36.83079],[-71.83283,-36.83041],[-71.832871,-36.830402],[-71.83373,-36.83024],[-71.83405,-36.82994],[-71.83454,-36.8297],[-71.83531,-36.82955],[-71.8354,-36.82917],[-71.8357,-36.82856],[-71.83604,-36.82825],[-71.83671,-36.82794],[-71.83778,-36.82763],[-71.83869,-36.82752],[-71.83913,-36.82737],[-71.83987,-36.82625],[-71.840112,-36.825937],[-71.84038,-36.82559],[-71.84123,-36.82492],[-71.84205,-36.82456],[-71.84304,-36.8242],[-71.84359,-36.82384],[-71.84377,-36.82342],[-71.84414,-36.8232],[-71.84475,-36.82273],[-71.84506,-36.82223],[-71.84529,-36.82164],[-71.84565,-36.82112],[-71.84729,-36.82065],[-71.847354,-36.82056],[-71.84775,-36.82],[-71.84809,-36.81974],[-71.84879,-36.81965],[-71.84977,-36.81889],[-71.85027,-36.81878],[-71.85063,-36.81843],[-71.85088,-36.81827],[-71.85135,-36.81811],[-71.85165,-36.81803],[-71.85187,-36.81774],[-71.85226,-36.81754],[-71.8527,-36.81766],[-71.85335,-36.81818],[-71.85383,-36.81782],[-71.85515,-36.8172],[-71.8555,-36.81666],[-71.8559,-36.81643],[-71.855937,-36.816415],[-71.85632,-36.81626],[-71.85643,-36.81613],[-71.85661,-36.8159],[-71.85659,-36.81554],[-71.85648,-36.81508],[-71.85609,-36.81487],[-71.85612,-36.81471],[-71.85613,-36.81464],[-71.85701,-36.81395],[-71.85711,-36.8138],[-71.85725,-36.81355],[-71.85644,-36.81216],[-71.85632,-36.8119],[-71.85615,-36.81145],[-71.856533,-36.811193],[-71.856815,-36.811007],[-71.85711,-36.81096],[-71.85744,-36.81092],[-71.857897,-36.810931],[-71.858145,-36.810779],[-71.858345,-36.810593],[-71.858586,-36.810435],[-71.858875,-36.810373],[-71.85912,-36.81029],[-71.859413,-36.810111],[-71.85973,-36.80981],[-71.86004,-36.809684],[-71.860315,-36.809656],[-71.860498,-36.809783],[-71.860639,-36.809973],[-71.860846,-36.810083],[-71.861087,-36.810111],[-71.86141,-36.81006],[-71.86181,-36.80996],[-71.861944,-36.809904],[-71.86224,-36.80978],[-71.863484,-36.809428],[-71.863845,-36.809278],[-71.864085,-36.809022],[-71.864221,-36.808767],[-71.864371,-36.808556],[-71.864717,-36.808496],[-71.86507,-36.8086],[-71.86562,-36.80885],[-71.86588,-36.8089],[-71.86631,-36.80866],[-71.86659,-36.80844],[-71.86744,-36.80781],[-71.86825,-36.807],[-71.8689,-36.80675],[-71.8695,-36.80632],[-71.870159,-36.806136],[-71.870769,-36.80598],[-71.870866,-36.806069],[-71.876038,-36.804804],[-71.876585,-36.803485],[-71.87707,-36.80333],[-71.87758,-36.80332],[-71.87805,-36.80325],[-71.87885,-36.8032],[-71.8792,-36.80293],[-71.88012,-36.80223],[-71.88047,-36.80176],[-71.88063,-36.80131],[-71.88084,-36.80104],[-71.88102,-36.80089],[-71.88152,-36.80073],[-71.88188,-36.80052],[-71.8823,-36.80019],[-71.88283,-36.79965],[-71.883165,-36.799321],[-71.88332,-36.79917],[-71.88389,-36.79875],[-71.88457,-36.79855],[-71.88494,-36.79872],[-71.88527,-36.7988],[-71.88584,-36.79846],[-71.88667,-36.79818],[-71.88735,-36.79787],[-71.88767,-36.79772],[-71.88789,-36.79768],[-71.8881,-36.79762],[-71.88847,-36.79758],[-71.88869,-36.79763],[-71.88909,-36.79765],[-71.88931,-36.79765],[-71.8897,-36.79752],[-71.88995,-36.7974],[-71.8902,-36.7973],[-71.89042,-36.79727],[-71.8906,-36.79721],[-71.89103,-36.79714],[-71.892,-36.79676],[-71.89258,-36.79657],[-71.89305,-36.79653],[-71.893222,-36.796526],[-71.89352,-36.79652],[-71.89399,-36.79636],[-71.89438,-36.79609],[-71.89488,-36.7959],[-71.89541,-36.79551],[-71.895914,-36.795055],[-71.896176,-36.79477],[-71.89644,-36.79469],[-71.89677,-36.79468],[-71.897292,-36.794701],[-71.89749,-36.79464],[-71.89767,-36.79455],[-71.8978,-36.794386],[-71.897854,-36.794185],[-71.897977,-36.794093],[-71.898085,-36.79407],[-71.898276,-36.794044],[-71.89842,-36.794],[-71.898647,-36.793978],[-71.898831,-36.793978],[-71.89903,-36.79393],[-71.899159,-36.793879],[-71.899239,-36.793847],[-71.899409,-36.793716],[-71.899835,-36.793385],[-71.90024,-36.79311],[-71.90081,-36.79274],[-71.90121,-36.792607],[-71.901464,-36.792523],[-71.90174,-36.79251],[-71.902203,-36.79253],[-71.90258,-36.792546],[-71.902811,-36.792538],[-71.903058,-36.792392],[-71.903273,-36.792176],[-71.903481,-36.791976],[-71.903758,-36.791714],[-71.903904,-36.791676],[-71.90412,-36.79169],[-71.9047,-36.7918],[-71.90603,-36.79229],[-71.90666,-36.79242],[-71.90688,-36.79245],[-71.90732,-36.79227],[-71.907825,-36.791889],[-71.90785,-36.79187],[-71.90824,-36.79163],[-71.90839,-36.7916],[-71.90886,-36.79153],[-71.90918,-36.79143],[-71.90939,-36.79128],[-71.90967,-36.79098],[-71.90995,-36.79065],[-71.910236,-36.790492],[-71.910414,-36.79043],[-71.91063,-36.790412],[-71.910821,-36.79032],[-71.911092,-36.79011],[-71.91135,-36.79],[-71.91164,-36.78997],[-71.91189,-36.78996],[-71.9122,-36.790012],[-71.912521,-36.790098],[-71.912705,-36.790104],[-71.912816,-36.79011],[-71.912927,-36.790055],[-71.913001,-36.789913],[-71.913069,-36.789747],[-71.913136,-36.789507],[-71.913186,-36.789365],[-71.913297,-36.789211],[-71.91343,-36.78916],[-71.913629,-36.789051],[-71.91385,-36.78892],[-71.9141,-36.7887],[-71.9142,-36.78847],[-71.91429,-36.78797],[-71.91435,-36.7877],[-71.914436,-36.787634],[-71.91453,-36.78761],[-71.91466,-36.78759],[-71.9148,-36.78762],[-71.91503,-36.78773],[-71.91548,-36.78787],[-71.91559,-36.787875],[-71.91595,-36.78789],[-71.91633,-36.78783],[-71.91674,-36.78771],[-71.9172,-36.78751],[-71.91778,-36.7873],[-71.91824,-36.78719],[-71.91859,-36.78719],[-71.91894,-36.78723],[-71.91964,-36.78705],[-71.9202,-36.78669],[-71.9207,-36.78636],[-71.921103,-36.786033],[-71.92123,-36.78593],[-71.92144,-36.78558],[-71.92164,-36.78546],[-71.92184,-36.78539],[-71.92216,-36.78531],[-71.92267,-36.7853],[-71.92306,-36.78524],[-71.92346,-36.78513],[-71.9237,-36.78501],[-71.92425,-36.78462],[-71.92442,-36.78459],[-71.92456,-36.78458],[-71.92488,-36.78457],[-71.92543,-36.78446],[-71.92567,-36.78428],[-71.92608,-36.78391],[-71.92628,-36.78382],[-71.92715,-36.7837],[-71.92764,-36.78362],[-71.92858,-36.7837],[-71.92939,-36.78376],[-71.93019,-36.7839],[-71.93081,-36.78405],[-71.931091,-36.784114],[-71.93225,-36.78438],[-71.9328,-36.78441],[-71.93352,-36.78421],[-71.9339,-36.78393],[-71.93409,-36.78368],[-71.93416,-36.7834],[-71.93407,-36.7831],[-71.93404,-36.78284],[-71.934051,-36.782773],[-71.93407,-36.78266],[-71.93432,-36.78223],[-71.93477,-36.7817],[-71.93495,-36.78148],[-71.93535,-36.78129],[-71.93559,-36.78119],[-71.93597,-36.78116],[-71.9363,-36.78114],[-71.93687,-36.78114],[-71.936961,-36.781161],[-71.93755,-36.7813],[-71.93814,-36.78143],[-71.93855,-36.78141],[-71.93897,-36.7813],[-71.93936,-36.78119],[-71.93971,-36.78081],[-71.94004,-36.78036],[-71.94035,-36.78013],[-71.94055,-36.78003],[-71.94104,-36.77994],[-71.94181,-36.77992],[-71.942311,-36.77992],[-71.942585,-36.779964],[-71.94273,-36.780012],[-71.943023,-36.780103],[-71.943191,-36.780085],[-71.94328,-36.78005],[-71.94362,-36.77986],[-71.94408,-36.77955],[-71.94426,-36.77953],[-71.944567,-36.779558],[-71.944857,-36.779458],[-71.94502,-36.77931],[-71.9453,-36.779],[-71.9455,-36.77857],[-71.94543,-36.77834],[-71.945301,-36.778165],[-71.94526,-36.77811],[-71.94521,-36.77788],[-71.94525,-36.77774],[-71.94541,-36.77762],[-71.94553,-36.77763],[-71.94574,-36.77772],[-71.94621,-36.77794],[-71.94665,-36.77818],[-71.94716,-36.77831],[-71.947445,-36.778323],[-71.94775,-36.77826],[-71.94815,-36.77801],[-71.948369,-36.777915],[-71.948617,-36.777872],[-71.94892,-36.77789],[-71.94939,-36.7779],[-71.94973,-36.77785],[-71.95003,-36.77778],[-71.95034,-36.77771],[-71.95074,-36.77768],[-71.95119,-36.77767],[-71.95178,-36.77762],[-71.952511,-36.777283],[-71.95256,-36.77726],[-71.95312,-36.77708],[-71.95381,-36.77703],[-71.95442,-36.77692],[-71.95468,-36.7769],[-71.95503,-36.77692],[-71.95544,-36.777],[-71.95564,-36.77702],[-71.95614,-36.77682],[-71.95648,-36.77653],[-71.95673,-36.77606],[-71.95699,-36.7758],[-71.95737,-36.77557],[-71.95733,-36.77536],[-71.95739,-36.77495],[-71.95757,-36.77463],[-71.95791,-36.77437],[-71.95833,-36.77427],[-71.95871,-36.77404],[-71.95906,-36.77394],[-71.95948,-36.7738],[-71.95963,-36.77355],[-71.959715,-36.773345],[-71.95984,-36.77304],[-71.96007,-36.77288],[-71.96046,-36.77284],[-71.96088,-36.7728],[-71.96123,-36.77266],[-71.96145,-36.77241],[-71.96182,-36.77177],[-71.96208,-36.77158],[-71.96243,-36.7716],[-71.96274,-36.77162],[-71.96328,-36.77145],[-71.96363,-36.77132],[-71.96373,-36.77113],[-71.96373,-36.77097],[-71.96352,-36.77073],[-71.96336,-36.77058],[-71.96331,-36.77017],[-71.96365,-36.76982],[-71.96374,-36.76922],[-71.96387,-36.76862],[-71.96389,-36.76822],[-71.96437,-36.76755],[-71.96441,-36.767496],[-71.96508,-36.76659],[-71.96521,-36.76609],[-71.9654,-36.76586],[-71.96559,-36.76576],[-71.96613,-36.76569],[-71.96644,-36.76574],[-71.9666,-36.765687],[-71.96683,-36.76561],[-71.96725,-36.76541],[-71.96811,-36.76467],[-71.9689,-36.76387],[-71.96943,-36.76354],[-71.96982,-36.7635],[-71.97017,-36.76349],[-71.97059,-36.76339],[-71.97078,-36.76319],[-71.97096,-36.76275],[-71.97137,-36.76237],[-71.97179,-36.76214],[-71.97217,-36.76207],[-71.97276,-36.76208],[-71.97298,-36.76192],[-71.973155,-36.761626],[-71.97317,-36.7616],[-71.97322,-36.76104],[-71.973283,-36.760761],[-71.97342,-36.76016],[-71.97338,-36.75913],[-71.97347,-36.75853],[-71.97368,-36.75787],[-71.97383,-36.75755],[-71.97386,-36.75733],[-71.97397,-36.75714],[-71.974325,-36.756693],[-71.97486,-36.75602],[-71.97526,-36.75539],[-71.97544,-36.75501],[-71.97554,-36.7546],[-71.97567,-36.75403],[-71.97572,-36.75388],[-71.97593,-36.75365],[-71.97601,-36.75349],[-71.97593,-36.75321],[-71.97592,-36.75306],[-71.97603,-36.75283],[-71.9765,-36.75253],[-71.97669,-36.75244],[-71.97702,-36.75247],[-71.9772,-36.75266],[-71.97748,-36.75283],[-71.97769,-36.75286],[-71.9779,-36.75285],[-71.97805,-36.7527],[-71.97894,-36.75175],[-71.97932,-36.75142],[-71.97978,-36.75123],[-71.98016,-36.751],[-71.98079,-36.750601],[-71.98087,-36.75055],[-71.9814,-36.75],[-71.98155,-36.74985],[-71.98205,-36.74893],[-71.98293,-36.74783],[-71.98386,-36.74726],[-71.98513,-36.74689],[-71.98597,-36.74663],[-71.98624,-36.74664],[-71.98671,-36.74687],[-71.98698,-36.74696],[-71.98733,-36.74692],[-71.98788,-36.74675],[-71.988427,-36.746596],[-71.99012,-36.74612],[-71.99088,-36.74604],[-71.99135,-36.74631],[-71.99196,-36.74642],[-71.99254,-36.7467],[-71.99326,-36.74709],[-71.99371,-36.747],[-71.99414,-36.74682],[-71.99456,-36.74665],[-71.99485,-36.74669],[-71.99557,-36.74753],[-71.996823,-36.748774],[-71.99694,-36.74889],[-71.997989,-36.749533],[-71.99875,-36.75],[-71.999401,-36.75034],[-71.999794,-36.750471],[-72.0,-36.750484],[-72.000327,-36.750503],[-72.00057,-36.75045],[-72.00118,-36.75005],[-72.001269,-36.75],[-72.001388,-36.749933],[-72.00175,-36.74975],[-72.00232,-36.74946],[-72.00347,-36.74905],[-72.004786,-36.748536],[-72.005826,-36.749486],[-72.010999,-36.748214],[-72.011524,-36.746941],[-72.01188,-36.74701],[-72.0136,-36.74725],[-72.01437,-36.74726],[-72.01487,-36.74716],[-72.01553,-36.7469],[-72.01603,-36.74661],[-72.01652,-36.74643],[-72.01811,-36.74618],[-72.01901,-36.74602],[-72.01964,-36.74579],[-72.0202,-36.74536],[-72.020806,-36.745174],[-72.021346,-36.745667],[-72.025562,-36.744629],[-72.02596,-36.74474],[-72.0271,-36.74495],[-72.027133,-36.744954],[-72.029897,-36.747479],[-72.028101,-36.751838],[-72.031479,-36.754924],[-72.036654,-36.75365],[-72.03845,-36.74929],[-72.035071,-36.746205],[-72.035448,-36.745289],[-72.03703,-36.74569],[-72.037964,-36.745918],[-72.03842,-36.74603],[-72.03921,-36.74623],[-72.04037,-36.74639],[-72.04127,-36.74641],[-72.04227,-36.74622],[-72.04301,-36.74617],[-72.0441,-36.74596],[-72.044515,-36.745852],[-72.043625,-36.748015],[-72.047004,-36.751101],[-72.052179,-36.749826],[-72.052919,-36.748029],[-72.05304,-36.74819],[-72.05303,-36.74855],[-72.05289,-36.74953],[-72.05311,-36.74994],[-72.053225,-36.75],[-72.053681,-36.750238],[-72.05445,-36.75051],[-72.05509,-36.75052],[-72.055272,-36.750488],[-72.05566,-36.75042],[-72.055897,-36.750293],[-72.056431,-36.75],[-72.056546,-36.749937],[-72.057087,-36.749644],[-72.057485,-36.74939],[-72.057788,-36.749203],[-72.058023,-36.749013],[-72.058332,-36.748733],[-72.05898,-36.748143],[-72.058988,-36.748136],[-72.05913,-36.748018],[-72.05972,-36.74753],[-72.06019,-36.74726],[-72.06103,-36.74677],[-72.061626,-36.74645],[-72.062064,-36.746215],[-72.062844,-36.745903],[-72.063502,-36.745658],[-72.064205,-36.745669],[-72.064807,-36.745736],[-72.06541,-36.74586],[-72.0662,-36.745948],[-72.066791,-36.745892],[-72.06723,-36.74576],[-72.067964,-36.745371],[-72.06825,-36.74522],[-72.069724,-36.744364],[-72.070482,-36.743952],[-72.07118,-36.7436],[-72.071564,-36.74335],[-72.072,-36.74318],[-72.072492,-36.743071],[-72.07304,-36.74295],[-72.073247,-36.742859],[-72.0734,-36.74271],[-72.07416,-36.74204],[-72.07499,-36.74175],[-72.07584,-36.74171],[-72.076149,-36.741706],[-72.07665,-36.7417],[-72.07756,-36.74151],[-72.07895,-36.7411],[-72.08113,-36.74059],[-72.08148,-36.74028],[-72.08174,-36.7399],[-72.08208,-36.7394],[-72.08265,-36.73893],[-72.08352,-36.73863],[-72.084749,-36.738483],[-72.08486,-36.73847],[-72.08624,-36.73816],[-72.08747,-36.73769],[-72.08789,-36.73753],[-72.08828,-36.73747],[-72.08891,-36.73747],[-72.08946,-36.73746],[-72.08985,-36.73736],[-72.090664,-36.736953],[-72.09077,-36.7369],[-72.09156,-36.73669],[-72.0928,-36.73663],[-72.09355,-36.73669],[-72.093818,-36.736677],[-72.09419,-36.73666],[-72.09529,-36.73649],[-72.09636,-36.73637],[-72.0974,-36.73602],[-72.09896,-36.73512],[-72.10005,-36.73474],[-72.100257,-36.734701],[-72.10178,-36.73441],[-72.10282,-36.7343],[-72.10325,-36.73434],[-72.10392,-36.73459],[-72.10488,-36.73498],[-72.10606,-36.73514],[-72.10701,-36.73508],[-72.108098,-36.734856],[-72.109115,-36.735782],[-72.114292,-36.734504],[-72.116083,-36.730141],[-72.115296,-36.729424],[-72.1157,-36.72943],[-72.116148,-36.729451],[-72.116549,-36.729539],[-72.116921,-36.729663],[-72.117293,-36.729843],[-72.11737,-36.72988],[-72.11826,-36.73045],[-72.119103,-36.731085],[-72.119406,-36.731188],[-72.11978,-36.73128],[-72.120247,-36.731254],[-72.12058,-36.73119],[-72.121059,-36.73104],[-72.12153,-36.73086],[-72.12219,-36.73054],[-72.122706,-36.73018],[-72.12295,-36.73001],[-72.123812,-36.729535],[-72.124129,-36.729373],[-72.12468,-36.72911],[-72.12531,-36.728967],[-72.125812,-36.728878],[-72.126387,-36.728878],[-72.12697,-36.728959],[-72.12768,-36.72928],[-72.12824,-36.72987],[-72.128665,-36.730953],[-72.12879,-36.73127],[-72.12932,-36.73193],[-72.12985,-36.73239],[-72.13044,-36.73262],[-72.130821,-36.732729],[-72.131218,-36.732793],[-72.131725,-36.73283],[-72.13226,-36.732913],[-72.132296,-36.732919],[-72.133119,-36.733669],[-72.13319,-36.73379],[-72.133192,-36.733793],[-72.133284,-36.733946],[-72.13347,-36.73409],[-72.133824,-36.734225],[-72.13423,-36.73438],[-72.13418,-36.73491],[-72.13413,-36.73547],[-72.1341,-36.7361],[-72.1341,-36.73621],[-72.13402,-36.73681],[-72.1339,-36.73703],[-72.13364,-36.73757],[-72.13362,-36.73759],[-72.132679,-36.739261],[-72.131419,-36.738114],[-72.126241,-36.739393],[-72.12445,-36.743756],[-72.127838,-36.746841],[-72.126047,-36.751204],[-72.127815,-36.752814],[-72.1276,-36.75387],[-72.12766,-36.7553],[-72.1275,-36.75628],[-72.12723,-36.75722],[-72.12698,-36.75774],[-72.12661,-36.75817],[-72.12584,-36.75885],[-72.12539,-36.75919],[-72.125355,-36.759218],[-72.122464,-36.759931],[-72.120672,-36.764295],[-72.115492,-36.765573],[-72.1137,-36.769937],[-72.117088,-36.773023],[-72.115295,-36.777386],[-72.116599,-36.778574],[-72.11648,-36.77879],[-72.11584,-36.78016],[-72.11416,-36.78348],[-72.1138,-36.78441],[-72.11348,-36.78522],[-72.113208,-36.785745],[-72.111709,-36.786114],[-72.109916,-36.790478],[-72.104734,-36.791755],[-72.101347,-36.788668],[-72.096166,-36.789945],[-72.092779,-36.786858],[-72.087598,-36.788134],[-72.085804,-36.792497],[-72.080623,-36.793773],[-72.078828,-36.798136],[-72.082214,-36.801223],[-72.087395,-36.799948],[-72.08919,-36.795584],[-72.094371,-36.794308],[-72.097759,-36.797395],[-72.102941,-36.796119],[-72.106329,-36.799206],[-72.111511,-36.797929],[-72.112551,-36.795398],[-72.11273,-36.79523],[-72.11319,-36.79482],[-72.11376,-36.79424],[-72.11442,-36.79381],[-72.11476,-36.79365],[-72.11513,-36.79363],[-72.11564,-36.7937],[-72.11619,-36.79371],[-72.11728,-36.7936],[-72.1179,-36.79325],[-72.11842,-36.79304],[-72.11872,-36.79274],[-72.11885,-36.792618],[-72.11907,-36.79241],[-72.11943,-36.79231],[-72.12004,-36.79227],[-72.12047,-36.79243],[-72.12071,-36.79263],[-72.12095,-36.793],[-72.12146,-36.7934],[-72.12191,-36.79374],[-72.1225,-36.79405],[-72.12327,-36.79419],[-72.12387,-36.79415],[-72.12453,-36.79396],[-72.12503,-36.79387],[-72.12563,-36.79376],[-72.12631,-36.79346],[-72.12687,-36.79318],[-72.12728,-36.79306],[-72.12747,-36.793096],[-72.12781,-36.79316],[-72.12876,-36.79326],[-72.12905,-36.79307],[-72.12948,-36.79256],[-72.1299,-36.79229],[-72.1305,-36.79207],[-72.13129,-36.79194],[-72.13194,-36.79194],[-72.13237,-36.79174],[-72.1333,-36.79124],[-72.13403,-36.79107],[-72.13463,-36.79128],[-72.1352,-36.79165],[-72.13582,-36.7917],[-72.13652,-36.79124],[-72.136883,-36.791047],[-72.13729,-36.79083],[-72.13966,-36.79014],[-72.1403,-36.78976],[-72.14102,-36.7893],[-72.14168,-36.78902],[-72.14243,-36.7889],[-72.14315,-36.78868],[-72.143287,-36.788609],[-72.1438,-36.78834],[-72.14437,-36.788],[-72.14456,-36.78792],[-72.14475,-36.78792],[-72.14494,-36.7879],[-72.1452,-36.78786],[-72.1456,-36.7876],[-72.14601,-36.78722],[-72.146259,-36.787005],[-72.147593,-36.789178],[-72.14826,-36.78941],[-72.14836,-36.789801],[-72.1493,-36.792534],[-72.150017,-36.79462],[-72.14671,-36.79561],[-72.149521,-36.800327],[-72.147601,-36.800801],[-72.145809,-36.805167],[-72.149202,-36.808254],[-72.151743,-36.807628],[-72.15114,-36.80819],[-72.15076,-36.80884],[-72.15111,-36.80869],[-72.15173,-36.80861],[-72.15228,-36.8088],[-72.15236,-36.80885],[-72.15269,-36.80904],[-72.15307,-36.80908],[-72.1535,-36.80894],[-72.15435,-36.80878],[-72.15563,-36.8083],[-72.155809,-36.808269],[-72.15615,-36.80821],[-72.15664,-36.80812],[-72.15719,-36.80793],[-72.15749,-36.80775],[-72.15815,-36.80777],[-72.15886,-36.80801],[-72.15925,-36.80806],[-72.15984,-36.80815],[-72.16028,-36.80841],[-72.16062,-36.80851],[-72.16098,-36.80843],[-72.16179,-36.80829],[-72.16228,-36.80832],[-72.16247,-36.80829],[-72.1627,-36.80793],[-72.16316,-36.80723],[-72.163776,-36.806811],[-72.16388,-36.80674],[-72.16451,-36.80637],[-72.165121,-36.806234],[-72.167614,-36.811562],[-72.16765,-36.81164],[-72.170634,-36.818668],[-72.172916,-36.824044],[-72.175185,-36.823901],[-72.175304,-36.824174],[-72.176032,-36.825843],[-72.175245,-36.825943],[-72.173926,-36.82611],[-72.17482,-36.82747],[-72.17637,-36.83109],[-72.176773,-36.831965],[-72.176366,-36.832958],[-72.171177,-36.834238],[-72.169386,-36.838606],[-72.172783,-36.841695],[-72.176249,-36.84084],[-72.176671,-36.840949],[-72.178057,-36.840492],[-72.180317,-36.839748],[-72.182043,-36.843338],[-72.18303,-36.84539],[-72.185371,-36.850372],[-72.18725,-36.85437],[-72.188629,-36.857425],[-72.19046,-36.86148],[-72.19021,-36.8618],[-72.18957,-36.86212],[-72.189077,-36.862248],[-72.190282,-36.864873],[-72.19039,-36.865108],[-72.191514,-36.864716],[-72.192025,-36.864537],[-72.192398,-36.865519],[-72.19335,-36.86802],[-72.194044,-36.869508],[-72.19454,-36.87057],[-72.196642,-36.875092],[-72.19918,-36.88055],[-72.199878,-36.882153],[-72.20278,-36.88882],[-72.202251,-36.88892],[-72.201794,-36.889138],[-72.20121,-36.88932],[-72.200796,-36.889408],[-72.20027,-36.88938],[-72.199907,-36.889306],[-72.199475,-36.889148],[-72.199129,-36.888928],[-72.198751,-36.888653],[-72.198602,-36.888361],[-72.198547,-36.887929],[-72.198397,-36.887552],[-72.19812,-36.88725],[-72.197987,-36.887082],[-72.197886,-36.886852],[-72.19787,-36.88666],[-72.198,-36.88622],[-72.19793,-36.88597],[-72.19771,-36.88572],[-72.19696,-36.88524],[-72.196938,-36.885228],[-72.19565,-36.88453],[-72.19507,-36.88421],[-72.194639,-36.884093],[-72.19376,-36.88388],[-72.19293,-36.88386],[-72.19225,-36.88401],[-72.19149,-36.88437],[-72.190922,-36.884594],[-72.19024,-36.88467],[-72.18946,-36.88492],[-72.18876,-36.88517],[-72.187983,-36.885499],[-72.18753,-36.88569],[-72.18678,-36.88615],[-72.18593,-36.88657],[-72.18444,-36.88696],[-72.1832,-36.88723],[-72.182026,-36.887432],[-72.18192,-36.88745],[-72.181182,-36.887605],[-72.180192,-36.888158],[-72.17878,-36.88879],[-72.17812,-36.88913],[-72.17725,-36.88936],[-72.17646,-36.8895],[-72.17542,-36.89007],[-72.17431,-36.89051],[-72.173871,-36.890671],[-72.17221,-36.89128],[-72.17149,-36.89142],[-72.17075,-36.89166],[-72.16974,-36.89216],[-72.16914,-36.89244],[-72.16888,-36.89265],[-72.16835,-36.8931],[-72.1677,-36.89342],[-72.16664,-36.89377],[-72.16566,-36.8938],[-72.165465,-36.893653],[-72.165316,-36.893541],[-72.164763,-36.893357],[-72.163804,-36.893492],[-72.162956,-36.893799],[-72.162293,-36.89402],[-72.161432,-36.894401],[-72.160707,-36.894401],[-72.160117,-36.894242],[-72.159552,-36.894279],[-72.159024,-36.894365],[-72.158507,-36.894598],[-72.158429,-36.894632],[-72.157991,-36.894819],[-72.157696,-36.895028],[-72.157352,-36.895274],[-72.156897,-36.895409],[-72.156381,-36.895594],[-72.156013,-36.895839],[-72.155287,-36.896233],[-72.154759,-36.896515],[-72.154341,-36.896773],[-72.154071,-36.897167],[-72.15403,-36.89781],[-72.15345,-36.89837],[-72.15257,-36.89927],[-72.15164,-36.89981],[-72.151216,-36.900072],[-72.151095,-36.900147],[-72.150158,-36.9005],[-72.149682,-36.900731],[-72.148944,-36.900654],[-72.148238,-36.900592],[-72.147285,-36.900746],[-72.146456,-36.901023],[-72.145795,-36.901176],[-72.144981,-36.901361],[-72.144443,-36.901407],[-72.143906,-36.901499],[-72.143578,-36.90147],[-72.144279,-36.899764],[-72.149473,-36.898487],[-72.151267,-36.894118],[-72.147869,-36.891026],[-72.149663,-36.886658],[-72.146265,-36.883566],[-72.141073,-36.884843],[-72.139279,-36.889211],[-72.134086,-36.890488],[-72.132291,-36.894856],[-72.135688,-36.897948],[-72.134202,-36.901563],[-72.13355,-36.9016],[-72.13272,-36.90175],[-72.13206,-36.9019],[-72.13101,-36.90242],[-72.13024,-36.9028],[-72.12972,-36.90293],[-72.12845,-36.90277],[-72.127772,-36.902747],[-72.127201,-36.902728],[-72.125689,-36.902848],[-72.124657,-36.902944],[-72.123841,-36.9028],[-72.122665,-36.902223],[-72.121682,-36.901741],[-72.120424,-36.901698],[-72.12036,-36.901696],[-72.119993,-36.901668],[-72.118752,-36.901576],[-72.117192,-36.9016],[-72.115367,-36.901144],[-72.113903,-36.900784],[-72.112295,-36.900616],[-72.111125,-36.900923],[-72.110927,-36.900976],[-72.109799,-36.9016],[-72.10838,-36.90175],[-72.10723,-36.9019],[-72.10641,-36.90196],[-72.10561,-36.90214],[-72.10472,-36.90247],[-72.10303,-36.90278],[-72.10154,-36.90279],[-72.101447,-36.902787],[-72.101139,-36.902507],[-72.10014,-36.902752],[-72.09971,-36.90274],[-72.09874,-36.90291],[-72.09703,-36.90299],[-72.09616,-36.903],[-72.09534,-36.90298],[-72.094828,-36.902761],[-72.09471,-36.90271],[-72.094684,-36.902629],[-72.0946,-36.90237],[-72.09449,-36.90182],[-72.0943,-36.90123],[-72.09399,-36.90006],[-72.09385,-36.8995],[-72.09354,-36.89922],[-72.093232,-36.89904],[-72.09296,-36.89888],[-72.09248,-36.89853],[-72.09214,-36.89803],[-72.0917,-36.89772],[-72.09127,-36.8972],[-72.09091,-36.89668],[-72.09087,-36.89552],[-72.09056,-36.8949],[-72.090164,-36.894447],[-72.089443,-36.894207],[-72.088291,-36.894063],[-72.088024,-36.893949],[-72.087331,-36.893654],[-72.086646,-36.893031],[-72.086083,-36.892478],[-72.085099,-36.89207],[-72.083731,-36.892094],[-72.08329,-36.892243],[-72.08247,-36.89252],[-72.08182,-36.89275],[-72.080661,-36.893171],[-72.080226,-36.893894],[-72.07929,-36.894159],[-72.077562,-36.893991],[-72.076652,-36.89398],[-72.076601,-36.89398],[-72.075857,-36.894303],[-72.074369,-36.894711],[-72.072953,-36.895167],[-72.071897,-36.895671],[-72.071201,-36.896127],[-72.070216,-36.896343],[-72.069304,-36.896103],[-72.068488,-36.895671],[-72.067552,-36.894951],[-72.067131,-36.894445],[-72.067072,-36.894375],[-72.066208,-36.89387],[-72.065512,-36.893486],[-72.064792,-36.89243],[-72.063912,-36.891979],[-72.06284,-36.891611],[-72.06153,-36.89161],[-72.06068,-36.89187],[-72.06011,-36.89217],[-72.05949,-36.89297],[-72.05895,-36.89358],[-72.058631,-36.893777],[-72.058228,-36.893409],[-72.05381,-36.894492],[-72.05293,-36.894582],[-72.04965,-36.891589],[-72.044603,-36.892826],[-72.0446,-36.89274],[-72.04486,-36.89212],[-72.04505,-36.89148],[-72.04505,-36.89103],[-72.04496,-36.89062],[-72.04456,-36.89007],[-72.043956,-36.88991],[-72.04343,-36.889815],[-72.043068,-36.889646],[-72.042643,-36.889162],[-72.042214,-36.888927],[-72.041553,-36.888609],[-72.041364,-36.888518],[-72.040809,-36.88811],[-72.040359,-36.887906],[-72.03954,-36.887534],[-72.039109,-36.887152],[-72.038727,-36.886652],[-72.038384,-36.886354],[-72.03778,-36.886],[-72.0368,-36.88517],[-72.03519,-36.88407],[-72.0348,-36.88376],[-72.034638,-36.8835],[-72.03447,-36.88323],[-72.03447,-36.88261],[-72.034575,-36.882273],[-72.03446,-36.88181],[-72.03364,-36.88101],[-72.0328,-36.88058],[-72.03247,-36.88025],[-72.03224,-36.87979],[-72.03207,-36.87935],[-72.03198,-36.87844],[-72.031962,-36.877952],[-72.03195,-36.87764],[-72.03176,-36.87726],[-72.03144,-36.87682],[-72.03106,-36.87647],[-72.03051,-36.87616],[-72.02966,-36.8757],[-72.02836,-36.87498],[-72.027,-36.87432],[-72.025881,-36.873881],[-72.02486,-36.87348],[-72.02405,-36.87309],[-72.02369,-36.87285],[-72.02334,-36.87251],[-72.02323,-36.87214],[-72.02325,-36.87165],[-72.02346,-36.87116],[-72.02369,-36.87046],[-72.02385,-36.8698],[-72.02388,-36.86909],[-72.02371,-36.86864],[-72.0234,-36.86824],[-72.02287,-36.86783],[-72.022246,-36.867612],[-72.02178,-36.86745],[-72.02071,-36.86716],[-72.01917,-36.86686],[-72.01764,-36.8666],[-72.0168,-36.86632],[-72.01471,-36.8656],[-72.0138,-36.865493],[-72.01343,-36.86545],[-72.012809,-36.865461],[-72.011975,-36.865087],[-72.011214,-36.864958],[-72.01054,-36.865102],[-72.00998,-36.86543],[-72.009076,-36.865877],[-72.008229,-36.866436],[-72.006823,-36.866442],[-72.005173,-36.866781],[-72.003803,-36.867136],[-72.003761,-36.867147],[-72.003026,-36.866967],[-72.002344,-36.866698],[-72.00177,-36.866465],[-72.000963,-36.866429],[-72.000191,-36.866572],[-72.0,-36.866569],[-71.999187,-36.866555],[-71.997985,-36.866716],[-71.996676,-36.867164],[-71.996621,-36.86718],[-71.995431,-36.867523],[-71.994422,-36.867994],[-71.993122,-36.867837],[-71.992382,-36.867344],[-71.991709,-36.866963],[-71.990916,-36.866764],[-71.990812,-36.866738],[-71.989872,-36.867018],[-71.989758,-36.867052],[-71.989063,-36.867501],[-71.98813,-36.86788],[-71.9865,-36.868],[-71.98524,-36.86787],[-71.984153,-36.86777],[-71.982897,-36.867478],[-71.981574,-36.867142],[-71.9807,-36.866963],[-71.98061,-36.866889],[-71.980096,-36.866469],[-71.979265,-36.865791],[-71.978074,-36.864817],[-71.977134,-36.864429],[-71.975381,-36.862792],[-71.975286,-36.862752],[-71.97413,-36.862276],[-71.973569,-36.86194],[-71.97314,-36.86103],[-71.972627,-36.860729],[-71.97178,-36.86067],[-71.97054,-36.86082],[-71.970038,-36.860894],[-71.969369,-36.860282],[-71.965012,-36.861348],[-71.964847,-36.861312],[-71.963879,-36.861268],[-71.96325,-36.86124],[-71.962037,-36.861175],[-71.96049,-36.86096],[-71.959622,-36.861155],[-71.958344,-36.861267],[-71.957268,-36.861267],[-71.956304,-36.860864],[-71.955452,-36.860393],[-71.955375,-36.860338],[-71.954891,-36.859989],[-71.954084,-36.859989],[-71.953165,-36.859743],[-71.952761,-36.858891],[-71.951842,-36.858263],[-71.9509,-36.857635],[-71.950244,-36.857126],[-71.9496,-36.856626],[-71.948748,-36.855908],[-71.947963,-36.85546],[-71.947425,-36.854989],[-71.94674,-36.85457],[-71.94538,-36.85434],[-71.94442,-36.8544],[-71.94379,-36.85458],[-71.94323,-36.85474],[-71.941919,-36.855245],[-71.94162,-36.85536],[-71.941057,-36.855505],[-71.940388,-36.855619],[-71.940272,-36.855639],[-71.939532,-36.855505],[-71.938568,-36.855348],[-71.938097,-36.855056],[-71.937581,-36.854518],[-71.93655,-36.853958],[-71.936114,-36.853879],[-71.935139,-36.852986],[-71.934535,-36.853134],[-71.9334,-36.85282],[-71.93233,-36.85261],[-71.93099,-36.85288],[-71.929686,-36.85337],[-71.929367,-36.853709],[-71.929087,-36.854007],[-71.92845,-36.854452],[-71.927716,-36.854625],[-71.92677,-36.854529],[-71.925766,-36.854278],[-71.925341,-36.853834],[-71.924704,-36.853583],[-71.923777,-36.853602],[-71.922773,-36.853679],[-71.921595,-36.853834],[-71.920694,-36.854147],[-71.920205,-36.854316],[-71.919433,-36.854664],[-71.91723,-36.85515],[-71.915938,-36.85532],[-71.914683,-36.855861],[-71.913544,-36.856402],[-71.912586,-36.856368],[-71.912443,-36.856363],[-71.911536,-36.856131],[-71.910674,-36.856149],[-71.909972,-36.856286],[-71.909566,-36.85646],[-71.908949,-36.856575],[-71.908118,-36.856363],[-71.907462,-36.856035],[-71.907107,-36.855922],[-71.906612,-36.855764],[-71.90567,-36.85582],[-71.905468,-36.855855],[-71.90409,-36.85609],[-71.90223,-36.85637],[-71.90138,-36.856344],[-71.900318,-36.856228],[-71.899314,-36.856421],[-71.898329,-36.856691],[-71.897344,-36.856923],[-71.896557,-36.857406],[-71.895838,-36.858081],[-71.895788,-36.858092],[-71.894892,-36.858275],[-71.893792,-36.858159],[-71.892343,-36.85783],[-71.89043,-36.85712],[-71.889003,-36.856575],[-71.888192,-36.856498],[-71.887497,-36.856247],[-71.887276,-36.856177],[-71.886454,-36.855919],[-71.885739,-36.855956],[-71.88462,-36.856112],[-71.88408,-36.856479],[-71.883462,-36.856653],[-71.882361,-36.856556],[-71.881531,-36.85644],[-71.88101,-36.856518],[-71.880469,-36.856479],[-71.879812,-36.856209],[-71.879322,-36.855847],[-71.879108,-36.855731],[-71.878418,-36.855098],[-71.878017,-36.855196],[-71.876426,-36.854592],[-71.875726,-36.854181],[-71.875026,-36.853916],[-71.873675,-36.853433],[-71.871358,-36.853143],[-71.869983,-36.853002],[-71.869717,-36.852974],[-71.868124,-36.852757],[-71.866555,-36.852805],[-71.865445,-36.852781],[-71.8637,-36.85228],[-71.86302,-36.85218],[-71.86239,-36.85204],[-71.86151,-36.85156],[-71.861332,-36.851432],[-71.86047,-36.85081],[-71.8591,-36.85019],[-71.85794,-36.84983],[-71.85573,-36.84992],[-71.853657,-36.850412],[-71.852785,-36.849611],[-71.848257,-36.850716],[-71.84811,-36.85068],[-71.84683,-36.84994],[-71.84583,-36.8488],[-71.844941,-36.848422],[-71.844244,-36.847782],[-71.842611,-36.84818],[-71.84215,-36.84824],[-71.841889,-36.848356],[-71.839069,-36.849044],[-71.838839,-36.849598],[-71.838582,-36.849716],[-71.83742,-36.85004],[-71.836772,-36.849933],[-71.836144,-36.849596],[-71.835734,-36.849065],[-71.834914,-36.848799],[-71.834093,-36.848485],[-71.833658,-36.848051],[-71.83329,-36.84762],[-71.832645,-36.846868],[-71.832494,-36.846735],[-71.832017,-36.846313],[-71.83126,-36.84583],[-71.83008,-36.84556],[-71.82895,-36.845633],[-71.828802,-36.845625],[-71.828107,-36.845589],[-71.82704,-36.84542],[-71.82606,-36.84493],[-71.82552,-36.8446],[-71.825332,-36.844569],[-71.82504,-36.84452],[-71.82456,-36.84458],[-71.82393,-36.84472],[-71.8226,-36.84475],[-71.82132,-36.84457],[-71.82106,-36.844525],[-71.82046,-36.84442],[-71.81945,-36.84427],[-71.81811,-36.84409],[-71.81576,-36.84393],[-71.813741,-36.843658],[-71.81343,-36.843616],[-71.811686,-36.843381],[-71.80999,-36.84309],[-71.80794,-36.84232],[-71.80697,-36.84183],[-71.805883,-36.841486],[-71.80498,-36.8412],[-71.803829,-36.840714],[-71.801562,-36.838628],[-71.79639,-36.839888],[-71.796363,-36.839953],[-71.79578,-36.83983],[-71.79331,-36.83912],[-71.79266,-36.83892],[-71.79208,-36.83889],[-71.79182,-36.83915],[-71.79173,-36.8395],[-71.79148,-36.84006],[-71.79118,-36.84045],[-71.79055,-36.84085],[-71.78986,-36.84095],[-71.78896,-36.84089],[-71.78788,-36.8404],[-71.78711,-36.83986],[-71.787107,-36.839858],[-71.78559,-36.83896],[-71.78245,-36.83665],[-71.781189,-36.83577],[-71.77984,-36.83483],[-71.77865,-36.83424],[-71.77781,-36.83407],[-71.77727,-36.834],[-71.776919,-36.834005],[-71.77657,-36.83401],[-71.77531,-36.83426],[-71.775269,-36.833302],[-71.77513,-36.83008],[-71.77433,-36.8296],[-71.77069,-36.82832],[-71.76897,-36.827635],[-71.76567,-36.82632],[-71.76238,-36.82519],[-71.761816,-36.824851],[-71.75868,-36.82297]],[[-71.853037,-36.837811],[-71.858212,-36.836548],[-71.86002,-36.832194],[-71.856655,-36.829103],[-71.851481,-36.830366],[-71.848116,-36.827275],[-71.842943,-36.828538],[-71.841134,-36.832891],[-71.844498,-36.835982],[-71.849672,-36.83472],[-71.853037,-36.837811]],[[-71.911769,-36.819546],[-71.915139,-36.822636],[-71.920315,-36.821369],[-71.923687,-36.824459],[-71.928863,-36.823192],[-71.930668,-36.818835],[-71.927296,-36.815746],[-71.92212,-36.817013],[-71.918749,-36.813923],[-71.913574,-36.81519],[-71.911769,-36.819546]],[[-71.935844,-36.817568],[-71.939217,-36.820658],[-71.944394,-36.81939],[-71.946197,-36.815032],[-71.942823,-36.811943],[-71.937647,-36.813211],[-71.935844,-36.817568]],[[-72.10653,-36.889406],[-72.108327,-36.885039],[-72.104933,-36.881947],[-72.099743,-36.883222],[-72.097946,-36.887588],[-72.101339,-36.89068],[-72.10653,-36.889406]],[[-72.143634,-36.833175],[-72.138447,-36.834453],[-72.136654,-36.838819],[-72.140048,-36.841909],[-72.145236,-36.840631],[-72.147029,-36.836264],[-72.143634,-36.833175]],[[-72.103936,-36.839024],[-72.105731,-36.834659],[-72.102341,-36.83157],[-72.104136,-36.827205],[-72.100746,-36.824116],[-72.095562,-36.825392],[-72.093766,-36.829756],[-72.097156,-36.832845],[-72.09536,-36.83721],[-72.090175,-36.838485],[-72.088379,-36.84285],[-72.091768,-36.84594],[-72.089972,-36.850305],[-72.093362,-36.853395],[-72.091566,-36.85776],[-72.094957,-36.860851],[-72.100144,-36.859576],[-72.10194,-36.85521],[-72.098549,-36.85212],[-72.100345,-36.847755],[-72.096954,-36.844665],[-72.09875,-36.8403],[-72.103936,-36.839024]],[[-72.074001,-36.877769],[-72.070612,-36.874677],[-72.065424,-36.87595],[-72.063625,-36.880315],[-72.067015,-36.883407],[-72.072203,-36.882134],[-72.074001,-36.877769]],[[-72.094755,-36.872673],[-72.089567,-36.873947],[-72.087769,-36.878313],[-72.091161,-36.881405],[-72.09635,-36.88013],[-72.098147,-36.875764],[-72.094755,-36.872673]],[[-72.055049,-36.878496],[-72.056848,-36.874132],[-72.05346,-36.87104],[-72.048274,-36.872312],[-72.046474,-36.876676],[-72.049862,-36.879768],[-72.055049,-36.878496]],[[-72.106727,-36.775578],[-72.10852,-36.771214],[-72.105133,-36.768129],[-72.099954,-36.769406],[-72.09816,-36.773769],[-72.101547,-36.776855],[-72.106727,-36.775578]],[[-72.091187,-36.779408],[-72.092981,-36.775045],[-72.089595,-36.771959],[-72.091389,-36.767597],[-72.088004,-36.764511],[-72.089798,-36.760149],[-72.094976,-36.758872],[-72.096769,-36.75451],[-72.101947,-36.753232],[-72.103739,-36.74887],[-72.100354,-36.745785],[-72.095177,-36.747062],[-72.093384,-36.751424],[-72.088207,-36.752701],[-72.086414,-36.757063],[-72.081236,-36.75834],[-72.079442,-36.762702],[-72.082826,-36.765787],[-72.081032,-36.77015],[-72.084416,-36.773236],[-72.082622,-36.777598],[-72.086007,-36.780685],[-72.091187,-36.779408]],[[-72.009904,-36.807242],[-72.008105,-36.811602],[-72.011484,-36.814691],[-72.016664,-36.813419],[-72.018463,-36.809058],[-72.015083,-36.80597],[-72.016882,-36.801609],[-72.02206,-36.800337],[-72.023859,-36.795977],[-72.029037,-36.794704],[-72.032418,-36.797792],[-72.03062,-36.802153],[-72.034001,-36.805241],[-72.032203,-36.809602],[-72.035585,-36.812691],[-72.040766,-36.811418],[-72.042564,-36.807056],[-72.047744,-36.805783],[-72.049541,-36.801421],[-72.054721,-36.800147],[-72.056518,-36.795785],[-72.061697,-36.794511],[-72.065081,-36.797598],[-72.070262,-36.796323],[-72.072057,-36.791961],[-72.077238,-36.790686],[-72.079033,-36.786323],[-72.075648,-36.783236],[-72.070468,-36.784512],[-72.068673,-36.788874],[-72.063493,-36.790149],[-72.06011,-36.787061],[-72.054931,-36.788336],[-72.053134,-36.792698],[-72.047955,-36.793972],[-72.044573,-36.790884],[-72.04637,-36.786523],[-72.042988,-36.783436],[-72.03781,-36.78471],[-72.036013,-36.78907],[-72.030835,-36.790343],[-72.027455,-36.787256],[-72.022277,-36.788529],[-72.020479,-36.792889],[-72.015301,-36.794161],[-72.011922,-36.791074],[-72.006745,-36.792345],[-72.004946,-36.796705],[-72.008324,-36.799793],[-72.006525,-36.804153],[-72.009904,-36.807242]],[[-71.999547,-36.809784],[-72.001347,-36.805424],[-71.997968,-36.802336],[-71.992791,-36.803607],[-71.99099,-36.807966],[-71.994368,-36.811055],[-71.999547,-36.809784]],[[-71.984012,-36.813596],[-71.985813,-36.809237],[-71.982436,-36.806148],[-71.977258,-36.807418],[-71.973882,-36.804329],[-71.968706,-36.805599],[-71.966904,-36.809957],[-71.97028,-36.813046],[-71.975457,-36.811777],[-71.978834,-36.814866],[-71.984012,-36.813596]],[[-71.989637,-36.788713],[-71.994813,-36.787442],[-71.996612,-36.783083],[-71.993236,-36.779995],[-71.988061,-36.781267],[-71.984685,-36.778179],[-71.97951,-36.77945],[-71.97771,-36.783808],[-71.981085,-36.786896],[-71.986261,-36.785625],[-71.989637,-36.788713]],[[-71.973202,-36.839752],[-71.97658,-36.842843],[-71.98176,-36.841573],[-71.983562,-36.837213],[-71.988743,-36.835944],[-71.990544,-36.831584],[-71.987165,-36.828494],[-71.981986,-36.829764],[-71.978608,-36.826674],[-71.973429,-36.827943],[-71.971627,-36.832302],[-71.975004,-36.835393],[-71.973202,-36.839752]],[[-71.956089,-36.836108],[-71.957892,-36.83175],[-71.954517,-36.828659],[-71.949339,-36.829928],[-71.947535,-36.834286],[-71.95091,-36.837376],[-71.956089,-36.836108]],[[-71.961498,-36.823033],[-71.9633,-36.818674],[-71.959925,-36.815585],[-71.961727,-36.811226],[-71.958352,-36.808137],[-71.953176,-36.809406],[-71.951373,-36.813764],[-71.954748,-36.816853],[-71.952945,-36.821211],[-71.95632,-36.824301],[-71.961498,-36.823033]],[[-72.057146,-36.760357],[-72.062322,-36.759082],[-72.064117,-36.754721],[-72.060736,-36.751636],[-72.05556,-36.752911],[-72.053765,-36.757272],[-72.057146,-36.760357]],[[-72.07247,-36.768339],[-72.067292,-36.769615],[-72.065497,-36.773977],[-72.06888,-36.777063],[-72.074059,-36.775787],[-72.075853,-36.771426],[-72.07247,-36.768339]]]},"properties":{"comuna":"San Ignacio","mancha_id":"16108-88b2d90117fffff","clase":"Medio","nivel_medio":2.108,"nivel_medio_min":1.504,"nivel_medio_max":2.5,"pct_alto":18.4,"n_hexagonos":606,"area_ha":32508.88}},{"type":"Feature","geometry":{"type":"Polygon","coordinates":[[[-72.075853,-36.771426],[-72.074059,-36.775787],[-72.06888,-36.777063],[-72.065497,-36.773977],[-72.067292,-36.769615],[-72.07247,-36.768339],[-72.075853,-36.771426]]]},"properties":{"comuna":"San Ignacio","mancha_id":"16108-88b2d9572bfffff","clase":"Alto","nivel_medio":2.594,"nivel_medio_min":2.594,"nivel_medio_max":2.594,"pct_alto":66.2,"n_hexagonos":1,"area_ha":60.33}},{"type":"Feature","geometry":{"type":"Polygon","coordinates":[[[-72.064117,-36.754721],[-72.062322,-36.759082],[-72.057146,-36.760357],[-72.053765,-36.757272],[-72.05556,-36.752911],[-72.060736,-36.751636],[-72.064117,-36.754721]]]},"properties":{"comuna":"San Ignacio","mancha_id":"16108-88b2d95709fffff","clase":"Alto","nivel_medio":2.565,"nivel_medio_min":2.565,"nivel_medio_max":2.565,"pct_alto":64.8,"n_hexagonos":1,"area_ha":60.3}},{"type":"Feature","geometry":{"type":"Polygon","coordinates":[[[-71.946197,-36.815032],[-71.944394,-36.81939],[-71.939217,-36.820658],[-71.935844,-36.817568],[-71.937647,-36.813211],[-71.942823,-36.811943],[-71.946197,-36.815032]]]},"properties":{"comuna":"San Ignacio","mancha_id":"16108-88b2d956b3fffff","clase":"Alto","nivel_medio":2.531,"nivel_medio_min":2.531,"nivel_medio_max":2.531,"pct_alto":33.8,"n_hexagonos":1,"area_ha":60.21}},{"type":"Feature","geometry":{"type":"Polygon","coordinates":[[[-72.025562,-36.744629],[-72.021346,-36.745667],[-72.020806,-36.745174],[-72.02098,-36.74512],[-72.02165,-36.74496],[-72.02223,-36.7447],[-72.02282,-36.74446],[-72.02355,-36.74431],[-72.02481,-36.74442],[-72.025562,-36.744629]]]},"properties":{"comuna":"San Ignacio","mancha_id":"16108-88b2d95661fffff","clase":"Alto","nivel_medio":2.643,"nivel_medio_min":2.643,"nivel_medio_max":2.643,"pct_alto":82.2,"n_hexagonos":1,"area_ha":2.73}},{"type":"Feature","geometry":{"type":"Polygon","coordinates":[[[-71.957892,-36.83175],[-71.956089,-36.836108],[-71.95091,-36.837376],[-71.947535,-36.834286],[-71.949339,-36.829928],[-71.954517,-36.828659],[-71.957892,-36.83175]]]},"properties":{"comuna":"San Ignacio","mancha_id":"16108-88b2d954d5fffff","clase":"Alto","nivel_medio":2.783,"nivel_medio_min":2.783,"nivel_medio_max":2.783,"pct_alto":83.7,"n_hexagonos":1,"area_ha":60.24}},{"type":"Feature","geometry":{"type":"Polygon","coordinates":[[[-71.9633,-36.818674],[-71.961498,-36.823033],[-71.95632,-36.824301],[-71.952945,-36.821211],[-71.954748,-36.816853],[-71.951373,-36.813764],[-71.953176,-36.809406],[-71.958352,-36.808137],[-71.961727,-36.811226],[-71.959925,-36.815585],[-71.9633,-36.818674]]]},"properties":{"comuna":"San Ignacio","mancha_id":"16108-88b2d954cbfffff","clase":"Alto","nivel_medio":2.521,"nivel_medio_min":2.516,"nivel_medio_max":2.526,"pct_alto":46.1,"n_hexagonos":2,"area_ha":120.46}},{"type":"Feature","geometry":{"type":"Polygon","coordinates":[[[-71.965012,-36.861348],[-71.969369,-36.860282],[-71.970038,-36.860894],[-71.96925,-36.86101],[-71.96788,-36.86158],[-71.96644,-36.86166],[-71.965012,-36.861348]]]},"properties":{"comuna":"San Ignacio","mancha_id":"16108-88b2d954b5fffff","clase":"Alto","nivel_medio":2.5,"nivel_medio_min":2.5,"nivel_medio_max":2.5,"pct_alto":43.4,"n_hexagonos":1,"area_ha":3.03}},{"type":"Feature","geometry":{"type":"Polygon","coordinates":[[[-71.996612,-36.783083],[-71.994813,-36.787442],[-71.989637,-36.788713],[-71.986261,-36.785625],[-71.981085,-36.786896],[-71.97771,-36.783808],[-71.97951,-36.77945],[-71.984685,-36.778179],[-71.988061,-36.781267],[-71.993236,-36.779995],[-71.996612,-36.783083]]]},"properties":{"comuna":"San Ignacio","mancha_id":"16108-88b2d95459fffff","clase":"Alto","nivel_medio":2.618,"nivel_medio_min":2.612,"nivel_medio_max":2.623,"pct_alto":64.4,"n_hexagonos":2,"area_ha":120.47}},{"type":"Feature","geometry":{"type":"Polygon","coordinates":[[[-72.001347,-36.805424],[-71.999547,-36.809784],[-71.994368,-36.811055],[-71.99099,-36.807966],[-71.992791,-36.803607],[-71.997968,-36.802336],[-72.001347,-36.805424]]]},"properties":{"comuna":"San Ignacio","mancha_id":"16108-88b2d9541dfffff","clase":"Alto","nivel_medio":2.833,"nivel_medio_min":2.833,"nivel_medio_max":2.833,"pct_alto":68.3,"n_hexagonos":1,"area_ha":60.27}},{"type":"Feature","geometry":{"type":"Polygon","coordinates":[[[-71.985813,-36.809237],[-71.984012,-36.813596],[-71.978834,-36.814866],[-71.975457,-36.811777],[-71.97028,-36.813046],[-71.966904,-36.809957],[-71.968706,-36.805599],[-71.973882,-36.804329],[-71.977258,-36.807418],[-71.982436,-36.806148],[-71.985813,-36.809237]]]},"properties":{"comuna":"San Ignacio","mancha_id":"16108-88b2d9541bfffff","clase":"Alto","nivel_medio":2.728,"nivel_medio_min":2.578,"nivel_medio_max":2.878,"pct_alto":60.9,"n_hexagonos":2,"area_ha":120.49}},{"type":"Feature","geometry":{"type":"Polygon","coordinates":[[[-72.016882,-36.801609],[-72.015083,-36.80597],[-72.018463,-36.809058],[-72.016664,-36.813419],[-72.011484,-36.814691],[-72.008105,-36.811602],[-72.009904,-36.807242],[-72.006525,-36.804153],[-72.008324,-36.799793],[-72.004946,-36.796705],[-72.006745,-36.792345],[-72.011922,-36.791074],[-72.015301,-36.794161],[-72.020479,-36.792889],[-72.022277,-36.788529],[-72.027455,-36.787256],[-72.030835,-36.790343],[-72.036013,-36.78907],[-72.03781,-36.78471],[-72.042988,-36.783436],[-72.04637,-36.786523],[-72.044573,-36.790884],[-72.047955,-36.793972],[-72.053134,-36.792698],[-72.054931,-36.788336],[-72.06011,-36.787061],[-72.063493,-36.790149],[-72.068673,-36.788874],[-72.070468,-36.784512],[-72.075648,-36.783236],[-72.079033,-36.786323],[-72.077238,-36.790686],[-72.072057,-36.791961],[-72.070262,-36.796323],[-72.065081,-36.797598],[-72.061697,-36.794511],[-72.056518,-36.795785],[-72.054721,-36.800147],[-72.049541,-36.801421],[-72.047744,-36.805783],[-72.042564,-36.807056],[-72.040766,-36.811418],[-72.035585,-36.812691],[-72.032203,-36.809602],[-72.034001,-36.805241],[-72.039181,-36.803968],[-72.040979,-36.799607],[-72.037597,-36.796519],[-72.032418,-36.797792],[-72.029037,-36.794704],[-72.023859,-36.795977],[-72.02206,-36.800337],[-72.016882,-36.801609]]]},"properties":{"comuna":"San Ignacio","mancha_id":"16108-88b2d95401fffff","clase":"Alto","nivel_medio":2.665,"nivel_medio_min":2.515,"nivel_medio_max":2.916,"pct_alto":62.2,"n_hexagonos":14,"area_ha":844.32}},{"type":"Feature","geometry":{"type":"Polygon","coordinates":[[[-72.103739,-36.74887],[-72.101947,-36.753232],[-72.096769,-36.75451],[-72.094976,-36.758872],[-72.089798,-36.760149],[-72.088004,-36.764511],[-72.091389,-36.767597],[-72.089595,-36.771959],[-72.092981,-36.775045],[-72.091187,-36.779408],[-72.086007,-36.780685],[-72.082622,-36.777598],[-72.084416,-36.773236],[-72.081032,-36.77015],[-72.082826,-36.765787],[-72.079442,-36.762702],[-72.081236,-36.75834],[-72.086414,-36.757063],[-72.088207,-36.752701],[-72.093384,-36.751424],[-72.095177,-36.747062],[-72.100354,-36.745785],[-72.103739,-36.74887]]]},"properties":{"comuna":"San Ignacio","mancha_id":"16108-88b2d952b3fffff","clase":"Alto","nivel_medio":2.704,"nivel_medio_min":2.581,"nivel_medio_max":2.835,"pct_alto":73.3,"n_hexagonos":5,"area_ha":301.7}},{"type":"Feature","geometry":{"type":"Polygon","coordinates":[[[-72.145809,-36.805167],[-72.147601,-36.800801],[-72.149521,-36.800327],[-72.15146,-36.80358],[-72.15143,-36.8036],[-72.15173,-36.80411],[-72.1519,-36.80438],[-72.1524,-36.80536],[-72.1529,-36.80632],[-72.15281,-36.80667],[-72.15233,-36.80708],[-72.151743,-36.807628],[-72.149202,-36.808254],[-72.145809,-36.805167]]]},"properties":{"comuna":"San Ignacio","mancha_id":"16108-88b2d95193fffff","clase":"Alto","nivel_medio":2.601,"nivel_medio_min":2.601,"nivel_medio_max":2.601,"pct_alto":42.2,"n_hexagonos":1,"area_ha":33.48}},{"type":"Feature","geometry":{"type":"Polygon","coordinates":[[[-72.10852,-36.771214],[-72.106727,-36.775578],[-72.101547,-36.776855],[-72.09816,-36.773769],[-72.099954,-36.769406],[-72.105133,-36.768129],[-72.10852,-36.771214]]]},"properties":{"comuna":"San Ignacio","mancha_id":"16108-88b2d950d7fffff","clase":"Alto","nivel_medio":2.619,"nivel_medio_min":2.619,"nivel_medio_max":2.619,"pct_alto":56.9,"n_hexagonos":1,"area_ha":60.37}},{"type":"Feature","geometry":{"type":"Polygon","coordinates":[[[-72.126047,-36.751204],[-72.127838,-36.746841],[-72.12445,-36.743756],[-72.126241,-36.739393],[-72.131419,-36.738114],[-72.132679,-36.739261],[-72.13255,-36.73949],[-72.13013,-36.7444],[-72.12999,-36.74468],[-72.12973,-36.74524],[-72.12972,-36.74525],[-72.12943,-36.74598],[-72.129279,-36.746485],[-72.12922,-36.74668],[-72.129,-36.7475],[-72.12881,-36.74828],[-72.128446,-36.75],[-72.12833,-36.75055],[-72.12817,-36.75124],[-72.12815,-36.75135],[-72.12783,-36.75274],[-72.127815,-36.752814],[-72.126047,-36.751204]]]},"properties":{"comuna":"San Ignacio","mancha_id":"16108-88b2d950cdfffff","clase":"Alto","nivel_medio":2.541,"nivel_medio_min":2.504,"nivel_medio_max":2.703,"pct_alto":64.4,"n_hexagonos":2,"area_ha":51.01}},{"type":"Feature","geometry":{"type":"Polygon","coordinates":[[[-72.092779,-36.786858],[-72.096166,-36.789945],[-72.101347,-36.788668],[-72.104734,-36.791755],[-72.109916,-36.790478],[-72.111709,-36.786114],[-72.113208,-36.785745],[-72.11251,-36.78709],[-72.11141,-36.78884],[-72.11043,-36.79075],[-72.110354,-36.790877],[-72.10892,-36.79326],[-72.10819,-36.79497],[-72.10864,-36.79499],[-72.10923,-36.79497],[-72.10981,-36.79483],[-72.11019,-36.79463],[-72.11058,-36.79454],[-72.11091,-36.79462],[-72.11115,-36.79491],[-72.11131,-36.79522],[-72.11126,-36.7956],[-72.11127,-36.79588],[-72.11137,-36.79607],[-72.11159,-36.79617],[-72.11185,-36.79609],[-72.11222,-36.79571],[-72.112551,-36.795398],[-72.111511,-36.797929],[-72.106329,-36.799206],[-72.102941,-36.796119],[-72.097759,-36.797395],[-72.094371,-36.794308],[-72.08919,-36.795584],[-72.087395,-36.799948],[-72.082214,-36.801223],[-72.078828,-36.798136],[-72.080623,-36.793773],[-72.085804,-36.792497],[-72.087598,-36.788134],[-72.092779,-36.786858]]]},"properties":{"comuna":"San Ignacio","mancha_id":"16108-88b2d95093fffff","clase":"Alto","nivel_medio":2.647,"nivel_medio_min":2.536,"nivel_medio_max":2.763,"pct_alto":47.9,"n_hexagonos":5,"area_ha":232.88}},{"type":"Feature","geometry":{"type":"Polygon","coordinates":[[[-72.115295,-36.777386],[-72.117088,-36.773023],[-72.1137,-36.769937],[-72.115492,-36.765573],[-72.120672,-36.764295],[-72.122464,-36.759931],[-72.125355,-36.759218],[-72.12495,-36.75954],[-72.12458,-36.75984],[-72.1245,-36.76014],[-72.12449,-36.76056],[-72.12453,-36.76085],[-72.12457,-36.7612],[-72.12488,-36.7622],[-72.12497,-36.7628],[-72.12487,-36.76357],[-72.12455,-36.76535],[-72.12414,-36.76626],[-72.123678,-36.767032],[-72.12338,-36.76753],[-72.12246,-36.76892],[-72.12076,-36.77148],[-72.120243,-36.772244],[-72.12007,-36.7725],[-72.11954,-36.7734],[-72.11799,-36.77607],[-72.11739,-36.77713],[-72.116599,-36.778574],[-72.115295,-36.777386]]]},"properties":{"comuna":"San Ignacio","mancha_id":"16108-88b2d95081fffff","clase":"Alto","nivel_medio":2.81,"nivel_medio_min":2.722,"nivel_medio_max":3.203,"pct_alto":60.3,"n_hexagonos":3,"area_ha":87.4}},{"type":"Feature","geometry":{"type":"Polygon","coordinates":[[[-72.044603,-36.892826],[-72.04965,-36.891589],[-72.05293,-36.894582],[-72.05206,-36.89467],[-72.05079,-36.89487],[-72.04974,-36.89487],[-72.0485,-36.89472],[-72.04648,-36.89439],[-72.04511,-36.89393],[-72.04463,-36.89362],[-72.044603,-36.892826]]]},"properties":{"comuna":"San Ignacio","mancha_id":"16108-88b2d9476bfffff","clase":"Alto","nivel_medio":2.606,"nivel_medio_min":2.606,"nivel_medio_max":2.606,"pct_alto":70.4,"n_hexagonos":1,"area_ha":16.5}},{"type":"Feature","geometry":{"type":"Polygon","coordinates":[[[-72.177861,-36.834317],[-72.176366,-36.832958],[-72.176773,-36.831965],[-72.17754,-36.83363],[-72.177861,-36.834317]]]},"properties":{"comuna":"San Ignacio","mancha_id":"16108-88b2d94355fffff","clase":"Alto","nivel_medio":2.865,"nivel_medio_min":2.865,"nivel_medio_max":2.865,"pct_alto":86.5,"n_hexagonos":1,"area_ha":1.01}},{"type":"Feature","geometry":{"type":"Polygon","coordinates":[[[-72.108327,-36.885039],[-72.10653,-36.889406],[-72.101339,-36.89068],[-72.097946,-36.887588],[-72.099743,-36.883222],[-72.104933,-36.881947],[-72.108327,-36.885039]]]},"properties":{"comuna":"San Ignacio","mancha_id":"16108-88b2d942a7fffff","clase":"Alto","nivel_medio":2.645,"nivel_medio_min":2.645,"nivel_medio_max":2.645,"pct_alto":57.7,"n_hexagonos":1,"area_ha":60.47}},{"type":"Feature","geometry":{"type":"Polygon","coordinates":[[[-72.056848,-36.874132],[-72.055049,-36.878496],[-72.049862,-36.879768],[-72.046474,-36.876676],[-72.048274,-36.872312],[-72.05346,-36.87104],[-72.056848,-36.874132]]]},"properties":{"comuna":"San Ignacio","mancha_id":"16108-88b2d9429bfffff","clase":"Alto","nivel_medio":2.524,"nivel_medio_min":2.524,"nivel_medio_max":2.524,"pct_alto":28.7,"n_hexagonos":1,"area_ha":60.39}},{"type":"Feature","geometry":{"type":"Polygon","coordinates":[[[-72.074001,-36.877769],[-72.072203,-36.882134],[-72.067015,-36.883407],[-72.063625,-36.880315],[-72.065424,-36.87595],[-72.070612,-36.874677],[-72.074001,-36.877769]]]},"properties":{"comuna":"San Ignacio","mancha_id":"16108-88b2d94295fffff","clase":"Alto","nivel_medio":2.582,"nivel_medio_min":2.582,"nivel_medio_max":2.582,"pct_alto":34.3,"n_hexagonos":1,"area_ha":60.42}},{"type":"Feature","geometry":{"type":"Polygon","coordinates":[[[-72.105731,-36.834659],[-72.103936,-36.839024],[-72.09875,-36.8403],[-72.096954,-36.844665],[-72.100345,-36.847755],[-72.098549,-36.85212],[-72.10194,-36.85521],[-72.100144,-36.859576],[-72.094957,-36.860851],[-72.091566,-36.85776],[-72.093362,-36.853395],[-72.089972,-36.850305],[-72.091768,-36.84594],[-72.088379,-36.84285],[-72.090175,-36.838485],[-72.09536,-36.83721],[-72.097156,-36.832845],[-72.093766,-36.829756],[-72.095562,-36.825392],[-72.100746,-36.824116],[-72.104136,-36.827205],[-72.102341,-36.83157],[-72.105731,-36.834659]]]},"properties":{"comuna":"San Ignacio","mancha_id":"16108-88b2d9421bfffff","clase":"Alto","nivel_medio":2.595,"nivel_medio_min":2.535,"nivel_medio_max":2.693,"pct_alto":63.5,"n_hexagonos":5,"area_ha":302.1}},{"type":"Feature","geometry":{"type":"Polygon","coordinates":[[[-71.930668,-36.818835],[-71.928863,-36.823192],[-71.923687,-36.824459],[-71.920315,-36.821369],[-71.915139,-36.822636],[-71.911769,-36.819546],[-71.913574,-36.81519],[-71.918749,-36.813923],[-71.92212,-36.817013],[-71.927296,-36.815746],[-71.930668,-36.818835]]]},"properties":{"comuna":"San Ignacio","mancha_id":"16108-88b2d90b61fffff","clase":"Alto","nivel_medio":2.575,"nivel_medio_min":2.513,"nivel_medio_max":2.636,"pct_alto":48.4,"n_hexagonos":2,"area_ha":120.38}},{"type":"Feature","geometry":{"type":"Polygon","coordinates":[[[-71.79639,-36.839888],[-71.801562,-36.838628],[-71.803829,-36.840714],[-71.80363,-36.84063],[-71.80195,-36.8399],[-71.80168,-36.83969],[-71.801471,-36.839616],[-71.801278,-36.839601],[-71.801026,-36.839727],[-71.80089,-36.83988],[-71.800804,-36.840186],[-71.800893,-36.840483],[-71.800989,-36.840853],[-71.800907,-36.84115],[-71.800715,-36.841253],[-71.80046,-36.84122],[-71.799817,-36.840937],[-71.799344,-36.840801],[-71.79887,-36.840587],[-71.79819,-36.84024],[-71.79765,-36.84004],[-71.79706,-36.84001],[-71.796558,-36.839994],[-71.796363,-36.839953],[-71.79639,-36.839888]]]},"properties":{"comuna":"San Ignacio","mancha_id":"16108-88b2d90ac7fffff","clase":"Alto","nivel_medio":2.912,"nivel_medio_min":2.912,"nivel_medio_max":2.912,"pct_alto":64.0,"n_hexagonos":1,"area_ha":7.11}},{"type":"Feature","geometry":{"type":"Polygon","coordinates":[[[-71.86002,-36.832194],[-71.858212,-36.836548],[-71.853037,-36.837811],[-71.849672,-36.83472],[-71.844498,-36.835982],[-71.841134,-36.832891],[-71.842943,-36.828538],[-71.848116,-36.827275],[-71.851481,-36.830366],[-71.856655,-36.829103],[-71.86002,-36.832194]]]},"properties":{"comuna":"San Ignacio","mancha_id":"16108-88b2d90a23fffff","clase":"Alto","nivel_medio":2.686,"nivel_medio_min":2.659,"nivel_medio_max":2.712,"pct_alto":68.8,"n_hexagonos":2,"area_ha":120.24}},{"type":"Feature","geometry":{"type":"Polygon","coordinates":[[[-71.878017,-36.855196],[-71.878418,-36.855098],[-71.879108,-36.855731],[-71.878333,-36.855316],[-71.878017,-36.855196]]]},"properties":{"comuna":"San Ignacio","mancha_id":"16108-88b2d90861fffff","clase":"Alto","nivel_medio":2.994,"nivel_medio_min":2.994,"nivel_medio_max":2.994,"pct_alto":99.4,"n_hexagonos":1,"area_ha":0.14}}],"bbox":[-72.20278,-36.903,-71.75639,-36.72887]}