{"type":"FeatureCollection","features":[{"type":"Feature","geometry":{"type":"Polygon","coordinates":[[[-72.41092,-36.8183],[-72.410661,-36.818187],[-72.411204,-36.818052],[-72.411555,-36.818369],[-72.41092,-36.8183]]]},"properties":{"comuna":"Bulnes","mancha_id":"16102-88b2db965dfffff","clase":"Muy Bajo","nivel_medio":0.157,"nivel_medio_min":0.157,"nivel_medio_max":0.157,"pct_alto":0.0,"n_hexagonos":1,"area_ha":0.14}},{"type":"Feature","geometry":{"type":"Polygon","coordinates":[[[-72.405691,-36.824536],[-72.405714,-36.825063],[-72.404228,-36.823722],[-72.405812,-36.819823],[-72.405872,-36.820226],[-72.405551,-36.821629],[-72.405361,-36.822858],[-72.40553,-36.823715],[-72.405691,-36.824536]]]},"properties":{"comuna":"Bulnes","mancha_id":"16102-88b2db965dfffff-2","clase":"Muy Bajo","nivel_medio":0.157,"nivel_medio_min":0.157,"nivel_medio_max":0.157,"pct_alto":0.0,"n_hexagonos":1,"area_ha":3.08}},{"type":"Feature","geometry":{"type":"Polygon","coordinates":[[[-72.399508,-36.83534],[-72.400671,-36.832478],[-72.403367,-36.831808],[-72.40199,-36.83302],[-72.399508,-36.83534]]]},"properties":{"comuna":"Bulnes","mancha_id":"16102-88b2db9657fffff","clase":"Muy Bajo","nivel_medio":0.495,"nivel_medio_min":0.495,"nivel_medio_max":0.495,"pct_alto":4.0,"n_hexagonos":1,"area_ha":3.34}},{"type":"Feature","geometry":{"type":"Polygon","coordinates":[[[-72.451314,-36.69881],[-72.450511,-36.698086],[-72.450574,-36.697932],[-72.45081,-36.69806],[-72.451,-36.69826],[-72.45122,-36.69858],[-72.451314,-36.69881]]]},"properties":{"comuna":"Bulnes","mancha_id":"16102-88b2d82e05fffff","clase":"Muy Bajo","nivel_medio":0.0,"nivel_medio_min":0.0,"nivel_medio_max":0.0,"pct_alto":0.0,"n_hexagonos":1,"area_ha":0.17}},{"type":"Feature","geometry":{"type":"Polygon","coordinates":[[[-72.426698,-36.802905],[-72.42693,-36.802333],[-72.42923,-36.80176],[-72.42918,-36.80189],[-72.42881,-36.80229],[-72.42824,-36.80255],[-72.426698,-36.802905]]]},"properties":{"comuna":"Bulnes","mancha_id":"16102-88b2d82ca7fffff","clase":"Muy Bajo","nivel_medio":0.271,"nivel_medio_min":0.271,"nivel_medio_max":0.271,"pct_alto":3.8,"n_hexagonos":1,"area_ha":1.12}},{"type":"Feature","geometry":{"type":"Polygon","coordinates":[[[-72.39903,-36.825014],[-72.404228,-36.823722],[-72.405714,-36.825063],[-72.40576,-36.82613],[-72.40642,-36.82819],[-72.40642,-36.82909],[-72.40603,-36.82988],[-72.40528,-36.8306],[-72.40341,-36.83177],[-72.403367,-36.831808],[-72.400671,-36.832478],[-72.397251,-36.829391],[-72.39903,-36.825014]]]},"properties":{"comuna":"Bulnes","mancha_id":"16102-88b2db9651fffff","clase":"Bajo","nivel_medio":1.155,"nivel_medio_min":1.155,"nivel_medio_max":1.155,"pct_alto":17.3,"n_hexagonos":1,"area_ha":55.35}},{"type":"Feature","geometry":{"type":"Polygon","coordinates":[[[-72.411204,-36.818052],[-72.412981,-36.813674],[-72.416079,-36.812904],[-72.41566,-36.81436],[-72.41523,-36.81536],[-72.41437,-36.81699],[-72.41333,-36.81778],[-72.41259,-36.81825],[-72.41193,-36.81841],[-72.411555,-36.818369],[-72.411204,-36.818052]]]},"properties":{"comuna":"Bulnes","mancha_id":"16102-88b2db964bfffff","clase":"Bajo","nivel_medio":1.377,"nivel_medio_min":1.377,"nivel_medio_max":1.377,"pct_alto":0.0,"n_hexagonos":1,"area_ha":13.32}},{"type":"Feature","geometry":{"type":"Polygon","coordinates":[[[-72.391913,-36.842524],[-72.393693,-36.838147],[-72.397275,-36.837257],[-72.39703,-36.83749],[-72.39574,-36.83814],[-72.39487,-36.83874],[-72.39431,-36.83922],[-72.39389,-36.83992],[-72.39362,-36.84078],[-72.39361,-36.84211],[-72.393643,-36.844086],[-72.391913,-36.842524]]]},"properties":{"comuna":"Bulnes","mancha_id":"16102-88b2db9619fffff","clase":"Bajo","nivel_medio":1.362,"nivel_medio_min":1.362,"nivel_medio_max":1.362,"pct_alto":0.0,"n_hexagonos":1,"area_ha":7.71}},{"type":"Feature","geometry":{"type":"Polygon","coordinates":[[[-72.387512,-36.853351],[-72.388354,-36.85128],[-72.391961,-36.850385],[-72.391734,-36.850516],[-72.390982,-36.851067],[-72.390456,-36.851618],[-72.389754,-36.851819],[-72.38897,-36.85238],[-72.38754,-36.85333],[-72.387512,-36.853351]]]},"properties":{"comuna":"Bulnes","mancha_id":"16102-88b2db9613fffff","clase":"Bajo","nivel_medio":1.29,"nivel_medio_min":1.29,"nivel_medio_max":1.29,"pct_alto":18.5,"n_hexagonos":1,"area_ha":3.44}},{"type":"Feature","geometry":{"type":"Polygon","coordinates":[[[-72.328971,-36.767688],[-72.32719,-36.772061],[-72.322,-36.773349],[-72.318592,-36.770265],[-72.320373,-36.765893],[-72.325562,-36.764604],[-72.328971,-36.767688]]]},"properties":{"comuna":"Bulnes","mancha_id":"16102-88b2d95b53fffff","clase":"Bajo","nivel_medio":1.447,"nivel_medio_min":1.447,"nivel_medio_max":1.447,"pct_alto":6.7,"n_hexagonos":1,"area_ha":60.62}},{"type":"Feature","geometry":{"type":"Polygon","coordinates":[[[-72.289725,-36.738144],[-72.29491,-36.736856],[-72.296691,-36.732485],[-72.301876,-36.731197],[-72.30528,-36.734279],[-72.303499,-36.73865],[-72.306904,-36.741733],[-72.305122,-36.746104],[-72.299936,-36.747392],[-72.296532,-36.744309],[-72.291346,-36.745597],[-72.289564,-36.749967],[-72.284378,-36.751255],[-72.280975,-36.748171],[-72.282757,-36.743801],[-72.287943,-36.742514],[-72.289725,-36.738144]]]},"properties":{"comuna":"Bulnes","mancha_id":"16102-88b2d95a41fffff","clase":"Bajo","nivel_medio":1.314,"nivel_medio_min":1.125,"nivel_medio_max":1.445,"pct_alto":39.5,"n_hexagonos":4,"area_ha":242.26}},{"type":"Feature","geometry":{"type":"Polygon","coordinates":[[[-72.290865,-36.781075],[-72.289081,-36.785447],[-72.283892,-36.786733],[-72.280487,-36.783648],[-72.282271,-36.779277],[-72.287459,-36.77799],[-72.290865,-36.781075]]]},"properties":{"comuna":"Bulnes","mancha_id":"16102-88b2d95a31fffff","clase":"Bajo","nivel_medio":1.162,"nivel_medio_min":1.162,"nivel_medio_max":1.162,"pct_alto":4.7,"n_hexagonos":1,"area_ha":60.59}},{"type":"Feature","geometry":{"type":"Polygon","coordinates":[[[-72.263469,-36.768224],[-72.261685,-36.772594],[-72.256498,-36.773879],[-72.253096,-36.770795],[-72.254881,-36.766425],[-72.260067,-36.76514],[-72.263469,-36.768224]]]},"properties":{"comuna":"Bulnes","mancha_id":"16102-88b2d95a1bfffff","clase":"Bajo","nivel_medio":1.339,"nivel_medio_min":1.339,"nivel_medio_max":1.339,"pct_alto":1.4,"n_hexagonos":1,"area_ha":60.55}},{"type":"Feature","geometry":{"type":"Polygon","coordinates":[[[-72.331315,-36.853615],[-72.336513,-36.852328],[-72.338296,-36.847952],[-72.343493,-36.846664],[-72.346908,-36.849752],[-72.345126,-36.854128],[-72.348542,-36.857216],[-72.346759,-36.861593],[-72.350176,-36.864681],[-72.349212,-36.867048],[-72.34855,-36.86704],[-72.34776,-36.86698],[-72.34759,-36.86682],[-72.34756,-36.86663],[-72.34749,-36.86649],[-72.34716,-36.86643],[-72.34651,-36.8664],[-72.34606,-36.86627],[-72.34519,-36.86603],[-72.34425,-36.86548],[-72.3434,-36.86498],[-72.34286,-36.86482],[-72.34237,-36.86476],[-72.34164,-36.86487],[-72.34123,-36.86478],[-72.34081,-36.864722],[-72.34156,-36.86288],[-72.338145,-36.859792],[-72.332946,-36.861079],[-72.329532,-36.857991],[-72.331315,-36.853615]]]},"properties":{"comuna":"Bulnes","mancha_id":"16102-88b2d959e1fffff","clase":"Bajo","nivel_medio":1.329,"nivel_medio_min":1.237,"nivel_medio_max":1.46,"pct_alto":9.1,"n_hexagonos":4,"area_ha":211.18}},{"type":"Feature","geometry":{"type":"Polygon","coordinates":[[[-72.369914,-36.804704],[-72.368134,-36.809079],[-72.362939,-36.810369],[-72.359525,-36.807284],[-72.361305,-36.802908],[-72.366499,-36.801618],[-72.369914,-36.804704]]]},"properties":{"comuna":"Bulnes","mancha_id":"16102-88b2d95941fffff","clase":"Bajo","nivel_medio":1.241,"nivel_medio_min":1.241,"nivel_medio_max":1.241,"pct_alto":2.3,"n_hexagonos":1,"area_ha":60.7}},{"type":"Feature","geometry":{"type":"Polygon","coordinates":[[[-72.336664,-36.840489],[-72.334881,-36.844864],[-72.329684,-36.846152],[-72.326271,-36.843064],[-72.328054,-36.838689],[-72.33325,-36.837401],[-72.336664,-36.840489]]]},"properties":{"comuna":"Bulnes","mancha_id":"16102-88b2d95913fffff","clase":"Bajo","nivel_medio":1.494,"nivel_medio_min":1.494,"nivel_medio_max":1.494,"pct_alto":10.6,"n_hexagonos":1,"area_ha":60.7}},{"type":"Feature","geometry":{"type":"Polygon","coordinates":[[[-72.129434,-36.754289],[-72.127643,-36.758653],[-72.125355,-36.759218],[-72.12539,-36.75919],[-72.12584,-36.75885],[-72.12661,-36.75817],[-72.12698,-36.75774],[-72.12723,-36.75722],[-72.1275,-36.75628],[-72.12766,-36.7553],[-72.1276,-36.75387],[-72.127815,-36.752814],[-72.129434,-36.754289]]]},"properties":{"comuna":"Bulnes","mancha_id":"16102-88b2d950c1fffff","clase":"Bajo","nivel_medio":1.29,"nivel_medio_min":1.29,"nivel_medio_max":1.29,"pct_alto":19.6,"n_hexagonos":1,"area_ha":7.28}},{"type":"Feature","geometry":{"type":"Polygon","coordinates":[[[-72.273744,-36.891619],[-72.273821,-36.891432],[-72.274576,-36.891246],[-72.27418,-36.89151],[-72.273744,-36.891619]]]},"properties":{"comuna":"Bulnes","mancha_id":"16102-88b2d94a6bfffff","clase":"Bajo","nivel_medio":1.483,"nivel_medio_min":1.483,"nivel_medio_max":1.483,"pct_alto":0.0,"n_hexagonos":1,"area_ha":0.1}},{"type":"Feature","geometry":{"type":"Polygon","coordinates":[[[-72.23062,-36.894227],[-72.234027,-36.897318],[-72.239225,-36.896036],[-72.239725,-36.896491],[-72.23964,-36.89656],[-72.23862,-36.89696],[-72.2376,-36.89731],[-72.23645,-36.8978],[-72.23544,-36.89811],[-72.23429,-36.89846],[-72.233531,-36.89853],[-72.23353,-36.89853],[-72.2316,-36.89852],[-72.23084,-36.89857],[-72.22991,-36.89852],[-72.22897,-36.8984],[-72.22795,-36.89814],[-72.22729,-36.89806],[-72.22615,-36.89817],[-72.22524,-36.89827],[-72.22434,-36.89861],[-72.22413,-36.898666],[-72.225424,-36.895508],[-72.23062,-36.894227]]]},"properties":{"comuna":"Bulnes","mancha_id":"16102-88b2d9412dfffff","clase":"Bajo","nivel_medio":1.448,"nivel_medio_min":1.362,"nivel_medio_max":1.465,"pct_alto":2.9,"n_hexagonos":2,"area_ha":33.87}},{"type":"Feature","geometry":{"type":"Polygon","coordinates":[[[-72.203955,-36.889007],[-72.204817,-36.888795],[-72.206631,-36.890442],[-72.206463,-36.890439],[-72.206036,-36.890431],[-72.205679,-36.890258],[-72.205352,-36.890046],[-72.20462,-36.8895],[-72.20426,-36.88911],[-72.203955,-36.889007]]]},"properties":{"comuna":"Bulnes","mancha_id":"16102-88b2d94101fffff","clase":"Bajo","nivel_medio":1.371,"nivel_medio_min":1.371,"nivel_medio_max":1.371,"pct_alto":27.8,"n_hexagonos":1,"area_ha":1.35}},{"type":"Feature","geometry":{"type":"Polygon","coordinates":[[[-72.383072,-36.714919],[-72.381295,-36.719293],[-72.376108,-36.720585],[-72.372698,-36.717504],[-72.374474,-36.713131],[-72.379661,-36.711839],[-72.383072,-36.714919]]]},"properties":{"comuna":"Bulnes","mancha_id":"16102-88b2d82ed9fffff","clase":"Bajo","nivel_medio":1.437,"nivel_medio_min":1.437,"nivel_medio_max":1.437,"pct_alto":11.2,"n_hexagonos":1,"area_ha":60.64}},{"type":"Feature","geometry":{"type":"Polygon","coordinates":[[[-72.413656,-36.754484],[-72.415432,-36.750108],[-72.41971,-36.749042],[-72.419315,-36.749555],[-72.418851,-36.75],[-72.418545,-36.750293],[-72.417711,-36.751047],[-72.417037,-36.751753],[-72.416251,-36.752763],[-72.415481,-36.75387],[-72.415126,-36.754567],[-72.415097,-36.755073],[-72.41492,-36.755538],[-72.414895,-36.755602],[-72.413656,-36.754484]]]},"properties":{"comuna":"Bulnes","mancha_id":"16102-88b2d82ea7fffff","clase":"Bajo","nivel_medio":1.262,"nivel_medio_min":1.262,"nivel_medio_max":1.262,"pct_alto":2.3,"n_hexagonos":1,"area_ha":12.09}},{"type":"Feature","geometry":{"type":"Polygon","coordinates":[[[-72.421843,-36.745807],[-72.422398,-36.744438],[-72.424107,-36.744012],[-72.42289,-36.74487],[-72.421843,-36.745807]]]},"properties":{"comuna":"Bulnes","mancha_id":"16102-88b2d82ea5fffff","clase":"Bajo","nivel_medio":0.86,"nivel_medio_min":0.86,"nivel_medio_max":0.86,"pct_alto":28.0,"n_hexagonos":1,"area_ha":0.92}},{"type":"Feature","geometry":{"type":"Polygon","coordinates":[[[-72.440005,-36.712511],[-72.445195,-36.711214],[-72.446109,-36.712039],[-72.44591,-36.71228],[-72.44539,-36.71283],[-72.44486,-36.71326],[-72.44432,-36.71357],[-72.44334,-36.71404],[-72.44249,-36.71452],[-72.44108,-36.71501],[-72.43973,-36.71565],[-72.439,-36.71617],[-72.438295,-36.716943],[-72.43827,-36.71697],[-72.43744,-36.71808],[-72.43565,-36.72036],[-72.4345,-36.72171],[-72.434272,-36.72201],[-72.434148,-36.722371],[-72.434255,-36.72274],[-72.434543,-36.723126],[-72.434666,-36.723734],[-72.43474,-36.72421],[-72.43492,-36.72458],[-72.43511,-36.72502],[-72.4353,-36.72526],[-72.435534,-36.725427],[-72.434686,-36.725639],[-72.431269,-36.722558],[-72.433043,-36.718182],[-72.438232,-36.716887],[-72.440005,-36.712511]]]},"properties":{"comuna":"Bulnes","mancha_id":"16102-88b2d82e31fffff","clase":"Bajo","nivel_medio":1.21,"nivel_medio_min":0.926,"nivel_medio_max":1.407,"pct_alto":1.4,"n_hexagonos":2,"area_ha":39.66}},{"type":"Feature","geometry":{"type":"Polygon","coordinates":[[[-72.445323,-36.699383],[-72.450511,-36.698086],[-72.451314,-36.69881],[-72.45149,-36.69924],[-72.45186,-36.70023],[-72.4521,-36.70098],[-72.45226,-36.70158],[-72.452243,-36.701795],[-72.452142,-36.702046],[-72.451832,-36.70233],[-72.45156,-36.70259],[-72.45105,-36.70304],[-72.4504,-36.70357],[-72.45005,-36.7039],[-72.44967,-36.70432],[-72.44933,-36.70476],[-72.44908,-36.70522],[-72.44875,-36.70586],[-72.448581,-36.706435],[-72.446967,-36.706838],[-72.443551,-36.703759],[-72.445323,-36.699383]]]},"properties":{"comuna":"Bulnes","mancha_id":"16102-88b2d82e07fffff","clase":"Bajo","nivel_medio":1.442,"nivel_medio_min":1.442,"nivel_medio_max":1.442,"pct_alto":6.5,"n_hexagonos":1,"area_ha":47.04}},{"type":"Feature","geometry":{"type":"Polygon","coordinates":[[[-72.428696,-36.774029],[-72.425551,-36.771192],[-72.426916,-36.767826],[-72.42773,-36.76849],[-72.42859,-36.76931],[-72.42919,-36.76973],[-72.42978,-36.77006],[-72.43016,-36.77051],[-72.43029,-36.77106],[-72.43025,-36.77159],[-72.42979,-36.77247],[-72.428696,-36.774029]]]},"properties":{"comuna":"Bulnes","mancha_id":"16102-88b2d82ce9fffff","clase":"Bajo","nivel_medio":1.375,"nivel_medio_min":1.375,"nivel_medio_max":1.375,"pct_alto":0.0,"n_hexagonos":1,"area_ha":15.86}},{"type":"Feature","geometry":{"type":"Polygon","coordinates":[[[-72.418715,-36.765026],[-72.415297,-36.761943],[-72.415738,-36.760857],[-72.41962,-36.76282],[-72.421902,-36.764232],[-72.418715,-36.765026]]]},"properties":{"comuna":"Bulnes","mancha_id":"16102-88b2d82ccdfffff","clase":"Bajo","nivel_medio":1.47,"nivel_medio_min":1.47,"nivel_medio_max":1.47,"pct_alto":11.2,"n_hexagonos":1,"area_ha":10.76}},{"type":"Feature","geometry":{"type":"Polygon","coordinates":[[[-72.421866,-36.791786],[-72.423642,-36.787408],[-72.426927,-36.78659],[-72.42709,-36.78824],[-72.42749,-36.79026],[-72.42776,-36.79203],[-72.42798,-36.79282],[-72.428,-36.79383],[-72.427988,-36.794197],[-72.425286,-36.79487],[-72.421866,-36.791786]]]},"properties":{"comuna":"Bulnes","mancha_id":"16102-88b2d82ca9fffff","clase":"Bajo","nivel_medio":0.901,"nivel_medio_min":0.901,"nivel_medio_max":0.901,"pct_alto":5.7,"n_hexagonos":1,"area_ha":33.74}},{"type":"Feature","geometry":{"type":"Polygon","coordinates":[[[-72.385498,-36.800831],[-72.38372,-36.805208],[-72.378524,-36.806499],[-72.375108,-36.803413],[-72.376888,-36.799037],[-72.382082,-36.797746],[-72.385498,-36.800831]]]},"properties":{"comuna":"Bulnes","mancha_id":"16102-88b2d82c93fffff","clase":"Bajo","nivel_medio":0.993,"nivel_medio_min":0.993,"nivel_medio_max":0.993,"pct_alto":7.9,"n_hexagonos":1,"area_ha":60.72}},{"type":"Feature","geometry":{"type":"Polygon","coordinates":[[[-72.367511,-36.718797],[-72.365734,-36.72317],[-72.360547,-36.724461],[-72.357138,-36.72138],[-72.358916,-36.717007],[-72.364102,-36.715716],[-72.367511,-36.718797]]]},"properties":{"comuna":"Bulnes","mancha_id":"16102-88b2d825e7fffff","clase":"Bajo","nivel_medio":1.073,"nivel_medio_min":1.073,"nivel_medio_max":1.073,"pct_alto":0.1,"n_hexagonos":1,"area_ha":60.63}},{"type":"Feature","geometry":{"type":"Polygon","coordinates":[[[-72.343733,-36.697046],[-72.343657,-36.697233],[-72.343287,-36.697325],[-72.3433,-36.69729],[-72.34354,-36.69709],[-72.343733,-36.697046]]]},"properties":{"comuna":"Bulnes","mancha_id":"16102-88b2d825c9fffff","clase":"Bajo","nivel_medio":1.0,"nivel_medio_min":1.0,"nivel_medio_max":1.0,"pct_alto":0.0,"n_hexagonos":1,"area_ha":0.05}},{"type":"Feature","geometry":{"type":"Polygon","coordinates":[[[-72.319211,-36.72296],[-72.317431,-36.727331],[-72.312246,-36.72862],[-72.308841,-36.725538],[-72.310622,-36.721167],[-72.315806,-36.719878],[-72.319211,-36.72296]]]},"properties":{"comuna":"Bulnes","mancha_id":"16102-88b2d82599fffff","clase":"Bajo","nivel_medio":0.964,"nivel_medio_min":0.964,"nivel_medio_max":0.964,"pct_alto":9.5,"n_hexagonos":1,"area_ha":60.57}},{"type":"Feature","geometry":{"type":"Polygon","coordinates":[[[-72.372841,-36.705678],[-72.369432,-36.702597],[-72.37098,-36.698786],[-72.371555,-36.698991],[-72.371975,-36.699121],[-72.373455,-36.699461],[-72.373968,-36.699515],[-72.374325,-36.699547],[-72.374756,-36.699511],[-72.374989,-36.699442],[-72.375273,-36.699355],[-72.375784,-36.699184],[-72.37651,-36.698971],[-72.376848,-36.698861],[-72.377061,-36.698848],[-72.377282,-36.698875],[-72.377568,-36.699025],[-72.377733,-36.699298],[-72.377761,-36.699725],[-72.377781,-36.70015],[-72.377777,-36.70047],[-72.377723,-36.700742],[-72.377748,-36.700979],[-72.377815,-36.701197],[-72.378003,-36.701474],[-72.37833,-36.701915],[-72.378685,-36.702469],[-72.378742,-36.702623],[-72.378027,-36.704385],[-72.372841,-36.705678]]]},"properties":{"comuna":"Bulnes","mancha_id":"16102-88b2d8253bfffff","clase":"Bajo","nivel_medio":1.387,"nivel_medio_min":1.387,"nivel_medio_max":1.387,"pct_alto":4.0,"n_hexagonos":1,"area_ha":44.83}},{"type":"Feature","geometry":{"type":"Polygon","coordinates":[[[-72.413988,-36.699344],[-72.412556,-36.699702],[-72.411873,-36.699086],[-72.412071,-36.698997],[-72.412546,-36.698932],[-72.412925,-36.699021],[-72.413705,-36.699241],[-72.413988,-36.699344]]]},"properties":{"comuna":"Bulnes","mancha_id":"16102-88b2d82525fffff","clase":"Bajo","nivel_medio":0.953,"nivel_medio_min":0.953,"nivel_medio_max":0.953,"pct_alto":0.0,"n_hexagonos":1,"area_ha":0.84}},{"type":"Feature","geometry":{"type":"Polygon","coordinates":[[[-72.290046,-36.7145],[-72.291827,-36.71013],[-72.296224,-36.709037],[-72.29597,-36.70948],[-72.29578,-36.70972],[-72.29555,-36.71004],[-72.29541,-36.71023],[-72.29529,-36.71044],[-72.29521,-36.71058],[-72.29517,-36.71074],[-72.29515,-36.71087],[-72.29518,-36.711],[-72.29523,-36.71132],[-72.29528,-36.71161],[-72.29531,-36.71177],[-72.29538,-36.71195],[-72.29553,-36.71216],[-72.29576,-36.71238],[-72.29608,-36.71245],[-72.2965,-36.71243],[-72.29683,-36.71234],[-72.29719,-36.71221],[-72.29771,-36.71207],[-72.29806,-36.71199],[-72.29845,-36.71188],[-72.29886,-36.7118],[-72.29936,-36.71173],[-72.2999,-36.71169],[-72.30011,-36.71165],[-72.300412,-36.711923],[-72.298631,-36.716293],[-72.293448,-36.717581],[-72.290046,-36.7145]]]},"properties":{"comuna":"Bulnes","mancha_id":"16102-88b2d824a9fffff","clase":"Bajo","nivel_medio":1.33,"nivel_medio_min":1.33,"nivel_medio_max":1.33,"pct_alto":4.8,"n_hexagonos":1,"area_ha":50.34}},{"type":"Feature","geometry":{"type":"Polygon","coordinates":[[[-72.32308,-36.69442],[-72.323221,-36.694466],[-72.32397,-36.69471],[-72.32419,-36.69484],[-72.32442,-36.69505],[-72.32454,-36.69529],[-72.32453,-36.69563],[-72.32455,-36.696],[-72.32458,-36.69623],[-72.32462,-36.69655],[-72.32469,-36.69687],[-72.32478,-36.69707],[-72.32489,-36.69732],[-72.32496,-36.69745],[-72.32502,-36.69752],[-72.3252,-36.69769],[-72.32552,-36.69797],[-72.32584,-36.69826],[-72.3261,-36.69847],[-72.32627,-36.69858],[-72.32664,-36.69876],[-72.32701,-36.69893],[-72.32734,-36.69902],[-72.32773,-36.69904],[-72.32846,-36.69902],[-72.32872,-36.69905],[-72.328919,-36.699108],[-72.328107,-36.701105],[-72.322923,-36.702395],[-72.321144,-36.706766],[-72.315961,-36.708056],[-72.312557,-36.704975],[-72.310282,-36.705541],[-72.31029,-36.70547],[-72.31033,-36.70483],[-72.31037,-36.70425],[-72.31033,-36.70361],[-72.31023,-36.70309],[-72.31008,-36.70271],[-72.30992,-36.70195],[-72.30979,-36.70126],[-72.30973,-36.70059],[-72.30972,-36.69997],[-72.30982,-36.69912],[-72.30999,-36.69857],[-72.31007,-36.69829],[-72.31019,-36.69785],[-72.310262,-36.697691],[-72.31029,-36.69763],[-72.31048,-36.69737],[-72.31059,-36.69727],[-72.31092,-36.69696],[-72.311243,-36.696765],[-72.310934,-36.697524],[-72.314337,-36.700605],[-72.31952,-36.699315],[-72.321298,-36.694944],[-72.321057,-36.694726],[-72.32114,-36.6947],[-72.322,-36.69445],[-72.3222,-36.69435],[-72.32228,-36.69432],[-72.32242,-36.69433],[-72.32268,-36.69434],[-72.32308,-36.69442]]]},"properties":{"comuna":"Bulnes","mancha_id":"16102-88b2d82431fffff","clase":"Bajo","nivel_medio":1.389,"nivel_medio_min":1.0,"nivel_medio_max":1.459,"pct_alto":3.6,"n_hexagonos":5,"area_ha":125.41}},{"type":"Feature","geometry":{"type":"Polygon","coordinates":[[[-72.36432,-36.86583],[-72.364582,-36.865726],[-72.366598,-36.867548],[-72.36632,-36.86745],[-72.36524,-36.86692],[-72.36497,-36.86667],[-72.36478,-36.86654],[-72.36451,-36.86653],[-72.36423,-36.86656],[-72.36402,-36.86648],[-72.36394,-36.86632],[-72.36405,-36.86608],[-72.36432,-36.86583]]]},"properties":{"comuna":"Bulnes","mancha_id":"16102-88b2db96d5fffff","clase":"Medio","nivel_medio":1.968,"nivel_medio_min":1.968,"nivel_medio_max":1.968,"pct_alto":0.1,"n_hexagonos":1,"area_ha":1.22}},{"type":"Feature","geometry":{"type":"Polygon","coordinates":[[[-72.301559,-36.754846],[-72.299778,-36.759218],[-72.29459,-36.760505],[-72.291186,-36.757422],[-72.292968,-36.753051],[-72.289564,-36.749967],[-72.291346,-36.745597],[-72.296532,-36.744309],[-72.299936,-36.747392],[-72.298154,-36.751763],[-72.301559,-36.754846]]]},"properties":{"comuna":"Bulnes","mancha_id":"16102-88b2d95a0dfffff","clase":"Medio","nivel_medio":2.128,"nivel_medio_min":2.04,"nivel_medio_max":2.216,"pct_alto":60.5,"n_hexagonos":2,"area_ha":121.15}},{"type":"Feature","geometry":{"type":"Polygon","coordinates":[[[-72.275956,-36.7137],[-72.27628,-36.713994],[-72.279926,-36.713088],[-72.28009,-36.71311],[-72.28028,-36.71309],[-72.28057,-36.71294],[-72.280587,-36.712924],[-72.281462,-36.712706],[-72.283244,-36.708337],[-72.282707,-36.707851],[-72.28304,-36.7075],[-72.28354,-36.70712],[-72.28383,-36.70695],[-72.28453,-36.7065],[-72.28532,-36.70585],[-72.286,-36.70547],[-72.28657,-36.70522],[-72.28688,-36.7051],[-72.28714,-36.70502],[-72.28741,-36.70499],[-72.28762,-36.70499],[-72.28786,-36.70495],[-72.2885,-36.70478],[-72.28898,-36.70465],[-72.28942,-36.70452],[-72.289462,-36.704506],[-72.28982,-36.70439],[-72.2901,-36.70434],[-72.29043,-36.70435],[-72.2912,-36.70454],[-72.29178,-36.70468],[-72.29232,-36.7048],[-72.29311,-36.70498],[-72.29358,-36.70507],[-72.294,-36.70512],[-72.29435,-36.70519],[-72.29462,-36.7053],[-72.29491,-36.70545],[-72.29524,-36.70565],[-72.2955,-36.70588],[-72.29573,-36.70613],[-72.29591,-36.70641],[-72.29607,-36.70678],[-72.29621,-36.70703],[-72.29641,-36.70754],[-72.29649,-36.70784],[-72.29649,-36.70809],[-72.29647,-36.70833],[-72.29641,-36.70863],[-72.29632,-36.70887],[-72.296224,-36.709037],[-72.291827,-36.71013],[-72.290046,-36.7145],[-72.293448,-36.717581],[-72.298631,-36.716293],[-72.300412,-36.711923],[-72.30011,-36.71165],[-72.30037,-36.7116],[-72.30081,-36.71152],[-72.30137,-36.71145],[-72.30204,-36.71139],[-72.30263,-36.71137],[-72.302636,-36.71137],[-72.3031,-36.71137],[-72.30343,-36.7113],[-72.303644,-36.711125],[-72.303655,-36.711117],[-72.30392,-36.7109],[-72.3043,-36.71067],[-72.30503,-36.7103],[-72.30549,-36.71007],[-72.305944,-36.709777],[-72.30597,-36.70976],[-72.3065,-36.70945],[-72.30708,-36.70906],[-72.30804,-36.70834],[-72.30847,-36.7079],[-72.3089,-36.70754],[-72.30958,-36.70714],[-72.3098,-36.70702],[-72.30993,-36.70691],[-72.31003,-36.70673],[-72.31019,-36.70642],[-72.31021,-36.70614],[-72.310282,-36.705541],[-72.312557,-36.704975],[-72.315961,-36.708056],[-72.321144,-36.706766],[-72.322923,-36.702395],[-72.328107,-36.701105],[-72.328919,-36.699108],[-72.32903,-36.69914],[-72.32932,-36.69926],[-72.32958,-36.69944],[-72.32979,-36.69963],[-72.33004,-36.69984],[-72.33025,-36.7],[-72.3305,-36.70007],[-72.33083,-36.70013],[-72.33125,-36.70014],[-72.33167,-36.70014],[-72.3322,-36.70006],[-72.33282,-36.69981],[-72.33359,-36.69933],[-72.33402,-36.69914],[-72.33455,-36.69912],[-72.33529,-36.69908],[-72.33579,-36.69902],[-72.33612,-36.69899],[-72.33638,-36.69901],[-72.33658,-36.69907],[-72.33689,-36.69921],[-72.33723,-36.69933],[-72.33767,-36.69944],[-72.338088,-36.69947],[-72.33822,-36.69948],[-72.33894,-36.69948],[-72.33927,-36.69951],[-72.33951,-36.69956],[-72.33987,-36.69967],[-72.34028,-36.69971],[-72.34067,-36.6997],[-72.34098,-36.69967],[-72.34132,-36.69965],[-72.34163,-36.69958],[-72.34191,-36.69945],[-72.34222,-36.69913],[-72.34239,-36.69881],[-72.34248,-36.69855],[-72.34259,-36.69835],[-72.34289,-36.69797],[-72.34306,-36.69774],[-72.34322,-36.69751],[-72.343287,-36.697325],[-72.343657,-36.697233],[-72.343733,-36.697046],[-72.34389,-36.69701],[-72.34426,-36.69704],[-72.34461,-36.69717],[-72.34472,-36.6973],[-72.34475,-36.69755],[-72.34479,-36.69778],[-72.34493,-36.69797],[-72.34513,-36.69811],[-72.34528,-36.69824],[-72.34545,-36.69842],[-72.34561,-36.69863],[-72.34569,-36.6988],[-72.34576,-36.6989],[-72.3459,-36.69896],[-72.34623,-36.69898],[-72.34652,-36.69895],[-72.34677,-36.69886],[-72.34711,-36.69861],[-72.3474,-36.69839],[-72.3477,-36.69825],[-72.34804,-36.69818],[-72.34828,-36.69816],[-72.34854,-36.69814],[-72.34882,-36.69807],[-72.34897,-36.69801],[-72.34925,-36.69787],[-72.34972,-36.69763],[-72.35004,-36.6974],[-72.35026,-36.69716],[-72.35035,-36.69695],[-72.35044,-36.69676],[-72.35053,-36.69657],[-72.35065,-36.6963],[-72.35086,-36.69597],[-72.35108,-36.69578],[-72.351135,-36.695767],[-72.3515,-36.69568],[-72.351674,-36.695683],[-72.351858,-36.695761],[-72.351952,-36.695807],[-72.352137,-36.695966],[-72.352264,-36.696164],[-72.352379,-36.696528],[-72.352558,-36.696745],[-72.352852,-36.696956],[-72.353031,-36.697094],[-72.353241,-36.697256],[-72.353573,-36.69746],[-72.353911,-36.697664],[-72.354162,-36.697795],[-72.354376,-36.697875],[-72.354543,-36.69791],[-72.354809,-36.69796],[-72.355016,-36.698014],[-72.355438,-36.698101],[-72.355755,-36.698147],[-72.356009,-36.69816],[-72.356252,-36.698149],[-72.356585,-36.698211],[-72.356945,-36.698301],[-72.357236,-36.698392],[-72.35746,-36.698513],[-72.357741,-36.698666],[-72.357996,-36.698858],[-72.358194,-36.698992],[-72.358411,-36.699183],[-72.358698,-36.699407],[-72.358843,-36.69955],[-72.358966,-36.699643],[-72.359175,-36.699799],[-72.359346,-36.699923],[-72.35946,-36.700022],[-72.359581,-36.700127],[-72.359809,-36.700258],[-72.360006,-36.700332],[-72.360196,-36.700422],[-72.360401,-36.700568],[-72.360577,-36.700684],[-72.360673,-36.700747],[-72.360831,-36.700812],[-72.36085,-36.700819],[-72.36089,-36.700836],[-72.361098,-36.700875],[-72.361468,-36.700906],[-72.361928,-36.700883],[-72.362786,-36.700756],[-72.363256,-36.700664],[-72.363777,-36.700511],[-72.36417,-36.700398],[-72.364491,-36.700281],[-72.364859,-36.700138],[-72.365145,-36.699985],[-72.365395,-36.69974],[-72.365518,-36.699474],[-72.365804,-36.699101],[-72.366061,-36.698768],[-72.366258,-36.698524],[-72.366565,-36.698157],[-72.366856,-36.697922],[-72.367084,-36.697798],[-72.367293,-36.697775],[-72.367555,-36.697764],[-72.36801,-36.697759],[-72.368543,-36.697861],[-72.369179,-36.698044],[-72.369889,-36.698336],[-72.370715,-36.698691],[-72.37098,-36.698786],[-72.369432,-36.702597],[-72.372841,-36.705678],[-72.378027,-36.704385],[-72.378742,-36.702623],[-72.37887,-36.702967],[-72.379027,-36.703678],[-72.37914,-36.704176],[-72.379354,-36.704588],[-72.379709,-36.7051],[-72.380081,-36.705552],[-72.38056,-36.705904],[-72.381117,-36.706243],[-72.381645,-36.706504],[-72.382233,-36.706709],[-72.382711,-36.706813],[-72.383002,-36.706886],[-72.383297,-36.707001],[-72.383311,-36.707007],[-72.383748,-36.707066],[-72.384075,-36.707001],[-72.384447,-36.706782],[-72.384803,-36.706658],[-72.385051,-36.706564],[-72.385081,-36.706552],[-72.385119,-36.706547],[-72.385459,-36.706498],[-72.385755,-36.706471],[-72.386165,-36.706501],[-72.38653,-36.706492],[-72.386871,-36.706469],[-72.386945,-36.706462],[-72.387264,-36.706433],[-72.387506,-36.706389],[-72.387646,-36.706328],[-72.387743,-36.706237],[-72.387858,-36.706043],[-72.387961,-36.705886],[-72.388109,-36.70561],[-72.388234,-36.705352],[-72.388313,-36.705079],[-72.388391,-36.704886],[-72.388451,-36.704627],[-72.388531,-36.704401],[-72.388615,-36.70411],[-72.388669,-36.703921],[-72.388699,-36.703659],[-72.388743,-36.703497],[-72.388834,-36.703316],[-72.388949,-36.70317],[-72.389048,-36.702982],[-72.389197,-36.702782],[-72.389349,-36.7026],[-72.389513,-36.702491],[-72.389731,-36.702461],[-72.389995,-36.702481],[-72.390405,-36.702521],[-72.390905,-36.702701],[-72.391325,-36.702791],[-72.391676,-36.702872],[-72.39196,-36.703047],[-72.391997,-36.703266],[-72.39199,-36.703491],[-72.391953,-36.703724],[-72.391997,-36.703965],[-72.392244,-36.704219],[-72.392434,-36.704387],[-72.392776,-36.704634],[-72.393207,-36.704856],[-72.393832,-36.705042],[-72.394188,-36.705268],[-72.394676,-36.705632],[-72.395018,-36.705858],[-72.395186,-36.706025],[-72.395266,-36.706222],[-72.395425,-36.706351],[-72.395688,-36.706411],[-72.395843,-36.706426],[-72.395221,-36.707959],[-72.398633,-36.711039],[-72.40382,-36.709745],[-72.407233,-36.712825],[-72.412421,-36.711531],[-72.414195,-36.707156],[-72.410782,-36.704076],[-72.405595,-36.705371],[-72.403434,-36.70342],[-72.40348,-36.703376],[-72.403721,-36.703091],[-72.403866,-36.702898],[-72.403963,-36.702709],[-72.404086,-36.702474],[-72.404215,-36.702151],[-72.404331,-36.701842],[-72.404576,-36.701468],[-72.404705,-36.70121],[-72.405055,-36.701031],[-72.405263,-36.700997],[-72.4058,-36.701019],[-72.406429,-36.700834],[-72.40711,-36.700648],[-72.407684,-36.70041],[-72.40843,-36.700225],[-72.409245,-36.699905],[-72.409987,-36.69973],[-72.410617,-36.699482],[-72.411194,-36.699297],[-72.411679,-36.699173],[-72.411873,-36.699086],[-72.412556,-36.699702],[-72.413988,-36.699344],[-72.415274,-36.699812],[-72.415845,-36.699971],[-72.416165,-36.700042],[-72.41645,-36.700085],[-72.416953,-36.700145],[-72.417438,-36.700157],[-72.418172,-36.700139],[-72.41876,-36.700139],[-72.419374,-36.700132],[-72.419616,-36.700097],[-72.419869,-36.70006],[-72.42055,-36.699905],[-72.421097,-36.699709],[-72.421664,-36.699544],[-72.422231,-36.699338],[-72.423025,-36.699008],[-72.42383,-36.698729],[-72.424501,-36.69842],[-72.424996,-36.698224],[-72.425495,-36.69812],[-72.425921,-36.698108],[-72.426264,-36.698306],[-72.426656,-36.698653],[-72.426883,-36.698861],[-72.427082,-36.699043],[-72.427585,-36.69942],[-72.428162,-36.699833],[-72.428735,-36.700221],[-72.429605,-36.700571],[-72.430365,-36.700861],[-72.430947,-36.701112],[-72.431442,-36.70138],[-72.431585,-36.701561],[-72.432185,-36.701801],[-72.432657,-36.70191],[-72.433132,-36.701885],[-72.433692,-36.701749],[-72.434405,-36.701613],[-72.435135,-36.701435],[-72.43517,-36.701424],[-72.435797,-36.701231],[-72.436247,-36.701055],[-72.436781,-36.700945],[-72.437188,-36.700792],[-72.437401,-36.700597],[-72.437511,-36.700283],[-72.437426,-36.700003],[-72.437282,-36.699655],[-72.437044,-36.699451],[-72.43683,-36.699154],[-72.43662,-36.698874],[-72.436467,-36.698467],[-72.43641,-36.698364],[-72.436314,-36.698195],[-72.43606,-36.697796],[-72.435771,-36.697423],[-72.435534,-36.697253],[-72.435288,-36.697126],[-72.434901,-36.69694],[-72.434468,-36.696758],[-72.434305,-36.696622],[-72.434235,-36.696447],[-72.434218,-36.696091],[-72.434227,-36.695616],[-72.434248,-36.695371],[-72.434269,-36.69512],[-72.43432,-36.694731],[-72.434422,-36.694292],[-72.434617,-36.693834],[-72.434863,-36.693316],[-72.435067,-36.692917],[-72.435296,-36.692603],[-72.435568,-36.692383],[-72.43578,-36.692238],[-72.436179,-36.692153],[-72.43647,-36.692087],[-72.436843,-36.692147],[-72.437209,-36.692089],[-72.437439,-36.691955],[-72.437712,-36.691786],[-72.437902,-36.691644],[-72.438303,-36.691346],[-72.438608,-36.691135],[-72.438941,-36.690911],[-72.439151,-36.69066],[-72.439301,-36.690334],[-72.43945,-36.690083],[-72.43983,-36.689825],[-72.440054,-36.689601],[-72.440366,-36.689363],[-72.44059,-36.689187],[-72.440629,-36.689179],[-72.44079,-36.689146],[-72.440976,-36.689107],[-72.44109,-36.689006],[-72.441104,-36.688881],[-72.441149,-36.68874],[-72.441144,-36.68848],[-72.441242,-36.688312],[-72.441342,-36.688139],[-72.441447,-36.688062],[-72.441599,-36.687983],[-72.441784,-36.688009],[-72.441967,-36.688031],[-72.44196,-36.688337],[-72.442041,-36.688783],[-72.44194,-36.68915],[-72.442119,-36.689753],[-72.442409,-36.690389],[-72.442777,-36.690947],[-72.44352,-36.6916],[-72.44386,-36.691883],[-72.444517,-36.692431],[-72.445198,-36.692721],[-72.445856,-36.693122],[-72.446335,-36.693513],[-72.44656,-36.69385],[-72.446677,-36.694183],[-72.446804,-36.694639],[-72.44712,-36.69497],[-72.44764,-36.69548],[-72.448,-36.69585],[-72.44842,-36.69645],[-72.44897,-36.69693],[-72.44959,-36.69729],[-72.45024,-36.69775],[-72.450574,-36.697932],[-72.450511,-36.698086],[-72.445323,-36.699383],[-72.443551,-36.703759],[-72.446967,-36.706838],[-72.448581,-36.706435],[-72.44853,-36.70661],[-72.44846,-36.7073],[-72.44853,-36.7081],[-72.44853,-36.70868],[-72.44837,-36.70904],[-72.44806,-36.70951],[-72.44768,-36.71006],[-72.4473,-36.71057],[-72.44686,-36.71118],[-72.44638,-36.71171],[-72.446109,-36.712039],[-72.445195,-36.711214],[-72.440005,-36.712511],[-72.438232,-36.716887],[-72.433043,-36.718182],[-72.431269,-36.722558],[-72.434686,-36.725639],[-72.435534,-36.725427],[-72.43565,-36.72551],[-72.43613,-36.72582],[-72.43659,-36.72609],[-72.437,-36.72644],[-72.43726,-36.72688],[-72.43757,-36.72753],[-72.43772,-36.72842],[-72.43787,-36.72922],[-72.43799,-36.7299],[-72.43796,-36.73066],[-72.43777,-36.73088],[-72.43702,-36.73128],[-72.43663,-36.7316],[-72.43621,-36.732],[-72.435792,-36.732612],[-72.43578,-36.73263],[-72.43572,-36.73344],[-72.43581,-36.73416],[-72.435838,-36.734309],[-72.43587,-36.73448],[-72.43607,-36.73497],[-72.43636,-36.73555],[-72.43654,-36.73616],[-72.43656,-36.73657],[-72.43639,-36.73726],[-72.43607,-36.73803],[-72.435834,-36.738625],[-72.43576,-36.73881],[-72.43526,-36.73935],[-72.43472,-36.73961],[-72.43413,-36.73974],[-72.43338,-36.73986],[-72.43163,-36.74023],[-72.43069,-36.74053],[-72.43015,-36.74075],[-72.42926,-36.74115],[-72.42875,-36.74141],[-72.428209,-36.741618],[-72.42789,-36.74174],[-72.42703,-36.74224],[-72.42631,-36.74286],[-72.42559,-36.74343],[-72.42489,-36.74358],[-72.42438,-36.74382],[-72.424107,-36.744012],[-72.422398,-36.744438],[-72.421843,-36.745807],[-72.42146,-36.74615],[-72.421304,-36.746732],[-72.421111,-36.747422],[-72.420486,-36.748176],[-72.419957,-36.748721],[-72.41971,-36.749042],[-72.415432,-36.750108],[-72.413656,-36.754484],[-72.414895,-36.755602],[-72.414569,-36.756453],[-72.414423,-36.757639],[-72.4146,-36.75965],[-72.414808,-36.760238],[-72.415267,-36.760619],[-72.415738,-36.760857],[-72.415297,-36.761943],[-72.418715,-36.765026],[-72.421902,-36.764232],[-72.42379,-36.7654],[-72.42501,-36.76627],[-72.426916,-36.767826],[-72.425551,-36.771192],[-72.428696,-36.774029],[-72.42838,-36.77448],[-72.42739,-36.77593],[-72.42685,-36.77733],[-72.426639,-36.778791],[-72.42655,-36.77941],[-72.42688,-36.78611],[-72.426927,-36.78659],[-72.423642,-36.787408],[-72.421866,-36.791786],[-72.425286,-36.79487],[-72.427988,-36.794197],[-72.42792,-36.79622],[-72.42828,-36.79688],[-72.42865,-36.79785],[-72.42887,-36.79875],[-72.42953,-36.79927],[-72.42969,-36.79976],[-72.42956,-36.8009],[-72.42923,-36.80176],[-72.42693,-36.802333],[-72.426698,-36.802905],[-72.4265,-36.80295],[-72.42372,-36.80368],[-72.422,-36.80379],[-72.42136,-36.80398],[-72.42051,-36.80445],[-72.419,-36.80517],[-72.41877,-36.80548],[-72.4184,-36.80619],[-72.418305,-36.806514],[-72.41805,-36.80738],[-72.41743,-36.80864],[-72.4164,-36.81179],[-72.416079,-36.812904],[-72.412981,-36.813674],[-72.411204,-36.818052],[-72.410661,-36.818187],[-72.41053,-36.81813],[-72.41023,-36.81776],[-72.40999,-36.81754],[-72.40948,-36.81744],[-72.40842,-36.81773],[-72.40721,-36.8182],[-72.40616,-36.81857],[-72.405804,-36.819162],[-72.405731,-36.819283],[-72.405812,-36.819823],[-72.404228,-36.823722],[-72.39903,-36.825014],[-72.397251,-36.829391],[-72.400671,-36.832478],[-72.399508,-36.83534],[-72.39939,-36.83545],[-72.39875,-36.83593],[-72.39763,-36.83692],[-72.397275,-36.837257],[-72.393693,-36.838147],[-72.391913,-36.842524],[-72.386714,-36.843815],[-72.383296,-36.840728],[-72.378097,-36.842018],[-72.376317,-36.846395],[-72.379735,-36.849483],[-72.384934,-36.848193],[-72.388354,-36.85128],[-72.387512,-36.853351],[-72.38484,-36.85537],[-72.38365,-36.85597],[-72.38277,-36.85644],[-72.382477,-36.856674],[-72.38197,-36.85708],[-72.38146,-36.85761],[-72.38131,-36.85816],[-72.38139,-36.85867],[-72.38168,-36.85903],[-72.38153,-36.85973],[-72.38153,-36.8607],[-72.38198,-36.86144],[-72.38226,-36.86177],[-72.38231,-36.86234],[-72.38214,-36.86312],[-72.381968,-36.863471],[-72.38189,-36.86363],[-72.38142,-36.8641],[-72.38106,-36.86451],[-72.38097,-36.86496],[-72.3809,-36.86537],[-72.38079,-36.86598],[-72.38055,-36.86656],[-72.38043,-36.86702],[-72.379951,-36.866853],[-72.379517,-36.866813],[-72.379102,-36.866826],[-72.378561,-36.866779],[-72.378168,-36.866771],[-72.37788,-36.86681],[-72.37708,-36.86697],[-72.376588,-36.867134],[-72.376107,-36.867274],[-72.37488,-36.86729],[-72.374382,-36.867214],[-72.37385,-36.86725],[-72.37325,-36.86732],[-72.373022,-36.867364],[-72.37284,-36.8674],[-72.37248,-36.86752],[-72.37175,-36.86797],[-72.37104,-36.86823],[-72.37024,-36.86845],[-72.3693,-36.86835],[-72.368233,-36.868078],[-72.372611,-36.866993],[-72.374393,-36.862615],[-72.370974,-36.859527],[-72.372755,-36.85515],[-72.369337,-36.852062],[-72.364138,-36.853351],[-72.362356,-36.857728],[-72.357157,-36.859016],[-72.355375,-36.863393],[-72.357973,-36.865741],[-72.3576,-36.86596],[-72.35703,-36.86645],[-72.356701,-36.866701],[-72.356304,-36.86692],[-72.355855,-36.867066],[-72.355238,-36.86716],[-72.35432,-36.86725],[-72.35347,-36.86711],[-72.35274,-36.86724],[-72.35223,-36.8673],[-72.35175,-36.86717],[-72.35115,-36.86694],[-72.35046,-36.86697],[-72.34943,-36.86705],[-72.349212,-36.867048],[-72.350176,-36.864681],[-72.346759,-36.861593],[-72.348542,-36.857216],[-72.345126,-36.854128],[-72.346908,-36.849752],[-72.343493,-36.846664],[-72.338296,-36.847952],[-72.336513,-36.852328],[-72.331315,-36.853615],[-72.329532,-36.857991],[-72.332946,-36.861079],[-72.338145,-36.859792],[-72.34156,-36.86288],[-72.34081,-36.864722],[-72.3405,-36.86468],[-72.33986,-36.86472],[-72.33908,-36.8648],[-72.33839,-36.86495],[-72.33698,-36.86538],[-72.33585,-36.86587],[-72.33518,-36.86628],[-72.33437,-36.86662],[-72.33346,-36.867],[-72.333001,-36.867118],[-72.331163,-36.865455],[-72.325964,-36.866742],[-72.325788,-36.867174],[-72.32565,-36.86718],[-72.32515,-36.86737],[-72.32477,-36.86759],[-72.32438,-36.86795],[-72.32386,-36.8686],[-72.32307,-36.86974],[-72.3227,-36.87018],[-72.32205,-36.87072],[-72.32171,-36.87109],[-72.32115,-36.87172],[-72.320865,-36.871938],[-72.32047,-36.87224],[-72.320023,-36.872342],[-72.31928,-36.87236],[-72.319191,-36.872352],[-72.318896,-36.872327],[-72.31859,-36.8723],[-72.31813,-36.87212],[-72.31694,-36.8715],[-72.31617,-36.87095],[-72.3154,-36.87012],[-72.314747,-36.869782],[-72.314274,-36.869635],[-72.31413,-36.86959],[-72.31316,-36.86962],[-72.31172,-36.86965],[-72.310935,-36.869819],[-72.310432,-36.870033],[-72.310003,-36.870269],[-72.30969,-36.87044],[-72.30893,-36.87088],[-72.308573,-36.871088],[-72.308458,-36.871318],[-72.30837,-36.87169],[-72.3084,-36.87244],[-72.30849,-36.87397],[-72.30846,-36.87459],[-72.30819,-36.87505],[-72.308174,-36.875077],[-72.30737,-36.87647],[-72.30684,-36.87718],[-72.30526,-36.87882],[-72.30338,-36.88005],[-72.30256,-36.88076],[-72.301942,-36.880945],[-72.30176,-36.881],[-72.3003,-36.88124],[-72.2985,-36.88173],[-72.29777,-36.88187],[-72.29696,-36.8819],[-72.296393,-36.881943],[-72.29603,-36.88197],[-72.29544,-36.88209],[-72.29398,-36.8829],[-72.2931,-36.88339],[-72.29175,-36.883817],[-72.291293,-36.884013],[-72.29087,-36.88447],[-72.290183,-36.884797],[-72.2894,-36.88496],[-72.28824,-36.88507],[-72.28699,-36.8853],[-72.286923,-36.885322],[-72.28598,-36.88563],[-72.28548,-36.88594],[-72.28503,-36.88638],[-72.2846,-36.88707],[-72.28422,-36.88734],[-72.283221,-36.887566],[-72.28214,-36.88781],[-72.28175,-36.88807],[-72.28108,-36.8885],[-72.280671,-36.888806],[-72.279839,-36.889149],[-72.279366,-36.8893],[-72.27871,-36.88951],[-72.27694,-36.89016],[-72.27518,-36.89091],[-72.27469,-36.89117],[-72.274576,-36.891246],[-72.273821,-36.891432],[-72.273744,-36.891619],[-72.27231,-36.89198],[-72.27159,-36.89185],[-72.27092,-36.89181],[-72.27023,-36.89175],[-72.26967,-36.8916],[-72.26651,-36.89152],[-72.26556,-36.89156],[-72.264323,-36.8918],[-72.26427,-36.89181],[-72.26203,-36.89237],[-72.25959,-36.89254],[-72.258919,-36.89254],[-72.25849,-36.892393],[-72.258205,-36.892168],[-72.25802,-36.89203],[-72.25775,-36.89172],[-72.25679,-36.89116],[-72.25569,-36.89109],[-72.255272,-36.891078],[-72.25464,-36.89106],[-72.25375,-36.89099],[-72.25295,-36.89128],[-72.2526,-36.89162],[-72.25234,-36.89278],[-72.252321,-36.892806],[-72.25201,-36.89324],[-72.25151,-36.89354],[-72.25095,-36.89379],[-72.25046,-36.89383],[-72.25,-36.89362],[-72.25,-36.89362],[-72.24973,-36.893445],[-72.24932,-36.89318],[-72.249273,-36.893158],[-72.24886,-36.89297],[-72.24813,-36.89292],[-72.24683,-36.893],[-72.24538,-36.89309],[-72.24445,-36.89338],[-72.24337,-36.89365],[-72.2428,-36.89405],[-72.24198,-36.89465],[-72.239725,-36.896491],[-72.239225,-36.896036],[-72.234027,-36.897318],[-72.23062,-36.894227],[-72.225424,-36.895508],[-72.22413,-36.898666],[-72.22276,-36.89903],[-72.22157,-36.89921],[-72.22047,-36.89955],[-72.21998,-36.89993],[-72.21896,-36.90024],[-72.21817,-36.90057],[-72.217907,-36.90068],[-72.21719,-36.90098],[-72.21679,-36.9012],[-72.21636,-36.90126],[-72.215391,-36.900872],[-72.21498,-36.90078],[-72.214402,-36.900422],[-72.213675,-36.899804],[-72.2131,-36.89907],[-72.212824,-36.898612],[-72.212822,-36.898609],[-72.2126,-36.89824],[-72.21236,-36.89782],[-72.212,-36.89756],[-72.21152,-36.89682],[-72.211427,-36.895717],[-72.21141,-36.89532],[-72.211284,-36.894404],[-72.211557,-36.893858],[-72.21193,-36.89341],[-72.21198,-36.89292],[-72.2118,-36.89239],[-72.2114,-36.89183],[-72.21094,-36.89136],[-72.210781,-36.891255],[-72.21012,-36.89082],[-72.20935,-36.89058],[-72.20859,-36.89048],[-72.20704,-36.89045],[-72.206631,-36.890442],[-72.204817,-36.888795],[-72.203955,-36.889007],[-72.20343,-36.88883],[-72.20278,-36.88882],[-72.199878,-36.882153],[-72.19918,-36.88055],[-72.196642,-36.875092],[-72.19454,-36.87057],[-72.194044,-36.869508],[-72.19335,-36.86802],[-72.192398,-36.865519],[-72.192025,-36.864537],[-72.191514,-36.864716],[-72.19039,-36.865108],[-72.190282,-36.864873],[-72.189077,-36.862248],[-72.18957,-36.86212],[-72.19021,-36.8618],[-72.19046,-36.86148],[-72.188629,-36.857425],[-72.18725,-36.85437],[-72.185371,-36.850372],[-72.18303,-36.84539],[-72.182043,-36.843338],[-72.180317,-36.839748],[-72.178057,-36.840492],[-72.176671,-36.840949],[-72.176249,-36.84084],[-72.175342,-36.840606],[-72.173369,-36.841078],[-72.171696,-36.836746],[-72.178345,-36.835353],[-72.177861,-36.834317],[-72.17754,-36.83363],[-72.176773,-36.831965],[-72.17637,-36.83109],[-72.17482,-36.82747],[-72.173926,-36.82611],[-72.175245,-36.825943],[-72.176032,-36.825843],[-72.175304,-36.824174],[-72.175185,-36.823901],[-72.172916,-36.824044],[-72.170634,-36.818668],[-72.16765,-36.81164],[-72.167614,-36.811562],[-72.165121,-36.806234],[-72.16451,-36.80637],[-72.16388,-36.80674],[-72.163776,-36.806811],[-72.16316,-36.80723],[-72.1627,-36.80793],[-72.16247,-36.80829],[-72.16228,-36.80832],[-72.16179,-36.80829],[-72.16098,-36.80843],[-72.16062,-36.80851],[-72.16028,-36.80841],[-72.15984,-36.80815],[-72.15925,-36.80806],[-72.15886,-36.80801],[-72.15815,-36.80777],[-72.15749,-36.80775],[-72.15719,-36.80793],[-72.15664,-36.80812],[-72.15615,-36.80821],[-72.155809,-36.808269],[-72.15563,-36.8083],[-72.15435,-36.80878],[-72.1535,-36.80894],[-72.15307,-36.80908],[-72.15269,-36.80904],[-72.15236,-36.80885],[-72.15228,-36.8088],[-72.15173,-36.80861],[-72.15111,-36.80869],[-72.15076,-36.80884],[-72.15114,-36.80819],[-72.151743,-36.807628],[-72.15233,-36.80708],[-72.15281,-36.80667],[-72.1529,-36.80632],[-72.1524,-36.80536],[-72.1519,-36.80438],[-72.15173,-36.80411],[-72.15143,-36.8036],[-72.15146,-36.80358],[-72.149521,-36.800327],[-72.14671,-36.79561],[-72.150017,-36.79462],[-72.1493,-36.792534],[-72.14836,-36.789801],[-72.14826,-36.78941],[-72.147593,-36.789178],[-72.146259,-36.787005],[-72.14601,-36.78722],[-72.1456,-36.7876],[-72.1452,-36.78786],[-72.14494,-36.7879],[-72.14475,-36.78792],[-72.14456,-36.78792],[-72.14437,-36.788],[-72.1438,-36.78834],[-72.143287,-36.788609],[-72.14315,-36.78868],[-72.14243,-36.7889],[-72.14168,-36.78902],[-72.14102,-36.7893],[-72.1403,-36.78976],[-72.13966,-36.79014],[-72.13729,-36.79083],[-72.136883,-36.791047],[-72.13652,-36.79124],[-72.13582,-36.7917],[-72.1352,-36.79165],[-72.13463,-36.79128],[-72.13403,-36.79107],[-72.1333,-36.79124],[-72.13237,-36.79174],[-72.13194,-36.79194],[-72.13129,-36.79194],[-72.1305,-36.79207],[-72.1299,-36.79229],[-72.12948,-36.79256],[-72.12905,-36.79307],[-72.12876,-36.79326],[-72.12781,-36.79316],[-72.12747,-36.793096],[-72.12728,-36.79306],[-72.12687,-36.79318],[-72.12631,-36.79346],[-72.12563,-36.79376],[-72.12503,-36.79387],[-72.12453,-36.79396],[-72.12387,-36.79415],[-72.12327,-36.79419],[-72.1225,-36.79405],[-72.12191,-36.79374],[-72.12146,-36.7934],[-72.12095,-36.793],[-72.12071,-36.79263],[-72.12047,-36.79243],[-72.12004,-36.79227],[-72.11943,-36.79231],[-72.11907,-36.79241],[-72.11885,-36.792618],[-72.11872,-36.79274],[-72.11842,-36.79304],[-72.1179,-36.79325],[-72.11728,-36.7936],[-72.11619,-36.79371],[-72.11564,-36.7937],[-72.11513,-36.79363],[-72.11476,-36.79365],[-72.11442,-36.79381],[-72.11376,-36.79424],[-72.11319,-36.79482],[-72.11273,-36.79523],[-72.112551,-36.795398],[-72.11222,-36.79571],[-72.11185,-36.79609],[-72.11159,-36.79617],[-72.11137,-36.79607],[-72.11127,-36.79588],[-72.11126,-36.7956],[-72.11131,-36.79522],[-72.11115,-36.79491],[-72.11091,-36.79462],[-72.11058,-36.79454],[-72.11019,-36.79463],[-72.10981,-36.79483],[-72.10923,-36.79497],[-72.10864,-36.79499],[-72.10819,-36.79497],[-72.10892,-36.79326],[-72.110354,-36.790877],[-72.11043,-36.79075],[-72.11141,-36.78884],[-72.11251,-36.78709],[-72.113208,-36.785745],[-72.116891,-36.784837],[-72.118683,-36.780473],[-72.123865,-36.779195],[-72.125657,-36.77483],[-72.122268,-36.771744],[-72.12406,-36.767381],[-72.12924,-36.766102],[-72.132629,-36.769187],[-72.13781,-36.767909],[-72.139601,-36.763544],[-72.136212,-36.760459],[-72.131032,-36.761738],[-72.127643,-36.758653],[-72.129434,-36.754289],[-72.127815,-36.752814],[-72.12783,-36.75274],[-72.12815,-36.75135],[-72.12817,-36.75124],[-72.12833,-36.75055],[-72.128446,-36.75],[-72.12881,-36.74828],[-72.129,-36.7475],[-72.12922,-36.74668],[-72.129279,-36.746485],[-72.12943,-36.74598],[-72.12972,-36.74525],[-72.12973,-36.74524],[-72.12999,-36.74468],[-72.13013,-36.7444],[-72.13255,-36.73949],[-72.132679,-36.739261],[-72.13362,-36.73759],[-72.13364,-36.73757],[-72.1339,-36.73703],[-72.13402,-36.73681],[-72.1341,-36.73621],[-72.1341,-36.7361],[-72.13413,-36.73547],[-72.13418,-36.73491],[-72.13423,-36.73438],[-72.13425,-36.73439],[-72.13499,-36.73463],[-72.13534,-36.73496],[-72.13579,-36.73543],[-72.13632,-36.73565],[-72.13683,-36.73575],[-72.13746,-36.73581],[-72.13812,-36.7357],[-72.13877,-36.73538],[-72.13915,-36.73534],[-72.13948,-36.73545],[-72.14108,-36.73639],[-72.141372,-36.736538],[-72.14234,-36.73703],[-72.14279,-36.73713],[-72.14337,-36.73704],[-72.14388,-36.73691],[-72.14459,-36.73699],[-72.14537,-36.73688],[-72.14607,-36.7367],[-72.14664,-36.73671],[-72.1471,-36.73686],[-72.14764,-36.73731],[-72.14836,-36.73769],[-72.14873,-36.73769],[-72.14912,-36.73751],[-72.14933,-36.73702],[-72.149451,-36.736548],[-72.14951,-36.73632],[-72.14981,-36.73598],[-72.15013,-36.73582],[-72.15068,-36.73567],[-72.15185,-36.73579],[-72.15258,-36.73578],[-72.15336,-36.73553],[-72.15415,-36.7352],[-72.15495,-36.73499],[-72.155949,-36.735032],[-72.15638,-36.73505],[-72.15824,-36.73563],[-72.15849,-36.7358],[-72.15877,-36.73625],[-72.15903,-36.73689],[-72.1593,-36.73734],[-72.15979,-36.73747],[-72.16086,-36.73744],[-72.16226,-36.73741],[-72.16398,-36.73738],[-72.164283,-36.73741],[-72.16438,-36.73742],[-72.16511,-36.73782],[-72.16598,-36.73823],[-72.16669,-36.73837],[-72.16727,-36.73836],[-72.168,-36.73815],[-72.16901,-36.73789],[-72.16964,-36.7379],[-72.17035,-36.7381],[-72.1708,-36.73804],[-72.17131,-36.73778],[-72.17194,-36.7374],[-72.17268,-36.73719],[-72.17334,-36.7372],[-72.173624,-36.73733],[-72.1738,-36.73741],[-72.17542,-36.73887],[-72.17589,-36.73919],[-72.17661,-36.73924],[-72.17724,-36.739168],[-72.17757,-36.73913],[-72.17901,-36.73891],[-72.18001,-36.73859],[-72.1805,-36.73828],[-72.1808,-36.73798],[-72.18101,-36.7376],[-72.18109,-36.73721],[-72.18104,-36.73628],[-72.18101,-36.73571],[-72.181135,-36.735406],[-72.18122,-36.7352],[-72.1816,-36.73482],[-72.18205,-36.73466],[-72.18242,-36.73463],[-72.18285,-36.73477],[-72.18352,-36.73555],[-72.18425,-36.73612],[-72.185598,-36.736481],[-72.18563,-36.73649],[-72.18654,-36.7366],[-72.18703,-36.73653],[-72.18753,-36.7363],[-72.188348,-36.735971],[-72.18835,-36.73597],[-72.18891,-36.73557],[-72.18946,-36.73524],[-72.18995,-36.73509],[-72.19102,-36.73499],[-72.19342,-36.73498],[-72.19449,-36.73503],[-72.19494,-36.7353],[-72.19527,-36.73561],[-72.19552,-36.73614],[-72.19557,-36.73658],[-72.19542,-36.73749],[-72.19557,-36.73781],[-72.19576,-36.737889],[-72.19598,-36.73798],[-72.19653,-36.73804],[-72.197129,-36.73796],[-72.1972,-36.73795],[-72.19803,-36.73761],[-72.19886,-36.73735],[-72.19958,-36.73728],[-72.20029,-36.73737],[-72.20073,-36.73759],[-72.20111,-36.7379],[-72.20111,-36.73816],[-72.20071,-36.73908],[-72.20051,-36.73956],[-72.20061,-36.73975],[-72.20089,-36.73981],[-72.20131,-36.73975],[-72.20181,-36.7396],[-72.20234,-36.73942],[-72.2041,-36.73873],[-72.20499,-36.73855],[-72.20573,-36.7385],[-72.205733,-36.7385],[-72.20706,-36.73863],[-72.20845,-36.73843],[-72.21027,-36.73801],[-72.21128,-36.73783],[-72.21295,-36.73783],[-72.21426,-36.73781],[-72.21505,-36.73764],[-72.21545,-36.737513],[-72.21568,-36.73744],[-72.21614,-36.73722],[-72.21649,-36.73723],[-72.21701,-36.7376],[-72.2175,-36.73776],[-72.21805,-36.73771],[-72.2187,-36.73748],[-72.21986,-36.73681],[-72.2211,-36.73613],[-72.221376,-36.736025],[-72.2221,-36.73575],[-72.22297,-36.73568],[-72.22404,-36.73558],[-72.22444,-36.73546],[-72.22496,-36.7351],[-72.22565,-36.73431],[-72.22632,-36.73376],[-72.22693,-36.73346],[-72.22742,-36.73333],[-72.22785,-36.7334],[-72.22837,-36.73367],[-72.22954,-36.73433],[-72.23042,-36.73456],[-72.230618,-36.734584],[-72.23083,-36.73461],[-72.2314,-36.73459],[-72.23187,-36.73449],[-72.23225,-36.73426],[-72.23252,-36.73374],[-72.23252,-36.73314],[-72.232379,-36.732741],[-72.23229,-36.73249],[-72.23196,-36.73198],[-72.23171,-36.73144],[-72.23169,-36.73111],[-72.23205,-36.73078],[-72.232558,-36.730567],[-72.233152,-36.730238],[-72.23354,-36.73024],[-72.23393,-36.73045],[-72.23509,-36.73119],[-72.23575,-36.73136],[-72.236529,-36.731515],[-72.23696,-36.7316],[-72.23883,-36.73154],[-72.24087,-36.73136],[-72.24164,-36.73124],[-72.24286,-36.73122],[-72.24461,-36.73119],[-72.246051,-36.731006],[-72.24743,-36.73083],[-72.24891,-36.73078],[-72.25,-36.7308],[-72.25,-36.7308],[-72.25013,-36.7308],[-72.25077,-36.73062],[-72.25139,-36.73064],[-72.25187,-36.73054],[-72.25234,-36.7304],[-72.25304,-36.72989],[-72.25341,-36.72957],[-72.253594,-36.729336],[-72.25386,-36.729],[-72.25457,-36.7282],[-72.25493,-36.72786],[-72.25532,-36.72753],[-72.25553,-36.7274],[-72.25595,-36.72716],[-72.25628,-36.72701],[-72.25661,-36.72688],[-72.25698,-36.72682],[-72.25745,-36.72678],[-72.25776,-36.72671],[-72.25821,-36.72655],[-72.2587,-36.72644],[-72.25921,-36.72636],[-72.25964,-36.72634],[-72.26049,-36.72636],[-72.26136,-36.72638],[-72.26185,-36.72637],[-72.261922,-36.726355],[-72.26239,-36.72626],[-72.26271,-36.72613],[-72.26323,-36.7258],[-72.26384,-36.72541],[-72.26409,-36.72524],[-72.26483,-36.72489],[-72.26531,-36.72467],[-72.265585,-36.724502],[-72.265702,-36.724431],[-72.26585,-36.72408],[-72.26587,-36.72387],[-72.26581,-36.72355],[-72.26579,-36.72313],[-72.26582,-36.72281],[-72.26591,-36.72245],[-72.26607,-36.72219],[-72.26622,-36.72198],[-72.26662,-36.72161],[-72.26689,-36.72138],[-72.26699,-36.72127],[-72.26705,-36.7211],[-72.26712,-36.72085],[-72.26716,-36.72065],[-72.26723,-36.72049],[-72.26737,-36.72041],[-72.26762,-36.72039],[-72.26794,-36.72039],[-72.26834,-36.72043],[-72.26861,-36.72045],[-72.26884,-36.72049],[-72.268959,-36.720525],[-72.267533,-36.724019],[-72.270933,-36.727101],[-72.276117,-36.725814],[-72.279518,-36.728896],[-72.284701,-36.727609],[-72.288104,-36.730691],[-72.286322,-36.735061],[-72.281137,-36.736348],[-72.279355,-36.740718],[-72.27417,-36.742005],[-72.272387,-36.746375],[-72.275789,-36.749458],[-72.274006,-36.753828],[-72.277409,-36.756912],[-72.282595,-36.755625],[-72.285999,-36.758709],[-72.284216,-36.763079],[-72.279029,-36.764366],[-72.277246,-36.768737],[-72.28065,-36.771821],[-72.285837,-36.770534],[-72.28762,-36.766163],[-72.292808,-36.764876],[-72.296213,-36.767961],[-72.301401,-36.766673],[-72.303183,-36.762301],[-72.308371,-36.761014],[-72.310152,-36.756642],[-72.31534,-36.755353],[-72.317121,-36.750982],[-72.313715,-36.747899],[-72.315495,-36.743527],[-72.320682,-36.742238],[-72.322462,-36.737866],[-72.319056,-36.734784],[-72.31387,-36.736073],[-72.31209,-36.740444],[-72.306904,-36.741733],[-72.303499,-36.73865],[-72.30528,-36.734279],[-72.310465,-36.732991],[-72.312246,-36.72862],[-72.317431,-36.727331],[-72.320836,-36.730413],[-72.326022,-36.729123],[-72.327801,-36.724752],[-72.324396,-36.72167],[-72.319211,-36.72296],[-72.315806,-36.719878],[-72.310622,-36.721167],[-72.308841,-36.725538],[-72.303657,-36.726827],[-72.300253,-36.723745],[-72.295069,-36.725033],[-72.291667,-36.721951],[-72.286483,-36.723239],[-72.283082,-36.720157],[-72.277899,-36.721445],[-72.274498,-36.718363],[-72.272316,-36.718905],[-72.27233,-36.71859],[-72.27239,-36.71833],[-72.27285,-36.7174],[-72.2729,-36.71717],[-72.27292,-36.71701],[-72.27298,-36.71666],[-72.27302,-36.71638],[-72.27305,-36.7162],[-72.27312,-36.71596],[-72.27317,-36.71578],[-72.27327,-36.71549],[-72.27348,-36.71504],[-72.27367,-36.71478],[-72.27401,-36.7145],[-72.27434,-36.71435],[-72.27484,-36.71415],[-72.27538,-36.71394],[-72.27564,-36.7138],[-72.2758,-36.71372],[-72.27594,-36.7137],[-72.275956,-36.7137]],[[-72.379661,-36.711839],[-72.374474,-36.713131],[-72.372698,-36.717504],[-72.376108,-36.720585],[-72.381295,-36.719293],[-72.383072,-36.714919],[-72.379661,-36.711839]],[[-72.357138,-36.72138],[-72.360547,-36.724461],[-72.365734,-36.72317],[-72.367511,-36.718797],[-72.364102,-36.715716],[-72.358916,-36.717007],[-72.357138,-36.72138]],[[-72.413251,-36.789994],[-72.415028,-36.785617],[-72.41161,-36.782533],[-72.413386,-36.778156],[-72.409969,-36.775073],[-72.411745,-36.770696],[-72.408328,-36.767613],[-72.410105,-36.763237],[-72.406688,-36.760154],[-72.401496,-36.761447],[-72.398081,-36.758364],[-72.392889,-36.759657],[-72.391112,-36.764032],[-72.394527,-36.767115],[-72.39275,-36.771491],[-72.396166,-36.774575],[-72.394388,-36.778951],[-72.389195,-36.780243],[-72.38578,-36.777159],[-72.387558,-36.772783],[-72.384143,-36.7697],[-72.378951,-36.770991],[-72.375537,-36.767908],[-72.377315,-36.763533],[-72.373902,-36.76045],[-72.368712,-36.761741],[-72.366933,-36.766115],[-72.370346,-36.769199],[-72.368567,-36.773574],[-72.371981,-36.776657],[-72.370202,-36.781032],[-72.365009,-36.782323],[-72.36323,-36.786698],[-72.366644,-36.789783],[-72.371837,-36.788492],[-72.373616,-36.784117],[-72.378809,-36.782826],[-72.382224,-36.78591],[-72.380445,-36.790286],[-72.383861,-36.79337],[-72.382082,-36.797746],[-72.376888,-36.799037],[-72.375108,-36.803413],[-72.378524,-36.806499],[-72.38372,-36.805208],[-72.385498,-36.800831],[-72.390693,-36.79954],[-72.39411,-36.802625],[-72.392332,-36.807002],[-72.39575,-36.810087],[-72.400946,-36.808796],[-72.402724,-36.804418],[-72.399306,-36.801333],[-72.401084,-36.796956],[-72.406279,-36.795664],[-72.409698,-36.798749],[-72.414893,-36.797456],[-72.41667,-36.793079],[-72.413251,-36.789994]],[[-72.419383,-36.705861],[-72.422797,-36.708941],[-72.427985,-36.707646],[-72.429759,-36.703271],[-72.426344,-36.700191],[-72.421157,-36.701487],[-72.419383,-36.705861]],[[-72.379235,-36.747326],[-72.381012,-36.742952],[-72.3776,-36.73987],[-72.372411,-36.741162],[-72.370634,-36.745536],[-72.365444,-36.746827],[-72.363666,-36.751201],[-72.358477,-36.752492],[-72.356698,-36.756866],[-72.351509,-36.758156],[-72.348098,-36.755073],[-72.342909,-36.756363],[-72.34113,-36.760736],[-72.34454,-36.76382],[-72.34276,-36.768193],[-72.34617,-36.771277],[-72.34439,-36.775651],[-72.347801,-36.778735],[-72.352993,-36.777445],[-72.354772,-36.773071],[-72.351361,-36.769987],[-72.35314,-36.765613],[-72.358331,-36.764323],[-72.360109,-36.759949],[-72.365299,-36.758658],[-72.367078,-36.754284],[-72.372268,-36.752992],[-72.37568,-36.756075],[-72.380871,-36.754783],[-72.382648,-36.750409],[-72.379235,-36.747326]],[[-72.182837,-36.748935],[-72.186231,-36.752019],[-72.191412,-36.750737],[-72.1932,-36.74637],[-72.189806,-36.743286],[-72.184625,-36.744569],[-72.182837,-36.748935]],[[-72.193019,-36.758187],[-72.187837,-36.759469],[-72.186048,-36.763836],[-72.189443,-36.766921],[-72.194626,-36.765639],[-72.196414,-36.761272],[-72.193019,-36.758187]],[[-72.152975,-36.787703],[-72.151184,-36.792069],[-72.154577,-36.795156],[-72.159761,-36.793876],[-72.161551,-36.78951],[-72.158158,-36.786424],[-72.152975,-36.787703]],[[-72.139409,-36.775359],[-72.1428,-36.778445],[-72.147982,-36.777166],[-72.149773,-36.7728],[-72.146382,-36.769715],[-72.1412,-36.770994],[-72.139409,-36.775359]],[[-72.238052,-36.739185],[-72.241451,-36.742268],[-72.246634,-36.740983],[-72.248418,-36.736614],[-72.245019,-36.733531],[-72.239837,-36.734817],[-72.238052,-36.739185]],[[-72.203205,-36.767442],[-72.198022,-36.768724],[-72.196234,-36.773091],[-72.19105,-36.774373],[-72.189261,-36.77874],[-72.192657,-36.781826],[-72.197842,-36.780544],[-72.201239,-36.78363],[-72.19945,-36.787997],[-72.194265,-36.789279],[-72.192476,-36.793647],[-72.18729,-36.794928],[-72.185501,-36.799296],[-72.188898,-36.802382],[-72.194084,-36.801101],[-72.195873,-36.796733],[-72.201059,-36.795452],[-72.202848,-36.791083],[-72.208034,-36.789801],[-72.211432,-36.792887],[-72.216619,-36.791605],[-72.218406,-36.787236],[-72.215007,-36.784151],[-72.209822,-36.785433],[-72.206424,-36.782347],[-72.208212,-36.77798],[-72.204814,-36.774894],[-72.206602,-36.770527],[-72.203205,-36.767442]],[[-72.260067,-36.76514],[-72.254881,-36.766425],[-72.253096,-36.770795],[-72.256498,-36.773879],[-72.261685,-36.772594],[-72.263469,-36.768224],[-72.260067,-36.76514]],[[-72.228952,-36.772847],[-72.223767,-36.774131],[-72.22198,-36.778499],[-72.225379,-36.781585],[-72.230565,-36.780301],[-72.232352,-36.775932],[-72.228952,-36.772847]],[[-72.156556,-36.778972],[-72.159949,-36.782058],[-72.165132,-36.780778],[-72.166922,-36.776412],[-72.163529,-36.773326],[-72.158346,-36.774606],[-72.156556,-36.778972]],[[-72.288598,-36.820938],[-72.290383,-36.816565],[-72.286975,-36.813478],[-72.288759,-36.809106],[-72.285352,-36.80602],[-72.287136,-36.801648],[-72.28373,-36.798562],[-72.27854,-36.799848],[-72.276755,-36.804219],[-72.280161,-36.807306],[-72.278377,-36.811678],[-72.281783,-36.814764],[-72.279998,-36.819136],[-72.283406,-36.822223],[-72.288598,-36.820938]],[[-72.300926,-36.802161],[-72.304334,-36.805247],[-72.309526,-36.80396],[-72.312935,-36.807046],[-72.318128,-36.805758],[-72.321538,-36.808844],[-72.319755,-36.813218],[-72.323166,-36.816304],[-72.32836,-36.815017],[-72.331772,-36.818103],[-72.32999,-36.822477],[-72.333402,-36.825564],[-72.338597,-36.824276],[-72.340379,-36.819901],[-72.336966,-36.816815],[-72.338748,-36.81244],[-72.335336,-36.809354],[-72.330142,-36.810642],[-72.326731,-36.807556],[-72.328513,-36.803182],[-72.325102,-36.800097],[-72.326884,-36.795723],[-72.323474,-36.792638],[-72.318283,-36.793926],[-72.314874,-36.790841],[-72.309683,-36.792128],[-72.3079,-36.796501],[-72.302709,-36.797788],[-72.300926,-36.802161]],[[-72.323012,-36.82814],[-72.317818,-36.829427],[-72.316034,-36.833801],[-72.319446,-36.836888],[-72.324641,-36.835601],[-72.326424,-36.831227],[-72.323012,-36.82814]],[[-72.359232,-36.830959],[-72.355817,-36.827872],[-72.35062,-36.829161],[-72.348839,-36.833537],[-72.352254,-36.836624],[-72.357451,-36.835335],[-72.359232,-36.830959]],[[-72.336664,-36.840489],[-72.33325,-36.837401],[-72.328054,-36.838689],[-72.326271,-36.843064],[-72.329684,-36.846152],[-72.334881,-36.844864],[-72.336664,-36.840489]],[[-72.381657,-36.833263],[-72.385075,-36.83635],[-72.390274,-36.83506],[-72.392053,-36.830682],[-72.388634,-36.827596],[-72.383437,-36.828886],[-72.381657,-36.833263]],[[-72.359525,-36.807284],[-72.362939,-36.810369],[-72.368134,-36.809079],[-72.369914,-36.804704],[-72.366499,-36.801618],[-72.361305,-36.802908],[-72.359525,-36.807284]],[[-72.378382,-36.818337],[-72.381799,-36.821423],[-72.386996,-36.820132],[-72.388775,-36.815755],[-72.385357,-36.81267],[-72.380161,-36.81396],[-72.378382,-36.818337]],[[-72.318592,-36.770265],[-72.322,-36.773349],[-72.32719,-36.772061],[-72.328971,-36.767688],[-72.325562,-36.764604],[-72.327343,-36.760232],[-72.323935,-36.757148],[-72.318747,-36.758437],[-72.316966,-36.762809],[-72.320373,-36.765893],[-72.318592,-36.770265]],[[-72.280487,-36.783648],[-72.283892,-36.786733],[-72.289081,-36.785447],[-72.290865,-36.781075],[-72.287459,-36.77799],[-72.282271,-36.779277],[-72.280487,-36.783648]]]},"properties":{"comuna":"Bulnes","mancha_id":"16102-88b2d82483fffff","clase":"Medio","nivel_medio":2.067,"nivel_medio_min":1.504,"nivel_medio_max":2.496,"pct_alto":16.9,"n_hexagonos":638,"area_ha":35523.37}},{"type":"Feature","geometry":{"type":"Polygon","coordinates":[[[-72.314337,-36.700605],[-72.310934,-36.697524],[-72.311243,-36.696765],[-72.3114,-36.69667],[-72.31177,-36.6966],[-72.31282,-36.69651],[-72.31334,-36.69641],[-72.31372,-36.69637],[-72.31398,-36.69631],[-72.31419,-36.69628],[-72.31458,-36.69624],[-72.31497,-36.69618],[-72.31526,-36.69614],[-72.31569,-36.69605],[-72.31611,-36.69598],[-72.31655,-36.69589],[-72.31731,-36.69566],[-72.31796,-36.69544],[-72.31837,-36.69536],[-72.31907,-36.69519],[-72.31959,-36.69511],[-72.31995,-36.69505],[-72.32046,-36.69491],[-72.321057,-36.694726],[-72.321298,-36.694944],[-72.31952,-36.699315],[-72.314337,-36.700605]]]},"properties":{"comuna":"Bulnes","mancha_id":"16102-88b2d82433fffff","clase":"Medio","nivel_medio":1.826,"nivel_medio_min":1.826,"nivel_medio_max":1.826,"pct_alto":6.2,"n_hexagonos":1,"area_ha":34.1}},{"type":"Feature","geometry":{"type":"Polygon","coordinates":[[[-72.36777,-36.86796],[-72.366598,-36.867548],[-72.364582,-36.865726],[-72.3648,-36.86564],[-72.364976,-36.865407],[-72.36506,-36.86515],[-72.36494,-36.86481],[-72.364667,-36.864204],[-72.364478,-36.863999],[-72.364383,-36.863895],[-72.364031,-36.863744],[-72.36337,-36.86368],[-72.36249,-36.86374],[-72.36212,-36.86378],[-72.361527,-36.863995],[-72.36084,-36.86435],[-72.36023,-36.86466],[-72.35985,-36.86474],[-72.35899,-36.86479],[-72.35866,-36.86491],[-72.35853,-36.8652],[-72.35818,-36.86562],[-72.357973,-36.865741],[-72.355375,-36.863393],[-72.357157,-36.859016],[-72.362356,-36.857728],[-72.364138,-36.853351],[-72.369337,-36.852062],[-72.372755,-36.85515],[-72.370974,-36.859527],[-72.374393,-36.862615],[-72.372611,-36.866993],[-72.368233,-36.868078],[-72.36777,-36.86796]]]},"properties":{"comuna":"Bulnes","mancha_id":"16102-88b2db96c3fffff","clase":"Alto","nivel_medio":2.646,"nivel_medio_min":2.593,"nivel_medio_max":2.678,"pct_alto":67.5,"n_hexagonos":3,"area_ha":171.34}},{"type":"Feature","geometry":{"type":"Polygon","coordinates":[[[-72.327343,-36.760232],[-72.325562,-36.764604],[-72.320373,-36.765893],[-72.316966,-36.762809],[-72.318747,-36.758437],[-72.323935,-36.757148],[-72.327343,-36.760232]]]},"properties":{"comuna":"Bulnes","mancha_id":"16102-88b2d95b5bfffff","clase":"Alto","nivel_medio":2.599,"nivel_medio_min":2.599,"nivel_medio_max":2.599,"pct_alto":61.6,"n_hexagonos":1,"area_ha":60.61}},{"type":"Feature","geometry":{"type":"Polygon","coordinates":[[[-72.373616,-36.784117],[-72.371837,-36.788492],[-72.366644,-36.789783],[-72.36323,-36.786698],[-72.365009,-36.782323],[-72.370202,-36.781032],[-72.373616,-36.784117]]]},"properties":{"comuna":"Bulnes","mancha_id":"16102-88b2d95b21fffff","clase":"Alto","nivel_medio":3.042,"nivel_medio_min":3.042,"nivel_medio_max":3.042,"pct_alto":78.0,"n_hexagonos":1,"area_ha":60.69}},{"type":"Feature","geometry":{"type":"Polygon","coordinates":[[[-72.325964,-36.866742],[-72.331163,-36.865455],[-72.333001,-36.867118],[-72.33105,-36.86762],[-72.33038,-36.86777],[-72.32934,-36.86781],[-72.32903,-36.86764],[-72.32876,-36.86757],[-72.32797,-36.86753],[-72.32697,-36.86739],[-72.32663,-36.86725],[-72.32609,-36.86716],[-72.325788,-36.867174],[-72.325964,-36.866742]]]},"properties":{"comuna":"Bulnes","mancha_id":"16102-88b2d959a9fffff","clase":"Alto","nivel_medio":3.31,"nivel_medio_min":3.31,"nivel_medio_max":3.31,"pct_alto":78.5,"n_hexagonos":1,"area_ha":9.47}},{"type":"Feature","geometry":{"type":"Polygon","coordinates":[[[-72.388775,-36.815755],[-72.386996,-36.820132],[-72.381799,-36.821423],[-72.378382,-36.818337],[-72.380161,-36.81396],[-72.385357,-36.81267],[-72.388775,-36.815755]]]},"properties":{"comuna":"Bulnes","mancha_id":"16102-88b2d95961fffff","clase":"Alto","nivel_medio":2.55,"nivel_medio_min":2.55,"nivel_medio_max":2.55,"pct_alto":59.3,"n_hexagonos":1,"area_ha":60.74}},{"type":"Feature","geometry":{"type":"Polygon","coordinates":[[[-72.392053,-36.830682],[-72.390274,-36.83506],[-72.385075,-36.83635],[-72.381657,-36.833263],[-72.383437,-36.828886],[-72.388634,-36.827596],[-72.392053,-36.830682]]]},"properties":{"comuna":"Bulnes","mancha_id":"16102-88b2d9592dfffff","clase":"Alto","nivel_medio":3.399,"nivel_medio_min":3.399,"nivel_medio_max":3.399,"pct_alto":77.4,"n_hexagonos":1,"area_ha":60.75}},{"type":"Feature","geometry":{"type":"Polygon","coordinates":[[[-72.383296,-36.840728],[-72.386714,-36.843815],[-72.391913,-36.842524],[-72.393643,-36.844086],[-72.39366,-36.84509],[-72.39319,-36.84769],[-72.39313,-36.84887],[-72.39299,-36.84931],[-72.39249,-36.85008],[-72.391961,-36.850385],[-72.388354,-36.85128],[-72.384934,-36.848193],[-72.379735,-36.849483],[-72.376317,-36.846395],[-72.378097,-36.842018],[-72.383296,-36.840728]]]},"properties":{"comuna":"Bulnes","mancha_id":"16102-88b2d95927fffff","clase":"Alto","nivel_medio":2.814,"nivel_medio_min":2.512,"nivel_medio_max":3.082,"pct_alto":53.0,"n_hexagonos":2,"area_ha":114.64}},{"type":"Feature","geometry":{"type":"Polygon","coordinates":[[[-72.359232,-36.830959],[-72.357451,-36.835335],[-72.352254,-36.836624],[-72.348839,-36.833537],[-72.35062,-36.829161],[-72.355817,-36.827872],[-72.359232,-36.830959]]]},"properties":{"comuna":"Bulnes","mancha_id":"16102-88b2d95903fffff","clase":"Alto","nivel_medio":2.774,"nivel_medio_min":2.774,"nivel_medio_max":2.774,"pct_alto":74.3,"n_hexagonos":1,"area_ha":60.71}},{"type":"Feature","geometry":{"type":"Polygon","coordinates":[[[-72.314874,-36.790841],[-72.318283,-36.793926],[-72.323474,-36.792638],[-72.326884,-36.795723],[-72.325102,-36.800097],[-72.328513,-36.803182],[-72.326731,-36.807556],[-72.330142,-36.810642],[-72.335336,-36.809354],[-72.338748,-36.81244],[-72.336966,-36.816815],[-72.340379,-36.819901],[-72.338597,-36.824276],[-72.333402,-36.825564],[-72.32999,-36.822477],[-72.331772,-36.818103],[-72.32836,-36.815017],[-72.323166,-36.816304],[-72.319755,-36.813218],[-72.321538,-36.808844],[-72.318128,-36.805758],[-72.312935,-36.807046],[-72.309526,-36.80396],[-72.304334,-36.805247],[-72.300926,-36.802161],[-72.302709,-36.797788],[-72.3079,-36.796501],[-72.309683,-36.792128],[-72.314874,-36.790841]]]},"properties":{"comuna":"Bulnes","mancha_id":"16102-88b2d95845fffff","clase":"Alto","nivel_medio":2.663,"nivel_medio_min":2.516,"nivel_medio_max":3.085,"pct_alto":64.3,"n_hexagonos":8,"area_ha":485.22}},{"type":"Feature","geometry":{"type":"Polygon","coordinates":[[[-72.326424,-36.831227],[-72.324641,-36.835601],[-72.319446,-36.836888],[-72.316034,-36.833801],[-72.317818,-36.829427],[-72.323012,-36.82814],[-72.326424,-36.831227]]]},"properties":{"comuna":"Bulnes","mancha_id":"16102-88b2d95827fffff","clase":"Alto","nivel_medio":2.656,"nivel_medio_min":2.656,"nivel_medio_max":2.656,"pct_alto":49.5,"n_hexagonos":1,"area_ha":60.68}},{"type":"Feature","geometry":{"type":"Polygon","coordinates":[[[-72.290383,-36.816565],[-72.288598,-36.820938],[-72.283406,-36.822223],[-72.279998,-36.819136],[-72.281783,-36.814764],[-72.278377,-36.811678],[-72.280161,-36.807306],[-72.276755,-36.804219],[-72.27854,-36.799848],[-72.28373,-36.798562],[-72.287136,-36.801648],[-72.285352,-36.80602],[-72.288759,-36.809106],[-72.286975,-36.813478],[-72.290383,-36.816565]]]},"properties":{"comuna":"Bulnes","mancha_id":"16102-88b2d9581dfffff","clase":"Alto","nivel_medio":2.621,"nivel_medio_min":2.511,"nivel_medio_max":2.775,"pct_alto":60.2,"n_hexagonos":3,"area_ha":181.84}},{"type":"Feature","geometry":{"type":"Polygon","coordinates":[[[-72.166922,-36.776412],[-72.165132,-36.780778],[-72.159949,-36.782058],[-72.156556,-36.778972],[-72.158346,-36.774606],[-72.163529,-36.773326],[-72.166922,-36.776412]]]},"properties":{"comuna":"Bulnes","mancha_id":"16102-88b2d951d1fffff","clase":"Alto","nivel_medio":2.663,"nivel_medio_min":2.663,"nivel_medio_max":2.663,"pct_alto":53.8,"n_hexagonos":1,"area_ha":60.44}},{"type":"Feature","geometry":{"type":"Polygon","coordinates":[[[-72.196414,-36.761272],[-72.194626,-36.765639],[-72.189443,-36.766921],[-72.186048,-36.763836],[-72.187837,-36.759469],[-72.193019,-36.758187],[-72.196414,-36.761272]]]},"properties":{"comuna":"Bulnes","mancha_id":"16102-88b2d951cdfffff","clase":"Alto","nivel_medio":2.549,"nivel_medio_min":2.549,"nivel_medio_max":2.549,"pct_alto":59.8,"n_hexagonos":1,"area_ha":60.46}},{"type":"Feature","geometry":{"type":"Polygon","coordinates":[[[-72.202848,-36.791083],[-72.201059,-36.795452],[-72.195873,-36.796733],[-72.194084,-36.801101],[-72.188898,-36.802382],[-72.185501,-36.799296],[-72.18729,-36.794928],[-72.192476,-36.793647],[-72.194265,-36.789279],[-72.19945,-36.787997],[-72.201239,-36.78363],[-72.197842,-36.780544],[-72.192657,-36.781826],[-72.189261,-36.77874],[-72.19105,-36.774373],[-72.196234,-36.773091],[-72.198022,-36.768724],[-72.203205,-36.767442],[-72.206602,-36.770527],[-72.204814,-36.774894],[-72.208212,-36.77798],[-72.206424,-36.782347],[-72.209822,-36.785433],[-72.215007,-36.784151],[-72.218406,-36.787236],[-72.216619,-36.791605],[-72.211432,-36.792887],[-72.208034,-36.789801],[-72.202848,-36.791083]]]},"properties":{"comuna":"Bulnes","mancha_id":"16102-88b2d951a9fffff","clase":"Alto","nivel_medio":2.702,"nivel_medio_min":2.55,"nivel_medio_max":2.924,"pct_alto":64.0,"n_hexagonos":7,"area_ha":423.44}},{"type":"Feature","geometry":{"type":"Polygon","coordinates":[[[-72.161551,-36.78951],[-72.159761,-36.793876],[-72.154577,-36.795156],[-72.151184,-36.792069],[-72.152975,-36.787703],[-72.158158,-36.786424],[-72.161551,-36.78951]]]},"properties":{"comuna":"Bulnes","mancha_id":"16102-88b2d95199fffff","clase":"Alto","nivel_medio":2.523,"nivel_medio_min":2.523,"nivel_medio_max":2.523,"pct_alto":40.4,"n_hexagonos":1,"area_ha":60.44}},{"type":"Feature","geometry":{"type":"Polygon","coordinates":[[[-72.248418,-36.736614],[-72.246634,-36.740983],[-72.241451,-36.742268],[-72.238052,-36.739185],[-72.239837,-36.734817],[-72.245019,-36.733531],[-72.248418,-36.736614]]]},"properties":{"comuna":"Bulnes","mancha_id":"16102-88b2d9516bfffff","clase":"Alto","nivel_medio":2.533,"nivel_medio_min":2.533,"nivel_medio_max":2.533,"pct_alto":52.8,"n_hexagonos":1,"area_ha":60.5}},{"type":"Feature","geometry":{"type":"Polygon","coordinates":[[[-72.232352,-36.775932],[-72.230565,-36.780301],[-72.225379,-36.781585],[-72.22198,-36.778499],[-72.223767,-36.774131],[-72.228952,-36.772847],[-72.232352,-36.775932]]]},"properties":{"comuna":"Bulnes","mancha_id":"16102-88b2d95137fffff","clase":"Alto","nivel_medio":2.595,"nivel_medio_min":2.595,"nivel_medio_max":2.595,"pct_alto":42.7,"n_hexagonos":1,"area_ha":60.52}},{"type":"Feature","geometry":{"type":"Polygon","coordinates":[[[-72.149773,-36.7728],[-72.147982,-36.777166],[-72.1428,-36.778445],[-72.139409,-36.775359],[-72.1412,-36.770994],[-72.146382,-36.769715],[-72.149773,-36.7728]]]},"properties":{"comuna":"Bulnes","mancha_id":"16102-88b2d950e7fffff","clase":"Alto","nivel_medio":2.664,"nivel_medio_min":2.664,"nivel_medio_max":2.664,"pct_alto":54.7,"n_hexagonos":1,"area_ha":60.42}},{"type":"Feature","geometry":{"type":"Polygon","coordinates":[[[-72.123865,-36.779195],[-72.118683,-36.780473],[-72.116891,-36.784837],[-72.113208,-36.785745],[-72.11348,-36.78522],[-72.1138,-36.78441],[-72.11416,-36.78348],[-72.11584,-36.78016],[-72.11648,-36.77879],[-72.116599,-36.778574],[-72.11739,-36.77713],[-72.11799,-36.77607],[-72.11954,-36.7734],[-72.12007,-36.7725],[-72.120243,-36.772244],[-72.12076,-36.77148],[-72.12246,-36.76892],[-72.12338,-36.76753],[-72.123678,-36.767032],[-72.12414,-36.76626],[-72.12455,-36.76535],[-72.12487,-36.76357],[-72.12497,-36.7628],[-72.12488,-36.7622],[-72.12457,-36.7612],[-72.12453,-36.76085],[-72.12449,-36.76056],[-72.1245,-36.76014],[-72.12458,-36.75984],[-72.12495,-36.75954],[-72.125355,-36.759218],[-72.127643,-36.758653],[-72.131032,-36.761738],[-72.136212,-36.760459],[-72.139601,-36.763544],[-72.13781,-36.767909],[-72.132629,-36.769187],[-72.12924,-36.766102],[-72.12406,-36.767381],[-72.122268,-36.771744],[-72.125657,-36.77483],[-72.123865,-36.779195]]]},"properties":{"comuna":"Bulnes","mancha_id":"16102-88b2d95081fffff","clase":"Alto","nivel_medio":2.689,"nivel_medio_min":2.541,"nivel_medio_max":3.054,"pct_alto":51.8,"n_hexagonos":5,"area_ha":172.2}},{"type":"Feature","geometry":{"type":"Polygon","coordinates":[[[-72.1932,-36.74637],[-72.191412,-36.750737],[-72.186231,-36.752019],[-72.182837,-36.748935],[-72.184625,-36.744569],[-72.189806,-36.743286],[-72.1932,-36.74637]]]},"properties":{"comuna":"Bulnes","mancha_id":"16102-88b2d95021fffff","clase":"Alto","nivel_medio":2.815,"nivel_medio_min":2.815,"nivel_medio_max":2.815,"pct_alto":81.7,"n_hexagonos":1,"area_ha":60.44}},{"type":"Feature","geometry":{"type":"Polygon","coordinates":[[[-72.398633,-36.711039],[-72.395221,-36.707959],[-72.395843,-36.706426],[-72.395994,-36.70644],[-72.39638,-36.706404],[-72.396878,-36.706406],[-72.397214,-36.706367],[-72.397433,-36.706264],[-72.397588,-36.706135],[-72.397763,-36.706054],[-72.397902,-36.706031],[-72.398037,-36.706063],[-72.39827,-36.706184],[-72.398629,-36.706361],[-72.39896,-36.706506],[-72.399286,-36.70652],[-72.399482,-36.706422],[-72.399648,-36.706268],[-72.399792,-36.706097],[-72.399883,-36.705942],[-72.399934,-36.70571],[-72.399947,-36.705452],[-72.40005,-36.705233],[-72.400385,-36.705014],[-72.400901,-36.70473],[-72.401404,-36.704562],[-72.401946,-36.704382],[-72.402248,-36.704316],[-72.402575,-36.704261],[-72.402685,-36.704158],[-72.402887,-36.703956],[-72.403158,-36.703686],[-72.403434,-36.70342],[-72.405595,-36.705371],[-72.410782,-36.704076],[-72.414195,-36.707156],[-72.412421,-36.711531],[-72.407233,-36.712825],[-72.40382,-36.709745],[-72.398633,-36.711039]]]},"properties":{"comuna":"Bulnes","mancha_id":"16102-88b2d82ec9fffff","clase":"Alto","nivel_medio":2.69,"nivel_medio_min":2.681,"nivel_medio_max":2.696,"pct_alto":72.8,"n_hexagonos":2,"area_ha":104.59}},{"type":"Feature","geometry":{"type":"Polygon","coordinates":[[[-72.381012,-36.742952],[-72.379235,-36.747326],[-72.382648,-36.750409],[-72.380871,-36.754783],[-72.37568,-36.756075],[-72.372268,-36.752992],[-72.367078,-36.754284],[-72.365299,-36.758658],[-72.360109,-36.759949],[-72.358331,-36.764323],[-72.35314,-36.765613],[-72.351361,-36.769987],[-72.354772,-36.773071],[-72.352993,-36.777445],[-72.347801,-36.778735],[-72.34439,-36.775651],[-72.34617,-36.771277],[-72.34276,-36.768193],[-72.34454,-36.76382],[-72.34113,-36.760736],[-72.342909,-36.756363],[-72.348098,-36.755073],[-72.351509,-36.758156],[-72.356698,-36.756866],[-72.358477,-36.752492],[-72.363666,-36.751201],[-72.365444,-36.746827],[-72.370634,-36.745536],[-72.372411,-36.741162],[-72.3776,-36.73987],[-72.381012,-36.742952]]]},"properties":{"comuna":"Bulnes","mancha_id":"16102-88b2d82e91fffff","clase":"Alto","nivel_medio":2.642,"nivel_medio_min":2.519,"nivel_medio_max":3.065,"pct_alto":45.4,"n_hexagonos":8,"area_ha":485.25}},{"type":"Feature","geometry":{"type":"Polygon","coordinates":[[[-72.429759,-36.703271],[-72.427985,-36.707646],[-72.422797,-36.708941],[-72.419383,-36.705861],[-72.421157,-36.701487],[-72.426344,-36.700191],[-72.429759,-36.703271]]]},"properties":{"comuna":"Bulnes","mancha_id":"16102-88b2d82e11fffff","clase":"Alto","nivel_medio":2.549,"nivel_medio_min":2.549,"nivel_medio_max":2.549,"pct_alto":54.9,"n_hexagonos":1,"area_ha":60.69}},{"type":"Feature","geometry":{"type":"Polygon","coordinates":[[[-72.415028,-36.785617],[-72.413251,-36.789994],[-72.41667,-36.793079],[-72.414893,-36.797456],[-72.409698,-36.798749],[-72.406279,-36.795664],[-72.401084,-36.796956],[-72.399306,-36.801333],[-72.402724,-36.804418],[-72.400946,-36.808796],[-72.39575,-36.810087],[-72.392332,-36.807002],[-72.39411,-36.802625],[-72.390693,-36.79954],[-72.385498,-36.800831],[-72.382082,-36.797746],[-72.383861,-36.79337],[-72.380445,-36.790286],[-72.382224,-36.78591],[-72.378809,-36.782826],[-72.380587,-36.77845],[-72.377173,-36.775366],[-72.371981,-36.776657],[-72.368567,-36.773574],[-72.370346,-36.769199],[-72.366933,-36.766115],[-72.368712,-36.761741],[-72.373902,-36.76045],[-72.377315,-36.763533],[-72.375537,-36.767908],[-72.378951,-36.770991],[-72.384143,-36.7697],[-72.387558,-36.772783],[-72.38578,-36.777159],[-72.389195,-36.780243],[-72.394388,-36.778951],[-72.396166,-36.774575],[-72.39275,-36.771491],[-72.394527,-36.767115],[-72.391112,-36.764032],[-72.392889,-36.759657],[-72.398081,-36.758364],[-72.401496,-36.761447],[-72.406688,-36.760154],[-72.410105,-36.763237],[-72.408328,-36.767613],[-72.411745,-36.770696],[-72.409969,-36.775073],[-72.413386,-36.778156],[-72.41161,-36.782533],[-72.415028,-36.785617]],[[-72.404639,-36.788203],[-72.406416,-36.783826],[-72.402998,-36.780742],[-72.397805,-36.782035],[-72.396027,-36.786411],[-72.390833,-36.787703],[-72.389055,-36.792079],[-72.392471,-36.795164],[-72.397666,-36.793872],[-72.399444,-36.789495],[-72.404639,-36.788203]]]},"properties":{"comuna":"Bulnes","mancha_id":"16102-88b2d82c81fffff","clase":"Alto","nivel_medio":2.986,"nivel_medio_min":2.502,"nivel_medio_max":3.474,"pct_alto":68.5,"n_hexagonos":18,"area_ha":1092.93}},{"type":"Feature","geometry":{"type":"Polygon","coordinates":[[[-72.327801,-36.724752],[-72.326022,-36.729123],[-72.320836,-36.730413],[-72.317431,-36.727331],[-72.319211,-36.72296],[-72.324396,-36.72167],[-72.327801,-36.724752]]]},"properties":{"comuna":"Bulnes","mancha_id":"16102-88b2d8259dfffff","clase":"Alto","nivel_medio":2.838,"nivel_medio_min":2.838,"nivel_medio_max":2.838,"pct_alto":79.2,"n_hexagonos":1,"area_ha":60.58}},{"type":"Feature","geometry":{"type":"Polygon","coordinates":[[[-72.291667,-36.721951],[-72.295069,-36.725033],[-72.300253,-36.723745],[-72.303657,-36.726827],[-72.308841,-36.725538],[-72.312246,-36.72862],[-72.310465,-36.732991],[-72.30528,-36.734279],[-72.301876,-36.731197],[-72.296691,-36.732485],[-72.29491,-36.736856],[-72.289725,-36.738144],[-72.287943,-36.742514],[-72.282757,-36.743801],[-72.280975,-36.748171],[-72.284378,-36.751255],[-72.289564,-36.749967],[-72.292968,-36.753051],[-72.291186,-36.757422],[-72.29459,-36.760505],[-72.299778,-36.759218],[-72.301559,-36.754846],[-72.298154,-36.751763],[-72.299936,-36.747392],[-72.305122,-36.746104],[-72.306904,-36.741733],[-72.31209,-36.740444],[-72.31387,-36.736073],[-72.319056,-36.734784],[-72.322462,-36.737866],[-72.320682,-36.742238],[-72.315495,-36.743527],[-72.313715,-36.747899],[-72.317121,-36.750982],[-72.31534,-36.755353],[-72.310152,-36.756642],[-72.308371,-36.761014],[-72.303183,-36.762301],[-72.301401,-36.766673],[-72.296213,-36.767961],[-72.292808,-36.764876],[-72.28762,-36.766163],[-72.285837,-36.770534],[-72.28065,-36.771821],[-72.277246,-36.768737],[-72.279029,-36.764366],[-72.284216,-36.763079],[-72.285999,-36.758709],[-72.282595,-36.755625],[-72.277409,-36.756912],[-72.274006,-36.753828],[-72.275789,-36.749458],[-72.272387,-36.746375],[-72.27417,-36.742005],[-72.279355,-36.740718],[-72.281137,-36.736348],[-72.286322,-36.735061],[-72.288104,-36.730691],[-72.284701,-36.727609],[-72.279518,-36.728896],[-72.276117,-36.725814],[-72.270933,-36.727101],[-72.267533,-36.724019],[-72.268959,-36.720525],[-72.26918,-36.72059],[-72.2697,-36.72076],[-72.27016,-36.72086],[-72.27066,-36.72092],[-72.27121,-36.7209],[-72.27155,-36.72072],[-72.27176,-36.72057],[-72.27184,-36.7205],[-72.2721,-36.7202],[-72.27217,-36.72006],[-72.27221,-36.71992],[-72.27225,-36.71969],[-72.27229,-36.71937],[-72.27231,-36.71903],[-72.272316,-36.718905],[-72.274498,-36.718363],[-72.277899,-36.721445],[-72.283082,-36.720157],[-72.286483,-36.723239],[-72.291667,-36.721951]]]},"properties":{"comuna":"Bulnes","mancha_id":"16102-88b2d824a3fffff","clase":"Alto","nivel_medio":2.782,"nivel_medio_min":2.549,"nivel_medio_max":3.272,"pct_alto":74.3,"n_hexagonos":18,"area_ha":1085.79}},{"type":"Feature","geometry":{"type":"Polygon","coordinates":[[[-72.282707,-36.707851],[-72.283244,-36.708337],[-72.281462,-36.712706],[-72.280587,-36.712924],[-72.2809,-36.71262],[-72.28123,-36.7123],[-72.28153,-36.71201],[-72.2817,-36.71176],[-72.28184,-36.71153],[-72.28196,-36.71116],[-72.28204,-36.71069],[-72.28202,-36.71006],[-72.28197,-36.70987],[-72.28181,-36.70955],[-72.28172,-36.70934],[-72.28166,-36.70914],[-72.28166,-36.70895],[-72.28174,-36.70878],[-72.28194,-36.70857],[-72.28227,-36.70827],[-72.28265,-36.70791],[-72.282707,-36.707851]]]},"properties":{"comuna":"Bulnes","mancha_id":"16102-88b2d82481fffff","clase":"Alto","nivel_medio":2.555,"nivel_medio_min":2.555,"nivel_medio_max":2.555,"pct_alto":67.7,"n_hexagonos":1,"area_ha":2.87}},{"type":"Feature","geometry":{"type":"Polygon","coordinates":[[[-72.27979,-36.71307],[-72.279926,-36.713088],[-72.27628,-36.713994],[-72.275956,-36.7137],[-72.27621,-36.7137],[-72.27646,-36.71374],[-72.27674,-36.71376],[-72.27695,-36.71373],[-72.27711,-36.71364],[-72.2773,-36.71352],[-72.27759,-36.71332],[-72.27789,-36.71314],[-72.27807,-36.71306],[-72.27834,-36.71299],[-72.27878,-36.71292],[-72.278882,-36.712912],[-72.27905,-36.7129],[-72.27946,-36.71297],[-72.27979,-36.71307]]]},"properties":{"comuna":"Bulnes","mancha_id":"16102-88b2d82481fffff-2","clase":"Alto","nivel_medio":2.555,"nivel_medio_min":2.555,"nivel_medio_max":2.555,"pct_alto":67.7,"n_hexagonos":1,"area_ha":1.13}},{"type":"Feature","geometry":{"type":"Polygon","coordinates":[[[-72.380587,-36.77845],[-72.378809,-36.782826],[-72.373616,-36.784117],[-72.370202,-36.781032],[-72.371981,-36.776657],[-72.377173,-36.775366],[-72.380587,-36.77845]]]},"properties":{"comuna":"Bulnes","mancha_id":"16102-88b2d95b2dfffff","clase":"Muy Alto","nivel_medio":3.651,"nivel_medio_min":3.651,"nivel_medio_max":3.651,"pct_alto":87.1,"n_hexagonos":1,"area_ha":60.69}},{"type":"Feature","geometry":{"type":"Polygon","coordinates":[[[-72.406416,-36.783826],[-72.404639,-36.788203],[-72.399444,-36.789495],[-72.397666,-36.793872],[-72.392471,-36.795164],[-72.389055,-36.792079],[-72.390833,-36.787703],[-72.396027,-36.786411],[-72.397805,-36.782035],[-72.402998,-36.780742],[-72.406416,-36.783826]]]},"properties":{"comuna":"Bulnes","mancha_id":"16102-88b2d82c8bfffff","clase":"Muy Alto","nivel_medio":3.726,"nivel_medio_min":3.62,"nivel_medio_max":3.833,"pct_alto":96.1,"n_hexagonos":2,"area_ha":121.45}}],"bbox":[-72.45226,-36.90126,-72.10818,-36.68798]}