{"type":"FeatureCollection","features":[{"type":"Feature","geometry":{"type":"Polygon","coordinates":[[[-72.692041,-36.479896],[-72.690289,-36.484276],[-72.689562,-36.484461],[-72.689741,-36.483973],[-72.689828,-36.482013],[-72.690786,-36.479836],[-72.691124,-36.479076],[-72.692041,-36.479896]]]},"properties":{"comuna":"Coelemu","mancha_id":"16203-88b2d83b43fffff","clase":"Muy Bajo","nivel_medio":0.0,"nivel_medio_min":0.0,"nivel_medio_max":0.0,"pct_alto":0.0,"n_hexagonos":1,"area_ha":5.56}},{"type":"Feature","geometry":{"type":"Polygon","coordinates":[[[-72.628734,-36.523473],[-72.627967,-36.523667],[-72.62708,-36.522871],[-72.627365,-36.522881],[-72.628343,-36.523183],[-72.628734,-36.523473]]]},"properties":{"comuna":"Coelemu","mancha_id":"16203-88b2d8385dfffff","clase":"Muy Bajo","nivel_medio":0.0,"nivel_medio_min":0.0,"nivel_medio_max":0.0,"pct_alto":0.0,"n_hexagonos":1,"area_ha":0.55}},{"type":"Feature","geometry":{"type":"Polygon","coordinates":[[[-72.65576,-36.512395],[-72.655624,-36.512736],[-72.655539,-36.512757],[-72.65576,-36.512395]]]},"properties":{"comuna":"Coelemu","mancha_id":"16203-88b2d8384dfffff","clase":"Muy Bajo","nivel_medio":0.0,"nivel_medio_min":0.0,"nivel_medio_max":0.0,"pct_alto":0.0,"n_hexagonos":1,"area_ha":0.01}},{"type":"Feature","geometry":{"type":"Polygon","coordinates":[[[-72.872987,-36.415593],[-72.871703,-36.414451],[-72.872864,-36.411524],[-72.8729,-36.41166],[-72.87295,-36.41221],[-72.87292,-36.41286],[-72.87305,-36.41342],[-72.8731,-36.41409],[-72.87314,-36.41457],[-72.87313,-36.41505],[-72.87303,-36.41542],[-72.872987,-36.415593]]]},"properties":{"comuna":"Coelemu","mancha_id":"16203-88b2d80f6dfffff","clase":"Muy Bajo","nivel_medio":0.189,"nivel_medio_min":0.189,"nivel_medio_max":0.189,"pct_alto":0.6,"n_hexagonos":1,"area_ha":2.93}},{"type":"Feature","geometry":{"type":"Polygon","coordinates":[[[-72.770833,-36.399026],[-72.770036,-36.401027],[-72.765378,-36.402215],[-72.76585,-36.40193],[-72.76735,-36.40062],[-72.76904,-36.39962],[-72.77033,-36.39908],[-72.770833,-36.399026]]]},"properties":{"comuna":"Coelemu","mancha_id":"16203-88b2d80e59fffff","clase":"Muy Bajo","nivel_medio":0.0,"nivel_medio_min":0.0,"nivel_medio_max":0.0,"pct_alto":0.0,"n_hexagonos":1,"area_ha":5.77}},{"type":"Feature","geometry":{"type":"Polygon","coordinates":[[[-72.702547,-36.430013],[-72.702759,-36.429815],[-72.702695,-36.429976],[-72.702547,-36.430013]]]},"properties":{"comuna":"Coelemu","mancha_id":"16203-88b2d805e9fffff","clase":"Muy Bajo","nivel_medio":0.0,"nivel_medio_min":0.0,"nivel_medio_max":0.0,"pct_alto":0.0,"n_hexagonos":1,"area_ha":0.01}},{"type":"Feature","geometry":{"type":"Polygon","coordinates":[[[-72.699195,-36.438733],[-72.697445,-36.443112],[-72.696972,-36.443232],[-72.696784,-36.441646],[-72.696387,-36.440807],[-72.695536,-36.440223],[-72.694867,-36.439276],[-72.69438,-36.438266],[-72.694519,-36.437185],[-72.694972,-36.436384],[-72.695457,-36.436052],[-72.695996,-36.435872],[-72.699195,-36.438733]]]},"properties":{"comuna":"Coelemu","mancha_id":"16203-88b2d805e3fffff","clase":"Muy Bajo","nivel_medio":0.101,"nivel_medio_min":0.101,"nivel_medio_max":0.101,"pct_alto":0.0,"n_hexagonos":1,"area_ha":18.06}},{"type":"Feature","geometry":{"type":"Polygon","coordinates":[[[-72.700797,-36.457999],[-72.695619,-36.459313],[-72.693869,-36.463692],[-72.697295,-36.466758],[-72.695544,-36.471137],[-72.694538,-36.471392],[-72.69529,-36.4697],[-72.695085,-36.468572],[-72.694447,-36.46719],[-72.693627,-36.466131],[-72.693065,-36.465224],[-72.692906,-36.464321],[-72.693037,-36.463903],[-72.693171,-36.463477],[-72.69357,-36.462355],[-72.69357,-36.460947],[-72.693922,-36.459756],[-72.693703,-36.457599],[-72.693661,-36.457186],[-72.692601,-36.45523],[-72.692528,-36.455096],[-72.692485,-36.453876],[-72.693251,-36.453215],[-72.693455,-36.453093],[-72.694314,-36.452577],[-72.695969,-36.452047],[-72.696896,-36.45112],[-72.699121,-36.450555],[-72.702547,-36.453619],[-72.700797,-36.457999]]]},"properties":{"comuna":"Coelemu","mancha_id":"16203-88b2d805a1fffff","clase":"Muy Bajo","nivel_medio":0.255,"nivel_medio_min":0.0,"nivel_medio_max":0.349,"pct_alto":0.6,"n_hexagonos":4,"area_ha":78.58}},{"type":"Feature","geometry":{"type":"Polygon","coordinates":[[[-72.74974,-36.4062],[-72.749336,-36.406303],[-72.748895,-36.405909],[-72.74974,-36.4062]]]},"properties":{"comuna":"Coelemu","mancha_id":"16203-88b2d80567fffff","clase":"Muy Bajo","nivel_medio":0.0,"nivel_medio_min":0.0,"nivel_medio_max":0.0,"pct_alto":0.0,"n_hexagonos":1,"area_ha":0.1}},{"type":"Feature","geometry":{"type":"Polygon","coordinates":[[[-72.742168,-36.404195],[-72.740734,-36.40456],[-72.739851,-36.403771],[-72.74025,-36.40387],[-72.742168,-36.404195]]]},"properties":{"comuna":"Coelemu","mancha_id":"16203-88b2d80563fffff","clase":"Muy Bajo","nivel_medio":0.0,"nivel_medio_min":0.0,"nivel_medio_max":0.0,"pct_alto":0.0,"n_hexagonos":1,"area_ha":0.69}},{"type":"Feature","geometry":{"type":"Polygon","coordinates":[[[-72.709619,-36.424282],[-72.704444,-36.425597],[-72.702791,-36.429735],[-72.703056,-36.428544],[-72.70275,-36.42791],[-72.70272,-36.42635],[-72.70288,-36.42526],[-72.70329,-36.42478],[-72.70342,-36.424681],[-72.70384,-36.42436],[-72.70577,-36.42352],[-72.70701,-36.42344],[-72.707794,-36.423738],[-72.70898,-36.424188],[-72.709607,-36.424188],[-72.709662,-36.424174],[-72.710176,-36.424042],[-72.710601,-36.423564],[-72.710843,-36.422793],[-72.711244,-36.422028],[-72.711732,-36.42161],[-72.712708,-36.421366],[-72.714102,-36.421122],[-72.71527,-36.42081],[-72.716287,-36.420695],[-72.717482,-36.420739],[-72.718711,-36.420526],[-72.719294,-36.420425],[-72.720724,-36.420004],[-72.722185,-36.420004],[-72.72383,-36.42053],[-72.724098,-36.420599],[-72.719968,-36.421649],[-72.71822,-36.426028],[-72.713045,-36.427344],[-72.709619,-36.424282]]]},"properties":{"comuna":"Coelemu","mancha_id":"16203-88b2d80517fffff","clase":"Muy Bajo","nivel_medio":0.272,"nivel_medio_min":0.0,"nivel_medio_max":0.364,"pct_alto":1.7,"n_hexagonos":4,"area_ha":62.08}},{"type":"Feature","geometry":{"type":"Polygon","coordinates":[[[-72.732465,-36.40917],[-72.732477,-36.409063],[-72.733813,-36.410257],[-72.7334,-36.411292],[-72.733371,-36.411226],[-72.732848,-36.41039],[-72.732465,-36.40917]]]},"properties":{"comuna":"Coelemu","mancha_id":"16203-88b2d80507fffff","clase":"Muy Bajo","nivel_medio":0.243,"nivel_medio_min":0.243,"nivel_medio_max":0.243,"pct_alto":5.7,"n_hexagonos":1,"area_ha":1.15}},{"type":"Feature","geometry":{"type":"Polygon","coordinates":[[[-72.731594,-36.413944],[-72.732614,-36.413263],[-72.732066,-36.414636],[-72.73066,-36.414994],[-72.730661,-36.414993],[-72.731594,-36.413944]]]},"properties":{"comuna":"Coelemu","mancha_id":"16203-88b2d80507fffff-2","clase":"Muy Bajo","nivel_medio":0.243,"nivel_medio_min":0.243,"nivel_medio_max":0.243,"pct_alto":5.7,"n_hexagonos":1,"area_ha":1.08}},{"type":"Feature","geometry":{"type":"Polygon","coordinates":[[[-72.852807,-36.391704],[-72.84937,-36.388645],[-72.844193,-36.389968],[-72.841637,-36.387693],[-72.843177,-36.387378],[-72.844711,-36.387378],[-72.84798,-36.38726],[-72.849812,-36.38753],[-72.849992,-36.387557],[-72.851951,-36.387855],[-72.8542,-36.38804],[-72.85809,-36.38801],[-72.858926,-36.38801],[-72.86096,-36.38801],[-72.86375,-36.38842],[-72.867665,-36.389435],[-72.8678,-36.38947],[-72.86962,-36.390207],[-72.86978,-36.39342],[-72.86996,-36.39342],[-72.87004,-36.39349],[-72.87036,-36.39386],[-72.87058,-36.39407],[-72.87067,-36.39429],[-72.87071,-36.39465],[-72.870835,-36.394972],[-72.870041,-36.395175],[-72.866602,-36.392116],[-72.861424,-36.39344],[-72.857985,-36.39038],[-72.852807,-36.391704]]]},"properties":{"comuna":"Coelemu","mancha_id":"16203-88b2d801a1fffff","clase":"Muy Bajo","nivel_medio":0.0,"nivel_medio_min":0.0,"nivel_medio_max":0.0,"pct_alto":0.0,"n_hexagonos":4,"area_ha":86.01}},{"type":"Feature","geometry":{"type":"Polygon","coordinates":[[[-72.816615,-36.38914],[-72.81144,-36.390462],[-72.810357,-36.389497],[-72.811204,-36.388521],[-72.811901,-36.387044],[-72.81294,-36.38611],[-72.81564,-36.38523],[-72.818239,-36.385057],[-72.816615,-36.38914]]]},"properties":{"comuna":"Coelemu","mancha_id":"16203-88b2d80191fffff","clase":"Muy Bajo","nivel_medio":0.458,"nivel_medio_min":0.458,"nivel_medio_max":0.458,"pct_alto":9.3,"n_hexagonos":1,"area_ha":24.38}},{"type":"Feature","geometry":{"type":"Polygon","coordinates":[[[-72.832144,-36.385172],[-72.826968,-36.386495],[-72.824964,-36.38471],[-72.825755,-36.38434],[-72.82724,-36.383518],[-72.829091,-36.383254],[-72.83055,-36.383336],[-72.831637,-36.383531],[-72.832579,-36.384076],[-72.832891,-36.384256],[-72.83397,-36.385],[-72.835428,-36.386988],[-72.836681,-36.38795],[-72.835579,-36.388232],[-72.832144,-36.385172]]]},"properties":{"comuna":"Coelemu","mancha_id":"16203-88b2d80183fffff","clase":"Muy Bajo","nivel_medio":0.0,"nivel_medio_min":0.0,"nivel_medio_max":0.0,"pct_alto":0.0,"n_hexagonos":2,"area_ha":21.07}},{"type":"Feature","geometry":{"type":"Polygon","coordinates":[[[-72.701658,-36.595592],[-72.699903,-36.599976],[-72.694712,-36.601287],[-72.691278,-36.598215],[-72.693033,-36.593832],[-72.698223,-36.59252],[-72.701658,-36.595592]]]},"properties":{"comuna":"Coelemu","mancha_id":"16203-88b2d876d7fffff","clase":"Bajo","nivel_medio":1.444,"nivel_medio_min":1.444,"nivel_medio_max":1.444,"pct_alto":7.1,"n_hexagonos":1,"area_ha":60.91}},{"type":"Feature","geometry":{"type":"Polygon","coordinates":[[[-72.710935,-36.490846],[-72.709184,-36.495227],[-72.704003,-36.496541],[-72.700574,-36.493475],[-72.702325,-36.489094],[-72.698897,-36.486028],[-72.700648,-36.481648],[-72.705828,-36.480334],[-72.709256,-36.4834],[-72.707505,-36.48778],[-72.710935,-36.490846]]]},"properties":{"comuna":"Coelemu","mancha_id":"16203-88b2d83b63fffff","clase":"Bajo","nivel_medio":0.818,"nivel_medio_min":0.686,"nivel_medio_max":0.951,"pct_alto":19.8,"n_hexagonos":2,"area_ha":121.65}},{"type":"Feature","geometry":{"type":"Polygon","coordinates":[[[-72.69722,-36.478582],[-72.692041,-36.479896],[-72.691124,-36.479076],[-72.694538,-36.471392],[-72.695544,-36.471137],[-72.698971,-36.474203],[-72.69722,-36.478582]]]},"properties":{"comuna":"Coelemu","mancha_id":"16203-88b2d83b41fffff","clase":"Bajo","nivel_medio":0.853,"nivel_medio_min":0.853,"nivel_medio_max":0.853,"pct_alto":18.7,"n_hexagonos":1,"area_ha":39.24}},{"type":"Feature","geometry":{"type":"Polygon","coordinates":[[[-72.685033,-36.497416],[-72.679852,-36.498729],[-72.678099,-36.503108],[-72.672919,-36.504421],[-72.671165,-36.5088],[-72.665985,-36.510112],[-72.662663,-36.507138],[-72.664347,-36.505609],[-72.665644,-36.504886],[-72.666525,-36.504488],[-72.667315,-36.504222],[-72.668134,-36.504138],[-72.669052,-36.50414],[-72.669873,-36.504206],[-72.670617,-36.504036],[-72.671622,-36.503259],[-72.671745,-36.503164],[-72.672762,-36.502392],[-72.67399,-36.501551],[-72.674551,-36.500498],[-72.67466,-36.5],[-72.674706,-36.499791],[-72.674945,-36.498568],[-72.675585,-36.497432],[-72.676413,-36.496474],[-72.676872,-36.496061],[-72.678155,-36.494906],[-72.679331,-36.493338],[-72.680376,-36.491988],[-72.680969,-36.491064],[-72.681881,-36.490714],[-72.683469,-36.490376],[-72.683751,-36.490321],[-72.686785,-36.493036],[-72.685033,-36.497416]]]},"properties":{"comuna":"Coelemu","mancha_id":"16203-88b2d83b0bfffff","clase":"Bajo","nivel_medio":0.817,"nivel_medio_min":0.54,"nivel_medio_max":1.01,"pct_alto":9.7,"n_hexagonos":3,"area_ha":124.94}},{"type":"Feature","geometry":{"type":"Polygon","coordinates":[[[-72.669087,-36.5605],[-72.667332,-36.564881],[-72.662146,-36.566192],[-72.658717,-36.563121],[-72.660473,-36.55874],[-72.665658,-36.55743],[-72.669087,-36.5605]]]},"properties":{"comuna":"Coelemu","mancha_id":"16203-88b2d839cdfffff","clase":"Bajo","nivel_medio":1.36,"nivel_medio_min":1.36,"nivel_medio_max":1.36,"pct_alto":3.3,"n_hexagonos":1,"area_ha":60.84}},{"type":"Feature","geometry":{"type":"Polygon","coordinates":[[[-72.656307,-36.599169],[-72.658467,-36.598624],[-72.660711,-36.600633],[-72.660313,-36.60064],[-72.65967,-36.60064],[-72.65934,-36.60061],[-72.6591,-36.60056],[-72.65869,-36.60035],[-72.6582,-36.60011],[-72.657804,-36.599966],[-72.657173,-36.599741],[-72.657009,-36.599667],[-72.65677,-36.59956],[-72.65644,-36.59931],[-72.656307,-36.599169]]]},"properties":{"comuna":"Coelemu","mancha_id":"16203-88b2d839bdfffff","clase":"Bajo","nivel_medio":1.355,"nivel_medio_min":1.355,"nivel_medio_max":1.355,"pct_alto":2.3,"n_hexagonos":1,"area_ha":3.99}},{"type":"Feature","geometry":{"type":"Polygon","coordinates":[[[-72.648688,-36.518426],[-72.643508,-36.519736],[-72.641752,-36.524115],[-72.636572,-36.525425],[-72.634815,-36.529804],[-72.629634,-36.531114],[-72.62621,-36.528045],[-72.623643,-36.528694],[-72.62342,-36.52856],[-72.62203,-36.52756],[-72.621448,-36.526942],[-72.621364,-36.526608],[-72.62144,-36.5263],[-72.62232,-36.52534],[-72.62337,-36.52432],[-72.623998,-36.52385],[-72.6245,-36.52349],[-72.626199,-36.522841],[-72.62708,-36.522871],[-72.627967,-36.523667],[-72.628734,-36.523473],[-72.629015,-36.52368],[-72.629648,-36.52396],[-72.631668,-36.524053],[-72.632632,-36.523712],[-72.633222,-36.523276],[-72.633695,-36.522848],[-72.633931,-36.522635],[-72.6347,-36.52175],[-72.63557,-36.52094],[-72.6367,-36.52018],[-72.637247,-36.519786],[-72.637991,-36.519319],[-72.63869,-36.51914],[-72.639712,-36.51917],[-72.64087,-36.51929],[-72.64239,-36.519547],[-72.643143,-36.51941],[-72.64407,-36.51924],[-72.64507,-36.51865],[-72.64662,-36.5175],[-72.647331,-36.517186],[-72.648636,-36.517092],[-72.649295,-36.516912],[-72.648688,-36.518426]]]},"properties":{"comuna":"Coelemu","mancha_id":"16203-88b2d83841fffff","clase":"Bajo","nivel_medio":1.001,"nivel_medio_min":0.585,"nivel_medio_max":1.411,"pct_alto":24.0,"n_hexagonos":4,"area_ha":125.56}},{"type":"Feature","geometry":{"type":"Polygon","coordinates":[[[-72.620939,-36.54118],[-72.615758,-36.542489],[-72.614,-36.546867],[-72.610724,-36.547694],[-72.61057,-36.54759],[-72.606643,-36.54492],[-72.60675,-36.54477],[-72.607613,-36.543997],[-72.60875,-36.543311],[-72.610115,-36.542597],[-72.612216,-36.541945],[-72.612951,-36.541441],[-72.61368,-36.54074],[-72.613737,-36.540678],[-72.61565,-36.5386],[-72.61869,-36.53503],[-72.61976,-36.53417],[-72.622696,-36.536802],[-72.620939,-36.54118]]]},"properties":{"comuna":"Coelemu","mancha_id":"16203-88b2d83819fffff","clase":"Bajo","nivel_medio":1.274,"nivel_medio_min":1.15,"nivel_medio_max":1.417,"pct_alto":25.1,"n_hexagonos":2,"area_ha":75.13}},{"type":"Feature","geometry":{"type":"Polygon","coordinates":[[[-72.773466,-36.404089],[-72.770036,-36.401027],[-72.770833,-36.399026],[-72.77359,-36.39873],[-72.77575,-36.39892],[-72.779227,-36.39903],[-72.780064,-36.399196],[-72.778642,-36.402769],[-72.773466,-36.404089]]]},"properties":{"comuna":"Coelemu","mancha_id":"16203-88b2d80e5dfffff","clase":"Bajo","nivel_medio":0.558,"nivel_medio_min":0.558,"nivel_medio_max":0.558,"pct_alto":16.6,"n_hexagonos":1,"area_ha":37.66}},{"type":"Feature","geometry":{"type":"Polygon","coordinates":[[[-72.786968,-36.463646],[-72.785222,-36.46803],[-72.78004,-36.469348],[-72.776605,-36.466284],[-72.778351,-36.461901],[-72.783532,-36.460582],[-72.786968,-36.463646]]]},"properties":{"comuna":"Coelemu","mancha_id":"16203-88b2d80c57fffff","clase":"Bajo","nivel_medio":1.481,"nivel_medio_min":1.481,"nivel_medio_max":1.481,"pct_alto":9.5,"n_hexagonos":1,"area_ha":60.89}},{"type":"Feature","geometry":{"type":"Polygon","coordinates":[[[-72.868302,-36.39956],[-72.870041,-36.395175],[-72.870835,-36.394972],[-72.87088,-36.39509],[-72.87105,-36.39561],[-72.87096,-36.39609],[-72.87093,-36.39635],[-72.87105,-36.39674],[-72.87117,-36.39728],[-72.87132,-36.39761],[-72.87151,-36.39803],[-72.87151,-36.39837],[-72.87162,-36.39903],[-72.87161,-36.39988],[-72.8717,-36.40103],[-72.87169,-36.40146],[-72.87178,-36.40172],[-72.87199,-36.40199],[-72.87217,-36.40229],[-72.872218,-36.402498],[-72.87227,-36.40272],[-72.87229,-36.40323],[-72.87228,-36.40377],[-72.87232,-36.40429],[-72.87243,-36.40463],[-72.87252,-36.405],[-72.87266,-36.40538],[-72.87267,-36.40585],[-72.87264,-36.40632],[-72.87259,-36.40708],[-72.87258,-36.40737],[-72.8727,-36.40781],[-72.87275,-36.40816],[-72.87273,-36.40859],[-72.872684,-36.409391],[-72.870003,-36.407005],[-72.871742,-36.40262],[-72.868302,-36.39956]]]},"properties":{"comuna":"Coelemu","mancha_id":"16203-88b2d80a91fffff","clase":"Bajo","nivel_medio":0.883,"nivel_medio_min":0.573,"nivel_medio_max":1.088,"pct_alto":28.9,"n_hexagonos":2,"area_ha":24.74}},{"type":"Feature","geometry":{"type":"Polygon","coordinates":[[[-72.700871,-36.446176],[-72.699121,-36.450555],[-72.696896,-36.45112],[-72.69732,-36.450697],[-72.697715,-36.450027],[-72.697928,-36.449097],[-72.697582,-36.448008],[-72.697263,-36.446945],[-72.697189,-36.445644],[-72.697015,-36.443597],[-72.696972,-36.443232],[-72.697445,-36.443112],[-72.700871,-36.446176]]]},"properties":{"comuna":"Coelemu","mancha_id":"16203-88b2d805a9fffff","clase":"Bajo","nivel_medio":0.804,"nivel_medio_min":0.804,"nivel_medio_max":0.804,"pct_alto":0.1,"n_hexagonos":1,"area_ha":17.26}},{"type":"Feature","geometry":{"type":"Polygon","coordinates":[[[-72.704224,-36.461063],[-72.702473,-36.465443],[-72.697295,-36.466758],[-72.693869,-36.463692],[-72.695619,-36.459313],[-72.700797,-36.457999],[-72.704224,-36.461063]]]},"properties":{"comuna":"Coelemu","mancha_id":"16203-88b2d805a7fffff","clase":"Bajo","nivel_medio":0.695,"nivel_medio_min":0.695,"nivel_medio_max":0.695,"pct_alto":11.5,"n_hexagonos":1,"area_ha":60.79}},{"type":"Feature","geometry":{"type":"Polygon","coordinates":[[[-72.738987,-36.408939],[-72.733813,-36.410257],[-72.732477,-36.409063],[-72.73258,-36.40811],[-72.733127,-36.40694],[-72.734137,-36.406278],[-72.735177,-36.405683],[-72.735629,-36.405019],[-72.735735,-36.404302],[-72.736426,-36.40377],[-72.73705,-36.40356],[-72.73809,-36.4033],[-72.73888,-36.40353],[-72.739851,-36.403771],[-72.740734,-36.40456],[-72.738987,-36.408939]]]},"properties":{"comuna":"Coelemu","mancha_id":"16203-88b2d80505fffff","clase":"Bajo","nivel_medio":0.914,"nivel_medio_min":0.914,"nivel_medio_max":0.914,"pct_alto":22.2,"n_hexagonos":1,"area_ha":34.82}},{"type":"Feature","geometry":{"type":"Polygon","coordinates":[[[-72.852807,-36.391704],[-72.851067,-36.396088],[-72.845889,-36.397412],[-72.842452,-36.394352],[-72.844193,-36.389968],[-72.84937,-36.388645],[-72.852807,-36.391704]]]},"properties":{"comuna":"Coelemu","mancha_id":"16203-88b2d801a3fffff","clase":"Bajo","nivel_medio":1.245,"nivel_medio_min":1.245,"nivel_medio_max":1.245,"pct_alto":40.6,"n_hexagonos":1,"area_ha":60.91}},{"type":"Feature","geometry":{"type":"Polygon","coordinates":[[[-72.777592,-36.604106],[-72.777652,-36.603955],[-72.774209,-36.600884],[-72.77596,-36.596497],[-72.772518,-36.593426],[-72.774268,-36.589039],[-72.779461,-36.587723],[-72.781211,-36.583337],[-72.786403,-36.58202],[-72.788153,-36.577633],[-72.78471,-36.574563],[-72.78646,-36.570177],[-72.791651,-36.56886],[-72.7934,-36.564473],[-72.798591,-36.563156],[-72.799454,-36.563925],[-72.799046,-36.564392],[-72.798494,-36.564889],[-72.798339,-36.565115],[-72.797891,-36.566237],[-72.797587,-36.566722],[-72.797474,-36.567067],[-72.797499,-36.567579],[-72.79753,-36.567823],[-72.797352,-36.568025],[-72.79741,-36.568346],[-72.797491,-36.568838],[-72.797536,-36.569333],[-72.797546,-36.569509],[-72.797543,-36.569759],[-72.797558,-36.570209],[-72.797573,-36.570514],[-72.797608,-36.570811],[-72.797654,-36.570968],[-72.797761,-36.571101],[-72.797886,-36.571221],[-72.795094,-36.571929],[-72.793345,-36.576316],[-72.796788,-36.579386],[-72.800626,-36.578413],[-72.800606,-36.579001],[-72.800586,-36.579682],[-72.800566,-36.580292],[-72.800563,-36.580391],[-72.80055,-36.580802],[-72.800547,-36.580911],[-72.800543,-36.581027],[-72.800534,-36.581315],[-72.800524,-36.581653],[-72.800517,-36.581873],[-72.800507,-36.582144],[-72.800493,-36.582532],[-72.800483,-36.582817],[-72.800423,-36.584441],[-72.80062,-36.585126],[-72.800579,-36.585632],[-72.800484,-36.586336],[-72.800456,-36.586544],[-72.800381,-36.587016],[-72.800153,-36.588154],[-72.80004,-36.58891],[-72.799895,-36.589876],[-72.799792,-36.590604],[-72.799635,-36.591624],[-72.799568,-36.592122],[-72.799405,-36.593267],[-72.799362,-36.593574],[-72.799291,-36.594071],[-72.799145,-36.595363],[-72.798983,-36.596408],[-72.79897,-36.597335],[-72.798967,-36.597524],[-72.798923,-36.598793],[-72.798931,-36.599138],[-72.798982,-36.601204],[-72.798939,-36.605629],[-72.795883,-36.605517],[-72.793961,-36.605436],[-72.792617,-36.605404],[-72.792239,-36.605395],[-72.787838,-36.605319],[-72.787724,-36.605317],[-72.785793,-36.605268],[-72.784457,-36.605234],[-72.784315,-36.605267],[-72.784212,-36.605309],[-72.783931,-36.605318],[-72.783536,-36.605273],[-72.783389,-36.605191],[-72.783176,-36.605188],[-72.782919,-36.605217],[-72.782813,-36.605259],[-72.782681,-36.605186],[-72.782405,-36.605147],[-72.782136,-36.605156],[-72.781569,-36.605143],[-72.780208,-36.605113],[-72.779804,-36.605086],[-72.778634,-36.604673],[-72.778118,-36.604409],[-72.778065,-36.604293],[-72.777965,-36.604177],[-72.777876,-36.604166],[-72.777592,-36.604106]]]},"properties":{"comuna":"Coelemu","mancha_id":"16203-88b2d8740dfffff","clase":"Medio","nivel_medio":2.305,"nivel_medio_min":1.921,"nivel_medio_max":2.496,"pct_alto":33.5,"n_hexagonos":16,"area_ha":688.82}},{"type":"Feature","geometry":{"type":"Polygon","coordinates":[[[-72.721226,-36.500046],[-72.719476,-36.504427],[-72.714293,-36.505742],[-72.710863,-36.502675],[-72.712614,-36.498294],[-72.717795,-36.496979],[-72.721226,-36.500046]]]},"properties":{"comuna":"Coelemu","mancha_id":"16203-88b2d83b2dfffff","clase":"Medio","nivel_medio":1.942,"nivel_medio_min":1.942,"nivel_medio_max":1.942,"pct_alto":51.2,"n_hexagonos":1,"area_ha":60.85}},{"type":"Feature","geometry":{"type":"Polygon","coordinates":[[[-72.627877,-36.535493],[-72.622696,-36.536802],[-72.61976,-36.53417],[-72.62139,-36.53286],[-72.6239,-36.53188],[-72.62481,-36.53114],[-72.62511,-36.53018],[-72.62447,-36.52919],[-72.623643,-36.528694],[-72.62621,-36.528045],[-72.629634,-36.531114],[-72.627877,-36.535493]]]},"properties":{"comuna":"Coelemu","mancha_id":"16203-88b2d83857fffff","clase":"Medio","nivel_medio":1.73,"nivel_medio_min":1.73,"nivel_medio_max":1.73,"pct_alto":46.5,"n_hexagonos":1,"area_ha":44.78}},{"type":"Feature","geometry":{"type":"Polygon","coordinates":[[[-72.866483,-36.427607],[-72.868223,-36.423222],[-72.872864,-36.422036],[-72.87294,-36.42223],[-72.87297,-36.42267],[-72.87282,-36.42337],[-72.87265,-36.42404],[-72.87264,-36.42438],[-72.87263,-36.42488],[-72.87287,-36.42555],[-72.87294,-36.42605],[-72.87295,-36.42683],[-72.87304,-36.42723],[-72.873069,-36.42738],[-72.8731,-36.42754],[-72.87309,-36.42776],[-72.87302,-36.42791],[-72.8733,-36.42819],[-72.87337,-36.42833],[-72.87344,-36.4286],[-72.87369,-36.4288],[-72.87396,-36.42899],[-72.87428,-36.42903],[-72.87456,-36.4291],[-72.87472,-36.42925],[-72.874784,-36.429427],[-72.869925,-36.430669],[-72.866483,-36.427607]]]},"properties":{"comuna":"Coelemu","mancha_id":"16203-88b2d80f67fffff","clase":"Medio","nivel_medio":2.42,"nivel_medio_min":2.42,"nivel_medio_max":2.42,"pct_alto":64.8,"n_hexagonos":1,"area_ha":41.72}},{"type":"Feature","geometry":{"type":"Polygon","coordinates":[[[-72.852765,-36.403533],[-72.856204,-36.406593],[-72.861383,-36.405269],[-72.864823,-36.40833],[-72.863083,-36.412715],[-72.857902,-36.414039],[-72.854463,-36.410978],[-72.849284,-36.412301],[-72.845845,-36.40924],[-72.847586,-36.404856],[-72.852765,-36.403533]]]},"properties":{"comuna":"Coelemu","mancha_id":"16203-88b2d80f41fffff","clase":"Medio","nivel_medio":2.442,"nivel_medio_min":2.44,"nivel_medio_max":2.444,"pct_alto":35.0,"n_hexagonos":2,"area_ha":121.86}},{"type":"Feature","geometry":{"type":"Polygon","coordinates":[[[-72.861302,-36.428931],[-72.859561,-36.433317],[-72.854379,-36.43464],[-72.850939,-36.431578],[-72.85268,-36.427193],[-72.857861,-36.42587],[-72.861302,-36.428931]]]},"properties":{"comuna":"Coelemu","mancha_id":"16203-88b2d80f05fffff","clase":"Medio","nivel_medio":2.49,"nivel_medio_min":2.49,"nivel_medio_max":2.49,"pct_alto":60.3,"n_hexagonos":1,"area_ha":60.95}},{"type":"Feature","geometry":{"type":"Polygon","coordinates":[[[-72.766545,-36.409789],[-72.763115,-36.406727],[-72.75794,-36.408046],[-72.756361,-36.406636],[-72.75712,-36.40631],[-72.7624,-36.40434],[-72.76378,-36.40318],[-72.764766,-36.402585],[-72.765378,-36.402215],[-72.770036,-36.401027],[-72.773466,-36.404089],[-72.771721,-36.408469],[-72.766545,-36.409789]]]},"properties":{"comuna":"Coelemu","mancha_id":"16203-88b2d80e51fffff","clase":"Medio","nivel_medio":1.874,"nivel_medio_min":1.627,"nivel_medio_max":1.941,"pct_alto":51.0,"n_hexagonos":2,"area_ha":77.14}},{"type":"Feature","geometry":{"type":"Polygon","coordinates":[[[-72.878512,-36.444241],[-72.880252,-36.439855],[-72.876809,-36.436793],[-72.878277,-36.433093],[-72.87844,-36.43314],[-72.8787,-36.43322],[-72.8791,-36.43338],[-72.87965,-36.4337],[-72.87998,-36.43394],[-72.88023,-36.43394],[-72.88056,-36.43381],[-72.88081,-36.43373],[-72.88106,-36.43376],[-72.88141,-36.43403],[-72.88147,-36.4342],[-72.88141,-36.43454],[-72.88153,-36.43474],[-72.88161,-36.43504],[-72.88181,-36.43541],[-72.88217,-36.43562],[-72.88256,-36.43576],[-72.88287,-36.43585],[-72.88318,-36.43598],[-72.88338,-36.43621],[-72.88349,-36.43668],[-72.88365,-36.43721],[-72.88365,-36.43739],[-72.88357,-36.43749],[-72.88341,-36.43749],[-72.88311,-36.43748],[-72.883,-36.43755],[-72.88298,-36.43771],[-72.88304,-36.43792],[-72.8831,-36.4381],[-72.88314,-36.4382],[-72.88314,-36.43851],[-72.88303,-36.43886],[-72.882785,-36.439208],[-72.88224,-36.43998],[-72.88196,-36.44044],[-72.88186,-36.44092],[-72.88188,-36.44146],[-72.88201,-36.44178],[-72.88247,-36.44234],[-72.88293,-36.44285],[-72.88357,-36.44346],[-72.884,-36.44367],[-72.88436,-36.4438],[-72.88444,-36.4438],[-72.88453,-36.4438],[-72.88463,-36.44384],[-72.884703,-36.444048],[-72.884521,-36.444353],[-72.884356,-36.444572],[-72.884213,-36.444763],[-72.884128,-36.444876],[-72.884038,-36.444923],[-72.883944,-36.444972],[-72.883815,-36.44496],[-72.88375,-36.444894],[-72.883664,-36.444808],[-72.88358,-36.444724],[-72.883481,-36.444625],[-72.883367,-36.444512],[-72.88326,-36.444466],[-72.88311,-36.444437],[-72.883031,-36.444422],[-72.88288,-36.44443],[-72.882741,-36.444492],[-72.882617,-36.444591],[-72.882444,-36.444728],[-72.882255,-36.444878],[-72.882073,-36.445023],[-72.881918,-36.445145],[-72.881759,-36.445272],[-72.88161,-36.445311],[-72.881583,-36.445318],[-72.881342,-36.44538],[-72.881137,-36.445395],[-72.880913,-36.44541],[-72.880724,-36.445475],[-72.880402,-36.445618],[-72.880174,-36.445719],[-72.878512,-36.444241]]]},"properties":{"comuna":"Coelemu","mancha_id":"16203-88b2d80899fffff","clase":"Medio","nivel_medio":2.119,"nivel_medio_min":2.035,"nivel_medio_max":2.176,"pct_alto":25.3,"n_hexagonos":2,"area_ha":47.68}},{"type":"Feature","geometry":{"type":"Polygon","coordinates":[[[-72.740668,-36.416381],[-72.744097,-36.419443],[-72.749272,-36.418125],[-72.752702,-36.421187],[-72.757878,-36.419869],[-72.759624,-36.415488],[-72.7648,-36.41417],[-72.768231,-36.417231],[-72.773407,-36.415912],[-72.776839,-36.418974],[-72.782016,-36.417654],[-72.785448,-36.420716],[-72.790626,-36.419396],[-72.794059,-36.422458],[-72.792315,-36.42684],[-72.795749,-36.429903],[-72.800928,-36.428582],[-72.804363,-36.431645],[-72.802619,-36.436028],[-72.806055,-36.43909],[-72.811235,-36.43777],[-72.814671,-36.440832],[-72.819852,-36.439511],[-72.821595,-36.435127],[-72.818158,-36.432065],[-72.819902,-36.427681],[-72.816465,-36.424619],[-72.811286,-36.425941],[-72.807851,-36.422879],[-72.809594,-36.418496],[-72.806159,-36.415434],[-72.800981,-36.416755],[-72.797547,-36.413694],[-72.799291,-36.409312],[-72.804468,-36.407991],[-72.806211,-36.403608],[-72.811388,-36.402287],[-72.814823,-36.405348],[-72.82,-36.404026],[-72.823436,-36.407087],[-72.828614,-36.405764],[-72.83205,-36.408825],[-72.830308,-36.413209],[-72.833745,-36.41627],[-72.832003,-36.420654],[-72.835441,-36.423715],[-72.840621,-36.422393],[-72.84406,-36.425454],[-72.842318,-36.429839],[-72.845757,-36.432901],[-72.844015,-36.437286],[-72.847455,-36.440348],[-72.845713,-36.444733],[-72.840531,-36.446056],[-72.838788,-36.450441],[-72.842229,-36.453504],[-72.847412,-36.452181],[-72.850853,-36.455245],[-72.856036,-36.453922],[-72.857778,-36.449536],[-72.862961,-36.448213],[-72.866404,-36.451275],[-72.871588,-36.449952],[-72.875031,-36.453015],[-72.875744,-36.452833],[-72.875793,-36.453034],[-72.875971,-36.453399],[-72.876131,-36.453727],[-72.876266,-36.454229],[-72.876426,-36.454559],[-72.876462,-36.454845],[-72.876391,-36.455112],[-72.876194,-36.4553],[-72.875766,-36.455487],[-72.875382,-36.455558],[-72.875298,-36.455599],[-72.87507,-36.45571],[-72.87482,-36.455987],[-72.874586,-36.456246],[-72.874285,-36.456433],[-72.873945,-36.456644],[-72.873661,-36.456977],[-72.873431,-36.457246],[-72.873295,-36.457405],[-72.87329,-36.457401],[-72.871737,-36.457798],[-72.871573,-36.457726],[-72.871261,-36.457591],[-72.871002,-36.457334],[-72.870752,-36.456977],[-72.870476,-36.456691],[-72.87021,-36.456417],[-72.869851,-36.456174],[-72.86953,-36.45588],[-72.8692,-36.455577],[-72.868867,-36.455405],[-72.868477,-36.455335],[-72.867919,-36.455488],[-72.867557,-36.455753],[-72.867194,-36.456019],[-72.866949,-36.456372],[-72.86671,-36.456585],[-72.866524,-36.456841],[-72.866312,-36.457026],[-72.866254,-36.457077],[-72.866121,-36.457194],[-72.865927,-36.457297],[-72.865707,-36.457384],[-72.865467,-36.45746],[-72.865276,-36.457499],[-72.865036,-36.457518],[-72.86474,-36.457527],[-72.864529,-36.457508],[-72.86427,-36.457489],[-72.864031,-36.457499],[-72.863677,-36.457451],[-72.863322,-36.457364],[-72.862824,-36.457297],[-72.86227,-36.45722],[-72.861716,-36.457102],[-72.861289,-36.457011],[-72.86084,-36.45707],[-72.860355,-36.457134],[-72.859957,-36.457264],[-72.859586,-36.457459],[-72.859178,-36.457741],[-72.859127,-36.457776],[-72.858811,-36.457995],[-72.858421,-36.458182],[-72.858048,-36.458362],[-72.857556,-36.458465],[-72.857168,-36.458624],[-72.856864,-36.458748],[-72.856585,-36.45895],[-72.85625,-36.459083],[-72.855835,-36.459247],[-72.855514,-36.459373],[-72.855189,-36.459501],[-72.855032,-36.459692],[-72.854935,-36.459939],[-72.854908,-36.460301],[-72.854878,-36.460715],[-72.854781,-36.460807],[-72.854462,-36.460921],[-72.854113,-36.461014],[-72.85396,-36.461027],[-72.85368,-36.461067],[-72.853557,-36.461065],[-72.853354,-36.461045],[-72.853224,-36.461017],[-72.852861,-36.460849],[-72.852584,-36.460536],[-72.852394,-36.460109],[-72.852291,-36.45975],[-72.852197,-36.45947],[-72.851906,-36.459191],[-72.851635,-36.459096],[-72.851185,-36.459141],[-72.851036,-36.459213],[-72.850653,-36.459408],[-72.850386,-36.459511],[-72.849808,-36.459745],[-72.849325,-36.459821],[-72.84911,-36.45963],[-72.843927,-36.460953],[-72.843896,-36.461029],[-72.843894,-36.461029],[-72.843729,-36.460992],[-72.843489,-36.460926],[-72.843249,-36.460926],[-72.843154,-36.461089],[-72.842872,-36.461488],[-72.842382,-36.461955],[-72.842118,-36.462235],[-72.841837,-36.462314],[-72.841527,-36.462425],[-72.841135,-36.462343],[-72.840738,-36.462268],[-72.840453,-36.462219],[-72.839982,-36.462083],[-72.839619,-36.461975],[-72.839284,-36.461909],[-72.838958,-36.461864],[-72.838301,-36.46186],[-72.83781,-36.461814],[-72.837203,-36.461575],[-72.836687,-36.461339],[-72.836455,-36.461236],[-72.835931,-36.461062],[-72.835472,-36.460856],[-72.835121,-36.460835],[-72.834758,-36.460889],[-72.834617,-36.460935],[-72.834341,-36.461025],[-72.834018,-36.461153],[-72.83382,-36.461236],[-72.833393,-36.461542],[-72.833155,-36.461628],[-72.832949,-36.461715],[-72.832321,-36.461736],[-72.831953,-36.461653],[-72.831503,-36.46157],[-72.831111,-36.4615],[-72.830714,-36.461418],[-72.830037,-36.461257],[-72.828971,-36.460959],[-72.828149,-36.460761],[-72.827964,-36.460823],[-72.827666,-36.460922],[-72.827361,-36.461],[-72.827241,-36.461],[-72.826873,-36.461],[-72.826427,-36.460852],[-72.825985,-36.460682],[-72.825638,-36.460464],[-72.825519,-36.460389],[-72.825209,-36.460195],[-72.82494,-36.460009],[-72.824726,-36.459865],[-72.824569,-36.459766],[-72.824329,-36.459369],[-72.824131,-36.45901],[-72.823871,-36.458597],[-72.823697,-36.458324],[-72.823408,-36.458105],[-72.823288,-36.45801],[-72.822747,-36.457762],[-72.822231,-36.457647],[-72.821931,-36.45759],[-72.82171,-36.45758],[-72.821263,-36.457284],[-72.821033,-36.456539],[-72.820316,-36.455994],[-72.819628,-36.455764],[-72.819385,-36.455683],[-72.819368,-36.455393],[-72.819288,-36.454049],[-72.81905,-36.45415],[-72.81825,-36.45439],[-72.817358,-36.455102],[-72.81716,-36.45526],[-72.81696,-36.45559],[-72.816815,-36.456064],[-72.816362,-36.456565],[-72.81594,-36.456808],[-72.815494,-36.45728],[-72.815167,-36.457476],[-72.814663,-36.457678],[-72.814306,-36.457797],[-72.81381,-36.45793],[-72.81334,-36.45814],[-72.81294,-36.45822],[-72.8127,-36.45806],[-72.81223,-36.45807],[-72.81214,-36.45795],[-72.81208,-36.45794],[-72.81189,-36.45792],[-72.81136,-36.45821],[-72.810095,-36.459186],[-72.810313,-36.459901],[-72.81052,-36.460658],[-72.810598,-36.460955],[-72.810684,-36.461284],[-72.810735,-36.461729],[-72.810805,-36.462254],[-72.809388,-36.465816],[-72.811508,-36.467706],[-72.811634,-36.468482],[-72.811786,-36.469467],[-72.811875,-36.470548],[-72.811994,-36.47097],[-72.811081,-36.473264],[-72.805898,-36.474584],[-72.804152,-36.478969],[-72.807591,-36.482034],[-72.805845,-36.486418],[-72.807837,-36.488193],[-72.806746,-36.489375],[-72.806342,-36.489853],[-72.805468,-36.490815],[-72.804665,-36.491794],[-72.803926,-36.492599],[-72.803384,-36.493113],[-72.803073,-36.493523],[-72.802699,-36.494088],[-72.802522,-36.494322],[-72.802362,-36.494442],[-72.802099,-36.494851],[-72.802047,-36.494915],[-72.798915,-36.492122],[-72.79373,-36.493441],[-72.790292,-36.490376],[-72.785108,-36.491694],[-72.783361,-36.496078],[-72.778177,-36.497397],[-72.776429,-36.501781],[-72.779866,-36.504847],[-72.785051,-36.503529],[-72.78849,-36.506595],[-72.793675,-36.505277],[-72.795422,-36.500892],[-72.800607,-36.499573],[-72.804047,-36.502639],[-72.8023,-36.507024],[-72.804311,-36.508817],[-72.803861,-36.509042],[-72.802311,-36.509955],[-72.801326,-36.510502],[-72.801173,-36.51078],[-72.801693,-36.512172],[-72.801951,-36.512629],[-72.801987,-36.512627],[-72.802297,-36.512617],[-72.80229,-36.51248],[-72.8024,-36.51216],[-72.8027,-36.51193],[-72.80299,-36.51181],[-72.80377,-36.51182],[-72.80394,-36.5118],[-72.80426,-36.51159],[-72.80465,-36.51121],[-72.80496,-36.51108],[-72.80498,-36.51108],[-72.805372,-36.511016],[-72.80565,-36.51097],[-72.80594,-36.511],[-72.80612,-36.51103],[-72.80679,-36.51119],[-72.80701,-36.51116],[-72.80761,-36.51098],[-72.80817,-36.510983],[-72.80812,-36.511553],[-72.80821,-36.511883],[-72.80874,-36.512353],[-72.809954,-36.513603],[-72.810413,-36.514048],[-72.810998,-36.514543],[-72.8116,-36.515063],[-72.81186,-36.515203],[-72.812306,-36.515243],[-72.81293,-36.515313],[-72.812979,-36.515326],[-72.81336,-36.515423],[-72.813774,-36.515585],[-72.814057,-36.515629],[-72.81424,-36.515653],[-72.814367,-36.515636],[-72.81469,-36.515593],[-72.814853,-36.515534],[-72.81505,-36.515463],[-72.815591,-36.515024],[-72.81596,-36.514713],[-72.816451,-36.514429],[-72.81685,-36.514199],[-72.81716,-36.51402],[-72.817436,-36.513783],[-72.817663,-36.513501],[-72.818523,-36.512838],[-72.81899,-36.512393],[-72.82012,-36.513573],[-72.82025,-36.513803],[-72.82034,-36.514285],[-72.82045,-36.514493],[-72.820619,-36.514631],[-72.82089,-36.514853],[-72.82103,-36.515043],[-72.82112,-36.515393],[-72.821063,-36.515813],[-72.821056,-36.516047],[-72.821075,-36.516257],[-72.821193,-36.516645],[-72.821656,-36.516954],[-72.821252,-36.517971],[-72.82262,-36.519189],[-72.822654,-36.519305],[-72.822877,-36.519577],[-72.823361,-36.519976],[-72.823979,-36.520424],[-72.82412,-36.520526],[-72.824694,-36.521037],[-72.824789,-36.521013],[-72.824903,-36.521096],[-72.825258,-36.521349],[-72.825486,-36.521505],[-72.825584,-36.521648],[-72.825668,-36.521859],[-72.825807,-36.522207],[-72.825928,-36.523046],[-72.826119,-36.523488],[-72.826289,-36.523688],[-72.826615,-36.52405],[-72.827442,-36.524823],[-72.827614,-36.524995],[-72.827779,-36.525272],[-72.827831,-36.525505],[-72.827829,-36.525791],[-72.827702,-36.526255],[-72.827576,-36.526568],[-72.82719,-36.527133],[-72.82682,-36.5276],[-72.826611,-36.528435],[-72.826392,-36.528491],[-72.822948,-36.525424],[-72.81776,-36.526744],[-72.816013,-36.53113],[-72.819456,-36.534198],[-72.81771,-36.538584],[-72.81252,-36.539903],[-72.810773,-36.54429],[-72.814216,-36.547358],[-72.812469,-36.551745],[-72.807278,-36.553064],[-72.803835,-36.549995],[-72.798645,-36.551313],[-72.796897,-36.5557],[-72.791707,-36.557017],[-72.789958,-36.561404],[-72.784767,-36.562721],[-72.781326,-36.559652],[-72.776136,-36.560968],[-72.772696,-36.557899],[-72.767506,-36.559215],[-72.764067,-36.556146],[-72.765817,-36.551761],[-72.762379,-36.548692],[-72.75719,-36.550008],[-72.753753,-36.546939],[-72.755503,-36.542555],[-72.76069,-36.541239],[-72.76244,-36.536854],[-72.759003,-36.533786],[-72.753816,-36.535102],[-72.752066,-36.539486],[-72.746879,-36.540802],[-72.743443,-36.537734],[-72.738256,-36.539049],[-72.736505,-36.543432],[-72.731319,-36.544747],[-72.729567,-36.54913],[-72.733002,-36.552199],[-72.73819,-36.550885],[-72.739941,-36.546501],[-72.745128,-36.545186],[-72.748565,-36.548255],[-72.746814,-36.552639],[-72.750251,-36.555708],[-72.748501,-36.560093],[-72.751938,-36.563162],[-72.750187,-36.567547],[-72.753626,-36.570617],[-72.751875,-36.575002],[-72.755314,-36.578073],[-72.753562,-36.582458],[-72.757002,-36.585529],[-72.755251,-36.589914],[-72.758691,-36.592985],[-72.75694,-36.597372],[-72.760381,-36.600443],[-72.758629,-36.604829],[-72.753436,-36.606144],[-72.751683,-36.61053],[-72.74649,-36.611844],[-72.744737,-36.61623],[-72.748178,-36.619303],[-72.753372,-36.617989],[-72.755125,-36.613602],[-72.760319,-36.612288],[-72.76207,-36.607901],[-72.764174,-36.607369],[-72.764304,-36.607996],[-72.764483,-36.608304],[-72.765105,-36.608705],[-72.765695,-36.608932],[-72.765982,-36.60903],[-72.766286,-36.609203],[-72.767141,-36.609967],[-72.767276,-36.610378],[-72.767238,-36.612029],[-72.767439,-36.612793],[-72.767926,-36.613475],[-72.7683,-36.613848],[-72.768598,-36.614135],[-72.769529,-36.615029],[-72.769777,-36.615905],[-72.769855,-36.616559],[-72.769877,-36.616841],[-72.76992,-36.617092],[-72.770028,-36.617685],[-72.770232,-36.61817],[-72.770756,-36.618924],[-72.771361,-36.619717],[-72.770647,-36.621505],[-72.773746,-36.624269],[-72.772771,-36.624457],[-72.771877,-36.624632],[-72.771379,-36.624733],[-72.770294,-36.624881],[-72.769125,-36.625013],[-72.76859,-36.625024],[-72.76586,-36.62473],[-72.76474,-36.624602],[-72.761907,-36.624279],[-72.76028,-36.624102],[-72.759829,-36.624023],[-72.759166,-36.623934],[-72.758602,-36.62381],[-72.757574,-36.623475],[-72.756937,-36.623147],[-72.756354,-36.622838],[-72.756139,-36.622751],[-72.755198,-36.622368],[-72.754129,-36.622107],[-72.752672,-36.621788],[-72.751703,-36.621583],[-72.751101,-36.621371],[-72.750896,-36.621371],[-72.7502,-36.621433],[-72.75,-36.621427],[-72.748642,-36.621382],[-72.747699,-36.621363],[-72.747356,-36.621359],[-72.746099,-36.621344],[-72.74481,-36.621404],[-72.74413,-36.62143],[-72.743711,-36.621419],[-72.743316,-36.621358],[-72.74303,-36.621315],[-72.742443,-36.621166],[-72.742272,-36.621104],[-72.74197,-36.62099],[-72.74156,-36.62082],[-72.741381,-36.620707],[-72.74102,-36.62048],[-72.740669,-36.620164],[-72.740448,-36.619966],[-72.74027,-36.619733],[-72.739911,-36.619239],[-72.73969,-36.61898],[-72.739374,-36.618773],[-72.739129,-36.618623],[-72.739114,-36.618618],[-72.738851,-36.618518],[-72.73857,-36.61843],[-72.73835,-36.61841],[-72.737974,-36.618393],[-72.737798,-36.618394],[-72.73696,-36.61843],[-72.7365,-36.61841],[-72.73613,-36.61831],[-72.73577,-36.61817],[-72.73535,-36.617969],[-72.735098,-36.617848],[-72.7345,-36.61751],[-72.734193,-36.617333],[-72.73406,-36.61724],[-72.73383,-36.61718],[-72.73366,-36.61715],[-72.733449,-36.617132],[-72.733057,-36.617095],[-72.732828,-36.61706],[-72.73258,-36.617],[-72.73219,-36.61684],[-72.73179,-36.61657],[-72.731601,-36.61648],[-72.73132,-36.61641],[-72.730849,-36.616352],[-72.730691,-36.616332],[-72.730216,-36.616271],[-72.728744,-36.616091],[-72.72759,-36.61597],[-72.726908,-36.615882],[-72.726582,-36.615809],[-72.726087,-36.615698],[-72.725964,-36.615679],[-72.725572,-36.615514],[-72.725473,-36.615454],[-72.725319,-36.615361],[-72.72502,-36.61518],[-72.72464,-36.61497],[-72.724429,-36.614899],[-72.72409,-36.61484],[-72.72371,-36.61482],[-72.722846,-36.614799],[-72.722692,-36.614793],[-72.7224,-36.61471],[-72.72214,-36.61456],[-72.722082,-36.614515],[-72.721919,-36.614388],[-72.72164,-36.61416],[-72.72153,-36.61411],[-72.72105,-36.61404],[-72.720807,-36.614006],[-72.72065,-36.61392],[-72.720279,-36.613687],[-72.719898,-36.61342],[-72.719452,-36.613061],[-72.71882,-36.61253],[-72.71821,-36.61214],[-72.71769,-36.61186],[-72.71749,-36.61179],[-72.71711,-36.6117],[-72.71682,-36.61169],[-72.7162,-36.61175],[-72.715394,-36.611856],[-72.715097,-36.611899],[-72.71481,-36.61194],[-72.714687,-36.611966],[-72.71389,-36.61217],[-72.713673,-36.612258],[-72.713646,-36.61227],[-72.713648,-36.612265],[-72.710211,-36.609192],[-72.705019,-36.610504],[-72.703466,-36.614384],[-72.703056,-36.614401],[-72.70256,-36.61442],[-72.70154,-36.61428],[-72.700727,-36.614071],[-72.69985,-36.613818],[-72.69924,-36.61365],[-72.6989,-36.61359],[-72.6987,-36.61358],[-72.6982,-36.61361],[-72.697813,-36.613665],[-72.69696,-36.61377],[-72.69653,-36.61385],[-72.69597,-36.61399],[-72.69575,-36.61399],[-72.695528,-36.613924],[-72.694637,-36.613127],[-72.69377,-36.613346],[-72.693233,-36.613122],[-72.692738,-36.612908],[-72.69265,-36.61287],[-72.69245,-36.61281],[-72.69188,-36.61275],[-72.69142,-36.61264],[-72.69106,-36.61245],[-72.69042,-36.612],[-72.69014,-36.61186],[-72.68994,-36.61179],[-72.68966,-36.61177],[-72.689386,-36.61177],[-72.689215,-36.611769],[-72.68874,-36.611785],[-72.68799,-36.6118],[-72.68731,-36.61175],[-72.68691,-36.61167],[-72.686282,-36.611402],[-72.686038,-36.611298],[-72.685025,-36.610868],[-72.68402,-36.610492],[-72.682634,-36.60996],[-72.681588,-36.609556],[-72.68123,-36.60938],[-72.68059,-36.60893],[-72.680263,-36.60875],[-72.679373,-36.608406],[-72.678697,-36.608084],[-72.678442,-36.607951],[-72.678136,-36.607731],[-72.67808,-36.60769],[-72.67787,-36.6075],[-72.67772,-36.607304],[-72.67761,-36.60716],[-72.677408,-36.606786],[-72.67734,-36.60666],[-72.677283,-36.606581],[-72.67721,-36.60648],[-72.677,-36.60633],[-72.676826,-36.606241],[-72.676684,-36.606168],[-72.67661,-36.60613],[-72.676372,-36.606044],[-72.67614,-36.60596],[-72.67572,-36.60584],[-72.67529,-36.6058],[-72.674204,-36.605785],[-72.673535,-36.605776],[-72.673287,-36.605795],[-72.67277,-36.60582],[-72.6723,-36.60589],[-72.67218,-36.605918],[-72.671611,-36.60605],[-72.67147,-36.606088],[-72.67118,-36.60613],[-72.671025,-36.606135],[-72.67087,-36.60614],[-72.67048,-36.60604],[-72.6699,-36.60587],[-72.669598,-36.605757],[-72.67052,-36.603458],[-72.667087,-36.600386],[-72.666042,-36.60065],[-72.66596,-36.60057],[-72.66558,-36.60031],[-72.66539,-36.60026],[-72.66516,-36.60024],[-72.664855,-36.600271],[-72.66443,-36.60028],[-72.6636,-36.60007],[-72.66315,-36.59995],[-72.66269,-36.59994],[-72.66229,-36.59997],[-72.66204,-36.6001],[-72.66147,-36.6005],[-72.66133,-36.60058],[-72.66119,-36.60061],[-72.660782,-36.600631],[-72.660711,-36.600633],[-72.658467,-36.598624],[-72.656307,-36.599169],[-72.65613,-36.59898],[-72.65586,-36.59856],[-72.6558,-36.598404],[-72.65555,-36.59775],[-72.65544,-36.59745],[-72.655373,-36.597347],[-72.65529,-36.59722],[-72.65516,-36.5971],[-72.65499,-36.59702],[-72.65474,-36.59697],[-72.65437,-36.59696],[-72.652852,-36.596937],[-72.65215,-36.59693],[-72.65183,-36.59694],[-72.65171,-36.59691],[-72.65174,-36.59686],[-72.65167,-36.59678],[-72.651438,-36.596637],[-72.650998,-36.596382],[-72.65072,-36.59623],[-72.650382,-36.595965],[-72.650263,-36.595826],[-72.64996,-36.59547],[-72.64972,-36.59511],[-72.64949,-36.59476],[-72.64924,-36.594324],[-72.64906,-36.59391],[-72.64896,-36.593306],[-72.64892,-36.59285],[-72.64896,-36.59251],[-72.64911,-36.59203],[-72.649194,-36.591715],[-72.6494,-36.59121],[-72.649611,-36.590693],[-72.64978,-36.59028],[-72.64994,-36.58979],[-72.649971,-36.589606],[-72.650101,-36.588832],[-72.65017,-36.58842],[-72.65025,-36.58814],[-72.6509,-36.58706],[-72.65093,-36.58693],[-72.65091,-36.58668],[-72.650882,-36.5866],[-72.650728,-36.586166],[-72.65065,-36.58595],[-72.65057,-36.58564],[-72.65058,-36.5852],[-72.65056,-36.58495],[-72.650531,-36.584875],[-72.65051,-36.58482],[-72.6504,-36.5847],[-72.65023,-36.58458],[-72.649807,-36.584398],[-72.64972,-36.58436],[-72.64949,-36.5842],[-72.64932,-36.584],[-72.649285,-36.583813],[-72.64925,-36.58363],[-72.649089,-36.583021],[-72.64901,-36.58272],[-72.648905,-36.582491],[-72.6488,-36.58226],[-72.648634,-36.58197],[-72.64837,-36.58151],[-72.647969,-36.580958],[-72.64761,-36.58046],[-72.647554,-36.580362],[-72.64734,-36.57999],[-72.64732,-36.579922],[-72.64722,-36.57959],[-72.64718,-36.57946],[-72.647146,-36.579146],[-72.647117,-36.578857],[-72.647099,-36.578586],[-72.64708,-36.57829],[-72.647,-36.57794],[-72.64689,-36.57766],[-72.64666,-36.57741],[-72.64642,-36.5772],[-72.645706,-36.576916],[-72.64526,-36.57676],[-72.64499,-36.57658],[-72.64481,-36.57638],[-72.64463,-36.57605],[-72.64458,-36.57596],[-72.64446,-36.57585],[-72.64404,-36.57564],[-72.643524,-36.575367],[-72.643485,-36.574843],[-72.643106,-36.569819],[-72.64024,-36.567789],[-72.638159,-36.566316],[-72.63698,-36.56554],[-72.635666,-36.564779],[-72.634926,-36.564353],[-72.63405,-36.56385],[-72.629355,-36.561216],[-72.627454,-36.559755],[-72.623831,-36.55697],[-72.62316,-36.556359],[-72.617971,-36.551635],[-72.616819,-36.551442],[-72.616045,-36.551311],[-72.610724,-36.547694],[-72.614,-36.546867],[-72.617423,-36.549937],[-72.622606,-36.548629],[-72.624363,-36.54425],[-72.629545,-36.542941],[-72.631302,-36.538562],[-72.636484,-36.537252],[-72.63824,-36.532873],[-72.643422,-36.531563],[-72.645177,-36.527184],[-72.650359,-36.525873],[-72.652114,-36.521494],[-72.657295,-36.520183],[-72.65905,-36.515804],[-72.655624,-36.512736],[-72.65576,-36.512395],[-72.655814,-36.512307],[-72.656483,-36.511816],[-72.657441,-36.511457],[-72.658238,-36.51153],[-72.659388,-36.511405],[-72.660103,-36.511064],[-72.661035,-36.509696],[-72.661595,-36.508609],[-72.662309,-36.507459],[-72.662663,-36.507138],[-72.665985,-36.510112],[-72.664231,-36.514492],[-72.667657,-36.51756],[-72.672839,-36.516248],[-72.674592,-36.511868],[-72.671165,-36.5088],[-72.672919,-36.504421],[-72.678099,-36.503108],[-72.679852,-36.498729],[-72.685033,-36.497416],[-72.686785,-36.493036],[-72.683751,-36.490321],[-72.685037,-36.490071],[-72.686431,-36.489418],[-72.687737,-36.487327],[-72.688957,-36.486108],[-72.689562,-36.484461],[-72.690289,-36.484276],[-72.693717,-36.487342],[-72.698897,-36.486028],[-72.702325,-36.489094],[-72.700574,-36.493475],[-72.695393,-36.494789],[-72.693641,-36.499169],[-72.68846,-36.500482],[-72.686708,-36.504863],[-72.681527,-36.506176],[-72.679774,-36.510556],[-72.683202,-36.513623],[-72.681448,-36.518004],[-72.684877,-36.521072],[-72.69006,-36.519759],[-72.691812,-36.515378],[-72.688383,-36.51231],[-72.690136,-36.50793],[-72.695318,-36.506617],[-72.698747,-36.509684],[-72.703929,-36.50837],[-72.707359,-36.511437],[-72.705607,-36.515819],[-72.709038,-36.518886],[-72.714222,-36.517572],[-72.715973,-36.513191],[-72.721156,-36.511876],[-72.722907,-36.507494],[-72.72809,-36.506179],[-72.729841,-36.501797],[-72.726409,-36.498731],[-72.728159,-36.494349],[-72.733341,-36.493033],[-72.73509,-36.488651],[-72.731659,-36.485586],[-72.733408,-36.481204],[-72.729977,-36.478139],[-72.724797,-36.479454],[-72.721367,-36.476389],[-72.723116,-36.472008],[-72.728296,-36.470692],[-72.731727,-36.473757],[-72.736907,-36.472441],[-72.738656,-36.46806],[-72.743835,-36.466743],[-72.747267,-36.469808],[-72.752448,-36.468491],[-72.75588,-36.471556],[-72.754132,-36.475938],[-72.757566,-36.479003],[-72.755818,-36.483385],[-72.750636,-36.484702],[-72.747203,-36.481637],[-72.742021,-36.482953],[-72.740272,-36.487335],[-72.743705,-36.490401],[-72.741955,-36.494783],[-72.745389,-36.49785],[-72.750572,-36.496533],[-72.75232,-36.492151],[-72.757503,-36.490834],[-72.760938,-36.4939],[-72.766121,-36.492582],[-72.767869,-36.488199],[-72.773052,-36.486881],[-72.774799,-36.482498],[-72.779982,-36.48118],[-72.783418,-36.484245],[-72.788602,-36.482926],[-72.790348,-36.478543],[-72.786911,-36.475478],[-72.781729,-36.476796],[-72.778293,-36.473732],[-72.78004,-36.469348],[-72.785222,-36.46803],[-72.786968,-36.463646],[-72.783532,-36.460582],[-72.778351,-36.461901],[-72.776605,-36.466284],[-72.771424,-36.467602],[-72.76799,-36.464538],[-72.762809,-36.465856],[-72.759376,-36.462791],[-72.754196,-36.464109],[-72.750763,-36.461045],[-72.752511,-36.456663],[-72.74908,-36.453599],[-72.743901,-36.454916],[-72.742153,-36.459297],[-72.736973,-36.460614],[-72.733543,-36.45755],[-72.728365,-36.458866],[-72.726615,-36.463247],[-72.721437,-36.464562],[-72.719687,-36.468943],[-72.714508,-36.470258],[-72.711079,-36.467193],[-72.705901,-36.468508],[-72.70415,-36.472888],[-72.698971,-36.474203],[-72.695544,-36.471137],[-72.697295,-36.466758],[-72.702473,-36.465443],[-72.704224,-36.461063],[-72.700797,-36.457999],[-72.702547,-36.453619],[-72.699121,-36.450555],[-72.700871,-36.446176],[-72.697445,-36.443112],[-72.699195,-36.438733],[-72.695996,-36.435872],[-72.696652,-36.435653],[-72.697742,-36.434617],[-72.698212,-36.433318],[-72.69959,-36.43179],[-72.701697,-36.430809],[-72.702547,-36.430013],[-72.702695,-36.429976],[-72.702759,-36.429815],[-72.702777,-36.429798],[-72.702791,-36.429735],[-72.704444,-36.425597],[-72.709619,-36.424282],[-72.713045,-36.427344],[-72.711296,-36.431723],[-72.714722,-36.434787],[-72.719898,-36.433471],[-72.723325,-36.436534],[-72.721577,-36.440914],[-72.725005,-36.443977],[-72.730182,-36.442661],[-72.73193,-36.438281],[-72.728502,-36.435217],[-72.73025,-36.430838],[-72.735426,-36.429521],[-72.737174,-36.425141],[-72.733746,-36.422078],[-72.72857,-36.423395],[-72.726822,-36.427775],[-72.721647,-36.429091],[-72.71822,-36.426028],[-72.719968,-36.421649],[-72.724098,-36.420599],[-72.725461,-36.420948],[-72.725837,-36.420952],[-72.726516,-36.42096],[-72.727482,-36.420634],[-72.728109,-36.419589],[-72.728284,-36.418509],[-72.728771,-36.417324],[-72.729712,-36.415965],[-72.73066,-36.414994],[-72.732066,-36.414636],[-72.732614,-36.413263],[-72.732699,-36.413205],[-72.733611,-36.412609],[-72.733719,-36.412028],[-72.7334,-36.411292],[-72.733813,-36.410257],[-72.738987,-36.408939],[-72.740734,-36.40456],[-72.742168,-36.404195],[-72.74356,-36.40443],[-72.74617,-36.40497],[-72.748895,-36.405909],[-72.749336,-36.406303],[-72.74759,-36.410683],[-72.742415,-36.412001],[-72.740668,-36.416381]],[[-72.821546,-36.446958],[-72.824985,-36.450021],[-72.830167,-36.4487],[-72.83191,-36.444315],[-72.828471,-36.441252],[-72.82329,-36.442574],[-72.821546,-36.446958]],[[-72.755692,-36.507049],[-72.753943,-36.511432],[-72.748758,-36.512749],[-72.747008,-36.517132],[-72.750444,-36.520199],[-72.755629,-36.518883],[-72.759065,-36.52195],[-72.764251,-36.520634],[-72.767688,-36.523701],[-72.765939,-36.528086],[-72.769377,-36.531153],[-72.767627,-36.535538],[-72.771066,-36.538606],[-72.769316,-36.542991],[-72.772755,-36.546059],[-72.777944,-36.544743],[-72.781384,-36.547811],[-72.786573,-36.546494],[-72.790014,-36.549562],[-72.795203,-36.548245],[-72.796951,-36.543859],[-72.79351,-36.54079],[-72.795258,-36.536405],[-72.800447,-36.535086],[-72.802194,-36.5307],[-72.807382,-36.529382],[-72.809129,-36.524996],[-72.805688,-36.521929],[-72.8005,-36.523247],[-72.798753,-36.527633],[-72.793565,-36.528951],[-72.791818,-36.533337],[-72.786629,-36.534655],[-72.78319,-36.531587],[-72.778002,-36.532904],[-72.774564,-36.529836],[-72.776312,-36.525452],[-72.772874,-36.522384],[-72.774623,-36.518],[-72.771185,-36.514933],[-72.772933,-36.510549],[-72.769497,-36.507482],[-72.764312,-36.508799],[-72.760876,-36.505732],[-72.755692,-36.507049]],[[-72.724519,-36.526776],[-72.719335,-36.52809],[-72.717583,-36.532472],[-72.721016,-36.535541],[-72.726201,-36.534227],[-72.727953,-36.529844],[-72.724519,-36.526776]],[[-72.778526,-36.426418],[-72.775093,-36.423355],[-72.769916,-36.424675],[-72.76817,-36.429056],[-72.771602,-36.432119],[-72.77678,-36.430799],[-72.778526,-36.426418]],[[-72.738788,-36.444408],[-72.742218,-36.447471],[-72.747396,-36.446154],[-72.750827,-36.449218],[-72.756006,-36.4479],[-72.757753,-36.443519],[-72.754322,-36.440455],[-72.749144,-36.441773],[-72.745714,-36.43871],[-72.740536,-36.440027],[-72.738788,-36.444408]],[[-72.631213,-36.55039],[-72.62603,-36.551699],[-72.624273,-36.556078],[-72.627698,-36.559148],[-72.632882,-36.557839],[-72.634639,-36.55346],[-72.631213,-36.55039]],[[-72.665658,-36.55743],[-72.660473,-36.55874],[-72.658717,-36.563121],[-72.662146,-36.566192],[-72.667332,-36.564881],[-72.669087,-36.5605],[-72.665658,-36.55743]],[[-72.714007,-36.553072],[-72.70882,-36.554385],[-72.707067,-36.558768],[-72.710501,-36.561838],[-72.715688,-36.560525],[-72.719123,-36.563595],[-72.724311,-36.562281],[-72.726063,-36.557897],[-72.722628,-36.554828],[-72.717441,-36.556141],[-72.714007,-36.553072]],[[-72.696844,-36.537726],[-72.702029,-36.536413],[-72.703782,-36.532032],[-72.70035,-36.528963],[-72.702103,-36.524582],[-72.698672,-36.521514],[-72.693489,-36.522827],[-72.691736,-36.527208],[-72.695167,-36.530276],[-72.693413,-36.534658],[-72.696844,-36.537726]],[[-72.749995,-36.603072],[-72.751747,-36.598686],[-72.748307,-36.595615],[-72.743115,-36.596929],[-72.741362,-36.601314],[-72.744802,-36.604386],[-72.749995,-36.603072]],[[-72.738057,-36.574561],[-72.734619,-36.571491],[-72.72943,-36.572805],[-72.727678,-36.577189],[-72.731114,-36.58026],[-72.729362,-36.584644],[-72.732799,-36.587715],[-72.73799,-36.586401],[-72.739742,-36.582016],[-72.736304,-36.578946],[-72.738057,-36.574561]],[[-72.718911,-36.599111],[-72.717157,-36.603496],[-72.720594,-36.606568],[-72.725786,-36.605255],[-72.72754,-36.60087],[-72.724102,-36.597798],[-72.718911,-36.599111]],[[-72.699903,-36.599976],[-72.701658,-36.595592],[-72.698223,-36.59252],[-72.693033,-36.593832],[-72.691278,-36.598215],[-72.694712,-36.601287],[-72.699903,-36.599976]]]},"properties":{"comuna":"Coelemu","mancha_id":"16203-88b2d80523fffff","clase":"Medio","nivel_medio":2.208,"nivel_medio_min":1.532,"nivel_medio_max":2.5,"pct_alto":33.4,"n_hexagonos":360,"area_ha":20734.06}},{"type":"Feature","geometry":{"type":"Polygon","coordinates":[[[-72.857985,-36.39038],[-72.861424,-36.39344],[-72.866602,-36.392116],[-72.870041,-36.395175],[-72.868302,-36.39956],[-72.863123,-36.400885],[-72.859684,-36.397824],[-72.854505,-36.399148],[-72.851067,-36.396088],[-72.852807,-36.391704],[-72.857985,-36.39038]]]},"properties":{"comuna":"Coelemu","mancha_id":"16203-88b2d801a7fffff","clase":"Medio","nivel_medio":1.849,"nivel_medio_min":1.541,"nivel_medio_max":2.157,"pct_alto":53.9,"n_hexagonos":2,"area_ha":121.85}},{"type":"Feature","geometry":{"type":"Polygon","coordinates":[[[-72.82005,-36.3922],[-72.816615,-36.38914],[-72.818239,-36.385057],[-72.81864,-36.38503],[-72.821518,-36.385232],[-72.824445,-36.384953],[-72.824964,-36.38471],[-72.826968,-36.386495],[-72.832144,-36.385172],[-72.835579,-36.388232],[-72.836681,-36.38795],[-72.836989,-36.388187],[-72.838383,-36.388199],[-72.840111,-36.388215],[-72.841602,-36.3877],[-72.841637,-36.387693],[-72.844193,-36.389968],[-72.842452,-36.394352],[-72.837275,-36.395675],[-72.833838,-36.392615],[-72.828661,-36.393938],[-72.825226,-36.390878],[-72.82005,-36.3922]]]},"properties":{"comuna":"Coelemu","mancha_id":"16203-88b2d80195fffff","clase":"Medio","nivel_medio":1.758,"nivel_medio_min":1.669,"nivel_medio_max":1.856,"pct_alto":41.4,"n_hexagonos":3,"area_ha":172.59}},{"type":"Feature","geometry":{"type":"Polygon","coordinates":[[[-72.809697,-36.394844],[-72.804521,-36.396166],[-72.802778,-36.400548],[-72.797602,-36.401869],[-72.794169,-36.398808],[-72.794206,-36.398715],[-72.795011,-36.398055],[-72.796649,-36.397079],[-72.797903,-36.395964],[-72.8001,-36.3947],[-72.801319,-36.393311],[-72.80154,-36.39306],[-72.803315,-36.391253],[-72.80423,-36.39005],[-72.805155,-36.389302],[-72.806389,-36.389041],[-72.807501,-36.389264],[-72.808416,-36.38972],[-72.810284,-36.38958],[-72.810357,-36.389497],[-72.81144,-36.390462],[-72.809697,-36.394844]]]},"properties":{"comuna":"Coelemu","mancha_id":"16203-88b2d80193fffff","clase":"Medio","nivel_medio":1.86,"nivel_medio_min":1.652,"nivel_medio_max":2.06,"pct_alto":51.9,"n_hexagonos":2,"area_ha":94.82}},{"type":"Feature","geometry":{"type":"Polygon","coordinates":[[[-72.793345,-36.576316],[-72.795094,-36.571929],[-72.797886,-36.571221],[-72.797981,-36.571312],[-72.798157,-36.571453],[-72.798252,-36.571611],[-72.798276,-36.571739],[-72.798603,-36.572049],[-72.798781,-36.57214],[-72.799006,-36.572146],[-72.799348,-36.572091],[-72.799728,-36.572043],[-72.800206,-36.571982],[-72.800767,-36.571911],[-72.800778,-36.572009],[-72.800773,-36.572743],[-72.800752,-36.573647],[-72.800737,-36.574353],[-72.800729,-36.574919],[-72.800709,-36.575899],[-72.800682,-36.576935],[-72.800648,-36.577793],[-72.800626,-36.578413],[-72.796788,-36.579386],[-72.793345,-36.576316]]]},"properties":{"comuna":"Coelemu","mancha_id":"16203-88b2d87719fffff","clase":"Alto","nivel_medio":2.653,"nivel_medio_min":2.653,"nivel_medio_max":2.653,"pct_alto":68.0,"n_hexagonos":1,"area_ha":44.55}},{"type":"Feature","geometry":{"type":"Polygon","coordinates":[[[-72.710211,-36.609192],[-72.713648,-36.612265],[-72.713646,-36.61227],[-72.71291,-36.61257],[-72.71198,-36.61298],[-72.711447,-36.613028],[-72.711308,-36.613042],[-72.710834,-36.613],[-72.71023,-36.61295],[-72.709785,-36.61294],[-72.7093,-36.61293],[-72.70879,-36.61299],[-72.708357,-36.613085],[-72.70781,-36.61325],[-72.707281,-36.61348],[-72.707117,-36.613552],[-72.70679,-36.613711],[-72.70603,-36.61408],[-72.705486,-36.614167],[-72.70472,-36.61426],[-72.70358,-36.61438],[-72.703466,-36.614384],[-72.705019,-36.610504],[-72.710211,-36.609192]]]},"properties":{"comuna":"Coelemu","mancha_id":"16203-88b2d876b9fffff","clase":"Alto","nivel_medio":2.623,"nivel_medio_min":2.623,"nivel_medio_max":2.623,"pct_alto":67.6,"n_hexagonos":1,"area_ha":28.59}},{"type":"Feature","geometry":{"type":"Polygon","coordinates":[[[-72.69377,-36.613346],[-72.694637,-36.613127],[-72.695528,-36.613924],[-72.69548,-36.61391],[-72.69487,-36.61377],[-72.694793,-36.613741],[-72.6945,-36.61365],[-72.694047,-36.613462],[-72.69377,-36.613346]]]},"properties":{"comuna":"Coelemu","mancha_id":"16203-88b2d87697fffff","clase":"Alto","nivel_medio":2.743,"nivel_medio_min":2.743,"nivel_medio_max":2.743,"pct_alto":63.5,"n_hexagonos":1,"area_ha":0.5}},{"type":"Feature","geometry":{"type":"Polygon","coordinates":[[[-72.72754,-36.60087],[-72.725786,-36.605255],[-72.720594,-36.606568],[-72.717157,-36.603496],[-72.718911,-36.599111],[-72.724102,-36.597798],[-72.72754,-36.60087]]]},"properties":{"comuna":"Coelemu","mancha_id":"16203-88b2d87685fffff","clase":"Alto","nivel_medio":2.511,"nivel_medio_min":2.511,"nivel_medio_max":2.511,"pct_alto":54.0,"n_hexagonos":1,"area_ha":60.95}},{"type":"Feature","geometry":{"type":"Polygon","coordinates":[[[-72.738057,-36.574561],[-72.736304,-36.578946],[-72.739742,-36.582016],[-72.73799,-36.586401],[-72.732799,-36.587715],[-72.729362,-36.584644],[-72.731114,-36.58026],[-72.727678,-36.577189],[-72.72943,-36.572805],[-72.734619,-36.571491],[-72.738057,-36.574561]]]},"properties":{"comuna":"Coelemu","mancha_id":"16203-88b2d87613fffff","clase":"Alto","nivel_medio":2.576,"nivel_medio_min":2.536,"nivel_medio_max":2.616,"pct_alto":67.4,"n_hexagonos":2,"area_ha":121.88}},{"type":"Feature","geometry":{"type":"Polygon","coordinates":[[[-72.751747,-36.598686],[-72.749995,-36.603072],[-72.744802,-36.604386],[-72.741362,-36.601314],[-72.743115,-36.596929],[-72.748307,-36.595615],[-72.751747,-36.598686]]]},"properties":{"comuna":"Coelemu","mancha_id":"16203-88b2d8745bfffff","clase":"Alto","nivel_medio":2.555,"nivel_medio_min":2.555,"nivel_medio_max":2.555,"pct_alto":55.5,"n_hexagonos":1,"area_ha":60.97}},{"type":"Feature","geometry":{"type":"Polygon","coordinates":[[[-72.773746,-36.624269],[-72.770647,-36.621505],[-72.771361,-36.619717],[-72.771384,-36.619747],[-72.772423,-36.620984],[-72.773102,-36.621698],[-72.773366,-36.621972],[-72.774059,-36.622408],[-72.77458,-36.622607],[-72.775118,-36.622838],[-72.775291,-36.622855],[-72.776027,-36.623129],[-72.776593,-36.62343],[-72.776703,-36.623523],[-72.776913,-36.623722],[-72.77649,-36.623776],[-72.773867,-36.624246],[-72.773746,-36.624269]]]},"properties":{"comuna":"Coelemu","mancha_id":"16203-88b2d87407fffff","clase":"Alto","nivel_medio":2.752,"nivel_medio_min":2.752,"nivel_medio_max":2.752,"pct_alto":83.8,"n_hexagonos":1,"area_ha":9.31}},{"type":"Feature","geometry":{"type":"Polygon","coordinates":[[[-72.674592,-36.511868],[-72.672839,-36.516248],[-72.667657,-36.51756],[-72.664231,-36.514492],[-72.665985,-36.510112],[-72.671165,-36.5088],[-72.674592,-36.511868]]]},"properties":{"comuna":"Coelemu","mancha_id":"16203-88b2d83b17fffff","clase":"Alto","nivel_medio":2.732,"nivel_medio_min":2.732,"nivel_medio_max":2.732,"pct_alto":73.7,"n_hexagonos":1,"area_ha":60.8}},{"type":"Feature","geometry":{"type":"Polygon","coordinates":[[[-72.667087,-36.600386],[-72.67052,-36.603458],[-72.669598,-36.605757],[-72.6695,-36.60572],[-72.6692,-36.60556],[-72.669033,-36.605397],[-72.668942,-36.605309],[-72.66878,-36.6051],[-72.66858,-36.60495],[-72.668186,-36.604486],[-72.668088,-36.604418],[-72.667773,-36.604199],[-72.66762,-36.60409],[-72.66756,-36.604],[-72.66744,-36.6034],[-72.66724,-36.60263],[-72.66701,-36.60201],[-72.66691,-36.60179],[-72.66664,-36.60139],[-72.66635,-36.60095],[-72.666071,-36.600678],[-72.666042,-36.60065],[-72.667087,-36.600386]]]},"properties":{"comuna":"Coelemu","mancha_id":"16203-88b2d839a3fffff","clase":"Alto","nivel_medio":2.96,"nivel_medio_min":2.96,"nivel_medio_max":2.96,"pct_alto":62.6,"n_hexagonos":1,"area_ha":9.86}},{"type":"Feature","geometry":{"type":"Polygon","coordinates":[[[-72.727953,-36.529844],[-72.726201,-36.534227],[-72.721016,-36.535541],[-72.717583,-36.532472],[-72.719335,-36.52809],[-72.724519,-36.526776],[-72.727953,-36.529844]]]},"properties":{"comuna":"Coelemu","mancha_id":"16203-88b2d83969fffff","clase":"Alto","nivel_medio":2.62,"nivel_medio_min":2.62,"nivel_medio_max":2.62,"pct_alto":53.5,"n_hexagonos":1,"area_ha":60.88}},{"type":"Feature","geometry":{"type":"Polygon","coordinates":[[[-72.703782,-36.532032],[-72.702029,-36.536413],[-72.696844,-36.537726],[-72.693413,-36.534658],[-72.695167,-36.530276],[-72.691736,-36.527208],[-72.693489,-36.522827],[-72.698672,-36.521514],[-72.702103,-36.524582],[-72.70035,-36.528963],[-72.703782,-36.532032]]]},"properties":{"comuna":"Coelemu","mancha_id":"16203-88b2d83943fffff","clase":"Alto","nivel_medio":2.647,"nivel_medio_min":2.557,"nivel_medio_max":2.737,"pct_alto":64.1,"n_hexagonos":2,"area_ha":121.7}},{"type":"Feature","geometry":{"type":"Polygon","coordinates":[[[-72.726063,-36.557897],[-72.724311,-36.562281],[-72.719123,-36.563595],[-72.715688,-36.560525],[-72.710501,-36.561838],[-72.707067,-36.558768],[-72.70882,-36.554385],[-72.714007,-36.553072],[-72.717441,-36.556141],[-72.722628,-36.554828],[-72.726063,-36.557897]]]},"properties":{"comuna":"Coelemu","mancha_id":"16203-88b2d83921fffff","clase":"Alto","nivel_medio":2.523,"nivel_medio_min":2.502,"nivel_medio_max":2.544,"pct_alto":57.1,"n_hexagonos":2,"area_ha":121.8}},{"type":"Feature","geometry":{"type":"Polygon","coordinates":[[[-72.634639,-36.55346],[-72.632882,-36.557839],[-72.627698,-36.559148],[-72.624273,-36.556078],[-72.62603,-36.551699],[-72.631213,-36.55039],[-72.634639,-36.55346]]]},"properties":{"comuna":"Coelemu","mancha_id":"16203-88b2d8383bfffff","clase":"Alto","nivel_medio":2.512,"nivel_medio_min":2.512,"nivel_medio_max":2.512,"pct_alto":52.4,"n_hexagonos":1,"area_ha":60.79}},{"type":"Feature","geometry":{"type":"Polygon","coordinates":[[[-72.645177,-36.527184],[-72.643422,-36.531563],[-72.63824,-36.532873],[-72.636484,-36.537252],[-72.631302,-36.538562],[-72.629545,-36.542941],[-72.624363,-36.54425],[-72.622606,-36.548629],[-72.617423,-36.549937],[-72.614,-36.546867],[-72.615758,-36.542489],[-72.620939,-36.54118],[-72.622696,-36.536802],[-72.627877,-36.535493],[-72.629634,-36.531114],[-72.634815,-36.529804],[-72.636572,-36.525425],[-72.641752,-36.524115],[-72.643508,-36.519736],[-72.648688,-36.518426],[-72.649295,-36.516912],[-72.649775,-36.516781],[-72.651215,-36.516284],[-72.653639,-36.515321],[-72.654789,-36.513985],[-72.655539,-36.512757],[-72.655624,-36.512736],[-72.65905,-36.515804],[-72.657295,-36.520183],[-72.652114,-36.521494],[-72.650359,-36.525873],[-72.645177,-36.527184]]]},"properties":{"comuna":"Coelemu","mancha_id":"16203-88b2d83809fffff","clase":"Alto","nivel_medio":2.659,"nivel_medio_min":2.53,"nivel_medio_max":2.918,"pct_alto":70.0,"n_hexagonos":6,"area_ha":353.75}},{"type":"Feature","geometry":{"type":"Polygon","coordinates":[[[-72.83191,-36.444315],[-72.830167,-36.4487],[-72.824985,-36.450021],[-72.821546,-36.446958],[-72.82329,-36.442574],[-72.828471,-36.441252],[-72.83191,-36.444315]]]},"properties":{"comuna":"Coelemu","mancha_id":"16203-88b2d80f17fffff","clase":"Alto","nivel_medio":2.515,"nivel_medio_min":2.515,"nivel_medio_max":2.515,"pct_alto":52.0,"n_hexagonos":1,"area_ha":60.93}},{"type":"Feature","geometry":{"type":"Polygon","coordinates":[[[-72.745714,-36.43871],[-72.749144,-36.441773],[-72.754322,-36.440455],[-72.757753,-36.443519],[-72.756006,-36.4479],[-72.750827,-36.449218],[-72.747396,-36.446154],[-72.742218,-36.447471],[-72.738788,-36.444408],[-72.740536,-36.440027],[-72.745714,-36.43871]]]},"properties":{"comuna":"Coelemu","mancha_id":"16203-88b2d80ec7fffff","clase":"Alto","nivel_medio":2.567,"nivel_medio_min":2.504,"nivel_medio_max":2.629,"pct_alto":56.9,"n_hexagonos":2,"area_ha":121.67}},{"type":"Feature","geometry":{"type":"Polygon","coordinates":[[[-72.778526,-36.426418],[-72.77678,-36.430799],[-72.771602,-36.432119],[-72.76817,-36.429056],[-72.769916,-36.424675],[-72.775093,-36.423355],[-72.778526,-36.426418]]]},"properties":{"comuna":"Coelemu","mancha_id":"16203-88b2d80e15fffff","clase":"Alto","nivel_medio":2.537,"nivel_medio_min":2.537,"nivel_medio_max":2.537,"pct_alto":55.3,"n_hexagonos":1,"area_ha":60.85}},{"type":"Feature","geometry":{"type":"Polygon","coordinates":[[[-72.822523,-36.51886],[-72.82262,-36.519189],[-72.821252,-36.517971],[-72.821656,-36.516954],[-72.821903,-36.517118],[-72.822193,-36.517294],[-72.822507,-36.517583],[-72.822589,-36.517979],[-72.822544,-36.518542],[-72.822523,-36.51886]]]},"properties":{"comuna":"Coelemu","mancha_id":"16203-88b2d80de3fffff","clase":"Alto","nivel_medio":2.913,"nivel_medio_min":2.913,"nivel_medio_max":2.913,"pct_alto":91.3,"n_hexagonos":1,"area_ha":1.59}},{"type":"Feature","geometry":{"type":"Polygon","coordinates":[[[-72.82412,-36.520526],[-72.824789,-36.521013],[-72.824694,-36.521037],[-72.82412,-36.520526]]]},"properties":{"comuna":"Coelemu","mancha_id":"16203-88b2d80de3fffff-2","clase":"Alto","nivel_medio":2.913,"nivel_medio_min":2.913,"nivel_medio_max":2.913,"pct_alto":91.3,"n_hexagonos":1,"area_ha":0.03}},{"type":"Feature","geometry":{"type":"Polygon","coordinates":[[[-72.82589,-36.53061],[-72.825322,-36.531178],[-72.82507,-36.53143],[-72.82437,-36.53212],[-72.82432,-36.53231],[-72.8244,-36.5327],[-72.824542,-36.532905],[-72.82492,-36.53345],[-72.82493,-36.53379],[-72.8248,-36.53424],[-72.82392,-36.53534],[-72.82361,-36.53588],[-72.8235,-36.53623],[-72.82352,-36.53655],[-72.82367,-36.53694],[-72.82396,-36.53733],[-72.82404,-36.53739],[-72.8244,-36.53842],[-72.82481,-36.53905],[-72.82529,-36.53945],[-72.82604,-36.53985],[-72.82631,-36.5401],[-72.82637,-36.540265],[-72.826343,-36.540333],[-72.826399,-36.540382],[-72.826424,-36.540558],[-72.826407,-36.540692],[-72.826376,-36.541207],[-72.826243,-36.541761],[-72.826233,-36.541905],[-72.826268,-36.542105],[-72.826326,-36.542227],[-72.826487,-36.542284],[-72.82634,-36.5425],[-72.8262,-36.54275],[-72.825911,-36.543242],[-72.82583,-36.54338],[-72.825773,-36.543839],[-72.825728,-36.54396],[-72.82567,-36.544063],[-72.82561,-36.544122],[-72.825399,-36.544182],[-72.825087,-36.544222],[-72.824851,-36.54431],[-72.82464,-36.544358],[-72.824421,-36.544654],[-72.824304,-36.544736],[-72.823419,-36.545068],[-72.822391,-36.54556],[-72.821557,-36.545947],[-72.820888,-36.546305],[-72.820263,-36.546802],[-72.820212,-36.546842],[-72.819728,-36.547275],[-72.819607,-36.547377],[-72.818964,-36.547878],[-72.818764,-36.54803],[-72.818264,-36.548442],[-72.817625,-36.548972],[-72.817621,-36.548976],[-72.817034,-36.54948],[-72.816605,-36.549842],[-72.816164,-36.550187],[-72.815723,-36.550535],[-72.815219,-36.550954],[-72.81489,-36.551247],[-72.814606,-36.551477],[-72.814258,-36.551768],[-72.813907,-36.552068],[-72.81334,-36.552522],[-72.813321,-36.552537],[-72.81281,-36.55295],[-72.812064,-36.553635],[-72.811639,-36.554084],[-72.810801,-36.554964],[-72.810677,-36.555095],[-72.810363,-36.5554],[-72.809657,-36.555914],[-72.80871,-36.556621],[-72.808431,-36.55682],[-72.807506,-36.557389],[-72.806886,-36.557758],[-72.806315,-36.55815],[-72.806039,-36.558339],[-72.80543,-36.558754],[-72.8049,-36.559113],[-72.804459,-36.559553],[-72.803987,-36.559857],[-72.803333,-36.56039],[-72.803068,-36.560706],[-72.802394,-36.561335],[-72.802051,-36.56165],[-72.801344,-36.562218],[-72.800667,-36.562803],[-72.799686,-36.563659],[-72.799454,-36.563925],[-72.798591,-36.563156],[-72.7934,-36.564473],[-72.791651,-36.56886],[-72.78646,-36.570177],[-72.78471,-36.574563],[-72.788153,-36.577633],[-72.786403,-36.58202],[-72.781211,-36.583337],[-72.779461,-36.587723],[-72.774268,-36.589039],[-72.772518,-36.593426],[-72.77596,-36.596497],[-72.774209,-36.600884],[-72.777652,-36.603955],[-72.777592,-36.604106],[-72.777532,-36.604093],[-72.77678,-36.603724],[-72.776457,-36.603648],[-72.775989,-36.603692],[-72.775679,-36.603695],[-72.774956,-36.603775],[-72.774335,-36.603787],[-72.77373,-36.603735],[-72.770288,-36.603916],[-72.770013,-36.604002],[-72.769059,-36.604071],[-72.768866,-36.603973],[-72.768622,-36.603522],[-72.768534,-36.603406],[-72.768492,-36.60335],[-72.76831,-36.603244],[-72.768136,-36.603171],[-72.767779,-36.603126],[-72.767561,-36.603118],[-72.767403,-36.60314],[-72.767275,-36.603177],[-72.767062,-36.603345],[-72.766904,-36.603514],[-72.766622,-36.603722],[-72.766535,-36.603913],[-72.766371,-36.604031],[-72.766198,-36.604207],[-72.765894,-36.604422],[-72.765755,-36.604524],[-72.765178,-36.604811],[-72.765123,-36.60482],[-72.764983,-36.604992],[-72.764208,-36.605913],[-72.764022,-36.606226],[-72.764014,-36.606589],[-72.764065,-36.606843],[-72.764174,-36.607369],[-72.76207,-36.607901],[-72.760319,-36.612288],[-72.755125,-36.613602],[-72.753372,-36.617989],[-72.748178,-36.619303],[-72.744737,-36.61623],[-72.74649,-36.611844],[-72.751683,-36.61053],[-72.753436,-36.606144],[-72.758629,-36.604829],[-72.760381,-36.600443],[-72.75694,-36.597372],[-72.758691,-36.592985],[-72.755251,-36.589914],[-72.757002,-36.585529],[-72.753562,-36.582458],[-72.755314,-36.578073],[-72.751875,-36.575002],[-72.753626,-36.570617],[-72.750187,-36.567547],[-72.751938,-36.563162],[-72.748501,-36.560093],[-72.750251,-36.555708],[-72.746814,-36.552639],[-72.748565,-36.548255],[-72.745128,-36.545186],[-72.739941,-36.546501],[-72.73819,-36.550885],[-72.733002,-36.552199],[-72.729567,-36.54913],[-72.731319,-36.544747],[-72.736505,-36.543432],[-72.738256,-36.539049],[-72.743443,-36.537734],[-72.746879,-36.540802],[-72.752066,-36.539486],[-72.753816,-36.535102],[-72.759003,-36.533786],[-72.76244,-36.536854],[-72.76069,-36.541239],[-72.755503,-36.542555],[-72.753753,-36.546939],[-72.75719,-36.550008],[-72.762379,-36.548692],[-72.765817,-36.551761],[-72.764067,-36.556146],[-72.767506,-36.559215],[-72.772696,-36.557899],[-72.776136,-36.560968],[-72.781326,-36.559652],[-72.784767,-36.562721],[-72.789958,-36.561404],[-72.791707,-36.557017],[-72.796897,-36.5557],[-72.798645,-36.551313],[-72.803835,-36.549995],[-72.807278,-36.553064],[-72.812469,-36.551745],[-72.814216,-36.547358],[-72.810773,-36.54429],[-72.81252,-36.539903],[-72.81771,-36.538584],[-72.819456,-36.534198],[-72.816013,-36.53113],[-72.81776,-36.526744],[-72.822948,-36.525424],[-72.826392,-36.528491],[-72.826611,-36.528435],[-72.82659,-36.52852],[-72.82657,-36.52889],[-72.82638,-36.52972],[-72.82623,-36.53009],[-72.82589,-36.53061]]]},"properties":{"comuna":"Coelemu","mancha_id":"16203-88b2d80da1fffff","clase":"Alto","nivel_medio":2.733,"nivel_medio_min":2.507,"nivel_medio_max":3.285,"pct_alto":68.9,"n_hexagonos":40,"area_ha":2148.18}},{"type":"Feature","geometry":{"type":"Polygon","coordinates":[[[-72.760876,-36.505732],[-72.764312,-36.508799],[-72.769497,-36.507482],[-72.772933,-36.510549],[-72.771185,-36.514933],[-72.774623,-36.518],[-72.772874,-36.522384],[-72.776312,-36.525452],[-72.774564,-36.529836],[-72.778002,-36.532904],[-72.78319,-36.531587],[-72.786629,-36.534655],[-72.791818,-36.533337],[-72.793565,-36.528951],[-72.798753,-36.527633],[-72.8005,-36.523247],[-72.805688,-36.521929],[-72.809129,-36.524996],[-72.807382,-36.529382],[-72.802194,-36.5307],[-72.800447,-36.535086],[-72.795258,-36.536405],[-72.79351,-36.54079],[-72.796951,-36.543859],[-72.795203,-36.548245],[-72.790014,-36.549562],[-72.786573,-36.546494],[-72.781384,-36.547811],[-72.777944,-36.544743],[-72.772755,-36.546059],[-72.769316,-36.542991],[-72.771066,-36.538606],[-72.767627,-36.535538],[-72.769377,-36.531153],[-72.765939,-36.528086],[-72.767688,-36.523701],[-72.764251,-36.520634],[-72.759065,-36.52195],[-72.755629,-36.518883],[-72.750444,-36.520199],[-72.747008,-36.517132],[-72.748758,-36.512749],[-72.753943,-36.511432],[-72.755692,-36.507049],[-72.760876,-36.505732]]]},"properties":{"comuna":"Coelemu","mancha_id":"16203-88b2d80c85fffff","clase":"Alto","nivel_medio":2.668,"nivel_medio_min":2.522,"nivel_medio_max":2.897,"pct_alto":63.0,"n_hexagonos":14,"area_ha":853.22}},{"type":"Feature","geometry":{"type":"Polygon","coordinates":[[[-72.811508,-36.467706],[-72.809388,-36.465816],[-72.810805,-36.462254],[-72.810933,-36.463219],[-72.811068,-36.464001],[-72.811145,-36.464672],[-72.81136,-36.465452],[-72.811421,-36.46595],[-72.811459,-36.466408],[-72.811422,-36.467172],[-72.811508,-36.467706]]]},"properties":{"comuna":"Coelemu","mancha_id":"16203-88b2d80c63fffff","clase":"Alto","nivel_medio":2.766,"nivel_medio_min":2.766,"nivel_medio_max":2.766,"pct_alto":76.6,"n_hexagonos":1,"area_ha":5.36}},{"type":"Feature","geometry":{"type":"Polygon","coordinates":[[[-72.790292,-36.490376],[-72.79373,-36.493441],[-72.798915,-36.492122],[-72.802047,-36.494915],[-72.801765,-36.495262],[-72.801479,-36.495691],[-72.801097,-36.496084],[-72.800503,-36.496504],[-72.800161,-36.496762],[-72.800785,-36.497448],[-72.801062,-36.497783],[-72.801238,-36.497988],[-72.800607,-36.499573],[-72.795422,-36.500892],[-72.793675,-36.505277],[-72.78849,-36.506595],[-72.785051,-36.503529],[-72.779866,-36.504847],[-72.776429,-36.501781],[-72.778177,-36.497397],[-72.783361,-36.496078],[-72.785108,-36.491694],[-72.790292,-36.490376]]]},"properties":{"comuna":"Coelemu","mancha_id":"16203-88b2d80c33fffff","clase":"Alto","nivel_medio":2.703,"nivel_medio_min":2.571,"nivel_medio_max":2.888,"pct_alto":65.3,"n_hexagonos":4,"area_ha":241.27}},{"type":"Feature","geometry":{"type":"Polygon","coordinates":[[[-72.805845,-36.486418],[-72.807591,-36.482034],[-72.804152,-36.478969],[-72.805898,-36.474584],[-72.811081,-36.473264],[-72.812846,-36.474837],[-72.812959,-36.475347],[-72.813018,-36.475631],[-72.813211,-36.476423],[-72.813417,-36.476995],[-72.81384,-36.478037],[-72.812775,-36.480714],[-72.813997,-36.481803],[-72.813593,-36.482183],[-72.813024,-36.482666],[-72.812514,-36.483098],[-72.811875,-36.483619],[-72.811433,-36.484005],[-72.811178,-36.484213],[-72.810592,-36.484897],[-72.810206,-36.485345],[-72.809521,-36.486368],[-72.807837,-36.488193],[-72.805845,-36.486418]]]},"properties":{"comuna":"Coelemu","mancha_id":"16203-88b2d80c23fffff","clase":"Alto","nivel_medio":2.632,"nivel_medio_min":2.605,"nivel_medio_max":2.645,"pct_alto":60.7,"n_hexagonos":2,"area_ha":86.6}},{"type":"Feature","geometry":{"type":"Polygon","coordinates":[[[-72.778293,-36.473732],[-72.781729,-36.476796],[-72.786911,-36.475478],[-72.790348,-36.478543],[-72.788602,-36.482926],[-72.783418,-36.484245],[-72.779982,-36.48118],[-72.774799,-36.482498],[-72.773052,-36.486881],[-72.767869,-36.488199],[-72.766121,-36.492582],[-72.760938,-36.4939],[-72.757503,-36.490834],[-72.75232,-36.492151],[-72.750572,-36.496533],[-72.745389,-36.49785],[-72.741955,-36.494783],[-72.743705,-36.490401],[-72.740272,-36.487335],[-72.742021,-36.482953],[-72.747203,-36.481637],[-72.750636,-36.484702],[-72.755818,-36.483385],[-72.757566,-36.479003],[-72.754132,-36.475938],[-72.75588,-36.471556],[-72.752448,-36.468491],[-72.747267,-36.469808],[-72.743835,-36.466743],[-72.738656,-36.46806],[-72.736907,-36.472441],[-72.731727,-36.473757],[-72.728296,-36.470692],[-72.723116,-36.472008],[-72.721367,-36.476389],[-72.724797,-36.479454],[-72.729977,-36.478139],[-72.733408,-36.481204],[-72.731659,-36.485586],[-72.73509,-36.488651],[-72.733341,-36.493033],[-72.728159,-36.494349],[-72.726409,-36.498731],[-72.729841,-36.501797],[-72.72809,-36.506179],[-72.722907,-36.507494],[-72.721156,-36.511876],[-72.715973,-36.513191],[-72.714222,-36.517572],[-72.709038,-36.518886],[-72.705607,-36.515819],[-72.707359,-36.511437],[-72.703929,-36.50837],[-72.698747,-36.509684],[-72.695318,-36.506617],[-72.690136,-36.50793],[-72.688383,-36.51231],[-72.691812,-36.515378],[-72.69006,-36.519759],[-72.684877,-36.521072],[-72.681448,-36.518004],[-72.683202,-36.513623],[-72.679774,-36.510556],[-72.681527,-36.506176],[-72.686708,-36.504863],[-72.68846,-36.500482],[-72.693641,-36.499169],[-72.695393,-36.494789],[-72.700574,-36.493475],[-72.704003,-36.496541],[-72.709184,-36.495227],[-72.710935,-36.490846],[-72.707505,-36.48778],[-72.709256,-36.4834],[-72.705828,-36.480334],[-72.700648,-36.481648],[-72.698897,-36.486028],[-72.693717,-36.487342],[-72.690289,-36.484276],[-72.692041,-36.479896],[-72.69722,-36.478582],[-72.698971,-36.474203],[-72.70415,-36.472888],[-72.705901,-36.468508],[-72.711079,-36.467193],[-72.714508,-36.470258],[-72.719687,-36.468943],[-72.721437,-36.464562],[-72.726615,-36.463247],[-72.728365,-36.458866],[-72.733543,-36.45755],[-72.736973,-36.460614],[-72.742153,-36.459297],[-72.743901,-36.454916],[-72.74908,-36.453599],[-72.752511,-36.456663],[-72.750763,-36.461045],[-72.754196,-36.464109],[-72.759376,-36.462791],[-72.762809,-36.465856],[-72.76799,-36.464538],[-72.771424,-36.467602],[-72.776605,-36.466284],[-72.78004,-36.469348],[-72.778293,-36.473732]],[[-72.719476,-36.504427],[-72.721226,-36.500046],[-72.717795,-36.496979],[-72.712614,-36.498294],[-72.710863,-36.502675],[-72.714293,-36.505742],[-72.719476,-36.504427]]]},"properties":{"comuna":"Coelemu","mancha_id":"16203-88b2d80c11fffff","clase":"Alto","nivel_medio":2.732,"nivel_medio_min":2.507,"nivel_medio_max":3.329,"pct_alto":68.0,"n_hexagonos":41,"area_ha":2494.92}},{"type":"Feature","geometry":{"type":"Polygon","coordinates":[[[-72.71822,-36.426028],[-72.721647,-36.429091],[-72.726822,-36.427775],[-72.72857,-36.423395],[-72.733746,-36.422078],[-72.737174,-36.425141],[-72.735426,-36.429521],[-72.73025,-36.430838],[-72.728502,-36.435217],[-72.73193,-36.438281],[-72.730182,-36.442661],[-72.725005,-36.443977],[-72.721577,-36.440914],[-72.723325,-36.436534],[-72.719898,-36.433471],[-72.714722,-36.434787],[-72.711296,-36.431723],[-72.713045,-36.427344],[-72.71822,-36.426028]]]},"properties":{"comuna":"Coelemu","mancha_id":"16203-88b2d80533fffff","clase":"Alto","nivel_medio":2.709,"nivel_medio_min":2.502,"nivel_medio_max":2.867,"pct_alto":71.0,"n_hexagonos":4,"area_ha":243.19}},{"type":"Feature","geometry":{"type":"Polygon","coordinates":[[[-72.742415,-36.412001],[-72.74759,-36.410683],[-72.749336,-36.406303],[-72.74974,-36.4062],[-72.75,-36.40629],[-72.75,-36.40629],[-72.75237,-36.4071],[-72.75332,-36.40729],[-72.75505,-36.4072],[-72.756361,-36.406636],[-72.75794,-36.408046],[-72.763115,-36.406727],[-72.766545,-36.409789],[-72.771721,-36.408469],[-72.775152,-36.411531],[-72.780328,-36.410211],[-72.782073,-36.40583],[-72.778642,-36.402769],[-72.780064,-36.399196],[-72.781415,-36.399462],[-72.783338,-36.400424],[-72.785429,-36.400842],[-72.787241,-36.401539],[-72.788467,-36.40145],[-72.789645,-36.401365],[-72.791562,-36.400633],[-72.792886,-36.399797],[-72.794058,-36.398836],[-72.794206,-36.398715],[-72.794169,-36.398808],[-72.797602,-36.401869],[-72.802778,-36.400548],[-72.806211,-36.403608],[-72.804468,-36.407991],[-72.799291,-36.409312],[-72.797547,-36.413694],[-72.800981,-36.416755],[-72.806159,-36.415434],[-72.809594,-36.418496],[-72.807851,-36.422879],[-72.811286,-36.425941],[-72.816465,-36.424619],[-72.819902,-36.427681],[-72.818158,-36.432065],[-72.821595,-36.435127],[-72.819852,-36.439511],[-72.814671,-36.440832],[-72.811235,-36.43777],[-72.806055,-36.43909],[-72.802619,-36.436028],[-72.804363,-36.431645],[-72.800928,-36.428582],[-72.795749,-36.429903],[-72.792315,-36.42684],[-72.794059,-36.422458],[-72.790626,-36.419396],[-72.785448,-36.420716],[-72.782016,-36.417654],[-72.776839,-36.418974],[-72.773407,-36.415912],[-72.768231,-36.417231],[-72.7648,-36.41417],[-72.759624,-36.415488],[-72.757878,-36.419869],[-72.752702,-36.421187],[-72.749272,-36.418125],[-72.744097,-36.419443],[-72.740668,-36.416381],[-72.742415,-36.412001]]]},"properties":{"comuna":"Coelemu","mancha_id":"16203-88b2d80521fffff","clase":"Alto","nivel_medio":2.815,"nivel_medio_min":2.52,"nivel_medio_max":3.473,"pct_alto":73.6,"n_hexagonos":20,"area_ha":1121.0}},{"type":"Feature","geometry":{"type":"Polygon","coordinates":[[[-72.82005,-36.3922],[-72.818308,-36.396583],[-72.821743,-36.399643],[-72.82692,-36.398321],[-72.828661,-36.393938],[-72.833838,-36.392615],[-72.837275,-36.395675],[-72.842452,-36.394352],[-72.845889,-36.397412],[-72.851067,-36.396088],[-72.854505,-36.399148],[-72.859684,-36.397824],[-72.863123,-36.400885],[-72.868302,-36.39956],[-72.871742,-36.40262],[-72.870003,-36.407005],[-72.872684,-36.409391],[-72.87268,-36.40947],[-72.87269,-36.41015],[-72.87269,-36.41077],[-72.87279,-36.41124],[-72.872864,-36.411524],[-72.871703,-36.414451],[-72.872987,-36.415593],[-72.87295,-36.41574],[-72.87299,-36.41637],[-72.87308,-36.41665],[-72.87311,-36.41697],[-72.8731,-36.41731],[-72.87296,-36.41791],[-72.87294,-36.41819],[-72.87298,-36.41838],[-72.87299,-36.41859],[-72.87297,-36.41923],[-72.87287,-36.41965],[-72.87282,-36.42111],[-72.87275,-36.42151],[-72.87283,-36.42195],[-72.872864,-36.422036],[-72.868223,-36.423222],[-72.866483,-36.427607],[-72.869925,-36.430669],[-72.874784,-36.429427],[-72.8748,-36.42947],[-72.87469,-36.42968],[-72.87468,-36.42979],[-72.87474,-36.42989],[-72.87487,-36.43002],[-72.87505,-36.43029],[-72.87527,-36.43072],[-72.87575,-36.43106],[-72.8762,-36.43127],[-72.87672,-36.43155],[-72.87724,-36.43174],[-72.87748,-36.43191],[-72.87759,-36.43208],[-72.87767,-36.43244],[-72.87772,-36.4327],[-72.87791,-36.43292],[-72.87823,-36.43308],[-72.878277,-36.433093],[-72.876809,-36.436793],[-72.880252,-36.439855],[-72.878512,-36.444241],[-72.880174,-36.445719],[-72.880124,-36.445741],[-72.879955,-36.445816],[-72.879843,-36.445917],[-72.879663,-36.446081],[-72.879504,-36.446225],[-72.879378,-36.446339],[-72.87916,-36.44637],[-72.87901,-36.446312],[-72.87886,-36.446206],[-72.878685,-36.446147],[-72.878506,-36.446129],[-72.878297,-36.446151],[-72.878093,-36.446286],[-72.877896,-36.446473],[-72.877815,-36.446637],[-72.877753,-36.446845],[-72.877749,-36.44709],[-72.877747,-36.447251],[-72.877698,-36.447419],[-72.877625,-36.447573],[-72.877494,-36.447766],[-72.877347,-36.447909],[-72.877212,-36.448004],[-72.877075,-36.4481],[-72.876951,-36.448187],[-72.876701,-36.4483],[-72.876397,-36.448398],[-72.876152,-36.448515],[-72.876021,-36.448621],[-72.875791,-36.448807],[-72.875668,-36.448964],[-72.875594,-36.449187],[-72.875651,-36.44945],[-72.875708,-36.449715],[-72.875772,-36.450008],[-72.875721,-36.450259],[-72.875481,-36.4505],[-72.875345,-36.450718],[-72.875284,-36.450901],[-72.875284,-36.451253],[-72.875391,-36.451722],[-72.875487,-36.452138],[-72.875695,-36.452632],[-72.875744,-36.452833],[-72.875031,-36.453015],[-72.871588,-36.449952],[-72.866404,-36.451275],[-72.862961,-36.448213],[-72.857778,-36.449536],[-72.856036,-36.453922],[-72.850853,-36.455245],[-72.847412,-36.452181],[-72.842229,-36.453504],[-72.838788,-36.450441],[-72.840531,-36.446056],[-72.845713,-36.444733],[-72.847455,-36.440348],[-72.844015,-36.437286],[-72.845757,-36.432901],[-72.842318,-36.429839],[-72.84406,-36.425454],[-72.840621,-36.422393],[-72.835441,-36.423715],[-72.832003,-36.420654],[-72.833745,-36.41627],[-72.830308,-36.413209],[-72.83205,-36.408825],[-72.828614,-36.405764],[-72.823436,-36.407087],[-72.82,-36.404026],[-72.814823,-36.405348],[-72.811388,-36.402287],[-72.813131,-36.397904],[-72.809697,-36.394844],[-72.81144,-36.390462],[-72.816615,-36.38914],[-72.82005,-36.3922]],[[-72.864823,-36.40833],[-72.861383,-36.405269],[-72.856204,-36.406593],[-72.852765,-36.403533],[-72.847586,-36.404856],[-72.845845,-36.40924],[-72.849284,-36.412301],[-72.854463,-36.410978],[-72.857902,-36.414039],[-72.863083,-36.412715],[-72.864823,-36.40833]],[[-72.85268,-36.427193],[-72.850939,-36.431578],[-72.854379,-36.43464],[-72.859561,-36.433317],[-72.861302,-36.428931],[-72.857861,-36.42587],[-72.85268,-36.427193]]]},"properties":{"comuna":"Coelemu","mancha_id":"16203-88b2d80197fffff","clase":"Alto","nivel_medio":2.799,"nivel_medio_min":2.505,"nivel_medio_max":3.455,"pct_alto":72.1,"n_hexagonos":33,"area_ha":1969.85}},{"type":"Feature","geometry":{"type":"Polygon","coordinates":[[[-72.813131,-36.397904],[-72.811388,-36.402287],[-72.806211,-36.403608],[-72.802778,-36.400548],[-72.804521,-36.396166],[-72.809697,-36.394844],[-72.813131,-36.397904]]]},"properties":{"comuna":"Coelemu","mancha_id":"16203-88b2d80e69fffff","clase":"Muy Alto","nivel_medio":3.599,"nivel_medio_min":3.599,"nivel_medio_max":3.599,"pct_alto":98.7,"n_hexagonos":1,"area_ha":60.87}},{"type":"Feature","geometry":{"type":"Polygon","coordinates":[[[-72.782073,-36.40583],[-72.780328,-36.410211],[-72.775152,-36.411531],[-72.771721,-36.408469],[-72.773466,-36.404089],[-72.778642,-36.402769],[-72.782073,-36.40583]]]},"properties":{"comuna":"Coelemu","mancha_id":"16203-88b2d80e55fffff","clase":"Muy Alto","nivel_medio":3.625,"nivel_medio_min":3.625,"nivel_medio_max":3.625,"pct_alto":96.8,"n_hexagonos":1,"area_ha":60.84}},{"type":"Feature","geometry":{"type":"Polygon","coordinates":[[[-72.828661,-36.393938],[-72.82692,-36.398321],[-72.821743,-36.399643],[-72.818308,-36.396583],[-72.82005,-36.3922],[-72.825226,-36.390878],[-72.828661,-36.393938]]]},"properties":{"comuna":"Coelemu","mancha_id":"16203-88b2d801bbfffff","clase":"Muy Alto","nivel_medio":3.535,"nivel_medio_min":3.535,"nivel_medio_max":3.535,"pct_alto":98.7,"n_hexagonos":1,"area_ha":60.88}}],"bbox":[-72.88471,-36.62503,-72.60664,-36.38325]}