{"type":"FeatureCollection","features":[{"type":"Feature","geometry":{"type":"Polygon","coordinates":[[[-72.582055,-36.570663],[-72.581052,-36.570916],[-72.579887,-36.56987],[-72.581143,-36.570119],[-72.582055,-36.570663]]]},"properties":{"comuna":"Ranquil","mancha_id":"16206-88b2d838d5fffff","clase":"Muy Bajo","nivel_medio":0.0,"nivel_medio_min":0.0,"nivel_medio_max":0.0,"pct_alto":0.0,"n_hexagonos":1,"area_ha":0.89}},{"type":"Feature","geometry":{"type":"Polygon","coordinates":[[[-72.57309,-36.568989],[-72.572449,-36.569151],[-72.572191,-36.568919],[-72.572908,-36.568963],[-72.57309,-36.568989]]]},"properties":{"comuna":"Ranquil","mancha_id":"16206-88b2d838d1fffff","clase":"Muy Bajo","nivel_medio":0.0,"nivel_medio_min":0.0,"nivel_medio_max":0.0,"pct_alto":0.0,"n_hexagonos":1,"area_ha":0.1}},{"type":"Feature","geometry":{"type":"Polygon","coordinates":[[[-72.601878,-36.553862],[-72.600119,-36.55824],[-72.597957,-36.558785],[-72.59803,-36.55754],[-72.59868,-36.55536],[-72.59989,-36.55343],[-72.600428,-36.552561],[-72.601878,-36.553862]]]},"properties":{"comuna":"Ranquil","mancha_id":"16206-88b2d838c1fffff","clase":"Muy Bajo","nivel_medio":0.0,"nivel_medio_min":0.0,"nivel_medio_max":0.0,"pct_alto":0.0,"n_hexagonos":1,"area_ha":12.59}},{"type":"Feature","geometry":{"type":"Polygon","coordinates":[[[-72.527666,-36.599401],[-72.527359,-36.600165],[-72.52593,-36.600524],[-72.527636,-36.599403],[-72.527666,-36.599401]]]},"properties":{"comuna":"Ranquil","mancha_id":"16206-88b2d82159fffff","clase":"Muy Bajo","nivel_medio":0.0,"nivel_medio_min":0.0,"nivel_medio_max":0.0,"pct_alto":0.0,"n_hexagonos":1,"area_ha":0.5}},{"type":"Feature","geometry":{"type":"Polygon","coordinates":[[[-72.477403,-36.63161],[-72.477062,-36.632453],[-72.476001,-36.632719],[-72.47653,-36.63219],[-72.477403,-36.63161]]]},"properties":{"comuna":"Ranquil","mancha_id":"16206-88b2d82033fffff","clase":"Muy Bajo","nivel_medio":0.0,"nivel_medio_min":0.0,"nivel_medio_max":0.0,"pct_alto":0.0,"n_hexagonos":1,"area_ha":0.48}},{"type":"Feature","geometry":{"type":"Polygon","coordinates":[[[-72.515228,-36.607146],[-72.513463,-36.611522],[-72.513461,-36.611522],[-72.513487,-36.610827],[-72.513035,-36.609613],[-72.513047,-36.608655],[-72.51352,-36.60738],[-72.514404,-36.606405],[-72.514472,-36.60633],[-72.515949,-36.604984],[-72.517262,-36.603933],[-72.519035,-36.603145],[-72.520676,-36.602358],[-72.521936,-36.602063],[-72.520411,-36.605844],[-72.515228,-36.607146]]]},"properties":{"comuna":"Ranquil","mancha_id":"16206-88b2d8202dfffff","clase":"Muy Bajo","nivel_medio":0.238,"nivel_medio_min":0.237,"nivel_medio_max":0.244,"pct_alto":0.0,"n_hexagonos":2,"area_ha":22.14}},{"type":"Feature","geometry":{"type":"Polygon","coordinates":[[[-72.649934,-36.585026],[-72.646504,-36.581955],[-72.64732,-36.579922],[-72.64734,-36.57999],[-72.647554,-36.580362],[-72.64761,-36.58046],[-72.647969,-36.580958],[-72.64837,-36.58151],[-72.648634,-36.58197],[-72.6488,-36.58226],[-72.648905,-36.582491],[-72.64901,-36.58272],[-72.649089,-36.583021],[-72.64925,-36.58363],[-72.649285,-36.583813],[-72.64932,-36.584],[-72.64949,-36.5842],[-72.64972,-36.58436],[-72.649807,-36.584398],[-72.65023,-36.58458],[-72.6504,-36.5847],[-72.65051,-36.58482],[-72.650531,-36.584875],[-72.649934,-36.585026]]]},"properties":{"comuna":"Ranquil","mancha_id":"16206-88b2d83989fffff","clase":"Bajo","nivel_medio":1.374,"nivel_medio_min":1.374,"nivel_medio_max":1.374,"pct_alto":5.9,"n_hexagonos":1,"area_ha":5.58}},{"type":"Feature","geometry":{"type":"Polygon","coordinates":[[[-72.610724,-36.547694],[-72.608818,-36.548176],[-72.60706,-36.552554],[-72.601878,-36.553862],[-72.600428,-36.552561],[-72.60191,-36.55017],[-72.60357,-36.548275],[-72.604494,-36.547623],[-72.605682,-36.547156],[-72.606018,-36.546567],[-72.606039,-36.545769],[-72.606077,-36.545717],[-72.606643,-36.54492],[-72.61057,-36.54759],[-72.610724,-36.547694]]]},"properties":{"comuna":"Ranquil","mancha_id":"16206-88b2d8381bfffff","clase":"Bajo","nivel_medio":0.708,"nivel_medio_min":0.623,"nivel_medio_max":1.271,"pct_alto":2.1,"n_hexagonos":2,"area_ha":41.0}},{"type":"Feature","geometry":{"type":"Polygon","coordinates":[[[-72.462784,-36.679285],[-72.466201,-36.682363],[-72.465952,-36.682978],[-72.46582,-36.68301],[-72.4653,-36.68299],[-72.46506,-36.68294],[-72.46486,-36.68283],[-72.46475,-36.68267],[-72.46464,-36.6825],[-72.46445,-36.68238],[-72.46418,-36.68231],[-72.46395,-36.68229],[-72.46369,-36.68229],[-72.46342,-36.6823],[-72.46289,-36.68232],[-72.46265,-36.6823],[-72.4624,-36.68225],[-72.46195,-36.68208],[-72.46152,-36.68187],[-72.46135,-36.68174],[-72.46117,-36.68162],[-72.46097,-36.68153],[-72.46075,-36.68147],[-72.46051,-36.6814],[-72.46009,-36.68126],[-72.46006,-36.68124],[-72.45986,-36.68116],[-72.45907,-36.68068],[-72.45887,-36.68058],[-72.45865,-36.68049],[-72.45843,-36.68039],[-72.458415,-36.680378],[-72.462784,-36.679285]]]},"properties":{"comuna":"Ranquil","mancha_id":"16206-88b2d82e6bfffff","clase":"Bajo","nivel_medio":1.194,"nivel_medio_min":1.194,"nivel_medio_max":1.194,"pct_alto":3.4,"n_hexagonos":1,"area_ha":12.83}},{"type":"Feature","geometry":{"type":"Polygon","coordinates":[[[-72.455951,-36.673129],[-72.454181,-36.677505],[-72.454986,-36.67823],[-72.45478,-36.67823],[-72.45454,-36.67823],[-72.45431,-36.67818],[-72.45412,-36.67809],[-72.45392,-36.678],[-72.4537,-36.67793],[-72.45345,-36.67791],[-72.45321,-36.67791],[-72.45297,-36.67791],[-72.45275,-36.6779],[-72.452637,-36.677891],[-72.45251,-36.67788],[-72.45229,-36.67791],[-72.452233,-36.677992],[-72.45215,-36.67811],[-72.45205,-36.67827],[-72.45195,-36.67843],[-72.45182,-36.6786],[-72.45172,-36.67878],[-72.45164,-36.67896],[-72.45156,-36.67913],[-72.45132,-36.67949],[-72.45103,-36.6796],[-72.45069,-36.6796],[-72.450735,-36.679158],[-72.450689,-36.678578],[-72.450673,-36.678382],[-72.450643,-36.678034],[-72.450459,-36.677574],[-72.450238,-36.677196],[-72.450118,-36.676791],[-72.449916,-36.676358],[-72.44986,-36.675935],[-72.449741,-36.675493],[-72.449695,-36.675106],[-72.449667,-36.674646],[-72.449741,-36.674305],[-72.449888,-36.673826],[-72.450035,-36.673458],[-72.450487,-36.673181],[-72.450791,-36.672868],[-72.450967,-36.672456],[-72.451096,-36.671723],[-72.451383,-36.67089],[-72.451722,-36.670255],[-72.451728,-36.670243],[-72.452145,-36.669813],[-72.452374,-36.669367],[-72.45269,-36.668649],[-72.4529,-36.668039],[-72.453323,-36.667658],[-72.453492,-36.667084],[-72.453355,-36.666128],[-72.453173,-36.665006],[-72.452764,-36.664354],[-72.452205,-36.664068],[-72.451399,-36.663784],[-72.450655,-36.663351],[-72.450048,-36.66281],[-72.450892,-36.662599],[-72.454307,-36.665676],[-72.459492,-36.664378],[-72.462908,-36.667456],[-72.461138,-36.671831],[-72.455951,-36.673129]]]},"properties":{"comuna":"Ranquil","mancha_id":"16206-88b2d82e41fffff","clase":"Bajo","nivel_medio":1.356,"nivel_medio_min":0.854,"nivel_medio_max":1.39,"pct_alto":24.6,"n_hexagonos":4,"area_ha":99.83}},{"type":"Feature","geometry":{"type":"Polygon","coordinates":[[[-72.591027,-36.615624],[-72.589266,-36.620003],[-72.584079,-36.621309],[-72.580654,-36.618235],[-72.582416,-36.613856],[-72.587602,-36.61255],[-72.591027,-36.615624]]]},"properties":{"comuna":"Ranquil","mancha_id":"16206-88b2d82a51fffff","clase":"Bajo","nivel_medio":1.434,"nivel_medio_min":1.434,"nivel_medio_max":1.434,"pct_alto":3.9,"n_hexagonos":1,"area_ha":60.8}},{"type":"Feature","geometry":{"type":"Polygon","coordinates":[[[-72.58513,-36.711703],[-72.584974,-36.711651],[-72.585051,-36.711632],[-72.58513,-36.711703]]]},"properties":{"comuna":"Ranquil","mancha_id":"16206-88b2d828e3fffff","clase":"Bajo","nivel_medio":1.079,"nivel_medio_min":1.079,"nivel_medio_max":1.079,"pct_alto":0.0,"n_hexagonos":1,"area_ha":0.0}},{"type":"Feature","geometry":{"type":"Polygon","coordinates":[[[-72.58603,-36.71268],[-72.58566,-36.71225],[-72.585527,-36.712059],[-72.586531,-36.712961],[-72.58625,-36.71286],[-72.58603,-36.71268]]]},"properties":{"comuna":"Ranquil","mancha_id":"16206-88b2d828e3fffff-2","clase":"Bajo","nivel_medio":1.079,"nivel_medio_min":1.079,"nivel_medio_max":1.079,"pct_alto":0.0,"n_hexagonos":1,"area_ha":0.1}},{"type":"Feature","geometry":{"type":"Polygon","coordinates":[[[-72.58515,-36.69979],[-72.583385,-36.704172],[-72.581839,-36.70456],[-72.58168,-36.70425],[-72.58159,-36.70388],[-72.58167,-36.70346],[-72.58163,-36.7031],[-72.58147,-36.70283],[-72.58131,-36.70259],[-72.58096,-36.70236],[-72.58046,-36.70214],[-72.58014,-36.70197],[-72.5799,-36.70167],[-72.57963,-36.70127],[-72.57941,-36.70105],[-72.57938,-36.70085],[-72.57947,-36.70066],[-72.57958,-36.70048],[-72.5796,-36.70032],[-72.57954,-36.70013],[-72.57945,-36.69993],[-72.57937,-36.69975],[-72.57938,-36.69958],[-72.57948,-36.69935],[-72.57956,-36.69911],[-72.57955,-36.69889],[-72.57948,-36.69868],[-72.57928,-36.69846],[-72.57907,-36.6983],[-72.57877,-36.69811],[-72.57853,-36.69805],[-72.57826,-36.69812],[-72.57799,-36.69822],[-72.57778,-36.69834],[-72.57761,-36.69834],[-72.57738,-36.69818],[-72.57723,-36.69799],[-72.577102,-36.697871],[-72.58172,-36.696712],[-72.58515,-36.69979]]]},"properties":{"comuna":"Ranquil","mancha_id":"16206-88b2d828c5fffff","clase":"Bajo","nivel_medio":1.298,"nivel_medio_min":1.298,"nivel_medio_max":1.298,"pct_alto":0.1,"n_hexagonos":1,"area_ha":29.74}},{"type":"Feature","geometry":{"type":"Polygon","coordinates":[[[-72.565505,-36.574833],[-72.563744,-36.579211],[-72.561742,-36.579715],[-72.562109,-36.578901],[-72.563832,-36.576695],[-72.564966,-36.574741],[-72.565201,-36.57456],[-72.566773,-36.573354],[-72.568328,-36.572577],[-72.569063,-36.5718],[-72.569404,-36.570533],[-72.570197,-36.569636],[-72.571542,-36.568879],[-72.572191,-36.568919],[-72.572449,-36.569151],[-72.570687,-36.573528],[-72.565505,-36.574833]]]},"properties":{"comuna":"Ranquil","mancha_id":"16206-88b2d82325fffff","clase":"Bajo","nivel_medio":0.835,"nivel_medio_min":0.803,"nivel_medio_max":0.847,"pct_alto":0.3,"n_hexagonos":2,"area_ha":19.83}},{"type":"Feature","geometry":{"type":"Polygon","coordinates":[[[-72.473403,-36.65303],[-72.476819,-36.656107],[-72.482005,-36.654808],[-72.485422,-36.657885],[-72.483653,-36.662261],[-72.478467,-36.66356],[-72.47505,-36.660483],[-72.469864,-36.661782],[-72.466448,-36.658705],[-72.468217,-36.654329],[-72.473403,-36.65303]]]},"properties":{"comuna":"Ranquil","mancha_id":"16206-88b2d82199fffff","clase":"Bajo","nivel_medio":0.823,"nivel_medio_min":0.671,"nivel_medio_max":0.974,"pct_alto":7.4,"n_hexagonos":2,"area_ha":121.41}},{"type":"Feature","geometry":{"type":"Polygon","coordinates":[[[-72.529013,-36.607615],[-72.523829,-36.608918],[-72.522064,-36.613294],[-72.51688,-36.614596],[-72.513463,-36.611522],[-72.515228,-36.607146],[-72.520411,-36.605844],[-72.521936,-36.602063],[-72.523204,-36.601767],[-72.525338,-36.600913],[-72.52593,-36.600524],[-72.527359,-36.600165],[-72.527666,-36.599401],[-72.52972,-36.599285],[-72.530687,-36.599716],[-72.531529,-36.600382],[-72.532406,-36.600522],[-72.533449,-36.600335],[-72.534999,-36.600152],[-72.535983,-36.600242],[-72.536659,-36.600202],[-72.53596,-36.601935],[-72.53938,-36.605009],[-72.537616,-36.609386],[-72.532432,-36.610689],[-72.529013,-36.607615]]]},"properties":{"comuna":"Ranquil","mancha_id":"16206-88b2d82151fffff","clase":"Bajo","nivel_medio":1.043,"nivel_medio_min":0.784,"nivel_medio_max":1.251,"pct_alto":13.2,"n_hexagonos":4,"area_ha":200.74}},{"type":"Feature","geometry":{"type":"Polygon","coordinates":[[[-72.551511,-36.598024],[-72.546327,-36.599328],[-72.544137,-36.59736],[-72.544435,-36.597296],[-72.545057,-36.596948],[-72.545425,-36.595976],[-72.54565,-36.59537],[-72.54601,-36.59516],[-72.5465,-36.59506],[-72.54704,-36.595],[-72.54775,-36.59501],[-72.54859,-36.59517],[-72.54961,-36.59545],[-72.55023,-36.59557],[-72.55095,-36.59519],[-72.55151,-36.59448],[-72.55189,-36.59377],[-72.552067,-36.592563],[-72.55211,-36.59227],[-72.55336,-36.59075],[-72.55486,-36.58981],[-72.55585,-36.58938],[-72.556517,-36.58848],[-72.55734,-36.58737],[-72.557622,-36.586108],[-72.557791,-36.585784],[-72.560219,-36.587965],[-72.558457,-36.592343],[-72.553274,-36.593647],[-72.551511,-36.598024]]]},"properties":{"comuna":"Ranquil","mancha_id":"16206-88b2d82141fffff","clase":"Bajo","nivel_medio":1.114,"nivel_medio_min":0.799,"nivel_medio_max":1.405,"pct_alto":23.5,"n_hexagonos":2,"area_ha":55.79}},{"type":"Feature","geometry":{"type":"Polygon","coordinates":[[[-72.480477,-36.635528],[-72.477062,-36.632453],[-72.477403,-36.63161],[-72.47886,-36.63064],[-72.48094,-36.62946],[-72.48261,-36.62871],[-72.4844,-36.62852],[-72.485395,-36.628022],[-72.487429,-36.629853],[-72.485661,-36.634229],[-72.480477,-36.635528]]]},"properties":{"comuna":"Ranquil","mancha_id":"16206-88b2d82037fffff","clase":"Bajo","nivel_medio":1.347,"nivel_medio_min":1.347,"nivel_medio_max":1.347,"pct_alto":33.1,"n_hexagonos":1,"area_ha":47.62}},{"type":"Feature","geometry":{"type":"Polygon","coordinates":[[[-72.499563,-36.622877],[-72.49438,-36.624177],[-72.492566,-36.622545],[-72.49426,-36.62141],[-72.49527,-36.62133],[-72.49636,-36.62138],[-72.49733,-36.62177],[-72.49821,-36.6215],[-72.49966,-36.62042],[-72.49999,-36.620081],[-72.5,-36.620071],[-72.500004,-36.620067],[-72.500032,-36.62005],[-72.501072,-36.618959],[-72.501212,-36.618794],[-72.499563,-36.622877]]]},"properties":{"comuna":"Ranquil","mancha_id":"16206-88b2d82023fffff","clase":"Bajo","nivel_medio":1.185,"nivel_medio_min":1.185,"nivel_medio_max":1.185,"pct_alto":21.1,"n_hexagonos":1,"area_ha":15.66}},{"type":"Feature","geometry":{"type":"Polygon","coordinates":[[[-72.507181,-36.615546],[-72.506513,-36.6172],[-72.501494,-36.61846],[-72.501768,-36.618135],[-72.502619,-36.617531],[-72.503606,-36.616408],[-72.504361,-36.615882],[-72.505645,-36.615962],[-72.507135,-36.615557],[-72.507181,-36.615546]]]},"properties":{"comuna":"Ranquil","mancha_id":"16206-88b2d82021fffff","clase":"Bajo","nivel_medio":0.588,"nivel_medio_min":0.588,"nivel_medio_max":0.588,"pct_alto":13.3,"n_hexagonos":1,"area_ha":6.61}},{"type":"Feature","geometry":{"type":"Polygon","coordinates":[[[-72.732267,-36.622949],[-72.729156,-36.62017],[-72.730691,-36.616332],[-72.730849,-36.616352],[-72.73132,-36.61641],[-72.731601,-36.61648],[-72.73179,-36.61657],[-72.73219,-36.61684],[-72.73258,-36.617],[-72.732828,-36.61706],[-72.733057,-36.617095],[-72.733449,-36.617132],[-72.73366,-36.61715],[-72.73368,-36.617317],[-72.733597,-36.617547],[-72.73304,-36.618394],[-72.732777,-36.618859],[-72.732606,-36.619163],[-72.732565,-36.61944],[-72.732579,-36.619628],[-72.732648,-36.619882],[-72.733118,-36.620471],[-72.73315,-36.620591],[-72.733159,-36.620793],[-72.733076,-36.621028],[-72.732842,-36.621438],[-72.732662,-36.621751],[-72.732441,-36.622216],[-72.732383,-36.622339],[-72.73228,-36.622645],[-72.732266,-36.622944],[-72.732267,-36.622949]]]},"properties":{"comuna":"Ranquil","mancha_id":"16206-88b2d876a7fffff","clase":"Medio","nivel_medio":2.475,"nivel_medio_min":2.475,"nivel_medio_max":2.475,"pct_alto":52.3,"n_hexagonos":1,"area_ha":16.6}},{"type":"Feature","geometry":{"type":"Polygon","coordinates":[[[-72.51365,-36.69885],[-72.513344,-36.698105],[-72.51333,-36.69807],[-72.51311,-36.69778],[-72.5127,-36.6974],[-72.51242,-36.69705],[-72.51222,-36.69651],[-72.51206,-36.69616],[-72.51153,-36.69539],[-72.51145,-36.69508],[-72.51146,-36.69496],[-72.5115,-36.69482],[-72.51158,-36.69468],[-72.51174,-36.69441],[-72.51187,-36.69408],[-72.51187,-36.6939],[-72.51184,-36.69368],[-72.51179,-36.69353],[-72.5117,-36.69341],[-72.51161,-36.69332],[-72.51146,-36.6932],[-72.51124,-36.69305],[-72.51053,-36.69272],[-72.51002,-36.69248],[-72.50961,-36.69216],[-72.50923,-36.69183],[-72.509075,-36.691678],[-72.509243,-36.69126],[-72.514434,-36.68996],[-72.517856,-36.693039],[-72.523047,-36.691738],[-72.526471,-36.694816],[-72.531663,-36.693515],[-72.535087,-36.696594],[-72.53332,-36.700973],[-72.536745,-36.704052],[-72.534978,-36.708432],[-72.536544,-36.70984],[-72.53638,-36.70984],[-72.53552,-36.70985],[-72.53482,-36.70975],[-72.53415,-36.70969],[-72.53367,-36.70975],[-72.53321,-36.7098],[-72.53275,-36.70984],[-72.5323,-36.70981],[-72.53185,-36.70971],[-72.53153,-36.70953],[-72.53137,-36.709336],[-72.5313,-36.70925],[-72.53097,-36.70868],[-72.53066,-36.70824],[-72.53032,-36.70799],[-72.53008,-36.70788],[-72.52968,-36.70781],[-72.52918,-36.70767],[-72.5287,-36.70742],[-72.52831,-36.70718],[-72.52786,-36.70678],[-72.52704,-36.70637],[-72.526562,-36.706154],[-72.5262,-36.70599],[-72.52523,-36.70519],[-72.52445,-36.70457],[-72.52312,-36.70362],[-72.52231,-36.70297],[-72.52171,-36.70253],[-72.5211,-36.70223],[-72.52064,-36.70214],[-72.52008,-36.70206],[-72.51946,-36.70222],[-72.51887,-36.70243],[-72.518699,-36.702508],[-72.51802,-36.70282],[-72.51751,-36.703],[-72.51686,-36.70303],[-72.51593,-36.70282],[-72.51524,-36.70248],[-72.5139,-36.70101],[-72.51367,-36.70005],[-72.51363,-36.69979],[-72.51364,-36.69958],[-72.51367,-36.69941],[-72.51368,-36.69913],[-72.51365,-36.69885]]]},"properties":{"comuna":"Ranquil","mancha_id":"16206-88b2d82f0dfffff","clase":"Medio","nivel_medio":2.095,"nivel_medio_min":1.755,"nivel_medio_max":2.381,"pct_alto":25.0,"n_hexagonos":7,"area_ha":274.53}},{"type":"Feature","geometry":{"type":"Polygon","coordinates":[[[-72.513463,-36.611522],[-72.51688,-36.614596],[-72.522064,-36.613294],[-72.523829,-36.608918],[-72.529013,-36.607615],[-72.532432,-36.610689],[-72.530667,-36.615066],[-72.534087,-36.61814],[-72.539272,-36.616837],[-72.541036,-36.61246],[-72.537616,-36.609386],[-72.53938,-36.605009],[-72.53596,-36.601935],[-72.536659,-36.600202],[-72.537176,-36.600172],[-72.53857,-36.599626],[-72.539201,-36.59897],[-72.539385,-36.598208],[-72.539916,-36.597549],[-72.540648,-36.597261],[-72.54225,-36.59723],[-72.543613,-36.597473],[-72.544137,-36.59736],[-72.546327,-36.599328],[-72.544564,-36.603705],[-72.547984,-36.606779],[-72.54622,-36.611156],[-72.549641,-36.61423],[-72.554826,-36.612927],[-72.55659,-36.608549],[-72.553168,-36.605475],[-72.554931,-36.601098],[-72.551511,-36.598024],[-72.553274,-36.593647],[-72.558457,-36.592343],[-72.561878,-36.595416],[-72.567062,-36.594111],[-72.568824,-36.589733],[-72.565403,-36.58666],[-72.560219,-36.587965],[-72.557791,-36.585784],[-72.558043,-36.585301],[-72.558822,-36.584453],[-72.559842,-36.583738],[-72.560603,-36.583162],[-72.560919,-36.582583],[-72.560945,-36.58148],[-72.561742,-36.579715],[-72.563744,-36.579211],[-72.565505,-36.574833],[-72.570687,-36.573528],[-72.572449,-36.569151],[-72.57309,-36.568989],[-72.574841,-36.569236],[-72.57613,-36.56955],[-72.579231,-36.569741],[-72.579887,-36.56987],[-72.581052,-36.570916],[-72.582055,-36.570663],[-72.58215,-36.57072],[-72.58485,-36.57109],[-72.5876,-36.570836],[-72.58766,-36.57083],[-72.58964,-36.57011],[-72.59182,-36.56855],[-72.59374,-36.56687],[-72.594774,-36.565358],[-72.59532,-36.56456],[-72.59692,-36.56197],[-72.59745,-36.56065],[-72.59794,-36.55908],[-72.597957,-36.558785],[-72.600119,-36.55824],[-72.601878,-36.553862],[-72.60706,-36.552554],[-72.608818,-36.548176],[-72.610724,-36.547694],[-72.616045,-36.551311],[-72.616819,-36.551442],[-72.617971,-36.551635],[-72.62316,-36.556359],[-72.623831,-36.55697],[-72.627454,-36.559755],[-72.629355,-36.561216],[-72.63405,-36.56385],[-72.634926,-36.564353],[-72.63455,-36.56529],[-72.637977,-36.56836],[-72.64024,-36.567789],[-72.643106,-36.569819],[-72.643485,-36.574843],[-72.643524,-36.575367],[-72.64404,-36.57564],[-72.64446,-36.57585],[-72.64458,-36.57596],[-72.64463,-36.57605],[-72.64481,-36.57638],[-72.64499,-36.57658],[-72.64526,-36.57676],[-72.645706,-36.576916],[-72.64642,-36.5772],[-72.64666,-36.57741],[-72.64689,-36.57766],[-72.647,-36.57794],[-72.64708,-36.57829],[-72.647099,-36.578586],[-72.647117,-36.578857],[-72.647146,-36.579146],[-72.64718,-36.57946],[-72.64722,-36.57959],[-72.64732,-36.579922],[-72.646504,-36.581955],[-72.649934,-36.585026],[-72.648176,-36.589407],[-72.649611,-36.590693],[-72.6494,-36.59121],[-72.649194,-36.591715],[-72.64911,-36.59203],[-72.64896,-36.59251],[-72.64892,-36.59285],[-72.64896,-36.593306],[-72.64906,-36.59391],[-72.64924,-36.594324],[-72.64949,-36.59476],[-72.64972,-36.59511],[-72.64996,-36.59547],[-72.650263,-36.595826],[-72.650382,-36.595965],[-72.65072,-36.59623],[-72.650998,-36.596382],[-72.651438,-36.596637],[-72.65167,-36.59678],[-72.65174,-36.59686],[-72.65171,-36.59691],[-72.65183,-36.59694],[-72.65215,-36.59693],[-72.652852,-36.596937],[-72.65437,-36.59696],[-72.65474,-36.59697],[-72.65499,-36.59702],[-72.65516,-36.5971],[-72.65529,-36.59722],[-72.655373,-36.597347],[-72.65544,-36.59745],[-72.65555,-36.59775],[-72.6558,-36.598404],[-72.65586,-36.59856],[-72.65613,-36.59898],[-72.656307,-36.599169],[-72.65644,-36.59931],[-72.65677,-36.59956],[-72.657009,-36.599667],[-72.657173,-36.599741],[-72.657804,-36.599966],[-72.6582,-36.60011],[-72.65869,-36.60035],[-72.6591,-36.60056],[-72.65934,-36.60061],[-72.65967,-36.60064],[-72.660313,-36.60064],[-72.660711,-36.600633],[-72.660782,-36.600631],[-72.66119,-36.60061],[-72.66133,-36.60058],[-72.66147,-36.6005],[-72.66204,-36.6001],[-72.66229,-36.59997],[-72.66269,-36.59994],[-72.66315,-36.59995],[-72.6636,-36.60007],[-72.66443,-36.60028],[-72.664855,-36.600271],[-72.66516,-36.60024],[-72.66539,-36.60026],[-72.66558,-36.60031],[-72.66596,-36.60057],[-72.666042,-36.60065],[-72.666071,-36.600678],[-72.66635,-36.60095],[-72.66664,-36.60139],[-72.66691,-36.60179],[-72.66701,-36.60201],[-72.66724,-36.60263],[-72.66744,-36.6034],[-72.66756,-36.604],[-72.66762,-36.60409],[-72.667773,-36.604199],[-72.668088,-36.604418],[-72.668186,-36.604486],[-72.66858,-36.60495],[-72.66878,-36.6051],[-72.668942,-36.605309],[-72.669033,-36.605397],[-72.6692,-36.60556],[-72.6695,-36.60572],[-72.669598,-36.605757],[-72.6699,-36.60587],[-72.67048,-36.60604],[-72.67087,-36.60614],[-72.671025,-36.606135],[-72.67118,-36.60613],[-72.67147,-36.606088],[-72.671611,-36.60605],[-72.67218,-36.605918],[-72.6723,-36.60589],[-72.67277,-36.60582],[-72.673287,-36.605795],[-72.673535,-36.605776],[-72.674204,-36.605785],[-72.67529,-36.6058],[-72.67572,-36.60584],[-72.67614,-36.60596],[-72.676372,-36.606044],[-72.67661,-36.60613],[-72.676684,-36.606168],[-72.676826,-36.606241],[-72.677,-36.60633],[-72.67721,-36.60648],[-72.677283,-36.606581],[-72.67734,-36.60666],[-72.677408,-36.606786],[-72.67761,-36.60716],[-72.67772,-36.607304],[-72.67787,-36.6075],[-72.67808,-36.60769],[-72.678136,-36.607731],[-72.678442,-36.607951],[-72.678697,-36.608084],[-72.679373,-36.608406],[-72.680263,-36.60875],[-72.68059,-36.60893],[-72.68123,-36.60938],[-72.681588,-36.609556],[-72.682634,-36.60996],[-72.68402,-36.610492],[-72.685025,-36.610868],[-72.686038,-36.611298],[-72.686282,-36.611402],[-72.68691,-36.61167],[-72.68731,-36.61175],[-72.68799,-36.6118],[-72.68874,-36.611785],[-72.689215,-36.611769],[-72.689386,-36.61177],[-72.68966,-36.61177],[-72.68994,-36.61179],[-72.69014,-36.61186],[-72.69042,-36.612],[-72.69106,-36.61245],[-72.69142,-36.61264],[-72.69188,-36.61275],[-72.69245,-36.61281],[-72.69265,-36.61287],[-72.692738,-36.612908],[-72.693233,-36.613122],[-72.69377,-36.613346],[-72.694047,-36.613462],[-72.6945,-36.61365],[-72.694793,-36.613741],[-72.69487,-36.61377],[-72.69548,-36.61391],[-72.695528,-36.613924],[-72.698073,-36.6162],[-72.703264,-36.614889],[-72.703466,-36.614384],[-72.70358,-36.61438],[-72.70472,-36.61426],[-72.705486,-36.614167],[-72.70603,-36.61408],[-72.70679,-36.613711],[-72.707117,-36.613552],[-72.707281,-36.61348],[-72.70781,-36.61325],[-72.708357,-36.613085],[-72.70879,-36.61299],[-72.7093,-36.61293],[-72.709785,-36.61294],[-72.71023,-36.61295],[-72.710834,-36.613],[-72.711308,-36.613042],[-72.711447,-36.613028],[-72.71198,-36.61298],[-72.71291,-36.61257],[-72.713646,-36.61227],[-72.711893,-36.61665],[-72.715331,-36.619722],[-72.720524,-36.61841],[-72.723963,-36.621483],[-72.722208,-36.625868],[-72.725648,-36.628941],[-72.730842,-36.627629],[-72.733855,-36.63032],[-72.733874,-36.63043],[-72.734027,-36.631169],[-72.734051,-36.631279],[-72.732528,-36.635088],[-72.735221,-36.637493],[-72.735216,-36.637611],[-72.735209,-36.63777],[-72.735181,-36.638259],[-72.735133,-36.639032],[-72.735028,-36.639607],[-72.734997,-36.639783],[-72.734858,-36.640122],[-72.734721,-36.640455],[-72.734469,-36.640935],[-72.73433,-36.6412],[-72.734183,-36.641481],[-72.73393,-36.641719],[-72.733527,-36.642021],[-72.73316,-36.642367],[-72.733011,-36.642507],[-72.732819,-36.642688],[-72.732771,-36.642885],[-72.732771,-36.642913],[-72.732771,-36.643122],[-72.732822,-36.643338],[-72.732846,-36.643442],[-72.731469,-36.644122],[-72.730848,-36.644437],[-72.730375,-36.644741],[-72.730169,-36.644919],[-72.729867,-36.645209],[-72.72902,-36.646033],[-72.728753,-36.646282],[-72.727835,-36.647123],[-72.727641,-36.647305],[-72.726811,-36.648083],[-72.726355,-36.648477],[-72.722068,-36.649559],[-72.720313,-36.653945],[-72.720545,-36.654153],[-72.719647,-36.655059],[-72.719521,-36.655236],[-72.719208,-36.655091],[-72.718755,-36.654905],[-72.718436,-36.654853],[-72.718076,-36.654858],[-72.71764,-36.654944],[-72.717351,-36.655003],[-72.716704,-36.655225],[-72.716244,-36.655534],[-72.7159,-36.655752],[-72.715639,-36.655874],[-72.715445,-36.655865],[-72.715332,-36.655839],[-72.715053,-36.655711],[-72.714958,-36.655654],[-72.714531,-36.655397],[-72.71392,-36.65516],[-72.71373,-36.655114],[-72.713346,-36.655058],[-72.713208,-36.655038],[-72.712725,-36.654951],[-72.712512,-36.654893],[-72.712297,-36.654824],[-72.712123,-36.654725],[-72.711589,-36.654606],[-72.711044,-36.654562],[-72.710286,-36.654491],[-72.709389,-36.654317],[-72.708442,-36.654113],[-72.707625,-36.653922],[-72.706683,-36.65369],[-72.706417,-36.653654],[-72.70602,-36.653599],[-72.705378,-36.6535],[-72.704701,-36.653407],[-72.703811,-36.65326],[-72.703183,-36.653166],[-72.702695,-36.653092],[-72.702035,-36.653016],[-72.701069,-36.652901],[-72.699918,-36.652821],[-72.699444,-36.652798],[-72.699177,-36.652865],[-72.698994,-36.65291],[-72.698817,-36.652872],[-72.698457,-36.652706],[-72.698199,-36.652587],[-72.697947,-36.652534],[-72.697623,-36.652455],[-72.697561,-36.652444],[-72.697847,-36.651729],[-72.694409,-36.648655],[-72.689215,-36.649965],[-72.685778,-36.646891],[-72.680584,-36.6482],[-72.677148,-36.645126],[-72.678905,-36.640742],[-72.684098,-36.639432],[-72.687535,-36.642506],[-72.692728,-36.641196],[-72.694485,-36.636811],[-72.691048,-36.633737],[-72.685855,-36.635048],[-72.682419,-36.631974],[-72.684176,-36.62759],[-72.680741,-36.624516],[-72.682498,-36.620133],[-72.679063,-36.61706],[-72.673872,-36.61837],[-72.672115,-36.622753],[-72.666924,-36.624063],[-72.665166,-36.628446],[-72.6686,-36.63152],[-72.666843,-36.635903],[-72.670277,-36.638977],[-72.668519,-36.643361],[-72.671954,-36.646435],[-72.670196,-36.650819],[-72.673632,-36.653894],[-72.671874,-36.658279],[-72.67531,-36.661354],[-72.674351,-36.663745],[-72.673843,-36.663945],[-72.673101,-36.66425],[-72.672572,-36.664471],[-72.67177,-36.664902],[-72.670713,-36.6656],[-72.66979,-36.666475],[-72.669509,-36.66674],[-72.669489,-36.666762],[-72.668356,-36.667047],[-72.667836,-36.668344],[-72.667366,-36.668657],[-72.666626,-36.669025],[-72.666182,-36.669239],[-72.665737,-36.66939],[-72.665431,-36.669461],[-72.665036,-36.6695],[-72.664831,-36.669505],[-72.664496,-36.669435],[-72.664012,-36.669328],[-72.663568,-36.66914],[-72.663344,-36.669016],[-72.662728,-36.66858],[-72.662388,-36.668277],[-72.661589,-36.667939],[-72.660992,-36.667744],[-72.660611,-36.66762],[-72.660339,-36.667532],[-72.660165,-36.667442],[-72.659661,-36.667039],[-72.659361,-36.666849],[-72.659164,-36.666737],[-72.659145,-36.666728],[-72.658981,-36.666657],[-72.65827,-36.66649],[-72.658124,-36.666413],[-72.657784,-36.66623],[-72.657605,-36.66615],[-72.657491,-36.66615],[-72.6572,-36.666128],[-72.656639,-36.666169],[-72.655926,-36.666212],[-72.655484,-36.666243],[-72.654247,-36.666397],[-72.654225,-36.666691],[-72.65421,-36.666719],[-72.654093,-36.666982],[-72.653978,-36.667133],[-72.653804,-36.667341],[-72.653619,-36.667538],[-72.653384,-36.667782],[-72.653193,-36.667977],[-72.652947,-36.668255],[-72.652751,-36.668506],[-72.652538,-36.668946],[-72.652437,-36.669255],[-72.652315,-36.669795],[-72.652244,-36.670197],[-72.652217,-36.670476],[-72.652169,-36.670979],[-72.652145,-36.671372],[-72.652156,-36.671738],[-72.652247,-36.672278],[-72.651105,-36.675123],[-72.650696,-36.675435],[-72.650634,-36.675483],[-72.650288,-36.675738],[-72.650107,-36.675876],[-72.649788,-36.676153],[-72.649494,-36.676428],[-72.649368,-36.676544],[-72.649182,-36.676828],[-72.649035,-36.677223],[-72.648918,-36.677753],[-72.648787,-36.677961],[-72.648607,-36.678151],[-72.648413,-36.678218],[-72.648174,-36.67825],[-72.647913,-36.678218],[-72.647594,-36.678167],[-72.647465,-36.678151],[-72.647236,-36.678171],[-72.64702,-36.678228],[-72.646923,-36.678286],[-72.646702,-36.67841],[-72.64644,-36.678636],[-72.6463,-36.678753],[-72.646159,-36.678917],[-72.645983,-36.679125],[-72.645863,-36.679378],[-72.64588,-36.679572],[-72.645954,-36.679724],[-72.646086,-36.679813],[-72.646248,-36.679869],[-72.646522,-36.679926],[-72.646658,-36.679956],[-72.646812,-36.680047],[-72.646854,-36.680138],[-72.646852,-36.680187],[-72.646759,-36.680302],[-72.646547,-36.680472],[-72.646363,-36.680623],[-72.646274,-36.680725],[-72.646165,-36.680902],[-72.646112,-36.681004],[-72.646055,-36.681214],[-72.646005,-36.681378],[-72.64587,-36.681543],[-72.645601,-36.681737],[-72.645285,-36.681897],[-72.645105,-36.681987],[-72.644056,-36.681047],[-72.638861,-36.682354],[-72.637398,-36.685996],[-72.637316,-36.686062],[-72.637031,-36.686191],[-72.636653,-36.68624],[-72.63624,-36.686219],[-72.635889,-36.686136],[-72.635547,-36.685993],[-72.634995,-36.685704],[-72.634682,-36.685552],[-72.634332,-36.685391],[-72.633819,-36.685253],[-72.633477,-36.685249],[-72.633165,-36.685271],[-72.632816,-36.685354],[-72.632074,-36.68569],[-72.63188,-36.685688],[-72.631785,-36.685651],[-72.631587,-36.685641],[-72.631388,-36.685678],[-72.631175,-36.685783],[-72.630822,-36.686043],[-72.630428,-36.686401],[-72.630341,-36.686474],[-72.630287,-36.686517],[-72.630233,-36.686547],[-72.628471,-36.684967],[-72.623276,-36.686274],[-72.621514,-36.690657],[-72.621562,-36.6907],[-72.62137,-36.6907],[-72.621351,-36.690698],[-72.621115,-36.690666],[-72.620879,-36.690635],[-72.620422,-36.690543],[-72.619999,-36.690374],[-72.619724,-36.690151],[-72.619295,-36.689602],[-72.619111,-36.68948],[-72.618908,-36.689488],[-72.618785,-36.689571],[-72.618461,-36.690078],[-72.618347,-36.69026],[-72.618141,-36.69046],[-72.618013,-36.690583],[-72.617912,-36.690647],[-72.617739,-36.690765],[-72.617572,-36.690872],[-72.617703,-36.690892],[-72.617834,-36.691076],[-72.617976,-36.691285],[-72.618114,-36.691502],[-72.618119,-36.69151],[-72.61827,-36.691748],[-72.618545,-36.692074],[-72.618758,-36.692373],[-72.618982,-36.692768],[-72.619051,-36.692959],[-72.619144,-36.693216],[-72.619209,-36.693507],[-72.619275,-36.693803],[-72.619304,-36.694128],[-72.619252,-36.694416],[-72.619107,-36.694741],[-72.618896,-36.695188],[-72.618881,-36.695267],[-72.619232,-36.695437],[-72.619433,-36.695518],[-72.619677,-36.695607],[-72.620005,-36.695641],[-72.62041,-36.695632],[-72.620692,-36.695654],[-72.620888,-36.695713],[-72.621063,-36.69581],[-72.621168,-36.695906],[-72.621268,-36.696134],[-72.621306,-36.696221],[-72.621347,-36.696319],[-72.621431,-36.696622],[-72.621474,-36.696766],[-72.621499,-36.696852],[-72.621511,-36.696922],[-72.621469,-36.696986],[-72.621289,-36.697137],[-72.621174,-36.697367],[-72.621007,-36.697701],[-72.620916,-36.697883],[-72.620771,-36.698022],[-72.620584,-36.698353],[-72.620428,-36.698628],[-72.620224,-36.698861],[-72.620159,-36.698935],[-72.619801,-36.699345],[-72.619404,-36.699641],[-72.618882,-36.700029],[-72.618217,-36.700331],[-72.617806,-36.700403],[-72.617583,-36.700497],[-72.617552,-36.70051],[-72.617358,-36.700591],[-72.617274,-36.700727],[-72.617296,-36.700878],[-72.617351,-36.701009],[-72.617483,-36.701317],[-72.617609,-36.701613],[-72.61795,-36.702058],[-72.618258,-36.702459],[-72.618346,-36.702749],[-72.618407,-36.70295],[-72.618325,-36.703188],[-72.618173,-36.703389],[-72.617907,-36.703627],[-72.617368,-36.703879],[-72.61667,-36.704204],[-72.616386,-36.704336],[-72.615713,-36.704569],[-72.615284,-36.704717],[-72.614907,-36.704785],[-72.614461,-36.704865],[-72.614199,-36.704912],[-72.613896,-36.704967],[-72.61354,-36.705109],[-72.613058,-36.705246],[-72.612763,-36.705426],[-72.612461,-36.705609],[-72.612209,-36.705915],[-72.611928,-36.706418],[-72.611834,-36.706929],[-72.61177,-36.707281],[-72.611604,-36.707721],[-72.611512,-36.707966],[-72.611208,-36.708412],[-72.610885,-36.708786],[-72.610638,-36.70907],[-72.610237,-36.709433],[-72.609855,-36.709779],[-72.60972,-36.709901],[-72.609613,-36.709998],[-72.609309,-36.710455],[-72.608988,-36.710937],[-72.60882,-36.711297],[-72.608697,-36.711887],[-72.608579,-36.712456],[-72.608495,-36.712861],[-72.608294,-36.713218],[-72.608071,-36.713614],[-72.607589,-36.714132],[-72.607218,-36.71453],[-72.607025,-36.714737],[-72.606963,-36.714902],[-72.60692,-36.715247],[-72.606866,-36.715682],[-72.60646,-36.716348],[-72.606193,-36.716785],[-72.606071,-36.717139],[-72.606057,-36.717362],[-72.606072,-36.717616],[-72.606234,-36.717819],[-72.606356,-36.718063],[-72.606379,-36.7181],[-72.605739,-36.718261],[-72.602306,-36.715182],[-72.59711,-36.716486],[-72.595345,-36.720869],[-72.598778,-36.723948],[-72.600915,-36.723412],[-72.600478,-36.723779],[-72.600229,-36.724068],[-72.600042,-36.724354],[-72.59989,-36.72491],[-72.599826,-36.725558],[-72.599818,-36.726162],[-72.599815,-36.726472],[-72.599926,-36.726817],[-72.600027,-36.727126],[-72.600106,-36.727824],[-72.600229,-36.728436],[-72.600178,-36.728954],[-72.600135,-36.729398],[-72.600027,-36.729947],[-72.599943,-36.730373],[-72.599747,-36.730745],[-72.59973,-36.730769],[-72.599423,-36.731206],[-72.599212,-36.731505],[-72.598977,-36.731702],[-72.598646,-36.732069],[-72.598358,-36.732388],[-72.598056,-36.732573],[-72.597659,-36.732816],[-72.597243,-36.732911],[-72.596782,-36.732911],[-72.596472,-36.732911],[-72.596235,-36.732976],[-72.595933,-36.733134],[-72.59569,-36.733261],[-72.595379,-36.733357],[-72.595062,-36.733321],[-72.594803,-36.733199],[-72.594602,-36.733019],[-72.594451,-36.732738],[-72.594301,-36.732461],[-72.594172,-36.732221],[-72.593998,-36.732019],[-72.593814,-36.731807],[-72.59348,-36.731515],[-72.593326,-36.731354],[-72.593171,-36.731137],[-72.59303,-36.73094],[-72.59275,-36.73066],[-72.59247,-36.73046],[-72.59212,-36.73037],[-72.5917,-36.73037],[-72.591512,-36.73039],[-72.59124,-36.73042],[-72.59067,-36.73046],[-72.59004,-36.73043],[-72.58945,-36.73045],[-72.58914,-36.73042],[-72.58902,-36.73029],[-72.58894,-36.73006],[-72.58892,-36.72978],[-72.58883,-36.72956],[-72.58861,-36.72944],[-72.58827,-36.72939],[-72.5879,-36.72919],[-72.58736,-36.7289],[-72.58705,-36.72874],[-72.58694,-36.72833],[-72.58688,-36.72801],[-72.58666,-36.72759],[-72.58648,-36.72718],[-72.586475,-36.727034],[-72.58647,-36.72691],[-72.58652,-36.72667],[-72.5868,-36.72649],[-72.58729,-36.72625],[-72.58766,-36.72604],[-72.58781,-36.7258],[-72.58788,-36.72545],[-72.58781,-36.72498],[-72.58765,-36.72441],[-72.5876,-36.72392],[-72.58754,-36.72353],[-72.58757,-36.72295],[-72.58764,-36.72249],[-72.58765,-36.72193],[-72.58769,-36.72117],[-72.58773,-36.72052],[-72.5878,-36.72029],[-72.587905,-36.72016],[-72.58801,-36.72003],[-72.5884,-36.71971],[-72.58863,-36.71943],[-72.58861,-36.71916],[-72.58859,-36.71877],[-72.58883,-36.71838],[-72.58902,-36.71808],[-72.58925,-36.71795],[-72.58949,-36.71765],[-72.58963,-36.71739],[-72.58984,-36.71718],[-72.59006,-36.71701],[-72.5904,-36.7168],[-72.59068,-36.71665],[-72.59082,-36.71641],[-72.5909,-36.71613],[-72.59085,-36.71585],[-72.59076,-36.71562],[-72.59068,-36.71542],[-72.59065,-36.71506],[-72.59064,-36.71478],[-72.59055,-36.71431],[-72.590517,-36.7142],[-72.59043,-36.71391],[-72.5903,-36.71344],[-72.59013,-36.71301],[-72.58995,-36.71277],[-72.58967,-36.7126],[-72.58935,-36.7126],[-72.58903,-36.71263],[-72.58865,-36.71267],[-72.58832,-36.71276],[-72.58792,-36.71287],[-72.58758,-36.71296],[-72.5873,-36.71306],[-72.58698,-36.71307],[-72.58664,-36.713],[-72.586531,-36.712961],[-72.585527,-36.712059],[-72.58545,-36.71195],[-72.58521,-36.71173],[-72.58513,-36.711703],[-72.585051,-36.711632],[-72.584974,-36.711651],[-72.58485,-36.71161],[-72.58439,-36.71142],[-72.58402,-36.71121],[-72.58343,-36.71084],[-72.58302,-36.71058],[-72.58253,-36.71022],[-72.58213,-36.70993],[-72.58189,-36.70967],[-72.5817,-36.70937],[-72.58162,-36.709],[-72.58161,-36.70852],[-72.58164,-36.70817],[-72.58169,-36.7079],[-72.58172,-36.7075],[-72.58172,-36.70706],[-72.58174,-36.7067],[-72.5817,-36.70648],[-72.58156,-36.70619],[-72.5814,-36.7059],[-72.58135,-36.70571],[-72.58141,-36.70555],[-72.58165,-36.70531],[-72.58181,-36.70515],[-72.58189,-36.70491],[-72.58185,-36.70458],[-72.581839,-36.70456],[-72.583385,-36.704172],[-72.58515,-36.69979],[-72.58172,-36.696712],[-72.577102,-36.697871],[-72.57678,-36.69757],[-72.576131,-36.697661],[-72.57128,-36.69834],[-72.56943,-36.69846],[-72.5678,-36.69822],[-72.56734,-36.6981],[-72.567172,-36.698055],[-72.56484,-36.69743],[-72.56405,-36.69722],[-72.56222,-36.69772],[-72.56085,-36.69801],[-72.56078,-36.698],[-72.56061,-36.69799],[-72.5605,-36.69798],[-72.55979,-36.69861],[-72.5594,-36.69903],[-72.55906,-36.69952],[-72.55896,-36.69971],[-72.558863,-36.700054],[-72.557517,-36.698845],[-72.559283,-36.694465],[-72.555856,-36.691387],[-72.557622,-36.687006],[-72.554195,-36.683929],[-72.549004,-36.685231],[-72.545578,-36.682153],[-72.547344,-36.677774],[-72.552535,-36.676471],[-72.554301,-36.672092],[-72.550876,-36.669015],[-72.545686,-36.670317],[-72.54392,-36.674697],[-72.538729,-36.675998],[-72.536963,-36.680378],[-72.531773,-36.681679],[-72.530006,-36.686058],[-72.524815,-36.687359],[-72.521392,-36.684281],[-72.523159,-36.679903],[-72.528349,-36.678602],[-72.530116,-36.674223],[-72.526693,-36.671146],[-72.52846,-36.666767],[-72.533649,-36.665465],[-72.537072,-36.668542],[-72.542262,-36.66724],[-72.544027,-36.662861],[-72.540604,-36.659785],[-72.535415,-36.661087],[-72.531992,-36.65801],[-72.526804,-36.659312],[-72.523383,-36.656236],[-72.518195,-36.657537],[-72.516428,-36.661915],[-72.51124,-36.663215],[-72.509473,-36.667593],[-72.504285,-36.668893],[-72.500865,-36.665816],[-72.495677,-36.667116],[-72.492258,-36.664039],[-72.487071,-36.665338],[-72.485302,-36.669715],[-72.488721,-36.672792],[-72.486952,-36.677169],[-72.490371,-36.680247],[-72.488602,-36.684624],[-72.483413,-36.685923],[-72.479994,-36.682845],[-72.481764,-36.678468],[-72.478346,-36.67539],[-72.473158,-36.676689],[-72.471388,-36.681065],[-72.474806,-36.684144],[-72.473536,-36.687283],[-72.47337,-36.68722],[-72.47286,-36.68685],[-72.47271,-36.68673],[-72.47253,-36.68663],[-72.47232,-36.68655],[-72.47208,-36.6865],[-72.47186,-36.6865],[-72.47163,-36.6865],[-72.47139,-36.68648],[-72.47116,-36.68639],[-72.47104,-36.68622],[-72.47104,-36.68598],[-72.47106,-36.68579],[-72.47111,-36.68561],[-72.47117,-36.68544],[-72.47125,-36.68526],[-72.47128,-36.68507],[-72.47128,-36.68489],[-72.47125,-36.68469],[-72.47121,-36.6845],[-72.47114,-36.68432],[-72.47105,-36.68414],[-72.47095,-36.68397],[-72.47084,-36.68375],[-72.47077,-36.68357],[-72.47072,-36.68339],[-72.47068,-36.6832],[-72.47065,-36.68301],[-72.4706,-36.68282],[-72.47052,-36.68264],[-72.47043,-36.6825],[-72.47023,-36.68236],[-72.47,-36.68234],[-72.46975,-36.68238],[-72.46952,-36.6824],[-72.46929,-36.68235],[-72.46909,-36.68225],[-72.46888,-36.68214],[-72.46861,-36.68206],[-72.46835,-36.68208],[-72.46821,-36.68212],[-72.46812,-36.68214],[-72.46791,-36.68222],[-72.46781,-36.68227],[-72.46747,-36.68242],[-72.46703,-36.6826],[-72.4666,-36.68276],[-72.46633,-36.68287],[-72.46619,-36.68292],[-72.465952,-36.682978],[-72.466201,-36.682363],[-72.462784,-36.679285],[-72.458415,-36.680378],[-72.45826,-36.68025],[-72.45812,-36.68011],[-72.458,-36.67994],[-72.45789,-36.67976],[-72.45777,-36.67959],[-72.45762,-36.67944],[-72.45746,-36.67932],[-72.45727,-36.67921],[-72.45708,-36.6791],[-72.45688,-36.67899],[-72.45668,-36.67888],[-72.45649,-36.67878],[-72.45628,-36.67869],[-72.45605,-36.67861],[-72.45557,-36.67849],[-72.45536,-36.67839],[-72.45501,-36.67823],[-72.454986,-36.67823],[-72.454181,-36.677505],[-72.455951,-36.673129],[-72.461138,-36.671831],[-72.462908,-36.667456],[-72.459492,-36.664378],[-72.454307,-36.665676],[-72.450892,-36.662599],[-72.450048,-36.66281],[-72.449915,-36.662691],[-72.449255,-36.661791],[-72.448775,-36.661161],[-72.448557,-36.660482],[-72.448601,-36.65971],[-72.448867,-36.658655],[-72.449486,-36.657987],[-72.450039,-36.657252],[-72.45064,-36.656582],[-72.450732,-36.656484],[-72.451582,-36.655582],[-72.452205,-36.655011],[-72.452737,-36.654825],[-72.453067,-36.654544],[-72.453397,-36.654243],[-72.453775,-36.653757],[-72.454193,-36.653233],[-72.454552,-36.652767],[-72.455028,-36.652263],[-72.45561,-36.651787],[-72.45594,-36.65137],[-72.456065,-36.650781],[-72.456605,-36.650441],[-72.45713,-36.65031],[-72.459617,-36.652551],[-72.464802,-36.651252],[-72.466571,-36.646877],[-72.465418,-36.645838],[-72.465489,-36.645597],[-72.466103,-36.644965],[-72.466609,-36.644314],[-72.467497,-36.643939],[-72.468471,-36.643465],[-72.469537,-36.643121],[-72.470422,-36.642923],[-72.471145,-36.643067],[-72.471706,-36.642742],[-72.471886,-36.642254],[-72.472175,-36.641712],[-72.472266,-36.64117],[-72.472374,-36.640501],[-72.472355,-36.64015],[-72.472338,-36.639832],[-72.472465,-36.6392],[-72.472428,-36.638549],[-72.472284,-36.637772],[-72.472486,-36.637201],[-72.473391,-36.63618],[-72.474436,-36.634578],[-72.47514,-36.63358],[-72.476001,-36.632719],[-72.477062,-36.632453],[-72.480477,-36.635528],[-72.485661,-36.634229],[-72.487429,-36.629853],[-72.485395,-36.628022],[-72.48626,-36.62759],[-72.48805,-36.6263],[-72.48891,-36.62523],[-72.49026,-36.62396],[-72.49235,-36.62269],[-72.492566,-36.622545],[-72.49438,-36.624177],[-72.499563,-36.622877],[-72.501212,-36.618794],[-72.501494,-36.61846],[-72.506513,-36.6172],[-72.507181,-36.615546],[-72.509712,-36.61493],[-72.511715,-36.614143],[-72.512929,-36.612764],[-72.513454,-36.611681],[-72.513461,-36.611522],[-72.513463,-36.611522]],[[-72.468217,-36.654329],[-72.466448,-36.658705],[-72.469864,-36.661782],[-72.47505,-36.660483],[-72.478467,-36.66356],[-72.483653,-36.662261],[-72.485422,-36.657885],[-72.482005,-36.654808],[-72.476819,-36.656107],[-72.473403,-36.65303],[-72.468217,-36.654329]],[[-72.535742,-36.625592],[-72.532322,-36.622517],[-72.527137,-36.62382],[-72.525372,-36.628197],[-72.528792,-36.631272],[-72.533977,-36.629969],[-72.535742,-36.625592]],[[-72.568518,-36.625223],[-72.566754,-36.629602],[-72.570179,-36.632677],[-72.575366,-36.631373],[-72.577129,-36.626993],[-72.573704,-36.623919],[-72.568518,-36.625223]],[[-72.554616,-36.636589],[-72.551193,-36.633514],[-72.546007,-36.634817],[-72.544242,-36.639195],[-72.547664,-36.64227],[-72.552852,-36.640967],[-72.556276,-36.644043],[-72.554511,-36.648422],[-72.557935,-36.651498],[-72.563124,-36.650194],[-72.566549,-36.65327],[-72.571739,-36.651966],[-72.573502,-36.647586],[-72.570077,-36.644511],[-72.564888,-36.645815],[-72.561464,-36.642739],[-72.563227,-36.63836],[-72.559804,-36.635285],[-72.554616,-36.636589]],[[-72.497563,-36.650909],[-72.500981,-36.653985],[-72.506168,-36.652685],[-72.507935,-36.648308],[-72.504516,-36.645232],[-72.49933,-36.646532],[-72.495912,-36.643456],[-72.490727,-36.644756],[-72.48731,-36.64168],[-72.482125,-36.64298],[-72.478709,-36.639904],[-72.473525,-36.641203],[-72.471756,-36.645578],[-72.475172,-36.648655],[-72.480357,-36.647356],[-72.483773,-36.650432],[-72.488959,-36.649132],[-72.492376,-36.652209],[-72.497563,-36.650909]],[[-72.60426,-36.687113],[-72.606023,-36.68273],[-72.602592,-36.679653],[-72.597399,-36.680958],[-72.593969,-36.677881],[-72.588776,-36.679186],[-72.587012,-36.683567],[-72.590442,-36.686645],[-72.595635,-36.68534],[-72.599066,-36.688418],[-72.597302,-36.6928],[-72.600733,-36.695877],[-72.605928,-36.694573],[-72.607691,-36.69019],[-72.60426,-36.687113]],[[-72.601306,-36.624846],[-72.606495,-36.623539],[-72.608255,-36.619159],[-72.604828,-36.616085],[-72.599641,-36.617392],[-72.59788,-36.621772],[-72.601306,-36.624846]],[[-72.63402,-36.636297],[-72.637451,-36.639371],[-72.642643,-36.638063],[-72.644402,-36.633681],[-72.64097,-36.630607],[-72.63578,-36.631915],[-72.63402,-36.636297]],[[-72.601497,-36.601179],[-72.603257,-36.596799],[-72.599832,-36.593727],[-72.601592,-36.589348],[-72.598168,-36.586275],[-72.592983,-36.587582],[-72.591222,-36.591961],[-72.594647,-36.595033],[-72.592886,-36.599413],[-72.596311,-36.602485],[-72.601497,-36.601179]],[[-72.580654,-36.618235],[-72.584079,-36.621309],[-72.589266,-36.620003],[-72.591027,-36.615624],[-72.587602,-36.61255],[-72.582416,-36.613856],[-72.580654,-36.618235]],[[-72.635956,-36.608241],[-72.639386,-36.611314],[-72.644574,-36.610005],[-72.648005,-36.613079],[-72.653194,-36.61177],[-72.654952,-36.607388],[-72.651521,-36.604315],[-72.646333,-36.605624],[-72.642903,-36.602551],[-72.644661,-36.59817],[-72.641231,-36.595098],[-72.636044,-36.596406],[-72.634285,-36.600787],[-72.637715,-36.60386],[-72.635956,-36.608241]],[[-72.652941,-36.647287],[-72.6547,-36.642904],[-72.651267,-36.639829],[-72.646075,-36.641138],[-72.644315,-36.64552],[-72.647748,-36.648595],[-72.645989,-36.652978],[-72.649422,-36.656054],[-72.654615,-36.654745],[-72.656375,-36.650362],[-72.652941,-36.647287]],[[-72.689369,-36.626279],[-72.692805,-36.629353],[-72.697997,-36.628042],[-72.699753,-36.623657],[-72.696317,-36.620584],[-72.691125,-36.621895],[-72.689369,-36.626279]],[[-72.620665,-36.576666],[-72.624092,-36.579738],[-72.629277,-36.578429],[-72.631035,-36.574049],[-72.627608,-36.570978],[-72.622424,-36.572287],[-72.620665,-36.576666]]]},"properties":{"comuna":"Ranquil","mancha_id":"16206-88b2d82025fffff","clase":"Medio","nivel_medio":2.14,"nivel_medio_min":1.507,"nivel_medio_max":2.499,"pct_alto":31.3,"n_hexagonos":337,"area_ha":19020.52}},{"type":"Feature","geometry":{"type":"Polygon","coordinates":[[[-72.703264,-36.614889],[-72.698073,-36.6162],[-72.695528,-36.613924],[-72.69575,-36.61399],[-72.69597,-36.61399],[-72.69653,-36.61385],[-72.69696,-36.61377],[-72.697813,-36.613665],[-72.6982,-36.61361],[-72.6987,-36.61358],[-72.6989,-36.61359],[-72.69924,-36.61365],[-72.69985,-36.613818],[-72.700727,-36.614071],[-72.70154,-36.61428],[-72.70256,-36.61442],[-72.703056,-36.614401],[-72.703466,-36.614384],[-72.703264,-36.614889]]]},"properties":{"comuna":"Ranquil","mancha_id":"16206-88b2d87695fffff","clase":"Alto","nivel_medio":2.532,"nivel_medio_min":2.532,"nivel_medio_max":2.532,"pct_alto":60.1,"n_hexagonos":1,"area_ha":11.05}},{"type":"Feature","geometry":{"type":"Polygon","coordinates":[[[-72.722208,-36.625868],[-72.723963,-36.621483],[-72.720524,-36.61841],[-72.715331,-36.619722],[-72.711893,-36.61665],[-72.713646,-36.61227],[-72.713673,-36.612258],[-72.71389,-36.61217],[-72.714687,-36.611966],[-72.71481,-36.61194],[-72.715097,-36.611899],[-72.715394,-36.611856],[-72.7162,-36.61175],[-72.71682,-36.61169],[-72.71711,-36.6117],[-72.71749,-36.61179],[-72.71769,-36.61186],[-72.71821,-36.61214],[-72.71882,-36.61253],[-72.719452,-36.613061],[-72.719898,-36.61342],[-72.720279,-36.613687],[-72.72065,-36.61392],[-72.720807,-36.614006],[-72.72105,-36.61404],[-72.72153,-36.61411],[-72.72164,-36.61416],[-72.721919,-36.614388],[-72.722082,-36.614515],[-72.72214,-36.61456],[-72.7224,-36.61471],[-72.722692,-36.614793],[-72.722846,-36.614799],[-72.72371,-36.61482],[-72.72409,-36.61484],[-72.724429,-36.614899],[-72.72464,-36.61497],[-72.72502,-36.61518],[-72.725319,-36.615361],[-72.725473,-36.615454],[-72.725572,-36.615514],[-72.725964,-36.615679],[-72.726087,-36.615698],[-72.726582,-36.615809],[-72.726908,-36.615882],[-72.72759,-36.61597],[-72.728744,-36.616091],[-72.730216,-36.616271],[-72.730691,-36.616332],[-72.729156,-36.62017],[-72.732267,-36.622949],[-72.732298,-36.62317],[-72.732486,-36.623517],[-72.732832,-36.624155],[-72.733233,-36.62497],[-72.733353,-36.625329],[-72.733445,-36.625831],[-72.733505,-36.626384],[-72.733537,-36.626883],[-72.733634,-36.628465],[-72.733676,-36.628922],[-72.733701,-36.629238],[-72.733762,-36.629649],[-72.733824,-36.630142],[-72.733855,-36.63032],[-72.730842,-36.627629],[-72.725648,-36.628941],[-72.722208,-36.625868]]]},"properties":{"comuna":"Ranquil","mancha_id":"16206-88b2d874c9fffff","clase":"Alto","nivel_medio":2.577,"nivel_medio_min":2.519,"nivel_medio_max":3.061,"pct_alto":59.5,"n_hexagonos":5,"area_ha":170.91}},{"type":"Feature","geometry":{"type":"Polygon","coordinates":[[[-72.735221,-36.637493],[-72.732528,-36.635088],[-72.734051,-36.631279],[-72.734153,-36.631733],[-72.734264,-36.632193],[-72.734276,-36.632358],[-72.73428,-36.632534],[-72.734202,-36.632711],[-72.733917,-36.633057],[-72.733726,-36.633237],[-72.733561,-36.633425],[-72.733508,-36.633521],[-72.733474,-36.633707],[-72.733459,-36.633895],[-72.733508,-36.634137],[-72.73367,-36.634571],[-72.733907,-36.635099],[-72.734027,-36.635244],[-72.734332,-36.635682],[-72.734959,-36.636582],[-72.735082,-36.636776],[-72.735152,-36.636936],[-72.735201,-36.637133],[-72.735222,-36.637466],[-72.735221,-36.637493]]]},"properties":{"comuna":"Ranquil","mancha_id":"16206-88b2d874c5fffff","clase":"Alto","nivel_medio":2.526,"nivel_medio_min":2.526,"nivel_medio_max":2.526,"pct_alto":57.3,"n_hexagonos":1,"area_ha":4.22}},{"type":"Feature","geometry":{"type":"Polygon","coordinates":[[[-72.720313,-36.653945],[-72.722068,-36.649559],[-72.726355,-36.648477],[-72.726188,-36.648621],[-72.725852,-36.648911],[-72.725538,-36.649183],[-72.725179,-36.649497],[-72.724418,-36.650159],[-72.723928,-36.65072],[-72.723536,-36.65117],[-72.722957,-36.651757],[-72.722481,-36.652239],[-72.721902,-36.652824],[-72.721477,-36.653222],[-72.720566,-36.654133],[-72.720545,-36.654153],[-72.720313,-36.653945]]]},"properties":{"comuna":"Ranquil","mancha_id":"16206-88b2d87481fffff","clase":"Alto","nivel_medio":2.755,"nivel_medio_min":2.755,"nivel_medio_max":2.755,"pct_alto":78.5,"n_hexagonos":1,"area_ha":9.25}},{"type":"Feature","geometry":{"type":"Polygon","coordinates":[[[-72.631035,-36.574049],[-72.629277,-36.578429],[-72.624092,-36.579738],[-72.620665,-36.576666],[-72.622424,-36.572287],[-72.627608,-36.570978],[-72.631035,-36.574049]]]},"properties":{"comuna":"Ranquil","mancha_id":"16206-88b2d839dbfffff","clase":"Alto","nivel_medio":2.503,"nivel_medio_min":2.503,"nivel_medio_max":2.503,"pct_alto":51.9,"n_hexagonos":1,"area_ha":60.81}},{"type":"Feature","geometry":{"type":"Polygon","coordinates":[[[-72.644661,-36.59817],[-72.642903,-36.602551],[-72.646333,-36.605624],[-72.651521,-36.604315],[-72.654952,-36.607388],[-72.653194,-36.61177],[-72.648005,-36.613079],[-72.644574,-36.610005],[-72.639386,-36.611314],[-72.635956,-36.608241],[-72.637715,-36.60386],[-72.634285,-36.600787],[-72.636044,-36.596406],[-72.641231,-36.595098],[-72.644661,-36.59817]]]},"properties":{"comuna":"Ranquil","mancha_id":"16206-88b2d83995fffff","clase":"Alto","nivel_medio":2.547,"nivel_medio_min":2.509,"nivel_medio_max":2.57,"pct_alto":65.0,"n_hexagonos":3,"area_ha":182.57}},{"type":"Feature","geometry":{"type":"Polygon","coordinates":[[[-72.648176,-36.589407],[-72.649934,-36.585026],[-72.650531,-36.584875],[-72.65056,-36.58495],[-72.65058,-36.5852],[-72.65057,-36.58564],[-72.65065,-36.58595],[-72.650728,-36.586166],[-72.650882,-36.5866],[-72.65091,-36.58668],[-72.65093,-36.58693],[-72.6509,-36.58706],[-72.65025,-36.58814],[-72.65017,-36.58842],[-72.650101,-36.588832],[-72.649971,-36.589606],[-72.64994,-36.58979],[-72.64978,-36.59028],[-72.649611,-36.590693],[-72.648176,-36.589407]]]},"properties":{"comuna":"Ranquil","mancha_id":"16206-88b2d83981fffff","clase":"Alto","nivel_medio":2.515,"nivel_medio_min":2.515,"nivel_medio_max":2.515,"pct_alto":50.5,"n_hexagonos":1,"area_ha":7.58}},{"type":"Feature","geometry":{"type":"Polygon","coordinates":[[[-72.603257,-36.596799],[-72.601497,-36.601179],[-72.596311,-36.602485],[-72.592886,-36.599413],[-72.594647,-36.595033],[-72.591222,-36.591961],[-72.592983,-36.587582],[-72.598168,-36.586275],[-72.601592,-36.589348],[-72.599832,-36.593727],[-72.603257,-36.596799]]]},"properties":{"comuna":"Ranquil","mancha_id":"16206-88b2d838b5fffff","clase":"Alto","nivel_medio":2.625,"nivel_medio_min":2.611,"nivel_medio_max":2.639,"pct_alto":61.0,"n_hexagonos":2,"area_ha":121.58}},{"type":"Feature","geometry":{"type":"Polygon","coordinates":[[[-72.568824,-36.589733],[-72.567062,-36.594111],[-72.561878,-36.595416],[-72.558457,-36.592343],[-72.560219,-36.587965],[-72.565403,-36.58666],[-72.568824,-36.589733]]]},"properties":{"comuna":"Ranquil","mancha_id":"16206-88b2d83893fffff","clase":"Alto","nivel_medio":2.65,"nivel_medio_min":2.65,"nivel_medio_max":2.65,"pct_alto":62.2,"n_hexagonos":1,"area_ha":60.75}},{"type":"Feature","geometry":{"type":"Polygon","coordinates":[[[-72.637977,-36.56836],[-72.63455,-36.56529],[-72.634926,-36.564353],[-72.635666,-36.564779],[-72.63698,-36.56554],[-72.638159,-36.566316],[-72.64024,-36.567789],[-72.637977,-36.56836]]]},"properties":{"comuna":"Ranquil","mancha_id":"16206-88b2d83837fffff","clase":"Alto","nivel_medio":2.685,"nivel_medio_min":2.685,"nivel_medio_max":2.685,"pct_alto":68.5,"n_hexagonos":1,"area_ha":7.97}},{"type":"Feature","geometry":{"type":"Polygon","coordinates":[[[-72.699753,-36.623657],[-72.697997,-36.628042],[-72.692805,-36.629353],[-72.689369,-36.626279],[-72.691125,-36.621895],[-72.696317,-36.620584],[-72.699753,-36.623657]]]},"properties":{"comuna":"Ranquil","mancha_id":"16206-88b2d82b6dfffff","clase":"Alto","nivel_medio":2.563,"nivel_medio_min":2.563,"nivel_medio_max":2.563,"pct_alto":56.8,"n_hexagonos":1,"area_ha":60.93}},{"type":"Feature","geometry":{"type":"Polygon","coordinates":[[[-72.644402,-36.633681],[-72.642643,-36.638063],[-72.637451,-36.639371],[-72.63402,-36.636297],[-72.63578,-36.631915],[-72.64097,-36.630607],[-72.644402,-36.633681]]]},"properties":{"comuna":"Ranquil","mancha_id":"16206-88b2d82b53fffff","clase":"Alto","nivel_medio":2.533,"nivel_medio_min":2.533,"nivel_medio_max":2.533,"pct_alto":56.7,"n_hexagonos":1,"area_ha":60.88}},{"type":"Feature","geometry":{"type":"Polygon","coordinates":[[[-72.656375,-36.650362],[-72.654615,-36.654745],[-72.649422,-36.656054],[-72.645989,-36.652978],[-72.647748,-36.648595],[-72.644315,-36.64552],[-72.646075,-36.641138],[-72.651267,-36.639829],[-72.6547,-36.642904],[-72.652941,-36.647287],[-72.656375,-36.650362]]]},"properties":{"comuna":"Ranquil","mancha_id":"16206-88b2d82b15fffff","clase":"Alto","nivel_medio":2.573,"nivel_medio_min":2.549,"nivel_medio_max":2.597,"pct_alto":64.1,"n_hexagonos":2,"area_ha":121.8}},{"type":"Feature","geometry":{"type":"Polygon","coordinates":[[[-72.608255,-36.619159],[-72.606495,-36.623539],[-72.601306,-36.624846],[-72.59788,-36.621772],[-72.599641,-36.617392],[-72.604828,-36.616085],[-72.608255,-36.619159]]]},"properties":{"comuna":"Ranquil","mancha_id":"16206-88b2d82a09fffff","clase":"Alto","nivel_medio":2.545,"nivel_medio_min":2.545,"nivel_medio_max":2.545,"pct_alto":64.7,"n_hexagonos":1,"area_ha":60.82}},{"type":"Feature","geometry":{"type":"Polygon","coordinates":[[[-72.602306,-36.715182],[-72.605739,-36.718261],[-72.605282,-36.719398],[-72.605238,-36.719426],[-72.604798,-36.719507],[-72.604617,-36.719563],[-72.604286,-36.719666],[-72.604064,-36.719794],[-72.603726,-36.719988],[-72.603375,-36.720191],[-72.603036,-36.720386],[-72.602876,-36.720564],[-72.602777,-36.72087],[-72.602769,-36.721377],[-72.602753,-36.721658],[-72.602737,-36.721942],[-72.602617,-36.722111],[-72.60252,-36.722248],[-72.602248,-36.722457],[-72.601696,-36.722845],[-72.600987,-36.723352],[-72.600915,-36.723412],[-72.598778,-36.723948],[-72.595345,-36.720869],[-72.59711,-36.716486],[-72.602306,-36.715182]]]},"properties":{"comuna":"Ranquil","mancha_id":"16206-88b2d829dbfffff","clase":"Alto","nivel_medio":2.643,"nivel_medio_min":2.643,"nivel_medio_max":2.643,"pct_alto":68.4,"n_hexagonos":1,"area_ha":55.12}},{"type":"Feature","geometry":{"type":"Polygon","coordinates":[[[-72.651737,-36.674639],[-72.651105,-36.675123],[-72.652247,-36.672278],[-72.652286,-36.672508],[-72.652346,-36.673309],[-72.652324,-36.673524],[-72.6523,-36.673716],[-72.65224,-36.67391],[-72.652158,-36.674075],[-72.652066,-36.674241],[-72.651737,-36.674639]]]},"properties":{"comuna":"Ranquil","mancha_id":"16206-88b2d82959fffff","clase":"Alto","nivel_medio":3.0,"nivel_medio_min":3.0,"nivel_medio_max":3.0,"pct_alto":100.0,"n_hexagonos":1,"area_ha":1.14}},{"type":"Feature","geometry":{"type":"Polygon","coordinates":[[[-72.667836,-36.668344],[-72.668356,-36.667047],[-72.669489,-36.666762],[-72.66915,-36.667124],[-72.66881,-36.66752],[-72.668219,-36.668089],[-72.667836,-36.668344]]]},"properties":{"comuna":"Ranquil","mancha_id":"16206-88b2d8294bfffff","clase":"Alto","nivel_medio":2.617,"nivel_medio_min":2.617,"nivel_medio_max":2.617,"pct_alto":63.8,"n_hexagonos":1,"area_ha":0.77}},{"type":"Feature","geometry":{"type":"Polygon","coordinates":[[[-72.674351,-36.663745],[-72.67531,-36.661354],[-72.671874,-36.658279],[-72.673632,-36.653894],[-72.670196,-36.650819],[-72.671954,-36.646435],[-72.668519,-36.643361],[-72.670277,-36.638977],[-72.666843,-36.635903],[-72.6686,-36.63152],[-72.665166,-36.628446],[-72.666924,-36.624063],[-72.672115,-36.622753],[-72.673872,-36.61837],[-72.679063,-36.61706],[-72.682498,-36.620133],[-72.680741,-36.624516],[-72.684176,-36.62759],[-72.682419,-36.631974],[-72.685855,-36.635048],[-72.691048,-36.633737],[-72.694485,-36.636811],[-72.692728,-36.641196],[-72.687535,-36.642506],[-72.684098,-36.639432],[-72.678905,-36.640742],[-72.677148,-36.645126],[-72.680584,-36.6482],[-72.685778,-36.646891],[-72.689215,-36.649965],[-72.694409,-36.648655],[-72.697847,-36.651729],[-72.697561,-36.652444],[-72.697383,-36.652414],[-72.697132,-36.652448],[-72.696982,-36.652526],[-72.696613,-36.652669],[-72.696393,-36.652765],[-72.695962,-36.652878],[-72.695543,-36.652963],[-72.694917,-36.653023],[-72.694098,-36.653089],[-72.693728,-36.653104],[-72.69332,-36.653165],[-72.692926,-36.653213],[-72.692437,-36.653316],[-72.691593,-36.653584],[-72.690923,-36.653787],[-72.690437,-36.653965],[-72.690032,-36.654081],[-72.689435,-36.654153],[-72.688587,-36.654244],[-72.687948,-36.654332],[-72.687592,-36.654471],[-72.687578,-36.654476],[-72.687298,-36.654649],[-72.686974,-36.654937],[-72.686308,-36.655565],[-72.685757,-36.656063],[-72.685477,-36.656469],[-72.685182,-36.656764],[-72.685017,-36.656858],[-72.684662,-36.657007],[-72.684155,-36.657173],[-72.68342,-36.657442],[-72.68306,-36.657649],[-72.682639,-36.657935],[-72.682088,-36.658369],[-72.681347,-36.659103],[-72.680598,-36.659813],[-72.680483,-36.659922],[-72.680315,-36.660093],[-72.679973,-36.660439],[-72.679923,-36.66049],[-72.679258,-36.661189],[-72.678678,-36.661808],[-72.677879,-36.662549],[-72.677426,-36.662901],[-72.677109,-36.663114],[-72.676916,-36.663191],[-72.676328,-36.663296],[-72.67578,-36.663366],[-72.675066,-36.663535],[-72.674611,-36.663643],[-72.674351,-36.663745]]]},"properties":{"comuna":"Ranquil","mancha_id":"16206-88b2d82949fffff","clase":"Alto","nivel_medio":2.694,"nivel_medio_min":2.501,"nivel_medio_max":2.851,"pct_alto":72.5,"n_hexagonos":13,"area_ha":662.66}},{"type":"Feature","geometry":{"type":"Polygon","coordinates":[[[-72.638861,-36.682354],[-72.644056,-36.681047],[-72.645105,-36.681987],[-72.644954,-36.682063],[-72.644804,-36.682138],[-72.644436,-36.682264],[-72.644094,-36.682489],[-72.643884,-36.682491],[-72.643597,-36.682354],[-72.643433,-36.682212],[-72.643282,-36.682103],[-72.643054,-36.681949],[-72.642882,-36.681826],[-72.64254,-36.681665],[-72.642285,-36.681622],[-72.64202,-36.681636],[-72.641727,-36.681679],[-72.641435,-36.681926],[-72.641262,-36.682115],[-72.641042,-36.682439],[-72.641011,-36.682508],[-72.640791,-36.68308],[-72.640666,-36.683595],[-72.640601,-36.683816],[-72.640423,-36.684327],[-72.640284,-36.684466],[-72.640249,-36.684511],[-72.640063,-36.68462],[-72.639855,-36.684634],[-72.63955,-36.684624],[-72.639183,-36.68461],[-72.638909,-36.684602],[-72.638535,-36.684634],[-72.638454,-36.684643],[-72.638272,-36.684711],[-72.638092,-36.684861],[-72.637981,-36.685014],[-72.637878,-36.685168],[-72.637815,-36.685295],[-72.637657,-36.685618],[-72.637542,-36.685864],[-72.637399,-36.685995],[-72.637398,-36.685996],[-72.638861,-36.682354]]]},"properties":{"comuna":"Ranquil","mancha_id":"16206-88b2d8282dfffff","clase":"Alto","nivel_medio":2.662,"nivel_medio_min":2.662,"nivel_medio_max":2.662,"pct_alto":64.7,"n_hexagonos":1,"area_ha":8.27}},{"type":"Feature","geometry":{"type":"Polygon","coordinates":[[[-72.623276,-36.686274],[-72.628471,-36.684967],[-72.630233,-36.686547],[-72.630163,-36.686585],[-72.630056,-36.686648],[-72.62982,-36.686737],[-72.629573,-36.686787],[-72.629389,-36.686792],[-72.629114,-36.686802],[-72.628995,-36.686822],[-72.628762,-36.68686],[-72.628275,-36.687018],[-72.627723,-36.687238],[-72.62725,-36.687438],[-72.626508,-36.687877],[-72.626033,-36.688243],[-72.625625,-36.688522],[-72.625368,-36.688773],[-72.625026,-36.689116],[-72.624696,-36.689433],[-72.6243,-36.689816],[-72.623875,-36.690139],[-72.623352,-36.690388],[-72.622826,-36.690555],[-72.622464,-36.690627],[-72.622302,-36.690662],[-72.622072,-36.690681],[-72.621781,-36.6907],[-72.621562,-36.6907],[-72.621514,-36.690657],[-72.623276,-36.686274]]]},"properties":{"comuna":"Ranquil","mancha_id":"16206-88b2d8282bfffff","clase":"Alto","nivel_medio":2.518,"nivel_medio_min":2.518,"nivel_medio_max":2.518,"pct_alto":63.5,"n_hexagonos":1,"area_ha":20.48}},{"type":"Feature","geometry":{"type":"Polygon","coordinates":[[[-72.607691,-36.69019],[-72.605928,-36.694573],[-72.600733,-36.695877],[-72.597302,-36.6928],[-72.599066,-36.688418],[-72.595635,-36.68534],[-72.590442,-36.686645],[-72.587012,-36.683567],[-72.588776,-36.679186],[-72.593969,-36.677881],[-72.597399,-36.680958],[-72.602592,-36.679653],[-72.606023,-36.68273],[-72.60426,-36.687113],[-72.607691,-36.69019]]]},"properties":{"comuna":"Ranquil","mancha_id":"16206-88b2d82815fffff","clase":"Alto","nivel_medio":2.57,"nivel_medio_min":2.514,"nivel_medio_max":2.64,"pct_alto":64.3,"n_hexagonos":3,"area_ha":182.62}},{"type":"Feature","geometry":{"type":"Polygon","coordinates":[[[-72.51124,-36.663215],[-72.516428,-36.661915],[-72.518195,-36.657537],[-72.523383,-36.656236],[-72.526804,-36.659312],[-72.531992,-36.65801],[-72.535415,-36.661087],[-72.540604,-36.659785],[-72.544027,-36.662861],[-72.542262,-36.66724],[-72.537072,-36.668542],[-72.533649,-36.665465],[-72.52846,-36.666767],[-72.526693,-36.671146],[-72.530116,-36.674223],[-72.528349,-36.678602],[-72.523159,-36.679903],[-72.521392,-36.684281],[-72.524815,-36.687359],[-72.530006,-36.686058],[-72.531773,-36.681679],[-72.536963,-36.680378],[-72.538729,-36.675998],[-72.54392,-36.674697],[-72.545686,-36.670317],[-72.550876,-36.669015],[-72.554301,-36.672092],[-72.552535,-36.676471],[-72.547344,-36.677774],[-72.545578,-36.682153],[-72.549004,-36.685231],[-72.554195,-36.683929],[-72.557622,-36.687006],[-72.555856,-36.691387],[-72.559283,-36.694465],[-72.557517,-36.698845],[-72.558863,-36.700054],[-72.55878,-36.70035],[-72.55872,-36.7006],[-72.55861,-36.70082],[-72.55849,-36.70096],[-72.55835,-36.70108],[-72.55826,-36.70112],[-72.55818,-36.70115],[-72.55786,-36.70125],[-72.55774,-36.70133],[-72.55765,-36.70138],[-72.55762,-36.70138],[-72.55752,-36.70139],[-72.55734,-36.70136],[-72.55698,-36.70116],[-72.55643,-36.70086],[-72.55615,-36.70073],[-72.55587,-36.70067],[-72.55562,-36.70067],[-72.55525,-36.70076],[-72.55508,-36.70087],[-72.55488,-36.70107],[-72.55456,-36.70149],[-72.5542,-36.70201],[-72.55363,-36.70272],[-72.55315,-36.70335],[-72.55263,-36.70402],[-72.55229,-36.70434],[-72.55196,-36.70458],[-72.55146,-36.70484],[-72.551051,-36.704971],[-72.55093,-36.70501],[-72.55028,-36.70532],[-72.54962,-36.70566],[-72.54851,-36.70623],[-72.54772,-36.70663],[-72.54769,-36.70665],[-72.54729,-36.70666],[-72.54676,-36.70659],[-72.54638,-36.70657],[-72.54589,-36.70658],[-72.54527,-36.70662],[-72.545045,-36.70662],[-72.54463,-36.70662],[-72.54394,-36.70671],[-72.54342,-36.70679],[-72.54309,-36.70683],[-72.54269,-36.70698],[-72.54241,-36.70709],[-72.54228,-36.70717],[-72.54215,-36.70729],[-72.54206,-36.70741],[-72.54194,-36.70754],[-72.54149,-36.70785],[-72.54117,-36.70805],[-72.54055,-36.70836],[-72.54023,-36.70844],[-72.54002,-36.70853],[-72.53978,-36.7087],[-72.53939,-36.70902],[-72.53933,-36.70913],[-72.53925,-36.70925],[-72.53911,-36.70937],[-72.53896,-36.70946],[-72.53881,-36.70952],[-72.53843,-36.70965],[-72.53794,-36.70989],[-72.53776,-36.70994],[-72.5376,-36.70995],[-72.53743,-36.70991],[-72.5372,-36.70988],[-72.53691,-36.70984],[-72.53668,-36.70984],[-72.536544,-36.70984],[-72.534978,-36.708432],[-72.536745,-36.704052],[-72.53332,-36.700973],[-72.535087,-36.696594],[-72.531663,-36.693515],[-72.526471,-36.694816],[-72.523047,-36.691738],[-72.517856,-36.693039],[-72.514434,-36.68996],[-72.509243,-36.69126],[-72.509075,-36.691678],[-72.50882,-36.69143],[-72.5085,-36.6909],[-72.508369,-36.690473],[-72.50834,-36.69038],[-72.50809,-36.69005],[-72.5078,-36.68984],[-72.50748,-36.68958],[-72.50714,-36.68936],[-72.507127,-36.689356],[-72.50673,-36.68924],[-72.50619,-36.68923],[-72.50557,-36.68918],[-72.50508,-36.68931],[-72.50489,-36.68933],[-72.5042,-36.68931],[-72.50389,-36.68933],[-72.5034,-36.68941],[-72.502304,-36.689478],[-72.500543,-36.689702],[-72.500538,-36.689703],[-72.5,-36.689698],[-72.49922,-36.68969],[-72.49795,-36.68956],[-72.49755,-36.68957],[-72.49705,-36.68964],[-72.49681,-36.68971],[-72.49639,-36.6899],[-72.4959,-36.69018],[-72.49554,-36.69044],[-72.49535,-36.69056],[-72.49512,-36.69064],[-72.49487,-36.69064],[-72.49451,-36.69055],[-72.4942,-36.69043],[-72.494,-36.69035],[-72.49375,-36.6903],[-72.49351,-36.69032],[-72.49327,-36.69039],[-72.49288,-36.6906],[-72.49264,-36.69061],[-72.49245,-36.6905],[-72.49227,-36.69038],[-72.49209,-36.69026],[-72.49187,-36.69017],[-72.49165,-36.69021],[-72.49101,-36.69051],[-72.490878,-36.690532],[-72.49077,-36.69055],[-72.49052,-36.69051],[-72.49029,-36.69045],[-72.49013,-36.69031],[-72.49017,-36.69012],[-72.49021,-36.68994],[-72.49022,-36.68975],[-72.49011,-36.6896],[-72.48991,-36.68951],[-72.48967,-36.68948],[-72.48943,-36.68948],[-72.48921,-36.68943],[-72.48902,-36.68933],[-72.48879,-36.68924],[-72.48849,-36.68915],[-72.48813,-36.68905],[-72.48766,-36.68887],[-72.48746,-36.68877],[-72.48712,-36.68849],[-72.48694,-36.68835],[-72.48673,-36.68823],[-72.48651,-36.68809],[-72.48634,-36.68797],[-72.48621,-36.68781],[-72.4856,-36.68749],[-72.48541,-36.68756],[-72.48516,-36.68765],[-72.48473,-36.6878],[-72.48452,-36.68788],[-72.48433,-36.68797],[-72.48413,-36.68808],[-72.48397,-36.68816],[-72.48371,-36.68824],[-72.48342,-36.68829],[-72.4832,-36.68831],[-72.48271,-36.68835],[-72.482432,-36.68835],[-72.48217,-36.68835],[-72.48163,-36.68836],[-72.48109,-36.68835],[-72.4806,-36.68829],[-72.48038,-36.68824],[-72.48017,-36.68816],[-72.47996,-36.68805],[-72.47977,-36.68795],[-72.47955,-36.68787],[-72.47932,-36.68783],[-72.47884,-36.68783],[-72.47813,-36.68784],[-72.47762,-36.68782],[-72.4774,-36.6878],[-72.47712,-36.68775],[-72.47666,-36.68766],[-72.47641,-36.68763],[-72.47615,-36.68762],[-72.47564,-36.68758],[-72.47527,-36.68752],[-72.47483,-36.68745],[-72.47432,-36.68741],[-72.47382,-36.68736],[-72.47358,-36.6873],[-72.473536,-36.687283],[-72.474806,-36.684144],[-72.471388,-36.681065],[-72.473158,-36.676689],[-72.478346,-36.67539],[-72.481764,-36.678468],[-72.479994,-36.682845],[-72.483413,-36.685923],[-72.488602,-36.684624],[-72.490371,-36.680247],[-72.486952,-36.677169],[-72.488721,-36.672792],[-72.485302,-36.669715],[-72.487071,-36.665338],[-72.492258,-36.664039],[-72.495677,-36.667116],[-72.500865,-36.665816],[-72.504285,-36.668893],[-72.509473,-36.667593],[-72.51124,-36.663215]]]},"properties":{"comuna":"Ranquil","mancha_id":"16206-88b2d821a1fffff","clase":"Alto","nivel_medio":2.713,"nivel_medio_min":2.503,"nivel_medio_max":3.003,"pct_alto":74.7,"n_hexagonos":37,"area_ha":1981.44}},{"type":"Feature","geometry":{"type":"Polygon","coordinates":[[[-72.495912,-36.643456],[-72.49933,-36.646532],[-72.504516,-36.645232],[-72.507935,-36.648308],[-72.506168,-36.652685],[-72.500981,-36.653985],[-72.497563,-36.650909],[-72.492376,-36.652209],[-72.488959,-36.649132],[-72.483773,-36.650432],[-72.480357,-36.647356],[-72.475172,-36.648655],[-72.471756,-36.645578],[-72.473525,-36.641203],[-72.478709,-36.639904],[-72.482125,-36.64298],[-72.48731,-36.64168],[-72.490727,-36.644756],[-72.495912,-36.643456]]]},"properties":{"comuna":"Ranquil","mancha_id":"16206-88b2d82189fffff","clase":"Alto","nivel_medio":2.591,"nivel_medio_min":2.54,"nivel_medio_max":2.663,"pct_alto":61.1,"n_hexagonos":4,"area_ha":242.85}},{"type":"Feature","geometry":{"type":"Polygon","coordinates":[[[-72.551193,-36.633514],[-72.554616,-36.636589],[-72.559804,-36.635285],[-72.563227,-36.63836],[-72.561464,-36.642739],[-72.564888,-36.645815],[-72.570077,-36.644511],[-72.573502,-36.647586],[-72.571739,-36.651966],[-72.566549,-36.65327],[-72.563124,-36.650194],[-72.557935,-36.651498],[-72.554511,-36.648422],[-72.556276,-36.644043],[-72.552852,-36.640967],[-72.547664,-36.64227],[-72.544242,-36.639195],[-72.546007,-36.634817],[-72.551193,-36.633514]]]},"properties":{"comuna":"Ranquil","mancha_id":"16206-88b2d82135fffff","clase":"Alto","nivel_medio":2.581,"nivel_medio_min":2.516,"nivel_medio_max":2.641,"pct_alto":57.0,"n_hexagonos":4,"area_ha":243.16}},{"type":"Feature","geometry":{"type":"Polygon","coordinates":[[[-72.577129,-36.626993],[-72.575366,-36.631373],[-72.570179,-36.632677],[-72.566754,-36.629602],[-72.568518,-36.625223],[-72.573704,-36.623919],[-72.577129,-36.626993]]]},"properties":{"comuna":"Ranquil","mancha_id":"16206-88b2d82125fffff","clase":"Alto","nivel_medio":2.542,"nivel_medio_min":2.542,"nivel_medio_max":2.542,"pct_alto":54.2,"n_hexagonos":1,"area_ha":60.79}},{"type":"Feature","geometry":{"type":"Polygon","coordinates":[[[-72.535742,-36.625592],[-72.533977,-36.629969],[-72.528792,-36.631272],[-72.525372,-36.628197],[-72.527137,-36.62382],[-72.532322,-36.622517],[-72.535742,-36.625592]]]},"properties":{"comuna":"Ranquil","mancha_id":"16206-88b2d82115fffff","clase":"Alto","nivel_medio":2.54,"nivel_medio_min":2.54,"nivel_medio_max":2.54,"pct_alto":50.0,"n_hexagonos":1,"area_ha":60.74}},{"type":"Feature","geometry":{"type":"Polygon","coordinates":[[[-72.55659,-36.608549],[-72.554826,-36.612927],[-72.549641,-36.61423],[-72.54622,-36.611156],[-72.547984,-36.606779],[-72.544564,-36.603705],[-72.546327,-36.599328],[-72.551511,-36.598024],[-72.554931,-36.601098],[-72.553168,-36.605475],[-72.55659,-36.608549]]]},"properties":{"comuna":"Ranquil","mancha_id":"16206-88b2d8210dfffff","clase":"Alto","nivel_medio":2.519,"nivel_medio_min":2.503,"nivel_medio_max":2.536,"pct_alto":59.4,"n_hexagonos":2,"area_ha":121.49}},{"type":"Feature","geometry":{"type":"Polygon","coordinates":[[[-72.541036,-36.61246],[-72.539272,-36.616837],[-72.534087,-36.61814],[-72.530667,-36.615066],[-72.532432,-36.610689],[-72.537616,-36.609386],[-72.541036,-36.61246]]]},"properties":{"comuna":"Ranquil","mancha_id":"16206-88b2d8210bfffff","clase":"Alto","nivel_medio":2.626,"nivel_medio_min":2.626,"nivel_medio_max":2.626,"pct_alto":66.4,"n_hexagonos":1,"area_ha":60.74}},{"type":"Feature","geometry":{"type":"Polygon","coordinates":[[[-72.464802,-36.651252],[-72.459617,-36.652551],[-72.45713,-36.65031],[-72.457405,-36.650241],[-72.458112,-36.650261],[-72.458701,-36.650123],[-72.458959,-36.649933],[-72.459065,-36.649614],[-72.459382,-36.64938],[-72.45981,-36.649066],[-72.460901,-36.648667],[-72.461919,-36.648428],[-72.462637,-36.648302],[-72.463249,-36.648205],[-72.463794,-36.648113],[-72.464249,-36.648196],[-72.464889,-36.648186],[-72.465316,-36.648031],[-72.465753,-36.647749],[-72.46619,-36.647196],[-72.466248,-36.646875],[-72.466083,-36.646594],[-72.465748,-36.646499],[-72.46553,-36.646254],[-72.465384,-36.645953],[-72.465418,-36.645838],[-72.466571,-36.646877],[-72.464802,-36.651252]]]},"properties":{"comuna":"Ranquil","mancha_id":"16206-88b2d820adfffff","clase":"Alto","nivel_medio":2.624,"nivel_medio_min":2.624,"nivel_medio_max":2.624,"pct_alto":69.2,"n_hexagonos":1,"area_ha":23.97}}],"bbox":[-72.73523,-36.73336,-72.44855,-36.54491]}