{"type":"FeatureCollection","features":[{"type":"Feature","geometry":{"type":"Polygon","coordinates":[[[-72.551494,-36.413372],[-72.551439,-36.413323],[-72.551485,-36.413207],[-72.551494,-36.413372]]]},"properties":{"comuna":"Ninhue","mancha_id":"16204-88b2d83309fffff","clase":"Muy Bajo","nivel_medio":0.33,"nivel_medio_min":0.33,"nivel_medio_max":0.33,"pct_alto":0.0,"n_hexagonos":1,"area_ha":0.0}},{"type":"Feature","geometry":{"type":"Polygon","coordinates":[[[-72.443075,-36.377922],[-72.442459,-36.382003],[-72.437297,-36.383307],[-72.432752,-36.380529],[-72.427591,-36.381832],[-72.423046,-36.379055],[-72.423663,-36.374974],[-72.428824,-36.373671],[-72.433369,-36.376449],[-72.43853,-36.375145],[-72.443075,-36.377922]]]},"properties":{"comuna":"Ninhue","mancha_id":"16204-88b2d8ad41fffff","clase":"Bajo","nivel_medio":1.317,"nivel_medio_min":1.177,"nivel_medio_max":1.456,"pct_alto":1.5,"n_hexagonos":2,"area_ha":121.03}},{"type":"Feature","geometry":{"type":"Polygon","coordinates":[[[-72.357196,-36.387811],[-72.352037,-36.38911],[-72.347495,-36.386331],[-72.348113,-36.382252],[-72.353272,-36.380953],[-72.357814,-36.383732],[-72.357196,-36.387811]]]},"properties":{"comuna":"Ninhue","mancha_id":"16204-88b2d8ac0bfffff","clase":"Bajo","nivel_medio":1.133,"nivel_medio_min":1.133,"nivel_medio_max":1.133,"pct_alto":1.6,"n_hexagonos":1,"area_ha":60.46}},{"type":"Feature","geometry":{"type":"Polygon","coordinates":[[[-72.511421,-36.435743],[-72.51035,-36.43614],[-72.509712,-36.436285],[-72.509996,-36.435582],[-72.515162,-36.434277],[-72.515965,-36.434998],[-72.515205,-36.43499],[-72.514452,-36.434772],[-72.513815,-36.434822],[-72.513296,-36.434889],[-72.512258,-36.435341],[-72.511421,-36.435743]]]},"properties":{"comuna":"Ninhue","mancha_id":"16204-88b2d83041fffff","clase":"Bajo","nivel_medio":1.305,"nivel_medio_min":1.305,"nivel_medio_max":1.305,"pct_alto":1.7,"n_hexagonos":1,"area_ha":2.44}},{"type":"Feature","geometry":{"type":"Polygon","coordinates":[[[-72.36307,-36.47685],[-72.36301,-36.47635],[-72.363062,-36.475899],[-72.363597,-36.476383],[-72.368761,-36.475086],[-72.369939,-36.47615],[-72.36978,-36.4762],[-72.36932,-36.47636],[-72.36891,-36.47662],[-72.36834,-36.47706],[-72.36761,-36.47744],[-72.36685,-36.47764],[-72.36606,-36.47771],[-72.36497,-36.4776],[-72.36415,-36.47761],[-72.36362,-36.47758],[-72.36328,-36.47732],[-72.363247,-36.477246],[-72.36307,-36.47685]]]},"properties":{"comuna":"Ninhue","mancha_id":"16204-88b2d83629fffff","clase":"Bajo","nivel_medio":1.134,"nivel_medio_min":1.124,"nivel_medio_max":1.367,"pct_alto":0.0,"n_hexagonos":2,"area_ha":10.65}},{"type":"Feature","geometry":{"type":"Polygon","coordinates":[[[-72.401786,-36.388344],[-72.40633,-36.391122],[-72.405713,-36.395201],[-72.400552,-36.396502],[-72.399935,-36.400581],[-72.394774,-36.401882],[-72.39023,-36.399104],[-72.390847,-36.395025],[-72.396008,-36.393724],[-72.396625,-36.389645],[-72.401786,-36.388344]]]},"properties":{"comuna":"Ninhue","mancha_id":"16204-88b2d8ac25fffff","clase":"Medio","nivel_medio":2.37,"nivel_medio_min":2.336,"nivel_medio_max":2.404,"pct_alto":64.8,"n_hexagonos":2,"area_ha":120.94}},{"type":"Feature","geometry":{"type":"Polygon","coordinates":[[[-72.476657,-36.286921],[-72.478549,-36.288078],[-72.47844,-36.28829],[-72.47674,-36.28985],[-72.480655,-36.293331],[-72.48233,-36.29482],[-72.48233,-36.294854],[-72.480586,-36.293788],[-72.475425,-36.295097],[-72.47088,-36.292318],[-72.471496,-36.28823],[-72.476657,-36.286921]]]},"properties":{"comuna":"Ninhue","mancha_id":"16204-88b2d8aa31fffff","clase":"Medio","nivel_medio":2.418,"nivel_medio_min":2.203,"nivel_medio_max":2.42,"pct_alto":50.5,"n_hexagonos":2,"area_ha":49.4}},{"type":"Feature","geometry":{"type":"Polygon","coordinates":[[[-72.470573,-36.318909],[-72.47033,-36.32038],[-72.46998,-36.32133],[-72.46937,-36.32207],[-72.46856,-36.32321],[-72.4677,-36.32383],[-72.467077,-36.324724],[-72.465953,-36.325009],[-72.461408,-36.322231],[-72.456248,-36.323538],[-72.451703,-36.320759],[-72.452319,-36.316674],[-72.45748,-36.315367],[-72.462024,-36.318145],[-72.467185,-36.316838],[-72.467801,-36.312752],[-72.472962,-36.311445],[-72.473578,-36.307358],[-72.477427,-36.306382],[-72.4773,-36.3067],[-72.47659,-36.30867],[-72.4764,-36.30972],[-72.47619,-36.31106],[-72.47541,-36.31225],[-72.474961,-36.312666],[-72.47417,-36.3134],[-72.47239,-36.31461],[-72.4712,-36.31626],[-72.47073,-36.31796],[-72.470573,-36.318909]]]},"properties":{"comuna":"Ninhue","mancha_id":"16204-88b2d8a85bfffff","clase":"Medio","nivel_medio":2.183,"nivel_medio_min":1.924,"nivel_medio_max":2.383,"pct_alto":31.4,"n_hexagonos":4,"area_ha":157.52}},{"type":"Feature","geometry":{"type":"Polygon","coordinates":[[[-72.467086,-36.330753],[-72.467075,-36.331841],[-72.4671,-36.33283],[-72.466139,-36.333032],[-72.46428,-36.3335],[-72.46292,-36.33362],[-72.4615,-36.33349],[-72.46014,-36.33363],[-72.459629,-36.33403],[-72.460176,-36.330401],[-72.465337,-36.329094],[-72.467091,-36.330166],[-72.467086,-36.330753]]]},"properties":{"comuna":"Ninhue","mancha_id":"16204-88b2d8a8c9fffff","clase":"Medio","nivel_medio":2.48,"nivel_medio_min":2.48,"nivel_medio_max":2.48,"pct_alto":56.1,"n_hexagonos":1,"area_ha":26.18}},{"type":"Feature","geometry":{"type":"Polygon","coordinates":[[[-72.48339,-36.46186],[-72.48296,-36.46213],[-72.48269,-36.46227],[-72.48231,-36.46238],[-72.48197,-36.46252],[-72.48174,-36.46266],[-72.48142,-36.46293],[-72.481183,-36.463249],[-72.48113,-36.46332],[-72.48093,-36.46369],[-72.48035,-36.4642],[-72.4799,-36.46453],[-72.47958,-36.46472],[-72.47933,-36.46477],[-72.4789,-36.46485],[-72.47854,-36.46504],[-72.47808,-36.46541],[-72.47678,-36.46633],[-72.47618,-36.46665],[-72.47566,-36.46692],[-72.47522,-36.46709],[-72.4749,-36.46732],[-72.47463,-36.46751],[-72.47446,-36.46778],[-72.4741,-36.46835],[-72.47388,-36.46858],[-72.473876,-36.468584],[-72.47356,-36.46886],[-72.47322,-36.46908],[-72.47271,-36.46937],[-72.47216,-36.46983],[-72.47169,-36.47024],[-72.47142,-36.4703],[-72.47111,-36.47028],[-72.47071,-36.47027],[-72.4705,-36.47032],[-72.47008,-36.47043],[-72.46975,-36.47043],[-72.46947,-36.47033],[-72.46927,-36.47024],[-72.46902,-36.47025],[-72.46845,-36.47032],[-72.468141,-36.470315],[-72.46778,-36.47031],[-72.46707,-36.47039],[-72.46652,-36.47049],[-72.46616,-36.47044],[-72.46561,-36.47035],[-72.46514,-36.47029],[-72.46455,-36.47029],[-72.46392,-36.47032],[-72.46325,-36.47021],[-72.46246,-36.47],[-72.46205,-36.46987],[-72.46142,-36.46972],[-72.46101,-36.46965],[-72.46006,-36.46957],[-72.45966,-36.4696],[-72.459103,-36.469703],[-72.45885,-36.46975],[-72.45803,-36.4699],[-72.45736,-36.47003],[-72.45634,-36.47011],[-72.45543,-36.47007],[-72.45462,-36.47004],[-72.45402,-36.46993],[-72.45354,-36.46986],[-72.45326,-36.46971],[-72.45284,-36.4694],[-72.4523,-36.46914],[-72.45174,-36.46889],[-72.45083,-36.46871],[-72.450239,-36.468665],[-72.45005,-36.46865],[-72.44931,-36.46847],[-72.44864,-36.46827],[-72.44805,-36.46814],[-72.44735,-36.46802],[-72.44679,-36.46799],[-72.44639,-36.46802],[-72.44576,-36.46816],[-72.44519,-36.4685],[-72.44456,-36.46893],[-72.44384,-36.46954],[-72.44337,-36.47],[-72.442903,-36.470467],[-72.44287,-36.4705],[-72.44184,-36.47115],[-72.44114,-36.4715],[-72.44078,-36.47174],[-72.44025,-36.47227],[-72.43972,-36.47279],[-72.43937,-36.47318],[-72.43908,-36.47339],[-72.43879,-36.47348],[-72.43828,-36.47344],[-72.43789,-36.47335],[-72.43728,-36.47337],[-72.43685,-36.47333],[-72.43652,-36.47321],[-72.43594,-36.47302],[-72.43558,-36.47284],[-72.43528,-36.47244],[-72.43495,-36.47215],[-72.434912,-36.472138],[-72.43442,-36.47198],[-72.43406,-36.47191],[-72.43368,-36.47177],[-72.43327,-36.47163],[-72.43267,-36.47131],[-72.43212,-36.47105],[-72.43175,-36.47086],[-72.43139,-36.47079],[-72.43087,-36.47084],[-72.43033,-36.47087],[-72.43003,-36.47076],[-72.42946,-36.47049],[-72.42907,-36.47034],[-72.42873,-36.47032],[-72.42812,-36.47044],[-72.42747,-36.47052],[-72.42664,-36.47062],[-72.42635,-36.47071],[-72.426164,-36.470817],[-72.42602,-36.4709],[-72.42567,-36.47122],[-72.42536,-36.47167],[-72.42519,-36.47212],[-72.42516,-36.47262],[-72.425112,-36.472684],[-72.42457,-36.47341],[-72.42381,-36.47433],[-72.42283,-36.47536],[-72.42243,-36.47563],[-72.42201,-36.47594],[-72.42153,-36.47608],[-72.42087,-36.47631],[-72.42047,-36.47647],[-72.42006,-36.47663],[-72.41938,-36.47666],[-72.419183,-36.476603],[-72.41886,-36.47651],[-72.4186,-36.47626],[-72.4184,-36.47588],[-72.4182,-36.47526],[-72.41804,-36.47507],[-72.41762,-36.47483],[-72.41703,-36.47471],[-72.4163,-36.47466],[-72.41558,-36.47468],[-72.41495,-36.4749],[-72.41446,-36.47519],[-72.41371,-36.47591],[-72.41294,-36.47666],[-72.41239,-36.47742],[-72.411847,-36.478219],[-72.41169,-36.47845],[-72.41103,-36.47951],[-72.41007,-36.48034],[-72.4092,-36.48069],[-72.40844,-36.4808],[-72.40761,-36.48072],[-72.40625,-36.48058],[-72.40545,-36.48054],[-72.40453,-36.48063],[-72.4036,-36.48086],[-72.403523,-36.4809],[-72.40273,-36.48131],[-72.40197,-36.48187],[-72.40132,-36.48225],[-72.40045,-36.48256],[-72.39917,-36.48267],[-72.39818,-36.48256],[-72.39704,-36.48238],[-72.396601,-36.482343],[-72.39584,-36.48228],[-72.39524,-36.48225],[-72.39444,-36.48232],[-72.39392,-36.48257],[-72.39358,-36.483],[-72.393342,-36.48357],[-72.39302,-36.483892],[-72.39253,-36.48397],[-72.392056,-36.483968],[-72.39152,-36.48385],[-72.39075,-36.48359],[-72.38994,-36.48332],[-72.38944,-36.48325],[-72.38879,-36.4832],[-72.388683,-36.48317],[-72.38807,-36.483],[-72.38736,-36.48274],[-72.38639,-36.48237],[-72.38578,-36.48208],[-72.38526,-36.48196],[-72.38456,-36.48179],[-72.38402,-36.48145],[-72.38345,-36.48098],[-72.38283,-36.48046],[-72.3825,-36.47987],[-72.382319,-36.479522],[-72.3821,-36.4791],[-72.38142,-36.47854],[-72.38024,-36.47813],[-72.37941,-36.47794],[-72.37838,-36.477813],[-72.37795,-36.47776],[-72.37732,-36.47772],[-72.37676,-36.47752],[-72.376182,-36.477143],[-72.377321,-36.476857],[-72.37909,-36.472491],[-72.375694,-36.469423],[-72.37053,-36.47072],[-72.368761,-36.475086],[-72.363597,-36.476383],[-72.363062,-36.475899],[-72.36307,-36.47583],[-72.36318,-36.47537],[-72.36334,-36.47492],[-72.36364,-36.47451],[-72.36415,-36.47425],[-72.36484,-36.47402],[-72.36533,-36.47368],[-72.36571,-36.47339],[-72.36603,-36.47302],[-72.36632,-36.4725],[-72.36664,-36.47172],[-72.36717,-36.47112],[-72.36763,-36.47066],[-72.36811,-36.47013],[-72.36845,-36.46967],[-72.36851,-36.46922],[-72.36844,-36.468831],[-72.36839,-36.46855],[-72.36814,-36.46791],[-72.36801,-36.46745],[-72.36801,-36.46701],[-72.3681,-36.46669],[-72.36835,-36.46634],[-72.36875,-36.46602],[-72.36918,-36.4658],[-72.36972,-36.46566],[-72.37008,-36.46542],[-72.3703,-36.46515],[-72.37037,-36.46469],[-72.37033,-36.46424],[-72.37016,-36.46364],[-72.36991,-36.46304],[-72.369907,-36.463035],[-72.36968,-36.46265],[-72.3693,-36.46218],[-72.36883,-36.4617],[-72.36862,-36.46141],[-72.36864,-36.46123],[-72.36881,-36.46106],[-72.36905,-36.46093],[-72.36928,-36.46078],[-72.36942,-36.46055],[-72.36943,-36.46034],[-72.36928,-36.45997],[-72.36908,-36.45957],[-72.36899,-36.4591],[-72.36888,-36.45864],[-72.36855,-36.4582],[-72.36843,-36.45784],[-72.36838,-36.4575],[-72.36851,-36.45699],[-72.36874,-36.45658],[-72.36888,-36.45615],[-72.36876,-36.45586],[-72.368601,-36.455522],[-72.3686,-36.45552],[-72.36825,-36.45533],[-72.36775,-36.45518],[-72.36706,-36.45504],[-72.36643,-36.45489],[-72.366082,-36.454771],[-72.36596,-36.45473],[-72.36554,-36.45456],[-72.36509,-36.45435],[-72.36472,-36.45419],[-72.3643,-36.45409],[-72.3637,-36.454],[-72.36305,-36.4539],[-72.36236,-36.45372],[-72.36179,-36.45348],[-72.361621,-36.453356],[-72.36142,-36.45321],[-72.36113,-36.45292],[-72.361,-36.4526],[-72.36099,-36.45233],[-72.36112,-36.45201],[-72.36138,-36.45164],[-72.36162,-36.45133],[-72.36189,-36.45101],[-72.36222,-36.45066],[-72.36266,-36.4503],[-72.36312,-36.44991],[-72.36342,-36.44963],[-72.36373,-36.44926],[-72.36384,-36.44893],[-72.36385,-36.44868],[-72.3638,-36.4484],[-72.36358,-36.44822],[-72.36325,-36.448],[-72.3628,-36.44778],[-72.36252,-36.44747],[-72.36225,-36.44716],[-72.36198,-36.44701],[-72.36163,-36.44694],[-72.36121,-36.44694],[-72.36081,-36.44702],[-72.36047,-36.44723],[-72.36002,-36.44747],[-72.35942,-36.44779],[-72.35892,-36.44795],[-72.35847,-36.44799],[-72.35805,-36.44796],[-72.35762,-36.44782],[-72.35714,-36.44752],[-72.356841,-36.447293],[-72.35672,-36.4472],[-72.35647,-36.44697],[-72.35624,-36.44668],[-72.35613,-36.44639],[-72.356,-36.44598],[-72.35578,-36.44567],[-72.35548,-36.44547],[-72.35517,-36.44539],[-72.35478,-36.44547],[-72.35436,-36.44562],[-72.354,-36.44566],[-72.35361,-36.44571],[-72.35326,-36.4456],[-72.35284,-36.4454],[-72.35249,-36.4451],[-72.35218,-36.44467],[-72.35185,-36.44427],[-72.351731,-36.444092],[-72.351726,-36.444084],[-72.351626,-36.443934],[-72.3516,-36.443895],[-72.351104,-36.444241],[-72.350668,-36.444544],[-72.349929,-36.445019],[-72.349647,-36.44465],[-72.349611,-36.444616],[-72.349064,-36.444091],[-72.349041,-36.444064],[-72.348858,-36.443838],[-72.348766,-36.443586],[-72.348707,-36.443285],[-72.348664,-36.443033],[-72.348662,-36.443023],[-72.348516,-36.442684],[-72.348478,-36.442534],[-72.348466,-36.442485],[-72.348442,-36.442286],[-72.348473,-36.442087],[-72.34849,-36.441979],[-72.348555,-36.441628],[-72.348582,-36.441487],[-72.34865,-36.441123],[-72.348662,-36.440834],[-72.348558,-36.440412],[-72.348547,-36.440288],[-72.348534,-36.440138],[-72.348517,-36.440054],[-72.348433,-36.439636],[-72.348341,-36.439314],[-72.34826,-36.439029],[-72.34823,-36.438926],[-72.348182,-36.438755],[-72.348148,-36.43864],[-72.348106,-36.438499],[-72.348078,-36.438406],[-72.348011,-36.438178],[-72.347993,-36.438132],[-72.3478,-36.437629],[-72.347719,-36.437421],[-72.347698,-36.437365],[-72.34766,-36.437267],[-72.347541,-36.436956],[-72.347338,-36.436441],[-72.347148,-36.436084],[-72.346684,-36.435436],[-72.346369,-36.434979],[-72.346183,-36.434709],[-72.346051,-36.434517],[-72.345848,-36.434216],[-72.345823,-36.434179],[-72.345688,-36.433978],[-72.34558,-36.433817],[-72.345145,-36.433159],[-72.345121,-36.433123],[-72.344983,-36.432914],[-72.34483,-36.432645],[-72.344673,-36.432369],[-72.344672,-36.432368],[-72.344176,-36.431496],[-72.34407,-36.43131],[-72.343764,-36.430722],[-72.343619,-36.430443],[-72.343573,-36.430355],[-72.343514,-36.430243],[-72.343407,-36.430037],[-72.34335,-36.429927],[-72.34325,-36.42974],[-72.343169,-36.429587],[-72.342575,-36.428471],[-72.342398,-36.428138],[-72.34213,-36.427634],[-72.341035,-36.425735],[-72.341021,-36.425711],[-72.340703,-36.42516],[-72.340604,-36.424985],[-72.340237,-36.424337],[-72.34023,-36.424324],[-72.340182,-36.424241],[-72.339885,-36.423732],[-72.339832,-36.423635],[-72.339827,-36.423625],[-72.339823,-36.423618],[-72.339794,-36.423565],[-72.341935,-36.423026],[-72.342553,-36.41895],[-72.340115,-36.417458],[-72.340132,-36.417429],[-72.340171,-36.417277],[-72.340185,-36.417221],[-72.340157,-36.416987],[-72.340143,-36.416866],[-72.340135,-36.416802],[-72.340123,-36.416682],[-72.340087,-36.416329],[-72.340046,-36.415939],[-72.340031,-36.41579],[-72.34001,-36.415635],[-72.339981,-36.415411],[-72.339973,-36.41535],[-72.339947,-36.415148],[-72.339925,-36.415071],[-72.339923,-36.415061],[-72.339756,-36.414479],[-72.339724,-36.414365],[-72.339608,-36.413958],[-72.339584,-36.413875],[-72.339542,-36.413736],[-72.339524,-36.413677],[-72.339438,-36.413392],[-72.339409,-36.413298],[-72.339335,-36.413063],[-72.339275,-36.412873],[-72.339259,-36.412822],[-72.339198,-36.412524],[-72.339144,-36.412263],[-72.339141,-36.412199],[-72.339132,-36.41204],[-72.339137,-36.411967],[-72.339169,-36.411463],[-72.339197,-36.411024],[-72.339216,-36.410734],[-72.339236,-36.410595],[-72.339259,-36.410436],[-72.339299,-36.410166],[-72.339272,-36.410017],[-72.339231,-36.409925],[-72.339204,-36.409863],[-72.339165,-36.409797],[-72.339163,-36.409792],[-72.338904,-36.409351],[-72.338736,-36.409063],[-72.33857,-36.40878],[-72.338214,-36.408092],[-72.338127,-36.407923],[-72.337687,-36.406963],[-72.337476,-36.406487],[-72.337059,-36.405457],[-72.337049,-36.405432],[-72.336905,-36.405108],[-72.336736,-36.404728],[-72.336734,-36.404724],[-72.336716,-36.404681],[-72.336679,-36.404597],[-72.33644,-36.404037],[-72.336415,-36.404007],[-72.336306,-36.403873],[-72.336178,-36.403731],[-72.336026,-36.403606],[-72.33578,-36.40344],[-72.335735,-36.403409],[-72.335467,-36.403249],[-72.335255,-36.40316],[-72.335014,-36.40306],[-72.334783,-36.402963],[-72.334298,-36.40277],[-72.334051,-36.402672],[-72.33359,-36.402485],[-72.333465,-36.402434],[-72.332793,-36.402184],[-72.332682,-36.402141],[-72.332175,-36.401946],[-72.332141,-36.401933],[-72.332053,-36.4019],[-72.331959,-36.401864],[-72.331731,-36.401777],[-72.331722,-36.401774],[-72.331534,-36.401703],[-72.3315,-36.40169],[-72.331329,-36.40159],[-72.331281,-36.401561],[-72.331157,-36.401494],[-72.33103,-36.401319],[-72.331014,-36.401282],[-72.330992,-36.401234],[-72.330928,-36.401089],[-72.330857,-36.400929],[-72.330764,-36.400842],[-72.330622,-36.400756],[-72.33056,-36.400745],[-72.330442,-36.400724],[-72.330428,-36.400721],[-72.330309,-36.4007],[-72.330124,-36.400651],[-72.330041,-36.40063],[-72.330029,-36.400627],[-72.329775,-36.400561],[-72.329245,-36.400423],[-72.328651,-36.400301],[-72.328349,-36.400239],[-72.328097,-36.400183],[-72.327725,-36.400102],[-72.327413,-36.400082],[-72.327219,-36.400069],[-72.326859,-36.400093],[-72.326365,-36.400155],[-72.325929,-36.40024],[-72.325399,-36.400343],[-72.324991,-36.400402],[-72.324643,-36.400381],[-72.324388,-36.40034],[-72.324289,-36.400314],[-72.323607,-36.400136],[-72.323213,-36.400033],[-72.321666,-36.399581],[-72.321246,-36.399459],[-72.320848,-36.399343],[-72.320717,-36.399307],[-72.32056,-36.399264],[-72.32036,-36.399208],[-72.320117,-36.399165],[-72.319685,-36.399088],[-72.319197,-36.399001],[-72.31911,-36.398986],[-72.318963,-36.398961],[-72.318581,-36.398896],[-72.318024,-36.3988],[-72.318017,-36.398799],[-72.317547,-36.398707],[-72.317065,-36.398621],[-72.316833,-36.398528],[-72.31644,-36.398255],[-72.316079,-36.397968],[-72.315352,-36.397392],[-72.315327,-36.397373],[-72.315016,-36.397131],[-72.314927,-36.397062],[-72.314706,-36.396889],[-72.314569,-36.396783],[-72.314517,-36.396741],[-72.314034,-36.396351],[-72.313518,-36.395942],[-72.313392,-36.395842],[-72.313386,-36.395837],[-72.313245,-36.395724],[-72.312963,-36.395498],[-72.312668,-36.395267],[-72.312621,-36.39523],[-72.312549,-36.395172],[-72.312503,-36.395136],[-72.312451,-36.395094],[-72.312259,-36.394942],[-72.312208,-36.394901],[-72.311848,-36.394614],[-72.311634,-36.394439],[-72.311312,-36.394189],[-72.310732,-36.393778],[-72.31038,-36.393561],[-72.310251,-36.393481],[-72.310114,-36.39341],[-72.309671,-36.393178],[-72.309213,-36.392975],[-72.308943,-36.392896],[-72.308862,-36.392871],[-72.308537,-36.392845],[-72.308133,-36.392815],[-72.307931,-36.392773],[-72.307725,-36.392675],[-72.307514,-36.392514],[-72.307463,-36.392454],[-72.307351,-36.392321],[-72.307338,-36.392295],[-72.307196,-36.391988],[-72.307167,-36.39192],[-72.307008,-36.39155],[-72.306963,-36.391445],[-72.306954,-36.391425],[-72.306863,-36.391263],[-72.306747,-36.391139],[-72.306604,-36.391044],[-72.306426,-36.390965],[-72.306181,-36.390911],[-72.306155,-36.390908],[-72.306121,-36.390903],[-72.304703,-36.390727],[-72.304139,-36.39067],[-72.303398,-36.390575],[-72.303218,-36.390552],[-72.303025,-36.390528],[-72.302637,-36.390456],[-72.302364,-36.390387],[-72.30219,-36.390304],[-72.302078,-36.390204],[-72.302052,-36.390164],[-72.301812,-36.389793],[-72.301743,-36.389685],[-72.301637,-36.389512],[-72.301594,-36.389441],[-72.301573,-36.389408],[-72.301393,-36.389112],[-72.301303,-36.388964],[-72.30112,-36.388671],[-72.300837,-36.388216],[-72.300817,-36.388184],[-72.300525,-36.387693],[-72.300512,-36.387673],[-72.300509,-36.387667],[-72.300319,-36.387349],[-72.300194,-36.387139],[-72.300094,-36.386952],[-72.300052,-36.386875],[-72.299913,-36.386616],[-72.299889,-36.386541],[-72.299876,-36.386502],[-72.299854,-36.386432],[-72.299823,-36.386273],[-72.299789,-36.386099],[-72.299769,-36.385972],[-72.299752,-36.385864],[-72.299706,-36.385571],[-72.299654,-36.385356],[-72.299597,-36.385121],[-72.29942,-36.384625],[-72.299418,-36.38462],[-72.299361,-36.38446],[-72.299348,-36.384428],[-72.299043,-36.383689],[-72.298929,-36.38341],[-72.298899,-36.383339],[-72.298738,-36.382968],[-72.298574,-36.382593],[-72.298498,-36.382419],[-72.298433,-36.382269],[-72.298376,-36.382138],[-72.298353,-36.382067],[-72.298314,-36.381945],[-72.298276,-36.381743],[-72.298275,-36.38173],[-72.298254,-36.381473],[-72.298243,-36.381338],[-72.298231,-36.381179],[-72.298163,-36.380889],[-72.298121,-36.380712],[-72.298062,-36.380591],[-72.297936,-36.380434],[-72.297853,-36.380356],[-72.297722,-36.380232],[-72.297656,-36.380181],[-72.297568,-36.380111],[-72.29746,-36.380027],[-72.297355,-36.379915],[-72.2973,-36.379784],[-72.297279,-36.379639],[-72.297281,-36.37962],[-72.2973,-36.379423],[-72.297325,-36.379341],[-72.297349,-36.37926],[-72.297393,-36.379113],[-72.297465,-36.378907],[-72.297519,-36.378752],[-72.297562,-36.378509],[-72.297564,-36.378422],[-72.297574,-36.377875],[-72.297575,-36.377838],[-72.297576,-36.377757],[-72.297577,-36.377656],[-72.297577,-36.377534],[-72.297577,-36.377357],[-72.297578,-36.377199],[-72.297578,-36.377106],[-72.297578,-36.377007],[-72.297579,-36.376916],[-72.297579,-36.376893],[-72.297592,-36.376623],[-72.2976,-36.376459],[-72.297612,-36.376207],[-72.297627,-36.375881],[-72.297634,-36.375741],[-72.297646,-36.3755],[-72.297653,-36.375354],[-72.297657,-36.375257],[-72.297666,-36.375046],[-72.29768,-36.374722],[-72.297686,-36.374585],[-72.297705,-36.374492],[-72.297708,-36.374474],[-72.297729,-36.374375],[-72.297737,-36.374335],[-72.297755,-36.374311],[-72.297758,-36.374307],[-72.297778,-36.374281],[-72.297846,-36.374191],[-72.297874,-36.374154],[-72.29789,-36.374141],[-72.297993,-36.374051],[-72.298131,-36.373929],[-72.298178,-36.373888],[-72.298216,-36.373855],[-72.298307,-36.373785],[-72.298457,-36.37367],[-72.298651,-36.373521],[-72.29871,-36.373476],[-72.298869,-36.373354],[-72.298905,-36.373327],[-72.298965,-36.37328],[-72.299148,-36.37314],[-72.299315,-36.373011],[-72.299391,-36.372953],[-72.299548,-36.372833],[-72.299649,-36.372755],[-72.299726,-36.372693],[-72.299926,-36.372533],[-72.300063,-36.372423],[-72.300089,-36.372402],[-72.300229,-36.372289],[-72.30029,-36.37224],[-72.30039,-36.37216],[-72.300453,-36.37211],[-72.300648,-36.371954],[-72.300722,-36.371894],[-72.300967,-36.371698],[-72.301067,-36.371618],[-72.301443,-36.371321],[-72.301474,-36.371297],[-72.301552,-36.371235],[-72.301652,-36.371173],[-72.301745,-36.37114],[-72.301876,-36.371142],[-72.302072,-36.371203],[-72.302182,-36.371237],[-72.302545,-36.371349],[-72.3026,-36.371365],[-72.30288,-36.371447],[-72.302997,-36.371444],[-72.303036,-36.371429],[-72.303113,-36.371399],[-72.303235,-36.371273],[-72.303299,-36.371173],[-72.303387,-36.371033],[-72.30344,-36.37095],[-72.303493,-36.370883],[-72.303625,-36.370716],[-72.303718,-36.370586],[-72.30375,-36.370541],[-72.303785,-36.370493],[-72.303936,-36.370281],[-72.304113,-36.370033],[-72.304327,-36.369743],[-72.304424,-36.369611],[-72.304546,-36.369446],[-72.304761,-36.369154],[-72.304801,-36.369101],[-72.305024,-36.368798],[-72.305121,-36.368666],[-72.305254,-36.368487],[-72.305264,-36.368472],[-72.305381,-36.368319],[-72.3056,-36.36803],[-72.305746,-36.367879],[-72.305838,-36.367785],[-72.305945,-36.367675],[-72.306097,-36.367548],[-72.306377,-36.367313],[-72.306379,-36.367312],[-72.306818,-36.366944],[-72.30717,-36.366649],[-72.307289,-36.36655],[-72.307558,-36.366333],[-72.307586,-36.36631],[-72.308029,-36.365952],[-72.308146,-36.365881],[-72.30817,-36.365867],[-72.308323,-36.365773],[-72.308492,-36.36568],[-72.30856,-36.365643],[-72.308625,-36.365598],[-72.308667,-36.365569],[-72.308668,-36.365568],[-72.308753,-36.365486],[-72.308766,-36.365459],[-72.308785,-36.365422],[-72.308919,-36.365155],[-72.308921,-36.365152],[-72.308935,-36.365129],[-72.30899,-36.365037],[-72.309016,-36.364993],[-72.30906,-36.36492],[-72.309081,-36.364872],[-72.309104,-36.364819],[-72.30916,-36.36469],[-72.309347,-36.364337],[-72.3094,-36.364237],[-72.309481,-36.364119],[-72.309524,-36.364057],[-72.309595,-36.363954],[-72.30979,-36.363759],[-72.310063,-36.363571],[-72.310171,-36.363497],[-72.310176,-36.363494],[-72.310188,-36.363485],[-72.31062,-36.363189],[-72.310708,-36.363129],[-72.310759,-36.363094],[-72.310875,-36.363014],[-72.311438,-36.36263],[-72.312227,-36.362093],[-72.312347,-36.362012],[-72.312372,-36.361996],[-72.313223,-36.361427],[-72.313526,-36.361224],[-72.313929,-36.360953],[-72.314397,-36.360638],[-72.314442,-36.360607],[-72.31454,-36.360542],[-72.31478,-36.36035],[-72.314812,-36.36032],[-72.314912,-36.360228],[-72.31531,-36.35986],[-72.315775,-36.359048],[-72.3158,-36.359005],[-72.315935,-36.358768],[-72.316265,-36.358724],[-72.31687,-36.358662],[-72.316871,-36.358662],[-72.317412,-36.358576],[-72.317711,-36.358476],[-72.317847,-36.358415],[-72.317876,-36.358402],[-72.318187,-36.358148],[-72.31856,-36.35779],[-72.318644,-36.357706],[-72.31878,-36.35757],[-72.319039,-36.357315],[-72.320289,-36.35595],[-72.32036,-36.35587],[-72.320425,-36.355812],[-72.32046,-36.35578],[-72.32161,-36.35472],[-72.32165,-36.35467],[-72.32264,-36.35358],[-72.322702,-36.353465],[-72.322783,-36.353314],[-72.32285,-36.35319],[-72.32307,-36.35237],[-72.32347,-36.35151],[-72.32389,-36.35086],[-72.32449,-36.35029],[-72.32544,-36.34977],[-72.32602,-36.34955],[-72.32661,-36.34933],[-72.32743,-36.34889],[-72.328472,-36.348123],[-72.328817,-36.347869],[-72.32902,-36.34772],[-72.33061,-36.34653],[-72.33259,-36.34469],[-72.33327,-36.34376],[-72.33337,-36.34361],[-72.33365,-36.34273],[-72.33364,-36.3422],[-72.33364,-36.34218],[-72.33363,-36.34158],[-72.3337,-36.34064],[-72.33399,-36.33941],[-72.33403,-36.33863],[-72.3341,-36.3374],[-72.33425,-36.33589],[-72.33425,-36.33589],[-72.33424,-36.33586],[-72.33424,-36.33586],[-72.33384,-36.335],[-72.33384,-36.335],[-72.333759,-36.334846],[-72.33342,-36.3342],[-72.33342,-36.3342],[-72.33301,-36.33343],[-72.33301,-36.33343],[-72.33298,-36.33338],[-72.33298,-36.33338],[-72.33264,-36.33266],[-72.33264,-36.33266],[-72.33195,-36.33117],[-72.33195,-36.33117],[-72.33106,-36.32947],[-72.33106,-36.32947],[-72.330287,-36.327868],[-72.33021,-36.32771],[-72.33021,-36.32771],[-72.32995,-36.32719],[-72.32995,-36.32719],[-72.32983,-36.32693],[-72.32983,-36.32693],[-72.32972,-36.32672],[-72.32972,-36.32672],[-72.32898,-36.32529],[-72.32898,-36.32529],[-72.32831,-36.324],[-72.32831,-36.324],[-72.32805,-36.32345],[-72.32805,-36.32345],[-72.3279,-36.32314],[-72.3279,-36.32314],[-72.32687,-36.32101],[-72.32687,-36.32101],[-72.326813,-36.32089],[-72.32668,-36.32061],[-72.32668,-36.32061],[-72.3261,-36.3194],[-72.3261,-36.3194],[-72.32556,-36.31829],[-72.32556,-36.31829],[-72.3255,-36.31815],[-72.3255,-36.31815],[-72.32408,-36.3153],[-72.32408,-36.3153],[-72.323365,-36.313905],[-72.32249,-36.3122],[-72.32249,-36.3122],[-72.3219,-36.31095],[-72.3219,-36.31095],[-72.32172,-36.31025],[-72.32172,-36.31025],[-72.32168,-36.31018],[-72.32168,-36.31018],[-72.32124,-36.30937],[-72.32124,-36.30937],[-72.32072,-36.30842],[-72.32072,-36.30842],[-72.32029,-36.30765],[-72.32029,-36.30765],[-72.319878,-36.306977],[-72.319829,-36.306898],[-72.31961,-36.30654],[-72.31961,-36.30654],[-72.31839,-36.30463],[-72.31839,-36.30463],[-72.31749,-36.30327],[-72.31749,-36.30327],[-72.31709,-36.30267],[-72.31709,-36.30267],[-72.31671,-36.30208],[-72.31671,-36.30208],[-72.31663,-36.30179],[-72.31663,-36.30179],[-72.31657,-36.30155],[-72.31657,-36.30142],[-72.31658,-36.3012],[-72.31675,-36.30075],[-72.316831,-36.300646],[-72.31715,-36.30024],[-72.3176,-36.29935],[-72.31772,-36.29879],[-72.31775,-36.29865],[-72.31777,-36.29856],[-72.31797,-36.29771],[-72.31806,-36.29611],[-72.318109,-36.29559],[-72.3182,-36.29463],[-72.31839,-36.29246],[-72.31843,-36.29201],[-72.31843,-36.29201],[-72.31829,-36.29155],[-72.31829,-36.29155],[-72.31823,-36.29101],[-72.31843,-36.28989],[-72.31865,-36.28854],[-72.318674,-36.288386],[-72.319,-36.28633],[-72.31927,-36.28483],[-72.319496,-36.283453],[-72.31957,-36.283],[-72.31965,-36.28264],[-72.31968,-36.28248],[-72.31973,-36.2822],[-72.31973,-36.2822],[-72.31965,-36.28175],[-72.31962,-36.28125],[-72.31956,-36.27984],[-72.31869,-36.28036],[-72.31555,-36.28195],[-72.315502,-36.281975],[-72.31447,-36.28252],[-72.31181,-36.28385],[-72.31066,-36.28446],[-72.31008,-36.28475],[-72.30941,-36.28508],[-72.308159,-36.285693],[-72.30747,-36.28603],[-72.30567,-36.286942],[-72.302905,-36.28764],[-72.302789,-36.288404],[-72.30272,-36.28844],[-72.30128,-36.28919],[-72.30123,-36.28921],[-72.30055,-36.28952],[-72.29979,-36.28876],[-72.29825,-36.28726],[-72.29803,-36.28705],[-72.29763,-36.28675],[-72.29718,-36.28648],[-72.29672,-36.28609],[-72.296,-36.28548],[-72.296,-36.28548],[-72.295984,-36.285457],[-72.29572,-36.28509],[-72.29572,-36.28509],[-72.29548,-36.28449],[-72.29548,-36.28449],[-72.29489,-36.28341],[-72.29489,-36.28341],[-72.29429,-36.28262],[-72.29367,-36.28205],[-72.29251,-36.28108],[-72.29198,-36.28061],[-72.29198,-36.28061],[-72.29146,-36.28004],[-72.29146,-36.28004],[-72.29081,-36.27934],[-72.29081,-36.27934],[-72.290556,-36.278968],[-72.29006,-36.27824],[-72.29006,-36.27824],[-72.2897,-36.27741],[-72.2897,-36.27741],[-72.2886,-36.27572],[-72.2886,-36.27572],[-72.28762,-36.27426],[-72.28762,-36.27426],[-72.28684,-36.27283],[-72.28684,-36.27283],[-72.286565,-36.272115],[-72.28654,-36.27205],[-72.28654,-36.27202],[-72.28654,-36.27202],[-72.28648,-36.27171],[-72.28648,-36.27171],[-72.28639,-36.27124],[-72.28639,-36.27124],[-72.2862,-36.27085],[-72.2862,-36.27085],[-72.28588,-36.27022],[-72.28588,-36.27022],[-72.2851,-36.26911],[-72.28438,-36.26852],[-72.28302,-36.26756],[-72.28302,-36.26756],[-72.28262,-36.26702],[-72.28262,-36.26702],[-72.28234,-36.26652],[-72.28234,-36.26652],[-72.28212,-36.26614],[-72.28212,-36.26614],[-72.282,-36.26594],[-72.282,-36.26594],[-72.281653,-36.265495],[-72.28105,-36.26472],[-72.28105,-36.26472],[-72.28046,-36.264],[-72.28046,-36.264],[-72.28018,-36.26365],[-72.28018,-36.26365],[-72.27997,-36.26338],[-72.27852,-36.26196],[-72.27774,-36.26135],[-72.27774,-36.26135],[-72.27755,-36.26113],[-72.277336,-36.261059],[-72.277336,-36.261059],[-72.277294,-36.260716],[-72.277262,-36.260507],[-72.277326,-36.260331],[-72.27739,-36.26017],[-72.277503,-36.259801],[-72.277728,-36.259351],[-72.277792,-36.25919],[-72.278001,-36.258949],[-72.278338,-36.258805],[-72.278563,-36.258709],[-72.279014,-36.258596],[-72.279334,-36.2585],[-72.279813,-36.258325],[-72.280325,-36.258022],[-72.280538,-36.257915],[-72.282692,-36.257372],[-72.282856,-36.256286],[-72.282939,-36.256269],[-72.283241,-36.256129],[-72.283466,-36.256067],[-72.283683,-36.256083],[-72.283904,-36.256186],[-72.28404,-36.256184],[-72.284104,-36.256074],[-72.284088,-36.255914],[-72.283976,-36.255721],[-72.28396,-36.255544],[-72.284079,-36.255423],[-72.284312,-36.255442],[-72.284567,-36.255422],[-72.284811,-36.255361],[-72.285049,-36.255245],[-72.285274,-36.255144],[-72.28555,-36.255014],[-72.285809,-36.254911],[-72.286018,-36.254974],[-72.286158,-36.255167],[-72.286313,-36.255261],[-72.286569,-36.255229],[-72.286794,-36.255129],[-72.286988,-36.255105],[-72.287174,-36.255191],[-72.287365,-36.255239],[-72.287638,-36.255095],[-72.287802,-36.254935],[-72.287996,-36.254749],[-72.288144,-36.254637],[-72.288296,-36.254548],[-72.288415,-36.254462],[-72.288578,-36.254531],[-72.288702,-36.254694],[-72.288873,-36.254756],[-72.289044,-36.254718],[-72.289192,-36.254639],[-72.289345,-36.254534],[-72.289441,-36.254476],[-72.289525,-36.254423],[-72.289649,-36.254469],[-72.289835,-36.254586],[-72.289967,-36.254733],[-72.290083,-36.254834],[-72.290254,-36.254943],[-72.290437,-36.254973],[-72.2906,-36.255024],[-72.290784,-36.255146],[-72.290988,-36.255208],[-72.291222,-36.255289],[-72.291477,-36.25532],[-72.291805,-36.255237],[-72.292139,-36.255105],[-72.292627,-36.254865],[-72.292934,-36.254728],[-72.293147,-36.254632],[-72.293533,-36.254381],[-72.293916,-36.254122],[-72.294108,-36.253882],[-72.294424,-36.253614],[-72.294702,-36.253336],[-72.295056,-36.252943],[-72.295382,-36.252541],[-72.295727,-36.25211],[-72.296063,-36.251736],[-72.296446,-36.25118],[-72.296772,-36.250711],[-72.29705,-36.250308],[-72.297219,-36.25],[-72.297366,-36.249733],[-72.297605,-36.249235],[-72.29772,-36.248938],[-72.29772,-36.248733],[-72.29772,-36.24865],[-72.297663,-36.248286],[-72.297653,-36.248047],[-72.297653,-36.247855],[-72.297672,-36.247711],[-72.297749,-36.247539],[-72.297912,-36.247318],[-72.298621,-36.246734],[-72.299167,-36.246283],[-72.299752,-36.245862],[-72.300183,-36.245517],[-72.30047,-36.245316],[-72.300748,-36.245134],[-72.300959,-36.244942],[-72.301304,-36.244578],[-72.301534,-36.2443],[-72.301745,-36.244022],[-72.302052,-36.2436],[-72.302368,-36.243265],[-72.302655,-36.24292],[-72.302718,-36.242867],[-72.302981,-36.242642],[-72.303307,-36.242307],[-72.303566,-36.241971],[-72.303661,-36.241684],[-72.303901,-36.241339],[-72.30415,-36.241061],[-72.304639,-36.240774],[-72.30531,-36.240448],[-72.306095,-36.24016],[-72.306718,-36.239911],[-72.307015,-36.239719],[-72.307322,-36.239518],[-72.307629,-36.23924],[-72.30783,-36.238982],[-72.308021,-36.238665],[-72.308136,-36.238349],[-72.308232,-36.23809],[-72.308453,-36.237899],[-72.308644,-36.237726],[-72.308741,-36.237629],[-72.308932,-36.237439],[-72.309104,-36.237171],[-72.309258,-36.236874],[-72.309373,-36.236701],[-72.309564,-36.236576],[-72.309947,-36.236366],[-72.310283,-36.236136],[-72.310676,-36.23581],[-72.310896,-36.235628],[-72.311097,-36.235475],[-72.311283,-36.235361],[-72.311511,-36.235309],[-72.31178,-36.235268],[-72.312018,-36.235216],[-72.312257,-36.235072],[-72.312477,-36.234756],[-72.312631,-36.234497],[-72.312822,-36.234238],[-72.313052,-36.234028],[-72.313378,-36.233817],[-72.313608,-36.233635],[-72.313713,-36.233472],[-72.313723,-36.233338],[-72.313675,-36.233098],[-72.313627,-36.232887],[-72.313685,-36.232811],[-72.313752,-36.232791],[-72.313953,-36.232811],[-72.31426,-36.232801],[-72.314585,-36.232772],[-72.314779,-36.232713],[-72.3151,-36.23263],[-72.315139,-36.232621],[-72.316093,-36.233207],[-72.317815,-36.232771],[-72.318058,-36.23293],[-72.318284,-36.233175],[-72.318505,-36.23329],[-72.318725,-36.233338],[-72.319089,-36.233386],[-72.319367,-36.233405],[-72.319674,-36.233376],[-72.319894,-36.233347],[-72.320019,-36.233309],[-72.320229,-36.233194],[-72.320421,-36.233002],[-72.320699,-36.232772],[-72.320938,-36.232561],[-72.321073,-36.232466],[-72.321255,-36.232437],[-72.321561,-36.232466],[-72.321916,-36.232514],[-72.322243,-36.232514],[-72.322261,-36.232514],[-72.322625,-36.232456],[-72.322941,-36.23237],[-72.323085,-36.232341],[-72.323392,-36.232331],[-72.323689,-36.23236],[-72.324043,-36.232523],[-72.32434,-36.232657],[-72.324589,-36.232772],[-72.324819,-36.23282],[-72.325164,-36.23283],[-72.325509,-36.232849],[-72.325806,-36.232839],[-72.326075,-36.232801],[-72.326305,-36.232772],[-72.326947,-36.232571],[-72.327282,-36.232485],[-72.327531,-36.232466],[-72.327791,-36.232423],[-72.328039,-36.232444],[-72.32838,-36.232496],[-72.328742,-36.23261],[-72.329011,-36.232692],[-72.32929,-36.232816],[-72.32959,-36.233003],[-72.329911,-36.233065],[-72.330304,-36.233106],[-72.330656,-36.233075],[-72.330943,-36.23306],[-72.33099,-36.233058],[-72.33123,-36.23305],[-72.331604,-36.233098],[-72.33191,-36.233203],[-72.332265,-36.23329],[-72.332581,-36.233357],[-72.333012,-36.233347],[-72.333281,-36.233357],[-72.333578,-36.23329],[-72.333856,-36.23328],[-72.334143,-36.233328],[-72.334383,-36.233414],[-72.33466,-36.233644],[-72.335005,-36.233845],[-72.335379,-36.23396],[-72.335782,-36.234037],[-72.336299,-36.234114],[-72.336644,-36.23421],[-72.337018,-36.234296],[-72.337363,-36.234401],[-72.33765,-36.234555],[-72.337947,-36.234765],[-72.338225,-36.234947],[-72.338417,-36.235101],[-72.33858,-36.235177],[-72.338848,-36.235254],[-72.338973,-36.235285],[-72.339155,-36.235331],[-72.339662,-36.23534],[-72.340055,-36.23535],[-72.340399,-36.23533],[-72.34073,-36.235433],[-72.34105,-36.235547],[-72.341443,-36.235795],[-72.342054,-36.236095],[-72.34254,-36.236374],[-72.342881,-36.236592],[-72.343285,-36.236787],[-72.343668,-36.236845],[-72.343861,-36.236845],[-72.344233,-36.236845],[-72.344751,-36.236826],[-72.345144,-36.236912],[-72.34546,-36.237084],[-72.345719,-36.23742],[-72.345761,-36.237501],[-72.345843,-36.237659],[-72.345977,-36.237985],[-72.34614,-36.238215],[-72.346341,-36.238359],[-72.346936,-36.238522],[-72.347434,-36.238685],[-72.347721,-36.238857],[-72.34798,-36.239125],[-72.348143,-36.239403],[-72.348277,-36.239911],[-72.348315,-36.240266],[-72.348354,-36.240793],[-72.34843,-36.241138],[-72.348584,-36.241588],[-72.349159,-36.24246],[-72.349446,-36.242978],[-72.349638,-36.243284],[-72.349914,-36.243625],[-72.350266,-36.243976],[-72.350435,-36.244184],[-72.350586,-36.244369],[-72.350897,-36.244711],[-72.3513,-36.244969],[-72.351569,-36.245104],[-72.351838,-36.245207],[-72.352117,-36.245197],[-72.352479,-36.245187],[-72.352831,-36.245373],[-72.353131,-36.245662],[-72.353327,-36.245942],[-72.353596,-36.246335],[-72.353845,-36.246717],[-72.354186,-36.247121],[-72.354496,-36.247359],[-72.354899,-36.247493],[-72.355386,-36.247514],[-72.355838,-36.247548],[-72.35623,-36.247558],[-72.356566,-36.247596],[-72.35694,-36.24775],[-72.357304,-36.248008],[-72.357562,-36.248277],[-72.357725,-36.248516],[-72.357869,-36.248823],[-72.357946,-36.249196],[-72.357994,-36.24958],[-72.358089,-36.249819],[-72.3582,-36.249912],[-72.358173,-36.250091],[-72.362712,-36.252875],[-72.365063,-36.25228],[-72.365094,-36.25232],[-72.365152,-36.252598],[-72.365152,-36.25279],[-72.365123,-36.252972],[-72.364922,-36.253192],[-72.364893,-36.253298],[-72.364941,-36.253403],[-72.365027,-36.25347],[-72.365142,-36.253556],[-72.365372,-36.253643],[-72.365584,-36.253688],[-72.36576,-36.253781],[-72.36587,-36.253949],[-72.365957,-36.254045],[-72.36612,-36.25416],[-72.366426,-36.254285],[-72.366804,-36.254288],[-72.367125,-36.25434],[-72.367404,-36.254412],[-72.36757,-36.254516],[-72.367807,-36.254702],[-72.368066,-36.254774],[-72.368542,-36.254909],[-72.368852,-36.254981],[-72.369152,-36.255064],[-72.3694,-36.255147],[-72.369648,-36.255167],[-72.369907,-36.25524],[-72.370176,-36.255385],[-72.370507,-36.255623],[-72.370766,-36.255819],[-72.371034,-36.255985],[-72.37149,-36.25614],[-72.371852,-36.25616],[-72.372126,-36.256231],[-72.372172,-36.256243],[-72.372338,-36.256347],[-72.372462,-36.256388],[-72.372679,-36.256295],[-72.372971,-36.256153],[-72.373548,-36.255716],[-72.374086,-36.255354],[-72.374725,-36.254956],[-72.375089,-36.254649],[-72.375414,-36.25439],[-72.375673,-36.254227],[-72.375865,-36.254143],[-72.37602,-36.254019],[-72.376181,-36.253949],[-72.376444,-36.253823],[-72.376702,-36.25375],[-72.377023,-36.253678],[-72.377385,-36.253657],[-72.377618,-36.253662],[-72.377964,-36.253554],[-72.378223,-36.253513],[-72.378331,-36.253517],[-72.378907,-36.25387],[-72.37896,-36.253949],[-72.379056,-36.254151],[-72.37919,-36.254275],[-72.379353,-36.254342],[-72.379564,-36.254342],[-72.379629,-36.254312],[-72.382106,-36.255831],[-72.38149,-36.259919],[-72.38603,-36.262702],[-72.391188,-36.261396],[-72.391805,-36.257308],[-72.396962,-36.256002],[-72.397579,-36.251912],[-72.393038,-36.24913],[-72.393655,-36.24504],[-72.389114,-36.242257],[-72.389124,-36.242193],[-72.38929,-36.242077],[-72.389491,-36.241856],[-72.389577,-36.241617],[-72.389616,-36.240965],[-72.389683,-36.240237],[-72.389759,-36.239787],[-72.389826,-36.239307],[-72.389999,-36.238876],[-72.390181,-36.23855],[-72.390516,-36.23809],[-72.39063,-36.23794],[-72.390833,-36.237669],[-72.391206,-36.237199],[-72.391503,-36.236835],[-72.391752,-36.236576],[-72.391944,-36.236423],[-72.392002,-36.23627],[-72.392088,-36.236002],[-72.392126,-36.2358],[-72.392117,-36.23557],[-72.392059,-36.235379],[-72.391954,-36.235187],[-72.39182,-36.234976],[-72.391551,-36.23467],[-72.391293,-36.234449],[-72.391158,-36.234334],[-72.391005,-36.234152],[-72.390976,-36.233999],[-72.390967,-36.233874],[-72.391005,-36.233769],[-72.391082,-36.233663],[-72.391273,-36.233539],[-72.391666,-36.233395],[-72.392538,-36.23329],[-72.393171,-36.233213],[-72.393707,-36.233156],[-72.393966,-36.23305],[-72.394119,-36.232945],[-72.394282,-36.23282],[-72.394359,-36.232734],[-72.394512,-36.232485],[-72.394589,-36.232322],[-72.39465,-36.232246],[-72.395505,-36.23277],[-72.397734,-36.232205],[-72.397777,-36.232205],[-72.398089,-36.232168],[-72.398475,-36.232076],[-72.398765,-36.231944],[-72.400662,-36.231463],[-72.401069,-36.228766],[-72.40125,-36.228585],[-72.401526,-36.228419],[-72.401948,-36.228328],[-72.402297,-36.228383],[-72.402683,-36.228493],[-72.402941,-36.228603],[-72.403271,-36.228622],[-72.403621,-36.228603],[-72.404098,-36.228364],[-72.404447,-36.227997],[-72.405146,-36.227409],[-72.405366,-36.227096],[-72.405752,-36.226637],[-72.405881,-36.226325],[-72.405934,-36.226191],[-72.406436,-36.226064],[-72.406496,-36.225669],[-72.406738,-36.225638],[-72.407317,-36.225566],[-72.407948,-36.225566],[-72.408507,-36.225545],[-72.40895,-36.225461],[-72.40928,-36.225314],[-72.409685,-36.224983],[-72.410015,-36.224652],[-72.410383,-36.224175],[-72.410787,-36.223642],[-72.410989,-36.223366],[-72.411275,-36.223052],[-72.411725,-36.222886],[-72.41179,-36.222922],[-72.41225,-36.22494],[-72.41241,-36.22609],[-72.41251,-36.22742],[-72.41355,-36.22744],[-72.41394,-36.22754],[-72.41416,-36.22761],[-72.414652,-36.227915],[-72.415,-36.22813],[-72.41578,-36.22846],[-72.41685,-36.22889],[-72.41809,-36.22951],[-72.41842,-36.22951],[-72.419061,-36.229332],[-72.420676,-36.230321],[-72.425834,-36.229013],[-72.425898,-36.228583],[-72.42612,-36.22851],[-72.42705,-36.22812],[-72.4276,-36.22803],[-72.42822,-36.22793],[-72.42935,-36.22761],[-72.43096,-36.22713],[-72.43184,-36.22693],[-72.43372,-36.22683],[-72.43377,-36.22705],[-72.43386,-36.22747],[-72.43424,-36.22775],[-72.4347,-36.22782],[-72.43523,-36.22799],[-72.43547,-36.22826],[-72.4355,-36.22861],[-72.43527,-36.22899],[-72.43509,-36.22946],[-72.43504,-36.22985],[-72.43533,-36.23027],[-72.435494,-36.230496],[-72.43562,-36.23067],[-72.4359,-36.23081],[-72.436021,-36.230784],[-72.43623,-36.23074],[-72.43669,-36.23064],[-72.43734,-36.2304],[-72.43793,-36.23028],[-72.43845,-36.23022],[-72.4388,-36.22997],[-72.43924,-36.22977],[-72.438641,-36.232389],[-72.437384,-36.237886],[-72.434301,-36.238668],[-72.429759,-36.235886],[-72.424601,-36.237195],[-72.423985,-36.241286],[-72.418827,-36.242594],[-72.41821,-36.246684],[-72.422752,-36.249466],[-72.427911,-36.248158],[-72.428527,-36.244068],[-72.433685,-36.242759],[-72.435952,-36.244147],[-72.43511,-36.24783],[-72.43807,-36.246585],[-72.44343,-36.24433],[-72.44343,-36.244259],[-72.443432,-36.243929],[-72.444002,-36.240141],[-72.443489,-36.239827],[-72.44352,-36.2397],[-72.44434,-36.2382],[-72.44644,-36.23833],[-72.4481,-36.23882],[-72.449209,-36.238512],[-72.45506,-36.23689],[-72.45533,-36.23976],[-72.455546,-36.241146],[-72.45566,-36.24188],[-72.45455,-36.24271],[-72.45345,-36.243301],[-72.45185,-36.24416],[-72.45057,-36.24463],[-72.451203,-36.246183],[-72.447929,-36.247013],[-72.447313,-36.251104],[-72.442154,-36.252413],[-72.441538,-36.256502],[-72.436379,-36.257811],[-72.435763,-36.2619],[-72.440306,-36.264681],[-72.445465,-36.263373],[-72.446081,-36.259283],[-72.450995,-36.258037],[-72.45115,-36.258468],[-72.45219,-36.25993],[-72.455168,-36.264844],[-72.455167,-36.264845],[-72.455168,-36.264845],[-72.457825,-36.269231],[-72.459006,-36.270548],[-72.459251,-36.27068],[-72.459095,-36.271714],[-72.453936,-36.273023],[-72.45332,-36.277111],[-72.457863,-36.279891],[-72.457247,-36.28398],[-72.461792,-36.286759],[-72.461176,-36.290847],[-72.46572,-36.293626],[-72.465104,-36.297714],[-72.459944,-36.299022],[-72.459328,-36.303108],[-72.454167,-36.304416],[-72.453551,-36.308502],[-72.448391,-36.309809],[-72.443847,-36.30703],[-72.438687,-36.308336],[-72.438071,-36.312422],[-72.442615,-36.315201],[-72.441998,-36.319286],[-72.446542,-36.322065],[-72.445926,-36.32615],[-72.440766,-36.327456],[-72.440149,-36.331541],[-72.434989,-36.332846],[-72.434373,-36.33693],[-72.429212,-36.338235],[-72.428596,-36.342318],[-72.423435,-36.343623],[-72.422819,-36.347705],[-72.417658,-36.349009],[-72.413115,-36.346231],[-72.407955,-36.347534],[-72.403412,-36.344755],[-72.398252,-36.346058],[-72.397635,-36.35014],[-72.402178,-36.352919],[-72.407338,-36.351616],[-72.411881,-36.354395],[-72.411264,-36.358477],[-72.406104,-36.35978],[-72.401561,-36.357001],[-72.396401,-36.358304],[-72.395784,-36.362385],[-72.390624,-36.363687],[-72.390007,-36.367768],[-72.384847,-36.36907],[-72.38423,-36.37315],[-72.388773,-36.375929],[-72.393933,-36.374628],[-72.398476,-36.377406],[-72.403637,-36.376104],[-72.404254,-36.372024],[-72.409414,-36.370721],[-72.413958,-36.373499],[-72.419119,-36.372197],[-72.423663,-36.374974],[-72.423046,-36.379055],[-72.427591,-36.381832],[-72.432752,-36.380529],[-72.437297,-36.383307],[-72.442459,-36.382003],[-72.443075,-36.377922],[-72.43853,-36.375145],[-72.433369,-36.376449],[-72.428824,-36.373671],[-72.429441,-36.36959],[-72.434602,-36.368286],[-72.435218,-36.364205],[-72.440379,-36.3629],[-72.444924,-36.365678],[-72.450086,-36.364373],[-72.454631,-36.367151],[-72.459793,-36.365846],[-72.464339,-36.368622],[-72.463723,-36.372704],[-72.458561,-36.374009],[-72.457944,-36.378091],[-72.452782,-36.379395],[-72.452166,-36.383476],[-72.447004,-36.38478],[-72.446388,-36.38886],[-72.441226,-36.390164],[-72.436681,-36.387387],[-72.431519,-36.38869],[-72.426974,-36.385913],[-72.421813,-36.387215],[-72.417269,-36.384438],[-72.412107,-36.38574],[-72.407563,-36.382962],[-72.402403,-36.384264],[-72.397859,-36.381486],[-72.392699,-36.382788],[-72.392082,-36.386867],[-72.386921,-36.388168],[-72.386304,-36.392247],[-72.381144,-36.393548],[-72.380526,-36.397626],[-72.375366,-36.398926],[-72.374749,-36.403004],[-72.379292,-36.405782],[-72.384452,-36.404482],[-72.388996,-36.40726],[-72.388379,-36.411338],[-72.383218,-36.412638],[-72.382601,-36.416715],[-72.387144,-36.419492],[-72.386527,-36.423569],[-72.391071,-36.426346],[-72.396232,-36.425047],[-72.400777,-36.427823],[-72.405938,-36.426523],[-72.406555,-36.422446],[-72.411717,-36.421146],[-72.412334,-36.417068],[-72.407789,-36.414291],[-72.408406,-36.410214],[-72.413568,-36.408912],[-72.418112,-36.411689],[-72.417495,-36.415767],[-72.422041,-36.418544],[-72.427203,-36.417242],[-72.427819,-36.413164],[-72.423274,-36.410388],[-72.423891,-36.406309],[-72.419346,-36.403533],[-72.419963,-36.399454],[-72.425124,-36.398152],[-72.429669,-36.400928],[-72.434831,-36.399626],[-72.439376,-36.402402],[-72.43876,-36.406481],[-72.443306,-36.409257],[-72.442689,-36.413336],[-72.447235,-36.416112],[-72.452398,-36.414809],[-72.453014,-36.41073],[-72.458177,-36.409427],[-72.458793,-36.405348],[-72.463956,-36.404044],[-72.464572,-36.399965],[-72.460026,-36.397189],[-72.454863,-36.398493],[-72.450317,-36.395717],[-72.450934,-36.391637],[-72.456096,-36.390333],[-72.456712,-36.386252],[-72.461874,-36.384948],[-72.46249,-36.380867],[-72.467653,-36.379562],[-72.472199,-36.382338],[-72.477361,-36.381033],[-72.477977,-36.376952],[-72.473431,-36.374175],[-72.474047,-36.370094],[-72.469501,-36.367317],[-72.470117,-36.363235],[-72.465571,-36.360458],[-72.466187,-36.356375],[-72.461641,-36.353598],[-72.461731,-36.353005],[-72.470702,-36.350214],[-72.471965,-36.350986],[-72.471349,-36.355069],[-72.475895,-36.357846],[-72.475279,-36.361929],[-72.479825,-36.364705],[-72.484987,-36.363399],[-72.485603,-36.359316],[-72.490766,-36.358009],[-72.491381,-36.353926],[-72.496005,-36.352755],[-72.49627,-36.35281],[-72.49669,-36.35293],[-72.49723,-36.35314],[-72.497607,-36.353268],[-72.49776,-36.35332],[-72.49822,-36.35354],[-72.49856,-36.35372],[-72.498876,-36.354043],[-72.49903,-36.3542],[-72.49924,-36.35459],[-72.49939,-36.35499],[-72.49942,-36.35522],[-72.49955,-36.35556],[-72.49972,-36.35593],[-72.5,-36.35626],[-72.500284,-36.356483],[-72.500513,-36.356655],[-72.500685,-36.356763],[-72.500823,-36.356841],[-72.500871,-36.356853],[-72.500475,-36.359479],[-72.495312,-36.360786],[-72.494697,-36.364869],[-72.489534,-36.366175],[-72.488918,-36.370258],[-72.483756,-36.371564],[-72.48314,-36.375646],[-72.487687,-36.378422],[-72.49285,-36.377116],[-72.497397,-36.379891],[-72.50256,-36.378585],[-72.507108,-36.38136],[-72.506492,-36.385442],[-72.51104,-36.388216],[-72.516204,-36.38691],[-72.51682,-36.382828],[-72.512271,-36.380053],[-72.512887,-36.375971],[-72.51805,-36.374663],[-72.518666,-36.370581],[-72.514118,-36.367806],[-72.514733,-36.363722],[-72.519896,-36.362414],[-72.520068,-36.361272],[-72.52014,-36.36126],[-72.5213,-36.36082],[-72.5217,-36.36065],[-72.52233,-36.36058],[-72.5228,-36.36063],[-72.52303,-36.36074],[-72.52316,-36.36091],[-72.52324,-36.36109],[-72.5232,-36.36129],[-72.52307,-36.3618],[-72.52291,-36.36243],[-72.5229,-36.3629],[-72.52316,-36.36346],[-72.52392,-36.36393],[-72.52435,-36.36459],[-72.524745,-36.365114],[-72.52475,-36.36512],[-72.5255,-36.36556],[-72.52615,-36.36582],[-72.52698,-36.36592],[-72.52804,-36.36631],[-72.52881,-36.36663],[-72.52999,-36.36701],[-72.53083,-36.36716],[-72.53111,-36.3675],[-72.53121,-36.36799],[-72.53105,-36.36843],[-72.53081,-36.36927],[-72.53057,-36.3698],[-72.53041,-36.37012],[-72.53043,-36.37037],[-72.53069,-36.37045],[-72.53103,-36.37049],[-72.53149,-36.37039],[-72.53215,-36.37019],[-72.53298,-36.3698],[-72.533722,-36.369543],[-72.53399,-36.36945],[-72.53447,-36.3693],[-72.53516,-36.36926],[-72.53553,-36.36937],[-72.53604,-36.37006],[-72.53638,-36.3705],[-72.53685,-36.37073],[-72.53719,-36.37084],[-72.53766,-36.37084],[-72.53814,-36.37077],[-72.53878,-36.37065],[-72.53928,-36.37058],[-72.53959,-36.3707],[-72.54013,-36.37115],[-72.54065,-36.37169],[-72.5409,-36.37212],[-72.541082,-36.372756],[-72.54112,-36.37289],[-72.541188,-36.373365],[-72.541172,-36.373867],[-72.54099,-36.374186],[-72.54067,-36.374445],[-72.540174,-36.374561],[-72.539696,-36.37481],[-72.53965,-36.37525],[-72.53978,-36.37584],[-72.53986,-36.37727],[-72.5397,-36.37795],[-72.53977,-36.378996],[-72.53981,-36.37959],[-72.53991,-36.37988],[-72.540284,-36.380262],[-72.540762,-36.38047],[-72.541062,-36.380826],[-72.541218,-36.38123],[-72.541111,-36.381595],[-72.540914,-36.381869],[-72.540582,-36.382038],[-72.54011,-36.38192],[-72.5397,-36.38188],[-72.53939,-36.38194],[-72.53932,-36.38212],[-72.53939,-36.38245],[-72.53956,-36.38284],[-72.53976,-36.38357],[-72.53986,-36.38429],[-72.539658,-36.384897],[-72.53943,-36.38558],[-72.53945,-36.38597],[-72.53956,-36.38636],[-72.5399,-36.38707],[-72.54033,-36.38771],[-72.54076,-36.38831],[-72.54132,-36.38864],[-72.54218,-36.3892],[-72.542276,-36.389364],[-72.542332,-36.389627],[-72.542283,-36.389891],[-72.542246,-36.390173],[-72.542166,-36.390406],[-72.541957,-36.390644],[-72.54169,-36.39095],[-72.54159,-36.39115],[-72.54158,-36.39144],[-72.54169,-36.39177],[-72.54178,-36.391993],[-72.541982,-36.39216],[-72.542031,-36.392201],[-72.542295,-36.392385],[-72.542534,-36.392545],[-72.542656,-36.392704],[-72.54295,-36.39334],[-72.543039,-36.393667],[-72.543145,-36.394053],[-72.543159,-36.394285],[-72.543192,-36.394557],[-72.5429,-36.39551],[-72.54267,-36.39677],[-72.54246,-36.3976],[-72.54223,-36.39804],[-72.541976,-36.398422],[-72.541759,-36.398672],[-72.541513,-36.398954],[-72.541045,-36.399229],[-72.54055,-36.39946],[-72.53992,-36.39956],[-72.53915,-36.39977],[-72.53898,-36.39992],[-72.53867,-36.40021],[-72.53866,-36.40058],[-72.53874,-36.40101],[-72.53895,-36.40134],[-72.53956,-36.40159],[-72.5403,-36.40184],[-72.540669,-36.401918],[-72.540869,-36.402077],[-72.541089,-36.402259],[-72.541357,-36.402441],[-72.541578,-36.402584],[-72.541635,-36.402891],[-72.54153,-36.40326],[-72.54151,-36.403394],[-72.54139,-36.40422],[-72.541385,-36.404286],[-72.54137,-36.40447],[-72.54151,-36.40461],[-72.54163,-36.40466],[-72.541794,-36.404654],[-72.54189,-36.40465],[-72.54222,-36.4046],[-72.54322,-36.40457],[-72.543684,-36.404634],[-72.544269,-36.404682],[-72.54492,-36.404758],[-72.545439,-36.404841],[-72.545962,-36.404846],[-72.54632,-36.40482],[-72.54658,-36.404694],[-72.546867,-36.40467],[-72.547155,-36.404789],[-72.547286,-36.405041],[-72.54725,-36.40546],[-72.547226,-36.405974],[-72.547202,-36.406322],[-72.547159,-36.406553],[-72.547131,-36.406705],[-72.547023,-36.406992],[-72.54666,-36.40722],[-72.54637,-36.40772],[-72.546152,-36.408044],[-72.54573,-36.408368],[-72.545658,-36.408991],[-72.545694,-36.409446],[-72.545862,-36.409793],[-72.545996,-36.409937],[-72.546176,-36.410049],[-72.546379,-36.410091],[-72.546577,-36.410061],[-72.546807,-36.410116],[-72.54719,-36.410367],[-72.547574,-36.410786],[-72.547693,-36.410936],[-72.547832,-36.411049],[-72.547995,-36.411124],[-72.548208,-36.411169],[-72.548806,-36.411253],[-72.549321,-36.411349],[-72.549585,-36.411493],[-72.54982,-36.411646],[-72.550101,-36.411729],[-72.5504,-36.411734],[-72.55081,-36.41185],[-72.55107,-36.41202],[-72.55144,-36.41247],[-72.55148,-36.4131],[-72.551485,-36.413207],[-72.551439,-36.413323],[-72.551494,-36.413372],[-72.55152,-36.41388],[-72.55185,-36.41495],[-72.551775,-36.415264],[-72.551417,-36.415586],[-72.550952,-36.415837],[-72.550748,-36.416116],[-72.550568,-36.416041],[-72.549871,-36.416167],[-72.549322,-36.416611],[-72.548858,-36.417075],[-72.548056,-36.417434],[-72.547528,-36.417899],[-72.546916,-36.418258],[-72.54605,-36.41849],[-72.545501,-36.418595],[-72.545058,-36.418363],[-72.544772,-36.418363],[-72.54415,-36.418363],[-72.543411,-36.418553],[-72.542186,-36.418574],[-72.541131,-36.418764],[-72.540244,-36.418764],[-72.539189,-36.419102],[-72.538628,-36.419527],[-72.53858,-36.419619],[-72.538499,-36.419779],[-72.538346,-36.420161],[-72.538162,-36.420514],[-72.538133,-36.420918],[-72.538365,-36.421424],[-72.53826,-36.4221],[-72.538224,-36.422427],[-72.538027,-36.42286],[-72.53747,-36.42305],[-72.537225,-36.423536],[-72.537436,-36.424486],[-72.537451,-36.424716],[-72.537478,-36.425139],[-72.537382,-36.425642],[-72.537204,-36.426407],[-72.536994,-36.426757],[-72.536876,-36.427096],[-72.536972,-36.428328],[-72.536571,-36.428666],[-72.536191,-36.429067],[-72.535979,-36.429679],[-72.535937,-36.430207],[-72.535874,-36.430777],[-72.535726,-36.431326],[-72.535409,-36.43158],[-72.534797,-36.431664],[-72.534164,-36.431622],[-72.53353,-36.431643],[-72.533193,-36.431854],[-72.532981,-36.432276],[-72.532845,-36.43232],[-72.53231,-36.43249],[-72.531736,-36.432952],[-72.531609,-36.433522],[-72.531472,-36.433924],[-72.531187,-36.43443],[-72.531059,-36.434812],[-72.530845,-36.435179],[-72.530307,-36.435526],[-72.52947,-36.435961],[-72.528083,-36.436214],[-72.52746,-36.436061],[-72.526696,-36.436144],[-72.526245,-36.436318],[-72.52597,-36.43653],[-72.524865,-36.436748],[-72.524598,-36.43681],[-72.524145,-36.436915],[-72.523392,-36.436932],[-72.52217,-36.436631],[-72.521842,-36.436515],[-72.521031,-36.436229],[-72.52011,-36.435927],[-72.518939,-36.435542],[-72.518168,-36.435375],[-72.517683,-36.435057],[-72.516695,-36.435006],[-72.515965,-36.434998],[-72.515162,-36.434277],[-72.509996,-36.435582],[-72.509712,-36.436285],[-72.509446,-36.436346],[-72.508675,-36.436346],[-72.50829,-36.436329],[-72.507512,-36.436254],[-72.506566,-36.436163],[-72.506199,-36.436118],[-72.505769,-36.435945],[-72.505386,-36.435715],[-72.504973,-36.435641],[-72.504165,-36.435621],[-72.503004,-36.435562],[-72.501901,-36.435542],[-72.500838,-36.43566],[-72.500691,-36.435639],[-72.5,-36.435539],[-72.49987,-36.43552],[-72.49959,-36.43549],[-72.49924,-36.43554],[-72.49887,-36.43558],[-72.4985,-36.43564],[-72.49799,-36.43562],[-72.49761,-36.43567],[-72.4973,-36.43572],[-72.49689,-36.43579],[-72.49671,-36.43578],[-72.49644,-36.43579],[-72.49612,-36.43581],[-72.49582,-36.43587],[-72.49517,-36.43599],[-72.49482,-36.43605],[-72.49439,-36.43612],[-72.49407,-36.43617],[-72.49376,-36.43634],[-72.49344,-36.43657],[-72.49322,-36.43679],[-72.49297,-36.43712],[-72.49251,-36.4376],[-72.492455,-36.43766],[-72.49217,-36.43797],[-72.49184,-36.43844],[-72.49152,-36.43865],[-72.49112,-36.43895],[-72.49078,-36.43916],[-72.49003,-36.4397],[-72.48964,-36.44007],[-72.48939,-36.44047],[-72.48922,-36.4409],[-72.48915,-36.44122],[-72.48897,-36.44182],[-72.48885,-36.44261],[-72.48881,-36.4429],[-72.48897,-36.44333],[-72.48901,-36.44353],[-72.48905,-36.44398],[-72.4892,-36.44443],[-72.489405,-36.444707],[-72.48951,-36.44485],[-72.48994,-36.44536],[-72.49028,-36.44582],[-72.4906,-36.4463],[-72.49067,-36.44669],[-72.49062,-36.44723],[-72.4905,-36.44771],[-72.49055,-36.44812],[-72.49063,-36.4484],[-72.49077,-36.44873],[-72.49095,-36.44921],[-72.49125,-36.44954],[-72.49158,-36.44992],[-72.49199,-36.45036],[-72.49244,-36.45077],[-72.49282,-36.45112],[-72.49291,-36.45142],[-72.492927,-36.451669],[-72.49294,-36.45185],[-72.49298,-36.45229],[-72.49302,-36.45269],[-72.49309,-36.45319],[-72.49302,-36.45353],[-72.49281,-36.454],[-72.49275,-36.4544],[-72.49288,-36.45461],[-72.49316,-36.45498],[-72.49349,-36.45537],[-72.49365,-36.45564],[-72.49361,-36.45585],[-72.49352,-36.45604],[-72.49305,-36.45644],[-72.49243,-36.4569],[-72.49192,-36.45708],[-72.49167,-36.45708],[-72.49135,-36.45696],[-72.49093,-36.45693],[-72.49052,-36.45691],[-72.49003,-36.45701],[-72.48955,-36.45711],[-72.48926,-36.45719],[-72.48911,-36.45731],[-72.48907,-36.4575],[-72.48912,-36.45784],[-72.48909,-36.45805],[-72.48889,-36.45817],[-72.488819,-36.458211],[-72.48858,-36.45835],[-72.48829,-36.45854],[-72.48803,-36.45892],[-72.48788,-36.4593],[-72.48772,-36.45942],[-72.48738,-36.45969],[-72.48721,-36.4601],[-72.48693,-36.46062],[-72.48651,-36.46086],[-72.48602,-36.46094],[-72.48572,-36.46095],[-72.48533,-36.46107],[-72.48489,-36.46116],[-72.48464,-36.46123],[-72.48412,-36.46151],[-72.48339,-36.46186]],[[-72.403146,-36.470365],[-72.399749,-36.467297],[-72.394584,-36.468596],[-72.391187,-36.465528],[-72.386023,-36.466827],[-72.384254,-36.471193],[-72.387651,-36.474261],[-72.385883,-36.478627],[-72.38928,-36.481696],[-72.394446,-36.480397],[-72.396213,-36.47603],[-72.401379,-36.474732],[-72.403146,-36.470365]],[[-72.453167,-36.449924],[-72.454931,-36.445555],[-72.451529,-36.442489],[-72.446364,-36.443791],[-72.4446,-36.448159],[-72.439435,-36.449461],[-72.43767,-36.453829],[-72.432505,-36.45513],[-72.43074,-36.459498],[-72.43414,-36.462565],[-72.439306,-36.461264],[-72.442708,-36.464331],[-72.447874,-36.463029],[-72.449639,-36.458661],[-72.446237,-36.455594],[-72.448001,-36.451226],[-72.453167,-36.449924]],[[-72.501329,-36.386748],[-72.496781,-36.383973],[-72.491618,-36.385279],[-72.487071,-36.382503],[-72.481908,-36.383809],[-72.481292,-36.38789],[-72.485839,-36.390666],[-72.491002,-36.38936],[-72.49555,-36.392135],[-72.500713,-36.390829],[-72.501329,-36.386748]],[[-72.478213,-36.408291],[-72.483376,-36.406986],[-72.483992,-36.402906],[-72.479444,-36.400131],[-72.474281,-36.401436],[-72.473665,-36.405516],[-72.478213,-36.408291]],[[-72.520753,-36.389684],[-72.520137,-36.393765],[-72.524686,-36.396539],[-72.52985,-36.395232],[-72.530465,-36.391151],[-72.53563,-36.389843],[-72.536245,-36.385761],[-72.531696,-36.382987],[-72.526532,-36.384295],[-72.525916,-36.388377],[-72.520753,-36.389684]],[[-72.499482,-36.398991],[-72.494934,-36.396216],[-72.489771,-36.397521],[-72.489155,-36.401601],[-72.493703,-36.404376],[-72.498866,-36.403071],[-72.499482,-36.398991]],[[-72.472311,-36.425475],[-72.474073,-36.421107],[-72.470671,-36.418042],[-72.465508,-36.419346],[-72.463746,-36.423714],[-72.467147,-36.426779],[-72.472311,-36.425475]],[[-72.401728,-36.290179],[-72.397186,-36.287398],[-72.392028,-36.288703],[-72.391411,-36.292789],[-72.395953,-36.295571],[-72.401111,-36.294266],[-72.405653,-36.297047],[-72.410812,-36.295741],[-72.411429,-36.291655],[-72.406887,-36.288874],[-72.401728,-36.290179]],[[-72.360861,-36.265139],[-72.360244,-36.269227],[-72.355087,-36.270531],[-72.354469,-36.274618],[-72.359009,-36.277401],[-72.358392,-36.281487],[-72.353235,-36.282791],[-72.352617,-36.286877],[-72.357157,-36.289659],[-72.362315,-36.288356],[-72.366855,-36.291138],[-72.366238,-36.295224],[-72.370779,-36.298006],[-72.375937,-36.296702],[-72.380478,-36.299484],[-72.379861,-36.303569],[-72.384402,-36.306351],[-72.38956,-36.305046],[-72.390177,-36.300961],[-72.385636,-36.29818],[-72.386253,-36.294094],[-72.381712,-36.291312],[-72.382329,-36.287226],[-72.377788,-36.284444],[-72.37263,-36.285748],[-72.368089,-36.282966],[-72.368707,-36.278879],[-72.373864,-36.277575],[-72.374481,-36.273488],[-72.379639,-36.272183],[-72.380256,-36.268096],[-72.375715,-36.265313],[-72.370558,-36.266618],[-72.366018,-36.263835],[-72.360861,-36.265139]],[[-72.3613,-36.327899],[-72.356759,-36.325117],[-72.351601,-36.326419],[-72.350983,-36.330502],[-72.355524,-36.333283],[-72.360682,-36.331981],[-72.365223,-36.334762],[-72.364606,-36.338845],[-72.369147,-36.341625],[-72.374306,-36.340323],[-72.374924,-36.336241],[-72.380082,-36.334938],[-72.384624,-36.337719],[-72.389784,-36.336416],[-72.390401,-36.332333],[-72.385859,-36.329552],[-72.386476,-36.325469],[-72.381934,-36.322688],[-72.376775,-36.323991],[-72.372234,-36.32121],[-72.367075,-36.322513],[-72.366458,-36.326596],[-72.3613,-36.327899]],[[-72.360902,-36.363334],[-72.355742,-36.364634],[-72.351201,-36.361854],[-72.346042,-36.363154],[-72.345425,-36.367234],[-72.349966,-36.370014],[-72.355125,-36.368714],[-72.359667,-36.371494],[-72.364826,-36.370194],[-72.365443,-36.366113],[-72.360902,-36.363334]],[[-72.357196,-36.387811],[-72.357814,-36.383732],[-72.353272,-36.380953],[-72.348113,-36.382252],[-72.347495,-36.386331],[-72.352037,-36.38911],[-72.357196,-36.387811]],[[-72.340483,-36.399864],[-72.345642,-36.398566],[-72.34626,-36.394488],[-72.341718,-36.391708],[-72.336559,-36.393007],[-72.335941,-36.397084],[-72.340483,-36.399864]],[[-72.375587,-36.430244],[-72.380748,-36.428945],[-72.381366,-36.424868],[-72.376822,-36.422091],[-72.371662,-36.42339],[-72.367118,-36.420612],[-72.361958,-36.421911],[-72.36134,-36.425987],[-72.365883,-36.428765],[-72.365266,-36.43284],[-72.369809,-36.435618],[-72.37497,-36.434319],[-72.375587,-36.430244]],[[-72.380922,-36.36221],[-72.376379,-36.35943],[-72.376997,-36.355349],[-72.372455,-36.352569],[-72.367295,-36.353871],[-72.366678,-36.357952],[-72.37122,-36.360732],[-72.370603,-36.364813],[-72.375145,-36.367592],[-72.380304,-36.366291],[-72.380922,-36.36221]]]},"properties":{"comuna":"Ninhue","mancha_id":"16204-88b2d83019fffff","clase":"Medio","nivel_medio":2.147,"nivel_medio_min":1.566,"nivel_medio_max":2.5,"pct_alto":20.8,"n_hexagonos":561,"area_ha":30560.11}},{"type":"Feature","geometry":{"type":"Polygon","coordinates":[[[-72.315927,-36.232579],[-72.316124,-36.232589],[-72.316358,-36.232696],[-72.316713,-36.232713],[-72.317034,-36.232796],[-72.317334,-36.232692],[-72.317582,-36.232672],[-72.317789,-36.232754],[-72.317815,-36.232771],[-72.316093,-36.233207],[-72.315139,-36.232621],[-72.315317,-36.232579],[-72.315659,-36.232579],[-72.315927,-36.232579]]]},"properties":{"comuna":"Ninhue","mancha_id":"16204-88b2d8a233fffff","clase":"Alto","nivel_medio":2.68,"nivel_medio_min":2.68,"nivel_medio_max":2.68,"pct_alto":68.0,"n_hexagonos":1,"area_ha":0.8}},{"type":"Feature","geometry":{"type":"Polygon","coordinates":[[[-72.378331,-36.253517],[-72.378481,-36.253523],[-72.378663,-36.253633],[-72.378826,-36.253748],[-72.378907,-36.25387],[-72.378331,-36.253517]]]},"properties":{"comuna":"Ninhue","mancha_id":"16204-88b2d8a15bfffff","clase":"Alto","nivel_medio":2.533,"nivel_medio_min":2.533,"nivel_medio_max":2.533,"pct_alto":60.9,"n_hexagonos":1,"area_ha":0.04}},{"type":"Feature","geometry":{"type":"Polygon","coordinates":[[[-72.30381,-36.28788],[-72.302789,-36.288404],[-72.302905,-36.28764],[-72.30567,-36.286942],[-72.3053,-36.28713],[-72.30455,-36.28751],[-72.30381,-36.28788]]]},"properties":{"comuna":"Ninhue","mancha_id":"16204-88b2d8a081fffff","clase":"Alto","nivel_medio":2.653,"nivel_medio_min":2.653,"nivel_medio_max":2.653,"pct_alto":65.3,"n_hexagonos":1,"area_ha":1.01}},{"type":"Feature","geometry":{"type":"Polygon","coordinates":[[[-72.377788,-36.284444],[-72.382329,-36.287226],[-72.381712,-36.291312],[-72.386253,-36.294094],[-72.385636,-36.29818],[-72.390177,-36.300961],[-72.38956,-36.305046],[-72.384402,-36.306351],[-72.379861,-36.303569],[-72.380478,-36.299484],[-72.375937,-36.296702],[-72.370779,-36.298006],[-72.366238,-36.295224],[-72.366855,-36.291138],[-72.362315,-36.288356],[-72.357157,-36.289659],[-72.352617,-36.286877],[-72.353235,-36.282791],[-72.358392,-36.281487],[-72.359009,-36.277401],[-72.354469,-36.274618],[-72.355087,-36.270531],[-72.360244,-36.269227],[-72.360861,-36.265139],[-72.366018,-36.263835],[-72.370558,-36.266618],[-72.375715,-36.265313],[-72.380256,-36.268096],[-72.379639,-36.272183],[-72.374481,-36.273488],[-72.373864,-36.277575],[-72.368707,-36.278879],[-72.368089,-36.282966],[-72.37263,-36.285748],[-72.377788,-36.284444]]]},"properties":{"comuna":"Ninhue","mancha_id":"16204-88b2d8a023fffff","clase":"Alto","nivel_medio":2.654,"nivel_medio_min":2.501,"nivel_medio_max":2.901,"pct_alto":67.6,"n_hexagonos":11,"area_ha":666.89}},{"type":"Feature","geometry":{"type":"Polygon","coordinates":[[[-72.380304,-36.366291],[-72.375145,-36.367592],[-72.370603,-36.364813],[-72.37122,-36.360732],[-72.366678,-36.357952],[-72.367295,-36.353871],[-72.372455,-36.352569],[-72.376997,-36.355349],[-72.376379,-36.35943],[-72.380922,-36.36221],[-72.380304,-36.366291]]]},"properties":{"comuna":"Ninhue","mancha_id":"16204-88b2d8af13fffff","clase":"Alto","nivel_medio":2.758,"nivel_medio_min":2.535,"nivel_medio_max":2.981,"pct_alto":73.4,"n_hexagonos":2,"area_ha":121.02}},{"type":"Feature","geometry":{"type":"Polygon","coordinates":[[[-72.346042,-36.363154],[-72.351201,-36.361854],[-72.355742,-36.364634],[-72.360902,-36.363334],[-72.365443,-36.366113],[-72.364826,-36.370194],[-72.359667,-36.371494],[-72.355125,-36.368714],[-72.349966,-36.370014],[-72.345425,-36.367234],[-72.346042,-36.363154]]]},"properties":{"comuna":"Ninhue","mancha_id":"16204-88b2d8ac41fffff","clase":"Alto","nivel_medio":2.57,"nivel_medio_min":2.567,"nivel_medio_max":2.572,"pct_alto":56.6,"n_hexagonos":2,"area_ha":120.98}},{"type":"Feature","geometry":{"type":"Polygon","coordinates":[[[-72.345642,-36.398566],[-72.340483,-36.399864],[-72.335941,-36.397084],[-72.336559,-36.393007],[-72.341718,-36.391708],[-72.34626,-36.394488],[-72.345642,-36.398566]]]},"properties":{"comuna":"Ninhue","mancha_id":"16204-88b2d8ac11fffff","clase":"Alto","nivel_medio":2.501,"nivel_medio_min":2.501,"nivel_medio_max":2.501,"pct_alto":50.2,"n_hexagonos":1,"area_ha":60.44}},{"type":"Feature","geometry":{"type":"Polygon","coordinates":[[[-72.339665,-36.418277],[-72.339758,-36.418103],[-72.339968,-36.417712],[-72.340022,-36.417618],[-72.340023,-36.417617],[-72.340113,-36.417462],[-72.340115,-36.417458],[-72.342553,-36.41895],[-72.341935,-36.423026],[-72.339794,-36.423565],[-72.339772,-36.423524],[-72.339703,-36.423327],[-72.339644,-36.422875],[-72.339636,-36.422785],[-72.339605,-36.422444],[-72.339604,-36.422434],[-72.339598,-36.422343],[-72.339574,-36.422021],[-72.339569,-36.421961],[-72.339531,-36.421439],[-72.339502,-36.42081],[-72.339477,-36.420264],[-72.339479,-36.41992],[-72.33948,-36.419461],[-72.339501,-36.418866],[-72.339517,-36.418739],[-72.339534,-36.418606],[-72.339665,-36.418277]]]},"properties":{"comuna":"Ninhue","mancha_id":"16204-88b2d8ace3fffff","clase":"Alto","nivel_medio":2.523,"nivel_medio_min":2.523,"nivel_medio_max":2.523,"pct_alto":48.5,"n_hexagonos":1,"area_ha":13.99}},{"type":"Feature","geometry":{"type":"Polygon","coordinates":[[[-72.371662,-36.42339],[-72.376822,-36.422091],[-72.381366,-36.424868],[-72.380748,-36.428945],[-72.375587,-36.430244],[-72.37497,-36.434319],[-72.369809,-36.435618],[-72.365266,-36.43284],[-72.365883,-36.428765],[-72.36134,-36.425987],[-72.361958,-36.421911],[-72.367118,-36.420612],[-72.371662,-36.42339]]]},"properties":{"comuna":"Ninhue","mancha_id":"16204-88b2d8add1fffff","clase":"Alto","nivel_medio":2.885,"nivel_medio_min":2.817,"nivel_medio_max":2.923,"pct_alto":87.3,"n_hexagonos":3,"area_ha":181.21}},{"type":"Feature","geometry":{"type":"Polygon","coordinates":[[[-72.371461,-36.475899],[-72.371211,-36.476019],[-72.37045,-36.47599],[-72.369939,-36.47615],[-72.368761,-36.475086],[-72.37053,-36.47072],[-72.375694,-36.469423],[-72.37909,-36.472491],[-72.377321,-36.476857],[-72.376182,-36.477143],[-72.37604,-36.47705],[-72.37536,-36.47656],[-72.374864,-36.476299],[-72.374175,-36.475916],[-72.37335,-36.4758],[-72.37224,-36.4758],[-72.371461,-36.475899]]]},"properties":{"comuna":"Ninhue","mancha_id":"16204-88b2d8375bfffff","clase":"Alto","nivel_medio":2.653,"nivel_medio_min":2.653,"nivel_medio_max":2.653,"pct_alto":68.8,"n_hexagonos":1,"area_ha":51.84}},{"type":"Feature","geometry":{"type":"Polygon","coordinates":[[[-72.400294,-36.231047],[-72.400405,-36.230845],[-72.400607,-36.230661],[-72.400662,-36.230459],[-72.40068,-36.230202],[-72.400754,-36.229724],[-72.400938,-36.229044],[-72.401048,-36.228787],[-72.401069,-36.228766],[-72.400662,-36.231463],[-72.398765,-36.231944],[-72.398916,-36.231874],[-72.399449,-36.23158],[-72.399706,-36.231452],[-72.399927,-36.231341],[-72.400111,-36.231249],[-72.400294,-36.231047]]]},"properties":{"comuna":"Ninhue","mancha_id":"16204-88b2d8a33dfffff","clase":"Alto","nivel_medio":2.502,"nivel_medio_min":2.502,"nivel_medio_max":2.502,"pct_alto":50.9,"n_hexagonos":1,"area_ha":0.89}},{"type":"Feature","geometry":{"type":"Polygon","coordinates":[[[-72.394713,-36.232169],[-72.39479,-36.232111],[-72.394848,-36.232073],[-72.395078,-36.232044],[-72.395413,-36.232063],[-72.395825,-36.232092],[-72.396371,-36.23214],[-72.396803,-36.232187],[-72.397336,-36.232205],[-72.397734,-36.232205],[-72.395505,-36.23277],[-72.39465,-36.232246],[-72.394713,-36.232169]]]},"properties":{"comuna":"Ninhue","mancha_id":"16204-88b2d8a33dfffff-2","clase":"Alto","nivel_medio":2.502,"nivel_medio_min":2.502,"nivel_medio_max":2.502,"pct_alto":50.9,"n_hexagonos":1,"area_ha":1.11}},{"type":"Feature","geometry":{"type":"Polygon","coordinates":[[[-72.393655,-36.24504],[-72.393038,-36.24913],[-72.397579,-36.251912],[-72.396962,-36.256002],[-72.391805,-36.257308],[-72.391188,-36.261396],[-72.38603,-36.262702],[-72.38149,-36.259919],[-72.382106,-36.255831],[-72.379629,-36.254312],[-72.379794,-36.254237],[-72.379995,-36.254007],[-72.380148,-36.253767],[-72.380282,-36.253384],[-72.380349,-36.253049],[-72.380378,-36.252771],[-72.380311,-36.25232],[-72.380234,-36.25188],[-72.380129,-36.251602],[-72.38011,-36.2514],[-72.380187,-36.251257],[-72.380378,-36.251151],[-72.380876,-36.251017],[-72.381432,-36.250893],[-72.382151,-36.250797],[-72.382697,-36.250739],[-72.383071,-36.25072],[-72.38332,-36.250634],[-72.38355,-36.250509],[-72.383646,-36.250394],[-72.383943,-36.250164],[-72.384167,-36.25],[-72.38423,-36.249954],[-72.384537,-36.249762],[-72.384786,-36.249618],[-72.385083,-36.249513],[-72.385476,-36.249426],[-72.385917,-36.249398],[-72.386154,-36.249377],[-72.386252,-36.249369],[-72.386444,-36.249359],[-72.386798,-36.249235],[-72.387162,-36.249043],[-72.387488,-36.248832],[-72.387728,-36.248717],[-72.38792,-36.248708],[-72.388159,-36.24866],[-72.388475,-36.248535],[-72.388734,-36.248382],[-72.388974,-36.248152],[-72.389117,-36.247874],[-72.389223,-36.247606],[-72.389319,-36.247309],[-72.389319,-36.247136],[-72.389319,-36.246858],[-72.389261,-36.24658],[-72.389146,-36.24637],[-72.388993,-36.246226],[-72.38882,-36.246101],[-72.388542,-36.245967],[-72.387958,-36.245871],[-72.387383,-36.245747],[-72.387019,-36.245584],[-72.386712,-36.245479],[-72.386645,-36.245344],[-72.386616,-36.24522],[-72.386645,-36.245038],[-72.386798,-36.24453],[-72.386913,-36.244156],[-72.387,-36.243888],[-72.386961,-36.243466],[-72.38698,-36.243246],[-72.387048,-36.243045],[-72.387143,-36.24291],[-72.387517,-36.2427],[-72.387928,-36.242558],[-72.389114,-36.242257],[-72.393655,-36.24504]]]},"properties":{"comuna":"Ninhue","mancha_id":"16204-88b2d8a151fffff","clase":"Alto","nivel_medio":2.61,"nivel_medio_min":2.533,"nivel_medio_max":2.672,"pct_alto":62.4,"n_hexagonos":4,"area_ha":193.95}},{"type":"Feature","geometry":{"type":"Polygon","coordinates":[[[-72.391411,-36.292789],[-72.392028,-36.288703],[-72.397186,-36.287398],[-72.401728,-36.290179],[-72.406887,-36.288874],[-72.411429,-36.291655],[-72.410812,-36.295741],[-72.405653,-36.297047],[-72.401111,-36.294266],[-72.395953,-36.295571],[-72.391411,-36.292789]]]},"properties":{"comuna":"Ninhue","mancha_id":"16204-88b2d8a1e1fffff","clase":"Alto","nivel_medio":2.6,"nivel_medio_min":2.51,"nivel_medio_max":2.69,"pct_alto":60.0,"n_hexagonos":2,"area_ha":121.26}},{"type":"Feature","geometry":{"type":"Polygon","coordinates":[[[-72.390401,-36.332333],[-72.389784,-36.336416],[-72.384624,-36.337719],[-72.380082,-36.334938],[-72.374924,-36.336241],[-72.374306,-36.340323],[-72.369147,-36.341625],[-72.364606,-36.338845],[-72.365223,-36.334762],[-72.360682,-36.331981],[-72.355524,-36.333283],[-72.350983,-36.330502],[-72.351601,-36.326419],[-72.356759,-36.325117],[-72.3613,-36.327899],[-72.366458,-36.326596],[-72.367075,-36.322513],[-72.372234,-36.32121],[-72.376775,-36.323991],[-72.381934,-36.322688],[-72.386476,-36.325469],[-72.385859,-36.329552],[-72.390401,-36.332333]]]},"properties":{"comuna":"Ninhue","mancha_id":"16204-88b2d8a1b3fffff","clase":"Alto","nivel_medio":2.659,"nivel_medio_min":2.501,"nivel_medio_max":2.81,"pct_alto":66.4,"n_hexagonos":7,"area_ha":423.88}},{"type":"Feature","geometry":{"type":"Polygon","coordinates":[[[-72.399749,-36.467297],[-72.403146,-36.470365],[-72.401379,-36.474732],[-72.396213,-36.47603],[-72.394446,-36.480397],[-72.38928,-36.481696],[-72.385883,-36.478627],[-72.387651,-36.474261],[-72.384254,-36.471193],[-72.386023,-36.466827],[-72.391187,-36.465528],[-72.394584,-36.468596],[-72.399749,-36.467297]]]},"properties":{"comuna":"Ninhue","mancha_id":"16204-88b2d83743fffff","clase":"Alto","nivel_medio":2.701,"nivel_medio_min":2.515,"nivel_medio_max":2.954,"pct_alto":59.3,"n_hexagonos":3,"area_ha":181.32}},{"type":"Feature","geometry":{"type":"Polygon","coordinates":[[[-72.42049,-36.2289],[-72.42119,-36.22886],[-72.42271,-36.22877],[-72.42396,-36.22858],[-72.42467,-36.22864],[-72.42539,-36.22875],[-72.425898,-36.228583],[-72.425834,-36.229013],[-72.420676,-36.230321],[-72.419061,-36.229332],[-72.41986,-36.22911],[-72.42049,-36.2289]]]},"properties":{"comuna":"Ninhue","mancha_id":"16204-88b2d8a325fffff","clase":"Alto","nivel_medio":2.715,"nivel_medio_min":2.715,"nivel_medio_max":2.715,"pct_alto":71.5,"n_hexagonos":1,"area_ha":6.01}},{"type":"Feature","geometry":{"type":"Polygon","coordinates":[[[-72.443489,-36.239827],[-72.444002,-36.240141],[-72.443432,-36.243929],[-72.44345,-36.23999],[-72.443489,-36.239827]]]},"properties":{"comuna":"Ninhue","mancha_id":"16204-88b2d8b897fffff","clase":"Alto","nivel_medio":2.756,"nivel_medio_min":2.756,"nivel_medio_max":2.756,"pct_alto":75.6,"n_hexagonos":1,"area_ha":1.13}},{"type":"Feature","geometry":{"type":"Polygon","coordinates":[[[-72.428527,-36.244068],[-72.427911,-36.248158],[-72.422752,-36.249466],[-72.41821,-36.246684],[-72.418827,-36.242594],[-72.423985,-36.241286],[-72.424601,-36.237195],[-72.429759,-36.235886],[-72.434301,-36.238668],[-72.437384,-36.237886],[-72.435952,-36.244147],[-72.433685,-36.242759],[-72.428527,-36.244068]]]},"properties":{"comuna":"Ninhue","mancha_id":"16204-88b2d8a145fffff","clase":"Alto","nivel_medio":2.591,"nivel_medio_min":2.516,"nivel_medio_max":2.756,"pct_alto":59.1,"n_hexagonos":3,"area_ha":135.56}},{"type":"Feature","geometry":{"type":"Polygon","coordinates":[[[-72.45501,-36.25506],[-72.454549,-36.255508],[-72.451475,-36.256414],[-72.450514,-36.256697],[-72.450995,-36.258037],[-72.446081,-36.259283],[-72.445465,-36.263373],[-72.440306,-36.264681],[-72.435763,-36.2619],[-72.436379,-36.257811],[-72.441538,-36.256502],[-72.442154,-36.252413],[-72.447313,-36.251104],[-72.447929,-36.247013],[-72.451203,-36.246183],[-72.45156,-36.24706],[-72.45227,-36.24876],[-72.45253,-36.25],[-72.45253,-36.25],[-72.45255,-36.25008],[-72.45315,-36.25135],[-72.45344,-36.25198],[-72.45375,-36.25271],[-72.45375,-36.25309],[-72.45394,-36.25324],[-72.454064,-36.253324],[-72.45485,-36.25386],[-72.45492,-36.2548],[-72.45501,-36.25506]]]},"properties":{"comuna":"Ninhue","mancha_id":"16204-88b2d8a165fffff","clase":"Alto","nivel_medio":2.695,"nivel_medio_min":2.56,"nivel_medio_max":2.967,"pct_alto":68.5,"n_hexagonos":4,"area_ha":158.9}},{"type":"Feature","geometry":{"type":"Polygon","coordinates":[[[-72.446364,-36.443791],[-72.451529,-36.442489],[-72.454931,-36.445555],[-72.453167,-36.449924],[-72.448001,-36.451226],[-72.446237,-36.455594],[-72.449639,-36.458661],[-72.447874,-36.463029],[-72.442708,-36.464331],[-72.439306,-36.461264],[-72.43414,-36.462565],[-72.43074,-36.459498],[-72.432505,-36.45513],[-72.43767,-36.453829],[-72.439435,-36.449461],[-72.4446,-36.448159],[-72.446364,-36.443791]]]},"properties":{"comuna":"Ninhue","mancha_id":"16204-88b2d83281fffff","clase":"Alto","nivel_medio":2.56,"nivel_medio_min":2.506,"nivel_medio_max":2.595,"pct_alto":58.1,"n_hexagonos":4,"area_ha":241.94}},{"type":"Feature","geometry":{"type":"Polygon","coordinates":[[[-72.484987,-36.363399],[-72.479825,-36.364705],[-72.475279,-36.361929],[-72.475895,-36.357846],[-72.471349,-36.355069],[-72.471965,-36.350986],[-72.470702,-36.350214],[-72.47393,-36.34921],[-72.47451,-36.34902],[-72.47506,-36.34897],[-72.4756,-36.34881],[-72.47617,-36.34872],[-72.47698,-36.34832],[-72.477352,-36.348181],[-72.47792,-36.34797],[-72.47892,-36.34755],[-72.47974,-36.34731],[-72.48064,-36.34737],[-72.48141,-36.34733],[-72.48201,-36.34731],[-72.48307,-36.34732],[-72.48351,-36.34723],[-72.48404,-36.34702],[-72.48443,-36.34698],[-72.48522,-36.34687],[-72.48553,-36.34698],[-72.48593,-36.34715],[-72.48641,-36.3474],[-72.48696,-36.34761],[-72.48734,-36.34778],[-72.487343,-36.347781],[-72.4876,-36.34793],[-72.4878,-36.34817],[-72.48806,-36.34848],[-72.48836,-36.34874],[-72.48876,-36.34902],[-72.48906,-36.34912],[-72.48961,-36.34915],[-72.49,-36.34918],[-72.49045,-36.34925],[-72.49137,-36.34956],[-72.49199,-36.34976],[-72.49247,-36.34992],[-72.49266,-36.35004],[-72.49279,-36.35036],[-72.49289,-36.35067],[-72.49303,-36.35099],[-72.49323,-36.35128],[-72.49351,-36.35153],[-72.49371,-36.35164],[-72.49398,-36.35186],[-72.49442,-36.35228],[-72.49473,-36.35252],[-72.49518,-36.3526],[-72.49569,-36.35269],[-72.496005,-36.352755],[-72.491381,-36.353926],[-72.490766,-36.358009],[-72.485603,-36.359316],[-72.484987,-36.363399]]]},"properties":{"comuna":"Ninhue","mancha_id":"16204-88b2d8a885fffff","clase":"Alto","nivel_medio":2.731,"nivel_medio_min":2.559,"nivel_medio_max":2.96,"pct_alto":74.7,"n_hexagonos":6,"area_ha":254.45}},{"type":"Feature","geometry":{"type":"Polygon","coordinates":[[[-72.477977,-36.376952],[-72.477361,-36.381033],[-72.472199,-36.382338],[-72.467653,-36.379562],[-72.46249,-36.380867],[-72.461874,-36.384948],[-72.456712,-36.386252],[-72.456096,-36.390333],[-72.450934,-36.391637],[-72.450317,-36.395717],[-72.454863,-36.398493],[-72.460026,-36.397189],[-72.464572,-36.399965],[-72.463956,-36.404044],[-72.458793,-36.405348],[-72.458177,-36.409427],[-72.453014,-36.41073],[-72.452398,-36.414809],[-72.447235,-36.416112],[-72.442689,-36.413336],[-72.443306,-36.409257],[-72.43876,-36.406481],[-72.439376,-36.402402],[-72.434831,-36.399626],[-72.429669,-36.400928],[-72.425124,-36.398152],[-72.419963,-36.399454],[-72.419346,-36.403533],[-72.423891,-36.406309],[-72.423274,-36.410388],[-72.427819,-36.413164],[-72.427203,-36.417242],[-72.422041,-36.418544],[-72.417495,-36.415767],[-72.418112,-36.411689],[-72.413568,-36.408912],[-72.408406,-36.410214],[-72.407789,-36.414291],[-72.412334,-36.417068],[-72.411717,-36.421146],[-72.406555,-36.422446],[-72.405938,-36.426523],[-72.400777,-36.427823],[-72.396232,-36.425047],[-72.391071,-36.426346],[-72.386527,-36.423569],[-72.387144,-36.419492],[-72.382601,-36.416715],[-72.383218,-36.412638],[-72.388379,-36.411338],[-72.388996,-36.40726],[-72.384452,-36.404482],[-72.379292,-36.405782],[-72.374749,-36.403004],[-72.375366,-36.398926],[-72.380526,-36.397626],[-72.381144,-36.393548],[-72.386304,-36.392247],[-72.386921,-36.388168],[-72.392082,-36.386867],[-72.392699,-36.382788],[-72.397859,-36.381486],[-72.402403,-36.384264],[-72.407563,-36.382962],[-72.412107,-36.38574],[-72.417269,-36.384438],[-72.421813,-36.387215],[-72.426974,-36.385913],[-72.431519,-36.38869],[-72.436681,-36.387387],[-72.441226,-36.390164],[-72.446388,-36.38886],[-72.447004,-36.38478],[-72.452166,-36.383476],[-72.452782,-36.379395],[-72.457944,-36.378091],[-72.458561,-36.374009],[-72.463723,-36.372704],[-72.464339,-36.368622],[-72.459793,-36.365846],[-72.454631,-36.367151],[-72.450086,-36.364373],[-72.444924,-36.365678],[-72.440379,-36.3629],[-72.435218,-36.364205],[-72.434602,-36.368286],[-72.429441,-36.36959],[-72.428824,-36.373671],[-72.423663,-36.374974],[-72.419119,-36.372197],[-72.413958,-36.373499],[-72.409414,-36.370721],[-72.404254,-36.372024],[-72.403637,-36.376104],[-72.398476,-36.377406],[-72.393933,-36.374628],[-72.388773,-36.375929],[-72.38423,-36.37315],[-72.384847,-36.36907],[-72.390007,-36.367768],[-72.390624,-36.363687],[-72.395784,-36.362385],[-72.396401,-36.358304],[-72.401561,-36.357001],[-72.406104,-36.35978],[-72.411264,-36.358477],[-72.411881,-36.354395],[-72.407338,-36.351616],[-72.402178,-36.352919],[-72.397635,-36.35014],[-72.398252,-36.346058],[-72.403412,-36.344755],[-72.407955,-36.347534],[-72.413115,-36.346231],[-72.417658,-36.349009],[-72.422819,-36.347705],[-72.423435,-36.343623],[-72.428596,-36.342318],[-72.429212,-36.338235],[-72.434373,-36.33693],[-72.434989,-36.332846],[-72.440149,-36.331541],[-72.440766,-36.327456],[-72.445926,-36.32615],[-72.446542,-36.322065],[-72.441998,-36.319286],[-72.442615,-36.315201],[-72.438071,-36.312422],[-72.438687,-36.308336],[-72.443847,-36.30703],[-72.448391,-36.309809],[-72.453551,-36.308502],[-72.454167,-36.304416],[-72.459328,-36.303108],[-72.459944,-36.299022],[-72.465104,-36.297714],[-72.46572,-36.293626],[-72.461176,-36.290847],[-72.461792,-36.286759],[-72.457247,-36.28398],[-72.457863,-36.279891],[-72.45332,-36.277111],[-72.453936,-36.273023],[-72.459095,-36.271714],[-72.459251,-36.27068],[-72.464228,-36.273363],[-72.463458,-36.274383],[-72.459636,-36.279442],[-72.459224,-36.279988],[-72.46002,-36.28066],[-72.46139,-36.28168],[-72.46198,-36.28139],[-72.46304,-36.2811],[-72.46341,-36.28095],[-72.46446,-36.28051],[-72.4653,-36.28012],[-72.46531,-36.28012],[-72.465501,-36.280099],[-72.46585,-36.28006],[-72.46616,-36.28007],[-72.46665,-36.27999],[-72.46721,-36.27981],[-72.46761,-36.27984],[-72.46788,-36.27985],[-72.4683,-36.28],[-72.46864,-36.2804],[-72.46865,-36.28042],[-72.468802,-36.28105],[-72.46886,-36.28129],[-72.46931,-36.28188],[-72.46965,-36.28216],[-72.47019,-36.28247],[-72.47022,-36.28247],[-72.47042,-36.28248],[-72.47099,-36.28248],[-72.47189,-36.28246],[-72.4721,-36.28249],[-72.47262,-36.28257],[-72.47273,-36.28258],[-72.47371,-36.28286],[-72.47378,-36.28288],[-72.47472,-36.28304],[-72.47518,-36.28302],[-72.47547,-36.28301],[-72.47691,-36.28343],[-72.477128,-36.283794],[-72.47746,-36.28435],[-72.47848,-36.28539],[-72.47906,-36.28708],[-72.478549,-36.288078],[-72.476657,-36.286921],[-72.471496,-36.28823],[-72.47088,-36.292318],[-72.475425,-36.295097],[-72.480586,-36.293788],[-72.48233,-36.294854],[-72.48233,-36.29504],[-72.48252,-36.29628],[-72.48229,-36.29721],[-72.48252,-36.29825],[-72.48206,-36.29932],[-72.47983,-36.30157],[-72.479659,-36.301886],[-72.479253,-36.302635],[-72.47911,-36.3029],[-72.47808,-36.30475],[-72.477427,-36.306382],[-72.473578,-36.307358],[-72.472962,-36.311445],[-72.467801,-36.312752],[-72.467185,-36.316838],[-72.462024,-36.318145],[-72.45748,-36.315367],[-72.452319,-36.316674],[-72.451703,-36.320759],[-72.456248,-36.323538],[-72.461408,-36.322231],[-72.465953,-36.325009],[-72.467077,-36.324724],[-72.46699,-36.32485],[-72.46632,-36.32633],[-72.46641,-36.32763],[-72.4671,-36.32927],[-72.467091,-36.330166],[-72.465337,-36.329094],[-72.460176,-36.330401],[-72.459629,-36.33403],[-72.45931,-36.33428],[-72.459108,-36.3346],[-72.45873,-36.3352],[-72.45852,-36.33669],[-72.45821,-36.34018],[-72.45768,-36.34081],[-72.45686,-36.34101],[-72.45598,-36.34116],[-72.45589,-36.341163],[-72.45514,-36.34119],[-72.45432,-36.34147],[-72.45378,-36.34207],[-72.45347,-36.34288],[-72.453715,-36.343747],[-72.454511,-36.344434],[-72.45524,-36.3449],[-72.45589,-36.346],[-72.456353,-36.347081],[-72.45649,-36.3474],[-72.45743,-36.34914],[-72.4577,-36.35106],[-72.45776,-36.35214],[-72.45739,-36.35348],[-72.45702,-36.35447],[-72.461731,-36.353005],[-72.461641,-36.353598],[-72.466187,-36.356375],[-72.465571,-36.360458],[-72.470117,-36.363235],[-72.469501,-36.367317],[-72.474047,-36.370094],[-72.473431,-36.374175],[-72.477977,-36.376952]],[[-72.396008,-36.393724],[-72.390847,-36.395025],[-72.39023,-36.399104],[-72.394774,-36.401882],[-72.399935,-36.400581],[-72.400552,-36.396502],[-72.405713,-36.395201],[-72.40633,-36.391122],[-72.401786,-36.388344],[-72.396625,-36.389645],[-72.396008,-36.393724]]]},"properties":{"comuna":"Ninhue","mancha_id":"16204-88b2d8a859fffff","clase":"Alto","nivel_medio":2.766,"nivel_medio_min":2.5,"nivel_medio_max":3.306,"pct_alto":75.4,"n_hexagonos":93,"area_ha":5215.04}},{"type":"Feature","geometry":{"type":"Polygon","coordinates":[[[-72.518666,-36.370581],[-72.51805,-36.374663],[-72.512887,-36.375971],[-72.512271,-36.380053],[-72.51682,-36.382828],[-72.516204,-36.38691],[-72.51104,-36.388216],[-72.506492,-36.385442],[-72.507108,-36.38136],[-72.50256,-36.378585],[-72.497397,-36.379891],[-72.49285,-36.377116],[-72.487687,-36.378422],[-72.48314,-36.375646],[-72.483756,-36.371564],[-72.488918,-36.370258],[-72.489534,-36.366175],[-72.494697,-36.364869],[-72.495312,-36.360786],[-72.500475,-36.359479],[-72.500871,-36.356853],[-72.501184,-36.356933],[-72.501408,-36.356946],[-72.501519,-36.356953],[-72.501741,-36.356933],[-72.501905,-36.356923],[-72.50217,-36.356865],[-72.502335,-36.3568],[-72.502367,-36.356803],[-72.50305,-36.35691],[-72.50355,-36.35702],[-72.5038,-36.35726],[-72.50405,-36.35753],[-72.50449,-36.35781],[-72.50485,-36.35794],[-72.50529,-36.35816],[-72.50573,-36.35837],[-72.50637,-36.35875],[-72.50703,-36.35928],[-72.50737,-36.35968],[-72.50789,-36.35994],[-72.50846,-36.36001],[-72.50899,-36.36],[-72.50941,-36.35991],[-72.50987,-36.35967],[-72.510477,-36.359009],[-72.51055,-36.35893],[-72.51084,-36.35853],[-72.5113,-36.35816],[-72.51167,-36.35792],[-72.51205,-36.35796],[-72.51279,-36.35792],[-72.51358,-36.3578],[-72.51441,-36.3578],[-72.51485,-36.35792],[-72.5152,-36.35826],[-72.51525,-36.35876],[-72.51517,-36.3596],[-72.51526,-36.3598],[-72.51528,-36.36003],[-72.51547,-36.36016],[-72.51582,-36.36017],[-72.51626,-36.36],[-72.51662,-36.35992],[-72.51736,-36.3601],[-72.51835,-36.36067],[-72.51904,-36.36123],[-72.51961,-36.36135],[-72.520068,-36.361272],[-72.519896,-36.362414],[-72.514733,-36.363722],[-72.514118,-36.367806],[-72.518666,-36.370581]]]},"properties":{"comuna":"Ninhue","mancha_id":"16204-88b2d8a8a1fffff","clase":"Alto","nivel_medio":2.739,"nivel_medio_min":2.552,"nivel_medio_max":2.969,"pct_alto":67.8,"n_hexagonos":11,"area_ha":606.9}},{"type":"Feature","geometry":{"type":"Polygon","coordinates":[[[-72.481292,-36.38789],[-72.481908,-36.383809],[-72.487071,-36.382503],[-72.491618,-36.385279],[-72.496781,-36.383973],[-72.501329,-36.386748],[-72.500713,-36.390829],[-72.49555,-36.392135],[-72.491002,-36.38936],[-72.485839,-36.390666],[-72.481292,-36.38789]]]},"properties":{"comuna":"Ninhue","mancha_id":"16204-88b2d83241fffff","clase":"Alto","nivel_medio":2.712,"nivel_medio_min":2.7,"nivel_medio_max":2.724,"pct_alto":62.8,"n_hexagonos":2,"area_ha":121.07}},{"type":"Feature","geometry":{"type":"Polygon","coordinates":[[[-72.530465,-36.391151],[-72.52985,-36.395232],[-72.524686,-36.396539],[-72.520137,-36.393765],[-72.520753,-36.389684],[-72.525916,-36.388377],[-72.526532,-36.384295],[-72.531696,-36.382987],[-72.536245,-36.385761],[-72.53563,-36.389843],[-72.530465,-36.391151]]]},"properties":{"comuna":"Ninhue","mancha_id":"16204-88b2d8326dfffff","clase":"Alto","nivel_medio":2.659,"nivel_medio_min":2.59,"nivel_medio_max":2.728,"pct_alto":65.5,"n_hexagonos":2,"area_ha":121.1}},{"type":"Feature","geometry":{"type":"Polygon","coordinates":[[[-72.493703,-36.404376],[-72.489155,-36.401601],[-72.489771,-36.397521],[-72.494934,-36.396216],[-72.499482,-36.398991],[-72.498866,-36.403071],[-72.493703,-36.404376]]]},"properties":{"comuna":"Ninhue","mancha_id":"16204-88b2d83209fffff","clase":"Alto","nivel_medio":2.502,"nivel_medio_min":2.502,"nivel_medio_max":2.502,"pct_alto":49.0,"n_hexagonos":1,"area_ha":60.52}},{"type":"Feature","geometry":{"type":"Polygon","coordinates":[[[-72.478213,-36.408291],[-72.473665,-36.405516],[-72.474281,-36.401436],[-72.479444,-36.400131],[-72.483992,-36.402906],[-72.483376,-36.406986],[-72.478213,-36.408291]]]},"properties":{"comuna":"Ninhue","mancha_id":"16204-88b2d83257fffff","clase":"Alto","nivel_medio":2.551,"nivel_medio_min":2.551,"nivel_medio_max":2.551,"pct_alto":41.8,"n_hexagonos":1,"area_ha":60.5}},{"type":"Feature","geometry":{"type":"Polygon","coordinates":[[[-72.470671,-36.418042],[-72.474073,-36.421107],[-72.472311,-36.425475],[-72.467147,-36.426779],[-72.463746,-36.423714],[-72.465508,-36.419346],[-72.470671,-36.418042]]]},"properties":{"comuna":"Ninhue","mancha_id":"16204-88b2d83213fffff","clase":"Alto","nivel_medio":2.52,"nivel_medio_min":2.52,"nivel_medio_max":2.52,"pct_alto":47.8,"n_hexagonos":1,"area_ha":60.49}}],"bbox":[-72.55185,-36.48397,-72.27726,-36.22288]}