{"type":"FeatureCollection","features":[{"type":"Feature","geometry":{"type":"Polygon","coordinates":[[[-72.042326,-36.176364],[-72.03718,-36.177657],[-72.035319,-36.176507],[-72.035794,-36.176352],[-72.036305,-36.176012],[-72.037085,-36.175203],[-72.037879,-36.174324],[-72.038489,-36.173543],[-72.039199,-36.172848],[-72.03971,-36.172366],[-72.040164,-36.172054],[-72.040703,-36.171727],[-72.041647,-36.171473],[-72.042947,-36.172276],[-72.042326,-36.176364]]]},"properties":{"comuna":"Ñiquén","mancha_id":"16303-88b2dd7995fffff","clase":"Bajo","nivel_medio":1.193,"nivel_medio_min":1.193,"nivel_medio_max":1.193,"pct_alto":0.2,"n_hexagonos":1,"area_ha":25.56}},{"type":"Feature","geometry":{"type":"Polygon","coordinates":[[[-72.073419,-36.137521],[-72.073351,-36.137374],[-72.076117,-36.139083],[-72.075817,-36.139011],[-72.074866,-36.138784],[-72.074412,-36.138486],[-72.073831,-36.138032],[-72.073419,-36.137521]]]},"properties":{"comuna":"Ñiquén","mancha_id":"16303-88b2dd7917fffff","clase":"Bajo","nivel_medio":1.463,"nivel_medio_min":1.463,"nivel_medio_max":1.463,"pct_alto":6.9,"n_hexagonos":1,"area_ha":0.84}},{"type":"Feature","geometry":{"type":"Polygon","coordinates":[[[-71.894068,-36.272377],[-71.894691,-36.268298],[-71.899835,-36.267016],[-71.904356,-36.269812],[-71.903733,-36.273891],[-71.898589,-36.275173],[-71.894068,-36.272377]]]},"properties":{"comuna":"Ñiquén","mancha_id":"16303-88b2dd6f53fffff","clase":"Bajo","nivel_medio":1.395,"nivel_medio_min":1.395,"nivel_medio_max":1.395,"pct_alto":3.3,"n_hexagonos":1,"area_ha":60.37}},{"type":"Feature","geometry":{"type":"Polygon","coordinates":[[[-71.930703,-36.259315],[-71.925558,-36.260599],[-71.922424,-36.258661],[-71.922563,-36.258626],[-71.923669,-36.258413],[-71.924762,-36.258201],[-71.925897,-36.258002],[-71.926847,-36.25786],[-71.928153,-36.25769],[-71.929699,-36.257491],[-71.930281,-36.257434],[-71.931007,-36.257324],[-71.930703,-36.259315]]]},"properties":{"comuna":"Ñiquén","mancha_id":"16303-88b2dd6f41fffff","clase":"Bajo","nivel_medio":1.479,"nivel_medio_min":1.479,"nivel_medio_max":1.479,"pct_alto":0.2,"n_hexagonos":1,"area_ha":15.87}},{"type":"Feature","geometry":{"type":"Polygon","coordinates":[[[-71.840758,-36.297413],[-71.836239,-36.294615],[-71.831096,-36.295894],[-71.826578,-36.293096],[-71.827202,-36.28902],[-71.832345,-36.287742],[-71.836864,-36.290539],[-71.842007,-36.28926],[-71.846526,-36.292058],[-71.845902,-36.296134],[-71.840758,-36.297413]]]},"properties":{"comuna":"Ñiquén","mancha_id":"16303-88b2dd6ee1fffff","clase":"Bajo","nivel_medio":1.123,"nivel_medio_min":1.078,"nivel_medio_max":1.168,"pct_alto":1.4,"n_hexagonos":2,"area_ha":120.6}},{"type":"Feature","geometry":{"type":"Polygon","coordinates":[[[-71.815043,-36.303802],[-71.815668,-36.299727],[-71.820811,-36.29845],[-71.825329,-36.301247],[-71.830472,-36.299969],[-71.834991,-36.302767],[-71.834367,-36.306842],[-71.838886,-36.309639],[-71.838261,-36.313713],[-71.842781,-36.31651],[-71.842157,-36.320584],[-71.837013,-36.321862],[-71.832493,-36.319065],[-71.833118,-36.314991],[-71.828599,-36.312194],[-71.829223,-36.30812],[-71.824705,-36.305322],[-71.819562,-36.3066],[-71.818937,-36.310674],[-71.813794,-36.311951],[-71.809276,-36.309154],[-71.809901,-36.305079],[-71.815043,-36.303802]]]},"properties":{"comuna":"Ñiquén","mancha_id":"16303-88b2dd6e81fffff","clase":"Bajo","nivel_medio":1.298,"nivel_medio_min":1.164,"nivel_medio_max":1.408,"pct_alto":6.0,"n_hexagonos":5,"area_ha":301.36}},{"type":"Feature","geometry":{"type":"Polygon","coordinates":[[[-71.857285,-36.254078],[-71.852142,-36.255359],[-71.847934,-36.252753],[-71.848044,-36.252225],[-71.848005,-36.251634],[-71.847865,-36.251163],[-71.847846,-36.251106],[-71.848247,-36.248481],[-71.85339,-36.2472],[-71.857909,-36.249999],[-71.857285,-36.254078]]]},"properties":{"comuna":"Ñiquén","mancha_id":"16303-88b2dd6e43fffff","clase":"Bajo","nivel_medio":1.324,"nivel_medio_min":1.324,"nivel_medio_max":1.324,"pct_alto":0.7,"n_hexagonos":1,"area_ha":59.98}},{"type":"Feature","geometry":{"type":"Polygon","coordinates":[[[-71.849646,-36.271672],[-71.85027,-36.267595],[-71.855413,-36.266314],[-71.859932,-36.269112],[-71.859309,-36.27319],[-71.854165,-36.27447],[-71.849646,-36.271672]]]},"properties":{"comuna":"Ñiquén","mancha_id":"16303-88b2dd6e03fffff","clase":"Bajo","nivel_medio":1.217,"nivel_medio_min":1.217,"nivel_medio_max":1.217,"pct_alto":11.1,"n_hexagonos":1,"area_ha":60.35}},{"type":"Feature","geometry":{"type":"Polygon","coordinates":[[[-71.902179,-36.348772],[-71.902802,-36.344698],[-71.9054,-36.344052],[-71.90503,-36.34454],[-71.904681,-36.344916],[-71.904436,-36.345091],[-71.904302,-36.345206],[-71.904239,-36.345458],[-71.90423,-36.34579],[-71.90418,-36.34645],[-71.90346,-36.34752],[-71.90337,-36.34793],[-71.90317,-36.34828],[-71.90251,-36.34881],[-71.902444,-36.348936],[-71.90239,-36.34904],[-71.9022,-36.34934],[-71.9017,-36.34974],[-71.90055,-36.35051],[-71.89931,-36.35108],[-71.89858,-36.35159],[-71.89804,-36.3523],[-71.89727,-36.35364],[-71.89697,-36.35419],[-71.896818,-36.354376],[-71.89679,-36.35441],[-71.8963,-36.35464],[-71.89584,-36.35497],[-71.89567,-36.35542],[-71.89551,-36.35627],[-71.89553,-36.35677],[-71.89553,-36.35715],[-71.89522,-36.35774],[-71.89525,-36.35855],[-71.89519,-36.35921],[-71.89545,-36.35992],[-71.89545,-36.35992],[-71.89529,-36.36027],[-71.89457,-36.36067],[-71.89388,-36.36107],[-71.893466,-36.361221],[-71.890639,-36.359475],[-71.891263,-36.355403],[-71.896409,-36.354124],[-71.897033,-36.350051],[-71.902179,-36.348772]]]},"properties":{"comuna":"Ñiquén","mancha_id":"16303-88b2dd6dc3fffff","clase":"Bajo","nivel_medio":1.355,"nivel_medio_min":1.098,"nivel_medio_max":1.488,"pct_alto":2.5,"n_hexagonos":3,"area_ha":42.61}},{"type":"Feature","geometry":{"type":"Polygon","coordinates":[[[-71.920009,-36.329304],[-71.920111,-36.328634],[-71.920813,-36.328459],[-71.92037,-36.32892],[-71.920009,-36.329304]]]},"properties":{"comuna":"Ñiquén","mancha_id":"16303-88b2dd6d1bfffff","clase":"Bajo","nivel_medio":1.0,"nivel_medio_min":1.0,"nivel_medio_max":1.0,"pct_alto":0.0,"n_hexagonos":1,"area_ha":0.22}},{"type":"Feature","geometry":{"type":"Polygon","coordinates":[[[-72.048271,-36.202391],[-72.048892,-36.198304],[-72.044366,-36.195509],[-72.044988,-36.191422],[-72.050134,-36.19013],[-72.05466,-36.192924],[-72.059807,-36.191632],[-72.064333,-36.194426],[-72.063712,-36.198513],[-72.058565,-36.199806],[-72.057944,-36.203893],[-72.052797,-36.205185],[-72.048271,-36.202391]]]},"properties":{"comuna":"Ñiquén","mancha_id":"16303-88b2dd6b51fffff","clase":"Bajo","nivel_medio":1.21,"nivel_medio_min":1.015,"nivel_medio_max":1.324,"pct_alto":2.5,"n_hexagonos":3,"area_ha":181.73}},{"type":"Feature","geometry":{"type":"Polygon","coordinates":[[[-72.046407,-36.214649],[-72.047028,-36.210563],[-72.052176,-36.209271],[-72.056702,-36.212065],[-72.056081,-36.216151],[-72.050933,-36.217442],[-72.046407,-36.214649]]]},"properties":{"comuna":"Ñiquén","mancha_id":"16303-88b2dd6b19fffff","clase":"Bajo","nivel_medio":1.485,"nivel_medio_min":1.485,"nivel_medio_max":1.485,"pct_alto":7.5,"n_hexagonos":1,"area_ha":60.55}},{"type":"Feature","geometry":{"type":"Polygon","coordinates":[[[-72.081199,-36.213774],[-72.076051,-36.215067],[-72.07543,-36.219153],[-72.079958,-36.221946],[-72.079337,-36.226031],[-72.074188,-36.227324],[-72.073567,-36.231409],[-72.068419,-36.232701],[-72.063892,-36.229908],[-72.064513,-36.225823],[-72.059986,-36.22303],[-72.060607,-36.218944],[-72.065755,-36.217652],[-72.066376,-36.213566],[-72.061849,-36.210773],[-72.06247,-36.206686],[-72.067618,-36.205394],[-72.072145,-36.208187],[-72.077293,-36.206894],[-72.08182,-36.209687],[-72.081199,-36.213774]]]},"properties":{"comuna":"Ñiquén","mancha_id":"16303-88b2dd6b01fffff","clase":"Bajo","nivel_medio":1.22,"nivel_medio_min":0.986,"nivel_medio_max":1.498,"pct_alto":3.8,"n_hexagonos":6,"area_ha":363.32}},{"type":"Feature","geometry":{"type":"Polygon","coordinates":[[[-71.994588,-36.229857],[-71.994318,-36.231633],[-71.993085,-36.231942],[-71.993401,-36.231372],[-71.993671,-36.230833],[-71.994054,-36.230364],[-71.994588,-36.229857]]]},"properties":{"comuna":"Ñiquén","mancha_id":"16303-88b2dd6ae1fffff","clase":"Bajo","nivel_medio":0.946,"nivel_medio_min":0.946,"nivel_medio_max":0.946,"pct_alto":0.5,"n_hexagonos":1,"area_ha":1.29}},{"type":"Feature","geometry":{"type":"Polygon","coordinates":[[[-71.981537,-36.250539],[-71.980915,-36.25462],[-71.977708,-36.255422],[-71.977909,-36.255264],[-71.978774,-36.25454],[-71.9792,-36.2542],[-71.979639,-36.253788],[-71.980008,-36.253093],[-71.980278,-36.252525],[-71.980661,-36.252086],[-71.980888,-36.251547],[-71.980973,-36.251078],[-71.981115,-36.250468],[-71.981118,-36.25028],[-71.981537,-36.250539]]]},"properties":{"comuna":"Ñiquén","mancha_id":"16303-88b2dd6abdfffff","clase":"Bajo","nivel_medio":1.007,"nivel_medio_min":1.007,"nivel_medio_max":1.007,"pct_alto":0.8,"n_hexagonos":1,"area_ha":5.05}},{"type":"Feature","geometry":{"type":"Polygon","coordinates":[[[-72.027062,-36.211642],[-72.027683,-36.207557],[-72.03283,-36.206266],[-72.037356,-36.20906],[-72.036734,-36.213146],[-72.031587,-36.214437],[-72.030966,-36.218522],[-72.025819,-36.219812],[-72.021294,-36.217018],[-72.021915,-36.212933],[-72.027062,-36.211642]]]},"properties":{"comuna":"Ñiquén","mancha_id":"16303-88b2dd6a21fffff","clase":"Bajo","nivel_medio":1.337,"nivel_medio_min":1.25,"nivel_medio_max":1.424,"pct_alto":0.1,"n_hexagonos":2,"area_ha":121.08}},{"type":"Feature","geometry":{"type":"Polygon","coordinates":[[[-71.990899,-36.212848],[-71.992282,-36.212501],[-71.995749,-36.214644],[-71.994793,-36.21433],[-71.993614,-36.214049],[-71.992749,-36.213793],[-71.991997,-36.213595],[-71.991245,-36.213183],[-71.990899,-36.212848]]]},"properties":{"comuna":"Ñiquén","mancha_id":"16303-88b2dd6a17fffff","clase":"Bajo","nivel_medio":1.018,"nivel_medio_min":1.018,"nivel_medio_max":1.018,"pct_alto":0.3,"n_hexagonos":1,"area_ha":2.9}},{"type":"Feature","geometry":{"type":"Polygon","coordinates":[[[-71.989511,-36.295642],[-71.994658,-36.294356],[-71.995634,-36.294958],[-71.995369,-36.295129],[-71.99495,-36.2954],[-71.99385,-36.29575],[-71.99229,-36.29651],[-71.99137,-36.29708],[-71.99073,-36.29763],[-71.99021,-36.29795],[-71.98962,-36.29816],[-71.989123,-36.298187],[-71.989511,-36.295642]]]},"properties":{"comuna":"Ñiquén","mancha_id":"16303-88b2dd68b9fffff","clase":"Bajo","nivel_medio":1.448,"nivel_medio_min":1.448,"nivel_medio_max":1.448,"pct_alto":0.4,"n_hexagonos":1,"area_ha":10.07}},{"type":"Feature","geometry":{"type":"Polygon","coordinates":[[[-72.019429,-36.229271],[-72.02005,-36.225187],[-72.025197,-36.223897],[-72.029723,-36.226691],[-72.029101,-36.230775],[-72.023954,-36.232065],[-72.019429,-36.229271]]]},"properties":{"comuna":"Ñiquén","mancha_id":"16303-88b2dd684bfffff","clase":"Bajo","nivel_medio":1.071,"nivel_medio_min":1.071,"nivel_medio_max":1.071,"pct_alto":0.2,"n_hexagonos":1,"area_ha":60.51}},{"type":"Feature","geometry":{"type":"Polygon","coordinates":[[[-71.770869,-36.301568],[-71.770639,-36.303064],[-71.768126,-36.303688],[-71.768153,-36.303647],[-71.768366,-36.303338],[-71.768592,-36.303106],[-71.7688,-36.30295],[-71.769082,-36.302757],[-71.769488,-36.302428],[-71.769836,-36.302119],[-71.770127,-36.301828],[-71.770359,-36.301693],[-71.770727,-36.301615],[-71.770869,-36.301568]]]},"properties":{"comuna":"Ñiquén","mancha_id":"16303-88b2dd65abfffff","clase":"Bajo","nivel_medio":1.475,"nivel_medio_min":1.475,"nivel_medio_max":1.475,"pct_alto":0.0,"n_hexagonos":1,"area_ha":2.34}},{"type":"Feature","geometry":{"type":"Polygon","coordinates":[[[-71.820817,-36.25531],[-71.817395,-36.256161],[-71.814004,-36.25406],[-71.81434,-36.253916],[-71.814751,-36.253887],[-71.815589,-36.253973],[-71.81617,-36.254029],[-71.816936,-36.254058],[-71.817915,-36.254455],[-71.818752,-36.254909],[-71.819196,-36.255013],[-71.819551,-36.254915],[-71.819858,-36.254943],[-71.820241,-36.255082],[-71.820659,-36.255239],[-71.820817,-36.25531]]]},"properties":{"comuna":"Ñiquén","mancha_id":"16303-88b2dd6567fffff","clase":"Bajo","nivel_medio":1.349,"nivel_medio_min":1.349,"nivel_medio_max":1.349,"pct_alto":11.9,"n_hexagonos":1,"area_ha":6.81}},{"type":"Feature","geometry":{"type":"Polygon","coordinates":[[[-71.666708,-36.367929],[-71.661568,-36.369197],[-71.658114,-36.367054],[-71.658199,-36.367001],[-71.658615,-36.366793],[-71.659052,-36.36671],[-71.659593,-36.366523],[-71.659967,-36.366398],[-71.660795,-36.366261],[-71.66172,-36.366113],[-71.662386,-36.365928],[-71.662901,-36.365566],[-71.663296,-36.364879],[-71.663793,-36.363633],[-71.664056,-36.363112],[-71.664565,-36.362682],[-71.665125,-36.362491],[-71.667334,-36.363862],[-71.666708,-36.367929]]]},"properties":{"comuna":"Ñiquén","mancha_id":"16303-88b2d99a8bfffff","clase":"Bajo","nivel_medio":1.445,"nivel_medio_min":1.445,"nivel_medio_max":1.445,"pct_alto":0.7,"n_hexagonos":1,"area_ha":30.29}},{"type":"Feature","geometry":{"type":"Polygon","coordinates":[[[-71.709083,-36.34964],[-71.703942,-36.35091],[-71.70063,-36.348856],[-71.700796,-36.348659],[-71.701309,-36.348327],[-71.701701,-36.348116],[-71.702544,-36.347935],[-71.703328,-36.347905],[-71.704137,-36.347944],[-71.704761,-36.34759],[-71.705593,-36.347216],[-71.706259,-36.346966],[-71.706863,-36.346924],[-71.707404,-36.346883],[-71.707875,-36.347119],[-71.708542,-36.347091],[-71.709492,-36.346976],[-71.709083,-36.34964]]]},"properties":{"comuna":"Ñiquén","mancha_id":"16303-88b2d99a3bfffff","clase":"Bajo","nivel_medio":1.378,"nivel_medio_min":1.378,"nivel_medio_max":1.378,"pct_alto":4.8,"n_hexagonos":1,"area_ha":22.07}},{"type":"Feature","geometry":{"type":"Polygon","coordinates":[[[-71.726909,-36.330192],[-71.726383,-36.333615],[-71.721386,-36.334851],[-71.722346,-36.334041],[-71.723009,-36.333529],[-71.723823,-36.332835],[-71.724607,-36.332233],[-71.725149,-36.33175],[-71.725631,-36.331238],[-71.726084,-36.330726],[-71.726626,-36.330334],[-71.726909,-36.330192]]]},"properties":{"comuna":"Ñiquén","mancha_id":"16303-88b2d99a05fffff","clase":"Bajo","nivel_medio":1.45,"nivel_medio_min":1.45,"nivel_medio_max":1.45,"pct_alto":0.0,"n_hexagonos":1,"area_ha":8.16}},{"type":"Feature","geometry":{"type":"Polygon","coordinates":[[[-71.722761,-36.389311],[-71.723387,-36.385243],[-71.728529,-36.383974],[-71.733046,-36.386771],[-71.73242,-36.390838],[-71.727277,-36.392108],[-71.722761,-36.389311]]]},"properties":{"comuna":"Ñiquén","mancha_id":"16303-88b2d99815fffff","clase":"Bajo","nivel_medio":1.398,"nivel_medio_min":1.398,"nivel_medio_max":1.398,"pct_alto":0.0,"n_hexagonos":1,"area_ha":60.09}},{"type":"Feature","geometry":{"type":"Polygon","coordinates":[[[-71.740065,-36.373297],[-71.734923,-36.374568],[-71.734297,-36.378636],[-71.729155,-36.379906],[-71.724639,-36.377108],[-71.725265,-36.37304],[-71.72075,-36.370242],[-71.721376,-36.366174],[-71.726517,-36.364903],[-71.731033,-36.367701],[-71.736175,-36.36643],[-71.740691,-36.369228],[-71.740065,-36.373297]]]},"properties":{"comuna":"Ñiquén","mancha_id":"16303-88b2d99809fffff","clase":"Bajo","nivel_medio":1.297,"nivel_medio_min":1.126,"nivel_medio_max":1.438,"pct_alto":1.3,"n_hexagonos":3,"area_ha":180.35}},{"type":"Feature","geometry":{"type":"Polygon","coordinates":[[[-72.132241,-36.269031],[-72.132444,-36.267694],[-72.134634,-36.267144],[-72.13405,-36.26784],[-72.13371,-36.26821],[-72.13311,-36.26847],[-72.13267,-36.26872],[-72.132241,-36.269031]]]},"properties":{"comuna":"Ñiquén","mancha_id":"16303-88b2dd6925fffff","clase":"Medio","nivel_medio":2.061,"nivel_medio_min":2.061,"nivel_medio_max":2.061,"pct_alto":6.1,"n_hexagonos":1,"area_ha":1.75}},{"type":"Feature","geometry":{"type":"Polygon","coordinates":[[[-72.133685,-36.259527],[-72.134305,-36.255443],[-72.129775,-36.252653],[-72.124624,-36.253947],[-72.120094,-36.251156],[-72.114944,-36.25245],[-72.114324,-36.256534],[-72.118854,-36.259324],[-72.118233,-36.263408],[-72.122763,-36.266198],[-72.122143,-36.270281],[-72.125703,-36.272473],[-72.12554,-36.27264],[-72.1251,-36.27293],[-72.12458,-36.27316],[-72.12398,-36.27319],[-72.123632,-36.273358],[-72.12332,-36.27357],[-72.122788,-36.273817],[-72.12214,-36.27402],[-72.12081,-36.2744],[-72.11956,-36.27465],[-72.118861,-36.274845],[-72.118448,-36.2749],[-72.11776,-36.27493],[-72.117164,-36.274936],[-72.11647,-36.27502],[-72.116468,-36.275021],[-72.11581,-36.27525],[-72.11529,-36.27566],[-72.11513,-36.275968],[-72.11502,-36.27618],[-72.11488,-36.27668],[-72.1149,-36.27729],[-72.1152,-36.27879],[-72.1152,-36.27879],[-72.11522,-36.2793],[-72.11514,-36.27965],[-72.11461,-36.28002],[-72.11384,-36.28036],[-72.1128,-36.28076],[-72.11225,-36.28111],[-72.11192,-36.28146],[-72.111784,-36.281759],[-72.11177,-36.281789],[-72.111761,-36.282202],[-72.111843,-36.282605],[-72.111843,-36.282605],[-72.111807,-36.282945],[-72.111678,-36.283101],[-72.11146,-36.28315],[-72.111036,-36.283209],[-72.11044,-36.283238],[-72.10888,-36.28325],[-72.107954,-36.283238],[-72.107238,-36.283211],[-72.107036,-36.283229],[-72.10683,-36.28328],[-72.106284,-36.283431],[-72.105578,-36.283569],[-72.105257,-36.283595],[-72.1047,-36.28364],[-72.10391,-36.28367],[-72.10256,-36.28379],[-72.10187,-36.28389],[-72.101465,-36.284007],[-72.10095,-36.28421],[-72.100695,-36.284264],[-72.100298,-36.284308],[-72.099814,-36.284315],[-72.09934,-36.28429],[-72.098926,-36.284301],[-72.09849,-36.28441],[-72.09793,-36.28462],[-72.09743,-36.28465],[-72.09692,-36.28448],[-72.09544,-36.28395],[-72.095298,-36.283933],[-72.09446,-36.28383],[-72.09306,-36.2839],[-72.09187,-36.28419],[-72.09095,-36.28438],[-72.09055,-36.28467],[-72.09029,-36.28509],[-72.09013,-36.28548],[-72.08989,-36.28597],[-72.089765,-36.286052],[-72.08878,-36.2867],[-72.088441,-36.286842],[-72.088192,-36.286885],[-72.087915,-36.286951],[-72.08765,-36.28698],[-72.087309,-36.286974],[-72.087032,-36.286964],[-72.086689,-36.286969],[-72.08643,-36.28701],[-72.086167,-36.287105],[-72.08581,-36.28729],[-72.0854,-36.28764],[-72.08499,-36.28803],[-72.08482,-36.28822],[-72.084565,-36.288316],[-72.084191,-36.288369],[-72.0838,-36.28824],[-72.083509,-36.288135],[-72.08326,-36.28797],[-72.08281,-36.28766],[-72.08248,-36.28754],[-72.08218,-36.2875],[-72.08183,-36.28756],[-72.08118,-36.28793],[-72.080674,-36.288199],[-72.080375,-36.288231],[-72.08002,-36.28815],[-72.079808,-36.288067],[-72.07946,-36.28793],[-72.07848,-36.28741],[-72.07776,-36.28727],[-72.07714,-36.28735],[-72.076443,-36.287617],[-72.07599,-36.28779],[-72.075382,-36.288031],[-72.074981,-36.28821],[-72.07463,-36.28842],[-72.074401,-36.288568],[-72.074171,-36.288755],[-72.07375,-36.28911],[-72.073448,-36.289388],[-72.07336,-36.28947],[-72.0729,-36.28994],[-72.072747,-36.290137],[-72.07256,-36.29025],[-72.07196,-36.29037],[-72.07046,-36.29061],[-72.06933,-36.29072],[-72.06842,-36.29057],[-72.06692,-36.2905],[-72.06638,-36.29047],[-72.06553,-36.28985],[-72.064702,-36.289686],[-72.06462,-36.28967],[-72.06326,-36.28966],[-72.06189,-36.28949],[-72.06074,-36.28942],[-72.05946,-36.2896],[-72.05856,-36.28969],[-72.05806,-36.28987],[-72.05758,-36.29023],[-72.05736,-36.29054],[-72.05708,-36.29078],[-72.05624,-36.29103],[-72.05548,-36.29143],[-72.05534,-36.291617],[-72.05515,-36.29187],[-72.05496,-36.29219],[-72.05461,-36.29245],[-72.05432,-36.29253],[-72.0541,-36.29252],[-72.05388,-36.29234],[-72.05345,-36.29193],[-72.05305,-36.29181],[-72.05264,-36.29174],[-72.05251,-36.291661],[-72.052,-36.29135],[-72.05165,-36.29133],[-72.05132,-36.29152],[-72.05104,-36.29192],[-72.050943,-36.292053],[-72.0508,-36.29225],[-72.05058,-36.29233],[-72.05031,-36.29232],[-72.050177,-36.292245],[-72.04962,-36.29193],[-72.04918,-36.29167],[-72.04883,-36.29159],[-72.04822,-36.29158],[-72.048058,-36.291591],[-72.04762,-36.29162],[-72.04704,-36.2914],[-72.04704,-36.2914],[-72.04663,-36.29086],[-72.04637,-36.29065],[-72.04607,-36.29059],[-72.0458,-36.29061],[-72.0454,-36.29072],[-72.04466,-36.2911],[-72.04433,-36.29133],[-72.0439,-36.29198],[-72.04355,-36.29241],[-72.04311,-36.29266],[-72.04282,-36.29272],[-72.04231,-36.29266],[-72.04179,-36.29239],[-72.04179,-36.29239],[-72.04125,-36.29159],[-72.041266,-36.290551],[-72.04127,-36.29031],[-72.04127,-36.29031],[-72.04113,-36.29005],[-72.04097,-36.28991],[-72.04065,-36.28986],[-72.03957,-36.28975],[-72.03869,-36.28973],[-72.038006,-36.289856],[-72.03766,-36.28992],[-72.03568,-36.29045],[-72.03475,-36.29067],[-72.03437,-36.29066],[-72.034162,-36.290579],[-72.034,-36.29041],[-72.034,-36.29041],[-72.033913,-36.290155],[-72.033913,-36.290155],[-72.03383,-36.28977],[-72.03383,-36.28977],[-72.03377,-36.28935],[-72.03377,-36.28935],[-72.03354,-36.28908],[-72.033332,-36.288943],[-72.033093,-36.288864],[-72.032816,-36.288874],[-72.032631,-36.288915],[-72.03233,-36.28913],[-72.031775,-36.289417],[-72.03095,-36.29],[-72.030751,-36.2901],[-72.0303,-36.290173],[-72.029959,-36.290172],[-72.02962,-36.29017],[-72.02853,-36.29001],[-72.028098,-36.28998],[-72.027795,-36.290024],[-72.027574,-36.290201],[-72.027483,-36.290426],[-72.0274,-36.29068],[-72.027213,-36.291167],[-72.02695,-36.29161],[-72.02653,-36.29192],[-72.02605,-36.29198],[-72.02525,-36.29187],[-72.02481,-36.29175],[-72.02433,-36.29142],[-72.024198,-36.291362],[-72.02408,-36.29137],[-72.02395,-36.29146],[-72.02359,-36.29167],[-72.02323,-36.29171],[-72.02242,-36.29148],[-72.02208,-36.29144],[-72.02162,-36.29159],[-72.02086,-36.29197],[-72.020036,-36.292162],[-72.01983,-36.29221],[-72.01901,-36.29224],[-72.018863,-36.29223],[-72.01856,-36.29221],[-72.01766,-36.29195],[-72.016623,-36.291868],[-72.016026,-36.291816],[-72.01558,-36.29173],[-72.014986,-36.29155],[-72.01453,-36.29134],[-72.013991,-36.291196],[-72.013777,-36.291167],[-72.013386,-36.291241],[-72.0129,-36.29132],[-72.011929,-36.291624],[-72.01191,-36.29163],[-72.011697,-36.291668],[-72.011284,-36.291587],[-72.01038,-36.29144],[-72.00857,-36.29113],[-72.008173,-36.290997],[-72.008149,-36.290985],[-72.00776,-36.29077],[-72.007479,-36.290592],[-72.00722,-36.29054],[-72.006853,-36.290503],[-72.00636,-36.29058],[-72.004714,-36.290422],[-72.004264,-36.290452],[-72.003851,-36.290621],[-72.003483,-36.290876],[-72.003372,-36.290953],[-72.003018,-36.291211],[-72.002627,-36.291727],[-72.002443,-36.291978],[-72.002148,-36.29231],[-72.001735,-36.292487],[-72.00107,-36.29289],[-72.0,-36.29358],[-72.0,-36.29358],[-71.99899,-36.29423],[-71.99774,-36.29478],[-71.9969,-36.29487],[-71.99639,-36.29479],[-71.996123,-36.294772],[-71.995823,-36.294836],[-71.995634,-36.294958],[-71.994658,-36.294356],[-71.989511,-36.295642],[-71.989123,-36.298187],[-71.98869,-36.29821],[-71.98778,-36.29826],[-71.98635,-36.29839],[-71.98493,-36.29842],[-71.98353,-36.29863],[-71.98212,-36.29897],[-71.980988,-36.299307],[-71.98091,-36.29933],[-71.9799,-36.29963],[-71.97872,-36.29965],[-71.97697,-36.29951],[-71.9765,-36.29931],[-71.975867,-36.299049],[-71.979216,-36.298213],[-71.979839,-36.294134],[-71.975314,-36.291341],[-71.970167,-36.292626],[-71.969545,-36.296704],[-71.973954,-36.299427],[-71.97318,-36.29988],[-71.97252,-36.3003],[-71.97182,-36.30067],[-71.97062,-36.30088],[-71.96995,-36.30103],[-71.96937,-36.30107],[-71.96898,-36.30092],[-71.96823,-36.30023],[-71.96789,-36.30007],[-71.96756,-36.30001],[-71.96699,-36.30015],[-71.96622,-36.30049],[-71.96574,-36.30058],[-71.9653,-36.30047],[-71.96493,-36.30025],[-71.96459,-36.30006],[-71.96411,-36.299874],[-71.96384,-36.29977],[-71.96336,-36.2996],[-71.96287,-36.29932],[-71.96287,-36.29932],[-71.96266,-36.29905],[-71.96266,-36.29905],[-71.962529,-36.29863],[-71.962304,-36.298443],[-71.96204,-36.29834],[-71.961048,-36.298086],[-71.960643,-36.298084],[-71.960289,-36.298186],[-71.959727,-36.298324],[-71.959425,-36.298307],[-71.959282,-36.298196],[-71.959069,-36.29811],[-71.958846,-36.298128],[-71.958567,-36.298057],[-71.958354,-36.297987],[-71.958025,-36.297892],[-71.957688,-36.297927],[-71.957265,-36.29791],[-71.956876,-36.297884],[-71.956436,-36.297962],[-71.956125,-36.298039],[-71.955874,-36.298152],[-71.955762,-36.298392],[-71.955599,-36.298577],[-71.955399,-36.298704],[-71.95498,-36.29871],[-71.95443,-36.29865],[-71.954397,-36.298639],[-71.9538,-36.29844],[-71.95344,-36.2983],[-71.95324,-36.29811],[-71.95324,-36.29811],[-71.95318,-36.29781],[-71.95318,-36.29781],[-71.953,-36.29749],[-71.95257,-36.29729],[-71.95223,-36.29723],[-71.95188,-36.29732],[-71.95156,-36.29754],[-71.95108,-36.29793],[-71.9505,-36.29813],[-71.95008,-36.29854],[-71.9495,-36.29906],[-71.94918,-36.29935],[-71.94888,-36.30004],[-71.94854,-36.30036],[-71.947649,-36.301033],[-71.9476,-36.30107],[-71.94718,-36.30134],[-71.94707,-36.30154],[-71.94708,-36.30218],[-71.94696,-36.30273],[-71.94632,-36.30333],[-71.94548,-36.3038],[-71.94524,-36.30426],[-71.94463,-36.30462],[-71.94429,-36.30536],[-71.94388,-36.306],[-71.94308,-36.3066],[-71.942725,-36.306915],[-71.94264,-36.30699],[-71.94247,-36.30735],[-71.94201,-36.3079],[-71.94166,-36.3083],[-71.9413,-36.30857],[-71.94068,-36.30875],[-71.94026,-36.30899],[-71.93967,-36.30913],[-71.93923,-36.30911],[-71.93828,-36.30907],[-71.93797,-36.30924],[-71.93801,-36.30965],[-71.93795,-36.31013],[-71.93784,-36.31047],[-71.93767,-36.31063],[-71.93739,-36.31073],[-71.93665,-36.31088],[-71.93647,-36.31106],[-71.93621,-36.31173],[-71.936181,-36.311796],[-71.93592,-36.31239],[-71.93558,-36.313],[-71.93535,-36.31324],[-71.93488,-36.31344],[-71.93405,-36.31359],[-71.9337,-36.31369],[-71.93332,-36.31417],[-71.93276,-36.31519],[-71.93227,-36.31563],[-71.93193,-36.31576],[-71.93134,-36.31587],[-71.93095,-36.31599],[-71.93042,-36.31636],[-71.93002,-36.31679],[-71.929928,-36.316856],[-71.92966,-36.31705],[-71.92902,-36.31721],[-71.9289,-36.31745],[-71.92863,-36.3181],[-71.92823,-36.31849],[-71.92773,-36.31892],[-71.9273,-36.3198],[-71.92708,-36.32045],[-71.92673,-36.32129],[-71.92659,-36.32154],[-71.92631,-36.3217],[-71.92556,-36.32234],[-71.925029,-36.322752],[-71.92489,-36.32286],[-71.92477,-36.32334],[-71.9245,-36.32367],[-71.92347,-36.32434],[-71.92285,-36.32481],[-71.92252,-36.32518],[-71.92204,-36.32669],[-71.92186,-36.32735],[-71.92116,-36.32792],[-71.92087,-36.3284],[-71.920813,-36.328459],[-71.920111,-36.328634],[-71.920009,-36.329304],[-71.91988,-36.32944],[-71.91951,-36.32974],[-71.91891,-36.33003],[-71.9185,-36.33027],[-71.9181,-36.33087],[-71.91772,-36.33159],[-71.91757,-36.33224],[-71.91734,-36.333],[-71.917151,-36.333291],[-71.91706,-36.33343],[-71.9166,-36.33378],[-71.9148,-36.33455],[-71.914369,-36.334659],[-71.914236,-36.33468],[-71.91379,-36.33475],[-71.9131,-36.33486],[-71.912906,-36.334974],[-71.91275,-36.3352],[-71.91245,-36.33589],[-71.91202,-36.3371],[-71.91157,-36.33776],[-71.91099,-36.33822],[-71.9103,-36.33861],[-71.90962,-36.33888],[-71.90887,-36.33916],[-71.908729,-36.339305],[-71.90855,-36.33949],[-71.90854,-36.3395],[-71.90786,-36.3407],[-71.90747,-36.34124],[-71.90731,-36.34167],[-71.90713,-36.34209],[-71.90693,-36.34262],[-71.90678,-36.34307],[-71.90646,-36.34336],[-71.90594,-36.3436],[-71.90547,-36.34396],[-71.9054,-36.344052],[-71.902802,-36.344698],[-71.902179,-36.348772],[-71.897033,-36.350051],[-71.896409,-36.354124],[-71.891263,-36.355403],[-71.890639,-36.359475],[-71.893466,-36.361221],[-71.89262,-36.36153],[-71.89242,-36.36176],[-71.8923,-36.36211],[-71.89223,-36.36273],[-71.89192,-36.36303],[-71.89156,-36.36347],[-71.89153,-36.36379],[-71.89169,-36.36403],[-71.89169,-36.36403],[-71.89164,-36.36432],[-71.89148,-36.36451],[-71.89123,-36.36473],[-71.89105,-36.36518],[-71.890589,-36.365368],[-71.890334,-36.365608],[-71.89015,-36.366076],[-71.890193,-36.366571],[-71.890249,-36.366968],[-71.89025,-36.36723],[-71.890094,-36.367445],[-71.88993,-36.36767],[-71.8897,-36.36806],[-71.88949,-36.36864],[-71.88924,-36.36935],[-71.889098,-36.369539],[-71.88872,-36.37004],[-71.88832,-36.37029],[-71.88729,-36.37045],[-71.88691,-36.37058],[-71.88676,-36.37077],[-71.88662,-36.37113],[-71.88645,-36.37147],[-71.88604,-36.37159],[-71.88543,-36.37174],[-71.88506,-36.37192],[-71.88462,-36.37241],[-71.88435,-36.37257],[-71.8836,-36.37286],[-71.883533,-36.372914],[-71.8833,-36.3731],[-71.88315,-36.3735],[-71.88303,-36.37396],[-71.8828,-36.37437],[-71.88218,-36.37487],[-71.88193,-36.37511],[-71.88174,-36.37549],[-71.8815,-36.37568],[-71.88108,-36.37583],[-71.88094,-36.37606],[-71.88089,-36.37659],[-71.88076,-36.37727],[-71.880604,-36.377634],[-71.88052,-36.37783],[-71.88042,-36.37831],[-71.88035,-36.37873],[-71.88003,-36.37931],[-71.87923,-36.38048],[-71.87897,-36.38073],[-71.87881,-36.38114],[-71.87852,-36.38155],[-71.87814,-36.38202],[-71.87791,-36.382809],[-71.87791,-36.38281],[-71.87776,-36.384],[-71.8776,-36.3843],[-71.8775,-36.38463],[-71.87758,-36.38521],[-71.87746,-36.38568],[-71.87711,-36.38613],[-71.87661,-36.38638],[-71.87608,-36.38666],[-71.87573,-36.38694],[-71.87544,-36.38732],[-71.87524,-36.38786],[-71.87516,-36.38824],[-71.87486,-36.38855],[-71.87457,-36.38898],[-71.87433,-36.38943],[-71.874239,-36.389452],[-71.87392,-36.38953],[-71.87336,-36.38959],[-71.87299,-36.38979],[-71.87265,-36.39006],[-71.87229,-36.39025],[-71.87096,-36.39067],[-71.87065,-36.39096],[-71.8703,-36.3913],[-71.86988,-36.39155],[-71.8694,-36.39188],[-71.86885,-36.39243],[-71.86754,-36.39294],[-71.86722,-36.39326],[-71.86698,-36.39349],[-71.86663,-36.393662],[-71.86639,-36.39378],[-71.86617,-36.39409],[-71.86593,-36.39444],[-71.86544,-36.39502],[-71.86527,-36.3954],[-71.86492,-36.3958],[-71.86427,-36.3962],[-71.8639,-36.39656],[-71.86367,-36.39688],[-71.86296,-36.39729],[-71.86246,-36.3976],[-71.86208,-36.39786],[-71.86158,-36.39799],[-71.86127,-36.39826],[-71.86089,-36.39877],[-71.860681,-36.398897],[-71.86048,-36.39902],[-71.860147,-36.399101],[-71.85989,-36.39928],[-71.85954,-36.39975],[-71.859238,-36.400249],[-71.858973,-36.400501],[-71.85849,-36.40069],[-71.85791,-36.40113],[-71.8576,-36.40151],[-71.8572,-36.40182],[-71.85662,-36.40209],[-71.85632,-36.402351],[-71.85612,-36.40259],[-71.85572,-36.40315],[-71.85541,-36.40362],[-71.855129,-36.403794],[-71.85483,-36.40392],[-71.854501,-36.403988],[-71.854463,-36.403996],[-71.85401,-36.40414],[-71.85355,-36.40444],[-71.85296,-36.40491],[-71.85232,-36.40531],[-71.852031,-36.40552],[-71.851657,-36.405792],[-71.851375,-36.406034],[-71.850981,-36.406266],[-71.85046,-36.40655],[-71.84967,-36.40711],[-71.84888,-36.40771],[-71.848559,-36.407922],[-71.848317,-36.408083],[-71.848125,-36.408265],[-71.84791,-36.40851],[-71.847762,-36.408679],[-71.847519,-36.40881],[-71.847115,-36.408859],[-71.846207,-36.40888],[-71.84536,-36.40886],[-71.845016,-36.40887],[-71.84469,-36.40899],[-71.84433,-36.409082],[-71.843947,-36.409062],[-71.84359,-36.40914],[-71.843412,-36.409355],[-71.843291,-36.409567],[-71.843069,-36.40965],[-71.84277,-36.40974],[-71.842418,-36.409884],[-71.84216,-36.40999],[-71.84178,-36.41025],[-71.84077,-36.41081],[-71.83994,-36.41124],[-71.83891,-36.41182],[-71.83843,-36.4121],[-71.83738,-36.4125],[-71.83601,-36.41281],[-71.83391,-36.41336],[-71.833727,-36.413422],[-71.83278,-36.41374],[-71.83208,-36.41403],[-71.83166,-36.41393],[-71.83096,-36.41369],[-71.83041,-36.41366],[-71.8298,-36.41373],[-71.82842,-36.41444],[-71.827718,-36.4147],[-71.82669,-36.41508],[-71.82437,-36.41526],[-71.82281,-36.41558],[-71.82202,-36.41575],[-71.82147,-36.41575],[-71.82018,-36.41569],[-71.81979,-36.4157],[-71.81979,-36.4157],[-71.81802,-36.413391],[-71.818128,-36.412688],[-71.816848,-36.411897],[-71.81592,-36.41073],[-71.813891,-36.408811],[-71.81379,-36.40871],[-71.814232,-36.405827],[-71.809712,-36.403032],[-71.804568,-36.404305],[-71.800048,-36.401511],[-71.800673,-36.397443],[-71.796154,-36.394648],[-71.793663,-36.395264],[-71.79324,-36.39481],[-71.792709,-36.3955],[-71.79101,-36.395921],[-71.790666,-36.398156],[-71.788993,-36.400332],[-71.784978,-36.405552],[-71.78398,-36.40685],[-71.7816,-36.40995],[-71.779323,-36.410961],[-71.778846,-36.410666],[-71.773702,-36.411937],[-71.773452,-36.413566],[-71.77324,-36.41366],[-71.766638,-36.416473],[-71.75932,-36.41959],[-71.75812,-36.420108],[-71.757645,-36.419814],[-71.754678,-36.420547],[-71.75436,-36.41993],[-71.75337,-36.41984],[-71.75229,-36.41978],[-71.75113,-36.41971],[-71.750088,-36.41959],[-71.75,-36.41958],[-71.75,-36.41958],[-71.74998,-36.41958],[-71.74893,-36.41944],[-71.74649,-36.41904],[-71.745415,-36.418923],[-71.74172,-36.41852],[-71.741084,-36.418471],[-71.73515,-36.41801],[-71.733723,-36.417897],[-71.732854,-36.417829],[-71.73249,-36.4178],[-71.73148,-36.41744],[-71.73083,-36.41709],[-71.72994,-36.41673],[-71.72923,-36.41681],[-71.72815,-36.41726],[-71.72696,-36.41781],[-71.72567,-36.41808],[-71.72471,-36.41831],[-71.72343,-36.41884],[-71.723132,-36.419031],[-71.72262,-36.41936],[-71.72122,-36.42038],[-71.71968,-36.42135],[-71.719657,-36.421367],[-71.71858,-36.42215],[-71.71763,-36.422635],[-71.71717,-36.42287],[-71.71622,-36.42353],[-71.71481,-36.42413],[-71.71349,-36.4246],[-71.71144,-36.42574],[-71.710659,-36.426348],[-71.707468,-36.424372],[-71.702326,-36.425639],[-71.701699,-36.429703],[-71.703629,-36.430898],[-71.70353,-36.43096],[-71.70199,-36.43253],[-71.70064,-36.43364],[-71.69934,-36.43482],[-71.69843,-36.43558],[-71.69781,-36.43595],[-71.697626,-36.436083],[-71.69719,-36.4364],[-71.69602,-36.43703],[-71.69493,-36.43771],[-71.69396,-36.43839],[-71.69296,-36.43894],[-71.69159,-36.43959],[-71.69082,-36.43983],[-71.690233,-36.439902],[-71.69001,-36.43993],[-71.68946,-36.44013],[-71.68921,-36.44032],[-71.68875,-36.44067],[-71.68875,-36.44067],[-71.68816,-36.43995],[-71.68599,-36.43787],[-71.68309,-36.43521],[-71.682042,-36.434544],[-71.67972,-36.43307],[-71.67745,-36.43135],[-71.677002,-36.429471],[-71.67689,-36.429],[-71.67672,-36.42773],[-71.676458,-36.427422],[-71.67604,-36.42693],[-71.675382,-36.426755],[-71.67495,-36.42664],[-71.67386,-36.4263],[-71.672898,-36.425216],[-71.67274,-36.425037],[-71.67268,-36.42497],[-71.67217,-36.42407],[-71.6717,-36.42314],[-71.6707,-36.42256],[-71.66736,-36.42038],[-71.66549,-36.419074],[-71.66474,-36.41855],[-71.66252,-36.41714],[-71.659437,-36.41509],[-71.65834,-36.41436],[-71.65611,-36.41284],[-71.6545,-36.41168],[-71.652655,-36.410505],[-71.65216,-36.41019],[-71.65196,-36.41008],[-71.65114,-36.40962],[-71.64755,-36.40712],[-71.645983,-36.406133],[-71.64474,-36.40535],[-71.639749,-36.401952],[-71.63255,-36.397053],[-71.6293,-36.39484],[-71.62937,-36.3947],[-71.62965,-36.39434],[-71.62999,-36.394155],[-71.63024,-36.39402],[-71.63081,-36.39364],[-71.63127,-36.39329],[-71.63187,-36.39286],[-71.63236,-36.39252],[-71.63301,-36.3919],[-71.63344,-36.39159],[-71.63401,-36.39128],[-71.63459,-36.39096],[-71.63513,-36.39053],[-71.63565,-36.39002],[-71.63579,-36.38967],[-71.63586,-36.38894],[-71.635872,-36.388897],[-71.63603,-36.38834],[-71.6364,-36.38735],[-71.63693,-36.38641],[-71.63757,-36.38565],[-71.63808,-36.38511],[-71.6387,-36.38466],[-71.63908,-36.38441],[-71.63932,-36.38394],[-71.63934,-36.38318],[-71.639236,-36.382525],[-71.6392,-36.3823],[-71.639,-36.3818],[-71.6386,-36.3813],[-71.638336,-36.380945],[-71.63819,-36.38075],[-71.638201,-36.380439],[-71.63821,-36.38017],[-71.63838,-36.37967],[-71.63871,-36.37882],[-71.63898,-36.37821],[-71.639367,-36.3777],[-71.63964,-36.37734],[-71.63999,-36.37656],[-71.64026,-36.37544],[-71.64034,-36.37445],[-71.64038,-36.37408],[-71.640519,-36.373495],[-71.640887,-36.373407],[-71.642439,-36.372631],[-71.643327,-36.372108],[-71.644104,-36.371849],[-71.644193,-36.371784],[-71.644659,-36.371442],[-71.645399,-36.371146],[-71.646642,-36.370788],[-71.647385,-36.370303],[-71.648678,-36.370045],[-71.64981,-36.370206],[-71.650424,-36.37053],[-71.651132,-36.370733],[-71.651445,-36.370713],[-71.651617,-36.370702],[-71.652727,-36.370628],[-71.653578,-36.370369],[-71.654281,-36.369999],[-71.655096,-36.369259],[-71.655952,-36.368499],[-71.656659,-36.368083],[-71.657159,-36.367667],[-71.6577,-36.367314],[-71.658114,-36.367054],[-71.661568,-36.369197],[-71.666708,-36.367929],[-71.667334,-36.363862],[-71.665125,-36.362491],[-71.665484,-36.362369],[-71.666189,-36.362173],[-71.666937,-36.362091],[-71.668165,-36.362383],[-71.669787,-36.362549],[-71.670828,-36.36257],[-71.671608,-36.362525],[-71.672138,-36.362508],[-71.672495,-36.362457],[-71.672867,-36.362403],[-71.674011,-36.361717],[-71.674843,-36.360739],[-71.675675,-36.360011],[-71.676549,-36.359865],[-71.677215,-36.359969],[-71.677652,-36.360157],[-71.678065,-36.360367],[-71.678547,-36.360365],[-71.679067,-36.360136],[-71.679628,-36.35999],[-71.68036,-36.360002],[-71.681106,-36.359657],[-71.681727,-36.359419],[-71.682223,-36.359229],[-71.682786,-36.359036],[-71.683311,-36.358763],[-71.683706,-36.358513],[-71.684268,-36.358471],[-71.684888,-36.358489],[-71.685391,-36.358659],[-71.685995,-36.358825],[-71.686595,-36.358723],[-71.687098,-36.358513],[-71.687847,-36.358263],[-71.687991,-36.358158],[-71.688762,-36.357597],[-71.689532,-36.357473],[-71.690385,-36.357181],[-71.690801,-36.356828],[-71.691716,-36.356162],[-71.692079,-36.35586],[-71.692361,-36.355288],[-71.692777,-36.35483],[-71.693131,-36.354477],[-71.69363,-36.354289],[-71.694026,-36.354144],[-71.694574,-36.354016],[-71.69465,-36.353998],[-71.695316,-36.35379],[-71.696044,-36.353686],[-71.697001,-36.353769],[-71.697646,-36.353686],[-71.698457,-36.35352],[-71.699143,-36.353239],[-71.69981,-36.352937],[-71.70008,-36.352791],[-71.700288,-36.352375],[-71.700351,-36.351897],[-71.700683,-36.351626],[-71.700916,-36.351419],[-71.700871,-36.350919],[-71.700621,-36.350607],[-71.70033,-36.350087],[-71.700344,-36.349382],[-71.700465,-36.349051],[-71.70063,-36.348856],[-71.703942,-36.35091],[-71.709083,-36.34964],[-71.709492,-36.346976],[-71.709778,-36.346941],[-71.710833,-36.34676],[-71.711466,-36.34679],[-71.712219,-36.34685],[-71.712671,-36.34679],[-71.713274,-36.346428],[-71.713545,-36.346006],[-71.713576,-36.345795],[-71.713425,-36.345464],[-71.713154,-36.344891],[-71.713065,-36.34474],[-71.712943,-36.34453],[-71.712913,-36.344228],[-71.712943,-36.343656],[-71.713214,-36.343113],[-71.713576,-36.342601],[-71.714329,-36.342088],[-71.714872,-36.341455],[-71.715353,-36.341022],[-71.715474,-36.340913],[-71.716168,-36.3404],[-71.716814,-36.339898],[-71.716981,-36.339768],[-71.717644,-36.339285],[-71.718127,-36.338803],[-71.718428,-36.33823],[-71.719242,-36.337206],[-71.720086,-36.336332],[-71.720779,-36.335608],[-71.721215,-36.335063],[-71.721382,-36.334855],[-71.721386,-36.334851],[-71.726383,-36.333615],[-71.726909,-36.330192],[-71.727349,-36.329972],[-71.727922,-36.329852],[-71.728284,-36.329882],[-71.728452,-36.329923],[-71.72868,-36.329838],[-71.728973,-36.32959],[-71.729525,-36.329249],[-71.729777,-36.32893],[-71.729871,-36.328836],[-71.730232,-36.328475],[-71.730712,-36.327914],[-71.731084,-36.326983],[-71.731039,-36.326267],[-71.731022,-36.325989],[-71.731466,-36.325701],[-71.731954,-36.325396],[-71.73226,-36.32522],[-71.732626,-36.325169],[-71.73342,-36.325059],[-71.734322,-36.325041],[-71.73549,-36.32499],[-71.7362,-36.32539],[-71.7364,-36.32573],[-71.73676,-36.32578],[-71.737,-36.32582],[-71.737607,-36.325791],[-71.738003,-36.325744],[-71.738442,-36.325692],[-71.738675,-36.325623],[-71.739099,-36.325408],[-71.739655,-36.325129],[-71.740143,-36.324895],[-71.740682,-36.324642],[-71.740723,-36.324623],[-71.741315,-36.324315],[-71.7419,-36.324],[-71.74251,-36.32394],[-71.743789,-36.323584],[-71.74529,-36.323171],[-71.74604,-36.32341],[-71.746763,-36.323368],[-71.747532,-36.323324],[-71.747713,-36.323318],[-71.747748,-36.323312],[-71.748174,-36.323234],[-71.74873,-36.32313],[-71.74917,-36.323001],[-71.74982,-36.32281],[-71.75,-36.322694],[-71.750448,-36.322406],[-71.75123,-36.32195],[-71.75184,-36.32187],[-71.752289,-36.321558],[-71.752471,-36.321524],[-71.75276,-36.32147],[-71.753252,-36.321299],[-71.753552,-36.321195],[-71.75428,-36.32101],[-71.755001,-36.320843],[-71.755422,-36.32075],[-71.755801,-36.320633],[-71.755914,-36.320599],[-71.756425,-36.32043],[-71.757171,-36.319975],[-71.75833,-36.31919],[-71.75937,-36.31854],[-71.759797,-36.318438],[-71.760206,-36.31835],[-71.760563,-36.318148],[-71.761031,-36.317606],[-71.7614,-36.317023],[-71.761412,-36.316596],[-71.761451,-36.316246],[-71.761478,-36.315811],[-71.761455,-36.315446],[-71.761488,-36.315237],[-71.761521,-36.315032],[-71.761737,-36.314585],[-71.761924,-36.314275],[-71.762051,-36.313806],[-71.762234,-36.313342],[-71.762366,-36.313044],[-71.762598,-36.312779],[-71.762863,-36.312514],[-71.763029,-36.312232],[-71.763343,-36.312],[-71.763625,-36.311735],[-71.763824,-36.311487],[-71.764122,-36.311156],[-71.764433,-36.31099],[-71.764787,-36.310897],[-71.765112,-36.310874],[-71.765396,-36.310862],[-71.765645,-36.310897],[-71.765953,-36.310902],[-71.766386,-36.31081],[-71.766701,-36.310712],[-71.766991,-36.310499],[-71.767127,-36.310015],[-71.767189,-36.309849],[-71.767359,-36.309395],[-71.767398,-36.308931],[-71.767495,-36.308544],[-71.767688,-36.307944],[-71.767727,-36.307576],[-71.767669,-36.307112],[-71.767553,-36.30655],[-71.767224,-36.305776],[-71.76703,-36.305447],[-71.766991,-36.305254],[-71.767069,-36.305022],[-71.767243,-36.304828],[-71.767572,-36.30446],[-71.767882,-36.304054],[-71.768126,-36.303688],[-71.770639,-36.303064],[-71.770869,-36.301568],[-71.771098,-36.301492],[-71.771426,-36.30144],[-71.771872,-36.301427],[-71.772476,-36.301269],[-71.77308,-36.301151],[-71.773494,-36.301209],[-71.773746,-36.30117],[-71.773987,-36.301061],[-71.774147,-36.300884],[-71.774306,-36.3006],[-71.774466,-36.300352],[-71.774572,-36.300139],[-71.774643,-36.299891],[-71.774643,-36.29966],[-71.774625,-36.299376],[-71.774501,-36.299146],[-71.7742,-36.298685],[-71.774093,-36.298288],[-71.774076,-36.298224],[-71.773952,-36.297887],[-71.773987,-36.297656],[-71.774165,-36.297335],[-71.774484,-36.296947],[-71.774696,-36.296752],[-71.774907,-36.296622],[-71.775098,-36.296532],[-71.77535,-36.296453],[-71.775678,-36.296518],[-71.775881,-36.296692],[-71.776046,-36.296833],[-71.776256,-36.296964],[-71.776527,-36.296926],[-71.776531,-36.296925],[-71.776842,-36.29684],[-71.777384,-36.296544],[-71.778035,-36.296249],[-71.77867,-36.295954],[-71.779024,-36.295847],[-71.779307,-36.295652],[-71.779573,-36.295368],[-71.779733,-36.294961],[-71.779875,-36.294588],[-71.780035,-36.294287],[-71.780442,-36.29395],[-71.780691,-36.293701],[-71.781089,-36.293567],[-71.781691,-36.293506],[-71.782195,-36.293567],[-71.782637,-36.293703],[-71.783104,-36.293825],[-71.783546,-36.293973],[-71.784,-36.29401],[-71.784415,-36.293896],[-71.784558,-36.293843],[-71.784841,-36.293737],[-71.785337,-36.293631],[-71.785652,-36.29346],[-71.785958,-36.293205],[-71.786224,-36.292939],[-71.786543,-36.292478],[-71.786774,-36.292176],[-71.787164,-36.291804],[-71.787412,-36.29152],[-71.787625,-36.291289],[-71.788175,-36.290988],[-71.788707,-36.290651],[-71.788955,-36.290456],[-71.789203,-36.290084],[-71.789434,-36.28964],[-71.789771,-36.289144],[-71.789895,-36.288736],[-71.789958,-36.288264],[-71.789966,-36.288204],[-71.790054,-36.287636],[-71.79025,-36.287157],[-71.790498,-36.286714],[-71.790888,-36.286377],[-71.791243,-36.286164],[-71.791704,-36.286005],[-71.792289,-36.285703],[-71.792633,-36.285426],[-71.793045,-36.285015],[-71.793385,-36.284618],[-71.793584,-36.284377],[-71.793754,-36.284135],[-71.793768,-36.283852],[-71.793711,-36.283525],[-71.793754,-36.283057],[-71.79364,-36.282745],[-71.793499,-36.282461],[-71.793215,-36.282064],[-71.793067,-36.281818],[-71.793705,-36.28166],[-71.794099,-36.279091],[-71.794506,-36.278872],[-71.795002,-36.278602],[-71.795456,-36.278432],[-71.795896,-36.278304],[-71.796137,-36.278219],[-71.796364,-36.278006],[-71.796634,-36.277708],[-71.796861,-36.277325],[-71.796989,-36.277098],[-71.796998,-36.276921],[-71.799472,-36.276306],[-71.799907,-36.273462],[-71.800223,-36.273523],[-71.800521,-36.27358],[-71.800947,-36.273736],[-71.801245,-36.273778],[-71.801486,-36.273778],[-71.801713,-36.273807],[-71.801997,-36.273793],[-71.802479,-36.273665],[-71.802947,-36.273381],[-71.803302,-36.273083],[-71.803643,-36.272672],[-71.803813,-36.272218],[-71.803855,-36.271778],[-71.803855,-36.271296],[-71.803855,-36.271295],[-71.803728,-36.270884],[-71.803614,-36.270586],[-71.80343,-36.270317],[-71.802947,-36.269877],[-71.802607,-36.269494],[-71.802553,-36.269359],[-71.802579,-36.269158],[-71.802749,-36.268756],[-71.802836,-36.2685],[-71.802928,-36.268416],[-71.803047,-36.268396],[-71.803225,-36.268238],[-71.803442,-36.268041],[-71.803758,-36.267843],[-71.804113,-36.267587],[-71.80433,-36.267291],[-71.804527,-36.266857],[-71.804843,-36.266403],[-71.80492,-36.26629],[-71.805218,-36.26585],[-71.805613,-36.265436],[-71.80579,-36.265002],[-71.805731,-36.264548],[-71.805573,-36.264232],[-71.805376,-36.263936],[-71.80506,-36.263719],[-71.804468,-36.26364],[-71.804352,-36.263436],[-71.804664,-36.263024],[-71.80492,-36.262613],[-71.805274,-36.26223],[-71.805601,-36.262002],[-71.806021,-36.261818],[-71.806493,-36.261766],[-71.806913,-36.261726],[-71.807386,-36.261674],[-71.807793,-36.261582],[-71.808331,-36.261464],[-71.808835,-36.26135],[-71.809368,-36.26111],[-71.809786,-36.260896],[-71.810184,-36.260623],[-71.810325,-36.260527],[-71.810793,-36.260017],[-71.811034,-36.259662],[-71.811077,-36.259336],[-71.811113,-36.258957],[-71.810916,-36.258682],[-71.810733,-36.258432],[-71.810628,-36.258143],[-71.810665,-36.257832],[-71.810864,-36.257406],[-71.811176,-36.25681],[-71.811503,-36.256243],[-71.81163,-36.256001],[-71.811985,-36.255817],[-71.812396,-36.255633],[-71.812794,-36.255391],[-71.813148,-36.254937],[-71.813361,-36.254568],[-71.813702,-36.254299],[-71.813943,-36.254086],[-71.814004,-36.25406],[-71.817395,-36.256161],[-71.820817,-36.25531],[-71.821007,-36.255396],[-71.82146,-36.255483],[-71.821721,-36.255657],[-71.821913,-36.255988],[-71.822035,-36.256267],[-71.822244,-36.256423],[-71.822522,-36.256406],[-71.822867,-36.256342],[-71.823562,-36.256087],[-71.82403,-36.255831],[-71.824044,-36.255816],[-71.824413,-36.255406],[-71.82464,-36.254966],[-71.82508,-36.254639],[-71.825534,-36.25437],[-71.825903,-36.254086],[-71.826371,-36.253746],[-71.82691,-36.253419],[-71.827946,-36.252979],[-71.829138,-36.252398],[-71.83006,-36.252071],[-71.831053,-36.251802],[-71.831699,-36.251628],[-71.831791,-36.251603],[-71.832458,-36.251433],[-71.833082,-36.251334],[-71.833713,-36.251293],[-71.834185,-36.251411],[-71.834789,-36.251634],[-71.835141,-36.251745],[-71.835498,-36.251857],[-71.83599,-36.252157],[-71.836231,-36.252341],[-71.836386,-36.252528],[-71.836429,-36.252815],[-71.836613,-36.253143],[-71.836941,-36.253353],[-71.837283,-36.253471],[-71.837571,-36.253589],[-71.837899,-36.253642],[-71.838331,-36.253746],[-71.838501,-36.253859],[-71.838794,-36.254062],[-71.839019,-36.254301],[-71.839315,-36.25447],[-71.839793,-36.254568],[-71.840459,-36.25471],[-71.841296,-36.254937],[-71.84185,-36.255051],[-71.842267,-36.255238],[-71.842389,-36.255292],[-71.843013,-36.255519],[-71.843652,-36.255675],[-71.844106,-36.255732],[-71.844489,-36.255789],[-71.845269,-36.255789],[-71.845737,-36.255746],[-71.846262,-36.255633],[-71.846674,-36.25542],[-71.847156,-36.255164],[-71.847539,-36.254866],[-71.847851,-36.254512],[-71.848036,-36.253987],[-71.847965,-36.253363],[-71.847908,-36.25288],[-71.847934,-36.252753],[-71.852142,-36.255359],[-71.857285,-36.254078],[-71.857909,-36.249999],[-71.85339,-36.2472],[-71.848247,-36.248481],[-71.847846,-36.251106],[-71.847738,-36.25078],[-71.847539,-36.250284],[-71.847298,-36.25],[-71.847142,-36.249816],[-71.846787,-36.249504],[-71.846432,-36.249035],[-71.846319,-36.24851],[-71.846248,-36.248],[-71.846404,-36.247432],[-71.846451,-36.247369],[-71.846659,-36.247092],[-71.846943,-36.246553],[-71.847184,-36.246297],[-71.847559,-36.246082],[-71.847887,-36.245886],[-71.848162,-36.245859],[-71.848491,-36.246004],[-71.848819,-36.246174],[-71.849173,-36.246411],[-71.84954,-36.246594],[-71.850079,-36.246817],[-71.850617,-36.246896],[-71.851181,-36.246922],[-71.85185,-36.246922],[-71.852973,-36.246992],[-71.853423,-36.246983],[-71.853696,-36.246978],[-71.854619,-36.246964],[-71.855314,-36.246964],[-71.855853,-36.246865],[-71.856307,-36.24668],[-71.856759,-36.246463],[-71.857231,-36.246306],[-71.857717,-36.246266],[-71.858307,-36.246292],[-71.858846,-36.246396],[-71.859428,-36.246326],[-71.859868,-36.246198],[-71.860263,-36.246069],[-71.860932,-36.245977],[-71.861549,-36.245991],[-71.862389,-36.245938],[-71.862876,-36.245928],[-71.863287,-36.245843],[-71.86349,-36.245853],[-71.863897,-36.245872],[-71.864578,-36.246084],[-71.865259,-36.246396],[-71.865841,-36.246737],[-71.866494,-36.247063],[-71.866905,-36.24739],[-71.867288,-36.247872],[-71.867458,-36.24851],[-71.867487,-36.249702],[-71.867509,-36.25],[-71.867558,-36.250667],[-71.867706,-36.251481],[-71.867728,-36.251603],[-71.867827,-36.251986],[-71.867983,-36.252568],[-71.86821,-36.253121],[-71.868409,-36.253462],[-71.868877,-36.253973],[-71.869785,-36.254781],[-71.870807,-36.255703],[-71.871628,-36.256372],[-71.872166,-36.256936],[-71.872599,-36.257238],[-71.873216,-36.257461],[-71.87393,-36.257778],[-71.874279,-36.257933],[-71.874921,-36.258172],[-71.875843,-36.258569],[-71.876836,-36.258811],[-71.877573,-36.258839],[-71.878374,-36.258957],[-71.879004,-36.258997],[-71.879532,-36.259009],[-71.87965,-36.258992],[-71.880099,-36.258924],[-71.880681,-36.258896],[-71.881263,-36.258952],[-71.88193,-36.259137],[-71.882495,-36.259207],[-71.882954,-36.259377],[-71.883007,-36.25944],[-71.883164,-36.259626],[-71.883334,-36.260102],[-71.883571,-36.260361],[-71.88386,-36.260493],[-71.884135,-36.260453],[-71.884529,-36.260493],[-71.884866,-36.260698],[-71.885618,-36.26111],[-71.886157,-36.26149],[-71.886563,-36.261739],[-71.886995,-36.261889],[-71.887789,-36.262116],[-71.88864,-36.262201],[-71.889804,-36.262102],[-71.890485,-36.26206],[-71.890717,-36.261928],[-71.89101,-36.261762],[-71.891308,-36.26135],[-71.891804,-36.261265],[-71.892897,-36.261251],[-71.89389,-36.26135],[-71.894471,-36.261478],[-71.895223,-36.261634],[-71.895919,-36.261847],[-71.896571,-36.262301],[-71.896954,-36.26284],[-71.897323,-36.263436],[-71.897564,-36.263961],[-71.897862,-36.264514],[-71.898359,-36.265053],[-71.899026,-36.265507],[-71.899409,-36.265833],[-71.899948,-36.266103],[-71.899974,-36.266112],[-71.900515,-36.266302],[-71.901267,-36.266443],[-71.901877,-36.266415],[-71.902757,-36.26633],[-71.903622,-36.266216],[-71.904247,-36.266131],[-71.9048,-36.266131],[-71.905353,-36.266287],[-71.905907,-36.266543],[-71.906205,-36.266827],[-71.90646,-36.267011],[-71.9068,-36.267408],[-71.907226,-36.26782],[-71.907666,-36.268217],[-71.908191,-36.268614],[-71.908333,-36.268714],[-71.908503,-36.268714],[-71.908843,-36.2686],[-71.90951,-36.268217],[-71.909554,-36.268184],[-71.910049,-36.267805],[-71.910589,-36.267479],[-71.911454,-36.266926],[-71.912348,-36.266231],[-71.912589,-36.266032],[-71.913029,-36.265819],[-71.913483,-36.265663],[-71.913852,-36.265507],[-71.91432,-36.265337],[-71.914958,-36.265152],[-71.915398,-36.264968],[-71.91581,-36.264571],[-71.91642,-36.263879],[-71.916448,-36.263847],[-71.916817,-36.263379],[-71.917001,-36.262925],[-71.917072,-36.262556],[-71.917285,-36.262216],[-71.917583,-36.261918],[-71.917867,-36.261648],[-71.918221,-36.261109],[-71.918378,-36.260896],[-71.91869,-36.260556],[-71.919073,-36.260229],[-71.919356,-36.259931],[-71.919825,-36.259605],[-71.920506,-36.259222],[-71.921059,-36.258995],[-71.921825,-36.258811],[-71.922424,-36.258661],[-71.925558,-36.260599],[-71.930703,-36.259315],[-71.931007,-36.257324],[-71.931118,-36.257307],[-71.931955,-36.257165],[-71.932791,-36.257059],[-71.933578,-36.256971],[-71.934261,-36.256901],[-71.934506,-36.256936],[-71.934786,-36.257006],[-71.934978,-36.257111],[-71.935346,-36.257129],[-71.935771,-36.257179],[-71.936028,-36.257199],[-71.936273,-36.257321],[-71.936483,-36.257584],[-71.936779,-36.257775],[-71.937219,-36.257915],[-71.937525,-36.258132],[-71.937778,-36.258406],[-71.938145,-36.258511],[-71.938513,-36.258563],[-71.938893,-36.258569],[-71.939388,-36.258506],[-71.939881,-36.258526],[-71.940269,-36.258541],[-71.940717,-36.258556],[-71.94112,-36.258569],[-71.941787,-36.258584],[-71.942539,-36.258598],[-71.943021,-36.258555],[-71.943475,-36.258513],[-71.943901,-36.258371],[-71.944392,-36.258213],[-71.9449,-36.258038],[-71.945249,-36.257931],[-71.945901,-36.257562],[-71.946313,-36.257278],[-71.946965,-36.256938],[-71.947334,-36.256753],[-71.947803,-36.256541],[-71.94785,-36.256518],[-71.948228,-36.256342],[-71.948654,-36.256257],[-71.949207,-36.256314],[-71.949817,-36.256257],[-71.950583,-36.256101],[-71.951321,-36.255902],[-71.951945,-36.255718],[-71.952697,-36.255391],[-71.953236,-36.254966],[-71.953776,-36.254228],[-71.954088,-36.253689],[-71.9543,-36.253235],[-71.954428,-36.252894],[-71.954457,-36.252653],[-71.954471,-36.252483],[-71.954414,-36.252185],[-71.954499,-36.251859],[-71.954559,-36.251733],[-71.954655,-36.251532],[-71.954896,-36.251305],[-71.955336,-36.250965],[-71.955975,-36.250653],[-71.956542,-36.25044],[-71.956911,-36.250412],[-71.957332,-36.250381],[-71.957681,-36.250453],[-71.958015,-36.250613],[-71.958495,-36.251006],[-71.958946,-36.251268],[-71.959528,-36.251675],[-71.959964,-36.251908],[-71.960117,-36.251968],[-71.960444,-36.252097],[-71.960739,-36.252199],[-71.961148,-36.252415],[-71.961623,-36.25248],[-71.962054,-36.252372],[-71.962356,-36.252199],[-71.96249,-36.252169],[-71.962742,-36.252111],[-71.963149,-36.252082],[-71.963483,-36.252082],[-71.963876,-36.252126],[-71.964138,-36.252344],[-71.964458,-36.252751],[-71.964615,-36.253277],[-71.964712,-36.253541],[-71.964865,-36.253958],[-71.965156,-36.254525],[-71.96531,-36.255278],[-71.965409,-36.255647],[-71.965424,-36.256101],[-71.965452,-36.256668],[-71.965654,-36.257315],[-71.965665,-36.257349],[-71.965934,-36.25803],[-71.966204,-36.258484],[-71.966431,-36.258867],[-71.966644,-36.259137],[-71.966885,-36.259307],[-71.967296,-36.259435],[-71.96785,-36.259392],[-71.968573,-36.259406],[-71.969538,-36.259421],[-71.970332,-36.259463],[-71.971326,-36.25952],[-71.971865,-36.259591],[-71.972333,-36.259563],[-71.972645,-36.259492],[-71.972929,-36.259378],[-71.973425,-36.259066],[-71.973936,-36.258768],[-71.974347,-36.258513],[-71.975014,-36.257945],[-71.975529,-36.257481],[-71.975738,-36.257293],[-71.97639,-36.256597],[-71.976901,-36.256058],[-71.977708,-36.255422],[-71.980915,-36.25462],[-71.981537,-36.250539],[-71.981118,-36.25028],[-71.981123,-36.25],[-71.981129,-36.249617],[-71.981129,-36.248865],[-71.981115,-36.248127],[-71.981058,-36.24739],[-71.980987,-36.246893],[-71.980845,-36.246638],[-71.98076,-36.24634],[-71.980803,-36.245971],[-71.980789,-36.245588],[-71.980732,-36.245006],[-71.980689,-36.244552],[-71.980817,-36.244027],[-71.980902,-36.243616],[-71.980888,-36.243233],[-71.980803,-36.242963],[-71.980721,-36.24289],[-71.980625,-36.242803],[-71.980406,-36.242807],[-71.980108,-36.24285],[-71.979767,-36.242949],[-71.979583,-36.242963],[-71.979214,-36.242835],[-71.978973,-36.242679],[-71.978916,-36.242509],[-71.979044,-36.242197],[-71.979441,-36.241629],[-71.979838,-36.241119],[-71.979994,-36.240736],[-71.979937,-36.240381],[-71.979966,-36.240126],[-71.980122,-36.239913],[-71.980562,-36.239643],[-71.981044,-36.239459],[-71.981399,-36.239402],[-71.981824,-36.239374],[-71.982392,-36.239445],[-71.982931,-36.239629],[-71.983182,-36.239748],[-71.983213,-36.239763],[-71.983651,-36.239834],[-71.983908,-36.239795],[-71.984248,-36.239811],[-71.984507,-36.23986],[-71.984812,-36.240006],[-71.985025,-36.240101],[-71.985389,-36.240164],[-71.9858,-36.24041],[-71.986068,-36.240521],[-71.986359,-36.240782],[-71.986562,-36.240986],[-71.986679,-36.241219],[-71.986824,-36.241451],[-71.987203,-36.241606],[-71.987769,-36.241771],[-71.988153,-36.24197],[-71.98827,-36.242272],[-71.988242,-36.242588],[-71.988404,-36.242808],[-71.988845,-36.242837],[-71.989237,-36.242808],[-71.989639,-36.242607],[-71.989968,-36.242466],[-71.99061,-36.242313],[-71.991211,-36.242145],[-71.991704,-36.242076],[-71.992266,-36.241842],[-71.992735,-36.241544],[-71.99282,-36.241463],[-71.993005,-36.241288],[-71.993034,-36.241022],[-71.992983,-36.240826],[-71.992933,-36.240727],[-71.992896,-36.240657],[-71.992729,-36.240401],[-71.992536,-36.240225],[-71.992246,-36.239632],[-71.991881,-36.23908],[-71.991871,-36.239056],[-71.991714,-36.238686],[-71.991664,-36.238282],[-71.991585,-36.23787],[-71.991685,-36.237416],[-71.991756,-36.237132],[-71.991912,-36.236777],[-71.992068,-36.236423],[-71.992153,-36.23621],[-71.992195,-36.235883],[-71.992281,-36.235444],[-71.992323,-36.235117],[-71.992408,-36.234975],[-71.992621,-36.234905],[-71.992692,-36.234777],[-71.992735,-36.234365],[-71.992692,-36.233557],[-71.99272,-36.233003],[-71.992848,-36.23245],[-71.993047,-36.23201],[-71.993085,-36.231942],[-71.994318,-36.231633],[-71.994588,-36.229857],[-71.994607,-36.22984],[-71.99499,-36.229513],[-71.995404,-36.229192],[-71.9957,-36.229059],[-71.996033,-36.228958],[-71.996378,-36.228932],[-71.996697,-36.228945],[-71.996922,-36.228925],[-71.997214,-36.228753],[-71.997467,-36.228587],[-71.99787,-36.228407],[-71.998225,-36.228208],[-71.998622,-36.227924],[-71.99892,-36.227655],[-71.999232,-36.227073],[-71.999545,-36.226406],[-71.999548,-36.226395],[-71.999786,-36.225612],[-71.999899,-36.22503],[-71.999956,-36.224448],[-71.999928,-36.223824],[-71.999686,-36.223086],[-71.999573,-36.222732],[-71.999303,-36.22215],[-71.998977,-36.221597],[-71.998821,-36.221214],[-71.998788,-36.22099],[-71.998764,-36.22083],[-71.998764,-36.220291],[-71.998821,-36.219852],[-71.99902,-36.219327],[-71.999374,-36.218915],[-71.999686,-36.21856],[-71.999956,-36.218121],[-71.999956,-36.217723],[-71.999899,-36.21744],[-71.999757,-36.217085],[-71.999505,-36.216758],[-71.999171,-36.216584],[-71.998894,-36.216424],[-71.998458,-36.21638],[-71.998255,-36.216104],[-71.998153,-36.215827],[-71.998022,-36.215566],[-71.9976,-36.215275],[-71.99731,-36.215171],[-71.996873,-36.215013],[-71.995855,-36.214679],[-71.995749,-36.214644],[-71.992282,-36.212501],[-71.990899,-36.212848],[-71.990777,-36.212729],[-71.990323,-36.212162],[-71.989968,-36.21141],[-71.989798,-36.210828],[-71.989769,-36.210332],[-71.989855,-36.209934],[-71.990067,-36.209509],[-71.990507,-36.208955],[-71.990763,-36.208686],[-71.991032,-36.208487],[-71.991429,-36.208289],[-71.991815,-36.208186],[-71.992243,-36.208088],[-71.992332,-36.208063],[-71.992688,-36.207963],[-71.993062,-36.207883],[-71.993543,-36.207901],[-71.994024,-36.207972],[-71.994281,-36.208072],[-71.994461,-36.208141],[-71.994746,-36.208355],[-71.995084,-36.20856],[-71.995333,-36.208729],[-71.995444,-36.208984],[-71.995728,-36.209126],[-71.996069,-36.209154],[-71.996352,-36.209126],[-71.997019,-36.208955],[-71.997714,-36.208658],[-71.99831,-36.208345],[-71.998736,-36.207991],[-71.998889,-36.207646],[-71.998963,-36.20748],[-71.999105,-36.207054],[-71.999303,-36.206586],[-71.999318,-36.206189],[-71.999502,-36.205607],[-71.99963,-36.204983],[-71.9998,-36.204316],[-71.999913,-36.20382],[-72.0,-36.203704],[-72.000297,-36.203309],[-72.000736,-36.202954],[-72.001573,-36.202571],[-72.002123,-36.202379],[-72.002464,-36.202276],[-72.002781,-36.202012],[-72.003817,-36.201752],[-72.008342,-36.204548],[-72.013488,-36.203257],[-72.014109,-36.199171],[-72.012532,-36.198197],[-72.012427,-36.197747],[-72.012143,-36.197293],[-72.01193,-36.196811],[-72.011661,-36.196187],[-72.011377,-36.195449],[-72.011178,-36.195023],[-72.011193,-36.19447],[-72.011306,-36.194044],[-72.011462,-36.193661],[-72.011533,-36.19325],[-72.011533,-36.192796],[-72.011576,-36.192342],[-72.011675,-36.191959],[-72.011725,-36.191909],[-72.011874,-36.19176],[-72.012767,-36.191462],[-72.013505,-36.191292],[-72.014399,-36.19115],[-72.014711,-36.19116],[-72.014867,-36.191164],[-72.015576,-36.191136],[-72.015591,-36.191136],[-72.016243,-36.191079],[-72.017464,-36.190696],[-72.018343,-36.190483],[-72.018868,-36.190341],[-72.019322,-36.190256],[-72.02006,-36.189873],[-72.020542,-36.189604],[-72.021039,-36.189178],[-72.021535,-36.188781],[-72.021833,-36.188469],[-72.022145,-36.188015],[-72.022287,-36.187405],[-72.022401,-36.186951],[-72.022686,-36.186588],[-72.02277,-36.186482],[-72.023366,-36.185603],[-72.023763,-36.185035],[-72.024047,-36.184524],[-72.024089,-36.184113],[-72.024387,-36.183687],[-72.024628,-36.183219],[-72.024813,-36.182723],[-72.024955,-36.181971],[-72.02504,-36.181417],[-72.025082,-36.180765],[-72.025077,-36.180696],[-72.02504,-36.180183],[-72.024898,-36.179772],[-72.024614,-36.179218],[-72.024132,-36.178537],[-72.023848,-36.178012],[-72.023693,-36.177712],[-72.023361,-36.177427],[-72.02294,-36.177005],[-72.022812,-36.176409],[-72.02277,-36.175913],[-72.022855,-36.175388],[-72.023025,-36.175146],[-72.023479,-36.174664],[-72.024231,-36.174238],[-72.024364,-36.17421],[-72.025096,-36.174054],[-72.025848,-36.173983],[-72.0267,-36.173912],[-72.027636,-36.173997],[-72.028629,-36.174565],[-72.029282,-36.175076],[-72.029986,-36.175531],[-72.030247,-36.1757],[-72.030783,-36.175954],[-72.031388,-36.176239],[-72.03203,-36.17637],[-72.032772,-36.176537],[-72.033637,-36.176565],[-72.03456,-36.176594],[-72.035184,-36.176551],[-72.035319,-36.176507],[-72.03718,-36.177657],[-72.042326,-36.176364],[-72.042947,-36.172276],[-72.041647,-36.171473],[-72.042178,-36.17133],[-72.04293,-36.171004],[-72.04354,-36.170663],[-72.044165,-36.170195],[-72.044746,-36.169684],[-72.045129,-36.169216],[-72.045271,-36.168578],[-72.045243,-36.167925],[-72.045342,-36.167684],[-72.04547,-36.167499],[-72.045995,-36.167428],[-72.046534,-36.167343],[-72.047101,-36.167145],[-72.048009,-36.166833],[-72.048375,-36.166684],[-72.048775,-36.16652],[-72.049215,-36.166222],[-72.049613,-36.165839],[-72.049939,-36.165244],[-72.050393,-36.164704],[-72.050662,-36.164364],[-72.051003,-36.164066],[-72.051159,-36.16374],[-72.051244,-36.163456],[-72.051244,-36.163073],[-72.051301,-36.162761],[-72.05157,-36.162463],[-72.052039,-36.16208],[-72.05289,-36.161654],[-72.053557,-36.161186],[-72.05375,-36.161059],[-72.054961,-36.160264],[-72.056125,-36.159441],[-72.05716,-36.158661],[-72.057955,-36.158079],[-72.05865,-36.157497],[-72.059005,-36.157171],[-72.059374,-36.156972],[-72.060055,-36.15683],[-72.060145,-36.156812],[-72.060409,-36.156759],[-72.060877,-36.156844],[-72.061402,-36.15693],[-72.0618,-36.157185],[-72.062367,-36.157369],[-72.062991,-36.157511],[-72.063786,-36.157568],[-72.064566,-36.157596],[-72.065205,-36.157682],[-72.065701,-36.157724],[-72.066609,-36.157696],[-72.067333,-36.157653],[-72.068312,-36.15754],[-72.069007,-36.157412],[-72.069406,-36.15731],[-72.06956,-36.15727],[-72.070241,-36.157029],[-72.07122,-36.156717],[-72.071816,-36.15649],[-72.072313,-36.15622],[-72.072781,-36.155908],[-72.073235,-36.155539],[-72.073448,-36.155057],[-72.07359,-36.154532],[-72.073646,-36.15405],[-72.07366,-36.153468],[-72.073618,-36.152985],[-72.073448,-36.152461],[-72.073164,-36.151992],[-72.072611,-36.151567],[-72.071915,-36.151169],[-72.071535,-36.150911],[-72.071193,-36.15078],[-72.070772,-36.150635],[-72.070412,-36.15063],[-72.070076,-36.150543],[-72.069826,-36.150464],[-72.069674,-36.150361],[-72.069589,-36.150134],[-72.069688,-36.149893],[-72.069805,-36.149789],[-72.070185,-36.149453],[-72.070795,-36.148857],[-72.071234,-36.148389],[-72.071352,-36.148203],[-72.071504,-36.147963],[-72.071788,-36.147623],[-72.072596,-36.147041],[-72.073306,-36.146445],[-72.073859,-36.146062],[-72.07454,-36.145665],[-72.074923,-36.145452],[-72.075689,-36.145069],[-72.076484,-36.144714],[-72.077108,-36.144303],[-72.077193,-36.144223],[-72.077633,-36.143806],[-72.078101,-36.143267],[-72.078428,-36.142728],[-72.078711,-36.141905],[-72.078896,-36.141337],[-72.079052,-36.14077],[-72.079094,-36.140359],[-72.079023,-36.140046],[-72.078796,-36.139834],[-72.0786,-36.139705],[-72.07847,-36.139621],[-72.077789,-36.139436],[-72.076697,-36.139224],[-72.076117,-36.139083],[-72.073351,-36.137374],[-72.073206,-36.137067],[-72.073164,-36.136599],[-72.07332,-36.135918],[-72.073462,-36.135279],[-72.073561,-36.13474],[-72.073788,-36.134371],[-72.0741,-36.134102],[-72.07437,-36.133846],[-72.074795,-36.133009],[-72.074906,-36.132765],[-72.075122,-36.132286],[-72.075278,-36.131832],[-72.075448,-36.13152],[-72.075604,-36.131392],[-72.076196,-36.131129],[-72.077191,-36.130945],[-72.077991,-36.130801],[-72.078659,-36.130762],[-72.078947,-36.130766],[-72.079484,-36.130775],[-72.080541,-36.130668],[-72.081563,-36.130484],[-72.082471,-36.130427],[-72.083563,-36.130441],[-72.084684,-36.130498],[-72.08572,-36.130583],[-72.086968,-36.130683],[-72.087493,-36.130683],[-72.088053,-36.13067],[-72.088524,-36.130736],[-72.088832,-36.130863],[-72.088904,-36.130893],[-72.089245,-36.131142],[-72.089692,-36.131491],[-72.090217,-36.132073],[-72.090842,-36.132683],[-72.091682,-36.133657],[-72.092442,-36.134404],[-72.092992,-36.13502],[-72.093516,-36.135675],[-72.093644,-36.135916],[-72.09375,-36.136116],[-72.094112,-36.136574],[-72.094519,-36.137126],[-72.094939,-36.137559],[-72.095294,-36.137809],[-72.095728,-36.138216],[-72.096109,-36.138492],[-72.096845,-36.138873],[-72.097463,-36.139189],[-72.098199,-36.139452],[-72.098966,-36.139605],[-72.099543,-36.139684],[-72.100035,-36.139649],[-72.100473,-36.13954],[-72.100866,-36.139317],[-72.101241,-36.138997],[-72.101553,-36.138642],[-72.101809,-36.138316],[-72.101993,-36.137847],[-72.102007,-36.13745],[-72.102007,-36.137172],[-72.102007,-36.137095],[-72.101965,-36.136599],[-72.10178,-36.136216],[-72.101411,-36.135705],[-72.10073,-36.135194],[-72.100327,-36.134865],[-72.099907,-36.134537],[-72.099486,-36.134274],[-72.099224,-36.134064],[-72.099053,-36.133709],[-72.099028,-36.133251],[-72.098957,-36.132513],[-72.099028,-36.131364],[-72.099053,-36.130617],[-72.099056,-36.130512],[-72.099014,-36.12976],[-72.098957,-36.12898],[-72.098872,-36.128299],[-72.098843,-36.127859],[-72.0989,-36.127462],[-72.099056,-36.127093],[-72.099276,-36.126665],[-72.09971,-36.126415],[-72.100092,-36.126228],[-72.100735,-36.125929],[-72.101366,-36.125719],[-72.102023,-36.125588],[-72.102496,-36.125482],[-72.102717,-36.125618],[-72.102916,-36.126034],[-72.103015,-36.126795],[-72.103015,-36.127675],[-72.102915,-36.128228],[-72.102929,-36.12915],[-72.102972,-36.129604],[-72.102972,-36.129629],[-72.102972,-36.130129],[-72.103015,-36.130441],[-72.103043,-36.130796],[-72.103057,-36.13125],[-72.103029,-36.131662],[-72.102972,-36.13213],[-72.1031,-36.132555],[-72.103298,-36.133024],[-72.103568,-36.133605],[-72.103823,-36.134003],[-72.103965,-36.134329],[-72.104135,-36.134754],[-72.104164,-36.135279],[-72.104164,-36.135691],[-72.104107,-36.136173],[-72.103994,-36.136797],[-72.103918,-36.137262],[-72.103837,-36.137762],[-72.10371,-36.138628],[-72.103568,-36.139195],[-72.10344,-36.139805],[-72.103412,-36.140316],[-72.103426,-36.141025],[-72.103412,-36.14199],[-72.103359,-36.142482],[-72.103341,-36.142657],[-72.103284,-36.143182],[-72.103227,-36.143466],[-72.102972,-36.143891],[-72.102773,-36.144203],[-72.102589,-36.144388],[-72.102263,-36.144515],[-72.101738,-36.144601],[-72.101255,-36.144728],[-72.100773,-36.144884],[-72.100361,-36.145069],[-72.099907,-36.145168],[-72.099496,-36.145197],[-72.099127,-36.145126],[-72.098801,-36.14514],[-72.09846,-36.145239],[-72.098219,-36.145537],[-72.098134,-36.145849],[-72.097765,-36.146771],[-72.097538,-36.14748],[-72.097564,-36.147853],[-72.097581,-36.148105],[-72.097794,-36.148516],[-72.098106,-36.148985],[-72.098389,-36.149283],[-72.098758,-36.149595],[-72.098957,-36.149807],[-72.099124,-36.149982],[-72.099268,-36.150283],[-72.09932,-36.150768],[-72.099189,-36.151332],[-72.098929,-36.152049],[-72.098716,-36.152673],[-72.098645,-36.153071],[-72.098716,-36.15334],[-72.099028,-36.153723],[-72.099255,-36.154064],[-72.099278,-36.154172],[-72.099326,-36.154404],[-72.099255,-36.154801],[-72.099141,-36.155099],[-72.098929,-36.155553],[-72.098744,-36.155951],[-72.09873,-36.15622],[-72.098815,-36.156518],[-72.099113,-36.156859],[-72.099383,-36.157043],[-72.099794,-36.157384],[-72.100163,-36.157753],[-72.100617,-36.158164],[-72.100901,-36.158504],[-72.101128,-36.158774],[-72.101241,-36.1592],[-72.101312,-36.15954],[-72.101355,-36.159937],[-72.101383,-36.160292],[-72.101312,-36.160618],[-72.101227,-36.160916],[-72.101042,-36.161243],[-72.101,-36.161484],[-72.101032,-36.161599],[-72.101116,-36.161897],[-72.101352,-36.162239],[-72.101747,-36.162502],[-72.102246,-36.162633],[-72.102824,-36.162738],[-72.103185,-36.162903],[-72.10354,-36.163073],[-72.103994,-36.163487],[-72.104388,-36.16379],[-72.104861,-36.163974],[-72.105203,-36.164079],[-72.105597,-36.16442],[-72.105769,-36.164794],[-72.105825,-36.16541],[-72.105863,-36.16599],[-72.106012,-36.166438],[-72.105657,-36.166887],[-72.10519,-36.167335],[-72.105086,-36.167897],[-72.105256,-36.168322],[-72.105305,-36.168391],[-72.105611,-36.168819],[-72.106022,-36.169259],[-72.106774,-36.169628],[-72.107427,-36.169996],[-72.107989,-36.170124],[-72.108475,-36.170255],[-72.108869,-36.170492],[-72.109198,-36.170794],[-72.109264,-36.171083],[-72.109413,-36.171429],[-72.10981,-36.172082],[-72.110023,-36.172408],[-72.110264,-36.172649],[-72.110578,-36.172765],[-72.110998,-36.17287],[-72.111458,-36.172975],[-72.111825,-36.173103],[-72.112066,-36.173132],[-72.112125,-36.173145],[-72.112378,-36.173203],[-72.112549,-36.173345],[-72.112719,-36.1736],[-72.113045,-36.173841],[-72.113357,-36.174011],[-72.113598,-36.17421],[-72.113684,-36.174465],[-72.11357,-36.174834],[-72.113414,-36.175232],[-72.113371,-36.175473],[-72.113385,-36.17551],[-72.113499,-36.175827],[-72.113896,-36.176367],[-72.114123,-36.176721],[-72.114379,-36.177189],[-72.114563,-36.177544],[-72.114875,-36.177956],[-72.115217,-36.17839],[-72.115395,-36.178612],[-72.115601,-36.178789],[-72.115912,-36.178958],[-72.116183,-36.179034],[-72.116266,-36.179057],[-72.116557,-36.179178],[-72.116978,-36.179375],[-72.11728,-36.179664],[-72.117595,-36.179914],[-72.117982,-36.180098],[-72.118337,-36.180098],[-72.118686,-36.180059],[-72.119001,-36.180203],[-72.119212,-36.180532],[-72.119188,-36.180836],[-72.119132,-36.181119],[-72.118988,-36.181465],[-72.119015,-36.181806],[-72.119225,-36.182043],[-72.119527,-36.182188],[-72.119882,-36.182372],[-72.120237,-36.182503],[-72.120486,-36.182687],[-72.120683,-36.182924],[-72.120815,-36.183226],[-72.12082,-36.183503],[-72.120806,-36.183829],[-72.120917,-36.184128],[-72.12099,-36.184326],[-72.121359,-36.185049],[-72.121669,-36.185578],[-72.121879,-36.185999],[-72.121958,-36.186314],[-72.121884,-36.186724],[-72.121936,-36.186996],[-72.12215,-36.187121],[-72.122595,-36.18721],[-72.123232,-36.187248],[-72.123955,-36.187319],[-72.12431,-36.187362],[-72.124508,-36.187418],[-72.124665,-36.187523],[-72.124797,-36.187733],[-72.124836,-36.188036],[-72.124954,-36.188364],[-72.12527,-36.188666],[-72.125756,-36.188955],[-72.126937,-36.189576],[-72.127687,-36.190015],[-72.128027,-36.190114],[-72.128204,-36.190159],[-72.128311,-36.190185],[-72.128779,-36.190114],[-72.129205,-36.190129],[-72.129645,-36.190242],[-72.130113,-36.190554],[-72.13051,-36.190994],[-72.130794,-36.191405],[-72.131084,-36.191783],[-72.13119,-36.192353],[-72.131119,-36.193047],[-72.130936,-36.193491],[-72.130808,-36.193902],[-72.13069,-36.194164],[-72.130606,-36.194394],[-72.130534,-36.194653],[-72.130443,-36.194893],[-72.130291,-36.19513],[-72.130028,-36.19552],[-72.129385,-36.196445],[-72.128808,-36.197052],[-72.128382,-36.197577],[-72.128141,-36.197932],[-72.128122,-36.198013],[-72.128041,-36.198357],[-72.128056,-36.198641],[-72.128062,-36.19867],[-72.128141,-36.199067],[-72.128098,-36.199819],[-72.128078,-36.200296],[-72.12813,-36.200559],[-72.128306,-36.200805],[-72.128621,-36.200962],[-72.129041,-36.201085],[-72.129479,-36.201278],[-72.129865,-36.201418],[-72.130303,-36.201505],[-72.130524,-36.201706],[-72.130624,-36.201791],[-72.13068,-36.201933],[-72.130737,-36.202202],[-72.130765,-36.202585],[-72.130964,-36.202912],[-72.131262,-36.203295],[-72.131361,-36.203607],[-72.131347,-36.203876],[-72.131319,-36.204288],[-72.131372,-36.204487],[-72.131376,-36.204501],[-72.131347,-36.204798],[-72.131205,-36.20504],[-72.131049,-36.205309],[-72.130978,-36.205565],[-72.131035,-36.20582],[-72.131214,-36.206009],[-72.131407,-36.206219],[-72.131582,-36.206447],[-72.131705,-36.20685],[-72.131703,-36.207315],[-72.131541,-36.208381],[-72.131532,-36.208402],[-72.131446,-36.208814],[-72.13146,-36.208917],[-72.131447,-36.209003],[-72.126297,-36.210298],[-72.125677,-36.214385],[-72.130207,-36.217177],[-72.130648,-36.217066],[-72.130653,-36.217082],[-72.130864,-36.217415],[-72.131221,-36.217725],[-72.13159,-36.217967],[-72.131862,-36.218081],[-72.13217,-36.218064],[-72.132425,-36.217965],[-72.132581,-36.217936],[-72.132851,-36.217965],[-72.133036,-36.218099],[-72.133124,-36.218449],[-72.133264,-36.218957],[-72.133457,-36.219273],[-72.133755,-36.219658],[-72.133983,-36.219956],[-72.134426,-36.220291],[-72.134908,-36.220518],[-72.13532,-36.220887],[-72.135689,-36.221228],[-72.135901,-36.221625],[-72.136015,-36.221965],[-72.1361,-36.222476],[-72.136072,-36.222973],[-72.135988,-36.223584],[-72.135986,-36.223597],[-72.135901,-36.224094],[-72.135802,-36.224448],[-72.13566,-36.224746],[-72.135277,-36.224973],[-72.134908,-36.225328],[-72.134695,-36.22591],[-72.134582,-36.226278],[-72.134483,-36.226775],[-72.134525,-36.227286],[-72.13461,-36.227655],[-72.134851,-36.227938],[-72.134922,-36.228208],[-72.134866,-36.228492],[-72.134738,-36.228676],[-72.134623,-36.228836],[-72.134557,-36.228927],[-72.134157,-36.229006],[-72.133967,-36.229421],[-72.1335,-36.229801],[-72.133085,-36.230078],[-72.132895,-36.230579],[-72.132567,-36.230907],[-72.132343,-36.231287],[-72.132463,-36.231667],[-72.132844,-36.232065],[-72.133189,-36.232427],[-72.133327,-36.232877],[-72.133552,-36.233378],[-72.133949,-36.23393],[-72.134226,-36.234466],[-72.134433,-36.234863],[-72.134675,-36.235347],[-72.134865,-36.235657],[-72.134929,-36.235761],[-72.135193,-36.236194],[-72.135433,-36.236483],[-72.13577,-36.236763],[-72.136084,-36.237016],[-72.136304,-36.237259],[-72.13657,-36.237519],[-72.136818,-36.237786],[-72.137014,-36.237986],[-72.137174,-36.23825],[-72.137238,-36.238606],[-72.137215,-36.239062],[-72.137111,-36.239632],[-72.137111,-36.240098],[-72.137353,-36.240496],[-72.137681,-36.240876],[-72.137906,-36.241187],[-72.138148,-36.241515],[-72.138521,-36.241823],[-72.138749,-36.242034],[-72.138908,-36.242327],[-72.138935,-36.242493],[-72.138994,-36.242846],[-72.138977,-36.24345],[-72.138856,-36.243899],[-72.138994,-36.244487],[-72.139079,-36.244889],[-72.139055,-36.245224],[-72.138959,-36.245726],[-72.138959,-36.245726],[-72.138441,-36.246138],[-72.138385,-36.246182],[-72.13776,-36.246824],[-72.137254,-36.247351],[-72.136958,-36.247647],[-72.136731,-36.248004],[-72.136663,-36.248111],[-72.136558,-36.248659],[-72.136558,-36.249439],[-72.13641,-36.25],[-72.13641,-36.25],[-72.1363,-36.2508],[-72.13603,-36.25143],[-72.13558,-36.25193],[-72.13534,-36.252172],[-72.135115,-36.252578],[-72.13491,-36.252902],[-72.13484,-36.253078],[-72.13476,-36.25332],[-72.13477,-36.25347],[-72.134885,-36.253652],[-72.134885,-36.253652],[-72.134967,-36.253799],[-72.134967,-36.253799],[-72.134972,-36.253922],[-72.1349,-36.25423],[-72.13475,-36.25463],[-72.13474,-36.25482],[-72.134786,-36.254996],[-72.134786,-36.254996],[-72.134926,-36.255287],[-72.134987,-36.255414],[-72.134988,-36.255414],[-72.13525,-36.25578],[-72.13525,-36.25578],[-72.13538,-36.25611],[-72.13538,-36.25611],[-72.13545,-36.25697],[-72.13572,-36.25764],[-72.13572,-36.25764],[-72.13567,-36.25864],[-72.13546,-36.25903],[-72.13533,-36.25925],[-72.13541,-36.25996],[-72.13534,-36.260547],[-72.133685,-36.259527]],[[-72.116806,-36.240196],[-72.112276,-36.237405],[-72.107127,-36.238698],[-72.106506,-36.242783],[-72.101357,-36.244076],[-72.100736,-36.248161],[-72.105265,-36.250952],[-72.110415,-36.249659],[-72.111035,-36.245574],[-72.116185,-36.244281],[-72.116806,-36.240196]],[[-72.089268,-36.160627],[-72.094415,-36.159331],[-72.095036,-36.155241],[-72.090509,-36.152446],[-72.085362,-36.153742],[-72.084741,-36.157832],[-72.089268,-36.160627]],[[-72.08288,-36.170102],[-72.0835,-36.166012],[-72.078974,-36.163218],[-72.073827,-36.164513],[-72.073206,-36.168602],[-72.077732,-36.171397],[-72.08288,-36.170102]],[[-71.734297,-36.378636],[-71.734923,-36.374568],[-71.740065,-36.373297],[-71.740691,-36.369228],[-71.736175,-36.36643],[-71.731033,-36.367701],[-71.726517,-36.364903],[-71.721376,-36.366174],[-71.72075,-36.370242],[-71.725265,-36.37304],[-71.724639,-36.377108],[-71.729155,-36.379906],[-71.734297,-36.378636]],[[-71.733046,-36.386771],[-71.728529,-36.383974],[-71.723387,-36.385243],[-71.722761,-36.389311],[-71.727277,-36.392108],[-71.73242,-36.390838],[-71.733046,-36.386771]],[[-71.713104,-36.387782],[-71.71373,-36.383715],[-71.709215,-36.380917],[-71.709841,-36.37685],[-71.705326,-36.374052],[-71.700185,-36.375321],[-71.699558,-36.379388],[-71.694417,-36.380657],[-71.689903,-36.377858],[-71.684762,-36.379126],[-71.684136,-36.383193],[-71.68865,-36.385992],[-71.693791,-36.384724],[-71.698306,-36.387522],[-71.703447,-36.386253],[-71.707962,-36.389051],[-71.713104,-36.387782]],[[-71.726652,-36.396175],[-71.721509,-36.397444],[-71.720883,-36.40151],[-71.715741,-36.402779],[-71.715115,-36.406845],[-71.719631,-36.409642],[-71.719005,-36.413707],[-71.723521,-36.416503],[-71.728664,-36.415235],[-71.72929,-36.411169],[-71.734433,-36.4099],[-71.735059,-36.405834],[-71.730542,-36.403038],[-71.731168,-36.398972],[-71.726652,-36.396175]],[[-71.76126,-36.364141],[-71.765777,-36.366938],[-71.77092,-36.365666],[-71.771545,-36.361596],[-71.767028,-36.358799],[-71.761885,-36.360071],[-71.76126,-36.364141]],[[-71.682256,-36.395392],[-71.682883,-36.391326],[-71.678369,-36.388527],[-71.673228,-36.389795],[-71.672601,-36.393861],[-71.677115,-36.396659],[-71.682256,-36.395392]],[[-71.815814,-36.331043],[-71.81519,-36.335115],[-71.819708,-36.337912],[-71.824852,-36.336636],[-71.825477,-36.332563],[-71.820958,-36.329766],[-71.815814,-36.331043]],[[-71.820664,-36.267116],[-71.815522,-36.268395],[-71.814897,-36.272472],[-71.819415,-36.275271],[-71.81879,-36.279348],[-71.823308,-36.282146],[-71.828451,-36.280867],[-71.829075,-36.27679],[-71.824557,-36.273992],[-71.825181,-36.269915],[-71.820664,-36.267116]],[[-71.803364,-36.283181],[-71.798222,-36.284459],[-71.797597,-36.288534],[-71.802115,-36.291333],[-71.807257,-36.290056],[-71.811774,-36.292854],[-71.816917,-36.291576],[-71.817541,-36.2875],[-71.813024,-36.284702],[-71.807881,-36.28598],[-71.803364,-36.283181]],[[-72.029101,-36.230775],[-72.029723,-36.226691],[-72.025197,-36.223897],[-72.02005,-36.225187],[-72.019429,-36.229271],[-72.023954,-36.232065],[-72.029101,-36.230775]],[[-72.025819,-36.219812],[-72.030966,-36.218522],[-72.031587,-36.214437],[-72.036734,-36.213146],[-72.037356,-36.20906],[-72.03283,-36.206266],[-72.027683,-36.207557],[-72.027062,-36.211642],[-72.021915,-36.212933],[-72.021294,-36.217018],[-72.025819,-36.219812]],[[-72.063892,-36.229908],[-72.068419,-36.232701],[-72.073567,-36.231409],[-72.074188,-36.227324],[-72.079337,-36.226031],[-72.079958,-36.221946],[-72.07543,-36.219153],[-72.076051,-36.215067],[-72.081199,-36.213774],[-72.08182,-36.209687],[-72.077293,-36.206894],[-72.072145,-36.208187],[-72.067618,-36.205394],[-72.06247,-36.206686],[-72.061849,-36.210773],[-72.066376,-36.213566],[-72.065755,-36.217652],[-72.060607,-36.218944],[-72.059986,-36.22303],[-72.064513,-36.225823],[-72.063892,-36.229908]],[[-72.098874,-36.260412],[-72.103403,-36.263202],[-72.108553,-36.26191],[-72.109174,-36.257826],[-72.104645,-36.255036],[-72.099495,-36.256328],[-72.094966,-36.253537],[-72.089817,-36.254829],[-72.089196,-36.258912],[-72.093725,-36.261704],[-72.098874,-36.260412]],[[-72.047028,-36.210563],[-72.046407,-36.214649],[-72.050933,-36.217442],[-72.056081,-36.216151],[-72.056702,-36.212065],[-72.052176,-36.209271],[-72.047028,-36.210563]],[[-72.044988,-36.191422],[-72.044366,-36.195509],[-72.048892,-36.198304],[-72.048271,-36.202391],[-72.052797,-36.205185],[-72.057944,-36.203893],[-72.058565,-36.199806],[-72.063712,-36.198513],[-72.064333,-36.194426],[-72.059807,-36.191632],[-72.05466,-36.192924],[-72.050134,-36.19013],[-72.044988,-36.191422]],[[-72.091496,-36.211187],[-72.090875,-36.215273],[-72.095403,-36.218066],[-72.094782,-36.222152],[-72.099311,-36.224944],[-72.10446,-36.22365],[-72.10508,-36.219564],[-72.100552,-36.216772],[-72.101172,-36.212685],[-72.096644,-36.209893],[-72.091496,-36.211187]],[[-71.879414,-36.303481],[-71.884558,-36.3022],[-71.885182,-36.298124],[-71.880661,-36.295328],[-71.875517,-36.296608],[-71.874893,-36.300685],[-71.879414,-36.303481]],[[-71.837013,-36.321862],[-71.842157,-36.320584],[-71.842781,-36.31651],[-71.838261,-36.313713],[-71.838886,-36.309639],[-71.834367,-36.306842],[-71.834991,-36.302767],[-71.830472,-36.299969],[-71.825329,-36.301247],[-71.820811,-36.29845],[-71.815668,-36.299727],[-71.815043,-36.303802],[-71.809901,-36.305079],[-71.809276,-36.309154],[-71.813794,-36.311951],[-71.818937,-36.310674],[-71.819562,-36.3066],[-71.824705,-36.305322],[-71.829223,-36.30812],[-71.828599,-36.312194],[-71.833118,-36.314991],[-71.832493,-36.319065],[-71.837013,-36.321862]],[[-71.859932,-36.269112],[-71.855413,-36.266314],[-71.85027,-36.267595],[-71.849646,-36.271672],[-71.854165,-36.27447],[-71.859309,-36.27319],[-71.859932,-36.269112]],[[-71.894068,-36.272377],[-71.898589,-36.275173],[-71.903733,-36.273891],[-71.904356,-36.269812],[-71.899835,-36.267016],[-71.894691,-36.268298],[-71.894068,-36.272377]],[[-71.826578,-36.293096],[-71.831096,-36.295894],[-71.836239,-36.294615],[-71.840758,-36.297413],[-71.845902,-36.296134],[-71.846526,-36.292058],[-71.842007,-36.28926],[-71.836864,-36.290539],[-71.832345,-36.287742],[-71.827202,-36.28902],[-71.826578,-36.293096]]]},"properties":{"comuna":"Ñiquén","mancha_id":"16303-88b2d8a65bfffff","clase":"Medio","nivel_medio":2.067,"nivel_medio_min":1.501,"nivel_medio_max":2.494,"pct_alto":14.2,"n_hexagonos":847,"area_ha":45427.62}},{"type":"Feature","geometry":{"type":"Polygon","coordinates":[[[-72.073206,-36.168602],[-72.073827,-36.164513],[-72.078974,-36.163218],[-72.0835,-36.166012],[-72.08288,-36.170102],[-72.077732,-36.171397],[-72.073206,-36.168602]]]},"properties":{"comuna":"Ñiquén","mancha_id":"16303-88b2dd79adfffff","clase":"Alto","nivel_medio":2.536,"nivel_medio_min":2.536,"nivel_medio_max":2.536,"pct_alto":44.3,"n_hexagonos":1,"area_ha":60.64}},{"type":"Feature","geometry":{"type":"Polygon","coordinates":[[[-71.811774,-36.292854],[-71.807257,-36.290056],[-71.802115,-36.291333],[-71.797597,-36.288534],[-71.798222,-36.284459],[-71.803364,-36.283181],[-71.807881,-36.28598],[-71.813024,-36.284702],[-71.817541,-36.2875],[-71.816917,-36.291576],[-71.811774,-36.292854]]]},"properties":{"comuna":"Ñiquén","mancha_id":"16303-88b2dd6ec3fffff","clase":"Alto","nivel_medio":2.718,"nivel_medio_min":2.616,"nivel_medio_max":2.819,"pct_alto":70.8,"n_hexagonos":2,"area_ha":120.58}},{"type":"Feature","geometry":{"type":"Polygon","coordinates":[[[-71.81519,-36.335115],[-71.815814,-36.331043],[-71.820958,-36.329766],[-71.825477,-36.332563],[-71.824852,-36.336636],[-71.819708,-36.337912],[-71.81519,-36.335115]]]},"properties":{"comuna":"Ñiquén","mancha_id":"16303-88b2dd6cd9fffff","clase":"Alto","nivel_medio":2.549,"nivel_medio_min":2.549,"nivel_medio_max":2.549,"pct_alto":44.6,"n_hexagonos":1,"area_ha":60.23}},{"type":"Feature","geometry":{"type":"Polygon","coordinates":[[[-71.874893,-36.300685],[-71.875517,-36.296608],[-71.880661,-36.295328],[-71.885182,-36.298124],[-71.884558,-36.3022],[-71.879414,-36.303481],[-71.874893,-36.300685]]]},"properties":{"comuna":"Ñiquén","mancha_id":"16303-88b2dd6c43fffff","clase":"Alto","nivel_medio":2.745,"nivel_medio_min":2.745,"nivel_medio_max":2.745,"pct_alto":74.6,"n_hexagonos":1,"area_ha":60.32}},{"type":"Feature","geometry":{"type":"Polygon","coordinates":[[[-72.094782,-36.222152],[-72.095403,-36.218066],[-72.090875,-36.215273],[-72.091496,-36.211187],[-72.096644,-36.209893],[-72.101172,-36.212685],[-72.100552,-36.216772],[-72.10508,-36.219564],[-72.10446,-36.22365],[-72.099311,-36.224944],[-72.094782,-36.222152]]]},"properties":{"comuna":"Ñiquén","mancha_id":"16303-88b2dd6b21fffff","clase":"Alto","nivel_medio":2.851,"nivel_medio_min":2.702,"nivel_medio_max":3.0,"pct_alto":84.2,"n_hexagonos":2,"area_ha":121.14}},{"type":"Feature","geometry":{"type":"Polygon","coordinates":[[[-72.106506,-36.242783],[-72.107127,-36.238698],[-72.112276,-36.237405],[-72.116806,-36.240196],[-72.116185,-36.244281],[-72.111035,-36.245574],[-72.110415,-36.249659],[-72.105265,-36.250952],[-72.100736,-36.248161],[-72.101357,-36.244076],[-72.106506,-36.242783]]]},"properties":{"comuna":"Ñiquén","mancha_id":"16303-88b2dd6945fffff","clase":"Alto","nivel_medio":2.754,"nivel_medio_min":2.574,"nivel_medio_max":2.933,"pct_alto":75.6,"n_hexagonos":2,"area_ha":121.07}},{"type":"Feature","geometry":{"type":"Polygon","coordinates":[[[-72.122143,-36.270281],[-72.122763,-36.266198],[-72.118233,-36.263408],[-72.118854,-36.259324],[-72.114324,-36.256534],[-72.114944,-36.25245],[-72.120094,-36.251156],[-72.124624,-36.253947],[-72.129775,-36.252653],[-72.134305,-36.255443],[-72.133685,-36.259527],[-72.13534,-36.260547],[-72.13526,-36.26122],[-72.13491,-36.26224],[-72.13474,-36.26303],[-72.13473,-36.26374],[-72.13507,-36.26487],[-72.13507,-36.26487],[-72.13505,-36.26573],[-72.13509,-36.26648],[-72.13489,-36.26684],[-72.134634,-36.267144],[-72.132444,-36.267694],[-72.132241,-36.269031],[-72.13205,-36.26917],[-72.13097,-36.26956],[-72.13,-36.26976],[-72.12839,-36.26998],[-72.12759,-36.27015],[-72.12716,-36.27035],[-72.12666,-36.27082],[-72.12632,-36.27133],[-72.1259,-36.27227],[-72.125703,-36.272473],[-72.122143,-36.270281]]]},"properties":{"comuna":"Ñiquén","mancha_id":"16303-88b2dd6921fffff","clase":"Alto","nivel_medio":2.73,"nivel_medio_min":2.579,"nivel_medio_max":2.884,"pct_alto":72.8,"n_hexagonos":5,"area_ha":272.03}},{"type":"Feature","geometry":{"type":"Polygon","coordinates":[[[-72.103403,-36.263202],[-72.098874,-36.260412],[-72.093725,-36.261704],[-72.089196,-36.258912],[-72.089817,-36.254829],[-72.094966,-36.253537],[-72.099495,-36.256328],[-72.104645,-36.255036],[-72.109174,-36.257826],[-72.108553,-36.26191],[-72.103403,-36.263202]]]},"properties":{"comuna":"Ñiquén","mancha_id":"16303-88b2dd6901fffff","clase":"Alto","nivel_medio":2.719,"nivel_medio_min":2.595,"nivel_medio_max":2.844,"pct_alto":71.5,"n_hexagonos":2,"area_ha":121.02}},{"type":"Feature","geometry":{"type":"Polygon","coordinates":[[[-71.979839,-36.294134],[-71.979216,-36.298213],[-71.975867,-36.299049],[-71.97536,-36.29884],[-71.97477,-36.29895],[-71.97417,-36.2993],[-71.973954,-36.299427],[-71.969545,-36.296704],[-71.970167,-36.292626],[-71.975314,-36.291341],[-71.979839,-36.294134]]]},"properties":{"comuna":"Ñiquén","mancha_id":"16303-88b2dd6891fffff","clase":"Alto","nivel_medio":2.628,"nivel_medio_min":2.628,"nivel_medio_max":2.628,"pct_alto":49.5,"n_hexagonos":1,"area_ha":59.9}},{"type":"Feature","geometry":{"type":"Polygon","coordinates":[[[-71.799907,-36.273462],[-71.799472,-36.276306],[-71.796998,-36.276921],[-71.797003,-36.276829],[-71.796904,-36.27646],[-71.796719,-36.276105],[-71.796577,-36.275736],[-71.796591,-36.275609],[-71.79679,-36.275367],[-71.797031,-36.275098],[-71.797471,-36.274757],[-71.797939,-36.274389],[-71.798308,-36.274076],[-71.798663,-36.273835],[-71.798847,-36.273651],[-71.799131,-36.273537],[-71.799457,-36.273509],[-71.799855,-36.273452],[-71.799907,-36.273462]]]},"properties":{"comuna":"Ñiquén","mancha_id":"16303-88b2dd6531fffff","clase":"Alto","nivel_medio":2.805,"nivel_medio_min":2.805,"nivel_medio_max":2.805,"pct_alto":78.9,"n_hexagonos":1,"area_ha":6.96}},{"type":"Feature","geometry":{"type":"Polygon","coordinates":[[[-71.814897,-36.272472],[-71.815522,-36.268395],[-71.820664,-36.267116],[-71.825181,-36.269915],[-71.824557,-36.273992],[-71.829075,-36.27679],[-71.828451,-36.280867],[-71.823308,-36.282146],[-71.81879,-36.279348],[-71.819415,-36.275271],[-71.814897,-36.272472]]]},"properties":{"comuna":"Ñiquén","mancha_id":"16303-88b2dd6527fffff","clase":"Alto","nivel_medio":2.641,"nivel_medio_min":2.511,"nivel_medio_max":2.771,"pct_alto":59.0,"n_hexagonos":2,"area_ha":120.64}},{"type":"Feature","geometry":{"type":"Polygon","coordinates":[[[-71.672601,-36.393861],[-71.673228,-36.389795],[-71.678369,-36.388527],[-71.682883,-36.391326],[-71.682256,-36.395392],[-71.677115,-36.396659],[-71.672601,-36.393861]]]},"properties":{"comuna":"Ñiquén","mancha_id":"16303-88b2d99ab7fffff","clase":"Alto","nivel_medio":2.721,"nivel_medio_min":2.721,"nivel_medio_max":2.721,"pct_alto":76.4,"n_hexagonos":1,"area_ha":60.05}},{"type":"Feature","geometry":{"type":"Polygon","coordinates":[[[-71.773702,-36.411937],[-71.778846,-36.410666],[-71.779323,-36.410961],[-71.773452,-36.413566],[-71.773702,-36.411937]]]},"properties":{"comuna":"Ñiquén","mancha_id":"16303-88b2d999ebfffff","clase":"Alto","nivel_medio":2.594,"nivel_medio_min":2.594,"nivel_medio_max":2.594,"pct_alto":52.1,"n_hexagonos":1,"area_ha":5.49}},{"type":"Feature","geometry":{"type":"Polygon","coordinates":[[[-71.754678,-36.420547],[-71.757645,-36.419814],[-71.75812,-36.420108],[-71.75756,-36.42035],[-71.75516,-36.42148],[-71.75516,-36.42148],[-71.754678,-36.420547]]]},"properties":{"comuna":"Ñiquén","mancha_id":"16303-88b2d9998bfffff","clase":"Alto","nivel_medio":3.192,"nivel_medio_min":3.192,"nivel_medio_max":3.192,"pct_alto":84.5,"n_hexagonos":1,"area_ha":2.28}},{"type":"Feature","geometry":{"type":"Polygon","coordinates":[[[-71.816848,-36.411897],[-71.818128,-36.412688],[-71.81802,-36.413391],[-71.81759,-36.41283],[-71.81759,-36.41283],[-71.816848,-36.411897]]]},"properties":{"comuna":"Ñiquén","mancha_id":"16303-88b2d99937fffff","clase":"Alto","nivel_medio":2.647,"nivel_medio_min":2.647,"nivel_medio_max":2.647,"pct_alto":72.0,"n_hexagonos":1,"area_ha":0.48}},{"type":"Feature","geometry":{"type":"Polygon","coordinates":[[[-71.792709,-36.3955],[-71.790666,-36.398156],[-71.79101,-36.395921],[-71.792709,-36.3955]]]},"properties":{"comuna":"Ñiquén","mancha_id":"16303-88b2d99915fffff","clase":"Alto","nivel_medio":2.511,"nivel_medio_min":2.511,"nivel_medio_max":2.511,"pct_alto":46.5,"n_hexagonos":1,"area_ha":1.82}},{"type":"Feature","geometry":{"type":"Polygon","coordinates":[[[-71.796154,-36.394648],[-71.800673,-36.397443],[-71.800048,-36.401511],[-71.804568,-36.404305],[-71.809712,-36.403032],[-71.814232,-36.405827],[-71.81379,-36.40871],[-71.811505,-36.406425],[-71.811,-36.406356],[-71.808774,-36.406733],[-71.805543,-36.407872],[-71.80452,-36.407877],[-71.80452,-36.407877],[-71.80436,-36.40767],[-71.804528,-36.407568],[-71.804528,-36.407568],[-71.804487,-36.407378],[-71.804487,-36.407378],[-71.80418,-36.406829],[-71.80408,-36.406649],[-71.80402,-36.40666],[-71.803892,-36.406579],[-71.80377,-36.4065],[-71.80377,-36.4065],[-71.803103,-36.405734],[-71.803103,-36.405734],[-71.802269,-36.404777],[-71.802269,-36.404777],[-71.801631,-36.404045],[-71.801631,-36.404045],[-71.80099,-36.403309],[-71.80099,-36.403309],[-71.79998,-36.40215],[-71.79998,-36.40215],[-71.799517,-36.401642],[-71.799198,-36.401293],[-71.799198,-36.401293],[-71.798144,-36.400133],[-71.797971,-36.399942],[-71.797971,-36.399942],[-71.797938,-36.399906],[-71.797938,-36.399906],[-71.797905,-36.399869],[-71.797905,-36.399869],[-71.797866,-36.399827],[-71.797866,-36.399827],[-71.797839,-36.399797],[-71.797839,-36.399797],[-71.797809,-36.399763],[-71.797809,-36.399763],[-71.797616,-36.399551],[-71.797189,-36.399081],[-71.797189,-36.399081],[-71.796657,-36.398496],[-71.796657,-36.398496],[-71.795998,-36.397771],[-71.795998,-36.397771],[-71.79571,-36.39746],[-71.793663,-36.395264],[-71.796154,-36.394648]]]},"properties":{"comuna":"Ñiquén","mancha_id":"16303-88b2d99915fffff-2","clase":"Alto","nivel_medio":2.579,"nivel_medio_min":2.511,"nivel_medio_max":2.841,"pct_alto":50.1,"n_hexagonos":3,"area_ha":61.02}},{"type":"Feature","geometry":{"type":"Polygon","coordinates":[[[-71.715115,-36.406845],[-71.715741,-36.402779],[-71.720883,-36.40151],[-71.721509,-36.397444],[-71.726652,-36.396175],[-71.731168,-36.398972],[-71.730542,-36.403038],[-71.735059,-36.405834],[-71.734433,-36.4099],[-71.72929,-36.411169],[-71.728664,-36.415235],[-71.723521,-36.416503],[-71.719005,-36.413707],[-71.719631,-36.409642],[-71.715115,-36.406845]]]},"properties":{"comuna":"Ñiquén","mancha_id":"16303-88b2d998e1fffff","clase":"Alto","nivel_medio":2.783,"nivel_medio_min":2.602,"nivel_medio_max":2.898,"pct_alto":79.7,"n_hexagonos":4,"area_ha":240.24}},{"type":"Feature","geometry":{"type":"Polygon","coordinates":[[[-71.702326,-36.425639],[-71.707468,-36.424372],[-71.710659,-36.426348],[-71.70954,-36.42722],[-71.70753,-36.42838],[-71.70625,-36.42909],[-71.70473,-36.43021],[-71.703629,-36.430898],[-71.701699,-36.429703],[-71.702326,-36.425639]]]},"properties":{"comuna":"Ñiquén","mancha_id":"16303-88b2d998bdfffff","clase":"Alto","nivel_medio":2.566,"nivel_medio_min":2.566,"nivel_medio_max":2.566,"pct_alto":58.8,"n_hexagonos":1,"area_ha":32.8}},{"type":"Feature","geometry":{"type":"Polygon","coordinates":[[[-71.76126,-36.364141],[-71.761885,-36.360071],[-71.767028,-36.358799],[-71.771545,-36.361596],[-71.77092,-36.365666],[-71.765777,-36.366938],[-71.76126,-36.364141]]]},"properties":{"comuna":"Ñiquén","mancha_id":"16303-88b2d9986dfffff","clase":"Alto","nivel_medio":2.576,"nivel_medio_min":2.576,"nivel_medio_max":2.576,"pct_alto":48.8,"n_hexagonos":1,"area_ha":60.15}},{"type":"Feature","geometry":{"type":"Polygon","coordinates":[[[-71.707962,-36.389051],[-71.703447,-36.386253],[-71.698306,-36.387522],[-71.693791,-36.384724],[-71.68865,-36.385992],[-71.684136,-36.383193],[-71.684762,-36.379126],[-71.689903,-36.377858],[-71.694417,-36.380657],[-71.699558,-36.379388],[-71.700185,-36.375321],[-71.705326,-36.374052],[-71.709841,-36.37685],[-71.709215,-36.380917],[-71.71373,-36.383715],[-71.713104,-36.387782],[-71.707962,-36.389051]]]},"properties":{"comuna":"Ñiquén","mancha_id":"16303-88b2d9981bfffff","clase":"Alto","nivel_medio":2.707,"nivel_medio_min":2.545,"nivel_medio_max":2.879,"pct_alto":72.6,"n_hexagonos":4,"area_ha":240.33}},{"type":"Feature","geometry":{"type":"Polygon","coordinates":[[[-72.084741,-36.157832],[-72.085362,-36.153742],[-72.090509,-36.152446],[-72.095036,-36.155241],[-72.094415,-36.159331],[-72.089268,-36.160627],[-72.084741,-36.157832]]]},"properties":{"comuna":"Ñiquén","mancha_id":"16303-88b2d8b6d9fffff","clase":"Alto","nivel_medio":2.682,"nivel_medio_min":2.682,"nivel_medio_max":2.682,"pct_alto":59.2,"n_hexagonos":1,"area_ha":60.66}},{"type":"Feature","geometry":{"type":"Polygon","coordinates":[[[-72.131702,-36.207551],[-72.131673,-36.20809],[-72.131541,-36.208381],[-72.131703,-36.207315],[-72.131702,-36.207551]]]},"properties":{"comuna":"Ñiquén","mancha_id":"16303-88b2d8b4c3fffff","clase":"Alto","nivel_medio":3.0,"nivel_medio_min":3.0,"nivel_medio_max":3.0,"pct_alto":100.0,"n_hexagonos":1,"area_ha":0.05}},{"type":"Feature","geometry":{"type":"Polygon","coordinates":[[[-72.13146,-36.208917],[-72.131473,-36.209019],[-72.131503,-36.209253],[-72.131603,-36.209764],[-72.131617,-36.21036],[-72.131503,-36.211013],[-72.13139,-36.211609],[-72.131276,-36.212063],[-72.131149,-36.212573],[-72.130893,-36.213027],[-72.130765,-36.213283],[-72.130751,-36.213879],[-72.130751,-36.214446],[-72.130695,-36.214843],[-72.130453,-36.215155],[-72.130382,-36.215567],[-72.130368,-36.216092],[-72.130513,-36.216679],[-72.130648,-36.217066],[-72.130207,-36.217177],[-72.125677,-36.214385],[-72.126297,-36.210298],[-72.131447,-36.209003],[-72.13146,-36.208917]]]},"properties":{"comuna":"Ñiquén","mancha_id":"16303-88b2d8b4c3fffff-2","clase":"Alto","nivel_medio":2.906,"nivel_medio_min":2.906,"nivel_medio_max":3.0,"pct_alto":84.5,"n_hexagonos":2,"area_ha":31.69}}],"bbox":[-72.13908,-36.44067,-71.6293,-36.12548]}