<?xml version="1.0" encoding="UTF-8"?>
<kml xmlns="http://www.opengis.net/kml/2.2" xmlns:gx="http://www.google.com/kml/ext/2.2" xmlns:kml="http://www.opengis.net/kml/2.2" xmlns:atom="http://www.w3.org/2005/Atom">
<Document id="root_doc">
	<name>RUTA 126 S.kml</name>
	<atom:link rel="app" href="https://www.google.com/earth/about/versions/#earth-pro" title="Google Earth Pro 7.3.6.10201"></atom:link>
	<Schema name="propuesta_1" id="propuesta_1">
		<SimpleField type="float" name="longitud"></SimpleField>
	</Schema>
	<StyleMap id="m_ylw-pushpin">
		<Pair>
			<key>normal</key>
			<styleUrl>#s_ylw-pushpin</styleUrl>
		</Pair>
		<Pair>
			<key>highlight</key>
			<styleUrl>#s_ylw-pushpin_hl</styleUrl>
		</Pair>
	</StyleMap>
	<Style id="s_ylw-pushpin">
		<IconStyle>
			<scale>1.1</scale>
			<Icon>
				<href>http://maps.google.com/mapfiles/kml/pushpin/ylw-pushpin.png</href>
			</Icon>
			<hotSpot x="20" y="2" xunits="pixels" yunits="pixels"/>
		</IconStyle>
		<LineStyle>
			<color>ff00f600</color>
			<width>2.5</width>
		</LineStyle>
	</Style>
	<Style id="s_ylw-pushpin_hl">
		<IconStyle>
			<scale>1.3</scale>
			<Icon>
				<href>http://maps.google.com/mapfiles/kml/pushpin/ylw-pushpin.png</href>
			</Icon>
			<hotSpot x="20" y="2" xunits="pixels" yunits="pixels"/>
		</IconStyle>
		<LineStyle>
			<color>ff00f600</color>
			<width>2.5</width>
		</LineStyle>
	</Style>
	<Folder>
		<name>propuesta_1</name>
		<Placemark>
			<name>Ruta 126 S</name>
			<styleUrl>#m_ylw-pushpin</styleUrl>
			<ExtendedData>
				<SchemaData schemaUrl="#propuesta_1">
					<SimpleData name="longitud">8.96</SimpleData>
				</SchemaData>
			</ExtendedData>
			<MultiGeometry>
				<LineString>
					<coordinates>
						-72.3831069800176,-36.0404797291386,194.561408181237 -72.38308492680881,-36.0404467818336,194.561000000002 -72.3830305206852,-36.0403663004271,194.498999999996 -72.38297614859751,-36.0402855747334,194.404999999999 -72.38292180360889,-36.0402044427504,194.365000000005 -72.3828671633929,-36.0401223729215,194.286999999997 -72.3828123424267,-36.0400399657508,194.192999999999 -72.3827567560853,-36.0399573008278,194.065000000002 -72.3827005265601,-36.0398741223917,193.933999999994 -72.3826443052599,-36.0397900966576,193.845000000001 -72.3825870187143,-36.0397060649353,193.691999999995 -72.38252996424779,-36.0396209723382,193.542000000001 -72.38247303018269,-36.0395345426792,193.346999999994 -72.3824154908977,-36.0394490041502,193.178 -72.3823581064985,-36.0393634522043,192.985000000001 -72.3823011919831,-36.0392782473977,192.782000000006 -72.382244268241,-36.0391936015036,192.559999999998 -72.3821878401944,-36.0391099057591,192.331000000006 -72.38213253621581,-36.0390265476928,192.092999999994 -72.3820779593874,-36.0389438448897,191.860000000001 -72.38202382650481,-36.0388616611718,191.576000000001 -72.38196843302519,-36.0387813873142,191.332999999999 -72.3819139278087,-36.0387013857086,191.061000000002 -72.3818603855425,-36.0386210685313,190.782000000006 -72.3818073043886,-36.0385401165461,190.467000000004 -72.3817520240916,-36.0384609207005,190.160999999993 -72.3816976437446,-36.0383804558945,189.873000000007 -72.3816432759546,-36.0382995041106,189.570999999996 -72.3815903133255,-36.038217422291,189.217000000004 -72.3815361033077,-36.0381367813823,188.895000000004 -72.3814828327376,-36.0380552758967,188.577999999994 -72.3814307394195,-36.0379732775842,188.236999999994 -72.38137996038481,-36.0378903590597,187.891000000003 -72.3813276875634,-36.0378090866448,187.574999999997 -72.38127700433679,-36.0377263275631,187.271999999997 -72.3812271625395,-36.0376432653602,186.976999999999 -72.381177935537,-36.0375597892919,186.665999999997 -72.3811297126244,-36.0374756630934,186.331000000006 -72.3810819993808,-36.0373909998448,186.039000000004 -72.3810362094932,-36.0373053901869,185.744000000006 -72.3809931448658,-36.0372183879668,185.459000000003 -72.3809500578802,-36.0371316386677,185.115000000005 -72.3809087163107,-36.0370454888731,185.005999999994 -72.3808665190832,-36.0369621566319,184.926999999996 -72.3808288909315,-36.0368767039618,184.804000000004 -72.3807918720849,-36.0367927839739,184.644 -72.38075596401021,-36.0367096706433,184.601999999999 -72.3807217692334,-36.036627184765,184.544999999998 -72.38068876966901,-36.0365443677739,184.573000000004 -72.38065582652921,-36.0364620898401,184.580000000002 -72.38062398378661,-36.0363793392948,184.611000000004 -72.3805924074483,-36.0362965902301,184.600999999995 -72.3805618944953,-36.0362135408096,184.606 -72.38053108182621,-36.0361310044558,184.588000000003 -72.3805011747082,-36.0360481091247,184.600999999995 -72.3804702516685,-36.035965323557,184.604999999996 -72.3804397653098,-36.0358821111467,184.596999999994 -72.3804091708212,-36.0357987035355,184.585999999996 -72.3803784412497,-36.0357144707123,184.638000000006 -72.3803473009832,-36.0356302314478,184.614000000001 -72.38031653720221,-36.0355449362682,184.653000000006 -72.3802847508346,-36.0354603727985,184.641000000003 -72.3802531204051,-36.035374525351,184.633000000002 -72.38022055352241,-36.0352885961891,184.653000000006 -72.3801889955901,-36.0352020798576,184.644 -72.3801581670742,-36.0351152626869,184.619999999995 -72.3801276107282,-36.0350283224836,184.606 -72.3800965044861,-36.034939937101,184.706999999995 -72.3800650023317,-36.0348487784731,184.573999999993 -72.3800301924021,-36.0347612094599,184.656000000003 -72.3799965032789,-36.0346713109922,184.656000000003 -72.3799627059585,-36.0345809560031,184.656000000003 -72.3799280824131,-36.0344899575012,184.668999999994 -72.379893465667,-36.0343996346216,184.631999999998 -72.3798612964646,-36.0343084316695,184.740999999995 -72.37983014031791,-36.0342173082514,184.762000000002 -72.37980062426141,-36.0341251022735,184.827999999994 -72.3797706940888,-36.0340341064382,184.831000000006 -72.379744608222,-36.0339416865046,184.904999999999 -72.37972044855231,-36.0338491671552,184.952999999994 -72.3796993640894,-36.0337566961899,185.061000000002 -72.3796804243714,-36.0336653451451,185.184999999998 -72.3796650052961,-36.0335738226651,185.319000000003 -72.3796531202419,-36.0334821824403,185.448999999993 -72.3796455849341,-36.0333903023336,185.557000000001 -72.3796414571418,-36.0332994975101,185.745999999999 -72.37964363965941,-36.0332086407839,185.846999999994 -72.3796495952413,-36.0331185877075,185.970000000001 -72.3796575649661,-36.0330289373602,185.981 -72.3796640588118,-36.0329397972302,186.152000000002 -72.37967082573471,-36.0328502979638,186.296000000002 -72.3796797910655,-36.0327603221569,186.388999999996 -72.379696706836,-36.0326650668235,185.751000000004 -72.3797017850479,-36.0325773273003,186.687999999995 -72.3797135147336,-36.0324848044657,186.884000000005 -72.379731283826,-36.0323877138316,186.326000000001 -72.37974295974099,-36.0322944536065,186.587 -72.3797529589032,-36.0322032321313,186.831999999995 -72.3797572028424,-36.0321587853141,187.2304 -72.3797576151688,-36.032154470912,187.269100000005 -72.37975807498469,-36.032149658662,187.3122 -72.3797613109038,-36.0321157786893,187.615999999995 -72.3797775737652,-36.0320140808576,187.524999999994 -72.3797868167366,-36.0319204837821,187.581999999995 -72.3797968988719,-36.0318332788807,188.519 -72.3798101916033,-36.0317409912713,189.125 -72.3798210820005,-36.0316519343207,189.626000000004 -72.37983599396961,-36.0315523741697,189.282999999996 -72.3798481658938,-36.0314670837097,190.351999999999 -72.379860081296,-36.0313765740885,190.726999999999 -72.3798722904894,-36.0312872276099,191.139999999999 -72.3798846445323,-36.0311968587958,191.369000000006 -72.3798961739915,-36.0311100365619,191.862999999998 -72.37990688002169,-36.0310231564632,192.176000000007 -72.379916134071,-36.0309373445933,192.478000000003 -72.37992354606131,-36.0308525587947,192.781000000003 -72.37993189594459,-36.030767654617,192.895999999993 -72.37993655193389,-36.0306853516311,193.119000000006 -72.37994337322419,-36.0306007618182,193.260999999999 -72.37995125403491,-36.0305150067164,193.316999999995 -72.379955312143,-36.0304329909306,193.460000000006 -72.3799599189279,-36.030349797238,193.531000000003 -72.3799648781056,-36.0302657645859,193.542000000001 -72.3799669375292,-36.0301837060764,193.553 -72.3799722040613,-36.030097781444,193.539000000004 -72.3799746532451,-36.0300134231325,193.525999999998 -72.37997446861409,-36.0299310314594,193.517000000007 -72.379976414879,-36.0298463268967,193.551999999996 -72.3799791714838,-36.0297590403335,193.596000000005 -72.3799780092294,-36.0296745406303,193.542000000001 -72.3799757356694,-36.0295905138261,193.547000000006 -72.37997445496271,-36.0295035033854,193.517000000007 -72.3799725090734,-36.0294165027031,193.502999999997 -72.3799703394491,-36.0293299769069,193.513999999996 -72.3799668607618,-36.029243190685,193.519 -72.37996071172989,-36.0291575160829,193.550000000003 -72.3799574626247,-36.0290680561143,193.517000000007 -72.3799530018195,-36.0289793151748,193.460999999996 -72.37994659786951,-36.0288907912641,193.521999999997 -72.3799361159367,-36.0287982193258,194.217000000004 -72.37992828117611,-36.0287060682948,194.255999999994 -72.3799193965085,-36.0286127123761,194.301000000007 -72.3799098964504,-36.0285184546945,194.389999999999 -72.3798997860082,-36.0284234122519,194.528999999995 -72.3798889036036,-36.0283276977399,194.684999999998 -72.3798772737091,-36.0282313645337,194.804999999993 -72.3798643658658,-36.0281339410051,195.058000000005 -72.379851432405,-36.02803620281,195.190000000002 -72.3798370243284,-36.0279379114919,195.517000000007 -72.3798216941214,-36.0278411690544,195.725999999995 -72.37980596307889,-36.0277441315479,196.013999999996 -72.3797885194235,-36.0276488094023,196.470000000001 -72.3797725993732,-36.0275530567875,196.588000000003 -72.37975539751029,-36.0274584577045,196.933999999994 -72.3797407092881,-36.0273686806855,196.592000000004 -72.3797228560196,-36.0272775241674,196.945000000007 -72.37970561593841,-36.0271848815445,197.038 -72.3796846537571,-36.0270908030495,198.074999999997 -72.37966637715751,-36.0270003793443,198.337 -72.37965287247241,-36.0269107761657,197.956000000006 -72.3796325218576,-36.0268232134018,197.993000000002 -72.3796132780631,-36.0267316996031,198.260999999999 -72.37959326088669,-36.0266397390457,198.468999999997 -72.3795731458914,-36.0265475649778,198.789999999994 -72.3795466621759,-36.0264548406961,199.698000000004 -72.37952065492711,-36.0263657344114,199.933999999994 -72.3794931186811,-36.0262777075259,200.164000000004 -72.3794609083332,-36.0261895872261,200.798999999999 -72.379428353004,-36.0261037744625,201.010999999999 -72.37939312633191,-36.0260190462886,201.220000000001 -72.37935032517269,-36.0259399942843,200.928 -72.3793077714552,-36.025866494191,201.620999999999 -72.3792586564592,-36.0257931791811,202.065000000002 -72.3792086123208,-36.0257234271928,200.839000000007 -72.3791618259426,-36.0256469727801,200.869000000006 -72.3791164305225,-36.0255685417338,200.884999999995 -72.37906415889999,-36.0254945272144,202.100999999995 -72.37901730744299,-36.025422927017,202.175000000003 -72.378963743957,-36.0253479585764,201.220000000001 -72.378910332472,-36.0252765433799,200.384000000005 -72.3788590322459,-36.0252032898234,200.835000000006 -72.3788014717434,-36.0251274779754,201.725000000006 -72.3787566770054,-36.025069363242,201.659199999995 -72.3786932490497,-36.0249870747985,201.566000000006 -72.3786381026089,-36.0249166590662,201.475999999995 -72.3785835884956,-36.0248446845824,201.323999999993 -72.3785282276735,-36.0247721031789,201.278000000006 -72.3784752342773,-36.024698589915,201.091 -72.37842391068411,-36.0246228758907,200.918000000005 -72.37837425288529,-36.0245469436505,200.881999999998 -72.3783266606701,-36.0244687274034,200.743000000002 -72.37828082049511,-36.0243899751262,200.642999999996 -72.3782366668828,-36.02431019306,200.440000000002 -72.3781954069447,-36.0242301131029,200.447 -72.3781551326385,-36.0241481760906,200.176000000007 -72.3781156459041,-36.024066496194,200.016000000003 -72.3780770166765,-36.023985152541,199.851999999999 -72.37803855829991,-36.0239076490673,199.587400000004 -72.37799794927641,-36.0238258142438,199.308000000005 -72.37796121017401,-36.0237453453814,199.263999999996 -72.3779257048203,-36.0236717072292,199.1636 -72.3778841527248,-36.0235855267938,199.046000000002 -72.3778432162638,-36.023504950972,198.945000000007 -72.3778008042714,-36.0234238490447,198.706000000006 -72.3777570932361,-36.0233434956022,198.755999999994 -72.3777127084891,-36.0232608723321,198.554999999993 -72.3776671626762,-36.0231778132065,198.417000000001 -72.3776215074718,-36.0230953068188,198.362999999998 -72.37757374452219,-36.0230138330337,198.209000000003 -72.3775240435542,-36.022933729483,198.051999999996 -72.3774738046409,-36.0228545331695,197.911999999997 -72.3774225945378,-36.0227762292747,197.692999999999 -72.3773719674861,-36.0226991073853,197.588000000003 -72.37732065119719,-36.0226242846986,197.536999999997 -72.37726763933701,-36.0225502757298,197.406000000003 -72.3772141209144,-36.0224773893748,197.350000000006 -72.3771598031841,-36.0224052644332,197.220000000001 -72.3771043135837,-36.0223350467993,197.127999999997 -72.3770490807574,-36.0222646056325,197.138999999996 -72.3769924923579,-36.0221948874919,197.192999999999 -72.3769347837019,-36.0221243899076,197.192999999999 -72.3768769046322,-36.0220548342455,197.376000000004 -72.3768167650354,-36.0219863695349,197.392999999996 -72.3767557825181,-36.0219184241598,197.490000000005 -72.37669374406239,-36.0218501660957,197.471000000005 -72.3766308466821,-36.021782571992,197.5 -72.3765662750683,-36.0217155116408,197.506999999998 -72.3765005830403,-36.0216484467881,197.539000000004 -72.37643363376669,-36.0215825887695,197.565000000002 -72.3763662659763,-36.0215170578931,197.582999999999 -72.37629798533951,-36.0214519672123,197.539000000004 -72.37622884784069,-36.0213881081202,197.587 -72.37615901152481,-36.0213250256086,197.614000000001 -72.37608773036609,-36.0212616143199,197.520000000004 -72.3760149801253,-36.0212001637421,197.495999999999 -72.3759418322565,-36.0211400489474,197.679000000004 -72.3758680586936,-36.0210798255828,197.707999999999 -72.3757925375163,-36.0210199758162,197.637000000002 -72.37571774542781,-36.020960312707,197.675000000003 -72.37564136142601,-36.02090337069,197.740000000005 -72.375565197445,-36.0208458637356,197.752999999997 -72.3754888942245,-36.0207887301062,197.838000000003 -72.375413247268,-36.0207308570488,197.803 -72.3753378343025,-36.0206748246134,198.085999999996 -72.37526194383091,-36.0206185172279,198.108999999997 -72.37518640908171,-36.0205619654809,198.248000000007 -72.37511063172801,-36.0205049249104,198.277000000002 -72.3750346215689,-36.0204484044779,198.445000000007 -72.37495806512869,-36.0203915569645,198.639999999999 -72.37488125648269,-36.0203339956196,198.710000000006 -72.3748043355526,-36.0202776989333,199.024999999994 -72.37472482724959,-36.020218837548,198.357999999993 -72.3746467604912,-36.0201654718908,199.087 -72.3745728965863,-36.0201077643018,199.869000000006 -72.3744953772018,-36.0200504299688,199.976999999999 -72.3744174420488,-36.0199937470791,200.110000000001 -72.37433996041111,-36.0199367720178,200.380000000005 -72.37426216176181,-36.0198796436335,200.671000000002 -72.3741844828478,-36.0198227190771,200.975999999995 -72.374106278564,-36.0197651514572,201.218999999997 -72.3740283969815,-36.0197079171141,201.490000000005 -72.37395102559729,-36.0196511729667,201.764999999999 -72.3738746874034,-36.0195947240654,201.997000000003 -72.3737996281107,-36.0195388698681,202.259000000005 -72.37372602131281,-36.0194842993401,202.501999999993 -72.3736538718781,-36.0194306068496,202.729999999996 -72.37358293701161,-36.0193786012212,202.991999999998 -72.37351347308839,-36.0193267523681,203.210000000006 -72.3734431370454,-36.019274738799,203.452000000005 -72.3733708761544,-36.019221310586,203.702000000005 -72.37329695881181,-36.0191661808246,203.923999999999 -72.3732213554355,-36.0191097738646,204.195000000007 -72.3731442180765,-36.0190522476201,204.441999999995 -72.373065519265,-36.0189937380275,204.726999999999 -72.3729856347024,-36.0189349914343,205.005999999994 -72.3729053459351,-36.0188756073685,205.259000000005 -72.37282513039131,-36.0188150767784,205.538 -72.37274395951169,-36.0187545099505,205.835999999996 -72.3726618019264,-36.0186936915002,206.054999999993 -72.37257961731839,-36.0186327566067,206.255000000005 -72.3724974583394,-36.0185713793893,206.426000000007 -72.3724147051152,-36.0185101098524,206.577000000005 -72.37233142861039,-36.0184490514266,206.671000000002 -72.37224885324601,-36.0183877848706,206.755999999994 -72.3721669022535,-36.0183265907888,206.794999999998 -72.3720845319868,-36.0182657058144,206.793000000005 -72.3720009065151,-36.0182029547759,206.755999999994 -72.3719155481413,-36.0181393603558,206.706999999995 -72.3718295523327,-36.0180759009563,206.665999999997 -72.3717422341341,-36.0180126409098,206.623999999996 -72.3716537341154,-36.0179494951576,206.527000000002 -72.3715637611643,-36.0178863998014,206.402000000002 -72.37147278063711,-36.0178236030621,206.342000000004 -72.3713802424422,-36.0177612105291,206.278999999995 -72.3712866445029,-36.0176999741272,206.229999999996 -72.3711918938664,-36.017639274706,206.087 -72.3710966278185,-36.0175794908163,206.013999999996 -72.3710000189173,-36.0175207268404,205.847999999998 -72.3709022362231,-36.0174640863797,205.779999999999 -72.3708041718118,-36.0174078592602,205.724000000002 -72.37070555408999,-36.0173521792779,205.657000000006 -72.37060679483309,-36.0172968185801,205.620999999999 -72.3705075571757,-36.0172422011536,205.532999999996 -72.3704078976118,-36.0171880911198,205.532999999996 -72.3703077077985,-36.0171353295557,205.414999999994 -72.3702071640799,-36.0170831095135,205.365999999995 -72.3701056538311,-36.0170324115104,205.308000000005 -72.37000338079579,-36.0169833316376,205.25 -72.3699011700334,-36.0169359701361,205.187000000005 -72.3697990753424,-36.0168897677074,205.101999999999 -72.3696978606603,-36.0168441712103,204.994000000006 -72.3695971404032,-36.0167984615955,204.922999999995 -72.3694967129012,-36.0167528517913,204.770999999993 -72.3693959057738,-36.016707180488,204.625 -72.3692944295351,-36.0166619424247,204.462 -72.36919271198261,-36.0166167651252,204.245999999999 -72.3690906037703,-36.016571787955,204.027000000002 -72.36898871915599,-36.0165268494617,203.789000000004 -72.3688871819195,-36.0164819912204,203.521999999997 -72.36878644972769,-36.0164372814617,203.235000000001 -72.3686864755806,-36.0163926584319,202.941000000006 -72.3685870154505,-36.0163486426262,202.649000000005 -72.36848886123011,-36.0163050766134,202.380999999994 -72.3683920393307,-36.0162623200972,202.100000000006 -72.3682971571438,-36.0162203109481,201.823000000004 -72.3682040812993,-36.0161787825882,201.567999999999 -72.36811208441171,-36.0161375842616,201.308000000005 -72.3680204773167,-36.0160966812796,201.066999999995 -72.36792923896699,-36.0160558399468,200.785999999993 -72.3678386336711,-36.0160147554679,200.559999999998 -72.3677477362876,-36.0159741026496,200.308000000005 -72.3676560768466,-36.0159332639269,200.031000000003 -72.3675633917307,-36.0158920394534,199.777000000002 -72.3674691266402,-36.0158504357965,199.516000000003 -72.36737350885861,-36.0158083204086,199.289999999994 -72.3672763442712,-36.0157653022548,199.043999999994 -72.3671779820623,-36.015721506683,198.881999999998 -72.3670781341629,-36.0156766804651,198.676000000007 -72.3669776402708,-36.0156310072523,198.540999999997 -72.3668761647326,-36.0155854606621,198.356 -72.36677430769601,-36.0155400688814,198.226999999999 -72.3666722505603,-36.0154944032902,198.115000000005 -72.3665698405255,-36.0154487826689,198.006999999998 -72.3664675403143,-36.0154031336394,197.896999999997 -72.36636500715019,-36.0153574811528,197.819000000003 -72.3662621600418,-36.0153114859641,197.679000000004 -72.36615937568649,-36.0152653988094,197.615000000005 -72.36605596796311,-36.0152189956678,197.482000000004 -72.36595231589961,-36.0151728425978,197.400999999998 -72.3658485562022,-36.0151265032257,197.301000000007 -72.3657444829813,-36.0150800914687,197.192999999999 -72.36564048669069,-36.0150339207558,197.069000000003 -72.3655367165865,-36.0149870677632,196.960999999996 -72.3654318321995,-36.0149395701478,196.832999999999 -72.36532596647351,-36.014891424172,196.759000000005 -72.36521892194889,-36.0148429417568,196.649999999994 -72.3651108743491,-36.0147940819188,196.531000000003 -72.36500239014239,-36.014744342145,196.399000000005 -72.3648933730759,-36.0146938062373,196.273000000001 -72.3647847678119,-36.0146419971075,196.160999999993 -72.3646763742927,-36.0145899476396,196.043999999994 -72.3645685847698,-36.0145369709861,195.949999999997 -72.3644609657723,-36.0144840885644,195.830000000002 -72.3643537895793,-36.0144304006303,195.671000000002 -72.36424739961799,-36.014375897541,195.482000000004 -72.3641426046776,-36.0143213405519,195.353000000003 -72.3640391277748,-36.0142664761234,195.080000000002 -72.36393735932511,-36.014211356374,194.831999999995 -72.3638372332902,-36.0141565148169,194.616999999998 -72.3637381014628,-36.0141026184553,194.391000000003 -72.3636395836363,-36.0140485515799,194.032000000006 -72.3635420259854,-36.0139951515161,193.710000000006 -72.3634450812781,-36.0139425992258,193.418000000005 -72.3633490501049,-36.0138903996724,193.126999999993 -72.363254185752,-36.0138387710251,192.804000000004 -72.3631600767246,-36.0137869048287,192.554000000004 -72.3630660358176,-36.0137350726868,192.232000000004 -72.3629718303898,-36.0136832811302,191.975000000006 -72.36287741953041,-36.013631089763,191.668999999994 -72.36278243655779,-36.0135790044875,191.365999999995 -72.36268699795259,-36.0135266345557,191.084000000003 -72.36259143875969,-36.0134742949621,190.789999999994 -72.3624957765428,-36.0134218770803,190.512000000002 -72.3624001877463,-36.0133688352918,190.290999999997 -72.3623049065629,-36.0133154603904,190.073000000004 -72.3622090583045,-36.0132630925451,189.895999999993 -72.3621138198084,-36.0132101938745,189.759999999995 -72.3620183480319,-36.0131572836487,189.664999999994 -72.36192258303031,-36.01310477806,189.611000000004 -72.3618268537369,-36.0130531094214,189.600000000006 -72.3617320330186,-36.0130021991735,189.600999999995 -72.3616381620873,-36.0129514514294,189.620999999999 -72.3615460682647,-36.0128994552679,189.657999999996 -72.36145404525369,-36.0128478174892,189.676000000007 -72.36136243262951,-36.0127961771331,189.706999999995 -72.3612707143476,-36.0127451794562,189.720000000001 -72.3611790374804,-36.0126948924208,189.769 -72.36108696343319,-36.012644391177,189.778000000006 -72.36099494258021,-36.0125935729781,189.797999999995 -72.3609098508407,-36.012546233246,189.832299999995 -72.360906805284,-36.0125445389911,189.833499999993 -72.3609030872325,-36.0125424707178,189.835000000006 -72.3608106975507,-36.0124907976511,189.832999999999 -72.36071760816139,-36.0124390990822,189.839999999997 -72.3606240184974,-36.0123878920592,189.805999999997 -72.36053013138989,-36.0123369906693,189.785000000003 -72.3604359250381,-36.0122858818903,189.740999999995 -72.36034127870739,-36.012234073497,189.692999999999 -72.3602466339641,-36.0121809944147,189.569000000003 -72.3601516695649,-36.0121269149752,189.441999999995 -72.3600560627483,-36.0120723308297,189.286999999997 -72.35996006605041,-36.0120179647939,189.100000000006 -72.3598634571027,-36.0119627597922,188.895999999993 -72.3597651656013,-36.0119078902491,188.710999999996 -72.35966603041069,-36.0118532605473,188.529999999999 -72.35956734727409,-36.0117990866607,188.353000000003 -72.3594701559423,-36.0117442581014,188.145000000004 -72.3593750847962,-36.0116886851642,187.972999999998 -72.3592800967065,-36.011634019941,187.781000000003 -72.3591847244691,-36.0115797078317,187.592999999994 -72.3590891422884,-36.0115261945068,187.392999999996 -72.358993372708,-36.0114737496671,187.191000000006 -72.35889887104901,-36.0114198184103,186.994000000006 -72.35880472516941,-36.0113664267785,186.756999999998 -72.358710754741,-36.0113127237726,186.611000000004 -72.3586171194552,-36.0112593356938,186.410000000003 -72.35852362717161,-36.0112064391406,186.195999999996 -72.3584311534248,-36.0111542799034,186.149000000005 -72.3583382794628,-36.0111002674105,185.846999999994 -72.3582440575063,-36.0110468945694,185.661999999997 -72.3581498853686,-36.0109933859885,185.423999999999 -72.35805690403561,-36.0109402314305,185.085000000006 -72.3579639190081,-36.0108872481114,184.778999999995 -72.3578708733765,-36.0108349242265,184.362999999998 -72.35777715633211,-36.0107832408501,183.923999999999 -72.35768329809351,-36.0107331923657,183.289999999994 -72.3575912918825,-36.0106841822462,182.770999999993 -72.3575000910581,-36.0106382042506,182.286999999997 -72.35740539625669,-36.0105922159626,181.784 -72.35731240067111,-36.0105473243917,181.186000000002 -72.3572196752648,-36.0105035695864,180.648000000001 -72.3571269056502,-36.0104603385899,180.107999999993 -72.35703418312001,-36.0104174305995,179.577999999994 -72.3569406069345,-36.0103740057864,178.979000000007 -72.3568458936645,-36.0103314868352,178.388000000006 -72.3567500555333,-36.0102904230793,177.873999999996 -72.3566529175841,-36.0102495668721,177.305999999997 -72.35655494164401,-36.0102090854942,176.698000000004 -72.3564566858001,-36.0101690624308,176.202999999994 -72.35635797280921,-36.0101289800018,175.633000000002 -72.35625871558049,-36.0100883540451,174.991999999998 -72.3561594561544,-36.010048196643,174.698000000004 -72.3560586027875,-36.0100073268711,174.142000000007 -72.355956573757,-36.0099664538985,173.523000000001 -72.3558537308117,-36.0099252161556,173.016000000003 -72.3557492236488,-36.0098834392121,172.197 -72.3556467575403,-36.0098429746978,172.085999999996 -72.3555427231129,-36.0098005715708,171.959000000003 -72.3554376818815,-36.0097574396132,171.585999999996 -72.35533055853649,-36.0097146362051,171.237999999998 -72.3552242332841,-36.0096712967133,171.017999999996 -72.35511733097439,-36.0096271622824,170.626000000004 -72.3550100792572,-36.0095831546818,170.547000000006 -72.3549029892139,-36.0095400796113,170.572 -72.3547941100676,-36.0094963967268,170.331999999995 -72.3546846591852,-36.0094533515163,170.391000000003 -72.3545742893959,-36.0094087730063,170.425000000003 -72.3544635014257,-36.0093650531453,170.729000000007 -72.35435212038099,-36.0093201603142,170.933999999994 -72.3542404273269,-36.0092767989915,171.277000000002 -72.35412866334291,-36.0092333314131,171.551000000007 -72.3540167183731,-36.0091910852958,171.839999999997 -72.35390649012589,-36.0091498272925,172.032000000006 -72.35379319041201,-36.0091093670425,172.300000000003 -72.3536805634573,-36.0090695997293,172.474000000002 -72.3535679957514,-36.0090314886963,172.766000000003 -72.3534555472972,-36.0089940951066,173.005999999994 -72.3533427508698,-36.0089586935963,173.251999999993 -72.3532296649355,-36.0089245706488,173.494999999995 -72.3531169442462,-36.0088909510039,173.733999999997 -72.3530043347905,-36.008857598471,173.979999999996 -72.3528917620639,-36.0088248485473,174.203999999998 -72.3527795698498,-36.0087927006237,174.452000000005 -72.3526677004415,-36.0087616248949,174.690000000002 -72.3525558363725,-36.0087322430023,174.941999999995 -72.3524443191605,-36.0087039776889,175.160000000003 -72.3523323523755,-36.0086766169507,175.384000000005 -72.35222026832569,-36.0086504128114,175.589999999997 -72.35210828018,-36.0086248997391,175.831999999995 -72.3519965495057,-36.008600226403,176.047000000006 -72.3518855140606,-36.0085762544011,176.305999999997 -72.3517757461625,-36.0085518332225,176.490999999995 -72.3516679623053,-36.0085268590234,176.603000000003 -72.3515629631183,-36.0085032134652,176.990999999995 -72.35146039220309,-36.0084803379223,177.284 -72.35136075111249,-36.0084580291378,177.409 -72.3512639057319,-36.008436786483,177.524999999994 -72.3511693297099,-36.0084162281972,177.808000000005 -72.3510743724823,-36.0083960950098,177.997000000003 -72.3509775799366,-36.008375048886,178.210999999996 -72.3508784429509,-36.0083523291026,178.317999999999 -72.35077777238121,-36.008329273658,178.542000000001 -72.3506762778934,-36.0083066646925,178.736999999994 -72.35057569803649,-36.0082826063013,178.911999999997 -72.3504747462365,-36.0082578823895,179.066000000006 -72.35037463140701,-36.0082332791641,179.373000000007 -72.35027347238361,-36.0082075876706,179.476999999999 -72.3501725033058,-36.008181404177,179.771999999997 -72.3500702901996,-36.0081549129576,180.023000000001 -72.34996935425259,-36.0081268900896,180.218999999997 -72.3498691359451,-36.0080964320839,180.330000000002 -72.34977012258,-36.0080648319328,180.501999999993 -72.34967249130671,-36.0080331299791,180.869000000006 -72.34955838790491,-36.0079928538861,181.180699999997 -72.3494659658799,-36.0079602311655,181.433199999999 -72.349368826464,-36.0079259434264,181.698600000003 -72.3492943838642,-36.0078996664132,181.902000000002 -72.34920002909359,-36.0078651871482,181.797000000006 -72.3490997020875,-36.0078260709091,182.433000000005 -72.3490156204107,-36.0077932876808,182.966 -72.348916345681,-36.0077578553613,182.554000000004 -72.3488191625197,-36.0077210038133,182.710999999996 -72.3487215003929,-36.0076846251392,183.134000000005 -72.34862252070489,-36.0076464629563,183.422999999995 -72.3485219952733,-36.0076079383881,183.650999999998 -72.3484203092282,-36.0075681936196,183.805999999997 -72.3483168651001,-36.0075277860135,183.937000000005 -72.34821216352231,-36.0074880622578,184.221999999994 -72.34810695558799,-36.0074479020001,184.532999999996 -72.3480003142832,-36.0074068895972,184.731 -72.34789215741129,-36.007365703178,185.141000000003 -72.3477825492436,-36.0073235029056,185.611999999994 -72.347671913836,-36.00727982637,186.092999999994 -72.3475579315531,-36.0072369911658,186.490999999995 -72.3474430604272,-36.0071917566842,186.887000000002 -72.3473276699627,-36.0071463023079,187.402000000002 -72.3472119743451,-36.0071014961334,187.991999999998 -72.3470963711507,-36.0070578226661,188.535999999993 -72.34698080619491,-36.0070147878069,189.106 -72.3468653135679,-36.006971624656,189.509999999995 -72.3467489809171,-36.0069298365271,189.823999999993 -72.3466344725465,-36.0068889606175,190.182000000001 -72.3465220363133,-36.0068472535607,190.520999999993 -72.3464101805385,-36.0068072053556,190.756999999998 -72.34630083326699,-36.0067674654501,190.951000000001 -72.3461932082066,-36.0067293714395,191.199999999997 -72.34608689106049,-36.0066917814714,191.309999999998 -72.3459815643173,-36.0066553171749,191.346999999994 -72.3458769992635,-36.0066192910809,191.379000000001 -72.3457740514059,-36.00658452635,191.403999999995 -72.3456722808755,-36.0065498007414,191.437000000005 -72.3455717036969,-36.0065152309558,191.434999999998 -72.34547220319619,-36.006481991704,191.426000000007 -72.34537379291871,-36.0064488300603,191.463000000003 -72.3452765198369,-36.0064158077939,191.462 -72.34517974751719,-36.0063830859542,191.490999999995 -72.3450832274231,-36.0063505570397,191.525999999998 -72.3449870366789,-36.0063176845363,191.612999999998 -72.34488961178261,-36.006285260921,191.653000000006 -72.34479172868529,-36.0062522282456,191.663 -72.34469271003159,-36.006219353344,191.563999999998 -72.34459247985789,-36.006188773978,191.623000000007 -72.34449274158909,-36.0061567119762,191.771999999997 -72.34439261847891,-36.0061239397384,191.866999999998 -72.34429195752659,-36.0060915599945,191.979000000007 -72.34419130187619,-36.0060582807019,192.157999999996 -72.3440901878879,-36.0060245987003,192.337 -72.34398950839589,-36.0059904629372,192.548999999999 -72.3438879469464,-36.005956712148,192.744000000006 -72.3437873531479,-36.0059227630527,192.955000000002 -72.3436865465918,-36.0058892883881,193.209000000003 -72.34358583274199,-36.0058569554666,193.468999999997 -72.343484616846,-36.0058258619857,193.713000000003 -72.34338456964019,-36.0057938166665,193.968999999997 -72.343284492992,-36.0057623848418,194.203999999998 -72.3431846212703,-36.0057302893984,194.406000000003 -72.3430838285083,-36.0056992288184,194.592000000004 -72.3429809574837,-36.0056683252603,194.679999999993 -72.342876664518,-36.0056392004387,194.835000000006 -72.3427718215231,-36.0056125419058,194.966 -72.3426659562576,-36.0055889846058,195.067999999999 -72.3425591352207,-36.0055682653573,195.122000000003 -72.34245160234001,-36.0055490707344,195.054999999993 -72.3423440210055,-36.0055318778435,195.042000000001 -72.34223624136381,-36.0055152400673,195.013999999996 -72.3421282488639,-36.0054993380346,194.982000000004 -72.3420202377667,-36.0054829948747,194.968999999997 -72.34191259230479,-36.0054663800937,194.968999999997 -72.34180526264601,-36.0054504142215,194.956999999995 -72.3416977862062,-36.0054351732388,194.983999999997 -72.341590549697,-36.0054198353551,194.994000000006 -72.34148321808949,-36.0054046081602,194.997000000003 -72.3413757869241,-36.0053888609965,194.885999999999 -72.3412689477249,-36.0053737370199,194.888999999996 -72.3411624391979,-36.0053593516525,194.910999999993 -72.3410560527097,-36.0053441788144,195.046000000002 -72.3409487698672,-36.0053285262491,195.163 -72.34084097418069,-36.0053086075808,194.997000000003 -72.34073312809279,-36.0052869690858,195.095000000001 -72.34062426952249,-36.0052631509848,195.167000000001 -72.34051436606249,-36.0052369108766,195.300000000003 -72.3404048947378,-36.005208559015,195.553 -72.340295927016,-36.0051779492297,195.790999999997 -72.34018706651889,-36.005144623991,195.899000000005 -72.3400800455918,-36.0051081114817,196.119000000006 -72.33997519829271,-36.0050692314219,196.388999999996 -72.3398724651191,-36.005027625029,196.589000000007 -72.3397714353495,-36.0049838083824,196.892999999996 -72.3396721897424,-36.0049370673527,197.271999999997 -72.33957829635099,-36.0048870682026,197.990000000005 -72.33948517152081,-36.0048374080012,198.115000000005 -72.3393932102552,-36.0047861473501,198.399999999994 -72.33930300674859,-36.0047339635519,198.593999999997 -72.3392151373334,-36.0046811108837,198.826000000001 -72.33912917333841,-36.0046282059471,198.926000000007 -72.3390458390401,-36.0045761179651,199.137000000002 -72.3389644137722,-36.0045248517075,199.312999999995 -72.3388838724979,-36.0044735066904,199.438999999998 -72.3388031582717,-36.0044222655585,199.561000000002 -72.3387218349079,-36.0043710413429,199.718999999997 -72.3386402809889,-36.0043196072251,199.873999999996 -72.3385597389882,-36.0042682349645,200.225000000006 -72.3384787590681,-36.0042164693455,200.285000000003 -72.338396954929,-36.0041648798234,200.406000000003 -72.33831368738829,-36.0041125109982,200.574999999997 -72.33822770961849,-36.0040597760739,200.747000000003 -72.33814020902069,-36.0040056417225,200.876999999993 -72.3380510982513,-36.0039496147589,201.024999999994 -72.3379610954925,-36.0038913687915,201.254000000001 -72.33786854831141,-36.0038327430761,201.343999999997 -72.33777565024999,-36.0037742351938,201.551000000007 -72.3376826177531,-36.0037159021927,201.744999999995 -72.3375896109299,-36.0036579378586,201.891000000003 -72.3374970733373,-36.0035997891655,202.051999999996 -72.33740489673259,-36.0035420448563,202.164000000004 -72.3373133876689,-36.0034838223089,202.254000000001 -72.3372226639018,-36.0034260463966,202.320000000007 -72.3371320035539,-36.0033690345958,202.410000000003 -72.3370414650836,-36.0033122536189,202.459000000003 -72.3369502887663,-36.0032558597923,202.497000000003 -72.3368594517863,-36.0031993573192,202.525999999998 -72.3367680635664,-36.0031421402188,202.510999999999 -72.3366760220046,-36.0030846799146,202.430999999997 -72.33658388550531,-36.0030270689894,202.383000000002 -72.33649233014179,-36.002969297628,202.316999999995 -72.3363982037872,-36.002912093398,201.854999999996 -72.3363071923541,-36.002853802115,201.876000000004 -72.33621922278731,-36.0027947952788,202.304999999993 -72.3361304240694,-36.002734531872,202.406000000003 -72.3360427431532,-36.0026726332822,202.361999999994 -72.3359572959118,-36.0026084737059,202.285999999993 -72.3358746472687,-36.0025420374199,202.281000000003 -72.3357932715822,-36.0024737003178,202.289999999994 -72.3357158421031,-36.0024037394166,202.388999999996 -72.3356396782283,-36.0023322293488,202.354000000007 -72.33556645073691,-36.0022588172252,202.349000000002 -72.3354958452293,-36.0021836740045,202.335000000006 -72.3354283235869,-36.002106444409,202.341 -72.3353636792144,-36.0020269629821,202.370999999999 -72.3353010595028,-36.0019455237975,202.354999999996 -72.3352405660241,-36.0018608534533,202.369999999995 -72.33518320364411,-36.0017717975839,202.316000000006 -72.3351282364506,-36.0016793138409,202.304999999993 -72.33507576384051,-36.001584444759,202.304000000004 -72.3350284023566,-36.0014879645658,202.133000000002 -72.33498301977831,-36.0013905461744,202.134999999995 -72.3349396553271,-36.001292593999,202.123000000007 -72.33489769863991,-36.0011940979963,202.139999999999 -72.334856871055,-36.0010958138522,202.144 -72.3348164771627,-36.0009972923405,202.161999999997 -72.3347767211243,-36.0008991675741,202.111999999994 -72.3347383377895,-36.0008015092141,202.139999999999 -72.3346981974762,-36.0007055758175,202.133000000002 -72.3346578492432,-36.0006104952423,202.149999999994 -72.3346160701886,-36.0005172476965,202.112999999998 -72.33457040882099,-36.0004263429503,202.176000000007 -72.3345234437172,-36.0003376551731,202.065000000002 -72.3344729681353,-36.0002519756801,201.898000000001 -72.3344183425977,-36.0001696556763,201.657999999996 -72.3343604759182,-36.0000901562279,201.409 -72.3342995778715,-36.000013192146,201.089999999997 -72.3342348344131,-35.999937866936,200.865999999995 -72.33416958876749,-35.9998627268737,200.482000000004 -72.33410251918571,-35.9997885116091,200.127999999997 -72.33403308891251,-35.9997156415779,199.754000000001 -72.33395964011331,-35.9996447756646,199.376000000004 -72.3338834474924,-35.9995766894028,199.001000000004 -72.33380571938859,-35.9995092675823,198.625 -72.3337268354374,-35.9994425717272,198.245999999999 -72.3336473197247,-35.9993764070308,197.873999999996 -72.333568016494,-35.9993102814222,197.517000000007 -72.3334882556906,-35.9992446100354,197.144 -72.33340850192501,-35.9991788392726,196.736000000004 -72.3333285090814,-35.9991134445626,196.362999999998 -72.33324874753841,-35.9990477459914,195.978000000003 -72.33317028837619,-35.9989813713398,195.597999999998 -72.3330922748144,-35.9989158312903,195.229000000007 -72.3330143848754,-35.9988511167777,194.864000000001 -72.3329375394943,-35.9987869769065,194.494999999995 -72.33286221857961,-35.9987240110917,194.126000000004 -72.3327873729019,-35.9986623206093,193.775999999998 -72.3327115258668,-35.9986008381515,193.432000000001 -72.33263490362781,-35.9985390618107,193.054999999993 -72.3325575698222,-35.9984767384027,192.721999999994 -72.3324796952526,-35.9984131575992,192.384000000005 -72.332401433128,-35.9983485341101,192.036999999997 -72.3323226056478,-35.9982833856165,191.680999999997 -72.3322435874305,-35.9982179179681,191.349000000002 -72.3321644205927,-35.9981518146014,191.029999999999 -72.3320847083272,-35.9980861859168,190.835999999996 -72.3320045637989,-35.9980195058735,190.471000000005 -72.33192427200331,-35.9979527487666,190.203999999998 -72.33184363150269,-35.9978863977908,189.991999999998 -72.3317627719717,-35.9978198455891,189.782000000006 -72.3316816859538,-35.9977537051302,189.546000000002 -72.33160060878799,-35.997687771624,189.316000000006 -72.3315195451075,-35.9976218917511,189.104999999996 -72.3314390105686,-35.9975559340297,188.864000000001 -72.3313588687582,-35.9974900824773,188.665999999997 -72.3312789879845,-35.9974241064646,188.451000000001 -72.3311995909081,-35.9973580268358,188.248000000007 -72.3311198367863,-35.9972921553226,188.027000000002 -72.33103994921341,-35.9972260081148,187.835999999996 -72.3309592640868,-35.9971593513591,187.646999999997 -72.3308765513991,-35.9970927328834,187.483999999997 -72.33079321212089,-35.997024924262,187.331000000006 -72.3307096030569,-35.9969557083179,187.183999999994 -72.3306252756463,-35.9968854931102,187.092000000004 -72.3305401296746,-35.9968150590899,187.001000000004 -72.3304546828673,-35.9967445874087,186.987999999998 -72.3303685184474,-35.9966744509988,186.952999999994 -72.3302821230067,-35.9966046183129,186.941999999995 -72.33019588552651,-35.9965345829236,186.951000000001 -72.3301102173379,-35.9964643694449,186.925000000003 -72.3300246702894,-35.9963943958365,186.922000000006 -72.3299397090012,-35.9963241085149,186.922000000006 -72.3298545196277,-35.9962544582512,186.906000000003 -72.3297700376648,-35.9961850135454,186.873000000007 -72.32968527052439,-35.9961156397783,186.865000000005 -72.3296007903804,-35.9960472852501,186.892999999996 -72.3295170176405,-35.9959791362827,186.895999999993 -72.32943352829,-35.9959113938941,186.849000000002 -72.3293519478504,-35.9958439498428,186.861000000004 -72.3292717299952,-35.995777260861,186.876000000004 -72.3291925071287,-35.9957118147587,186.817999999999 -72.32911487848401,-35.9956476219237,186.823000000004 -72.32903820761,-35.9955851055454,186.805999999997 -72.3289621213264,-35.9955233027823,186.801000000007 -72.328887124584,-35.9954610371614,186.793999999994 -72.3288133948799,-35.9953985740905,186.762000000002 -72.3287401287761,-35.9953365846979,186.743000000002 -72.3286659144146,-35.9952757750334,186.744999999995 -72.3285914113392,-35.9952152166421,186.717999999994 -72.328516801026,-35.9951547422808,186.763000000006 -72.32844271404529,-35.9950943164118,186.744000000006 -72.3283692262183,-35.9950344235358,186.766000000003 -72.32829694595981,-35.9949750287328,186.785000000003 -72.3282258417352,-35.9949167005874,186.857000000004 -72.3281559562304,-35.9948596631968,186.959000000003 -72.32808550852261,-35.9948019114682,187.089000000007 -72.3280139738021,-35.9947425678654,187.229000000007 -72.3279413147666,-35.994682327286,187.403999999995 -72.327866901512,-35.9946215045913,187.604999999996 -72.3277907597013,-35.9945599188407,187.861000000004 -72.3277135598677,-35.9944969026024,188.135999999999 -72.3276352511018,-35.9944317724353,188.471000000005 -72.3275548965871,-35.9943654554731,188.823000000004 -72.32747250238739,-35.9942980957223,189.198999999993 -72.32738897039491,-35.9942292536194,189.615999999995 -72.3273036849138,-35.9941590543922,190.013999999996 -72.3272175625948,-35.9940874095066,190.460000000006 -72.3271300121361,-35.9940155518927,190.873000000007 -72.3270424293957,-35.993942658816,191.254000000001 -72.32695409982151,-35.9938696692595,191.553 -72.3268646471481,-35.9937958096913,191.808000000005 -72.3267725251808,-35.993722546807,191.970000000001 -72.3266793151066,-35.9936497736262,192.122000000003 -72.3265853308978,-35.99357836453,192.191999999995 -72.3264907856383,-35.9935083766802,192.198999999993 -72.3263945718183,-35.993440633806,192.184999999998 -72.3262964808863,-35.9933751867488,192.135999999999 -72.32619568649,-35.9933126892266,192.001999999993 -72.3260935817231,-35.9932525168365,191.857999999993 -72.32598988753939,-35.9931962092282,191.608999999997 -72.3258856316947,-35.9931436838058,191.368000000002 -72.32578094632591,-35.9930949188788,191.085999999996 -72.3256759265024,-35.9930490106853,190.748999999996 -72.32557033276581,-35.9930068579815,190.361000000004 -72.3254655594437,-35.9929676020512,189.955000000002 -72.3253617463464,-35.9929311398935,189.504000000001 -72.32525896153631,-35.9928972443421,189.023000000001 -72.32515747554589,-35.992865466343,188.509000000005 -72.3250566363926,-35.9928343551607,187.974000000002 -72.3249560327904,-35.9928035437372,187.357999999993 -72.3248550892099,-35.9927730840865,186.752999999997 -72.3247534763575,-35.9927422644456,186.150999999998 -72.3246514437914,-35.9927106904064,185.509999999995 -72.3245490212925,-35.9926774870523,184.839999999997 -72.3244466727533,-35.9926420828166,184.153000000006 -72.3243444889449,-35.9926047905742,183.471000000005 -72.3242426017592,-35.9925653183072,182.770999999993 -72.32414121094359,-35.9925236694865,182.130000000005 -72.3240416141298,-35.9924801145001,181.466 -72.3239433814897,-35.99243418768,180.812000000005 -72.3238474179399,-35.9923855215026,180.138999999996 -72.3237531297147,-35.9923347632284,179.536999999997 -72.32366138978649,-35.9922821049182,178.975000000006 -72.3235728713131,-35.9922261491898,178.304999999993 -72.3234866525318,-35.9921673901983,177.684999999998 -72.3234020349655,-35.9921066222856,177.076000000001 -72.3233186420823,-35.9920446488855,176.448999999993 -72.3232375214598,-35.9919797468375,175.784 -72.32315866191141,-35.9919121777823,175.123000000007 -72.3230823569571,-35.9918423300788,174.432000000001 -72.3230085284592,-35.991770719539,173.721999999994 -72.322937693157,-35.9916964487379,173.032999999996 -72.3228695612267,-35.9916202736494,172.347999999998 -72.3228032689225,-35.9915427498912,171.703999999998 -72.3227399168721,-35.9914639460721,171.087 -72.3226793797223,-35.9913840458974,170.497000000003 -72.3226204531485,-35.9913034161787,169.952000000005 -72.32256365063201,-35.9912216101426,169.430999999997 -72.3225082466229,-35.9911393057285,168.940000000002 -72.3224530522693,-35.991056445787,168.487999999998 -72.32239752827719,-35.9909731263711,168.127999999997 -72.32234121805359,-35.9908898287232,167.728000000003 -72.32228497176099,-35.9908064661941,167.369000000006 -72.3222284409137,-35.9907234539504,167.084000000003 -72.32217262581401,-35.9906405840362,166.831999999995 -72.3221171039656,-35.9905580934459,166.615999999995 -72.3220615112522,-35.9904754966558,166.452999999994 -72.3220059107263,-35.9903927108167,166.308999999994 -72.3219501848352,-35.9903095769851,166.129000000001 -72.3218944664837,-35.9902260914765,165.929999999993 -72.32183829178069,-35.9901428258465,165.743000000002 -72.3217822300999,-35.9900598724469,165.607000000004 -72.321727050666,-35.9899770657761,165.422000000006 -72.32167185424881,-35.9898949083562,165.258000000002 -72.3216175905539,-35.9898135721108,165.107000000004 -72.3215636028729,-35.9897335258053,164.968999999997 -72.32151016694959,-35.9896547347639,164.774000000005 -72.3214572022315,-35.9895771291301,164.592000000004 -72.32140503302691,-35.9894997176911,164.498999999996 -72.3213517952148,-35.9894227332386,164.342000000004 -72.32129801121771,-35.9893451493299,164.195999999996 -72.3212457700749,-35.9892662799844,164.053 -72.32119386531789,-35.9891869687506,163.899000000005 -72.3211408051984,-35.9891073380717,163.729999999996 -72.3210871884112,-35.9890276507028,163.548999999999 -72.3210331195185,-35.9889479938579,163.414999999994 -72.32097828182719,-35.9888688268746,163.264999999999 -72.3209235481783,-35.9887894677435,163.065000000002 -72.32086984575579,-35.9887093140519,162.913 -72.32081643542369,-35.9886287196991,162.754000000001 -72.3207625464569,-35.9885478141772,162.607999999993 -72.3207080551438,-35.9884665558574,162.460999999996 -72.3206533151338,-35.9883849169169,162.335999999996 -72.32059803583731,-35.988303635318,162.214000000007 -72.3205446740253,-35.9882218049415,162.092000000004 -72.320491321643,-35.9881404608836,161.951000000001 -72.3204365833611,-35.9880593804789,161.850999999995 -72.3203818243052,-35.9879788593184,161.763999999996 -72.3203268027118,-35.987899742146,161.679999999993 -72.32027314333109,-35.9878216415195,161.599000000002 -72.3202211689666,-35.9877451162057,161.510999999999 -72.3201709765161,-35.98767036177,161.404999999999 -72.3201212446518,-35.9875973337204,161.316000000006 -72.3200738040107,-35.9875255307793,161.244999999995 -72.32002712976271,-35.9874556079577,161.175000000003 -72.3199811249974,-35.987387369694,161.106 -72.3199349831317,-35.9873200904002,160.990000000005 -72.31988902181649,-35.9872531485118,160.896999999997 -72.31984326760811,-35.9871861197648,160.788 -72.3197980530031,-35.9871192652863,160.707999999999 -72.31975317361641,-35.9870527349183,160.601999999999 -72.31970894432941,-35.9869861054217,160.466 -72.3196643853878,-35.9869198094428,160.380000000005 -72.3196201274251,-35.9868543431538,160.273000000001 -72.3195765326245,-35.9867909400751,160.160000000003 -72.319534999929,-35.9867301742227,160.081000000006 -72.3194965353637,-35.9866732973304,159.974000000002 -72.3194613116939,-35.9866215211349,159.873999999996 -72.31942884415599,-35.9865728045019,159.801999999996 -72.3193955207699,-35.9865227148205,159.706000000006 -72.3193613277037,-35.9864706577307,159.638999999996 -72.31932733653269,-35.9864197124325,159.539000000004 -72.3192934533723,-35.9863697553691,159.493000000002 -72.31925942804151,-35.986320108615,159.452000000005 -72.31922645095641,-35.9862706040307,159.462 -72.3191937279846,-35.9862223990293,159.505000000005 -72.31916222187471,-35.9861754489242,159.502999999997 -72.3191318545656,-35.9861315941734,159.481 -72.3191041335993,-35.9860910903971,159.481 -72.3190794942663,-35.9860547996333,159.464999999997 -72.3190574817383,-35.9860227164581,159.481 -72.3190342978304,-35.9859901971344,159.471000000005 -72.3190118497817,-35.9859577745726,159.479999999996 -72.31899259573861,-35.985927723621,159.527000000002 -72.3189787256655,-35.9859005243069,159.550000000003 -72.3189716170757,-35.9858735162091,159.539000000004 -72.31896722422211,-35.9858515152458,159.528000000006 -72.3189583326955,-35.9858266741678,159.489000000001 
					</coordinates>
				</LineString>
			</MultiGeometry>
		</Placemark>
	</Folder>
</Document>
</kml>
