<?xml version="1.0" encoding="UTF-8"?>
<kml xmlns="http://www.opengis.net/kml/2.2" xmlns:gx="http://www.google.com/kml/ext/2.2" xmlns:kml="http://www.opengis.net/kml/2.2" xmlns:atom="http://www.w3.org/2005/Atom">
<Document id="root_doc">
	<name>oecv_Paillaco_Pampa Perinetti_2025.kml</name>
	<open>1</open>
	<atom:link rel="app" href="https://www.google.com/earth/about/versions/#earth-pro" title="Google Earth Pro 7.3.6.10441"></atom:link>
	<Schema name="pampa_perinetti_paillaco" id="pampa_perinetti_paillaco">
		<SimpleField type="float" name="long_km"></SimpleField>
	</Schema>
	<Style id="style">
		<LineStyle>
			<color>ff00ff00</color>
			<width>1.9</width>
		</LineStyle>
		<PolyStyle>
			<fill>0</fill>
		</PolyStyle>
	</Style>
	<Style id="style0">
		<LineStyle>
			<color>ff00ff00</color>
			<width>2.2</width>
		</LineStyle>
		<PolyStyle>
			<fill>0</fill>
		</PolyStyle>
	</Style>
	<Style id="style1">
		<LineStyle>
			<color>ff00ff00</color>
			<width>2.1</width>
		</LineStyle>
		<PolyStyle>
			<fill>0</fill>
		</PolyStyle>
	</Style>
	<Style id="style2">
		<LineStyle>
			<color>ff00ff00</color>
			<width>2.1</width>
		</LineStyle>
		<PolyStyle>
			<fill>0</fill>
		</PolyStyle>
	</Style>
	<Style id="style3">
		<LineStyle>
			<color>ff00ff00</color>
			<width>1.9</width>
		</LineStyle>
		<PolyStyle>
			<fill>0</fill>
		</PolyStyle>
	</Style>
	<Style id="style4">
		<LineStyle>
			<color>ff00ff00</color>
			<width>2.2</width>
		</LineStyle>
		<PolyStyle>
			<fill>0</fill>
		</PolyStyle>
	</Style>
	<StyleMap id="stylemap_id1">
		<Pair>
			<key>normal</key>
			<styleUrl>#style4</styleUrl>
		</Pair>
		<Pair>
			<key>highlight</key>
			<styleUrl>#style0</styleUrl>
		</Pair>
	</StyleMap>
	<StyleMap id="stylemap_id2">
		<Pair>
			<key>normal</key>
			<styleUrl>#style2</styleUrl>
		</Pair>
		<Pair>
			<key>highlight</key>
			<styleUrl>#style1</styleUrl>
		</Pair>
	</StyleMap>
	<StyleMap id="stylemap_id3">
		<Pair>
			<key>normal</key>
			<styleUrl>#style3</styleUrl>
		</Pair>
		<Pair>
			<key>highlight</key>
			<styleUrl>#style</styleUrl>
		</Pair>
	</StyleMap>
	<Folder>
		<name>pampa_perinetti_paillaco</name>
		<open>1</open>
		<Placemark>
			<name>4 nov 2025 12:01:01 p. m.</name>
			<Style>
				<LineStyle>
					<color>ff0000ff</color>
				</LineStyle>
				<PolyStyle>
					<fill>0</fill>
				</PolyStyle>
			</Style>
			<ExtendedData>
				<SchemaData schemaUrl="#pampa_perinetti_paillaco">
					<SimpleData name="long_km">0.489</SimpleData>
				</SchemaData>
			</ExtendedData>
			<MultiGeometry>
			</MultiGeometry>
		</Placemark>
		<Placemark>
			<name>2</name>
			<styleUrl>#stylemap_id1</styleUrl>
			<ExtendedData>
				<SchemaData schemaUrl="#pampa_perinetti_paillaco">
					<SimpleData name="long_km">0.450</SimpleData>
				</SchemaData>
			</ExtendedData>
			<MultiGeometry>
				<LineString>
					<coordinates>
						-72.86591,-40.06693,105.5 -72.86523167,-40.066935,108 -72.86511167,-40.06695333,108.5 -72.86499333,-40.06696167,107.8 -72.86490333,-40.06702333,107.2 -72.86488833,-40.06711833,105.8 -72.86489167000001,-40.067215,107.7 -72.86491167,-40.067305,107.7 -72.86491167,-40.06739667,108.5 -72.86489,-40.06749667,108.2 -72.86487332999999,-40.06758667,108.4 -72.86493333,-40.06766833,110.4 -72.86505332999999,-40.06764,110 -72.86517333,-40.06766333,110.8 -72.865295,-40.06768,110.4 -72.86541167,-40.06770167,109.9 -72.86553499999999,-40.06772333,109.1 -72.865685,-40.06773833,110.4 -72.86580499999999,-40.067735,109 -72.86584833000001,-40.06782833,107.1 -72.86590667,-40.06791333,107.6 -72.86601833,-40.06794167,107.4 -72.86614333,-40.06795333,108.1 -72.86627167,-40.06794333,108.4 -72.866345,-40.06786,108.2 -72.86638000000001,-40.06776833,106.5 -72.86639167,-40.06767833,105.2 -72.86641,-40.06758833,106.7 -72.86643832999999,-40.06749333,108 -72.86645,-40.06740333,107.3 -72.86647499999999,-40.06730333,105.6 -72.86646666999999,-40.06721333,109 -72.86648833,-40.06712333,107.7 -72.86649333,-40.06703333,105.8 -72.866415,-40.06695833,106.2 -72.86629667,-40.06694667,106.3 -72.86617333,-40.066935,107.7 -72.866035,-40.06693,106.5 -72.86591,-40.06693,105.5 
					</coordinates>
				</LineString>
			</MultiGeometry>
		</Placemark>
		<Placemark>
			<name>3</name>
			<styleUrl>#stylemap_id2</styleUrl>
			<ExtendedData>
				<SchemaData schemaUrl="#pampa_perinetti_paillaco">
					<SimpleData name="long_km">0.492</SimpleData>
				</SchemaData>
			</ExtendedData>
			<MultiGeometry>
				<LineString>
					<coordinates>
						-72.864785,-40.063365,101.6 -72.86474833,-40.06345833,102 -72.86474167,-40.06355,103.2 -72.86472999999999,-40.06364667,104 -72.86472667,-40.06374167,102.7 -72.86474,-40.06383667,102.4 -72.864735,-40.06393167,107 -72.86471833,-40.06403,105.9 -72.8647,-40.06412667,104.5 -72.86469833,-40.06422,99.59999999999999 -72.86468833000001,-40.06431167,101.1 -72.864695,-40.06440833,102.7 -72.86471167000001,-40.06449833,102.8 -72.864715,-40.06459833,106.6 -72.86472000000001,-40.06469,110.3 -72.86472833000001,-40.06479,110.7 -72.86472833000001,-40.06488333,106.6 -72.86471333,-40.06497333,108.4 -72.86472166999999,-40.06506667,108.4 -72.86470167,-40.06515667,108.4 -72.86469667,-40.06524667,109.7 -72.86469167,-40.06534333,110.2 -72.86468833000001,-40.065435,112.4 -72.8647,-40.06551333,103.3 -72.86469167,-40.06561,103.7 -72.86470167,-40.06570667,103.4 -72.86471167000001,-40.06579667,103 -72.86469,-40.06588833,103.8 -72.864695,-40.06597833,103.9 -72.86469332999999,-40.06607,102.2 -72.86468833000001,-40.06616333,102.3 -72.86469332999999,-40.06626167,101.1 -72.86468833000001,-40.06635667,100.4 -72.86466833,-40.06645167,99.79999999999998 -72.86467,-40.06654833,99.79999999999998 -72.864665,-40.066645,100.6 -72.86466,-40.066735,100.8 -72.864655,-40.06683167,101.1 -72.86463667,-40.06692167,103.2 -72.86462667000001,-40.06701667,103.4 -72.86462,-40.06710833,103.7 -72.864625,-40.0672,102.6 -72.86462667000001,-40.06730167,101 -72.864625,-40.0674,100.8 -72.86460167,-40.06748833,101.6 -72.86459833000001,-40.06758167,103 -72.86458666999999,-40.06767833,103.2 -72.86457167,-40.067775,104.2 
					</coordinates>
				</LineString>
			</MultiGeometry>
		</Placemark>
		<Placemark>
			<name>4</name>
			<styleUrl>#stylemap_id3</styleUrl>
			<ExtendedData>
				<SchemaData schemaUrl="#pampa_perinetti_paillaco">
					<SimpleData name="long_km">0.779</SimpleData>
				</SchemaData>
			</ExtendedData>
			<MultiGeometry>
				<LineString>
					<coordinates>
						-72.87134833,-40.0608,98.8 -72.87134500000001,-40.06089667,96.40000000000001 -72.87135833000001,-40.06098833,95.90000000000001 -72.87134833,-40.06111167,95.8 -72.87135833000001,-40.06122667,95.90000000000001 -72.87133333,-40.06133,97.59999999999999 -72.87133,-40.061445,96.90000000000001 -72.87132167,-40.06154,97.40000000000001 -72.87131832999999,-40.06164167,98.00000000000001 -72.87128833,-40.061735,98.40000000000001 -72.87119,-40.06181667,100.6 -72.871045,-40.06184167,101.4 -72.87090999999999,-40.06184167,102.4 -72.870785,-40.061835,102.2 -72.87063333,-40.06182167,101.3 -72.87050833000001,-40.06181333,101.2 -72.87037667,-40.06180333,100.9 -72.870255,-40.06180167,100.8 -72.87013666999999,-40.061795,100.3 -72.86999833,-40.06180333,99.90000000000001 -72.86987000000001,-40.06180167,99.7 -72.86973999999999,-40.06180167,100 -72.869615,-40.06179833,101.3 -72.86946500000001,-40.06180333,102.8 -72.86930667,-40.06180167,102.2 -72.86916832999999,-40.0618,101.4 -72.86903167,-40.06179,101.1 -72.86888166999999,-40.06177833,102.8 -72.86875833000001,-40.06177167,102.8 -72.86863833,-40.06177167,103.7 -72.86849667,-40.06176167,105.2 -72.86837,-40.06174333,107 -72.86825167000001,-40.06174,107.5 -72.86813667,-40.06175833,103.4 -72.86801833,-40.06175833,103 -72.86798333,-40.06176333,103 -72.86785833,-40.06176667,98.3 -72.86770167,-40.061765,98.3 -72.86758500000001,-40.06178833,98.00000000000001 -72.867465,-40.0618,99.09999999999999 -72.86734667,-40.061815,101.6 -72.86727500000001,-40.06189167,101.9 -72.86723000000001,-40.06197833,101 -72.86721833,-40.06208667,101.4 -72.86719667,-40.06218833,101.1 -72.86717,-40.06227833,98.90000000000001 -72.867165,-40.06238833,99.7 -72.86714000000001,-40.0625,100 -72.86710832999999,-40.06259667,100.7 -72.86707,-40.06270167,101.4 -72.86707667,-40.06280167,100 -72.86702167,-40.06288333,99.09999999999999 -72.86690333,-40.06288667,98.09999999999999 -72.86680333,-40.062945,99.3 -72.86679167,-40.06305167,99.3 -72.86676833,-40.06315833,99.7 -72.866715,-40.06325667,99.90000000000001 -72.86667667,-40.06335,100.6 -72.86660000000001,-40.06342167,101.6 -72.86646333,-40.06342833,102.5 -72.866315,-40.06342333,102.6 -72.866175,-40.06342,102.8 -72.86603832999999,-40.06340667,104.1 -72.865905,-40.06336833,106.7 -72.86577667,-40.06336667,105.3 -72.8654870950372,-40.0633844212169,101.8 -72.8653469941848,-40.0633744930876,101.5 -72.86508499999999,-40.06333,102.3 -72.86508499999999,-40.06333,102.3 
					</coordinates>
				</LineString>
			</MultiGeometry>
		</Placemark>
	</Folder>
</Document>
</kml>
