<?xml version="1.0" encoding="utf-8" ?>
<kml xmlns="http://www.opengis.net/kml/2.2">
<Document id="root_doc">
<Schema name="cortafuegos_ejecutados_lanco" id="cortafuegos_ejecutados_lanco">
	<SimpleField name="long_km" type="float"></SimpleField>
	<SimpleField name="layer" type="string"></SimpleField>
	<SimpleField name="path" type="string"></SimpleField>
</Schema>
<Folder><name>cortafuegos_ejecutados_lanco</name>
  <Placemark>
	<name>Cudico</name>
	<Style><LineStyle><color>ff0000ff</color></LineStyle><PolyStyle><fill>0</fill></PolyStyle></Style>
	<ExtendedData><SchemaData schemaUrl="#cortafuegos_ejecutados_lanco">
		<SimpleData name="long_km">0.195</SimpleData>
		<SimpleData name="layer">cortafuego_cudico</SimpleData>
		<SimpleData name="path">C:/Users/Prevención3/Desktop/CONAF 2025/EMILIA/lanco/puntos cortafuegos urgentes 11 de noviembre/ejecutado noviembre 2025/cortafuego_cudico.shp</SimpleData>
	</SchemaData></ExtendedData>
      <MultiGeometry><LineString><coordinates>-72.7678,-39.44847,94.9 -72.767841196143,-39.4484479809583,94.3 -72.76775167,-39.44833833,94 -72.76767167,-39.44827,93.5 -72.76754167,-39.44824,95.2 -72.76742667,-39.44825833,94.9 -72.76729833,-39.4483,92.7 -72.76717833,-39.448345,92.1 -72.76708667,-39.44842167,91 -72.76700333,-39.44850333,92.8 -72.76696,-39.44859167,93.1 -72.76704333,-39.44866,92.7 -72.767175,-39.448665,95.1 -72.76726,-39.44860333,94.3 -72.76733833,-39.44851833,94.4 -72.76745167,-39.448465,94.5 -72.76757333,-39.448445,94.9 -72.76769333,-39.44841667,95.2 -72.7678,-39.44847,94.9</coordinates></LineString></MultiGeometry>
  </Placemark>
  <Placemark>
	<name>Panamericana</name>
	<Style><LineStyle><color>ff0000ff</color></LineStyle><PolyStyle><fill>0</fill></PolyStyle></Style>
	<ExtendedData><SchemaData schemaUrl="#cortafuegos_ejecutados_lanco">
		<SimpleData name="long_km">0.720</SimpleData>
		<SimpleData name="layer">lanco_norte_real</SimpleData>
		<SimpleData name="path">C:\Users\Prevención3\Desktop\CONAF 2025\EMILIA\lanco\lanco_norte_real.shp</SimpleData>
	</SchemaData></ExtendedData>
      <MultiGeometry><LineString><coordinates>-72.7843,-39.44808667,85.2 -72.78430333,-39.44801833,82.5 -72.78435667,-39.44793667,84.5 -72.78442167,-39.44786,83.4 -72.78447333,-39.44777833,82.5 -72.78454833,-39.44770667,79 -72.78464167,-39.447635,78.1 -72.78472,-39.44755833,78.3 -72.78478833,-39.44748,78.9 -72.78489667,-39.44742833,79.4 -72.78498333,-39.44736667,79 -72.78505333,-39.447285,80.6 -72.78511167,-39.44720333,80.2 -72.785215,-39.44714667,80.8 -72.785295,-39.44707167,82.6 -72.785415,-39.44705833,83.3 -72.78551667,-39.44711333,83.6 -72.785625,-39.447155,81 -72.78573667,-39.44720667,81.5 -72.78584,-39.44725333,80.8 -72.78594667,-39.4473,81.4 -72.78604167,-39.44735833,82.9 -72.78616833,-39.44742167,82.9 -72.78627,-39.44747333,82.6 -72.78635333,-39.44753667,83.1 -72.78642667,-39.44761333,83.6 -72.78635833,-39.44769167,82 -72.78626667,-39.44775,81.1 -72.78616,-39.447815,79.1 -72.78609667,-39.44789667,78.6 -72.785995,-39.44794333,76.6 -72.785895,-39.44799,75.9 -72.78578833,-39.44804333,76.2 -72.78570833,-39.44811,76.8 -72.78563167,-39.44818833,76.9 -72.78551,-39.44820833,79.3 -72.78540167,-39.44824333,79.7 -72.785315,-39.448305,78.7 -72.78523333,-39.44838,75.9 -72.78514,-39.44844,75.7 -72.78504,-39.44848667,75.2 -72.78492667,-39.44850667,76.5 -72.78480833,-39.44851667,78.1 -72.784715,-39.44857833,77.6 -72.78464333,-39.44865833,78.4 -72.78458833,-39.44874167,77.7 -72.784505,-39.44880667,77.6 -72.78441,-39.448865,78.1 -72.78431333,-39.44891833,79.7 -72.78416333,-39.44897333,82.4 -72.7841,-39.449055,82.4 -72.784005,-39.449115,82.2 -72.78388833,-39.44912667,80.2 -72.783785,-39.449085,80 -72.78369333,-39.44902167,80 -72.78352,-39.448935,76.5 -72.78356167,-39.44885,78.1 -72.7836091432653,-39.4487912323896,0 -72.7836091432653,-39.4487912323896,0 -72.78368667,-39.44871833,85.2 -72.78375833,-39.448645,83.2 -72.78384667,-39.44858167,82.1 -72.78388667,-39.44849333,80.2 -72.78397,-39.44842,77.9 -72.784075,-39.44837667,80.7 -72.7841225628302,-39.4483859891186,0 -72.78415167,-39.44841667,82.4 -72.78426167,-39.44838667,81.6 -72.78427667,-39.44827333,81.2 -72.78428833,-39.44817833,83.5 -72.7843,-39.44808667,85.2</coordinates></LineString></MultiGeometry>
  </Placemark>
  <Placemark>
	<name>Malahue Cancha</name>
	<Style><LineStyle><color>ff0000ff</color></LineStyle><PolyStyle><fill>0</fill></PolyStyle></Style>
	<ExtendedData><SchemaData schemaUrl="#cortafuegos_ejecutados_lanco">
		<SimpleData name="long_km">0.330</SimpleData>
		<SimpleData name="layer">malalhue_cancha_lanco</SimpleData>
		<SimpleData name="path">C:/Users/Prevención3/Desktop/CONAF 2025/EMILIA/lanco/OECV/malalhue_cancha_lanco.shp</SimpleData>
	</SchemaData></ExtendedData>
      <MultiGeometry><LineString><coordinates>-72.5036259400415,-39.5418725562341,0 -72.5041427639968,-39.5417239389705,0 -72.5048260437024,-39.5425007760511,0 -72.5040672538465,-39.5428855718759,0</coordinates></LineString><LineString><coordinates>-72.5034205839723,-39.5432319975829,0 -72.5027139558258,-39.5435820870372,0 -72.5025509271966,-39.5433664445222,0</coordinates></LineString></MultiGeometry>
  </Placemark>
</Folder>
</Document></kml>
