{"type":"FeatureCollection","features":[{"type":"Feature","geometry":{"type":"Point","coordinates":[-71.91767,-45.53956]},"properties":{"nombre":"Cruce  Bandurrias","descripcion":"Ruta X-589","responsable":"Ñirre-4","region":"Aysén","fuente":"shapefile"}},{"type":"Feature","geometry":{"type":"Point","coordinates":[-72.30296,-43.98883]},"properties":{"nombre":"Puente Rosselott","descripcion":"Ruta X-13","responsable":"Brigada Ñirre-2","region":"Aysén","fuente":"shapefile"}},{"type":"Feature","geometry":{"type":"Point","coordinates":[-72.39812,-43.96487]},"properties":{"nombre":"Entrada La Junta","descripcion":"Ruta 7","responsable":"Brigada Ñirre-2","region":"Aysén","fuente":"shapefile"}},{"type":"Feature","geometry":{"type":"Point","coordinates":[-72.5794,-44.38365]},"properties":{"nombre":"Aeródromo Puyuhuapi","descripcion":"Ruta 7","responsable":"Brigada Ñirre-2","region":"Aysén","fuente":"shapefile"}},{"type":"Feature","geometry":{"type":"Point","coordinates":[-72.42498,-44.65565]},"properties":{"nombre":"Cruce Cisnes","descripcion":"Ruta 7","responsable":"Brigada Ñirre-2","region":"Aysén","fuente":"shapefile"}},{"type":"Feature","geometry":{"type":"Point","coordinates":[-72.18471,-44.72827]},"properties":{"nombre":"Cruce Tapera","descripcion":"Ruta 7","responsable":"Brigada Ñirre-3","region":"Aysén","fuente":"shapefile"}},{"type":"Feature","geometry":{"type":"Point","coordinates":[-72.13984,-45.01141]},"properties":{"nombre":"Cruce Mina El Toqui","descripcion":"Ruta 7","responsable":"Brigada Ñirre-3","region":"Aysén","fuente":"shapefile"}},{"type":"Feature","geometry":{"type":"Point","coordinates":[-72.24519,-45.25739]},"properties":{"nombre":"Cruce Cabeza","descripcion":"Ruta 7","responsable":"Brigada Ñirre-3","region":"Aysén","fuente":"shapefile"}},{"type":"Feature","geometry":{"type":"Point","coordinates":[-71.96868,-45.36748]},"properties":{"nombre":"Cruce Ñirehuao","descripcion":"Ruta 7","responsable":"Ñirre-3","region":"Aysén","fuente":"shapefile"}},{"type":"Feature","geometry":{"type":"Point","coordinates":[-72.49035,-45.39759]},"properties":{"nombre":"Cruce Viviana","descripcion":"Ruta 240","responsable":"Ñirre-3","region":"Aysén","fuente":"shapefile"}},{"type":"Feature","geometry":{"type":"Point","coordinates":[-72.0456,-46.10252]},"properties":{"nombre":"Cuesta del Diablo","descripcion":"Ruta 7","responsable":"Ñirre-4","region":"Aysén","fuente":"shapefile"}},{"type":"Feature","geometry":{"type":"Point","coordinates":[-72.70946,-46.43992]},"properties":{"nombre":"Cruce Murta","descripcion":"Ruta 7","responsable":"Ñirre-6","region":"Aysén","fuente":"shapefile"}},{"type":"Feature","geometry":{"type":"Point","coordinates":[-72.72131,-46.47349]},"properties":{"nombre":"Mirador Murta","descripcion":"Ruta 7","responsable":"Ñirre-6","region":"Aysén","fuente":"shapefile"}},{"type":"Feature","geometry":{"type":"Point","coordinates":[-72.64062,-46.66059]},"properties":{"nombre":"Bahía Mansa","descripcion":"Ruta 7","responsable":"Ñirre-6","region":"Aysén","fuente":"shapefile"}},{"type":"Feature","geometry":{"type":"Point","coordinates":[-72.78301,-46.90051]},"properties":{"nombre":"Cruce Guadal","descripcion":"Ruta 7","responsable":"Ñirre - 8","region":"Aysén","fuente":"shapefile"}},{"type":"Feature","geometry":{"type":"Point","coordinates":[-72.66622,-46.82184]},"properties":{"nombre":"El Maqui","descripcion":"Ruta X-265","responsable":"Ñirre-7","region":"Aysén","fuente":"shapefile"}},{"type":"Feature","geometry":{"type":"Point","coordinates":[-72.25768,-46.57144]},"properties":{"nombre":"Fachinal","descripcion":"Ruta X-265","responsable":"Ñirre-7","region":"Aysén","fuente":"shapefile"}},{"type":"Feature","geometry":{"type":"Point","coordinates":[-71.80201,-46.54693]},"properties":{"nombre":"Bahía Jara","descripcion":"Ruta X-265","responsable":"Ñirre-7","region":"Aysén","fuente":"shapefile"}},{"type":"Feature","geometry":{"type":"Point","coordinates":[-72.60233,-47.13049]},"properties":{"nombre":"Paso Roballo","descripcion":"Ruta 7","responsable":"Ñirre-8","region":"Aysén","fuente":"shapefile"}},{"type":"Feature","geometry":{"type":"Point","coordinates":[-72.58709,-47.28723]},"properties":{"nombre":"Cruce Lago Esmeralda","descripcion":"Ruta 7","responsable":"Ñirre-8","region":"Aysén","fuente":"shapefile"}},{"type":"Feature","geometry":{"type":"Point","coordinates":[-71.88861,-45.53732]},"properties":{"nombre":"Cruce Lago Frío","descripcion":"Ruta X-595","responsable":"Ñirre-4","region":"Aysén","fuente":"shapefile"}},{"type":"Feature","geometry":{"type":"Point","coordinates":[-72.08522,-45.55909]},"properties":{"nombre":"Pampa Pinuer","descripcion":"Ruta X-616","responsable":"Ñirre-4","region":"Aysén","fuente":"shapefile"}},{"type":"Feature","geometry":{"type":"Point","coordinates":[-72.09396,-45.52317]},"properties":{"nombre":"Mirador Marchant","descripcion":"Ruta 7","responsable":"Ñirre-4","region":"Aysén","fuente":"shapefile"}},{"type":"Feature","geometry":{"type":"Point","coordinates":[-72.04401,-45.67487]},"properties":{"nombre":"Cruce El Fraile","descripcion":"Ruta X-667","responsable":"Ñirre-4","region":"Aysén","fuente":"shapefile"}},{"type":"Feature","geometry":{"type":"Point","coordinates":[-73.79427,-42.68282]},"properties":{"nombre":"Quilipulli por ruta 5","descripcion":"Visual al norte y al sur","region":"Los Lagos","fuente":"shapefile"}},{"type":"Feature","geometry":{"type":"Point","coordinates":[-73.69571,-42.8811]},"properties":{"nombre":"al norte compu","descripcion":"visual al norte de compu (chonchi, molulco, chadmo, pureo, paildad)","region":"Los Lagos","fuente":"shapefile"}},{"type":"Feature","geometry":{"type":"Point","coordinates":[-73.68664,-42.48831]},"properties":{"nombre":"Rilan","descripcion":"visual a Dalcahue, quinchao, playa rilan","region":"Los Lagos","fuente":"shapefile"}},{"type":"Feature","geometry":{"type":"Point","coordinates":[-73.75917,-42.46414]},"properties":{"nombre":"Mirador tenten","descripcion":"visual al sur de castro, llicaldad, nalhuitad, al este y peninsula rilan","region":"Los Lagos","fuente":"shapefile"}},{"type":"Feature","geometry":{"type":"Point","coordinates":[-73.84067,-42.53047]},"properties":{"nombre":"mirador nalhuitad","descripcion":"visual al este, chonchi, puqueldon, rilan","region":"Los Lagos","fuente":"shapefile"}},{"type":"Feature","geometry":{"type":"Point","coordinates":[-73.82497,-42.52493]},"properties":{"nombre":"llicaldad","descripcion":"visual a rilan, llicaldad, castro sur, nercon","region":"Los Lagos","fuente":"shapefile"}},{"type":"Feature","geometry":{"type":"Point","coordinates":[-73.87069,-42.63341]},"properties":{"nombre":"petanes","descripcion":"visual al norte y huillinco","region":"Los Lagos","fuente":"shapefile"}},{"type":"Feature","geometry":{"type":"Point","coordinates":[-73.65324,-42.3716]},"properties":{"nombre":"villa suyai","descripcion":"visual al este, dalcahue urbano, isla quinchao","region":"Los Lagos","fuente":"shapefile"}},{"type":"Feature","geometry":{"type":"Point","coordinates":[-73.69955,-42.36836]},"properties":{"nombre":"punahuel","descripcion":"visual al norte, mocopulli bajo, ñiucho","region":"Los Lagos","fuente":"shapefile"}},{"type":"Feature","geometry":{"type":"Point","coordinates":[-73.79443,-42.46191]},"properties":{"nombre":"cesfam quillahue","descripcion":"vista al este, rilan, radio urbano de castro y la chacra, cuenca gamboa","region":"Los Lagos","fuente":"shapefile"}},{"type":"Feature","geometry":{"type":"Point","coordinates":[-73.80648,-41.8647]},"properties":{"nombre":"cerro huaihuen","descripcion":"vista a ancud, huicha, faro corona, salida sur ancud","region":"Los Lagos","fuente":"shapefile"}},{"type":"Feature","geometry":{"type":"Point","coordinates":[-73.301,-40.41825]},"properties":{"nombre":"PO Cancha Larga","region":"Los Lagos","fuente":"shapefile"}},{"type":"Feature","geometry":{"type":"Point","coordinates":[-73.32743,-40.7899]},"properties":{"nombre":"PO Chapaco Alto","region":"Los Lagos","fuente":"shapefile"}},{"type":"Feature","geometry":{"type":"Point","coordinates":[-73.38953,-40.51748]},"properties":{"nombre":"PO Cunamo","region":"Los Lagos","fuente":"shapefile"}},{"type":"Feature","geometry":{"type":"Point","coordinates":[-73.39559,-40.50426]},"properties":{"nombre":"PO Folilco","region":"Los Lagos","fuente":"shapefile"}},{"type":"Feature","geometry":{"type":"Point","coordinates":[-73.28517,-40.54886]},"properties":{"nombre":"PO Forrahue 1","region":"Los Lagos","fuente":"shapefile"}},{"type":"Feature","geometry":{"type":"Point","coordinates":[-73.28544,-40.55347]},"properties":{"nombre":"PO Forrahue 2","region":"Los Lagos","fuente":"shapefile"}},{"type":"Feature","geometry":{"type":"Point","coordinates":[-73.3025,-40.56771]},"properties":{"nombre":"PO Forrahue 3","region":"Los Lagos","fuente":"shapefile"}},{"type":"Feature","geometry":{"type":"Point","coordinates":[-73.1947,-40.43716]},"properties":{"nombre":"PO Grupo Trumao","region":"Los Lagos","fuente":"shapefile"}},{"type":"Feature","geometry":{"type":"Point","coordinates":[-73.17701,-40.39933]},"properties":{"nombre":"PO Grupo Trumao","region":"Los Lagos","fuente":"shapefile"}},{"type":"Feature","geometry":{"type":"Point","coordinates":[-73.18442,-40.41402]},"properties":{"nombre":"PO Grupo Trumao","region":"Los Lagos","fuente":"shapefile"}},{"type":"Feature","geometry":{"type":"Point","coordinates":[-73.18964,-40.42728]},"properties":{"nombre":"PO Grupo Trumao","region":"Los Lagos","fuente":"shapefile"}},{"type":"Feature","geometry":{"type":"Point","coordinates":[-73.20022,-40.45365]},"properties":{"nombre":"PO Grupo Trumao","region":"Los Lagos","fuente":"shapefile"}},{"type":"Feature","geometry":{"type":"Point","coordinates":[-73.21755,-40.443]},"properties":{"nombre":"PO Grupo Trumao","region":"Los Lagos","fuente":"shapefile"}},{"type":"Feature","geometry":{"type":"Point","coordinates":[-73.22314,-40.43418]},"properties":{"nombre":"PO Grupo Trumao","region":"Los Lagos","fuente":"shapefile"}},{"type":"Feature","geometry":{"type":"Point","coordinates":[-73.34677,-40.42809]},"properties":{"nombre":"PO Huali","region":"Los Lagos","fuente":"shapefile"}},{"type":"Feature","geometry":{"type":"Point","coordinates":[-73.43529,-40.46005]},"properties":{"nombre":"PO Huitrapulli","region":"Los Lagos","fuente":"shapefile"}},{"type":"Feature","geometry":{"type":"Point","coordinates":[-73.42211,-40.62968]},"properties":{"nombre":"PO La Cumbre","region":"Los Lagos","fuente":"shapefile"}},{"type":"Feature","geometry":{"type":"Point","coordinates":[-73.44398,-40.43457]},"properties":{"nombre":"PO Loncopitrío 1","region":"Los Lagos","fuente":"shapefile"}},{"type":"Feature","geometry":{"type":"Point","coordinates":[-73.44549,-40.43672]},"properties":{"nombre":"PO Loncopitrío 2","region":"Los Lagos","fuente":"shapefile"}},{"type":"Feature","geometry":{"type":"Point","coordinates":[-73.43924,-40.4545]},"properties":{"nombre":"PO Loncopitrío 3","region":"Los Lagos","fuente":"shapefile"}},{"type":"Feature","geometry":{"type":"Point","coordinates":[-73.42793,-40.46319]},"properties":{"nombre":"PO Panguimapu","region":"Los Lagos","fuente":"shapefile"}},{"type":"Feature","geometry":{"type":"Point","coordinates":[-73.44695,-40.38116]},"properties":{"nombre":"PO Pucopío","region":"Los Lagos","fuente":"shapefile"}},{"type":"Feature","geometry":{"type":"Point","coordinates":[-73.46366,-40.57621]},"properties":{"nombre":"PO Purrehuín","region":"Los Lagos","fuente":"shapefile"}},{"type":"Feature","geometry":{"type":"Point","coordinates":[-73.22235,-40.41322]},"properties":{"nombre":"PO Quilmahue","region":"Los Lagos","fuente":"shapefile"}},{"type":"Feature","geometry":{"type":"Point","coordinates":[-73.21833,-40.44251]},"properties":{"nombre":"PO Quilmahue 2","region":"Los Lagos","fuente":"shapefile"}},{"type":"Feature","geometry":{"type":"Point","coordinates":[-73.35009,-40.87719]},"properties":{"nombre":"PO Río Blanco","region":"Los Lagos","fuente":"shapefile"}},{"type":"Feature","geometry":{"type":"Point","coordinates":[-73.28923,-40.76337]},"properties":{"nombre":"PO Tres Esteros","region":"Los Lagos","fuente":"shapefile"}},{"type":"Feature","geometry":{"type":"Point","coordinates":[-72.90729,-41.38975]},"properties":{"nombre":"PO Alerce Norte","region":"Los Lagos","fuente":"shapefile"}},{"type":"Feature","geometry":{"type":"Point","coordinates":[-72.90114,-41.40446]},"properties":{"nombre":"PO Alerce Sur","region":"Los Lagos","fuente":"shapefile"}},{"type":"Feature","geometry":{"type":"Point","coordinates":[-72.89833,-41.43361]},"properties":{"nombre":"PO La Vara","region":"Los Lagos","fuente":"shapefile"}},{"type":"Feature","geometry":{"type":"Point","coordinates":[-72.90487,-41.464]},"properties":{"nombre":"PO Valle Volcanes","region":"Los Lagos","fuente":"shapefile"}},{"type":"Feature","geometry":{"type":"Point","coordinates":[-72.99375,-41.48525]},"properties":{"nombre":"PO Mirasol","region":"Los Lagos","fuente":"shapefile"}},{"type":"Feature","geometry":{"type":"Point","coordinates":[-72.84455,-41.48274]},"properties":{"nombre":"PO Chamiza","region":"Los Lagos","fuente":"shapefile"}},{"type":"Feature","geometry":{"type":"Point","coordinates":[-73.03585,-41.44024]},"properties":{"nombre":"PO Lagunita","region":"Los Lagos","fuente":"shapefile"}},{"type":"Feature","geometry":{"type":"Point","coordinates":[-72.83649,-41.4383]},"properties":{"nombre":"PO Senda Sur","region":"Los Lagos","fuente":"shapefile"}},{"type":"Feature","geometry":{"type":"Point","coordinates":[-72.97896,-41.32604]},"properties":{"nombre":"PO Puerto Varas","region":"Los Lagos","fuente":"shapefile"}},{"type":"Feature","geometry":{"type":"Point","coordinates":[-73.08235,-41.32578]},"properties":{"nombre":"PO Nueva Braucau","region":"Los Lagos","fuente":"shapefile"}},{"type":"Feature","geometry":{"type":"Point","coordinates":[-73.15989,-41.76666]},"properties":{"nombre":"PO Calbuco","region":"Los Lagos","fuente":"shapefile"}},{"type":"Feature","geometry":{"type":"Point","coordinates":[-72.53808,-41.20809]},"properties":{"nombre":"PO Ensenada","region":"Los Lagos","fuente":"shapefile"}},{"type":"Feature","geometry":{"type":"Point","coordinates":[-71.90336,-34.58506]},"properties":{"nombre":"Alto Las Viñas","region":"O'Higgins","fuente":"shapefile"}},{"type":"Feature","geometry":{"type":"Point","coordinates":[-71.82237,-34.59784]},"properties":{"nombre":"Alto El Calvario","region":"O'Higgins","fuente":"shapefile"}},{"type":"Feature","geometry":{"type":"Point","coordinates":[-71.37517,-34.06442]},"properties":{"nombre":"Santa Inés","region":"O'Higgins","fuente":"shapefile"}},{"type":"Feature","geometry":{"type":"Point","coordinates":[-70.64885,-33.93515]},"properties":{"nombre":"Cuesta Chada","region":"O'Higgins","fuente":"shapefile"}},{"type":"Feature","geometry":{"type":"Point","coordinates":[-70.93639,-34.18966]},"properties":{"nombre":"Cuesta Lo Miranda","region":"O'Higgins","fuente":"shapefile"}},{"type":"Feature","geometry":{"type":"Point","coordinates":[-71.02038,-34.42918]},"properties":{"nombre":"Cuesta Requegua","region":"O'Higgins","fuente":"shapefile"}},{"type":"Feature","geometry":{"type":"Point","coordinates":[-70.57972,-34.19596]},"properties":{"nombre":"Coya","region":"O'Higgins","fuente":"shapefile"}},{"type":"Feature","geometry":{"type":"Point","coordinates":[-70.78518,-34.43506]},"properties":{"nombre":"Puente Popeta","region":"O'Higgins","fuente":"shapefile"}},{"type":"Feature","geometry":{"type":"Point","coordinates":[-71.37223,-34.20425]},"properties":{"nombre":"El Peñon","region":"O'Higgins","fuente":"shapefile"}},{"type":"Feature","geometry":{"type":"Point","coordinates":[-71.31737,-34.3728]},"properties":{"nombre":"Cuesta La Torina","region":"O'Higgins","fuente":"shapefile"}},{"type":"Feature","geometry":{"type":"Point","coordinates":[-71.42905,-34.6654]},"properties":{"nombre":"Cuesta La Lajuela","region":"O'Higgins","fuente":"shapefile"}},{"type":"Feature","geometry":{"type":"Point","coordinates":[-73.665,-37.59722]},"properties":{"nombre":"Boca Lebu Sur","region":"Biobío","fuente":"shapefile"}},{"type":"Feature","geometry":{"type":"Point","coordinates":[-73.45722,-37.28778]},"properties":{"nombre":"Mirador Tubul-Raqui","region":"Biobío","fuente":"shapefile"}},{"type":"Feature","geometry":{"type":"Point","coordinates":[-73.32444,-37.26917]},"properties":{"nombre":"Los Laureles","region":"Biobío","fuente":"shapefile"}},{"type":"Feature","geometry":{"type":"Point","coordinates":[-73.53417,-37.66806]},"properties":{"nombre":"Pehuen","region":"Biobío","fuente":"shapefile"}},{"type":"Feature","geometry":{"type":"Point","coordinates":[-73.40639,-37.60444]},"properties":{"nombre":"Cerro alto","region":"Biobío","fuente":"shapefile"}},{"type":"Feature","geometry":{"type":"Point","coordinates":[-73.44778,-37.64417]},"properties":{"nombre":"Trihueco","region":"Biobío","fuente":"shapefile"}},{"type":"Feature","geometry":{"type":"Point","coordinates":[-73.38389,-37.67972]},"properties":{"nombre":"Antihuala","region":"Biobío","fuente":"shapefile"}},{"type":"Feature","geometry":{"type":"Point","coordinates":[-73.45472,-37.75472]},"properties":{"nombre":"Mirador Llenquehue","region":"Biobío","fuente":"shapefile"}},{"type":"Feature","geometry":{"type":"Point","coordinates":[-73.41528,-37.93194]},"properties":{"nombre":"Puente Peleco","region":"Biobío","fuente":"shapefile"}},{"type":"Feature","geometry":{"type":"Point","coordinates":[-73.44361,-37.23028]},"properties":{"nombre":"Raqui Tubul","region":"Biobío","fuente":"shapefile"}},{"type":"Feature","geometry":{"type":"Point","coordinates":[-73.40532,-37.76012]},"properties":{"nombre":"Tucapel Alto","region":"Biobío","fuente":"shapefile"}},{"type":"Feature","geometry":{"type":"Point","coordinates":[-73.44306,-37.81056]},"properties":{"nombre":"Pangueco","region":"Biobío","fuente":"shapefile"}},{"type":"Feature","geometry":{"type":"Point","coordinates":[-73.48944,-38.2504]},"properties":{"nombre":"Quidico","region":"Biobío","fuente":"shapefile"}},{"type":"Feature","geometry":{"type":"Point","coordinates":[-73.45636,-38.22249]},"properties":{"nombre":"Cura","region":"Biobío","fuente":"shapefile"}},{"type":"Feature","geometry":{"type":"Point","coordinates":[-73.44467,-37.626]},"properties":{"nombre":"Los Alamos","region":"Biobío","fuente":"shapefile"}},{"type":"Feature","geometry":{"type":"Point","coordinates":[-73.41625,-37.62625]},"properties":{"nombre":"La Araucana","region":"Biobío","fuente":"shapefile"}},{"type":"Feature","geometry":{"type":"Point","coordinates":[-73.42399,-38.19046]},"properties":{"nombre":"Sur San Ramón","region":"Biobío","fuente":"shapefile"}},{"type":"Feature","geometry":{"type":"Point","coordinates":[-73.25278,-37.97333]},"properties":{"nombre":"Fuerte El Manzano","region":"Biobío","fuente":"shapefile"}},{"type":"Feature","geometry":{"type":"Point","coordinates":[-72.44251,-37.32056]},"properties":{"region":"Biobío","fuente":"shapefile"}},{"type":"Feature","geometry":{"type":"Point","coordinates":[-72.41685,-37.0337]},"properties":{"region":"Biobío","fuente":"shapefile"}},{"type":"Feature","geometry":{"type":"Point","coordinates":[-72.3664,-37.33778]},"properties":{"region":"Biobío","fuente":"shapefile"}},{"type":"Feature","geometry":{"type":"Point","coordinates":[-72.39147,-37.21126]},"properties":{"region":"Biobío","fuente":"shapefile"}},{"type":"Feature","geometry":{"type":"Point","coordinates":[-72.58246,-37.46508]},"properties":{"region":"Biobío","fuente":"shapefile"}},{"type":"Feature","geometry":{"type":"Point","coordinates":[-72.4814,-37.4736]},"properties":{"region":"Biobío","fuente":"shapefile"}},{"type":"Feature","geometry":{"type":"Point","coordinates":[-72.25053,-37.77042]},"properties":{"region":"Biobío","fuente":"shapefile"}},{"type":"Feature","geometry":{"type":"Point","coordinates":[-72.30397,-37.55245]},"properties":{"region":"Biobío","fuente":"shapefile"}},{"type":"Feature","geometry":{"type":"Point","coordinates":[-72.57003,-37.09856]},"properties":{"region":"Biobío","fuente":"shapefile"}},{"type":"Feature","geometry":{"type":"Point","coordinates":[-72.43892,-37.08768]},"properties":{"region":"Biobío","fuente":"shapefile"}},{"type":"Feature","geometry":{"type":"Point","coordinates":[-72.25417,-37.73267]},"properties":{"region":"Biobío","fuente":"shapefile"}},{"type":"Feature","geometry":{"type":"Point","coordinates":[-72.52903,-37.58628]},"properties":{"region":"Biobío","fuente":"shapefile"}},{"type":"Feature","geometry":{"type":"Point","coordinates":[-72.68899,-37.48692]},"properties":{"region":"Biobío","fuente":"shapefile"}},{"type":"Feature","geometry":{"type":"Point","coordinates":[-72.69639,-37.28257]},"properties":{"region":"Biobío","fuente":"shapefile"}},{"type":"Feature","geometry":{"type":"Point","coordinates":[-72.63972,-37.36611]},"properties":{"region":"Biobío","fuente":"shapefile"}},{"type":"Feature","geometry":{"type":"Point","coordinates":[-72.27573,-37.59539]},"properties":{"region":"Biobío","fuente":"shapefile"}},{"type":"Feature","geometry":{"type":"Point","coordinates":[-72.61295,-36.98707]},"properties":{"region":"Biobío","fuente":"shapefile"}},{"type":"Feature","geometry":{"type":"Point","coordinates":[-72.59447,-37.56055]},"properties":{"region":"Biobío","fuente":"shapefile"}},{"type":"Feature","geometry":{"type":"Point","coordinates":[-72.44533,-37.17395]},"properties":{"region":"Biobío","fuente":"shapefile"}},{"type":"Feature","geometry":{"type":"Point","coordinates":[-72.52054,-37.24884]},"properties":{"region":"Biobío","fuente":"shapefile"}},{"type":"Feature","geometry":{"type":"Point","coordinates":[-72.92343,-36.53842]},"properties":{"region":"Biobío","fuente":"shapefile"}},{"type":"Feature","geometry":{"type":"Point","coordinates":[-72.88169,-36.61754]},"properties":{"region":"Biobío","fuente":"shapefile"}},{"type":"Feature","geometry":{"type":"Point","coordinates":[-72.90083,-36.72111]},"properties":{"region":"Biobío","fuente":"shapefile"}},{"type":"Feature","geometry":{"type":"Point","coordinates":[-72.91849,-36.74617]},"properties":{"region":"Biobío","fuente":"shapefile"}},{"type":"Feature","geometry":{"type":"Point","coordinates":[-72.99981,-36.73745]},"properties":{"region":"Biobío","fuente":"shapefile"}},{"type":"Feature","geometry":{"type":"Point","coordinates":[-72.9575,-36.62239]},"properties":{"region":"Biobío","fuente":"shapefile"}},{"type":"Feature","geometry":{"type":"Point","coordinates":[-72.89976,-36.66058]},"properties":{"region":"Biobío","fuente":"shapefile"}},{"type":"Feature","geometry":{"type":"Point","coordinates":[-73.05846,-36.89776]},"properties":{"region":"Biobío","fuente":"shapefile"}},{"type":"Feature","geometry":{"type":"Point","coordinates":[-72.76264,-36.73634]},"properties":{"region":"Biobío","fuente":"shapefile"}},{"type":"Feature","geometry":{"type":"Point","coordinates":[-72.65719,-36.86913]},"properties":{"region":"Biobío","fuente":"shapefile"}},{"type":"Feature","geometry":{"type":"Point","coordinates":[-73.138,-36.88426]},"properties":{"region":"Biobío","fuente":"shapefile"}},{"type":"Feature","geometry":{"type":"Point","coordinates":[-72.80722,-36.89417]},"properties":{"region":"Biobío","fuente":"shapefile"}},{"type":"Feature","geometry":{"type":"Point","coordinates":[-73.12246,-37.03541]},"properties":{"region":"Biobío","fuente":"shapefile"}},{"type":"Feature","geometry":{"type":"Point","coordinates":[-73.04317,-37.04111]},"properties":{"region":"Biobío","fuente":"shapefile"}},{"type":"Feature","geometry":{"type":"Point","coordinates":[-72.91537,-36.94613]},"properties":{"region":"Biobío","fuente":"shapefile"}},{"type":"Feature","geometry":{"type":"Point","coordinates":[-72.98859,-37.01248]},"properties":{"region":"Biobío","fuente":"shapefile"}},{"type":"Feature","geometry":{"type":"Point","coordinates":[-72.96286,-37.05152]},"properties":{"region":"Biobío","fuente":"shapefile"}},{"type":"Feature","geometry":{"type":"Point","coordinates":[-73.04714,-36.83322]},"properties":{"region":"Biobío","fuente":"shapefile"}},{"type":"Feature","geometry":{"type":"Point","coordinates":[-72.89375,-36.63062]},"properties":{"region":"Biobío","fuente":"shapefile"}},{"type":"Feature","geometry":{"type":"Point","coordinates":[-72.87333,-37.27639]},"properties":{"region":"Biobío","fuente":"shapefile"}},{"type":"Feature","geometry":{"type":"Point","coordinates":[-72.92215,-37.31799]},"properties":{"region":"Biobío","fuente":"shapefile"}},{"type":"Feature","geometry":{"type":"Point","coordinates":[-72.97757,-37.16359]},"properties":{"region":"Biobío","fuente":"shapefile"}},{"type":"Feature","geometry":{"type":"Point","coordinates":[-73.00539,-36.94059]},"properties":{"region":"Biobío","fuente":"shapefile"}},{"type":"Feature","geometry":{"type":"Point","coordinates":[-72.98869,-36.81798]},"properties":{"region":"Biobío","fuente":"shapefile"}},{"type":"Feature","geometry":{"type":"Point","coordinates":[-72.67389,-37.81056]},"properties":{"nombre":"9.23 M. Vidal","descripcion":"9.23","codigo":"BC-901-26","region":"La Araucanía","fuente":"shapefile"}},{"type":"Feature","geometry":{"type":"Point","coordinates":[-72.67389,-37.81056]},"properties":{"nombre":"9.26 M. Carrasco","descripcion":"9.26","codigo":"BC-901-26","region":"La Araucanía","fuente":"shapefile"}},{"type":"Feature","geometry":{"type":"Point","coordinates":[-72.67389,-37.81056]},"properties":{"nombre":"9.27 R. Martinez","descripcion":"9.27","codigo":"BC-901-26","region":"La Araucanía","fuente":"shapefile"}},{"type":"Feature","geometry":{"type":"Point","coordinates":[-72.62069,-38.74991]},"properties":{"nombre":"9.0 M.Huentequeo","descripcion":"9.0","region":"La Araucanía","fuente":"shapefile"}},{"type":"Feature","geometry":{"type":"Point","coordinates":[-72.62063,-38.75001]},"properties":{"nombre":"9.1  M. Alvarado","descripcion":"9.1","region":"La Araucanía","fuente":"shapefile"}},{"type":"Feature","geometry":{"type":"Point","coordinates":[-72.62063,-38.75001]},"properties":{"nombre":"9.20 L. Bascuñan","descripcion":"9.2","region":"La Araucanía","fuente":"shapefile"}},{"type":"Feature","geometry":{"type":"Point","coordinates":[-72.34556,-38.24389]},"properties":{"nombre":"9.21 L. Marilao","descripcion":"9.21","region":"La Araucanía","fuente":"shapefile"}},{"type":"Feature","geometry":{"type":"Point","coordinates":[-72.43057,-38.52561]},"properties":{"nombre":"9.22 C. Garcia","descripcion":"9.22","region":"La Araucanía","fuente":"shapefile"}},{"type":"Feature","geometry":{"type":"Point","coordinates":[-72.62063,-38.75001]},"properties":{"nombre":"9.24 J. Canullan","descripcion":"9.24","region":"La Araucanía","fuente":"shapefile"}},{"type":"Feature","geometry":{"type":"Point","coordinates":[-72.62069,-38.74991]},"properties":{"nombre":"9.30 O.Astorga","descripcion":"9.3","region":"La Araucanía","fuente":"shapefile"}},{"type":"Feature","geometry":{"type":"Point","coordinates":[-72.62063,-38.75038]},"properties":{"nombre":"9.50 W.Gonzalez","descripcion":"9.5","region":"La Araucanía","fuente":"shapefile"}},{"type":"Feature","geometry":{"type":"Point","coordinates":[-72.62069,-38.74991]},"properties":{"nombre":"AP.94 C.Venegas","descripcion":"AP.94","region":"La Araucanía","fuente":"shapefile"}},{"type":"Feature","geometry":{"type":"Point","coordinates":[-72.62069,-38.74991]},"properties":{"nombre":"AP.94 F. Lehuey","descripcion":"AP.94","region":"La Araucanía","fuente":"shapefile"}},{"type":"Feature","geometry":{"type":"Point","coordinates":[-72.62069,-38.74991]},"properties":{"nombre":"AP.95 C. Abello","descripcion":"AP.95","region":"La Araucanía","fuente":"shapefile"}},{"type":"Feature","geometry":{"type":"Point","coordinates":[-72.62069,-38.74991]},"properties":{"nombre":"AP.96 J.Carrasco","descripcion":"AP.96","region":"La Araucanía","fuente":"shapefile"}},{"type":"Feature","geometry":{"type":"Point","coordinates":[-72.62063,-38.75001]},"properties":{"nombre":"C1 - J. Espinoza","descripcion":"C1","region":"La Araucanía","fuente":"shapefile"}},{"type":"Feature","geometry":{"type":"Point","coordinates":[-72.62063,-38.75001]},"properties":{"nombre":"C2 D. Figueroa","descripcion":"C2","region":"La Araucanía","fuente":"shapefile"}},{"type":"Feature","geometry":{"type":"Point","coordinates":[-72.62063,-38.75001]},"properties":{"nombre":"C3 S. Inostroza","descripcion":"C3","region":"La Araucanía","fuente":"shapefile"}},{"type":"Feature","geometry":{"type":"Point","coordinates":[-72.62063,-38.75001]},"properties":{"nombre":"M. Mora","descripcion":"MM","region":"La Araucanía","fuente":"shapefile"}},{"type":"Feature","geometry":{"type":"Point","coordinates":[-72.62056,-38.75]},"properties":{"nombre":"P.F Melani Rios","descripcion":"P.F","region":"La Araucanía","fuente":"shapefile"}},{"type":"Feature","geometry":{"type":"Point","coordinates":[-72.43057,-38.52561]},"properties":{"nombre":"S10 C. Ruiz","descripcion":"S10","region":"La Araucanía","fuente":"shapefile"}},{"type":"Feature","geometry":{"type":"Point","coordinates":[-73.06667,-38.03444]},"properties":{"nombre":"S2 J. Campos","descripcion":"S2","region":"La Araucanía","fuente":"shapefile"}},{"type":"Feature","geometry":{"type":"Point","coordinates":[-72.34556,-38.24389]},"properties":{"nombre":"S5 P. Vidal","descripcion":"S5","region":"La Araucanía","fuente":"shapefile"}},{"type":"Feature","geometry":{"type":"Point","coordinates":[-72.22694,-39.31278]},"properties":{"nombre":"S7 A. Sandoval","descripcion":"S7","region":"La Araucanía","fuente":"shapefile"}},{"type":"Feature","geometry":{"type":"Point","coordinates":[-72.62056,-38.75028]},"properties":{"nombre":"SO.91 R. Navarrete","descripcion":"SO.91","region":"La Araucanía","fuente":"shapefile"}},{"type":"Feature","geometry":{"type":"Point","coordinates":[-72.62069,-38.74991]},"properties":{"nombre":"SO.9  D. Diaz","descripcion":"SO.9","region":"La Araucanía","fuente":"shapefile"}},{"type":"Feature","geometry":{"type":"Point","coordinates":[-72.34584,-38.24407]},"properties":{"codigo":"BC-903-26","region":"La Araucanía","fuente":"shapefile"}},{"type":"Feature","geometry":{"type":"Point","coordinates":[-72.92357,-38.75945]},"properties":{"codigo":"BC-906-26","region":"La Araucanía","fuente":"shapefile"}},{"type":"Feature","geometry":{"type":"Point","coordinates":[-72.73543,-39.07901]},"properties":{"region":"La Araucanía","fuente":"shapefile"}},{"type":"Feature","geometry":{"type":"Point","coordinates":[-72.62073,-38.75003]},"properties":{"region":"La Araucanía","fuente":"shapefile"}},{"type":"Feature","geometry":{"type":"Point","coordinates":[-72.34596,-38.24405]},"properties":{"region":"La Araucanía","fuente":"shapefile"}},{"type":"Feature","geometry":{"type":"Point","coordinates":[-73.11256,-38.88957]},"properties":{"region":"La Araucanía","fuente":"shapefile"}},{"type":"Feature","geometry":{"type":"Point","coordinates":[-72.4378,-37.95906]},"properties":{"region":"La Araucanía","fuente":"shapefile"}},{"type":"Feature","geometry":{"type":"Point","coordinates":[-73.16711,-38.01374]},"properties":{"region":"La Araucanía","fuente":"shapefile"}},{"type":"Feature","geometry":{"type":"Point","coordinates":[-71.6613,-38.86893]},"properties":{"region":"La Araucanía","fuente":"shapefile"}},{"type":"Feature","geometry":{"type":"Point","coordinates":[-71.973,-38.1299]},"properties":{"region":"La Araucanía","fuente":"shapefile"}},{"type":"Feature","geometry":{"type":"Point","coordinates":[-72.64869,-38.61112]},"properties":{"region":"La Araucanía","fuente":"shapefile"}},{"type":"Feature","geometry":{"type":"Point","coordinates":[-72.67859,-37.71628]},"properties":{"region":"La Araucanía","fuente":"shapefile"}},{"type":"Feature","geometry":{"type":"Point","coordinates":[-72.3855,-37.83773]},"properties":{"region":"La Araucanía","fuente":"shapefile"}},{"type":"Feature","geometry":{"type":"Point","coordinates":[-73.03833,-38.45306]},"properties":{"region":"La Araucanía","fuente":"shapefile"}},{"type":"Feature","geometry":{"type":"Point","coordinates":[-71.93521,-38.08459]},"properties":{"region":"La Araucanía","fuente":"shapefile"}},{"type":"Feature","geometry":{"type":"Point","coordinates":[-72.65844,-38.55296]},"properties":{"region":"La Araucanía","fuente":"shapefile"}},{"type":"Feature","geometry":{"type":"Point","coordinates":[-72.68227,-39.32299]},"properties":{"region":"La Araucanía","fuente":"shapefile"}},{"type":"Feature","geometry":{"type":"Point","coordinates":[-72.95952,-37.99729]},"properties":{"region":"La Araucanía","fuente":"shapefile"}},{"type":"Feature","geometry":{"type":"Point","coordinates":[-72.48668,-37.82868]},"properties":{"region":"La Araucanía","fuente":"shapefile"}},{"type":"Feature","geometry":{"type":"Point","coordinates":[-73.16614,-38.74546]},"properties":{"region":"La Araucanía","fuente":"shapefile"}},{"type":"Feature","geometry":{"type":"Point","coordinates":[-72.75981,-37.8268]},"properties":{"region":"La Araucanía","fuente":"shapefile"}},{"type":"Feature","geometry":{"type":"Point","coordinates":[-72.34902,-38.11937]},"properties":{"region":"La Araucanía","fuente":"shapefile"}},{"type":"Feature","geometry":{"type":"Point","coordinates":[-72.41702,-37.97882]},"properties":{"region":"La Araucanía","fuente":"shapefile"}},{"type":"Feature","geometry":{"type":"Point","coordinates":[-72.51472,-37.90722]},"properties":{"region":"La Araucanía","fuente":"shapefile"}},{"type":"Feature","geometry":{"type":"Point","coordinates":[-72.87,-38.40806]},"properties":{"region":"La Araucanía","fuente":"shapefile"}},{"type":"Feature","geometry":{"type":"Point","coordinates":[-70.96217,-33.64053]},"properties":{"nombre":"Cerro La Campana","region":"Metropolitana","fuente":"shapefile"}},{"type":"Feature","geometry":{"type":"Point","coordinates":[-70.57278,-33.63483]},"properties":{"nombre":"Muni Pirque","region":"Metropolitana","fuente":"shapefile"}},{"type":"Feature","geometry":{"type":"Point","coordinates":[-70.54619,-33.606]},"properties":{"nombre":"Cerro La Ballena","region":"Metropolitana","fuente":"shapefile"}},{"type":"Feature","geometry":{"type":"Point","coordinates":[-70.92589,-33.53056]},"properties":{"nombre":"Cuesta Barriga","region":"Metropolitana","fuente":"shapefile"}},{"type":"Feature","geometry":{"type":"Point","coordinates":[-70.96053,-33.61811]},"properties":{"nombre":"Cuesta Pelvin","region":"Metropolitana","fuente":"shapefile"}},{"type":"Feature","geometry":{"type":"Point","coordinates":[-70.93928,-33.65761]},"properties":{"nombre":"Cerro La Antena","region":"Metropolitana","fuente":"shapefile"}},{"type":"Feature","geometry":{"type":"Point","coordinates":[-70.37911,-33.59197]},"properties":{"nombre":"Cam. Al Volcán","region":"Metropolitana","fuente":"shapefile"}},{"type":"Feature","geometry":{"type":"Point","coordinates":[-71.56139,-33.92028]},"properties":{"nombre":"Cuesta el Charqui","region":"Metropolitana","fuente":"shapefile"}},{"type":"Feature","geometry":{"type":"Point","coordinates":[-70.70642,-32.96025]},"properties":{"nombre":"Cuesta Chacabuco","region":"Metropolitana","fuente":"shapefile"}},{"type":"Feature","geometry":{"type":"Point","coordinates":[-70.60033,-33.302]},"properties":{"nombre":"Pie Andino","region":"Metropolitana","fuente":"shapefile"}},{"type":"Feature","geometry":{"type":"Point","coordinates":[-71.32681,-33.45314]},"properties":{"nombre":"Cuesta Ibacache","region":"Metropolitana","fuente":"shapefile"}},{"type":"Feature","geometry":{"type":"Point","coordinates":[-71.257,-33.39714]},"properties":{"nombre":"Cuesta Zapata","region":"Metropolitana","fuente":"shapefile"}},{"type":"Feature","geometry":{"type":"Point","coordinates":[-70.54742,-33.45661]},"properties":{"nombre":"Aerodromo Tobalaba","region":"Metropolitana","fuente":"shapefile"}},{"type":"Feature","geometry":{"type":"Point","coordinates":[-70.63233,-33.42394]},"properties":{"nombre":"ParqueMet","region":"Metropolitana","fuente":"shapefile"}},{"type":"Feature","geometry":{"type":"Point","coordinates":[-70.82508,-33.43653]},"properties":{"nombre":"Cruce Noviciado","region":"Metropolitana","fuente":"shapefile"}},{"type":"Feature","geometry":{"type":"Point","coordinates":[-70.75444,-33.87131]},"properties":{"nombre":"Lo Águila","region":"Metropolitana","fuente":"shapefile"}},{"type":"Feature","geometry":{"type":"Point","coordinates":[-71.41075,-33.92861]},"properties":{"nombre":"RO-19","region":"Metropolitana","fuente":"shapefile"}},{"type":"Feature","geometry":{"type":"Point","coordinates":[-71.1955,-34.08331]},"properties":{"nombre":"RO-11","region":"Metropolitana","fuente":"shapefile"}},{"type":"Feature","geometry":{"type":"Point","coordinates":[-71.05494,-33.68944]},"properties":{"nombre":"Cruce El Paico","region":"Metropolitana","fuente":"shapefile"}},{"type":"Feature","geometry":{"type":"Point","coordinates":[-71.15814,-33.67047]},"properties":{"nombre":"Cruce Pomaire","region":"Metropolitana","fuente":"shapefile"}},{"type":"Feature","geometry":{"type":"Point","coordinates":[-71.21333,-33.71272]},"properties":{"nombre":"Punte Marambio","region":"Metropolitana","fuente":"shapefile"}},{"type":"Feature","geometry":{"type":"Point","coordinates":[-71.57417,-33.11861]},"properties":{"nombre":"13° COMPAÑIA CBV","region":"Valparaíso","fuente":"kmz"}},{"type":"Feature","geometry":{"type":"Point","coordinates":[-71.67111,-33.1025]},"properties":{"nombre":"16° COMPAÑIA CBV","region":"Valparaíso","fuente":"kmz"}},{"type":"Feature","geometry":{"type":"Point","coordinates":[-71.63194,-33.44861]},"properties":{"nombre":"Alto Chepica","region":"Valparaíso","fuente":"kmz"}},{"type":"Feature","geometry":{"type":"Point","coordinates":[-71.35,-33.03306]},"properties":{"nombre":"CAJON DEL LEBU","region":"Valparaíso","fuente":"kmz"}},{"type":"Feature","geometry":{"type":"Point","coordinates":[-71.50556,-33.03861]},"properties":{"nombre":"CANAL BEAGLE","region":"Valparaíso","fuente":"kmz"}},{"type":"Feature","geometry":{"type":"Point","coordinates":[-71.48472,-33.03583]},"properties":{"nombre":"CANAL CHACAO","region":"Valparaíso","fuente":"kmz"}},{"type":"Feature","geometry":{"type":"Point","coordinates":[-71.65083,-33.35694]},"properties":{"nombre":"CEMENTERIO ALGARROBO","region":"Valparaíso","fuente":"kmz"}},{"type":"Feature","geometry":{"type":"Point","coordinates":[-71.41944,-33.03722]},"properties":{"nombre":"CEMENTERIO BELLOTO","region":"Valparaíso","fuente":"kmz"}},{"type":"Feature","geometry":{"type":"Point","coordinates":[-71.62056,-33.08194]},"properties":{"nombre":"CEMENTERIO DEL PUERTO","region":"Valparaíso","fuente":"kmz"}},{"type":"Feature","geometry":{"type":"Point","coordinates":[-71.27139,-33.01444]},"properties":{"nombre":"CEMENTERIO LIMACHE","region":"Valparaíso","fuente":"kmz"}},{"type":"Feature","geometry":{"type":"Point","coordinates":[-71.2,-32.74639]},"properties":{"nombre":"CEMENTERIO NOGALES","region":"Valparaíso","fuente":"kmz"}},{"type":"Feature","geometry":{"type":"Point","coordinates":[-71.61556,-33.57361]},"properties":{"nombre":"CERRO LA VIRGEN","region":"Valparaíso","fuente":"kmz"}},{"type":"Feature","geometry":{"type":"Point","coordinates":[-71.65333,-33.39083]},"properties":{"nombre":"COLEGIO PUKALAN","region":"Valparaíso","fuente":"kmz"}},{"type":"Feature","geometry":{"type":"Point","coordinates":[-71.58,-33.11333]},"properties":{"nombre":"COLEGIO UMBRAL","region":"Valparaíso","fuente":"kmz"}},{"type":"Feature","geometry":{"type":"Point","coordinates":[-71.60583,-33.56722]},"properties":{"nombre":"CONSULTORIO BELLAVISTA","region":"Valparaíso","fuente":"kmz"}},{"type":"Feature","geometry":{"type":"Point","coordinates":[-71.33806,-33.04333]},"properties":{"nombre":"COPA  WILSON","region":"Valparaíso","fuente":"kmz"}},{"type":"Feature","geometry":{"type":"Point","coordinates":[-71.13028,-32.82778]},"properties":{"nombre":"COPEC HIJUELAS","region":"Valparaíso","fuente":"kmz"}},{"type":"Feature","geometry":{"type":"Point","coordinates":[-71.27889,-32.97972]},"properties":{"nombre":"COPEC NORTE","region":"Valparaíso","fuente":"kmz"}},{"type":"Feature","geometry":{"type":"Point","coordinates":[-71.63722,-33.06639]},"properties":{"nombre":"CRUCE BUEN AMIGO","region":"Valparaíso","fuente":"kmz"}},{"type":"Feature","geometry":{"type":"Point","coordinates":[-71.56889,-33.55639]},"properties":{"nombre":"CRUCE CARTAGENA","region":"Valparaíso","fuente":"kmz"}},{"type":"Feature","geometry":{"type":"Point","coordinates":[-71.26028,-32.56444]},"properties":{"nombre":"CRUCE CATAPILCO","region":"Valparaíso","fuente":"kmz"}},{"type":"Feature","geometry":{"type":"Point","coordinates":[-71.34167,-33.14972]},"properties":{"nombre":"CRUCE COLLIGUAY","region":"Valparaíso","fuente":"kmz"}},{"type":"Feature","geometry":{"type":"Point","coordinates":[-71.60111,-33.78083]},"properties":{"nombre":"CRUCE EL CONVENTO","region":"Valparaíso","fuente":"kmz"}},{"type":"Feature","geometry":{"type":"Point","coordinates":[-71.44472,-33.44083]},"properties":{"nombre":"CRUCE LAGUNILLAS","region":"Valparaíso","fuente":"kmz"}},{"type":"Feature","geometry":{"type":"Point","coordinates":[-71.4575,-33.61139]},"properties":{"nombre":"CRUCE LEYDA","region":"Valparaíso","fuente":"kmz"}},{"type":"Feature","geometry":{"type":"Point","coordinates":[-71.45,-33.24417]},"properties":{"nombre":"CRUCE LO OROZCO","region":"Valparaíso","fuente":"kmz"}},{"type":"Feature","geometry":{"type":"Point","coordinates":[-71.39222,-33.42139]},"properties":{"nombre":"CRUCE LOS MAITENES","region":"Valparaíso","fuente":"kmz"}},{"type":"Feature","geometry":{"type":"Point","coordinates":[-71.345,-33.13639]},"properties":{"nombre":"CRUCE LOS PERALES","region":"Valparaíso","fuente":"kmz"}},{"type":"Feature","geometry":{"type":"Point","coordinates":[-71.48611,-33.21083]},"properties":{"nombre":"CRUCE MELOSILLA","region":"Valparaíso","fuente":"kmz"}},{"type":"Feature","geometry":{"type":"Point","coordinates":[-71.44639,-33.37861]},"properties":{"nombre":"CRUCE ORREGO","region":"Valparaíso","fuente":"kmz"}},{"type":"Feature","geometry":{"type":"Point","coordinates":[-71.55972,-33.11333]},"properties":{"nombre":"CRUCE PLACILLA","region":"Valparaíso","fuente":"kmz"}},{"type":"Feature","geometry":{"type":"Point","coordinates":[-71.41806,-32.73806]},"properties":{"nombre":"CRUCE PUCHUNCAVI-NOGALES","region":"Valparaíso","fuente":"kmz"}},{"type":"Feature","geometry":{"type":"Point","coordinates":[-71.32667,-32.43278]},"properties":{"nombre":"CRUCE PULLALLY","region":"Valparaíso","fuente":"kmz"}},{"type":"Feature","geometry":{"type":"Point","coordinates":[-71.53972,-33.16417]},"properties":{"nombre":"CRUCE QUINTAY","region":"Valparaíso","fuente":"kmz"}},{"type":"Feature","geometry":{"type":"Point","coordinates":[-71.47278,-32.80194]},"properties":{"nombre":"CRUCE QUINTERO","region":"Valparaíso","fuente":"kmz"}},{"type":"Feature","geometry":{"type":"Point","coordinates":[-71.17028,-32.78583]},"properties":{"nombre":"CRUCE RUTA 5 - CALERA","region":"Valparaíso","fuente":"kmz"}},{"type":"Feature","geometry":{"type":"Point","coordinates":[-70.59444,-32.82417]},"properties":{"nombre":"CRUCE SAN ESTEBAN","region":"Valparaíso","fuente":"kmz"}},{"type":"Feature","geometry":{"type":"Point","coordinates":[-71.28778,-32.93194]},"properties":{"nombre":"CRUCE SAN PEDRO","region":"Valparaíso","fuente":"kmz"}},{"type":"Feature","geometry":{"type":"Point","coordinates":[-71.4425,-32.80667]},"properties":{"nombre":"CRUCE VALLE ALEGRE","region":"Valparaíso","fuente":"kmz"}},{"type":"Feature","geometry":{"type":"Point","coordinates":[-71.32194,-32.44417]},"properties":{"nombre":"CRUCE ZAPALLAR","region":"Valparaíso","fuente":"kmz"}},{"type":"Feature","geometry":{"type":"Point","coordinates":[-71.60167,-33.09472]},"properties":{"nombre":"CUESTA BALMACEDA","region":"Valparaíso","fuente":"kmz"}},{"type":"Feature","geometry":{"type":"Point","coordinates":[-71.23972,-32.60722]},"properties":{"nombre":"CUESTA EL MELON","region":"Valparaíso","fuente":"kmz"}},{"type":"Feature","geometry":{"type":"Point","coordinates":[-71.29694,-32.76778]},"properties":{"nombre":"CUESTA LOS MAQUIS-NOGALES","region":"Valparaíso","fuente":"kmz"}},{"type":"Feature","geometry":{"type":"Point","coordinates":[-70.6875,-32.78417]},"properties":{"nombre":"CURIMON","region":"Valparaíso","fuente":"kmz"}},{"type":"Feature","geometry":{"type":"Point","coordinates":[-71.66806,-33.12639]},"properties":{"nombre":"ECO FERIA","region":"Valparaíso","fuente":"kmz"}},{"type":"Feature","geometry":{"type":"Point","coordinates":[-71.25583,-32.46222]},"properties":{"nombre":"EL RAYADO","region":"Valparaíso","fuente":"kmz"}},{"type":"Feature","geometry":{"type":"Point","coordinates":[-71.44167,-33.03861]},"properties":{"nombre":"EL RETIRO","region":"Valparaíso","fuente":"kmz"}},{"type":"Feature","geometry":{"type":"Point","coordinates":[-71.56278,-33.50333]},"properties":{"nombre":"ENLACE AUTOPISTA LITORAL - CASABLANCA","region":"Valparaíso","fuente":"kmz"}},{"type":"Feature","geometry":{"type":"Point","coordinates":[-71.63389,-33.37861]},"properties":{"nombre":"ENLACE CAMINO COSTERO","region":"Valparaíso","fuente":"kmz"}},{"type":"Feature","geometry":{"type":"Point","coordinates":[-71.23194,-32.87694]},"properties":{"nombre":"ENLACE LA PALMA","region":"Valparaíso","fuente":"kmz"}},{"type":"Feature","geometry":{"type":"Point","coordinates":[-71.56111,-33.50361]},"properties":{"nombre":"ENLACE QUILLAICILLO","region":"Valparaíso","fuente":"kmz"}},{"type":"Feature","geometry":{"type":"Point","coordinates":[-71.20222,-32.72278]},"properties":{"nombre":"ENLACE RUTA 5 NOGALES","region":"Valparaíso","fuente":"kmz"}},{"type":"Feature","geometry":{"type":"Point","coordinates":[-70.70722,-32.76833]},"properties":{"nombre":"ENLACE SAN FELIPE","region":"Valparaíso","fuente":"kmz"}},{"type":"Feature","geometry":{"type":"Point","coordinates":[-71.55611,-33.06972]},"properties":{"nombre":"ENTRADA RODELILLO","region":"Valparaíso","fuente":"kmz"}},{"type":"Feature","geometry":{"type":"Point","coordinates":[-71.26806,-32.99722]},"properties":{"nombre":"ESTADIO LIMACHE","region":"Valparaíso","fuente":"kmz"}},{"type":"Feature","geometry":{"type":"Point","coordinates":[-70.94583,-32.84528]},"properties":{"nombre":"ESTADIO LLAY LLAY","region":"Valparaíso","fuente":"kmz"}},{"type":"Feature","geometry":{"type":"Point","coordinates":[-71.42,-33.03583]},"properties":{"nombre":"EX BASURAL BELLOTO","region":"Valparaíso","fuente":"kmz"}},{"type":"Feature","geometry":{"type":"Point","coordinates":[-71.61417,-33.63444]},"properties":{"nombre":"EXTERIOR-PALMA 2","region":"Valparaíso","fuente":"kmz"}},{"type":"Feature","geometry":{"type":"Point","coordinates":[-71.57333,-33.15556]},"properties":{"nombre":"FUNDO LA MARIPOSA","region":"Valparaíso","fuente":"kmz"}},{"type":"Feature","geometry":{"type":"Point","coordinates":[-71.58889,-33.59306]},"properties":{"nombre":"FUNDO MIRAMAR","region":"Valparaíso","fuente":"kmz"}},{"type":"Feature","geometry":{"type":"Point","coordinates":[-71.25694,-32.44972]},"properties":{"nombre":"HELIPISTA LA LIGUA","region":"Valparaíso","fuente":"kmz"}},{"type":"Feature","geometry":{"type":"Point","coordinates":[-71.36861,-33.03694]},"properties":{"nombre":"HELIPISTA LOS MARISTAS","region":"Valparaíso","fuente":"kmz"}},{"type":"Feature","geometry":{"type":"Point","coordinates":[-71.21778,-32.99028]},"properties":{"nombre":"HELIPISTA OLMUE (SHOL)","region":"Valparaíso","fuente":"kmz"}},{"type":"Feature","geometry":{"type":"Point","coordinates":[-71.55917,-33.06972]},"properties":{"nombre":"HELIPISTA PALMA-1","region":"Valparaíso","fuente":"kmz"}},{"type":"Feature","geometry":{"type":"Point","coordinates":[-71.49972,-33.18444]},"properties":{"nombre":"HELIPISTA PEÑUELAS","region":"Valparaíso","fuente":"kmz"}},{"type":"Feature","geometry":{"type":"Point","coordinates":[-71.64028,-33.4275]},"properties":{"nombre":"LA CRUZ","region":"Valparaíso","fuente":"kmz"}},{"type":"Feature","geometry":{"type":"Point","coordinates":[-71.49889,-32.9725]},"properties":{"nombre":"LA CUCA","region":"Valparaíso","fuente":"kmz"}},{"type":"Feature","geometry":{"type":"Point","coordinates":[-71.37472,-33.09944]},"properties":{"nombre":"LA GRUTA","region":"Valparaíso","fuente":"kmz"}},{"type":"Feature","geometry":{"type":"Point","coordinates":[-71.39472,-33.03333]},"properties":{"nombre":"LAS AMERICAS","region":"Valparaíso","fuente":"kmz"}},{"type":"Feature","geometry":{"type":"Point","coordinates":[-71.5825,-33.48139]},"properties":{"nombre":"LAS CRUCES (PEAJE TRONCAL)","region":"Valparaíso","fuente":"kmz"}},{"type":"Feature","geometry":{"type":"Point","coordinates":[-71.22333,-33.00083]},"properties":{"nombre":"LO GAMBOA","region":"Valparaíso","fuente":"kmz"}},{"type":"Feature","geometry":{"type":"Point","coordinates":[-71.44,-33.25528]},"properties":{"nombre":"LO VASQUEZ","region":"Valparaíso","fuente":"kmz"}},{"type":"Feature","geometry":{"type":"Point","coordinates":[-71.36861,-32.92861]},"properties":{"nombre":"LOS AROMOS","region":"Valparaíso","fuente":"kmz"}},{"type":"Feature","geometry":{"type":"Point","coordinates":[-71.55889,-33.19389]},"properties":{"nombre":"MINA DE CUARZO","region":"Valparaíso","fuente":"kmz"}},{"type":"Feature","geometry":{"type":"Point","coordinates":[-71.00917,-33.06167]},"properties":{"nombre":"MIRADOR CUESTA LA DORMIDA","region":"Valparaíso","fuente":"kmz"}},{"type":"Feature","geometry":{"type":"Point","coordinates":[-71.66306,-33.08278]},"properties":{"nombre":"MIRADOR LAGUNA VERDE","region":"Valparaíso","fuente":"kmz"}},{"type":"Feature","geometry":{"type":"Point","coordinates":[-71.61917,-33.49278]},"properties":{"nombre":"MUNICIPALIDAD EL TABO","region":"Valparaíso","fuente":"kmz"}},{"type":"Feature","geometry":{"type":"Point","coordinates":[-71.61139,-33.63333]},"properties":{"nombre":"MUNICIPALIDAD SANTO DOMINGO","region":"Valparaíso","fuente":"kmz"}},{"type":"Feature","geometry":{"type":"Point","coordinates":[-71.41972,-33.0375]},"properties":{"nombre":"NORTE BELLOTO","region":"Valparaíso","fuente":"kmz"}},{"type":"Feature","geometry":{"type":"Point","coordinates":[-71.37139,-33.03472]},"properties":{"nombre":"NORTE VILLA ALEMANA","region":"Valparaíso","fuente":"kmz"}},{"type":"Feature","geometry":{"type":"Point","coordinates":[-71.58083,-33.12833]},"properties":{"nombre":"OBISPO VALDES","region":"Valparaíso","fuente":"kmz"}},{"type":"Feature","geometry":{"type":"Point","coordinates":[-70.85417,-32.78278]},"properties":{"nombre":"PANQUEHUE","region":"Valparaíso","fuente":"kmz"}},{"type":"Feature","geometry":{"type":"Point","coordinates":[-71.4975,-33.40028]},"properties":{"nombre":"PEAJE CARTAGENA","region":"Valparaíso","fuente":"kmz"}},{"type":"Feature","geometry":{"type":"Point","coordinates":[-71.47361,-33.47167]},"properties":{"nombre":"PEAJE LAGUNILLAS","region":"Valparaíso","fuente":"kmz"}},{"type":"Feature","geometry":{"type":"Point","coordinates":[-70.98944,-32.84389]},"properties":{"nombre":"PEAJE LAS VEGAS","region":"Valparaíso","fuente":"kmz"}},{"type":"Feature","geometry":{"type":"Point","coordinates":[-71.16361,-33.02278]},"properties":{"nombre":"PELUMPEN","region":"Valparaíso","fuente":"kmz"}},{"type":"Feature","geometry":{"type":"Point","coordinates":[-71.61611,-33.65611]},"properties":{"nombre":"PISTA SANTO DOMINGO","region":"Valparaíso","fuente":"kmz"}},{"type":"Feature","geometry":{"type":"Point","coordinates":[-71.42639,-33.06111]},"properties":{"nombre":"PLAZA LOS PINOS","region":"Valparaíso","fuente":"kmz"}},{"type":"Feature","geometry":{"type":"Point","coordinates":[-70.58028,-32.79917]},"properties":{"nombre":"PLAZA SAN ESTEBAN","region":"Valparaíso","fuente":"kmz"}},{"type":"Feature","geometry":{"type":"Point","coordinates":[-71.43694,-32.93083]},"properties":{"nombre":"PUENTE COLMO","region":"Valparaíso","fuente":"kmz"}},{"type":"Feature","geometry":{"type":"Point","coordinates":[-71.26778,-32.8925]},"properties":{"nombre":"PUENTE EL BOCO","region":"Valparaíso","fuente":"kmz"}},{"type":"Feature","geometry":{"type":"Point","coordinates":[-71.47722,-33.29083]},"properties":{"nombre":"PUENTE LA DRAGA","region":"Valparaíso","fuente":"kmz"}},{"type":"Feature","geometry":{"type":"Point","coordinates":[-71.55389,-33.11028]},"properties":{"nombre":"PUERTA 2","region":"Valparaíso","fuente":"kmz"}},{"type":"Feature","geometry":{"type":"Point","coordinates":[-71.66806,-33.10444]},"properties":{"nombre":"RETEN LAGUNA VERDE","region":"Valparaíso","fuente":"kmz"}},{"type":"Feature","geometry":{"type":"Point","coordinates":[-71.55778,-33.06806]},"properties":{"nombre":"RHONA","region":"Valparaíso","fuente":"kmz"}},{"type":"Feature","geometry":{"type":"Point","coordinates":[-71.60694,-33.55417]},"properties":{"nombre":"ROTONDA NUEVO ACCESO","region":"Valparaíso","fuente":"kmz"}},{"type":"Feature","geometry":{"type":"Point","coordinates":[-71.51194,-32.99889]},"properties":{"nombre":"SANTA JULIA","region":"Valparaíso","fuente":"kmz"}},{"type":"Feature","geometry":{"type":"Point","coordinates":[-71.54444,-33.07556]},"properties":{"nombre":"SUB ESTACION LAS PALMAS","region":"Valparaíso","fuente":"kmz"}},{"type":"Feature","geometry":{"type":"Point","coordinates":[-71.15444,-32.80083]},"properties":{"nombre":"TENENCIA HIJUELAS","region":"Valparaíso","fuente":"kmz"}},{"type":"Feature","geometry":{"type":"Point","coordinates":[-71.33722,-33.05222]},"properties":{"nombre":"TENENCIA PEÑABLANCA","region":"Valparaíso","fuente":"kmz"}},{"type":"Feature","geometry":{"type":"Point","coordinates":[-71.56056,-33.1475]},"properties":{"nombre":"TENENCIA PEÑUELAS","region":"Valparaíso","fuente":"kmz"}},{"type":"Feature","geometry":{"type":"Point","coordinates":[-71.58,-33.12694]},"properties":{"nombre":"TRANQUE LA LUZ","region":"Valparaíso","fuente":"kmz"}},{"type":"Feature","geometry":{"type":"Point","coordinates":[-71.37917,-33.08694]},"properties":{"nombre":"TRANQUE RECREO","region":"Valparaíso","fuente":"kmz"}},{"type":"Feature","geometry":{"type":"Point","coordinates":[-71.54361,-33.63583]},"properties":{"nombre":"TRANQUE SAN JUAN","region":"Valparaíso","fuente":"kmz"}},{"type":"Feature","geometry":{"type":"Point","coordinates":[-71.27361,-33.38472]},"properties":{"nombre":"TUNEL ZAPATA","region":"Valparaíso","fuente":"kmz"}},{"type":"Feature","geometry":{"type":"Point","coordinates":[-71.38389,-33.36028]},"properties":{"nombre":"VARIANTE ALGARROBO","region":"Valparaíso","fuente":"kmz"}},{"type":"Feature","geometry":{"type":"Point","coordinates":[-71.375,-33.09972]},"properties":{"nombre":"VIRGEN DE LOS MOLLES","region":"Valparaíso","fuente":"kmz"}},{"type":"Feature","geometry":{"type":"Point","coordinates":[-71.45139,-33.04139]},"properties":{"nombre":"ZOOLOGICO QUILPUE","region":"Valparaíso","fuente":"kmz"}}],"bbox":[-73.87069,-47.28723,-70.37911,-32.43278]}