<?xml version="1.0" encoding="utf-8" ?>
<kml xmlns="http://www.opengis.net/kml/2.2">
<Document id="root_doc">
<Schema name="pampa_las_parcelas" id="pampa_las_parcelas">
	<SimpleField name="fid" type="float"></SimpleField>
	<SimpleField name="Leng" type="float"></SimpleField>
</Schema>
<Folder><name>pampa_las_parcelas</name>
  <Placemark>
	<Style><LineStyle><color>ff0000ff</color></LineStyle><PolyStyle><fill>0</fill></PolyStyle></Style>
	<ExtendedData><SchemaData schemaUrl="#pampa_las_parcelas">
		<SimpleData name="fid">1</SimpleData>
	</SchemaData></ExtendedData>
      <LineString><coordinates>-72.9463388858061,-39.5350481629448 -72.9467844428207,-39.5351535983201 -72.9470230697141,-39.5351899386067 -72.947205225392,-39.5352133830261 -72.9475579462534,-39.5352886207654 -72.9476432463925,-39.5353139228992 -72.9479338089547,-39.5353606968357 -72.9481710766403,-39.5353910619143 -72.9483166559112,-39.535404340527 -72.9484433212897,-39.535381591888 -72.948540602619,-39.5353131130351 -72.9486459524926,-39.5351793391624 -72.9488847316163,-39.5348974146578 -72.9490461670618,-39.5346852132504 -72.9491687050936,-39.5346460316029 -72.9493884087389,-39.5347510397318 -72.9495769128826,-39.5348198037591 -72.9496736982312,-39.5348203218918 -72.9498132434926,-39.5348819753078 -72.9499197029599,-39.5349192493867 -72.9501215747668,-39.5350037154126 -72.9502954191455,-39.5351007741539 -72.9504034813103,-39.5351880464425 -72.9505375112374,-39.5352805357503 -72.9505676311574,-39.5353012931216 -72.9506866136648,-39.5353307564336 -72.9508206421035,-39.5353188429942 -72.9509020423724,-39.5352155787033 -72.9509194282852,-39.5351468785931 -72.9509372720456,-39.5350103696073 -72.9509118651399,-39.5348293738033 -72.9508268331735,-39.5346904556618 -72.9507370719674,-39.5345556182485 -72.9506961269679,-39.5344849970579 -72.9506532353257,-39.5344283213291 -72.9505957805736,-39.5342399190197 -72.9506278186304,-39.5341432203116 -72.9506463238383,-39.534036467297 -72.950627779766,-39.5339356045655 -72.9506151861497,-39.5338413905235 -72.9506384732628,-39.5337287729904 -72.9506869489208,-39.5336478311977 -72.950719100221,-39.5335472676932 -72.9507222394422,-39.5334405410907 -72.9506676225215,-39.5333646222278 -72.9506124649573,-39.5331503828941 -72.9505749157745,-39.5330688161634 -72.9505335641737,-39.5329598176124 -72.9505412057067,-39.5328567397342 -72.950612019766,-39.5327476374521 -72.950730371687,-39.5327461555169 -72.9508378371837,-39.5326968906171 -72.950857754854,-39.5325943266493 -72.9508451261155,-39.5325013017647 -72.9508383284998,-39.5323667377124 -72.9508385653873,-39.5322019585421 -72.9508279969917,-39.5320911234137 -72.9508256863513,-39.532065205134 -72.9508393419529,-39.5319143449756 -72.9508529799947,-39.5317640793878 -72.9508490756538,-39.531687865153 -72.9508448859494,-39.5315691115503 -72.950814939988,-39.5314380060036 -72.9508308186273,-39.5313160369981 -72.9508483433597,-39.5312425802123 -72.9508448849261,-39.5311512042466 -72.950790372094,-39.5309673154844 -72.9507718022068,-39.5308673446078 -72.950795993988,-39.5307761588282</coordinates></LineString>
  </Placemark>
</Folder>
</Document></kml>
