<?xml version="1.0" encoding="utf-8" ?>
<kml xmlns="http://www.opengis.net/kml/2.2">
<Document id="root_doc">
<Schema name="pampa_predios_mariquina_16_y_rucahue" id="pampa_predios_mariquina_16_y_rucahue">
	<SimpleField name="fid" type="float"></SimpleField>
	<SimpleField name="Leng" type="float"></SimpleField>
</Schema>
<Folder><name>pampa_predios_mariquina_16_y_rucahue</name>
  <Placemark>
	<Style><LineStyle><color>ff0000ff</color></LineStyle><PolyStyle><fill>0</fill></PolyStyle></Style>
	<ExtendedData><SchemaData schemaUrl="#pampa_predios_mariquina_16_y_rucahue">
		<SimpleData name="fid">1</SimpleData>
		<SimpleData name="Leng">829.779899091667</SimpleData>
	</SchemaData></ExtendedData>
      <LineString><coordinates>-72.95588602728,-39.534290275437 -72.9560673851635,-39.5346028064732 -72.9562488841657,-39.53491058062 -72.9564242417849,-39.5352182464688 -72.9565109444913,-39.5354053757345 -72.9565561815638,-39.5355394257439 -72.9566441406386,-39.5356837452224 -72.9567124154707,-39.5358705502608 -72.9567104622932,-39.5359371431259 -72.9565810406283,-39.5359491443812 -72.9564241131397,-39.535851202738 -72.9563076752936,-39.5358396366144 -72.9560598621682,-39.5359066638933 -72.9555064339306,-39.5359159635604 -72.9553664014116,-39.5358706677232 -72.9552351647156,-39.535735103877 -72.9551786214682,-39.5355675408032 -72.9550947146073,-39.5352852780577 -72.9550337045713,-39.5350605272609 -72.954931649393,-39.5347684268065 -72.9547976228061,-39.5347279950916 -72.9546984986858,-39.5347548048102 -72.9545757804819,-39.5347478855003 -72.9543296458166,-39.5347578296288 -72.9541265113479,-39.5347685303698 -72.9539318945681,-39.534698476285 -72.9538456147731,-39.5347064751071 -72.9537583612736,-39.5345383705411 -72.953756828745,-39.5343812937155 -72.9538220292709,-39.534253946597 -72.9539001787738,-39.5341042218019 -72.9539040902383,-39.5339710362626 -72.9538856655627,-39.5337613120104 -72.953854536315,-39.5335656412862 -72.9538579937826,-39.5334479147753 -72.9538191852906,-39.5333044587603 -72.9538369189469,-39.5331191666595 -72.9538500114599,-39.5328826326344 -72.9538899409924,-39.5327786358555 -72.9540235474871,-39.532623938616 -72.9541870288209,-39.5324983217422 -72.9543119775661,-39.5324291352991 -72.9544365071148,-39.5323742186025</coordinates></LineString>
  </Placemark>
</Folder>
</Document></kml>
